{"type":"Feature","properties":{"GID_2":"ARG.7.12_1","GID_0":"ARG","country":"Argentina","GID_1":"ARG.7_1","state":"Corrientes","NL_NAME_1":"NA","county":"Ituzaingó","VARNAME_2":"NA","NL_NAME_2":"NA","TYPE_2":"Departamento","ENGTYPE_2":"Department","CC_2":"NA","HASC_2":"AR.CN.IZ","name":"Ituzaingó.county"},
"geometry":{"type": "MultiPolygon","coordinates": [[[[-57.6239,-28.5966,58.2946],[-57.5667,-28.5817,58.2069],[-57.5071,-28.5729,57.0],[-57.4367,-28.5575,58.7302],[-57.3538,-28.5427,60.1595],[-57.3083,-28.5284,60.7485],[-57.291,-28.5193,60.78],[-57.2603,-28.5071,61.1315],[-57.2363,-28.4941,61.5318],[-57.2268,-28.4875,61.6242],[-57.2078,-28.4692,61.8691],[-57.1812,-28.4531,61.9297],[-57.1599,-28.4368,62.1149],[-57.1396,-28.4254,62.1919],[-57.1089,-28.4023,62.511],[-57.0924,-28.3921,62.8158],[-57.0715,-28.3754,62.9141],[-57.0577,-28.3681,63.1465],[-57.0321,-28.3407,63.4546],[-57.0162,-28.3299,63.6483],[-56.9907,-28.3072,64.4467],[-56.9477,-28.2602,65.2574],[-56.8994,-28.2175,66.561],[-56.8774,-28.1921,67.2467],[-56.8562,-28.1618,64.0],[-56.8244,-28.1208,65.5],[-56.8091,-28.0958,65.5],[-56.7957,-28.0781,65.5],[-56.7862,-28.0546,65.5],[-56.7578,-28.0077,67.9161],[-56.7451,-27.9991,68.1085],[-56.7265,-27.9759,68.5388],[-56.714,-27.9669,68.6248],[-56.6984,-27.9507,68.8227],[-56.6785,-27.9241,69.3539],[-56.666,-27.8979,69.6857],[-56.6592,-27.8737,69.9604],[-56.6532,-27.8605,70.1826],[-56.6427,-27.8454,70.434],[-56.6311,-27.8358,70.5055],[-56.6289,-27.8389,70.4673],[-56.6097,-27.8516,70.3913],[-56.5768,-27.8717,70.5033],[-56.5515,-27.8944,70.3905],[-56.5147,-27.9158,79.3441],[-56.5002,-27.9218,80.823],[-56.491,-27.9158,81.2752],[-56.4678,-27.8825,81.5463],[-56.4543,-27.8694,85.827],[-56.4507,-27.8706,85.3832],[-56.4398,-27.881,82.8208],[-56.4175,-27.8961,85.4646],[-56.4136,-27.897,81.2204],[-56.4102,-27.8954,80.9752],[-56.3983,-27.8853,79.7022],[-56.3951,-27.885,81.7564],[-56.3648,-27.9084,82.762],[-56.3575,-27.9112,82.2322],[-56.3549,-27.9087,81.5662],[-56.3493,-27.8955,82.8894],[-56.3389,-27.8905,83.3004],[-56.3304,-27.8829,83.2614],[-56.325,-27.8696,81.2242],[-56.3094,-27.8679,72.7747],[-56.3007,-27.861,82.7373],[-56.2905,-27.8456,75.4149],[-56.2883,-27.8315,75.0807],[-56.2906,-27.8175,84.8627],[-56.2731,-27.7968,99.2686],[-56.2649,-27.7657,85.9423],[-56.2627,-27.7628,85.1913],[-56.2557,-27.7592,81.391],[-56.2478,-27.7588,77.4026],[-56.2255,-27.7668,75.4634],[-56.2019,-27.7703,77.6677],[-56.1712,-27.7869,80.8829],[-56.1642,-27.7997,81.2101],[-56.1632,-27.8209,82.1291],[-56.1507,-27.8297,90.8131],[-56.1431,-27.832,85.1635],[-56.1272,-27.8302,87.0213],[-56.1193,-27.8308,87.5391],[-56.0853,-27.8413,91.7504],[-56.0695,-27.8432,94.4042],[-56.0582,-27.8468,95.5652],[-56.0413,-27.8563,98.032],[-56.0246,-27.8716,117.7727],[-56.0083,-27.8819,114.6465],[-55.9983,-27.893,135.4953],[-55.9874,-27.8972,134.9527],[-55.9676,-27.8999,145.5372],[-55.9556,-27.8997,169.0159],[-55.9406,-27.8953,166.747],[-55.9289,-27.8974,178.7144],[-55.9094,-27.9244,166.0281],[-55.9039,-27.9295,157.298],[-55.9008,-27.936,136.7791],[-55.9019,-27.9537,157.5473],[-55.8993,-27.9785,117.3495],[-55.9044,-27.9993,131.2401],[-55.904,-28.0063,125.5681],[-55.9009,-28.0087,133.5521],[-55.893,-28.0092,116.2023],[-55.8782,-28.0041,94.1431],[-55.8369,-27.9606,111.7144],[-55.8199,-27.9484,98.2418],[-55.8236,-27.9417,103.3983],[-55.8188,-27.9287,115.8439],[-55.8185,-27.9236,104.0782],[-55.8224,-27.9103,100.8464],[-55.8333,-27.8972,105.8717],[-55.8358,-27.8895,105.0467],[-55.8356,-27.8732,119.8435],[-55.8321,-27.8573,137.5303],[-55.8447,-27.8387,127.3151],[-55.846,-27.8334,128.5706],[-55.8448,-27.8281,135.9829],[-55.8404,-27.821,165.3215],[-55.833,-27.8124,157.4496],[-55.8313,-27.8044,192.3266],[-55.8504,-27.7616,197.1899],[-55.8658,-27.7364,174.4942],[-55.8946,-27.6972,116.9535],[-55.9339,-27.6174,158.87],[-55.9564,-27.5787,176.6596],[-55.9749,-27.5595,167.6711],[-55.9857,-27.5422,159.1564],[-55.9869,-27.5378,140.9738],[-56.0003,-27.5269,124.2332],[-56.0153,-27.5178,130.4639],[-56.0215,-27.5086,114.427],[-56.0283,-27.5033,110.3113],[-56.0423,-27.4705,113.7219],[-56.0579,-27.4578,107.5955],[-56.0596,-27.4282,107.8742],[-56.0585,-27.4257,98.2127],[-56.0511,-27.421,88.7447],[-56.0453,-27.4147,86.2564],[-56.0421,-27.3988,80.0],[-56.0345,-27.3871,80.0],[-56.034,-27.3735,80.0],[-56.0374,-27.3691,80.0],[-56.0399,-27.356,80.6641],[-56.0395,-27.3534,80.0],[-56.0285,-27.3445,80.0],[-56.0284,-27.3205,80.0],[-56.0413,-27.3122,80.0],[-56.0596,-27.3044,80.0],[-56.1064,-27.3044,80.0],[-56.1435,-27.3125,80.0],[-56.17,-27.3286,80.0],[-56.2173,-27.3768,80.0],[-56.2285,-27.3844,80.0],[-56.2375,-27.3884,80.0],[-56.267,-27.3982,80.0],[-56.2827,-27.4085,80.0],[-56.2866,-27.4161,80.0],[-56.2883,-27.4268,80.0],[-56.2877,-27.4363,80.0],[-56.2839,-27.4466,80.0],[-56.2828,-27.4564,80.0],[-56.2841,-27.4721,80.0],[-56.2876,-27.4843,80.0],[-56.2896,-27.488,80.0],[-56.3081,-27.5059,80.0],[-56.3399,-27.5298,80.0],[-56.3489,-27.5404,80.0],[-56.3574,-27.558,80.0],[-56.3556,-27.5696,80.0],[-56.3563,-27.5767,80.0],[-56.3607,-27.5912,80.0],[-56.3641,-27.5958,80.0],[-56.3688,-27.5988,80.0],[-56.3832,-27.6044,80.0],[-56.4001,-27.6059,80.0],[-56.4248,-27.6035,80.0],[-56.4336,-27.5984,80.0],[-56.445,-27.5858,91.5016],[-56.4527,-27.5808,80.0],[-56.4582,-27.5789,80.0],[-56.4712,-27.5822,80.0],[-56.4822,-27.5784,80.0],[-56.4873,-27.5728,80.0],[-56.4929,-27.5626,80.0],[-56.5037,-27.5382,80.0],[-56.5114,-27.5158,80.0],[-56.519,-27.5031,80.0],[-56.548,-27.4694,80.0],[-56.5641,-27.4562,80.0],[-56.581,-27.4494,80.0],[-56.5981,-27.4451,80.0],[-56.6545,-27.4588,80.0],[-56.6676,-27.4604,80.0],[-56.6875,-27.4572,80.0],[-56.7033,-27.4591,80.0],[-56.7077,-27.4616,80.0],[-56.7161,-27.47,80.0],[-56.7188,-27.4754,80.0],[-56.7211,-27.4896,55.0],[-56.7179,-27.5151,55.0],[-56.7196,-27.5222,55.0],[-56.7373,-27.5595,56.9355],[-56.7484,-27.5683,57.0375],[-56.7925,-27.5812,54.5],[-56.8211,-27.5966,54.5],[-56.842,-27.6031,54.5],[-56.85,-27.6042,54.5],[-56.8569,-27.6032,54.5],[-56.8808,-27.5956,54.0],[-56.8979,-27.5868,54.0],[-56.9138,-27.5744,54.0],[-56.9458,-27.5391,54.0],[-56.9625,-27.5264,53.5],[-56.9603,-27.5406,65.456],[-56.9622,-27.5511,69.4619],[-56.971,-27.5629,72.1692],[-56.9797,-27.5702,71.9738],[-56.9917,-27.5844,71.5646],[-57.0089,-27.599,71.3155],[-57.0507,-27.6109,71.0128],[-57.0722,-27.6203,70.9],[-57.095,-27.6346,70.4874],[-57.1081,-27.648,70.0819],[-57.1168,-27.6716,69.8235],[-57.1243,-27.6841,69.7004],[-57.1341,-27.6952,69.4746],[-57.1758,-27.7226,69.3197],[-57.1865,-27.7331,68.7808],[-57.2112,-27.7815,67.9562],[-57.2276,-27.797,71.9235],[-57.2752,-27.8351,67.1742],[-57.2984,-27.8491,71.1269],[-57.3194,-27.8655,67.4839],[-57.3498,-27.8986,71.7899],[-57.3692,-27.9256,68.8572],[-57.3801,-27.9446,68.8045],[-57.3894,-27.9681,65.5032],[-57.4022,-27.9902,64.5379],[-57.4093,-28.0068,64.2819],[-57.4154,-28.0275,63.4285],[-57.4196,-28.0592,62.5842],[-57.4194,-28.0841,61.7838],[-57.4083,-28.1293,61.0206],[-57.4081,-28.1399,61.0759],[-57.4197,-28.1626,60.5669],[-57.4246,-28.1834,60.0019],[-57.4311,-28.1963,60.044],[-57.4311,-28.2034,60.2003],[-57.4249,-28.2203,60.3264],[-57.4252,-28.2274,60.5758],[-57.4317,-28.2442,60.1107],[-57.4297,-28.2617,60.1713],[-57.4343,-28.2716,60.0932],[-57.4412,-28.2803,58.0],[-57.4542,-28.3023,58.4321],[-57.4637,-28.3089,62.2531],[-57.4814,-28.3172,58.0],[-57.502,-28.3339,60.2866],[-57.5171,-28.3387,60.1483],[-57.5275,-28.3439,59.6072],[-57.5355,-28.3438,59.7724],[-57.5942,-28.3557,58.0859],[-57.6163,-28.3639,57.9019],[-57.655,-28.3874,57.7538],[-57.6444,-28.4163,56.0519],[-57.6419,-28.434,56.4684],[-57.6479,-28.4432,56.6337],[-57.6589,-28.4534,56.6359],[-57.6741,-28.465,56.6795],[-57.6938,-28.476,56.7869],[-57.684,-28.4973,55.3254],[-57.6594,-28.5409,54.0],[-57.6239,-28.5966,58.2946]]]]}}