{"type": "Feature","bbox": [-71.0326,-39.1128,-69.5541,-38.1923],"geometry": {"type": "MultiPolygon","coordinates": [[[[-70.6461,-39.0711,1832.2214],[-70.646,-39.0813,1771.9785],[-70.643,-39.0911,1788.3025],[-70.6378,-39.1003,1795.5166],[-70.6262,-39.1128,2205.3013],[-70.4158,-38.9586,1267.0295],[-70.2396,-38.8265,1116.0769],[-70.184,-38.8017,909.5181],[-70.1653,-38.7988,910.5982],[-70.1333,-38.8004,867.9386],[-70.1164,-38.7932,854.744],[-70.0975,-38.7899,847.761],[-70.0868,-38.785,841.1306],[-70.0733,-38.7741,787.1198],[-70.0618,-38.762,836.8339],[-70.0485,-38.7392,818.7335],[-70.0381,-38.7267,808.8853],[-70.0249,-38.7158,796.5685],[-69.9935,-38.6986,796.9513],[-69.9827,-38.6861,793.088],[-69.9716,-38.6681,775.1404],[-69.9588,-38.6569,776.8854],[-69.9424,-38.6491,734.9326],[-69.8927,-38.64,670.3325],[-69.8868,-38.6383,670.4609],[-69.8713,-38.6294,679.6935],[-69.8409,-38.6223,647.7267],[-69.8203,-38.6103,641.5926],[-69.7965,-38.5935,650.2068],[-69.7893,-38.5854,669.2503],[-69.779,-38.5615,616.7882],[-69.7782,-38.5566,614.215],[-69.7815,-38.5468,611.4908],[-69.7799,-38.5371,593.9447],[-69.7729,-38.5287,594.0358],[-69.7477,-38.5131,599.4697],[-69.7169,-38.5072,584.0662],[-69.7042,-38.5079,574.6658],[-69.6853,-38.5133,563.8596],[-69.6798,-38.5129,559.7486],[-69.6574,-38.4949,590.1876],[-69.6459,-38.4907,616.6777],[-69.6087,-38.4833,568.4855],[-69.564,-38.4836,560.1485],[-69.5541,-38.4815,521.9175],[-69.5619,-38.4743,523.8954],[-69.5766,-38.4646,569.8038],[-69.6194,-38.443,661.4323],[-69.6361,-38.4279,563.3171],[-69.6618,-38.4131,635.8449],[-69.7001,-38.3732,588.0757],[-69.7394,-38.3549,584.555],[-69.743,-38.3505,578.8223],[-69.7487,-38.3487,578.2646],[-69.7686,-38.3361,557.6465],[-69.8104,-38.3241,571.3691],[-69.8674,-38.3207,613.204],[-69.8864,-38.3219,651.1443],[-69.9176,-38.3268,632.6479],[-70.5673,-38.3191,814.9872],[-70.5831,-38.3176,824.5825],[-70.593,-38.3121,824.4292],[-70.604,-38.2995,830.6005],[-70.6163,-38.2759,858.7943],[-70.6234,-38.268,867.7776],[-70.6289,-38.2664,904.1107],[-70.6551,-38.2661,987.0232],[-70.6802,-38.2692,1063.698],[-70.6972,-38.2759,1115.9087],[-70.7151,-38.2902,1180.9041],[-70.7301,-38.3068,1186.2808],[-70.7348,-38.3098,1232.5872],[-70.76,-38.3128,1319.071],[-70.7934,-38.3272,1533.443],[-70.8188,-38.3312,1471.1282],[-70.8304,-38.3285,1513.3042],[-70.8455,-38.3188,1704.1444],[-70.8541,-38.3115,1553.7322],[-70.8705,-38.2899,1981.382],[-70.8802,-38.2834,1869.9596],[-70.8917,-38.2793,1856.7039],[-70.898,-38.2786,1879.8535],[-70.9299,-38.2796,2269.6736],[-70.9471,-38.2733,2414.3271],[-70.9963,-38.1923,2074.085],[-70.9965,-38.2016,2209.3037],[-71.0011,-38.2106,2243.1831],[-71.0153,-38.2105,2252.8948],[-71.021,-38.2142,2209.4392],[-71.0154,-38.2264,2323.9624],[-71.0178,-38.2319,2309.2048],[-71.0177,-38.2388,2324.3672],[-71.0225,-38.245,2573.8765],[-71.0326,-38.2495,2633.2422],[-71.0093,-38.2624,2076.2307],[-71.0103,-38.2704,1805.5562],[-71.0087,-38.278,1739.3364],[-71.0099,-38.282,1847.6177],[-70.997,-38.2915,2081.7332],[-70.9971,-38.2978,2297.4749],[-70.9994,-38.3042,2383.6467],[-71.0031,-38.3075,2489.1797],[-71.0026,-38.3247,2170.0032],[-70.9997,-38.3283,2236.5242],[-70.9958,-38.342,2411.7295],[-70.9966,-38.3555,2396.6477],[-70.9863,-38.3606,2312.0908],[-70.9821,-38.3649,2298.1509],[-70.9863,-38.3753,2303.5854],[-70.984,-38.3874,2367.6729],[-70.9858,-38.3993,2218.7842],[-70.9799,-38.4147,2262.1963],[-70.9838,-38.4307,2147.2866],[-70.9801,-38.4345,2134.7708],[-70.9772,-38.4433,2206.3711],[-70.9722,-38.4447,2177.572],[-70.9689,-38.4421,2158.5027],[-70.9574,-38.4444,2089.4138],[-70.9463,-38.4567,2093.085],[-70.944,-38.4623,2110.7607],[-70.9282,-38.4736,2188.0466],[-70.9276,-38.4845,2250.3728],[-70.9208,-38.4912,2136.0569],[-70.9115,-38.4973,2198.1729],[-70.9103,-38.5039,2274.9915],[-70.8982,-38.5094,2435.9502],[-70.8751,-38.5112,2433.1353],[-70.8641,-38.5161,2639.9177],[-70.8638,-38.5252,2574.5635],[-70.8473,-38.5346,2387.5979],[-70.8415,-38.5399,2358.6921],[-70.8357,-38.5536,2305.4792],[-70.8374,-38.5587,2091.3696],[-70.8332,-38.569,2056.7734],[-70.8368,-38.5782,2220.7988],[-70.8357,-38.5862,2302.4058],[-70.833,-38.5885,2386.7266],[-70.8294,-38.5887,2360.731],[-70.8277,-38.5928,2290.6069],[-70.8288,-38.5994,2211.6631],[-70.8353,-38.6036,2169.7363],[-70.834,-38.6092,2111.8936],[-70.836,-38.6123,2129.4138],[-70.8516,-38.6178,2035.733],[-70.8612,-38.6241,2055.0481],[-70.866,-38.6336,2140.7134],[-70.873,-38.6395,2127.0854],[-70.8808,-38.6409,2057.6824],[-70.885,-38.6433,2039.1588],[-70.8911,-38.6524,2002.2332],[-70.8957,-38.6557,1998.1737],[-70.8966,-38.6635,1888.4906],[-70.9033,-38.6678,1993.9741],[-70.9025,-38.67,1947.9935],[-70.9059,-38.6761,2023.3813],[-70.9022,-38.6785,1925.6941],[-70.899,-38.6902,1998.2118],[-70.8926,-38.6956,2050.2498],[-70.8849,-38.6971,2046.0317],[-70.8835,-38.7018,1939.0359],[-70.8881,-38.7073,1773.9038],[-70.8867,-38.7121,1868.0289],[-70.8905,-38.7204,2032.6497],[-70.8968,-38.7215,1973.9817],[-70.9031,-38.7268,1905.2092],[-70.8915,-38.7382,1678.6169],[-70.8806,-38.7441,1625.7021],[-70.8687,-38.7459,1753.4722],[-70.8497,-38.7426,1910.8661],[-70.8256,-38.7494,2033.3379],[-70.8105,-38.7588,1822.7924],[-70.8071,-38.7629,1961.3793],[-70.803,-38.7725,1882.8337],[-70.7901,-38.7837,2082.4902],[-70.7496,-38.7987,1919.8031],[-70.7245,-38.8026,2101.5022],[-70.7193,-38.8053,2189.3428],[-70.7177,-38.8101,2370.1431],[-70.7225,-38.8195,2263.2307],[-70.7048,-38.834,1989.6616],[-70.6958,-38.8473,1912.6604],[-70.6735,-38.8719,1986.2993],[-70.669,-38.8811,1907.0686],[-70.6711,-38.8911,1847.2743],[-70.691,-38.9108,1732.99],[-70.6921,-38.9208,1807.7495],[-70.6882,-38.9302,1878.1572],[-70.6753,-38.9417,1766.838],[-70.6614,-38.9585,1891.0027],[-70.6563,-38.9676,1967.1028],[-70.6493,-38.987,1862.3081],[-70.6408,-39.0214,1821.6083],[-70.6461,-39.0711,1832.2214]]]]}
,"properties": {"GID_2": "ARG.15.15_1","GID_0": "ARG","country": "Argentina","GID_1": "ARG.15_1","state": "Neuquén","NL_NAME_1": "NA","county": "Picunches","VARNAME_2": "LasLajas","NL_NAME_2": "NA","TYPE_2": "Departamento","ENGTYPE_2": "Department","CC_2": "NA","HASC_2": "AR.NQ.PI","name": "Picunches.county","area_km2": 5889.227,"hist_schema_id": "Elevation0-9000","hist_area_km2": {"525": 3.436,"550": 6.672,"575": 10.416,"600": 37.033,"625": 60.721,"650": 85.982,"675": 118.449,"700": 126.062,"725": 157.829,"750": 185.438,"775": 172.12,"800": 168.36,"825": 186.964,"850": 179.46,"875": 180.167,"900": 183.032,"925": 174.426,"950": 181.032,"975": 162.509,"1000": 150.674,"1025": 141.83,"1050": 143.324,"1075": 146.528,"1100": 150.522,"1125": 160.986,"1150": 159.559,"1175": 127.815,"1200": 115.613,"1225": 120.366,"1250": 121.738,"1275": 104.923,"1300": 93.329,"1325": 80.556,"1350": 76.902,"1375": 67.724,"1400": 63.425,"1425": 58.793,"1450": 52.631,"1475": 51.29,"1500": 47.658,"1525": 44.755,"1550": 49.049,"1575": 48.05,"1600": 46.447,"1625": 47.296,"1650": 50.615,"1675": 51.425,"1700": 51.603,"1725": 48.171,"1750": 47.098,"1775": 48.058,"1800": 48.687,"1825": 48.154,"1850": 47.739,"1875": 45.244,"1900": 43.475,"1925": 43.901,"1950": 43.646,"1975": 37.988,"2000": 36.647,"2025": 33.603,"2050": 33.62,"2075": 32.824,"2100": 31.023,"2125": 28.036,"2150": 25.48,"2175": 23.311,"2200": 22.118,"2225": 19.17,"2250": 16.506,"2275": 15.263,"2300": 12.929,"2325": 9.536,"2350": 8.663,"2375": 6.31,"2400": 5.0,"2425": 4.005,"2450": 3.31,"2475": 2.877,"2500": 2.611,"2525": 2.132,"2550": 1.718,"2575": 1.553,"2600": 1.172,"2625": 0.593,"2650": 0.61,"2675": 0.396,"2700": 0.148,"2725": 0.148,"2750": 0.099,"2775": 0.099}}}