{"type": "Feature","bbox": [-70.8577,-40.5365,-69.5732,-39.585],"geometry": {"type": "MultiPolygon","coordinates": [[[[-70.8577,-39.8989,754.1604],[-70.8543,-39.9077,736.1458],[-70.857,-39.9326,832.191],[-70.8543,-39.9424,920.0882],[-70.8487,-39.9515,696.5878],[-70.855,-39.9708,755.1769],[-70.856,-39.9908,681.197],[-70.8456,-40.0092,786.3908],[-70.8314,-40.0261,649.6017],[-70.8295,-40.0306,648.8202],[-70.8298,-40.0457,650.2689],[-70.8246,-40.0653,655.1265],[-70.8201,-40.0747,693.2631],[-70.7838,-40.1101,780.5484],[-70.749,-40.1327,626.4459],[-70.7287,-40.1523,620.428],[-70.713,-40.1798,658.341],[-70.7093,-40.1839,652.5274],[-70.6985,-40.1896,616.919],[-70.6885,-40.2081,614.5992],[-70.6671,-40.2333,645.4651],[-70.6542,-40.2445,652.8317],[-70.6428,-40.2505,601.1136],[-70.6401,-40.2542,600.7911],[-70.6432,-40.2642,598.3727],[-70.6499,-40.2729,597.2903],[-70.6709,-40.284,592.2727],[-70.673,-40.289,593.9525],[-70.673,-40.2939,594.6843],[-70.6687,-40.3034,589.7676],[-70.6616,-40.3119,589.0],[-70.6595,-40.3166,589.0],[-70.6597,-40.3217,617.3503],[-70.6651,-40.3307,675.8551],[-70.6702,-40.3452,639.4227],[-70.6739,-40.3492,630.442],[-70.6895,-40.3588,589.0],[-70.6934,-40.3626,589.0],[-70.6944,-40.368,629.608],[-70.693,-40.3728,704.1835],[-70.6818,-40.3737,589.0],[-70.6827,-40.3844,638.597],[-70.6796,-40.3883,589.0],[-70.6676,-40.3935,602.5399],[-70.6668,-40.3977,589.0],[-70.6689,-40.403,589.0],[-70.6707,-40.418,589.0],[-70.6692,-40.4378,698.3635],[-70.6551,-40.4484,589.0],[-70.6447,-40.472,589.0],[-70.6317,-40.4831,657.7653],[-70.6236,-40.5027,739.3558],[-70.6201,-40.5063,733.847],[-70.6006,-40.5092,721.2043],[-70.5678,-40.5087,658.7778],[-70.5447,-40.5102,589.0],[-70.539,-40.5074,589.0],[-70.5215,-40.5037,589.0],[-70.5009,-40.508,589.0],[-70.4859,-40.5091,589.0],[-70.4841,-40.5111,589.0],[-70.4663,-40.5099,589.0],[-70.4581,-40.5128,599.8317],[-70.4443,-40.5217,589.0],[-70.4332,-40.5253,589.0],[-70.4262,-40.5353,589.0],[-70.4207,-40.5365,589.0],[-70.4052,-40.5293,589.0],[-70.3818,-40.525,589.0],[-70.3747,-40.5207,589.0],[-70.361,-40.5159,589.0],[-70.3384,-40.5097,589.0],[-70.3204,-40.5103,589.0],[-70.3115,-40.5091,589.0],[-70.2793,-40.4964,589.0],[-70.2672,-40.4964,589.0],[-70.2543,-40.5022,589.0],[-70.2484,-40.503,589.0],[-70.2394,-40.5018,589.0],[-70.2185,-40.4928,589.0],[-70.186,-40.4882,589.0],[-70.172,-40.4794,589.0],[-70.1714,-40.4771,589.0],[-70.1768,-40.4545,589.0],[-70.1859,-40.4374,589.0],[-70.1855,-40.4281,589.0],[-70.1817,-40.4259,589.0],[-70.1812,-40.4234,589.0],[-70.1571,-40.4144,589.0],[-70.1394,-40.4142,589.0],[-70.1095,-40.4033,589.0],[-70.0937,-40.3966,589.0],[-70.0671,-40.378,589.0],[-70.0612,-40.3675,589.0],[-70.0628,-40.3445,589.0],[-70.061,-40.3214,589.0],[-70.0492,-40.3113,589.0],[-70.0449,-40.3003,589.0],[-70.0431,-40.2842,589.0],[-70.0428,-40.2704,589.0],[-70.0453,-40.2637,589.0],[-70.0625,-40.251,589.0],[-70.0615,-40.2464,589.0],[-70.0331,-40.2229,589.0],[-70.0238,-40.2085,589.0],[-70.0094,-40.2056,589.0],[-70.0021,-40.2017,589.0],[-69.9948,-40.1917,589.0],[-69.9887,-40.1788,481.8225],[-69.9591,-40.182,476.5],[-69.9561,-40.1813,476.5],[-69.9536,-40.1773,478.5175],[-69.953,-40.1704,476.5],[-69.9563,-40.1568,476.5],[-69.9678,-40.1407,476.5],[-69.9642,-40.1272,479.16],[-69.9646,-40.1226,476.5],[-69.9693,-40.1167,476.5],[-69.9865,-40.1129,476.5],[-69.9925,-40.1081,476.5],[-69.9963,-40.0876,476.5],[-69.9978,-40.0692,476.5],[-70.0042,-40.0514,476.5],[-70.0045,-40.0468,476.5],[-69.9972,-40.0223,476.5],[-69.9775,-40.0049,478.6797],[-69.9733,-39.9988,504.8821],[-69.9765,-39.9907,456.2919],[-69.9721,-39.9831,453.6788],[-69.9373,-39.9485,450.6133],[-69.9254,-39.9424,446.1064],[-69.9113,-39.9407,446.899],[-69.8988,-39.9356,446.9423],[-69.8879,-39.9285,444.8576],[-69.8702,-39.9111,443.2205],[-69.8645,-39.9078,442.2706],[-69.818,-39.8987,433.2776],[-69.8018,-39.8929,431.5309],[-69.7866,-39.8853,430.3376],[-69.7664,-39.881,430.7777],[-69.737,-39.871,426.4805],[-69.7187,-39.8581,424.8968],[-69.695,-39.8459,424.9618],[-69.6667,-39.8443,423.1564],[-69.6418,-39.8337,420.0331],[-69.6175,-39.8301,419.5862],[-69.5732,-39.8139,409.0573],[-69.863,-39.585,681.5724],[-70.2011,-39.8367,914.1164],[-70.377,-39.6935,1095.5522],[-70.6795,-39.9166,1077.6],[-70.7176,-39.8867,1009.1149],[-70.7554,-39.913,976.4203],[-70.8339,-39.8474,879.5455],[-70.8345,-39.8775,698.9329],[-70.8577,-39.8989,754.1604]]]]}
,"properties": {"GID_2": "ARG.15.5_1","GID_0": "ARG","country": "Argentina","GID_1": "ARG.15_1","state": "Neuquén","NL_NAME_1": "NA","county": "CollónCurá","VARNAME_2": "PiedradelAguila","NL_NAME_2": "NA","TYPE_2": "Departamento","ENGTYPE_2": "Department","CC_2": "NA","HASC_2": "AR.NQ.CC","name": "CollónCurá.county","area_km2": 5614.456,"hist_schema_id": "Elevation0-9000","hist_area_km2": {"400": 1.303,"425": 105.572,"450": 76.886,"475": 70.398,"500": 77.665,"525": 105.648,"550": 156.991,"575": 172.091,"600": 344.681,"625": 223.077,"650": 245.942,"675": 254.973,"700": 199.29,"725": 167.983,"750": 156.095,"775": 165.644,"800": 202.199,"825": 215.633,"850": 207.783,"875": 187.61,"900": 207.327,"925": 218.718,"950": 224.87,"975": 237.493,"1000": 249.638,"1025": 253.095,"1050": 214.663,"1075": 169.377,"1100": 146.187,"1125": 112.205,"1150": 80.381,"1175": 52.917,"1200": 35.764,"1225": 28.002,"1250": 19.819,"1275": 12.796,"1300": 6.942,"1325": 3.269,"1350": 2.927,"1375": 0.488,"1400": 0.098}}}