{"type":"Feature","properties":{"GID_2":"ARG.3.19_1","GID_0":"ARG","country":"Argentina","GID_1":"ARG.3_1","state":"Chaco","NL_NAME_1":"NA","county":"Quitilipi","VARNAME_2":"NA","NL_NAME_2":"NA","TYPE_2":"Departamento","ENGTYPE_2":"Department","CC_2":"NA","HASC_2":"AR.CC.QU","name":"Quitilipi.county"},
"geometry":{"type": "MultiPolygon","coordinates": [[[[-60.4227,-27.0441,84.4147],[-60.2831,-27.093,81.3056],[-60.0972,-26.677,88.4803],[-60.0184,-26.7089,81.1157],[-60.0151,-26.3071,91.168],[-60.2157,-26.3072,94.6127],[-60.2187,-26.6362,92.4407],[-60.2401,-26.6286,89.832],[-60.4227,-27.0441,84.4147]]]]}}