{"type":"Feature","properties":{"GID_2":"ARG.9.3_1","GID_0":"ARG","country":"Argentina","GID_1":"ARG.9_1","state":"Formosa","NL_NAME_1":"NA","county":"Laishi","VARNAME_2":"Herradura","NL_NAME_2":"NA","TYPE_2":"Departamento","ENGTYPE_2":"Department","CC_2":"NA","HASC_2":"AR.FM.LA","name":"Laishi.county"},
"geometry":{"type": "MultiPolygon","coordinates": [[[[-58.3643,-26.865,49.0],[-58.3644,-26.8678,51.201],[-58.3511,-26.8707,49.0],[-58.3334,-26.8719,49.0],[-58.3278,-26.8705,49.0],[-58.3224,-26.8666,49.0],[-58.3184,-26.8563,49.0],[-58.3209,-26.8486,49.0],[-58.3316,-26.8375,51.434],[-58.354,-26.8236,50.4642],[-58.3579,-26.8168,49.8715],[-58.3582,-26.8129,50.1079],[-58.3547,-26.8085,49.617],[-58.3482,-26.8053,49.989],[-58.3138,-26.808,49.0],[-58.2896,-26.8002,51.5885],[-58.2847,-26.7949,49.6745],[-58.2829,-26.7881,49.0],[-58.2953,-26.7647,49.0],[-58.2947,-26.7617,49.0],[-58.2871,-26.758,51.2329],[-58.2619,-26.7615,49.0],[-58.2503,-26.7532,51.6139],[-58.2453,-26.7392,49.3629],[-58.2467,-26.7238,49.0],[-58.2532,-26.7064,49.0],[-58.2509,-26.6831,51.5044],[-58.2525,-26.6503,53.3651],[-58.25,-26.6424,49.0],[-58.2387,-26.6443,50.149],[-58.2131,-26.6546,49.0],[-58.2037,-26.654,49.0],[-58.1962,-26.65,52.8203],[-58.1904,-26.6443,49.0],[-58.1883,-26.6396,49.0],[-58.189,-26.6346,51.7983],[-58.2029,-26.6211,56.9863],[-58.2048,-26.6171,55.8634],[-58.193,-26.5999,49.4824],[-58.1906,-26.5857,52.0942],[-58.1931,-26.5746,51.8506],[-58.1974,-26.5605,49.0],[-58.2061,-26.5484,51.0],[-58.2138,-26.5418,52.4359],[-58.2177,-26.5359,53.9685],[-58.219,-26.5298,53.7214],[-58.2171,-26.5212,49.0],[-58.2073,-26.5067,51.3965],[-58.2043,-26.4929,55.9019],[-58.2074,-26.4873,57.8453],[-58.2185,-26.4792,53.0333],[-58.225,-26.471,53.0033],[-58.2202,-26.4643,49.0],[-58.2091,-26.4628,53.1964],[-58.1975,-26.4637,49.0],[-58.1854,-26.4605,49.8347],[-58.1788,-26.4554,52.1743],[-58.1767,-26.4501,53.4376],[-58.1822,-26.4434,52.8939],[-58.1953,-26.4342,52.9708],[-58.2032,-26.4242,53.2158],[-58.2064,-26.416,51.5692],[-58.2056,-26.3921,49.0],[-58.2674,-26.3442,60.0529],[-58.3329,-26.3467,58.576],[-58.3384,-26.3485,60.376],[-58.5041,-26.3434,61.431399999999996],[-58.5054,-26.1736,68.0088],[-58.569,-26.1735,65.5988],[-58.5687,-26.1592,65.9456],[-58.7567,-26.1573,69.6489],[-58.7577,-26.1835,68.3644],[-58.9745,-26.1858,75.2463],[-58.9749,-26.3829,71.4197],[-58.9623,-26.387,72.6519],[-58.9576,-26.3918,67.7076],[-58.9463,-26.4181,64.0],[-58.9384,-26.4291,77.4706],[-58.9189,-26.4455,69.5442],[-58.9142,-26.4475,63.8961],[-58.911,-26.4503,80.3616],[-58.9098,-26.454,79.5886],[-58.9027,-26.4602,67.0403],[-58.8816,-26.4682,67.0366],[-58.8725,-26.468,66.2224],[-58.8693,-26.4698,68.2752],[-58.8593,-26.487,68.2656],[-58.8592,-26.5035,75.4102],[-58.8519,-26.5102,75.9066],[-58.8317,-26.5187,71.1551],[-58.8208,-26.519,67.4751],[-58.8058,-26.5164,65.5965],[-58.7998,-26.5176,67.3113],[-58.8002,-26.5238,76.3975],[-58.7986,-26.5269,70.7001],[-58.7915,-26.531,73.4762],[-58.7889,-26.5375,64.4155],[-58.7801,-26.5377,69.4495],[-58.7763,-26.5395,66.4681],[-58.7789,-26.5428,73.5006],[-58.765,-26.5564,59.6894],[-58.7637,-26.5646,66.9666],[-58.7557,-26.575,60.9281],[-58.7573,-26.579,68.9811],[-58.7509,-26.5946,60.4237],[-58.7464,-26.5959,62.7828],[-58.7251,-26.5944,61.4194],[-58.7167,-26.589,61.255],[-58.7098,-26.5887,61.0099],[-58.703,-26.5843,61.3181],[-58.6962,-26.585,62.1784],[-58.6923,-26.5915,64.7832],[-58.6868,-26.607,61.911],[-58.6825,-26.6237,56.6803],[-58.6842,-26.6285,57.1173],[-58.6826,-26.633,60.3833],[-58.6702,-26.6361,60.428],[-58.6603,-26.646,59.946],[-58.6566,-26.6473,59.3946],[-58.652,-26.6517,60.1597],[-58.6411,-26.6501,60.5114],[-58.6342,-26.6511,59.3424],[-58.6216,-26.666,61.0268],[-58.6104,-26.6706,57.7951],[-58.6018,-26.6769,57.523],[-58.5806,-26.6771,57.116],[-58.5765,-26.6816,57.0144],[-58.5793,-26.6891,67.3446],[-58.5761,-26.6929,66.7259],[-58.5736,-26.7049,61.0998],[-58.5703,-26.712,64.5331],[-58.5625,-26.7201,61.059],[-58.5538,-26.7351,69.4804],[-58.5445,-26.7338,57.2544],[-58.5399,-26.7395,58.521],[-58.5415,-26.7479,56.8405],[-58.5381,-26.7514,66.466],[-58.5293,-26.7465,65.7472],[-58.5275,-26.7559,58.8113],[-58.523,-26.7567,57.5174],[-58.5207,-26.7504,61.5644],[-58.5163,-26.7541,65.7649],[-58.5119,-26.7675,57.0887],[-58.4968,-26.7806,62.1514],[-58.4818,-26.7807,54.7482],[-58.4791,-26.7836,54.9357],[-58.4821,-26.7893,61.3734],[-58.4858,-26.7924,58.3472],[-58.4867,-26.7958,54.0961],[-58.4788,-26.8004,58.5668],[-58.4658,-26.8025,54.8274],[-58.4618,-26.7993,55.3636],[-58.4668,-26.7891,54.3244],[-58.4655,-26.7848,54.986],[-58.4618,-26.7837,54.1711],[-58.454,-26.7884,56.1247],[-58.4507,-26.7939,52.7387],[-58.452,-26.8027,55.9279],[-58.4496,-26.8077,55.3572],[-58.4363,-26.8079,51.8492],[-58.4298,-26.799,53.2766],[-58.4265,-26.7974,53.6981],[-58.4209,-26.8045,54.7629],[-58.4201,-26.8109,52.4306],[-58.4246,-26.8183,54.0507],[-58.4223,-26.8221,55.0759],[-58.4146,-26.8269,64.0084],[-58.4112,-26.8224,53.9574],[-58.4103,-26.8091,52.911],[-58.4042,-26.8074,54.4633],[-58.4015,-26.8103,56.4252],[-58.405,-26.8234,53.1401],[-58.4051,-26.8299,53.6362],[-58.4015,-26.8324,52.2653],[-58.398,-26.8306,50.0],[-58.397,-26.8215,56.8345],[-58.3911,-26.8213,51.7979],[-58.3888,-26.825,54.2423],[-58.3889,-26.834,60.8163],[-58.3911,-26.8404,55.9251],[-58.3995,-26.8425,60.6633],[-58.4021,-26.8474,53.7018],[-58.4,-26.8516,51.9805],[-58.3876,-26.8532,59.892],[-58.3837,-26.8614,52.9673],[-58.3806,-26.8642,52.7177],[-58.376,-26.849,52.9682],[-58.3725,-26.8464,54.7588],[-58.3681,-26.8457,52.4108],[-58.3639,-26.8503,52.0026],[-58.3643,-26.865,49.0]]]]}}