{"type":"Feature","properties":{"GID_2":"ARG.22.26_1","GID_0":"ARG","country":"Argentina","GID_1":"ARG.22_1","state":"SantiagodelEstero","NL_NAME_1":"NA","county":"Sarmiento","VARNAME_2":"Garza","NL_NAME_2":"NA","TYPE_2":"Departamento","ENGTYPE_2":"Department","CC_2":"NA","HASC_2":"AR.SE.SR","name":"Sarmiento.county"},
"geometry":{"type": "MultiPolygon","coordinates": [[[[-63.1155,-28.3101,117.8227],[-63.112,-28.2966,119.8474],[-63.1139,-28.2872,117.7256],[-63.1197,-28.279,117.5935],[-63.1317,-28.2693,117.5435],[-63.1601,-28.228,120.1484],[-63.1657,-28.2242,120.155],[-63.1785,-28.2081,120.4005],[-63.1906,-28.1984,120.8061],[-63.2002,-28.1939,120.5334],[-63.2106,-28.1909,122.1475],[-63.2321,-28.1925,123.0476],[-63.258,-28.1853,123.7713],[-63.2667,-28.1794,124.3893],[-63.2693,-28.1754,123.6971],[-63.2706,-28.1563,127.222],[-63.2858,-28.1363,126.3293],[-63.2893,-28.1175,127.3124],[-63.2936,-28.1086,126.2466],[-63.2999,-28.1006,127.7823],[-63.3027,-28.0916,126.8551],[-63.3142,-28.0817,129.2448],[-63.3249,-28.0807,128.8385],[-63.34,-28.0749,127.0431],[-63.3525,-28.0656,129.2409],[-63.3679,-28.0611,130.0119],[-63.3864,-28.0433,129.9402],[-63.407,-28.0043,128.8059],[-63.4278,-27.9822,132.3778],[-63.4366,-27.9646,132.9864],[-63.4585,-27.9371,134.383],[-63.4614,-27.9279,135.5649],[-63.4689,-27.9151,135.8465],[-63.49,-27.8931,136.8276],[-63.4941,-27.8841,135.906],[-63.4952,-27.8747,137.8285],[-63.4993,-27.8714,138.1214],[-63.5045,-27.8631,138.035],[-63.5101,-27.863,137.1849],[-63.5803,-27.8774,141.2332],[-63.6266,-27.8457,143.5441],[-63.6856,-27.8413,145.1726],[-63.7029,-27.9375,145.3307],[-63.7201,-27.9988,139.9266],[-63.7486,-27.995,142.0311],[-63.7557,-28.0073,141.8238],[-63.6676,-28.0678,136.0336],[-63.6829,-28.1587,134.5666],[-63.6369,-28.1644,132.3481],[-63.6445,-28.211,131.4383],[-63.6114,-28.2146,127.4904],[-63.6185,-28.2485,127.6638],[-63.6059,-28.2494,128.4318],[-63.6059,-28.2576,129.0773],[-63.5823,-28.2604,126.8168],[-63.5827,-28.266,127.0993],[-63.5422,-28.271,124.3973],[-63.5409,-28.265,124.9095],[-63.5294,-28.266,124.5999],[-63.5268,-28.2498,125.3711],[-63.4818,-28.257,124.8519],[-63.478,-28.224,123.8042],[-63.4663,-28.2243,125.8489],[-63.3924,-28.3069,121.2137],[-63.3759,-28.3108,120.4702],[-63.3763,-28.3232,119.2964],[-63.2628,-28.3418,118.0323],[-63.2617,-28.3087,120.3742],[-63.1155,-28.3101,117.8227]]]]}}