{"type": "Feature","bbox": [-62.347,-34.9758,-61.6734,-34.3802],"geometry": {"type": "MultiPolygon","coordinates": [[[[-62.0882,-34.9758,110.0468],[-61.9817,-34.8883,99.4766],[-61.9031,-34.9539,105.2067],[-61.7331,-34.8166,96.3995],[-61.7387,-34.8149,97.5032],[-61.6734,-34.763,88.2061],[-61.7734,-34.6775,91.9093],[-61.71,-34.6271,89.8605],[-61.769,-34.5778,94.0118],[-61.8446,-34.6396,91.5807],[-61.9832,-34.5176,103.7052],[-61.8083,-34.3802,91.7841],[-62.0021,-34.3827,102.8801],[-62.1387,-34.3819,114.3313],[-62.2677,-34.3833,101.2594],[-62.3131,-34.5593,104.3921],[-62.3291,-34.5591,105.108],[-62.347,-34.6537,102.3472],[-62.2011,-34.6791,100.4532],[-62.2754,-34.7401,100.4103],[-62.2606,-34.7586,98.0],[-62.3031,-34.7893,100.5022],[-62.285,-34.7914,100.2859],[-62.2817,-34.8325,101.8126],[-62.2233,-34.8337,103.2346],[-62.2217,-34.8768,101.8171],[-62.1957,-34.8779,106.443],[-62.0882,-34.9758,110.0468]]]]}
,"properties": {"GID_2": "ARG.1.51_1","GID_0": "ARG","country": "Argentina","GID_1": "ARG.1_1","state": "BuenosAires","NL_NAME_1": "NA","county": "GeneralPinto","VARNAME_2": "NA","NL_NAME_2": "NA","TYPE_2": "Partido","ENGTYPE_2": "Part","CC_2": "NA","HASC_2": "AR.BA.GI","name": "GeneralPinto.county","area_km2": 2549.003,"hist_schema_id": "Elevation0-9000","hist_area_km2": {"100": 2368.986,"125": 180.017}}}