{"type":"Feature","properties":{"GID_2":"ARG.14.11_1","GID_0":"ARG","country":"Argentina","GID_1":"ARG.14_1","state":"Misiones","NL_NAME_1":"NA","county":"LibertadorGeneralSanMartín","VARNAME_2":"LibertadorGeneralSanMa|Libert","NL_NAME_2":"NA","TYPE_2":"Departamento","ENGTYPE_2":"Department","CC_2":"NA","HASC_2":"AR.MN.LM","name":"LibertadorGeneralSanMartín.county"},
"geometry":{"type": "MultiPolygon","coordinates": [[[[-54.6605,-26.9492,431.7215],[-54.7958,-26.6472,108.8713],[-54.814,-26.6738,90.4612],[-54.8235,-26.6807,140.4242],[-54.8328,-26.6812,102.4198],[-54.8406,-26.6779,123.7419],[-54.8566,-26.6672,150.3947],[-54.8653,-26.6646,152.5587],[-54.875,-26.6643,150.847],[-54.8936,-26.6667,121.9947],[-54.9024,-26.6698,156.8555],[-54.9204,-26.6783,127.9159],[-54.9283,-26.6842,104.6188],[-54.9389,-26.6932,130.7751],[-54.9439,-26.7038,113.5876],[-54.9452,-26.7165,86.0],[-54.944,-26.75,86.0],[-54.9502,-26.7726,86.0],[-54.9573,-26.7855,86.0],[-54.962,-26.7906,96.712],[-54.9745,-26.7943,104.5067],[-54.9931,-26.7956,140.385],[-55.0208,-26.7939,134.9039],[-55.0362,-26.7956,95.4706],[-55.044,-26.797,86.0],[-55.0604,-26.8046,98.5348],[-55.0859,-26.8359,115.0824],[-55.1127,-26.8529,132.6102],[-55.1256,-26.8592,124.2553],[-55.1352,-26.8663,154.1061],[-55.143,-26.877,105.9167],[-55.149,-26.8903,86.0],[-55.1494,-26.9077,107.5444],[-55.1454,-26.9196,97.3249],[-55.1316,-26.9421,86.0],[-55.1315,-26.9447,86.0],[-55.1348,-26.9501,86.0],[-55.1439,-26.9577,110.5766],[-55.153,-26.9605,112.8149],[-55.1655,-26.9618,113.2487],[-55.201,-26.9721,89.7739],[-55.201,-26.9767,96.3046],[-55.198,-26.9807,125.5385],[-55.2044,-26.9859,122.585],[-55.2021,-26.9904,123.631],[-55.1991,-26.9905,89.5934],[-55.1914,-26.9868,149.4457],[-55.1883,-26.9902,149.1299],[-55.1805,-26.988,155.3513],[-55.1795,-26.9902,151.1961],[-55.1826,-26.9943,161.4034],[-55.1748,-26.9975,163.1117],[-55.1752,-27.0001,176.7207],[-55.1797,-27.003,135.2626],[-55.1777,-27.0208,146.8853],[-55.1761,-27.0231,160.1519],[-55.171,-27.0245,174.067],[-55.1709,-27.0325,151.0122],[-55.1684,-27.037,169.1884],[-55.154,-27.0394,167.9302],[-55.1474,-27.0542,168.9881],[-55.1447,-27.0552,166.8845],[-55.142,-27.0541,164.645],[-55.1388,-27.0468,189.68],[-55.097,-27.0475,217.5172],[-55.0972,-27.053,233.1519],[-55.0108,-27.0536,164.4966],[-55.0085,-27.0571,175.0287],[-55.0106,-27.0619,176.1286],[-55.0023,-27.0605,188.0614],[-54.9996,-27.0617,201.5742],[-54.9926,-27.0703,189.6524],[-54.9907,-27.0781,171.6703],[-54.9851,-27.0794,177.9102],[-54.9837,-27.0818,181.3242],[-54.9783,-27.084,195.0404],[-54.9789,-27.0942,181.7198],[-54.9761,-27.094,198.2059],[-54.9717,-27.0971,191.9623],[-54.9689,-27.0972,232.79],[-54.9641,-27.0947,189.7384],[-54.9634,-27.0895,290.9637],[-54.9607,-27.0858,290.5993],[-54.9581,-27.087,248.6385],[-54.9558,-27.0855,238.8718],[-54.9529,-27.0862,201.356],[-54.9524,-27.0757,324.1794],[-54.9412,-27.0774,224.3175],[-54.9388,-27.076,227.0272],[-54.9361,-27.0684,337.0266],[-54.9333,-27.0682,331.7894],[-54.9288,-27.0715,245.7344],[-54.9268,-27.0698,276.6287],[-54.9265,-27.0644,385.6172],[-54.9161,-27.067,276.7399],[-54.9136,-27.0625,298.2428],[-54.9084,-27.0598,271.1701],[-54.9068,-27.0551,256.0222],[-54.9039,-27.0559,246.8861],[-54.9025,-27.0583,235.7144],[-54.9046,-27.0633,253.0299],[-54.8969,-27.0627,256.9155],[-54.8942,-27.0577,310.949],[-54.8894,-27.0548,259.3035],[-54.886,-27.0404,291.0049],[-54.8846,-27.0055,462.4641],[-54.8876,-27.0058,435.5486],[-54.8879,-27.0017,471.0272],[-54.9,-27.0011,507.2237],[-54.8966,-26.983,492.9391],[-54.8931,-26.9844,509.9516],[-54.8872,-26.979,401.7073],[-54.8812,-26.9781,333.359],[-54.8735,-26.9865,504.2107],[-54.8548,-26.9875,424.1542],[-54.8466,-26.9908,371.693],[-54.83,-26.9855,332.2922],[-54.8164,-26.9863,496.7474],[-54.813,-26.9971,489.1523],[-54.8166,-27.0014,440.5829],[-54.8134,-27.0043,392.2734],[-54.7971,-27.004,295.9215],[-54.7997,-27.0097,463.9908],[-54.7872,-27.0087,299.1046],[-54.7833,-27.0281,515.4051],[-54.7747,-27.0284,512.8824],[-54.7724,-27.0331,535.1992],[-54.7629,-27.0394,512.5585],[-54.7609,-27.0441,497.436],[-54.7549,-27.0491,506.9663],[-54.7518,-27.049,506.194],[-54.738,-27.0442,485.7427],[-54.7234,-27.0412,520.2897],[-54.7499,-26.9437,245.7168],[-54.7117,-26.934,377.3164],[-54.7084,-26.9511,415.9232],[-54.6992,-26.9612,380.8481],[-54.6996,-26.9664,501.0573],[-54.6963,-26.9767,487.4758],[-54.6554,-26.9606,497.5551],[-54.6605,-26.9492,431.7215]]]]}}