{"type":"Feature","properties":{"GID_2":"ARG.7.6_1","GID_0":"ARG","country":"Argentina","GID_1":"ARG.7_1","state":"Corrientes","NL_NAME_1":"NA","county":"Empedrado","VARNAME_2":"NA","NL_NAME_2":"NA","TYPE_2":"Departamento","ENGTYPE_2":"Department","CC_2":"NA","HASC_2":"AR.CN.EM","name":"Empedrado.county"},
"geometry":{"type": "MultiPolygon","coordinates": [[[[-58.893,-27.9993,45.104],[-58.8808,-28.0073,44.7634],[-58.8774,-28.0202,40.0],[-58.8708,-28.0326,42.6572],[-58.8796,-28.0423,42.9664],[-58.892,-28.0722,40.0],[-58.904,-28.0906,39.5],[-58.9132,-28.1011,39.5],[-58.9264,-28.112,38.875],[-58.9514,-28.121,42.4792],[-58.9692,-28.1188,41.9645],[-58.9812,-28.1191,49.3972],[-59.0096,-28.1273,38.0],[-59.0326,-28.1223,44.7285],[-59.0446,-28.1225,42.8938],[-59.0533,-28.1245,42.5582],[-59.0601,-28.1299,38.0],[-59.0671,-28.1414,38.0],[-59.0673,-28.1639,39.5],[-59.0549,-28.1682,41.8323],[-59.0349,-28.1666,40.2181],[-59.0327,-28.1692,41.1688],[-59.0304,-28.1939,42.934],[-59.023,-28.194,40.4835],[-59.0095,-28.1865,42.8337],[-59.0016,-28.187,40.8417],[-58.9911,-28.1922,40.9649],[-58.9793,-28.1942,43.6497],[-58.9486,-28.1865,41.7328],[-58.9364,-28.1862,41.2169],[-58.9352,-28.1885,41.5193],[-58.9393,-28.1947,41.7766],[-58.9374,-28.1973,41.144],[-58.9216,-28.2002,47.1671],[-58.9147,-28.2038,43.3684],[-58.9067,-28.2116,43.3561],[-58.8989,-28.2124,43.4915],[-58.8922,-28.2085,43.6805],[-58.87,-28.1835,56.1769],[-58.8618,-28.1833,61.6963],[-58.8249,-28.1621,60.6331],[-58.8075,-28.1426,61.8886],[-58.7978,-28.127,52.3126],[-58.7948,-28.1246,52.1548],[-58.783,-28.1257,51.123],[-58.7755,-28.1237,61.5745],[-58.7496,-28.1014,59.6328],[-58.732,-28.0931,65.118],[-58.7178,-28.0806,63.6809],[-58.6986,-28.0759,55.3627],[-58.684,-28.0592,59.5305],[-58.6591,-28.0478,62.3054],[-58.6536,-28.0386,66.4006],[-58.6426,-28.0342,65.1326],[-58.6332,-28.0276,58.1253],[-58.6163,-28.0079,64.8724],[-58.5861,-27.9988,59.7113],[-58.5828,-27.9966,59.4721],[-58.5799,-27.99,65.6277],[-58.5641,-27.988,63.2721],[-58.5479,-27.9776,62.9175],[-58.5303,-27.9692,67.1177],[-58.5183,-27.9683,65.4959],[-58.4947,-27.9718,65.7847],[-58.4673,-27.9672,68.7689],[-58.4594,-27.9682,64.8065],[-58.4316,-27.9883,63.0124],[-58.4091,-27.9955,62.4753],[-58.3971,-27.9951,62.3027],[-58.3735,-27.9908,65.8681],[-58.3354,-27.9801,63.9951],[-58.3116,-27.967,67.2435],[-58.2925,-27.9542,64.1445],[-58.3216,-27.8984,64.2403],[-58.3222,-27.8724,64.4508],[-58.3299,-27.8699,68.0893],[-58.3279,-27.8609,64.3605],[-58.3447,-27.8584,64.2295],[-58.3494,-27.8644,64.2819],[-58.4086,-27.8526,64.1405],[-58.3942,-27.7761,68.5295],[-58.4009,-27.7785,68.6939],[-58.4114,-27.7746,64.3951],[-58.4225,-27.7785,61.6886],[-58.4342,-27.777,63.6461],[-58.4458,-27.7788,67.9761],[-58.457,-27.7756,66.9094],[-58.4552,-27.7472,61.5521],[-58.4776,-27.7531,68.0731],[-58.4932,-27.7539,64.5512],[-58.504,-27.749,61.3539],[-58.5001,-27.7256,61.43],[-58.5524,-27.7122,62.2893],[-58.5519,-27.7002,63.3139],[-58.6014,-27.7053,63.6837],[-58.5943,-27.6702,61.0025],[-58.5933,-27.6524,62.1123],[-58.5958,-27.6458,61.8249],[-58.6061,-27.6353,60.4076],[-58.6093,-27.6214,60.5093],[-58.6146,-27.6162,65.1693],[-58.6183,-27.615,62.9484],[-58.6383,-27.6148,60.7996],[-58.6637,-27.6067,63.9419],[-58.6825,-27.6151,59.8144],[-58.7196,-27.6272,56.8034],[-58.751,-27.6312,60.2679],[-58.7959,-27.6459,58.6536],[-58.8078,-27.6463,43.8527],[-58.8152,-27.6492,42.5],[-58.8205,-27.6558,44.989],[-58.8315,-27.6621,42.5],[-58.825,-27.6714,42.5],[-58.8237,-27.6766,42.5],[-58.8175,-27.7414,42.0],[-58.8114,-27.7735,42.0],[-58.8116,-27.7897,42.0],[-58.8161,-27.8055,42.0],[-58.8236,-27.8202,42.0],[-58.825,-27.8472,41.5],[-58.8305,-27.8569,41.5],[-58.8431,-27.8687,41.5],[-58.8509,-27.8834,41.5],[-58.8543,-27.8993,46.782],[-58.8541,-27.9156,41.0],[-58.856,-27.9253,41.0],[-58.8746,-27.9664,42.8393],[-58.8777,-27.9768,40.5],[-58.8814,-27.9837,40.5],[-58.8918,-27.9955,44.1325],[-58.893,-27.9993,45.104]]]]}}