{"type":"Feature","properties":{"GID_2":"ARG.17.1_1","GID_0":"ARG","country":"Argentina","GID_1":"ARG.17_1","state":"Salta","NL_NAME_1":"NA","county":"Anta","VARNAME_2":"NA","NL_NAME_2":"NA","TYPE_2":"Departamento","ENGTYPE_2":"Department","CC_2":"NA","HASC_2":"AR.SA.AN","name":"Anta.county"},
"geometry":{"type": "MultiPolygon","coordinates": [[[[-63.1147,-25.2933,253.9342],[-63.1121,-24.8672,248.7464],[-63.2364,-24.8641,255.6006],[-63.2328,-24.7029,251.2662],[-62.9435,-24.6976,230.1794],[-62.944,-24.2462,214.385],[-63.0172,-24.2149,212.1894],[-63.0432,-24.3687,221.5596],[-63.1616,-24.2939,222.8921],[-63.1622,-24.2033,218.6237],[-63.2049,-24.2028,221.7206],[-63.2257,-24.3105,226.509],[-63.2938,-24.3129,229.2517],[-63.2934,-24.28,228.8733],[-63.3691,-24.3026,235.2416],[-63.3523,-24.1509,229.3927],[-63.3598,-24.1485,230.2612],[-63.3723,-24.1472,231.0169],[-63.3908,-24.1498,231.2966],[-63.4029,-24.1531,232.1202],[-63.4077,-24.1565,233.4213],[-63.4168,-24.1717,234.3831],[-63.4418,-24.172,237.6071],[-63.4398,-24.1281,235.082],[-63.63,-24.0987,250.4749],[-63.6477,-24.1989,259.1865],[-64.1664,-24.1452,755.3026],[-64.1663,-24.1779,892.2802],[-64.1564,-24.1959,678.1487],[-64.1553,-24.204,739.298],[-64.1592,-24.218,773.8927],[-64.1732,-24.2368,624.4199],[-64.1754,-24.2451,837.5887],[-64.1762,-24.2593,868.0019],[-64.1869,-24.2831,850.5762],[-64.1978,-24.3004,823.423],[-64.2315,-24.3256,786.7642],[-64.2433,-24.3389,822.0414],[-64.2594,-24.376,762.199],[-64.2754,-24.3934,934.1835],[-64.2767,-24.4076,806.0963],[-64.2796,-24.4128,819.9467],[-64.3035,-24.4183,940.326],[-64.3178,-24.4242,913.0604],[-64.3251,-24.4296,1043.7256],[-64.3339,-24.4324,1088.0769],[-64.3708,-24.4271,1456.204],[-64.4014,-24.4318,1473.4961],[-64.4151,-24.4388,1881.5433],[-64.4313,-24.4515,2260.0581],[-64.4399,-24.4603,2044.3715],[-64.4527,-24.4799,2049.3455],[-64.4734,-24.4924,1658.9709],[-64.4797,-24.4937,1496.2428],[-64.491,-24.4913,1782.4753],[-64.513,-24.4949,2016.9106],[-64.5278,-24.4927,2033.8228],[-64.5368,-24.507,2079.8359],[-64.5548,-24.5291,1897.0286],[-64.5613,-24.5415,1575.0848],[-64.5657,-24.5454,1748.9771],[-64.5762,-24.5504,1444.2299],[-64.5939,-24.5691,1640.083],[-64.6216,-24.605,1768.2805],[-64.6328,-24.6092,1668.4247],[-64.6385,-24.6084,1640.3196],[-64.6438,-24.6055,1642.4613],[-64.6466,-24.6059,1614.7404],[-64.6601,-24.6127,1376.0225],[-64.6676,-24.6063,1094.4283],[-64.6745,-24.6134,1475.3157],[-64.6997,-24.6305,1714.7693],[-64.717,-24.6473,1367.0217],[-64.727,-24.6805,1435.8085],[-64.7299,-24.6856,1506.7609],[-64.7589,-24.7232,2071.8337],[-64.7767,-24.7394,2059.2856],[-64.7884,-24.7597,1927.6846],[-64.7991,-24.7738,1950.7561],[-64.7999,-24.7852,1897.3727],[-64.7962,-24.7898,1936.9351],[-64.7788,-24.7961,1862.9995],[-64.7669,-24.8163,1570.0529],[-64.7629,-24.8271,1591.5031],[-64.762,-24.8386,1643.8584],[-64.7765,-24.8574,1465.3588],[-64.805,-24.88,1641.8999],[-64.8059,-24.8855,1552.5802],[-64.8027,-24.8903,1366.6425],[-64.7976,-24.8937,1439.7178],[-64.7985,-24.8994,1535.1589],[-64.8112,-24.9319,1387.0172],[-64.8074,-24.9487,1222.7872],[-64.8077,-24.966,1344.8318],[-64.81,-24.9713,1351.5837],[-64.833,-25.0057,1285.7065],[-64.8423,-25.0134,1324.205],[-64.8476,-25.0165,1419.0551],[-64.8538,-25.0176,1299.8721],[-64.86,-25.0169,1256.6482],[-64.8707,-25.0109,1268.2778],[-64.8768,-25.0094,1353.1915],[-64.8807,-25.0127,1630.6844],[-64.8742,-25.0226,1614.9072],[-64.8744,-25.028,1531.9633],[-64.8802,-25.0383,1416.2542],[-64.893,-25.0511,1353.1307],[-64.8945,-25.0563,1321.4719],[-64.895,-25.0737,1216.3336],[-64.8922,-25.1081,1383.3569],[-64.895,-25.1251,1202.8624],[-64.9004,-25.1355,1064.3892],[-64.9152,-25.1459,1177.3346],[-64.9341,-25.148,1209.0605],[-64.9626,-25.1467,758.9996],[-64.9448,-25.1625,838.7399],[-64.9243,-25.176,904.984],[-64.9212,-25.181,817.7477],[-64.9141,-25.203,692.5601],[-64.9057,-25.2184,689.3713],[-64.8944,-25.2323,681.0032],[-64.8825,-25.2525,759.7485],[-64.8783,-25.2693,883.8636],[-64.88,-25.2864,798.3331],[-64.8762,-25.2973,678.8817],[-64.8496,-25.3218,616.9531],[-64.8334,-25.3308,603.4424],[-64.7877,-25.3505,605.8895],[-64.7833,-25.3546,597.2303],[-64.7775,-25.357,589.8975],[-64.7651,-25.3591,582.0244],[-64.7462,-25.3594,572.6141],[-64.7346,-25.3639,561.9644],[-64.7159,-25.3672,554.5986],[-64.6844,-25.3677,534.6984],[-64.6542,-25.3594,519.3004],[-64.6286,-25.3424,510.5994],[-64.6197,-25.3343,505.3722],[-64.6128,-25.3247,501.142],[-64.5995,-25.3124,493.1171],[-64.564,-25.272,478.9988],[-64.5097,-25.2327,474.5],[-64.4678,-25.2196,484.0676],[-64.3925,-25.2117,452.5447],[-64.3802,-25.2086,445.1129],[-64.3757,-25.2049,439.4329],[-64.3653,-25.1904,432.4141],[-64.3266,-25.1246,438.4131],[-64.2978,-25.0943,430.4476],[-64.2563,-25.0681,428.3484],[-64.2199,-25.0586,422.9891],[-64.2013,-25.0608,415.201],[-64.1758,-25.0777,383.8765],[-64.1667,-25.0856,384.8561],[-64.15,-25.1099,382.2118],[-64.1315,-25.1332,376.1774],[-64.1223,-25.1483,370.1182],[-64.1051,-25.1853,368.0058],[-64.0911,-25.2413,358.0416],[-64.0892,-25.2929,349.0016],[-64.0869,-25.3042,347.3202],[-64.0824,-25.315,345.7516],[-64.0619,-25.344,341.3245],[-64.0568,-25.3545,335.8755],[-64.0522,-25.3771,338.0425],[-64.0485,-25.4114,329.766],[-64.0409,-25.4271,329.5902],[-64.0245,-25.4706,322.452],[-64.0104,-25.4962,318.1448],[-63.9954,-25.5147,317.4525],[-63.9798,-25.5397,312.9703],[-63.9707,-25.5476,310.5324],[-63.9648,-25.5577,308.9211],[-63.9511,-25.5697,307.8822],[-63.941,-25.5843,305.5201],[-63.921,-25.6065,302.3845],[-63.9115,-25.6215,297.7974],[-63.895,-25.6387,297.1458],[-63.8908,-25.6496,297.0228],[-63.8803,-25.6639,292.1125],[-63.8787,-25.6695,291.8038],[-63.8777,-25.6809,291.1071],[-63.8816,-25.7042,288.8339],[-63.8123,-25.7027,284.9214],[-63.7705,-25.698,282.5378],[-63.7353,-25.6975,283.2481],[-63.6693,-25.6888,279.5218],[-63.6451,-25.6927,276.9377],[-63.6017,-25.7058,273.7849],[-63.5914,-25.7076,271.0677],[-63.5281,-25.7092,268.4659],[-63.5,-25.7082,266.8383],[-63.4754,-25.7097,266.3467],[-63.4213,-25.6443,268.3863],[-63.1147,-25.2933,253.9342]]]]}}