{"type":"Feature","properties":{"GID_2":"ARG.1.114_1","GID_0":"ARG","country":"Argentina","GID_1":"ARG.1_1","state":"BuenosAires","NL_NAME_1":"NA","county":"Suipacha","VARNAME_2":"NA","NL_NAME_2":"NA","TYPE_2":"Partido","ENGTYPE_2":"Part","CC_2":"NA","HASC_2":"AR.BA.SU","name":"Suipacha.county"},
"geometry":{"type": "MultiPolygon","coordinates": [[[[-59.886,-34.6214,54.8038],[-59.9464,-34.6719,57.3068],[-59.8271,-34.7663,49.6098],[-59.8247,-34.7642,50.3243],[-59.7907,-34.7899,46.8416],[-59.8128,-34.8133,44.7379],[-59.8088,-34.8313,46.0382],[-59.7967,-34.836,44.8638],[-59.7885,-34.8425,44.1269],[-59.7773,-34.8484,44.5516],[-59.7693,-34.857,44.0117],[-59.7606,-34.8727,44.0254],[-59.7516,-34.882,42.8946],[-59.7141,-34.8996,43.5272],[-59.697,-34.9126,41.9479],[-59.6883,-34.9259,40.4351],[-59.6761,-34.937,40.5789],[-59.6571,-34.9491,40.6672],[-59.6587,-34.9517,41.3664],[-59.6277,-34.9699,41.7475],[-59.6333,-34.9611,40.1358],[-59.4698,-34.8748,41.1642],[-59.5258,-34.8348,43.0459],[-59.5165,-34.8275,43.38],[-59.5196,-34.8245,43.4573],[-59.5014,-34.811,42.6092],[-59.5424,-34.7771,43.6977],[-59.5319,-34.7687,45.6078],[-59.5864,-34.7265,37.1703],[-59.5889,-34.7283,37.7374],[-59.6085,-34.7148,42.1655],[-59.6119,-34.7174,43.2142],[-59.6649,-34.6763,48.1385],[-59.6611,-34.6727,47.0457],[-59.7213,-34.6248,47.8103],[-59.6753,-34.5848,50.428],[-59.7584,-34.5219,54.7435],[-59.8436,-34.5936,48.9965],[-59.8482,-34.5897,49.4962],[-59.886,-34.6214,54.8038]]]]}}