{"type":"Feature","properties":{"GID_2":"ARG.10.15_1","GID_0":"ARG","country":"Argentina","GID_1":"ARG.10_1","state":"Jujuy","NL_NAME_1":"NA","county":"ValleGrande","VARNAME_2":"NA","NL_NAME_2":"NA","TYPE_2":"Departamento","ENGTYPE_2":"Department","CC_2":"NA","HASC_2":"AR.JY.VG","name":"ValleGrande.county"},
"geometry":{"type": "MultiPolygon","coordinates": [[[[-65.1785,-23.3205,4434.8584],[-65.1253,-23.411,3942.3738],[-65.143,-23.5371,1970.9987],[-65.0258,-23.6847,1135.8323],[-64.9868,-23.7175,1518.3162],[-64.9391,-23.7338,929.165],[-64.8961,-23.6925,1446.3816],[-64.8411,-23.622,2342.9741],[-64.8511,-23.5484,3298.0254],[-64.8611,-23.5005,2472.9661],[-64.866,-23.5026,2380.998],[-64.8704,-23.5011,2221.9377],[-64.8861,-23.4776,2085.0444],[-64.8881,-23.4724,2153.7515],[-64.888,-23.4672,2193.2629],[-64.8812,-23.4521,2408.7881],[-64.8823,-23.4412,2604.5093],[-64.8857,-23.4372,2462.0146],[-64.902,-23.4308,3108.6467],[-64.9093,-23.4221,2608.583],[-64.9121,-23.401,2778.5071],[-64.9179,-23.3855,2301.5225],[-64.9231,-23.3759,2774.3076],[-64.9388,-23.3598,3235.3599],[-64.9466,-23.3338,3209.3716],[-64.9533,-23.3249,3462.4607],[-64.9889,-23.2968,3735.1812],[-65.0095,-23.2863,4499.5361],[-65.0262,-23.2817,4382.6182],[-65.0304,-23.2716,4276.7935],[-65.036,-23.2386,4503.2339],[-65.0491,-23.2504,4263.9873],[-65.0767,-23.2655,4196.6807],[-65.097,-23.2715,4700.6445],[-65.1424,-23.2906,4409.2021],[-65.1785,-23.3205,4434.8584]]]]}}