{"type": "Feature","bbox": [-65.1031,-36.2714,-63.9359,-35.8077],"geometry": {"type": "MultiPolygon","coordinates": [[[[-63.9368,-36.2714,153.9095],[-63.9359,-35.818,141.0137],[-64.4884,-35.8146,210.6307],[-65.1031,-35.8077,291.8187],[-65.1022,-35.9969,293.6699],[-65.0437,-35.9993,286.5759],[-65.0479,-36.2622,267.607],[-64.4909,-36.2681,180.1364],[-63.9368,-36.2714,153.9095]]]]}
,"properties": {"GID_2": "ARG.11.8_1","GID_0": "ARG","country": "Argentina","GID_1": "ARG.11_1","state": "LaPampa","NL_NAME_1": "NA","county": "Conhelo","VARNAME_2": "EduardoCastex|Conhello","NL_NAME_2": "NA","TYPE_2": "Departamento","ENGTYPE_2": "Department","CC_2": "NA","HASC_2": "AR.LP.CO","name": "Conhelo.county","area_km2": 5137.526,"hist_schema_id": "Elevation0-9000","hist_area_km2": {"125": 14.822,"150": 923.29,"175": 810.858,"200": 942.08,"225": 882.546,"250": 690.697,"275": 746.389,"300": 123.16,"325": 3.684}}}