{"type":"Feature","properties":{"GID_2":"ARG.8.13_1","GID_0":"ARG","country":"Argentina","GID_1":"ARG.8_1","state":"EntreRíos","NL_NAME_1":"NA","county":"Paraná","VARNAME_2":"NA","NL_NAME_2":"NA","TYPE_2":"Departamento","ENGTYPE_2":"Department","CC_2":"NA","HASC_2":"AR.ER.PA","name":"Paraná.county"},
"geometry":{"type": "MultiPolygon","coordinates": [[[[-60.2659,-32.0447,103.4344],[-60.2594,-32.044,107.5274],[-60.2514,-32.0401,103.2178],[-60.2237,-32.02,99.8745],[-60.2086,-32.0114,97.456],[-60.1734,-32.0042,96.7687],[-60.1649,-31.9863,96.4948],[-60.1417,-31.963,95.9492],[-60.1372,-31.9743,99.231],[-60.1323,-31.9807,92.1069],[-60.1045,-31.994,92.7391],[-60.0867,-31.9969,92.7817],[-60.0783,-32.0,91.6486],[-60.0709,-32.0045,84.8866],[-60.0624,-32.0137,94.5268],[-60.0507,-32.0196,88.281],[-60.0334,-32.0245,100.3066],[-60.029,-32.0236,100.9328],[-60.0151,-32.0135,100.5975],[-60.0132,-32.0101,100.9752],[-60.0095,-31.9988,98.0326],[-60.0079,-31.9795,94.5119],[-59.9989,-31.9616,95.9713],[-59.9926,-31.9562,93.2828],[-59.9775,-31.9474,94.583],[-59.9488,-31.9355,99.5111],[-59.9419,-31.9306,103.7724],[-59.9257,-31.9117,98.2297],[-59.9079,-31.8757,97.2839],[-59.9053,-31.873,95.6072],[-59.8915,-31.8719,91.991],[-59.86,-31.8756,91.5914],[-59.8471,-31.8795,91.3984],[-59.8188,-31.8918,87.6806],[-59.7711,-31.9048,75.1998],[-59.7623,-31.9061,76.1869],[-59.7486,-31.9056,79.2085],[-59.7261,-31.8926,72.2126],[-59.702,-31.8817,74.9865],[-59.6885,-31.8802,69.9736],[-59.6711,-31.8754,71.5538],[-59.6615,-31.8672,75.474],[-59.6356,-31.8601,66.104],[-59.6159,-31.8618,63.0077],[-59.6152,-31.8547,62.1626],[-59.619,-31.8477,63.0706],[-59.6205,-31.8363,67.9772],[-59.5954,-31.7996,61.1046],[-59.5936,-31.7881,57.7303],[-59.5993,-31.7734,56.6955],[-59.5911,-31.7595,57.1533],[-59.5851,-31.7449,57.0337],[-59.5753,-31.7368,54.6266],[-59.5705,-31.7218,54.8207],[-59.5714,-31.7102,53.9359],[-59.5466,-31.6872,52.5181],[-59.5411,-31.6865,52.5145],[-59.5336,-31.6818,51.8708],[-59.5267,-31.6718,51.3962],[-59.5212,-31.657,50.8927],[-59.5137,-31.6305,50.1582],[-59.515,-31.6231,54.0413],[-59.5179,-31.62,51.4863],[-59.5317,-31.61,59.4229],[-59.536,-31.6086,57.3035],[-59.5495,-31.6087,54.9333],[-59.5577,-31.6054,57.0749],[-59.5896,-31.5838,58.9747],[-59.5986,-31.575,62.9421],[-59.6026,-31.5681,58.3198],[-59.6027,-31.5526,64.2477],[-59.5999,-31.5453,62.513],[-59.5994,-31.5336,67.2196],[-59.5941,-31.5108,66.2066],[-59.5904,-31.4788,77.7441],[-59.6333,-31.5031,72.0884],[-59.6416,-31.5061,73.0884],[-59.6434,-31.5036,74.1925],[-59.6459,-31.4917,68.0438],[-59.6445,-31.4724,77.1246],[-59.6399,-31.4614,76.6182],[-59.6262,-31.4412,79.7609],[-59.6317,-31.4353,76.0271],[-59.6659,-31.4253,76.9292],[-59.6838,-31.4228,79.6282],[-59.7092,-31.4147,69.0872],[-59.7495,-31.4095,76.1154],[-59.7676,-31.4095,78.8087],[-59.7856,-31.4117,84.141],[-59.7979,-31.4161,83.5039],[-59.8193,-31.4307,80.7872],[-59.8244,-31.4369,70.573],[-59.8396,-31.4738,76.117],[-59.8428,-31.4777,73.5751],[-59.8499,-31.4726,73.7576],[-59.8567,-31.4625,67.4231],[-59.8655,-31.4536,65.3241],[-59.8694,-31.4466,62.4749],[-59.8644,-31.4317,70.3301],[-59.8646,-31.4241,74.1223],[-59.8674,-31.4167,70.6763],[-59.8785,-31.3997,55.1144],[-59.8793,-31.3766,61.5672],[-59.8881,-31.3425,57.2829],[-59.903,-31.3018,43.0298],[-59.9063,-31.2866,48.165],[-59.9226,-31.2681,41.048],[-59.9318,-31.2548,40.4339],[-59.9366,-31.2439,37.8718],[-59.9372,-31.2362,24.6647],[-59.9348,-31.213,35.9476],[-59.9364,-31.2014,45.4137],[-59.957,-31.1761,18.65],[-59.981,-31.1544,14.5],[-59.9864,-31.1723,14.5],[-60.0007,-31.1891,15.8566],[-60.0001,-31.21,19.8181],[-60.002,-31.2203,14.0],[-60.0075,-31.2325,13.5],[-60.017,-31.2458,13.0],[-60.0278,-31.255,13.0],[-60.0389,-31.2592,16.9354],[-60.0512,-31.2669,13.0],[-60.069,-31.2701,13.0],[-60.0858,-31.276,13.0],[-60.0968,-31.2886,12.5],[-60.097,-31.2988,14.7102],[-60.09,-31.3188,12.5],[-60.0929,-31.3369,12.0],[-60.0998,-31.3569,16.4066],[-60.1122,-31.3807,14.8693],[-60.1202,-31.4032,11.5],[-60.1303,-31.4193,15.0734],[-60.1371,-31.4338,11.5],[-60.1429,-31.4398,11.5],[-60.1483,-31.4423,11.5],[-60.1721,-31.4466,15.2401],[-60.1888,-31.4523,16.2752],[-60.1962,-31.4608,11.5],[-60.2073,-31.4696,11.5],[-60.2198,-31.4844,11.5],[-60.2252,-31.4938,17.9056],[-60.2265,-31.5067,11.5],[-60.2318,-31.5132,12.5102],[-60.241,-31.5201,11.5],[-60.2576,-31.5265,11.5],[-60.2968,-31.5309,11.5],[-60.3133,-31.5377,11.5],[-60.3282,-31.547,11.5],[-60.3326,-31.5535,11.5],[-60.3329,-31.5667,11.0],[-60.3299,-31.5768,11.0],[-60.3233,-31.5855,12.2123],[-60.3214,-31.5986,10.5],[-60.3292,-31.6096,10.5],[-60.3443,-31.6186,10.5],[-60.3818,-31.636,9.5],[-60.4028,-31.655,9.0],[-60.416,-31.6693,15.1947],[-60.4306,-31.6788,9.0],[-60.4441,-31.6848,9.0],[-60.4698,-31.6932,9.0],[-60.5117,-31.7004,9.0],[-60.5238,-31.6996,9.0],[-60.5315,-31.6953,9.0],[-60.5492,-31.6912,9.0],[-60.5706,-31.6921,9.0],[-60.5807,-31.6976,9.0],[-60.5978,-31.7161,9.0],[-60.6072,-31.7227,9.0],[-60.625,-31.7262,15.7058],[-60.6429,-31.7231,10.8305],[-60.6554,-31.7228,12.7367],[-60.6618,-31.7277,9.0],[-60.6678,-31.74,14.8619],[-60.6695,-31.7503,15.7092],[-60.6617,-31.7729,12.2463],[-60.6607,-31.7807,15.8609],[-60.6612,-31.7885,9.0],[-60.6654,-31.8034,14.7863],[-60.616,-31.812,14.6474],[-60.6056,-31.8193,16.4188],[-60.5785,-31.8233,59.1631],[-60.5828,-31.8425,58.5282],[-60.5806,-31.8448,63.159],[-60.5622,-31.8467,76.5429],[-60.5606,-31.8504,84.007],[-60.5648,-31.857,96.562],[-60.5678,-31.8684,66.9977],[-60.5685,-31.8838,50.4692],[-60.5553,-31.8866,52.6035],[-60.5532,-31.8901,54.9233],[-60.5541,-31.8978,57.448],[-60.5565,-31.9011,72.4513],[-60.5569,-31.9049,73.4256],[-60.5532,-31.9119,70.9731],[-60.5352,-31.9139,96.7354],[-60.5016,-31.9255,90.5015],[-60.4927,-31.9271,110.3613],[-60.4891,-31.9295,113.4147],[-60.4873,-31.933,112.3551],[-60.4876,-31.9371,110.3019],[-60.4855,-31.94,103.7746],[-60.4598,-31.948,71.5937],[-60.4465,-31.9458,81.800299999999993],[-60.422,-31.9291,101.3611],[-60.4106,-31.936,109.6258],[-60.4083,-31.9394,110.626],[-60.3913,-31.942,84.2381],[-60.3766,-31.9749,93.4794],[-60.3788,-31.9767,92.0938],[-60.3836,-31.9754,106.23],[-60.3881,-31.9761,108.0007],[-60.391,-31.9875,98.5915],[-60.394,-31.9897,104.8414],[-60.4075,-31.991,100.4725],[-60.4102,-31.9942,93.2747],[-60.4117,-32.0057,97.1846],[-60.4106,-32.0092,91.9113],[-60.3993,-32.0159,91.5234],[-60.3986,-32.0195,89.8011],[-60.4032,-32.0264,71.5353],[-60.4015,-32.0291,73.5692],[-60.3972,-32.0304,67.9668],[-60.396,-32.0343,69.9962],[-60.3929,-32.0357,78.797],[-60.3877,-32.0346,84.8633],[-60.3869,-32.0365,86.5127],[-60.3923,-32.052,92.4904],[-60.3879,-32.0524,100.4491],[-60.3848,-32.055,90.2004],[-60.3856,-32.0587,81.2625],[-60.384,-32.0663,83.6461],[-60.3736,-32.0742,100.4257],[-60.3701,-32.0754,97.3952],[-60.3666,-32.0724,95.6143],[-60.3624,-32.0723,104.3298],[-60.3506,-32.0785,97.8873],[-60.3465,-32.0773,97.1425],[-60.3365,-32.0691,104.4852],[-60.3356,-32.0653,96.9897],[-60.3402,-32.0593,104.4196],[-60.3374,-32.0561,106.3249],[-60.3293,-32.0519,113.2354],[-60.3246,-32.0573,100.319],[-60.316,-32.06,101.7812],[-60.3025,-32.0616,86.5571],[-60.2942,-32.0584,101.2583],[-60.2816,-32.0472,108.7537],[-60.2659,-32.0447,103.4344]]]]}}