{"type": "Feature","bbox": [-64.6067,-41.1624,-62.7904,-40.3963],"geometry": {"type": "MultiPolygon","coordinates": [[[[-62.7954,-41.023,5.4706],[-62.7904,-41.0207,0.0],[-62.7953,-41.0103,0.0],[-62.8029,-40.9831,0.0],[-62.8075,-40.9747,0.0],[-62.8432,-40.943,0.0],[-62.8504,-40.9254,0.4682],[-62.8743,-40.8987,0.0],[-62.8898,-40.8845,0.0],[-62.9127,-40.8692,0.0],[-62.9191,-40.8615,0.0],[-62.9252,-40.8483,2.247],[-62.9289,-40.8449,4.3438],[-62.9442,-40.8372,0.0],[-62.949,-40.8235,2.8931],[-62.952,-40.8199,0.9066],[-62.9736,-40.8111,5.0942],[-62.9976,-40.7968,1.3899],[-63.0211,-40.7931,0.0],[-63.0262,-40.7907,3.4094],[-63.0418,-40.7763,9.2351],[-63.0512,-40.7708,0.6459],[-63.0738,-40.7639,6.896],[-63.0976,-40.7596,3.3019],[-63.1026,-40.7574,5.8011],[-63.118,-40.7428,25.441],[-63.1231,-40.7405,42.1569],[-63.1411,-40.7387,3.3686],[-63.1611,-40.7282,8.2395],[-63.1936,-40.7158,10.2149],[-63.2751,-40.7207,15.8673],[-63.2869,-40.7241,5.6058],[-63.292,-40.7235,7.2671],[-63.2959,-40.7194,8.5746],[-63.2962,-40.7105,17.4484],[-63.3071,-40.7061,22.0879],[-63.3251,-40.7079,8.2107],[-63.3598,-40.7182,13.2739],[-63.3632,-40.7164,5.9803],[-63.3649,-40.7114,6.0041],[-63.3634,-40.7065,11.7285],[-63.3675,-40.7018,7.9527],[-63.3708,-40.7016,11.1182],[-63.3875,-40.7066,9.6078],[-63.3854,-40.4115,55.1673],[-63.8367,-40.4057,32.5821],[-63.8511,-40.3963,28.5],[-63.9959,-40.505,61.1062],[-64.0825,-40.438,82.5837],[-64.4922,-40.4404,118.6962],[-64.6067,-40.4395,116.3626],[-64.6058,-40.8499,0.0],[-64.6024,-40.851,0.0],[-64.6018,-40.8526,0.0],[-64.599,-40.8521,2.395],[-64.5976,-40.8543,0.0],[-64.594,-40.8537,0.0],[-64.5921,-40.8551,0.0],[-64.5915,-40.854,2.1991],[-64.5904,-40.856,0.0],[-64.5874,-40.8554,1.3864],[-64.5601,-40.864,0.0],[-64.5563,-40.8646,0.0],[-64.556,-40.8635,0.0],[-64.5626,-40.8607,3.2453],[-64.5385,-40.8657,0.0],[-64.539,-40.8674,0.0],[-64.5365,-40.869,0.0],[-64.5218,-40.8751,0.0],[-64.5074,-40.8843,0.0],[-64.4979,-40.8846,1.055],[-64.4985,-40.8879,0.2525],[-64.4879,-40.8932,0.0],[-64.4876,-40.8949,0.0],[-64.4837,-40.8954,0.0],[-64.4821,-40.894,3.6678],[-64.4768,-40.8976,0.0],[-64.4713,-40.899,0.0],[-64.469,-40.9018,0.0],[-64.4651,-40.9007,8.4672],[-64.4429,-40.9043,28.4024],[-64.4224,-40.909,42.3049],[-64.4093,-40.9137,13.4743],[-64.399,-40.9193,44.4262],[-64.3976,-40.9265,22.329],[-64.3921,-40.9304,0.0],[-64.3096,-40.9571,43.7843],[-64.306,-40.9604,0.2722],[-64.2957,-40.9646,1.6137],[-64.284,-40.9746,-1.3462],[-64.2646,-40.9815,20.4734],[-64.2482,-40.991,2.8479],[-64.2307,-40.9965,21.4562],[-64.2274,-40.9982,2.5021],[-64.2274,-41.001,-0.59],[-64.2251,-41.001,21.125],[-64.2204,-41.0046,-0.3276],[-64.214,-41.0049,0.0917],[-64.2087,-41.0071,10.2859],[-64.2082,-41.0088,-0.761],[-64.2115,-41.0093,0.0],[-64.2096,-41.011,-0.4935],[-64.1901,-41.0146,-0.368],[-64.1818,-41.0176,0.0],[-64.154,-41.0204,0.0],[-64.1446,-41.0268,0.0],[-64.1357,-41.0296,0.0],[-64.1276,-41.0313,0.0],[-64.1126,-41.031,-0.3568],[-64.0768,-41.0385,0.0],[-64.0649,-41.0429,0.0],[-64.0424,-41.0474,0.0],[-64.0396,-41.0493,0.0],[-64.0263,-41.0518,0.0],[-63.9682,-41.0685,0.9902],[-63.9437,-41.0788,2.0612],[-63.9218,-41.0932,8.1334],[-63.9096,-41.1051,1.1406],[-63.8976,-41.1232,23.1424],[-63.8857,-41.1321,5.697],[-63.8751,-41.1365,0.0],[-63.8363,-41.1443,23.714],[-63.8099,-41.1515,0.0],[-63.791,-41.1587,1.861],[-63.7768,-41.161,0.0],[-63.7443,-41.1576,22.0979],[-63.6615,-41.1593,0.0],[-63.6621,-41.1576,14.6341],[-63.6115,-41.1563,0.0],[-63.6037,-41.1582,0.0],[-63.591,-41.1576,0.0],[-63.5488,-41.1618,0.0],[-63.5082,-41.1624,0.0],[-63.4932,-41.1607,11.5568],[-63.4404,-41.1624,5.069],[-63.3571,-41.1529,7.8406],[-63.3271,-41.1512,10.3487],[-63.3088,-41.1518,0.0],[-63.2815,-41.1576,6.6972],[-63.2335,-41.1593,0.0],[-63.2096,-41.1576,26.2549],[-63.1435,-41.1576,22.7966],[-63.1185,-41.1554,5.5237],[-63.094,-41.1499,0.0],[-63.0838,-41.1493,21.2169],[-63.0526,-41.1435,0.0],[-63.0404,-41.1376,15.7668],[-63.0374,-41.1335,0.0],[-63.0321,-41.1301,0.0],[-63.0062,-41.1196,0.0],[-63.0024,-41.1146,0.0],[-62.9957,-41.1104,16.1005],[-62.9712,-41.1029,29.2103],[-62.9593,-41.1012,0.0],[-62.9351,-41.0946,0.0],[-62.9221,-41.089,9.3981],[-62.9004,-41.0849,0.0],[-62.8818,-41.079,17.2452],[-62.8571,-41.0676,5.8496],[-62.8535,-41.0646,6.2761],[-62.8346,-41.0576,2.6355],[-62.8251,-41.049,3.2869],[-62.824,-41.0438,5.6659],[-62.8215,-41.041,5.4411],[-62.8146,-41.0357,5.0191],[-62.8104,-41.0354,3.7303],[-62.8032,-41.0276,4.7067],[-62.7986,-41.0271,3.6244],[-62.7989,-41.0246,8.1528],[-62.7954,-41.023,5.4706]]]]}
,"properties": {"GID_2": "ARG.16.1_1","GID_0": "ARG","country": "Argentina","GID_1": "ARG.16_1","state": "RíoNegro","NL_NAME_1": "NA","county": "AdolfoAlsina","VARNAME_2": "Viedma","NL_NAME_2": "NA","TYPE_2": "Departamento","ENGTYPE_2": "Department","CC_2": "NA","HASC_2": "AR.RN.AA","name": "AdolfoAlsina.county","area_km2": 8975.506,"hist_schema_id": "Elevation0-9000","hist_area_km2": {"0": 844.776,"25": 1571.21,"50": 2711.92,"75": 2132.647,"100": 1545.829,"125": 169.123}}}