{"type":"Feature","properties":{"GID_2":"ARG.24.15_1","GID_0":"ARG","country":"Argentina","GID_1":"ARG.24_1","state":"Tucumán","NL_NAME_1":"NA","county":"TafíViejo","VARNAME_2":"NA","NL_NAME_2":"NA","TYPE_2":"Departamento","ENGTYPE_2":"Department","CC_2":"NA","HASC_2":"AR.TM.TV","name":"TafíViejo.county"},
"geometry":{"type": "MultiPolygon","coordinates": [[[[-65.1674,-26.5454,1353.7878],[-65.2227,-26.5434,611.9204],[-65.2236,-26.5473,611.8575],[-65.2277,-26.5472,617.898],[-65.2281,-26.5546,608.0903],[-65.2346,-26.5592,642.7149],[-65.2324,-26.5644,605.1232],[-65.2363,-26.571,635.7312],[-65.2365,-26.5787,618.6794],[-65.2393,-26.5816,621.7155],[-65.2363,-26.590699999999998,646.519],[-65.2375,-26.5964,636.2947],[-65.2327,-26.6002,606.9637],[-65.2342,-26.6038,630.425],[-65.2424,-26.6035,633.6926],[-65.2556,-26.6097,658.4367],[-65.264,-26.6112,660.4875],[-65.2838,-26.6041,697.306],[-65.2923,-26.6042,735.7928],[-65.3105,-26.6139,764.2701],[-65.3167,-26.6125,761.707],[-65.3248,-26.6148,784.2682],[-65.3375,-26.614,804.9514],[-65.3453,-26.6205,827.8898],[-65.3589,-26.6262,863.8157],[-65.3715,-26.6249,932.3017],[-65.3841,-26.6268,954.1611],[-65.3996,-26.6204,1070.4398],[-65.4055,-26.6148,1082.6995],[-65.4131,-26.6115,1137.5233],[-65.4245,-26.5999,1325.1982],[-65.4341,-26.5958,1490.6515],[-65.447,-26.5859,1682.1416],[-65.4547,-26.5826,1936.9794],[-65.4583,-26.5835,2060.4138],[-65.4619,-26.5946,1981.436],[-65.4653,-26.5995,1931.6862],[-65.4728,-26.6033,2019.0007],[-65.4766,-26.6022,2071.1467],[-65.4806,-26.5934,2138.6753],[-65.4823,-26.5839,1882.3776],[-65.4918,-26.5762,1688.072],[-65.4935,-26.5706,1485.3239],[-65.4895,-26.5639,1579.1246],[-65.4844,-26.5603,1639.3723],[-65.4895,-26.5555,1506.6628],[-65.4883,-26.5519,1371.8571],[-65.4838,-26.5478,1330.8424],[-65.4846,-26.5421,1299.2845],[-65.4699,-26.5284,1206.0464],[-65.4699,-26.5246,1021.9474],[-65.4726,-26.522,1152.6382],[-65.4852,-26.5224,1095.2092],[-65.4876,-26.5277,1142.9225],[-65.4979,-26.5337,1158.0256],[-65.5019,-26.5447,1178.6335],[-65.5009,-26.5464,1226.1248],[-65.5075,-26.5509,1459.5029],[-65.5117,-26.5508,1247.1375],[-65.5167,-26.5472,1285.1458],[-65.5231,-26.5468,1367.0513],[-65.5327,-26.5427,1436.2218],[-65.5413,-26.5428,1599.0399],[-65.5514,-26.5398,1557.7698],[-65.5621,-26.5394,1598.7694],[-65.5828,-26.5491,1721.2805],[-65.604,-26.5515,1794.6121],[-65.6133,-26.5558,1898.6875],[-65.6169,-26.5539,1865.5614],[-65.6249,-26.5449,2181.4109],[-65.6339,-26.5396,2054.4648],[-65.6444,-26.5302,2213.4907],[-65.6527,-26.5283,2465.5833],[-65.6819,-26.5305,3112.2056],[-65.6983,-26.5271,3314.0483],[-65.7067,-26.5292,3764.6777],[-65.7065,-26.5363,3748.5444],[-65.7165,-26.5337,3949.1868],[-65.7166,-26.5373,3911.8965],[-65.714,-26.5397,3860.8176],[-65.7134,-26.5435,3990.9216],[-65.716,-26.5528,3998.5405],[-65.7203,-26.5595,3898.061],[-65.7206,-26.5787,4154.1719],[-65.7314,-26.5951,4387.8291],[-65.7295,-26.6065,4551.5459],[-65.7247,-26.6191,4634.9746],[-65.7263,-26.62,4650.8164],[-65.7326,-26.6183,4643.7183],[-65.7376,-26.6151,4650.6152],[-65.7386,-26.6167,4636.9062],[-65.744,-26.6531,4370.7798],[-65.7424,-26.6685,4333.2695],[-65.7334,-26.6815,4406.8623],[-65.712,-26.6944,4389.6963],[-65.6983,-26.7092,4490.5234],[-65.6971,-26.7148,4451.0659],[-65.7016,-26.7235,4191.3579],[-65.7004,-26.7331,3922.4431],[-65.6926,-26.7316,3815.771],[-65.6822,-26.7335,3353.9709],[-65.6634,-26.7428,2922.0376],[-65.6579,-26.7483,2629.4373],[-65.6516,-26.7494,2641.4465],[-65.6456,-26.7577,2481.9888],[-65.6361,-26.7552,2501.731],[-65.6242,-26.7469,2488.1895],[-65.6092,-26.7404,2344.252],[-65.5948,-26.7442,1910.7808],[-65.5888,-26.7495,1728.7943],[-65.5773,-26.7547,1799.6835],[-65.5734,-26.7591,1844.6226],[-65.5636,-26.7627,1532.8948],[-65.5538,-26.7606,1448.5422],[-65.547,-26.7652,1439.5027],[-65.5406,-26.7657,1473.8431],[-65.5322,-26.764,1491.157],[-65.5272,-26.7613,1455.171],[-65.521,-26.7614,1504.8086],[-65.5145,-26.7563,1321.6648],[-65.5087,-26.7543,1092.1029],[-65.5014,-26.7581,1235.9353],[-65.4845,-26.7607,971.6299],[-65.4706,-26.7656,971.3194],[-65.4528,-26.779,927.8283],[-65.4468,-26.7893,958.4338],[-65.4415,-26.8038,846.7947],[-65.4329,-26.8103,794.192],[-65.4236,-26.7377,1140.1306],[-65.4199,-26.7425,1094.822],[-65.415,-26.7611,1021.9697],[-65.4113,-26.7659,1004.3187],[-65.4112,-26.7697,989.681],[-65.4012,-26.7817,997.4914],[-65.399,-26.778199999999998,932.6326],[-65.3921,-26.7739,1001.5134],[-65.3893,-26.7689,926.8711],[-65.3832,-26.7671,951.7226],[-65.3793,-26.7626,988.7384],[-65.3736,-26.7598,1013.8195],[-65.367,-26.7643,1184.8137],[-65.363,-26.7651,1212.064],[-65.3605,-26.774,1192.7405],[-65.3563,-26.7746,1190.0366],[-65.3525,-26.773,1158.1145],[-65.3528,-26.7693,1186.2468],[-65.357,-26.7626,1252.9462],[-65.3559,-26.755,1302.2273],[-65.359,-26.7438,1432.9874],[-65.3578,-26.7386,1560.1218],[-65.2671,-26.7567,587.7211],[-65.2719,-26.7693,561.3046],[-65.2733,-26.7789,532.407],[-65.2651,-26.7877,506.5515],[-65.2563,-26.7931,487.3152],[-65.2437,-26.7942,480.4713],[-65.2363,-26.798,476.7298],[-65.2257,-26.7984,479.1226],[-65.2166,-26.8035,463.7549],[-65.2059,-26.8036,459.958],[-65.1989,-26.8081,448.0667],[-65.177,-26.8017,441.2827],[-65.1657,-26.8079,438.2509],[-65.1672,-26.7957,445.0825],[-65.1696,-26.7905,446.4261],[-65.1683,-26.7809,459.0138],[-65.1699,-26.7675,476.309],[-65.1649,-26.753,481.2263],[-65.1652,-26.7414,492.3103],[-65.1703,-26.7267,500.152],[-65.169,-26.7173,496.0393],[-65.1822,-26.6978,515.7079],[-65.1832,-26.692,516.0516],[-65.1804,-26.6788,532.0898],[-65.1811,-26.6692,541.1193],[-65.1852,-26.6583,542.9521],[-65.1939,-26.65,573.6876],[-65.1949,-26.6442,575.2274],[-65.1934,-26.6387,535.2994],[-65.1887,-26.6322,538.3217],[-65.191,-26.6249,638.9526],[-65.1874,-26.6204,586.1503],[-65.1867,-26.6166,574.848],[-65.176,-26.6103,621.7234],[-65.1758,-26.6007,790.5193],[-65.1783,-26.5934,806.5253],[-65.1745,-26.5611,1197.1122],[-65.1674,-26.5454,1353.7878]]]]}}