{"type":"Feature","properties":{"GID_2":"ARG.15.10_1","GID_0":"ARG","country":"Argentina","GID_1":"ARG.15_1","state":"Neuquén","NL_NAME_1":"NA","county":"LosLagos","VARNAME_2":"VillalaAngostura","NL_NAME_2":"NA","TYPE_2":"Departamento","ENGTYPE_2":"Department","CC_2":"NA","HASC_2":"AR.NQ.LL","name":"LosLagos.county"},
"geometry":{"type": "MultiPolygon","coordinates": [[[[-71.7406,-40.4363,2151.0479],[-71.741,-40.4373,2151.0479],[-71.7488,-40.4352,2012.0947],[-71.7531,-40.4316,1772.8639],[-71.7548,-40.4293,1676.0358],[-71.7554,-40.4213,1812.3374],[-71.7597,-40.4159,1808.568],[-71.7652,-40.417,1587.3007],[-71.7743,-40.4231,1670.2589],[-71.7789,-40.4206,1392.0496],[-71.7831,-40.411,1704.4939],[-71.7939,-40.4073,1484.7393],[-71.8079,-40.4067,1796.9105],[-71.8107,-40.4108,1732.1093],[-71.8255,-40.4205,1913.9132],[-71.8254,-40.4237,1938.2291],[-71.8207,-40.4315,1762.115],[-71.8207,-40.4352,1855.1129],[-71.8285,-40.4374,1824.5947],[-71.83,-40.4431,1553.1914],[-71.8354,-40.4453,1759.989],[-71.842,-40.4522,1824.8248],[-71.8409,-40.4585,1584.6173],[-71.8359,-40.4633,1690.3245],[-71.846,-40.4714,1729.1281],[-71.8466,-40.4798,1465.2852],[-71.8421,-40.4837,1472.0266],[-71.8415,-40.489,1668.9594],[-71.8465,-40.4939,1864.0389],[-71.845,-40.4967,1898.3901],[-71.8567,-40.5097,1202.2869],[-71.8526,-40.5203,1426.0161],[-71.8457,-40.5199,1652.5593],[-71.8437,-40.5214,1712.5891],[-71.8431,-40.5248,1818.8416],[-71.8517,-40.5258,1655.3506],[-71.8542,-40.5308,1639.3604],[-71.8601,-40.5363,1355.5903],[-71.8616,-40.5397,1263.9027],[-71.8585,-40.5546,1639.671],[-71.868,-40.5574,1407.6294],[-71.8748,-40.5541,1467.2605],[-71.8887,-40.5514,1703.4233],[-71.8913,-40.5557,1546.6908],[-71.8868,-40.5584,1307.9653],[-71.8867,-40.5625,1271.9733],[-71.8786,-40.5637,1207.2302],[-71.876,-40.5697,1281.1338],[-71.8712,-40.5716,1428.1007],[-71.8685,-40.5749,1569.8757],[-71.8663,-40.5835,1652.0084],[-71.8581,-40.5915,1700.5967],[-71.8538,-40.5914,1646.2573],[-71.8458,-40.5827,1685.5157],[-71.8443,-40.5858,1628.1371],[-71.8405,-40.5871,1545.3439],[-71.8255,-40.5776,1784.757],[-71.8366,-40.5941,1382.6567],[-71.8417,-40.5977,1363.2655],[-71.842,-40.6034,1502.3022],[-71.839,-40.6089,1740.1094],[-71.8444,-40.6276,1539.5642],[-71.8469,-40.6316,1533.3658],[-71.851,-40.6329,1394.4608],[-71.8533,-40.6362,1322.3674],[-71.8552,-40.6401,1398.1313],[-71.8549,-40.6449,1409.4919],[-71.8619,-40.6431,1538.3018],[-71.8666,-40.6471,1561.5308],[-71.8653,-40.6509,1482.7039],[-71.8679,-40.653,1545.363],[-71.8682,-40.655,1431.3831],[-71.8661,-40.6566,1418.5009],[-71.8688,-40.6635,1437.7693],[-71.8735,-40.6657,1503.4747],[-71.8782,-40.6648,1502.292],[-71.8843,-40.6662,1457.5967],[-71.8978,-40.6822,1459.0464],[-71.9049,-40.683,1494.397],[-71.9216,-40.6889,1678.7041],[-71.9261,-40.6965,1612.2755],[-71.9329,-40.6997,1503.5911],[-71.9336,-40.7027,1512.3148],[-71.9421,-40.7094,1331.3933],[-71.9489,-40.7185,1415.9237],[-71.9616,-40.7179,1385.7135],[-71.963,-40.7215,1425.5876],[-71.9583,-40.7231,1423.8057],[-71.9661,-40.7274,1564.7297],[-71.9619,-40.7295,1530.6747],[-71.9646,-40.7372,1405.76],[-71.9635,-40.7416,1451.2311],[-71.965,-40.7457,1516.791],[-71.9583,-40.7452,1500.087],[-71.9583,-40.7478,1487.3854],[-71.9553,-40.7505,1516.8606],[-71.9589,-40.7573,1517.995],[-71.9579,-40.7602,1528.7963],[-71.9482,-40.7675,1726.422],[-71.9417,-40.7652,1804.8229],[-71.9428,-40.7694,1867.8336],[-71.9389,-40.7744,1821.6985],[-71.9285,-40.7782,1784.4689],[-71.9193,-40.7872,1625.8481],[-71.9192,-40.7886,1636.1685],[-71.9259,-40.7917,1556.8081],[-71.9275,-40.7941,1544.0479],[-71.9269,-40.808,1771.731],[-71.9245,-40.8104,1893.9167],[-71.9304,-40.8127,1701.4641],[-71.9297,-40.8182,1608.178],[-71.9343,-40.8218,1913.3121],[-71.9319,-40.8246,1831.1199],[-71.9254,-40.8255,1612.4885],[-71.9232,-40.8276,1565.1621],[-71.9228,-40.8291,1592.8306],[-71.9269,-40.8329,1733.6312],[-71.9198,-40.8376,1627.0388],[-71.9136,-40.8395,1767.6997],[-71.9131,-40.8434,1808.686],[-71.9083,-40.8459,1849.597],[-71.9111,-40.8516,1675.6589],[-71.9087,-40.8568,1799.0042],[-71.9017,-40.861,1871.6708],[-71.8918,-40.87,1681.7072],[-71.8898,-40.8737,1761.3359],[-71.8872,-40.8741,1791.447],[-71.8804,-40.8807,1782.6969],[-71.8719,-40.8812,1444.3506],[-71.8629,-40.8779,1261.4778],[-71.8594,-40.8794,1490.2229],[-71.8588,-40.8812,1531.8616],[-71.8614,-40.887,1698.121],[-71.8698,-40.8924,1443.8853],[-71.8645,-40.9041,1873.7362],[-71.8666,-40.9078,1798.6486],[-71.8562,-40.9223,1601.4623],[-71.8609,-40.9233,1417.993],[-71.8595,-40.9273,1373.9041],[-71.863,-40.9328,1620.9709],[-71.8571,-40.9385,1742.3555],[-71.8571,-40.941,1776.5117],[-71.8535,-40.9455,1666.5632],[-71.8565,-40.9504,1451.0909],[-71.8565,-40.9588,1755.9866],[-71.8606,-40.9606,1471.3547],[-71.8721,-40.9587,1334.0],[-71.8861,-40.9665,1556.1182],[-71.8916,-40.9647,1772.2893],[-71.8987,-40.9588,1721.0955],[-71.9059,-40.9628,1833.1195],[-71.9087,-40.9731,1649.517],[-71.9057,-40.9763,1556.8612],[-71.9053,-40.9852,1811.2701],[-71.8985,-40.9841,1660.5149],[-71.8925,-40.9859,1603.7456],[-71.8829,-40.9947,1322.2666],[-71.8738,-40.9999,1510.2816],[-71.8744,-41.0112,1625.2926],[-71.8689,-41.0129,1403.9613],[-71.8649,-41.0162,1511.443],[-71.8656,-41.0183,1543.2231],[-71.8625,-41.0233,1525.12],[-71.8619,-41.0289,1578.163],[-71.8588,-41.0331,1632.3429],[-71.857,-41.0337,1608.3568],[-71.8494,-41.0307,1453.5714],[-71.8468,-41.0315,1528.2421],[-71.8398,-41.0242,927.0229],[-71.822,-41.0269,858.8409],[-71.8107,-41.0235,800.3193],[-71.7984,-41.0232,768.0],[-71.7805,-41.0262,897.0928],[-71.7566,-41.0225,768.0],[-71.7385,-41.0254,768.0],[-71.7172,-41.0259,768.0],[-71.6687,-41.0311,768.0],[-71.6388,-41.0361,768.0],[-71.599,-41.038,768.0],[-71.5587,-41.0272,768.0],[-71.5377,-41.0247,768.0],[-71.4954,-41.0384,768.0],[-71.4591,-41.0411,768.0],[-71.4326,-41.0568,768.0],[-71.3585,-41.089,768.0],[-71.3133,-41.0954,768.0],[-71.2888,-41.0964,768.0],[-71.2366,-41.0944,768.0],[-71.2236,-41.0888,768.0],[-71.1786,-41.0607,768.0],[-71.1623,-41.0542,768.0],[-71.1443,-41.0516,810.9772],[-71.1335,-41.0471,798.3488],[-71.1301,-41.0434,785.6077],[-71.1284,-41.0388,780.0602],[-71.1307,-41.0276,779.5041],[-71.1234,-41.02,768.6466],[-71.1199,-41.0134,767.7981],[-71.1067,-41.008,770.5482],[-71.0932,-40.9986,757.5132],[-71.0923,-40.9961,755.4613],[-71.0946,-40.9929,756.8889],[-71.1037,-40.9894,807.8883],[-71.1015,-40.9869,817.8856],[-71.0759,-40.9774,752.9086],[-71.0612,-40.9777,749.9497],[-71.0548,-40.9621,746.9974],[-71.0389,-40.9549,855.7509],[-71.0431,-40.9417,761.6674],[-71.0365,-40.9312,744.1442],[-71.0272,-40.9042,782.6695],[-71.0337,-40.884,913.7368],[-71.0417,-40.8747,809.4361],[-71.0426,-40.8679,834.6828],[-71.052,-40.862,865.5447],[-71.0537,-40.8551,785.9958],[-71.0611,-40.8477,836.8928],[-71.0744,-40.8421,1016.4657],[-71.0781,-40.8456,906.4573],[-71.0976,-40.8343,719.0516],[-71.0974,-40.8321,714.8237],[-71.091,-40.8272,714.7701],[-71.0899,-40.8225,728.1074],[-71.0951,-40.8142,838.5906],[-71.1137,-40.7993,827.1192],[-71.112799999999993,-40.7922,792.3248],[-71.1197,-40.7769,718.0535],[-71.118,-40.7587,699.7772],[-71.1032,-40.747,700.1492],[-71.0937,-40.7278,713.0733],[-71.0889,-40.7247,699.5],[-71.083,-40.7249,713.7979],[-71.0718,-40.7287,699.5],[-71.0599,-40.7269,699.5],[-71.048,-40.7286,699.5],[-71.0368,-40.7253,699.5],[-71.0321,-40.7193,740.3717],[-71.028,-40.7081,748.2455],[-71.0192,-40.6992,713.7422],[-71.0188,-40.6921,701.139],[-71.0136,-40.6866,699.5],[-71.0151,-40.677,699.5],[-71.0124,-40.6739,699.5],[-71.0032,-40.6715,699.5],[-70.9966,-40.6667,699.5],[-70.9843,-40.6484,699.5],[-70.9782,-40.6474,699.5],[-70.9735,-40.6487,699.5],[-70.9527,-40.639,699.5],[-70.9376,-40.6381,699.5],[-70.9145,-40.6271,699.5],[-70.9064,-40.6205,699.5],[-70.8954,-40.6203,699.5],[-71.014,-40.6123,902.6997],[-71.1522,-40.6061,1280.2014],[-71.1643,-40.6031,1146.7164],[-71.1802,-40.5934,1375.3052],[-71.1859,-40.5918,1330.4099],[-71.2049,-40.5962,1284.0594],[-71.2202,-40.6056,1355.7328],[-71.2382,-40.6118,1738.6519],[-71.2577,-40.6137,1572.8195],[-71.2906,-40.6122,1220.8649],[-71.3028,-40.6088,1254.158],[-71.3193,-40.6005,1380.2302],[-71.36,-40.5676,1506.6654],[-71.3706,-40.5621,1571.0144],[-71.416,-40.556,1431.75],[-71.4487,-40.5537,1679.4387],[-71.4687,-40.5544,1315.031],[-71.4741,-40.5525,1217.3074],[-71.5054,-40.5199,1671.8634],[-71.5447,-40.5017,1612.8031],[-71.5488,-40.4981,1618.4429],[-71.5506,-40.4931,1632.7198],[-71.5577,-40.4848,1612.9314],[-71.5808,-40.4664,1129.9656],[-71.5863,-40.4646,960.9414],[-71.5988,-40.4681,1510.5585],[-71.6118,-40.4686,1333.4009],[-71.6294,-40.4628,1141.4753],[-71.6412,-40.4678,1504.1174],[-71.6607,-40.4676,1441.6525],[-71.6973,-40.457,1326.5875],[-71.7233,-40.4382,1288.1646],[-71.7316,-40.4384,1695.15],[-71.7406,-40.4363,2151.0479]]]]}}