{"type": "Feature","bbox": [-58.3478,-34.8045,-58.1918,-34.6797],"geometry": {"type": "MultiPolygon","coordinates": [[[[-58.3108,-34.7969,11.5578],[-58.3043,-34.8045,11.3743],[-58.3021,-34.8015,11.4616],[-58.3015,-34.794,9.9872],[-58.3001,-34.7925,10.352],[-58.2953,-34.794,12.8911],[-58.2994,-34.7871,9.5385],[-58.273,-34.772,19.7995],[-58.2684,-34.7773,22.3253],[-58.1918,-34.7371,0.0],[-58.1979,-34.734,0.8638],[-58.2068,-34.721,0.6098],[-58.221,-34.711,0.3684],[-58.2187,-34.7076,0.0],[-58.2238,-34.7093,0.8937],[-58.2304,-34.7054,0.0],[-58.2276,-34.6996,0.0],[-58.2365,-34.7018,2.696],[-58.2771,-34.6797,7.5651],[-58.3478,-34.743,16.3402],[-58.3108,-34.7969,11.5578]]]]}
,"properties": {"GID_2": "ARG.1.95_1","GID_0": "ARG","country": "Argentina","GID_1": "ARG.1_1","state": "BuenosAires","NL_NAME_1": "NA","county": "Quilmes","VARNAME_2": "NA","NL_NAME_2": "NA","TYPE_2": "Partido","ENGTYPE_2": "Part","CC_2": "NA","HASC_2": "AR.BA.QU","name": "Quilmes.county","area_km2": 95.28836,"hist_schema_id": "Elevation0-9000","hist_area_km2": {"0": 57.39378,"25": 37.89458}}}