{"type": "Feature","bbox": [-62.3459,-23.4958,-61.8438,-22.4616],"geometry": {"type": "MultiPolygon","coordinates": [[[[-61.8515,-23.1083,203.8389],[-61.8535,-23.103,203.1828],[-61.8654,-23.1008,205.3037],[-61.8625,-23.0915,205.1581],[-61.8632,-23.0866,204.7173],[-61.87,-23.0841,207.7213],[-61.8827,-23.0837,206.1807],[-61.8929,-23.0812,206.963],[-61.9106,-23.0705,206.5675],[-61.9273,-23.0707,209.0288],[-61.9371,-23.0659,207.9311],[-61.9424,-23.0544,207.9164],[-61.9541,-23.0486,209.5413],[-61.9747,-23.027,208.5126],[-61.9846,-23.0239,209.7639],[-61.9892,-23.0208,208.9493],[-61.9994,-22.9982,209.7859],[-62.0058,-22.9925,209.6257],[-62.0071,-22.9829,209.8538],[-62.0022,-22.9736,210.0042],[-62.0062,-22.9662,210.3146],[-62.0033,-22.9571,210.6779],[-62.0057,-22.9446,211.3117],[-62.0116,-22.9303,213.7454],[-62.0167,-22.9261,212.7369],[-62.023,-22.924,212.6636],[-62.0362,-22.9256,211.7116],[-62.0381,-22.9227,211.4719],[-62.0339,-22.917,213.575],[-62.0335,-22.9138,215.6071],[-62.0408,-22.8918,215.5474],[-62.0395,-22.8818,216.5395],[-62.0433,-22.8722,216.9467],[-62.0594,-22.8566,216.7902],[-62.0644,-22.8474,215.6663],[-62.0735,-22.8499,217.969],[-62.0763,-22.8468,218.5535],[-62.0805,-22.8258,218.3517],[-62.0872,-22.8173,218.2257],[-62.0897,-22.8162,218.4949],[-62.1067,-22.8185,219.5612],[-62.1114,-22.8099,220.3761],[-62.1149,-22.7967,219.9149],[-62.1174,-22.7936,220.8088],[-62.1357,-22.7867,220.5257],[-62.1403,-22.7749,221.8368],[-62.1384,-22.7643,220.866],[-62.1415,-22.7612,222.2686],[-62.1554,-22.7593,221.7841],[-62.1615,-22.7546,222.7079],[-62.1646,-22.7471,222.2225],[-62.1607,-22.7342,223.1278],[-62.1804,-22.7081,225.3429],[-62.1863,-22.7074,225.3839],[-62.1952,-22.7147,225.5161],[-62.1987,-22.7146,225.31],[-62.2013,-22.7101,225.2826],[-62.2028,-22.6874,226.8745],[-62.1989,-22.6795,222.5],[-62.201,-22.6669,223.125],[-62.2004,-22.6545,230.6105],[-62.1918,-22.6529,228.203],[-62.1887,-22.6487,225.3083],[-62.2003,-22.6412,226.9687],[-62.2236,-22.6189,233.668],[-62.2288,-22.6177,230.8497],[-62.2334,-22.6215,233.3054],[-62.2388,-22.6228,227.5],[-62.2409,-22.6109,233.329],[-62.2499,-22.607,229.2361],[-62.2523,-22.6016,229.0],[-62.2666,-22.5953,233.894],[-62.2604,-22.5894,232.0588],[-62.2464,-22.5849,233.9235],[-62.2424,-22.5781,234.1786],[-62.235,-22.5546,237.4405],[-62.2352,-22.5455,237.2777],[-62.24,-22.5374,239.6666],[-62.252,-22.5306,232.5],[-62.2567,-22.5151,239.1711],[-62.2661,-22.5083,234.5402],[-62.2701,-22.5079,241.6735],[-62.28,-22.5206,235.9919],[-62.2835,-22.5214,233.5],[-62.2856,-22.5168,240.0442],[-62.2849,-22.4913,240.0345],[-62.2873,-22.4864,241.3603],[-62.2973,-22.4827,239.8278],[-62.3255,-22.481,239.1138],[-62.3333,-22.4757,243.0465],[-62.3306,-22.4676,242.4606],[-62.3314,-22.4658,242.9881],[-62.3446,-22.4616,241.7106],[-62.3459,-23.4958,203.2422],[-61.8438,-23.495,193.3356],[-61.8515,-23.1083,203.8389]]]]}
,"properties": {"GID_2": "ARG.9.9_1","GID_0": "ARG","country": "Argentina","GID_1": "ARG.9_1","state": "Formosa","NL_NAME_1": "NA","county": "RamónLista","VARNAME_2": "ElChorro","NL_NAME_2": "NA","TYPE_2": "Departamento","ENGTYPE_2": "Department","CC_2": "NA","HASC_2": "AR.FM.RL","name": "RamónLista.county","area_km2": 3875.417,"hist_schema_id": "Elevation0-9000","hist_area_km2": {"200": 2540.979,"225": 1299.984,"250": 34.454}}}