{"type":"Feature","properties":{"GID_2":"ARG.22.16_1","GID_0":"ARG","country":"Argentina","GID_1":"ARG.22_1","state":"SantiagodelEstero","NL_NAME_1":"NA","county":"Mitre","VARNAME_2":"VillaUnion","NL_NAME_2":"NA","TYPE_2":"Departamento","ENGTYPE_2":"Department","CC_2":"NA","HASC_2":"AR.SE.MI","name":"Mitre.county"},
"geometry":{"type": "MultiPolygon","coordinates": [[[[-62.6583,-30.0346,73.6666],[-62.4539,-30.0334,72.4641],[-62.451,-29.6834,76.0763],[-62.4459,-29.6144,77.3129],[-62.6266,-29.616,80.099],[-62.6269,-29.3826,85.4613],[-62.7651,-29.3828,85.8605],[-62.765,-29.3229,87.7604],[-62.8128,-29.3224,86.9397],[-62.8133,-29.304,87.5266],[-62.9165,-29.3045,87.6261],[-62.9148,-29.2193,89.0228],[-63.0475,-29.2208,90.4272],[-63.0361,-29.237,90.5664],[-63.1894,-29.3214,89.6084],[-63.1782,-29.3284,89.6334],[-63.1679,-29.3418,90.3707],[-63.1518,-29.3447,87.425],[-63.1494,-29.3472,87.1913],[-63.1361,-29.3887,88.4815],[-63.1392,-29.3989,87.4108],[-63.1404,-29.4132,87.5957],[-63.1383,-29.4381,86.3554],[-63.1328,-29.4434,86.4699],[-63.1263,-29.4546,86.7578],[-63.1101,-29.4704,87.1964],[-63.0954,-29.4876,86.1153],[-63.0868,-29.5018,85.8276],[-63.077,-29.5132,85.4064],[-63.0735,-29.5215,85.3],[-63.066,-29.5276,84.6011],[-63.0646,-29.5381,84.8529],[-63.0569,-29.5488,83.9895],[-63.052,-29.5517,83.6425],[-63.0383,-29.5557,83.432],[-63.0302,-29.5556,83.3058],[-63.023,-29.5592,83.5049],[-63.0164,-29.5634,82.8889],[-63.0079,-29.5735,82.5845],[-63.0002,-29.5793,82.7163],[-62.9862,-29.6032,81.9881],[-62.9832,-29.6117,81.9745],[-62.9788,-29.6155,82.0876],[-62.9742,-29.6366,81.6325],[-62.9661,-29.6337,81.6499],[-62.9616,-29.644,81.5088],[-62.9457,-29.6552,81.5206],[-62.9329,-29.669,80.9996],[-62.9225,-29.6691,80.9482],[-62.9182,-29.6661,80.9433],[-62.914,-29.6666,80.9875],[-62.909,-29.6698,81.0561],[-62.9047,-29.6778,80.8327],[-62.9086,-29.6917,80.8225],[-62.9053,-29.6982,80.5666],[-62.8974,-29.7002,80.1048],[-62.8873,-29.6989,79.8569],[-62.8724,-29.7083,79.4368],[-62.8604,-29.7121,79.5268],[-62.8702,-29.7365,78.9997],[-62.8708,-29.7436,79.1934],[-62.876,-29.7512,79.2199],[-62.8784,-29.7691,79.3218],[-62.8744,-29.7772,79.4763],[-62.8653,-29.7868,79.5415],[-62.8531,-29.786,79.0488],[-62.8388,-29.7885,78.7688],[-62.8357,-29.8111,78.113],[-62.7836,-29.8148,78.2032],[-62.7883,-29.8182,77.1938],[-62.8021,-29.8234,77.9098],[-62.8083,-29.8293,79.1058],[-62.8104,-29.8342,77.7711],[-62.8107,-29.8422,77.572],[-62.8079,-29.8497,77.5321],[-62.8031,-29.8566,77.2612],[-62.8024,-29.8698,77.1526],[-62.799,-29.8772,77.1362],[-62.7948,-29.8809,76.9416],[-62.7862,-29.8837,76.5785],[-62.7842,-29.8913,76.39],[-62.7693,-29.9081,76.0585],[-62.7662,-29.9155,75.8488],[-62.7657,-29.9342,76.3761],[-62.7635,-29.9392,75.6651],[-62.7256,-29.9543,75.0573],[-62.716,-29.9709,74.7167],[-62.7027,-29.9766,74.7676],[-62.7022,-29.9819,74.0947],[-62.6955,-29.9871,74.3002],[-62.6935,-29.9921,74.8652],[-62.691,-29.9936,74.821],[-62.6892,-30.0004,74.4388],[-62.6843,-30.0091,74.2836],[-62.6731,-30.0246,74.0024],[-62.6693,-30.0285,73.7438],[-62.6633,-30.0296,73.7277],[-62.6583,-30.0346,73.6666]]]]}}