{"type":"Feature","properties":{"GID_2":"ARG.17.11_1","GID_0":"ARG","country":"Argentina","GID_1":"ARG.17_1","state":"Salta","NL_NAME_1":"NA","county":"LaCaldera","VARNAME_2":"Caldera","NL_NAME_2":"NA","TYPE_2":"Departamento","ENGTYPE_2":"Department","CC_2":"NA","HASC_2":"AR.SA.LC","name":"LaCaldera.county"},
"geometry":{"type": "MultiPolygon","coordinates": [[[[-65.3535,-24.4663,1795.3064],[-65.3596,-24.4649,1712.7064],[-65.3774,-24.4681,1554.6521],[-65.3922,-24.4658,1687.7377],[-65.4011,-24.4674,1795.4436],[-65.4088,-24.4714,1993.62],[-65.4267,-24.4704,2332.1182],[-65.4471,-24.4545,2461.636],[-65.4485,-24.4521,2520.4722],[-65.4498,-24.4357,2554.4961],[-65.4516,-24.4334,2616.0278],[-65.454,-24.4318,2661.1887],[-65.4719,-24.4318,3029.8604],[-65.4803,-24.4289,3307.2163],[-65.4962,-24.4361,3282.7092],[-65.4994,-24.4409,3290.7874],[-65.5005,-24.4489,3246.7805],[-65.5047,-24.4563,3596.9282],[-65.5069,-24.4581,3576.0576],[-65.5127,-24.4577,3631.3943],[-65.5244,-24.4489,3526.6006],[-65.5338,-24.435,3514.7886],[-65.5411,-24.4301,3227.7705],[-65.5523,-24.4283,3307.4968],[-65.5674,-24.4296,3648.7078],[-65.5726,-24.4271,3787.5376],[-65.5731,-24.4188,3857.4539],[-65.5768,-24.4114,3612.791],[-65.5893,-24.4037,4367.7788],[-65.6003,-24.3943,4372.1455],[-65.6075,-24.3855,4294.6396],[-65.6151,-24.3811,4442.6064],[-65.6237,-24.3788,4588.7085],[-65.6281,-24.3749,4602.9805],[-65.6494,-24.3871,5119.6865],[-65.6574,-24.3958,4910.0312],[-65.6619,-24.4124,5208.5039],[-65.6591,-24.4411,4840.6616],[-65.6591,-24.464,4730.5415],[-65.6766,-24.5071,4230.8223],[-65.6795,-24.5182,4090.0256],[-65.6851,-24.5286,3962.3647],[-65.692,-24.5381,3804.5117],[-65.7088,-24.5459,3663.9751],[-65.7167,-24.555,3490.0593],[-65.7188,-24.5602,3488.0527],[-65.7153,-24.5646,3492.1899],[-65.7089,-24.5665,3567.5386],[-65.6908,-24.5632,3747.7258],[-65.6851,-24.5607,3845.7539],[-65.6666,-24.5452,4140.6289],[-65.6605,-24.5436,3961.7642],[-65.632,-24.5546,3042.9983],[-65.6106,-24.5664,2761.1011],[-65.5624,-24.5767,2427.6423],[-65.5647,-24.5999,2821.854],[-65.5687,-24.6168,2817.5103],[-65.5683,-24.6398,2651.9185],[-65.5714,-24.6548,2623.4321],[-65.5434,-24.6635,2097.7627],[-65.5324,-24.669,1976.9557],[-65.5179,-24.68,1860.1921],[-65.5004,-24.6862,1565.6094],[-65.4847,-24.6957,1442.3416],[-65.476,-24.704,1387.3082],[-65.4486,-24.7179,1311.829],[-65.4364,-24.7202,1284.2174],[-65.4138,-24.7198,1233.8147],[-65.4012,-24.7233,1212.1653],[-65.3958,-24.7232,1201.3484],[-65.3788,-24.7107,1174.1287],[-65.3628,-24.7096,1171.1671],[-65.3567,-24.7107,1146.7394],[-65.3361,-24.7239,1204.1204],[-65.3184,-24.7294,1286.3938],[-65.2865,-24.711,1059.3372],[-65.2613,-24.7125,1045.9973],[-65.218,-24.7123,973.4908],[-65.2187,-24.7054,1027.7731],[-65.2241,-24.7034,1035.9287],[-65.243,-24.701,1244.8311],[-65.2475,-24.6976,1268.6055],[-65.2562,-24.6761,1102.3573],[-65.2654,-24.6611,1204.9888],[-65.2765,-24.6472,1368.3625],[-65.2757,-24.6415,1216.1643],[-65.2667,-24.6073,1372.0035],[-65.264,-24.6031,1276.3633],[-65.2512,-24.6048,1059.0491],[-65.2325,-24.6039,975.2304],[-65.2208,-24.5997,962.0037],[-65.2128,-24.5909,1064.703],[-65.2112,-24.5854,991.8856],[-65.2121,-24.5567,925.3558],[-65.2023,-24.5235,945.3365],[-65.2019,-24.5177,956.6744],[-65.1773,-24.4662,963.6321],[-65.188,-24.4603,981.1786],[-65.2197,-24.4763,1186.7418],[-65.2297,-24.4862,1344.3],[-65.2388,-24.4862,1293.3108],[-65.2476,-24.4882,1170.3538],[-65.2635,-24.4959,1129.6311],[-65.2726,-24.5031,1339.1152],[-65.2843,-24.5053,1273.4906],[-65.2932,-24.5044,1362.3119],[-65.3131,-24.4981,1449.6432],[-65.3251,-24.4989,1593.9785],[-65.3336,-24.5018,1542.3914],[-65.3394,-24.5003,1728.75],[-65.3571,-24.4854,1722.1344],[-65.3484,-24.4749,1845.7688],[-65.3493,-24.4695,1865.8635],[-65.3535,-24.4663,1795.3064]]]]}}