{"type": "Feature","bbox": [-63.9566,-26.2398,-61.7099,-25.6519],"geometry": {"type": "MultiPolygon","coordinates": [[[[-63.4276,-25.6519,267.316],[-63.4754,-25.7097,266.3467],[-63.5,-25.7082,266.8383],[-63.5281,-25.7092,268.4659],[-63.5914,-25.7076,271.0677],[-63.6017,-25.7058,273.7849],[-63.6451,-25.6927,276.9377],[-63.6693,-25.6888,279.5218],[-63.6834,-25.6897,281.7378],[-63.7248,-25.6966,281.5851],[-63.7705,-25.698,282.5378],[-63.8088,-25.7025,284.9257],[-63.8721,-25.7038,285.7363],[-63.9283,-25.7072,291.5852],[-63.9566,-25.7068,291.9778],[-63.9453,-25.7355,288.7088],[-63.9454,-25.7451,289.0492],[-63.9386,-25.7635,286.4653],[-63.9396,-25.773,283.3608],[-63.9441,-25.7819,283.3427],[-63.9437,-25.7865,283.1342],[-63.9358,-25.8046,280.8972],[-63.9286,-25.8116,279.985],[-63.9132,-25.8141,278.607],[-63.899,-25.8201,277.7],[-63.8939,-25.834,276.0174],[-63.8909,-25.8379,275.8829],[-63.8712,-25.8449,274.3012],[-63.8511,-25.8607,272.8395],[-63.8457,-25.869,271.3154],[-63.8414,-25.8829,268.5993],[-63.8392,-25.907,266.2549],[-63.8415,-25.9261,264.4802],[-63.8395,-25.9305,264.0112],[-63.8355,-25.9338,260.7351],[-63.8148,-25.9375,263.1222],[-63.805,-25.9413,262.1083],[-63.7973,-25.9592,261.4267],[-63.7912,-25.9671,260.9624],[-63.7793,-25.994,254.8314],[-63.7625,-26.0242,252.0602],[-63.7613,-26.0385,251.4306],[-63.7633,-26.0626,247.3999],[-63.7594,-26.0865,244.6677],[-63.7538,-26.0948,242.2206],[-63.7528,-26.0994,241.6034],[-63.7519,-26.1236,237.1586],[-63.761,-26.1463,237.9028],[-63.7691,-26.1587,240.5872],[-63.7721,-26.168,238.5965],[-63.7737,-26.192,235.0942],[-63.7789,-26.2107,235.8774],[-63.7785,-26.2252,234.6275],[-63.7825,-26.2392,231.0645],[-62.4739,-26.2398,188.6436],[-62.1736,-26.2391,171.388],[-61.7108,-26.2353,151.6201],[-61.7099,-25.9614,156.8953],[-61.7123,-25.6555,160.6295],[-63.0536,-25.6549,241.1752],[-63.4276,-25.6519,267.316]]]]}
,"properties": {"GID_2": "ARG.22.9_1","GID_0": "ARG","country": "Argentina","GID_1": "ARG.22_1","state": "SantiagodelEstero","NL_NAME_1": "NA","county": "Copo","VARNAME_2": "MonteQuemado","NL_NAME_2": "NA","TYPE_2": "Departamento","ENGTYPE_2": "Department","CC_2": "NA","HASC_2": "AR.SE.CO","name": "Copo.county","area_km2": 13543.63,"hist_schema_id": "Elevation0-9000","hist_area_km2": {"150": 720.41,"175": 3162.75,"200": 2963.57,"225": 3367.09,"250": 2434.68,"275": 870.06,"300": 25.06}}}