{"type": "Feature","id": "1301","bbox": [-67.25133,-24.61395,-64.15877,-21.78694],"geometry": {"type": "Polygon","coordinates": [[[-65.74461,-22.11405,3568.7065],[-65.77531,-22.10506,3690.2063],[-65.80456,-22.08583,3735.2437],[-65.93269,-21.94455,3752.2158],[-65.9545,-21.93308,3741.8196],[-66.04653,-21.91799,3845.2305],[-66.05175,-21.91261,3803.2727],[-66.06359,-21.86404,3881.0439],[-66.09449,-21.83293,4008.5803],[-66.13782,-21.81247,4245.1157],[-66.22246,-21.78694,3363.3],[-66.24001,-21.79242,3340.2217],[-66.28755,-21.95695,3523.3718],[-66.29716,-22.05028,3540.2974],[-66.3015,-22.06496,3620.5247],[-66.3076,-22.07705,3851.1252],[-66.30982,-22.07819,3853.1514],[-66.31406,-22.07581,3797.916],[-66.32667,-22.07736,3745.5938],[-66.33525,-22.08232,3775.9817],[-66.343,-22.09049,3752.3892],[-66.34918,-22.1002,3789.6147],[-66.35323,-22.10961,3646.135],[-66.37747,-22.12707,3603.3579],[-66.51033,-22.16294,4405.3481],[-66.62676,-22.1926,5141.9053],[-66.63058,-22.19735,5200.5571],[-66.63327,-22.2049,5076.2222],[-66.63632,-22.2113,5056.9312],[-66.64138,-22.21254,5308.6221],[-66.65781,-22.20738,4969.856],[-66.6774,-22.2051,5018.4702],[-66.68846,-22.20169,5125.0552],[-66.69931,-22.20076,5046.2051],[-66.71285,-22.20645,5033.6562],[-66.7359,-22.22505,5340.7744],[-66.74887,-22.24489,4967.6846],[-66.7561,-22.26825,4598.5034],[-66.76794,-22.34256,4611.1953],[-66.77517,-22.3652,4434.9082],[-66.78804,-22.38008,4379.623],[-66.79052,-22.38835,4420.9634],[-66.78447,-22.41729,5053.4219],[-66.78509,-22.42762,5060.8633],[-66.79646,-22.43486,4967.1841],[-66.90865,-22.46752,4813.0737],[-66.93532,-22.48054,5079.4434],[-66.95557,-22.50069,4707.6538],[-66.96524,-22.51434,4836.8501],[-66.97816,-22.5225,5061.6143],[-66.99355,-22.52581,5103.4531],[-67.01567,-22.52384,5236.0205],[-67.03273,-22.52457,5276.333],[-67.02435,-22.61758,4976.3149],[-67.02663,-22.63939,5270.0137],[-67.03769,-22.65459,5026.6748],[-67.11324,-22.71009,4825.3525],[-67.14269,-22.74275,4785.3511],[-67.1939,-22.82222,4933.1172],[-67.01397,-23.00071,4699.9116],[-67.01955,-23.03193,5069.9746],[-67.03727,-23.08536,4475.6436],[-67.10745,-23.29775,4201.543],[-67.17768,-23.51024,4303.585],[-67.24791,-23.72274,4314.3301],[-67.25133,-23.73309,4307.1997],[-67.25077,-23.73328,4307.1997],[-67.22692,-23.75757,4256.0996],[-67.22,-23.76289,4248.502],[-67.21346,-23.76646,4244.207],[-67.18672,-23.77467,4202.7471],[-67.18044,-23.7787,4186.6318],[-67.17388,-23.78439,4162.5195],[-67.15504,-23.80769,4078.5942],[-67.15065,-23.81193,4067.6096],[-67.14468,-23.81591,4039.4448],[-67.13355,-23.81968,4030.3433],[-67.12523,-23.82118,4007.0659],[-67.10455,-23.82289,4032.8481],[-67.09215,-23.8263,4041.0493],[-67.08683,-23.82883,4042.5088],[-67.07978,-23.83358,4032.1118],[-67.0719,-23.84035,4012.4309],[-67.04396,-23.87193,3971.7058],[-66.99963,-23.91255,4251.4048],[-66.99846,-23.91472,4245.4883],[-66.99268,-23.93275,4278.7344],[-66.98839,-23.94164,4275.0293],[-66.98405,-23.94551,4256.8931],[-66.97803,-23.94836,4291.4307],[-66.96725,-23.94975,4225.437],[-66.95983,-23.9496,4165.4248],[-66.95247,-23.95099,4281.5967],[-66.94699,-23.95409,4418.4673],[-66.94188,-23.96184,4365.6592],[-66.93702,-23.97936,4296.6577],[-66.9348,-23.9837,4297.9282],[-66.93193,-23.98768,4328.9927],[-66.89787,-24.01879,4168.5732],[-66.88025,-24.04267,4040.7173],[-66.87356,-24.05006,3971.8125],[-66.85744,-24.06024,3927.1499],[-66.77667,-24.09305,3940.6206],[-66.7685,-24.09837,3946.6167],[-66.73362,-24.1332,4131.4736],[-66.6974,-24.18054,4396.4951],[-66.67533,-24.19914,4398.8511],[-66.64342,-24.21625,4224.4844],[-66.60402,-24.23253,4577.1587],[-66.5679,-24.23976,4636.9883],[-66.50449,-24.23712,4719.2197],[-66.471,-24.2208,4406.5981],[-66.41832,-24.1547,4459.0469],[-66.41121,-24.15098,4323.9189],[-66.39496,-24.14767,4519.7319],[-66.38801,-24.14096,4591.0425],[-66.38103,-24.12809,4668.8154],[-66.37716,-24.09806,4815.1572],[-66.36951,-24.07822,4632.2656],[-66.36246,-24.06385,4440.4185],[-66.35574,-24.0546,4499.5605],[-66.35199,-24.04137,4269.8364],[-66.34917,-24.01357,4573.2607],[-66.35023,-23.97394,4177.6074],[-66.33863,-23.86965,3949.0962],[-66.33385,-23.78093,3646.8579],[-66.33793,-23.72382,3735.6538],[-66.34576,-23.69674,3877.4839],[-66.37718,-23.62776,3878.2229],[-66.38093,-23.61303,3810.1333],[-66.40287,-23.55691,3740.7373],[-66.40548,-23.54683,3711.0796],[-66.40666,-23.51882,3686.2019],[-66.4038,-23.49314,3667.3013],[-66.37757,-23.39072,3647.7178],[-66.37501,-23.3856,3637.4441],[-66.36889,-23.37692,3636.647],[-66.36481,-23.37325,3658.4827],[-66.35982,-23.3701,3727.7141],[-66.3522,-23.36782,3723.8149],[-66.34212,-23.3687,3733.6008],[-66.32995,-23.3717,3735.7012],[-66.28378,-23.39144,3654.978],[-66.25716,-23.39129,3675.8025],[-66.22709,-23.41304,3560.7976],[-66.21107,-23.41945,3536.5505],[-66.19882,-23.41898,3527.3948],[-66.1875,-23.41733,3500.3447],[-66.18172,-23.41743,3498.3611],[-66.17567,-23.41867,3496.1626],[-66.17019,-23.42069,3494.5276],[-66.02824,-23.49981,3439.8796],[-65.99883,-23.52626,3428.8879],[-65.99209,-23.53386,3426.583],[-65.98682,-23.54332,3423.9568],[-65.98592,-23.55045,3423.21],[-65.98643,-23.56001,3421.2966],[-65.9933,-23.59639,3417.9248],[-65.99338,-23.61572,3415.5388],[-65.98829,-23.66352,3407.8452],[-65.99945,-23.68486,3405.7551],[-65.99925,-23.6878,3405.811],[-65.99798,-23.69251,3405.9385],[-65.98697,-23.71416,3406.1824],[-65.98685,-23.71922,3406.135],[-65.98984,-23.72506,3406.3677],[-66.00493,-23.74046,3406.1597],[-66.00788,-23.74444,3406.5859],[-66.01886,-23.76361,3406.187],[-66.02093,-23.76925,3409.678],[-66.02255,-23.77746,3414.0825],[-66.02596,-23.84764,3500.8052],[-66.0255,-23.85374,3525.1597],[-66.02366,-23.85911,3547.9653],[-66.0178,-23.86314,3583.7937],[-66.01281,-23.86371,3604.5452],[-66.00834,-23.86495,3641.374],[-66.00638,-23.86883,3656.0496],[-66.00578,-23.88324,3711.5466],[-66.00199,-23.88981,3766.4688],[-65.99982,-23.89265,3749.6614],[-65.99695,-23.89487,3741.1831],[-65.99423,-23.89808,3680.3877],[-65.99287,-23.90278,3694.8755],[-65.99473,-23.91017,3751.7537],[-66.00002,-23.92097,3882.7412],[-66.00237,-23.92732,3908.707],[-66.0002,-23.94133,3967.8464],[-65.98134,-23.96572,4328.8774],[-65.97207,-23.97657,4586.3618],[-65.96406,-23.9897,4443.9312],[-65.95941,-23.99316,4549.7646],[-65.95349,-23.99564,4744.8325],[-65.94333,-23.99605,4727.5498],[-65.93713,-23.99409,4637.1846],[-65.93222,-23.99084,4603.7744],[-65.9291,-23.98665,4659.8242],[-65.9254,-23.98308,4644.876],[-65.92116,-23.98029,4538.4414],[-65.91548,-23.97936,4539.5347],[-65.90897,-23.97936,4333.4092],[-65.90194,-23.9804,4189.8994],[-65.89202,-23.98479,4018.4902],[-65.88073,-23.99249,3887.4373],[-65.84417,-24.02582,4180.8125],[-65.83404,-24.03693,4199.625],[-65.82714,-24.04122,4087.7737],[-65.78001,-24.06194,4763.3223],[-65.75911,-24.07682,5520.3135],[-65.7557,-24.11372,4533.6709],[-65.75929,-24.15579,3961.1868],[-65.75154,-24.17511,3960.7251],[-65.71797,-24.22793,4536.7383],[-65.61689,-24.35133,4470.2686],[-65.59834,-24.38637,4192.4062],[-65.5871,-24.40259,4291.6274],[-65.58036,-24.40797,3879.8818],[-65.57049,-24.41422,3405.3777],[-65.53809,-24.43086,3245.0034],[-65.52811,-24.4337,3389.7485],[-65.51809,-24.432,3279.6235],[-65.51178,-24.42946,3276.7307],[-65.50085,-24.42213,3087.7166],[-65.49923,-24.4213,3087.7166],[-65.49659,-24.42042,3119.1028],[-65.49181,-24.4199,3121.0071],[-65.48561,-24.42006,3163.1941],[-65.47874,-24.42099,2888.3196],[-65.47029,-24.42461,2872.8518],[-65.46091,-24.43055,2829.4622],[-65.43954,-24.45117,2124.7466],[-65.42796,-24.46057,2247.4812],[-65.40437,-24.46714,1918.5645],[-65.37978,-24.46802,1568.7903],[-65.37298,-24.46895,1557.2435],[-65.36203,-24.47174,1634.0276],[-65.3166,-24.49153,1392.3379],[-65.27686,-24.50181,1328.375],[-65.25172,-24.49577,1129.2535],[-65.23919,-24.49142,1125.9922],[-65.21547,-24.48042,1199.6244],[-65.17465,-24.45468,971.6158],[-65.16979,-24.4536,968.3193],[-65.16488,-24.45427,960.6395],[-65.16059,-24.45908,950.5632],[-65.15824,-24.46404,939.3271],[-65.15478,-24.47437,924.3517],[-65.15253,-24.47871,915.9129],[-65.14948,-24.48259,908.6138],[-65.06427,-24.54646,737.1057],[-65.0315,-24.56486,685.9362],[-64.93588,-24.59767,602.9442],[-64.92231,-24.59953,594.0371],[-64.91601,-24.59912,590.728],[-64.9105,-24.59798,589.1179],[-64.90572,-24.59581,585.9767],[-64.90174,-24.59256,587.6129],[-64.85635,-24.49354,538.5968],[-64.84141,-24.47132,528.3559],[-64.82818,-24.45546,523.1081],[-64.81658,-24.45887,536.1982],[-64.62548,-24.61323,1831.9717],[-64.61801,-24.61395,1955.5508],[-64.61401,-24.61271,2048.9082],[-64.60936,-24.61054,1932.552],[-64.60427,-24.60563,1654.7341],[-64.59915,-24.59829,1386.9478],[-64.59174,-24.58393,1196.2469],[-64.58375,-24.56062,1314.5562],[-64.57205,-24.54186,1594.2556],[-64.55649,-24.52579,2043.9106],[-64.50298,-24.48073,1639.1895],[-64.45355,-24.46931,2261.6848],[-64.44759,-24.46631,2066.7979],[-64.44156,-24.46135,2083.4141],[-64.42645,-24.43773,2188.6245],[-64.42237,-24.43319,2092.688],[-64.41676,-24.42931,1909.931],[-64.40694,-24.42559,1704.0225],[-64.3994,-24.42399,1778.2736],[-64.37963,-24.42285,1433.241],[-64.37384,-24.42197,1574.9175],[-64.36849,-24.42042,1266.3368],[-64.35715,-24.41825,1269.4583],[-64.33661,-24.41944,1094.0778],[-64.33031,-24.41913,1094.8037],[-64.32465,-24.41794,1085.3322],[-64.31488,-24.41401,918.1951],[-64.31049,-24.41127,892.449],[-64.29803,-24.40161,803.0386],[-64.27103,-24.37515,824.5712],[-64.21199,-24.29877,830.4849],[-64.17708,-24.24069,690.4396],[-64.16132,-24.19651,655.0701],[-64.15877,-24.18364,814.0087],[-64.18106,-23.54156,312.5852],[-64.18342,-23.52595,308.2825],[-64.18884,-23.51329,305.4739],[-64.20401,-23.50875,307.2241],[-64.22137,-23.50663,309.7953],[-64.347,-23.50461,313.6692],[-64.35573,-23.50627,343.7108],[-64.36749,-23.50957,333.4862],[-64.3748,-23.52027,350.8469],[-64.39451,-23.54084,349.0064],[-64.3987,-23.54766,349.5969],[-64.40867,-23.59153,349.7145],[-64.41593,-23.60321,345.9838],[-64.43828,-23.61959,359.8561],[-64.46423,-23.60275,356.0855],[-64.47242,-23.59329,366.3376],[-64.47559,-23.58709,370.7062],[-64.47815,-23.58337,374.3503],[-64.49965,-23.56094,406.4325],[-64.51714,-23.53758,531.5244],[-64.52068,-23.53402,544.2156],[-64.5413,-23.51872,533.8857],[-64.55577,-23.50565,669.9106],[-64.58781,-23.4904,710.8884],[-64.62615,-23.48125,830.1912],[-64.63349,-23.47831,818.9492],[-64.63786,-23.47536,920.2545],[-64.64186,-23.47211,987.7268],[-64.65217,-23.46125,1000.5241],[-64.6601,-23.45464,905.0482],[-64.66685,-23.45356,964.2467],[-64.67747,-23.45397,902.8511],[-64.69718,-23.46007,954.6947],[-64.74013,-23.46456,1470.9656],[-64.74847,-23.46704,1842.7659],[-64.75891,-23.47381,1438.1686],[-64.77666,-23.4904,1641.0378],[-64.78082,-23.49345,1651.2559],[-64.78433,-23.49655,1761.4982],[-64.79134,-23.50084,2015.9331],[-64.79568,-23.50244,2088.9783],[-64.81593,-23.50461,2046.1199],[-64.84412,-23.49795,2835.7292],[-64.85702,-23.49598,2627.2847],[-64.86895,-23.49629,2396.2559],[-64.87474,-23.49407,2562.6531],[-64.87895,-23.48911,2606.6846],[-64.88187,-23.47903,2141.4463],[-64.88441,-23.44534,2556.0925],[-64.88536,-23.43976,2556.7793],[-64.88947,-23.42973,2507.1006],[-64.92464,-23.36736,2743.4973],[-64.93621,-23.3364,3199.8918],[-64.95254,-23.3084,3256.4736],[-64.96419,-23.29853,3520.2275],[-64.99636,-23.28468,4086.3018],[-65.00419,-23.28302,4334.5459],[-65.02592,-23.27631,4478.2109],[-65.03029,-23.27341,4287.4888],[-65.03388,-23.26985,4195.8291],[-65.03688,-23.26581,4383.0947],[-65.03938,-23.26137,4585.1792],[-65.04135,-23.25667,4425.958],[-65.0429,-23.25145,4458.9663],[-65.04186,-23.24003,4400.0156],[-65.03892,-23.22416,4677.3867],[-65.02039,-23.16262,3914.885],[-65.00716,-23.07461,3172.0425],[-65.0082,-23.04955,3615.312],[-65.00944,-23.04407,3938.1729],[-65.013,-23.03399,3897.4819],[-65.01742,-23.02671,4117.4966],[-65.02409,-23.01782,4623.8447],[-65.03931,-23.00226,4034.4092],[-65.04869,-22.99565,3502.9185],[-65.05719,-22.99183,3629.9265],[-65.08491,-22.98857,3861.9438],[-65.16909,-22.98733,4550.5166],[-65.18198,-22.98495,4706.9834],[-65.19248,-22.98051,4666.1445],[-65.21304,-22.9649,4492.0088],[-65.22718,-22.95064,4192.5488],[-65.23103,-22.94506,4200.4116],[-65.23475,-22.93751,4181.1719],[-65.25418,-22.87096,3769.3906],[-65.25836,-22.86134,3914.6367],[-65.26642,-22.84853,3920.7178],[-65.26841,-22.84372,3989.3184],[-65.28074,-22.7491,4208.855],[-65.2826,-22.74414,4284.3208],[-65.2856,-22.73179,4370.0225],[-65.28663,-22.7228,4375.2397],[-65.28704,-22.69789,4244.7275],[-65.28591,-22.68265,4582.6479],[-65.28113,-22.66714,4656.9741],[-65.26524,-22.6382,4849.25],[-65.26872,-22.62978,4657.6621],[-65.30353,-22.5994,4628.3789],[-65.31252,-22.59505,4575.2275],[-65.32745,-22.59826,4543.0615],[-65.3382,-22.59779,4509.7471],[-65.34094,-22.59655,4585.6772],[-65.34549,-22.58823,4588.3027],[-65.33815,-22.54338,4477.7266],[-65.33939,-22.52028,4603.5479],[-65.33784,-22.51191,4749.8047],[-65.33433,-22.50235,4914.6357],[-65.3112,-22.46302,4502.3086],[-65.30526,-22.44804,4531.8018],[-65.30154,-22.43289,4619.8447],[-65.2734,-22.37078,4762.8833],[-65.2633,-22.35512,4736.5273],[-65.25996,-22.3513,4651.4512],[-65.24188,-22.32618,4898.2534],[-65.23966,-22.31972,4740.2349],[-65.23816,-22.31125,4554.5371],[-65.23839,-22.25378,4524.2441],[-65.23544,-22.22314,4507.6074],[-65.22578,-22.18412,4594.2578],[-65.21984,-22.16857,4721.6694],[-65.20968,-22.15017,4677.8613],[-65.19695,-22.13183,4609.7441],[-65.19217,-22.1201,4661.7422],[-65.19048,-22.09847,4421.5938],[-65.45734,-22.10144,3427.0842],[-65.51047,-22.09586,3510.9324],[-65.57989,-22.08645,3442.6128],[-65.58852,-22.08728,3448.9714],[-65.59343,-22.09111,3444.1104],[-65.59788,-22.09565,3442.4756],[-65.60532,-22.09906,3441.7725],[-65.74461,-22.11405,3568.7065]]]}
,"properties": {"ISO3166-1-Alpha-3": "ARG","country": "Argentina","fill": "#F0F","name": "Jujuy","area_km2": 53743.88,"hist_schema_id": "Elevation0-9000","hist_area_km2": {"300": 24.26,"325": 284.58,"350": 229.13,"375": 389.29,"400": 478.97,"425": 401.74,"450": 393.63,"475": 384.66,"500": 390.93,"525": 352.63,"550": 318.25,"575": 285.43,"600": 241.87,"625": 217.38,"650": 215.84,"675": 213.6,"700": 221.79,"725": 231.88,"750": 203.02,"775": 201.97,"800": 200.61,"825": 204.13,"850": 210.63,"875": 204.02,"900": 191.46,"925": 176.3,"950": 170.99,"975": 166.78,"1000": 166.32,"1025": 166.22,"1050": 165.02,"1075": 162.08,"1100": 155.05,"1125": 153.67,"1150": 153.0,"1175": 165.64,"1200": 165.14,"1225": 158.5,"1250": 152.7,"1275": 147.39,"1300": 139.68,"1325": 139.69,"1350": 136.74,"1375": 132.87,"1400": 135.1,"1425": 137.8,"1450": 147.64,"1475": 147.15,"1500": 146.24,"1525": 142.8,"1550": 133.25,"1575": 123.94,"1600": 121.56,"1625": 118.26,"1650": 111.71,"1675": 108.09,"1700": 106.45,"1725": 103.59,"1750": 97.01,"1775": 101.39,"1800": 96.92,"1825": 91.27,"1850": 89.61,"1875": 85.03,"1900": 79.88,"1925": 80.6,"1950": 77.25,"1975": 76.89,"2000": 71.55,"2025": 70.76,"2050": 65.13,"2075": 73.32,"2100": 69.08,"2125": 63.34,"2150": 60.14,"2175": 59.05,"2200": 56.26,"2225": 56.16,"2250": 55.37,"2275": 56.58,"2300": 53.05,"2325": 54.26,"2350": 53.99,"2375": 54.89,"2400": 53.9,"2425": 52.66,"2450": 52.59,"2475": 55.85,"2500": 53.28,"2525": 51.28,"2550": 51.63,"2575": 49.21,"2600": 51.89,"2625": 50.75,"2650": 52.09,"2675": 52.95,"2700": 52.81,"2725": 52.55,"2750": 54.4,"2775": 57.2,"2800": 57.22,"2825": 59.88,"2850": 58.89,"2875": 57.32,"2900": 59.6,"2925": 57.7,"2950": 60.52,"2975": 60.57,"3000": 61.73,"3025": 63.55,"3050": 64.22,"3075": 65.85,"3100": 66.66,"3125": 71.08,"3150": 75.68,"3175": 76.29,"3200": 78.66,"3225": 79.81,"3250": 77.9,"3275": 75.23,"3300": 76.12,"3325": 79.8,"3350": 84.06,"3375": 85.9,"3400": 971.05,"3425": 814.97,"3450": 599.93,"3475": 600.73,"3500": 722.25,"3525": 736.53,"3550": 642.81,"3575": 612.8,"3600": 620.12,"3625": 621.39,"3650": 726.64,"3675": 1239.19,"3700": 1049.02,"3725": 872.94,"3750": 798.15,"3775": 753.91,"3800": 767.06,"3825": 830.74,"3850": 822.76,"3875": 750.23,"3900": 1395.06,"3925": 1028.1,"3950": 853.25,"3975": 772.2,"4000": 726.96,"4025": 686.75,"4050": 666.24,"4075": 714.65,"4100": 750.05,"4125": 746.31,"4150": 720.16,"4175": 694.25,"4200": 690.78,"4225": 675.09,"4250": 656.86,"4275": 657.35,"4300": 614.2,"4325": 609.58,"4350": 598.52,"4375": 580.66,"4400": 540.75,"4425": 514.8,"4450": 480.66,"4475": 464.32,"4500": 476.99,"4525": 501.92,"4550": 490.02,"4575": 459.01,"4600": 432.49,"4625": 386.35,"4650": 331.91,"4675": 282.02,"4700": 243.45,"4725": 221.29,"4750": 189.75,"4775": 172.87,"4800": 155.79,"4825": 142.56,"4850": 131.68,"4875": 112.44,"4900": 98.87,"4925": 88.24,"4950": 73.0,"4975": 61.8,"5000": 57.84,"5025": 54.25,"5050": 49.67,"5075": 42.22,"5100": 36.82,"5125": 32.54,"5150": 29.26,"5175": 24.78,"5200": 22.62,"5225": 18.05,"5250": 16.17,"5275": 14.65,"5300": 12.56,"5325": 11.95,"5350": 11.27,"5375": 9.26,"5400": 8.77,"5425": 7.15,"5450": 6.19,"5475": 6.13,"5500": 5.49,"5525": 4.28,"5550": 4.61,"5575": 3.71,"5600": 2.91,"5625": 2.79,"5650": 1.95,"5675": 1.82,"5700": 1.17,"5725": 0.9,"5750": 0.78}}}