{"type": "Feature","bbox": [-67.2154,-24.6127,-64.1554,-21.7814],"geometry": {"type": "MultiPolygon","coordinates": [[[[-64.4405,-23.63,343.7693],[-64.4438,-23.6349,341.6194],[-64.4487,-23.6345,340.4324],[-64.4499,-23.6292,344.7227],[-64.4593,-23.623,346.0361],[-64.4622,-23.6187,349.9376],[-64.4644,-23.6028,356.0855],[-64.4622,-23.5978,360.3192],[-64.4639,-23.5931,364.3529],[-64.4747,-23.5887,368.3084],[-64.4777,-23.5843,374.3503],[-64.4832,-23.5826,378.8426],[-64.4844,-23.5877,376.1997],[-64.4888,-23.5848,376.7888],[-64.4942,-23.5751,390.688],[-64.4999,-23.5719,401.3816],[-64.516,-23.549,451.5572],[-64.5493,-23.5189,504.1387],[-64.5538,-23.516,517.1714],[-64.5822,-23.5093,591.9661],[-64.6024,-23.4981,628.9633],[-64.6352,-23.4862,706.2288],[-64.6453,-23.481,862.4615],[-64.6611,-23.465,863.4397],[-64.67,-23.4581,883.0674],[-64.6758,-23.459,867.1626],[-64.6807,-23.462,995.2359],[-64.6979,-23.4639,1054.499],[-64.7087,-23.4683,1158.4155],[-64.7261,-23.4692,1351.0159],[-64.7489,-23.4741,1529.5111],[-64.7541,-23.4767,1374.3085],[-64.7623,-23.4846,1837.8823],[-64.7674,-23.4868,1647.9839],[-64.7794,-23.4873,1676.0103],[-64.8005,-23.506,2051.208],[-64.811,-23.5103,2051.5234],[-64.8228,-23.5104,2106.0684],[-64.8283,-23.5088,2397.8447],[-64.8488,-23.498,2746.2285],[-64.8544,-23.4983,2542.7051],[-64.866,-23.5026,2380.998],[-64.8704,-23.5011,2221.9377],[-64.8861,-23.4776,2085.0444],[-64.8881,-23.4724,2153.7515],[-64.888,-23.4672,2193.2629],[-64.8812,-23.4521,2408.7881],[-64.8823,-23.4412,2604.5093],[-64.8857,-23.4372,2462.0146],[-64.902,-23.4308,3108.6467],[-64.9093,-23.4221,2608.583],[-64.9121,-23.401,2778.5071],[-64.9179,-23.3855,2301.5225],[-64.9231,-23.3759,2774.3076],[-64.9388,-23.3598,3235.3599],[-64.9466,-23.3338,3209.3716],[-64.9496,-23.3291,3405.4949],[-64.9574,-23.321,3681.7507],[-64.984,-23.2997,3541.0674],[-65.0095,-23.2863,4499.5361],[-65.0262,-23.2817,4382.6182],[-65.029,-23.2769,4387.7271],[-65.0362,-23.2395,4503.2339],[-65.0311,-23.2239,4367.8467],[-65.0186,-23.1995,3739.5691],[-65.0181,-23.1886,3847.7319],[-65.0198,-23.1725,4294.106],[-65.0188,-23.1672,4058.657],[-65.0116,-23.1524,3786.5449],[-65.0126,-23.1254,3888.3564],[-65.007,-23.1044,3485.1526],[-65.0055,-23.072,3159.6333],[-65.0079,-23.0559,3527.585],[-65.0054,-23.0397,4012.917],[-65.0078,-23.0292,3960.5222],[-65.0133,-23.0197,4299.3135],[-65.0349,-22.9939,3822.1628],[-65.0403,-22.9928,3532.8208],[-65.0697,-22.9952,3869.75],[-65.1033,-22.9862,3650.4351],[-65.1382,-22.9866,4366.209],[-65.1554,-22.9836,4443.168],[-65.1786,-22.9834,4621.4307],[-65.2225,-22.9564,4432.3877],[-65.2428,-22.9301,4031.374],[-65.2418,-22.8975,3798.5315],[-65.2398,-22.8881,3735.6763],[-65.2425,-22.8888,3772.7231],[-65.244,-22.8793,3786.4993],[-65.2499,-22.8699,3681.948],[-65.25,-22.8644,3657.345],[-65.2467,-22.8545,3828.8809],[-65.2499,-22.8499,3745.9202],[-65.2606,-22.8453,3931.6116],[-65.2666,-22.8363,3983.186],[-65.2683,-22.831,4009.6782],[-65.2652,-22.8096,3899.0408],[-65.2664,-22.7884,4142.0576],[-65.2853,-22.7483,4222.0825],[-65.2899,-22.7327,4378.3906],[-65.2895,-22.6948,4350.1846],[-65.2819,-22.6743,4593.4199],[-65.2671,-22.651,4717.543],[-65.2664,-22.6348,4810.4985],[-65.269,-22.6303,4657.6621],[-65.2973,-22.6251,4617.8574],[-65.3001,-22.6202,4541.7046],[-65.302,-22.6096,4461.7388],[-65.3092,-22.6011,4677.6611],[-65.3321,-22.5982,4583.5674],[-65.3368,-22.5952,4500.4941],[-65.3396,-22.5903,4456.9409],[-65.3335,-22.5585,4004.7979],[-65.3325,-22.5369,4471.959],[-65.3406,-22.5109,4807.7646],[-65.34,-22.5001,4610.6948],[-65.3368,-22.4897,4464.2012],[-65.3338,-22.485,4418.9888],[-65.316,-22.4636,4515.8965],[-65.308,-22.4376,4374.7432],[-65.3057,-22.4215,4432.79],[-65.2928,-22.413,4523.8687],[-65.2893,-22.3927,4436.4854],[-65.2926,-22.3888,4345.9956],[-65.2927,-22.3834,4298.4229],[-65.2887,-22.3734,4438.4482],[-65.2812,-22.3652,4550.5117],[-65.2714,-22.3592,4695.3203],[-65.2684,-22.3555,4792.436],[-65.2691,-22.3498,4643.0542],[-65.2475,-22.3321,4770.4209],[-65.239,-22.3179,4626.2915],[-65.2377,-22.3126,4545.5811],[-65.243,-22.2916,4753.5225],[-65.2436,-22.2809,4671.6816],[-65.2268,-22.191,4695.8779],[-65.2252,-22.171,4678.1348],[-65.2176,-22.1562,4710.2378],[-65.2139,-22.1523,4734.5581],[-65.203,-22.1482,4684.6665],[-65.1982,-22.1451,4856.9102],[-65.1955,-22.1404,4958.4795],[-65.1952,-22.1242,4568.0488],[-65.1976,-22.1082,4535.9932],[-65.1958,-22.103,4486.2451],[-65.1853,-22.0854,4383.5742],[-65.0945,-22.084,4101.3472],[-65.4735,-22.0887,3301.0796],[-65.4766,-22.0927,3377.5139],[-65.4848,-22.0955,3513.0547],[-65.5749,-22.0755,3380.2271],[-65.5791,-22.0784,3396.2998],[-65.5792,-22.0807,3428.6997],[-65.5809,-22.0806,3388.0408],[-65.5816,-22.0848,3394.4619],[-65.5834,-22.0847,3444.5518],[-65.5816,-22.0884,3407.2805],[-65.5841,-22.0885,3428.1509],[-65.583,-22.0896,3412.4385],[-65.5849,-22.0909,3409.2656],[-65.5824,-22.0913,3412.4897],[-65.5823,-22.094,3417.3789],[-65.5894,-22.0987,3417.5635],[-65.5912,-22.0989,3424.0322],[-65.5928,-22.0959,3426.7615],[-65.6029,-22.0977,3433.3774],[-65.6064,-22.0946,3438.1021],[-65.6125,-22.0954,3441.3469],[-65.6144,-22.0981,3445.7671],[-65.6195,-22.0966,3444.1899],[-65.6274,-22.1035,3454.0273],[-65.633,-22.1034,3458.8999],[-65.6391,-22.1069,3463.7944],[-65.6513,-22.1053,3478.02],[-65.6555,-22.1108,3473.3157],[-65.6762,-22.1117,3485.688],[-65.6856,-22.1095,3493.0444],[-65.6936,-22.1028,3510.2888],[-65.7047,-22.0987,3506.4336],[-65.7086,-22.0995,3508.6392],[-65.7157,-22.0972,3520.1436],[-65.7252,-22.1069,3525.9326],[-65.7348,-22.1091,3533.2097],[-65.748,-22.1092,3551.5906],[-65.7534,-22.1061,3586.1995],[-65.7565,-22.1016,3577.5276],[-65.7623,-22.101,3601.1194],[-65.7757,-22.0937,3624.4985],[-65.7785,-22.0887,3645.6323],[-65.7806,-22.0868,3655.0703],[-65.7833,-22.0869,3653.1758],[-65.7856,-22.0819,3655.1511],[-65.7884,-22.0817,3657.9133],[-65.7942,-22.0747,3679.1445],[-65.8048,-22.0753,3745.5693],[-65.9248,-21.9336,3812.1418],[-66.0482,-21.919,3845.2305],[-66.0433,-21.8719,3907.5703],[-66.0763,-21.835,3975.5593],[-66.1942,-21.796,3949.6992],[-66.2189,-21.784,3343.3345],[-66.2215,-21.7814,3290.4209],[-66.225,-21.7878,3301.6736],[-66.2394,-21.7877,3302.1089],[-66.2413,-21.7888,3321.853],[-66.2428,-21.7937,3330.5073],[-66.237,-21.8176,3340.7913],[-66.2419,-21.8327,3338.0071],[-66.2386,-21.8401,3330.0759],[-66.2391,-21.8449,3322.7383],[-66.2354,-21.8508,3328.9573],[-66.2403,-21.8564,3340.9072],[-66.2411,-21.8652,3332.968],[-66.2441,-21.8734,3337.4739],[-66.2483,-21.8771,3419.0132],[-66.2468,-21.8859,3360.8044],[-66.2512,-21.8902,3362.7061],[-66.2488,-21.8963,3349.4504],[-66.2601,-21.9057,3359.8027],[-66.2583,-21.9165,3363.0439],[-66.2639,-21.9298,3370.1921],[-66.2613,-21.9338,3372.3154],[-66.2626,-21.9357,3374.4751],[-66.2673,-21.9354,3379.4583],[-66.2705,-21.942,3384.9424],[-66.2748,-21.9441,3402.9377],[-66.2728,-21.9466,3397.1746],[-66.2747,-21.951,3461.8052],[-66.2728,-21.9545,3428.0708],[-66.2751,-21.961,3432.8105],[-66.2744,-21.9644,3462.1331],[-66.2717,-21.9664,3453.0725],[-66.275,-21.9671,3418.4807],[-66.2773,-21.9703,3405.8455],[-66.278,-21.9738,3398.6868],[-66.2765,-21.9777,3402.1855],[-66.2829,-21.9815,3419.2654],[-66.2839,-21.9851,3455.6816],[-66.2832,-21.989,3425.5085],[-66.2795,-21.9929,3407.9375],[-66.2793,-22.0084,3414.8669],[-66.2819,-22.0146,3418.2239],[-66.2777,-22.0231,3422.3027],[-66.2793,-22.025,3423.1772],[-66.2834,-22.0258,3427.196],[-66.2839,-22.0302,3426.4402],[-66.2896,-22.0305,3439.3669],[-66.2921,-22.0342,3432.9673],[-66.2911,-22.0379,3492.2795],[-66.2858,-22.0411,3437.0757],[-66.2914,-22.0488,3490.4541],[-66.291,-22.0515,3440.7183],[-66.2872,-22.0482,3451.2432],[-66.2834,-22.0497,3445.9502],[-66.2934,-22.0625,3508.355],[-66.2893,-22.067,3464.4104],[-66.2846,-22.0677,3474.769],[-66.2853,-22.0702,3498.9036],[-66.2907,-22.0742,3474.594],[-66.2901,-22.0798,3487.8123],[-66.2877,-22.0826,3482.6445],[-66.2895,-22.087,3502.3027],[-66.2956,-22.0897,3493.8521],[-66.3005,-22.0894,3550.095],[-66.3083,-22.0938,3508.2122],[-66.3105,-22.0912,3512.3313],[-66.3125,-22.0913,3534.252],[-66.3142,-22.0882,3501.3638],[-66.3167,-22.0883,3489.1155],[-66.3175,-22.0839,3577.8074],[-66.3205,-22.0844,3596.9226],[-66.3252,-22.0876,3573.9341],[-66.3227,-22.092,3508.2588],[-66.3231,-22.0964,3522.5803],[-66.3284,-22.103,3581.7397],[-66.328,-22.1093,3518.6331],[-66.3317,-22.1118,3521.6902],[-66.332,-22.1188,3552.6555],[-66.3365,-22.1201,3606.2793],[-66.3399,-22.1168,3519.8667],[-66.3431,-22.1195,3556.6499],[-66.3475,-22.1196,3534.0767],[-66.3494,-22.1232,3556.1672],[-66.3455,-22.1276,3652.9553],[-66.357,-22.1322,3606.4539],[-66.4184,-22.146,3815.9722],[-66.6232,-22.1974,5491.1973],[-66.6383,-22.2255,5212.9263],[-66.6525,-22.2164,5471.3237],[-66.6862,-22.2095,5405.8691],[-66.7393,-22.2385,5383.7012],[-66.7596,-22.3254,4941.3848],[-66.7616,-22.3459,4746.0044],[-66.7843,-22.4018,4801.4185],[-66.7852,-22.4239,5081.1465],[-66.7825,-22.4381,5205.3647],[-66.8018,-22.4473,5411.3286],[-66.9286,-22.4922,5461.8984],[-66.973,-22.5407,5662.9902],[-67.0273,-22.5409,5512.2812],[-67.0141,-22.6548,5825.7476],[-67.1278,-22.7221,5346.2334],[-67.1816,-22.8145,5586.2227],[-67.1803,-22.8142,5586.2227],[-66.9902,-23.0,4673.2324],[-67.2154,-23.7011,4356.8457],[-67.1136,-23.7821,4231.166],[-67.0056,-23.8643,4011.4202],[-67.0004,-23.8739,3989.2954],[-67.0,-23.8793,3976.854],[-67.0045,-23.918,4309.5361],[-67.0103,-23.9427,4236.2764],[-67.0094,-23.9507,4151.8423],[-67.0029,-23.9594,4097.4556],[-66.9912,-23.9601,4374.2539],[-66.9757,-23.9527,4332.4224],[-66.9348,-23.9556,4358.4922],[-66.9364,-23.9805,4271.1987],[-66.9332,-23.9853,4322.4492],[-66.8942,-23.9931,4122.2852],[-66.8925,-23.9961,4110.1919],[-66.8865,-23.9966,4054.2866],[-66.8863,-24.0022,4060.1633],[-66.8842,-24.0074,4058.7354],[-66.8802,-24.0116,4035.2173],[-66.8702,-24.0178,3989.7786],[-66.8507,-24.0494,3922.0908],[-66.8399,-24.0629,4111.9395],[-66.824,-24.0759,3935.771],[-66.8073,-24.0925,3956.2556],[-66.7714,-24.0898,3945.8298],[-66.7565,-24.0869,3957.7437],[-66.7476,-24.0879,3967.2783],[-66.7409,-24.0936,3982.3472],[-66.7332,-24.1058,3988.0906],[-66.7326,-24.1166,4006.0776],[-66.7254,-24.132,4053.8696],[-66.7193,-24.1384,4047.6709],[-66.6842,-24.1477,4115.2559],[-66.6675,-24.1674,4091.436],[-66.6605,-24.1727,4103.8232],[-66.6358,-24.1834,4130.5322],[-66.5958,-24.1966,4321.8027],[-66.5839,-24.199,4364.4775],[-66.5629,-24.1962,4488.7651],[-66.557,-24.1979,4488.626],[-66.5469,-24.2042,4351.8555],[-66.538,-24.2053,4446.0137],[-66.5257,-24.2041,4404.5674],[-66.5178,-24.196,4431.8516],[-66.5123,-24.1945,4430.9746],[-66.4883,-24.1985,4521.7163],[-66.4844,-24.206,4501.4219],[-66.4791,-24.2087,4530.6162],[-66.4763,-24.2077,4574.1787],[-66.4704,-24.1891,4752.3262],[-66.4651,-24.1823,4641.3687],[-66.4559,-24.175,4698.8174],[-66.4424,-24.1689,4672.3721],[-66.4335,-24.1687,4541.5952],[-66.4288,-24.1615,4458.6489],[-66.4109,-24.151,4323.9189],[-66.4084,-24.1429,4331.0835],[-66.4111,-24.126,4504.4038],[-66.4102,-24.1211,4432.7051],[-66.3948,-24.1232,4477.9927],[-66.3861,-24.1212,4512.8496],[-66.3737,-24.0929,4654.6553],[-66.3672,-24.0867,4795.7539],[-66.3674,-24.0847,4698.416],[-66.3737,-24.0781,4530.5342],[-66.3765,-24.0701,4450.5776],[-66.3781,-24.059,4494.6733],[-66.377,-24.0507,4499.4194],[-66.3682,-24.0329,4518.8955],[-66.3532,-24.0153,4655.2515],[-66.3422,-23.9903,4408.2363],[-66.3449,-23.9733,4254.2285],[-66.3416,-23.9631,4134.5449],[-66.3442,-23.9471,3889.0259],[-66.3444,-23.9119,3896.126],[-66.3462,-23.8923,4021.4895],[-66.3394,-23.8772,3874.1711],[-66.3409,-23.8502,3706.8301],[-66.3351,-23.8294,3714.4722],[-66.3366,-23.8186,3710.1824],[-66.3334,-23.7809,3646.8579],[-66.335,-23.7593,3766.8621],[-66.3375,-23.7487,3694.8933],[-66.3307,-23.7399,3608.4819],[-66.3281,-23.7243,3611.384],[-66.3327,-23.7207,3673.7251],[-66.341,-23.7054,3673.1653],[-66.349,-23.6758,3916.0095],[-66.3694,-23.6186,3904.5967],[-66.3947,-23.5393,3743.2393],[-66.3627,-23.3855,3713.3843],[-66.3461,-23.3784,3716.7224],[-66.336,-23.3679,3734.6108],[-66.3207,-23.3722,3738.3167],[-66.3066,-23.3856,3734.1301],[-66.2969,-23.3916,3684.4617],[-66.2913,-23.3931,3552.5215],[-66.2795,-23.3929,3597.6416],[-66.2632,-23.3885,3743.4548],[-66.2532,-23.3942,3675.7725],[-66.2399,-23.405,3558.2314],[-66.237799999999993,-23.4098,3526.9658],[-66.2287,-23.4167,3568.1768],[-66.2212,-23.4251,3533.2205],[-66.216,-23.4275,3548.209],[-66.2045,-23.4287,3548.5225],[-66.1882,-23.4232,3521.1506],[-66.159,-23.4253,3489.0105],[-66.1477,-23.428,3485.4512],[-66.1278,-23.4396,3477.5454],[-66.0772,-23.4764,3456.9319],[-66.0613,-23.4834,3450.7146],[-66.037,-23.4984,3442.2834],[-65.9901,-23.5154,3430.082],[-65.9987,-23.646,3411.6758],[-65.9982,-23.6654,3408.8169],[-66.0037,-23.7078,3406.1519],[-66.0072,-23.7787,3412.447],[-66.0085,-23.7855,3416.8286],[-66.0219,-23.8095,3444.1541],[-66.0253,-23.8199,3459.321],[-66.0242,-23.8297,3470.8665],[-66.0031,-23.8891,3708.0811],[-65.9972,-23.9101,3762.7725],[-65.9974,-23.9182,3783.1748],[-66.0004,-23.9245,3869.0352],[-65.999,-23.9526,4185.6177],[-65.9811,-23.9666,4334.6562],[-65.9789,-23.9769,4386.8965],[-65.9735,-23.9788,4552.7886],[-65.9559,-23.9778,4621.6924],[-65.9454,-23.9726,4848.7422],[-65.9396,-23.9724,4940.1304],[-65.9259,-23.9824,4688.6406],[-65.9205,-23.9844,4413.0869],[-65.8961,-23.9859,4059.3696],[-65.8756,-23.9777,3834.0811],[-65.8473,-23.9893,3770.1694],[-65.8294,-23.9994,3971.8308],[-65.7698,-24.0743,5254.0596],[-65.7688,-24.0853,4741.7236],[-65.7723,-24.0958,4472.7788],[-65.7712,-24.1011,4286.0137],[-65.7665,-24.1044,4327.1548],[-65.7573,-24.1043,4573.7197],[-65.7518,-24.1064,4419.3594],[-65.7415,-24.1163,4405.8306],[-65.7373,-24.1237,4311.2734],[-65.7373,-24.1292,4193.7158],[-65.7423,-24.1357,4069.6321],[-65.7448,-24.1493,4015.0437],[-65.7375,-24.1612,4083.8206],[-65.7278,-24.1715,4205.1064],[-65.7274,-24.1852,4604.144],[-65.7255,-24.1904,4497.0322],[-65.7164,-24.1977,4693.9517],[-65.7048,-24.2103,4769.2227],[-65.7036,-24.2239,4853.6411],[-65.7068,-24.2346,5232.5317],[-65.7025,-24.238,5094.3398],[-65.6885,-24.2427,4848.3584],[-65.6852,-24.2473,4805.8643],[-65.6831,-24.2581,4814.5498],[-65.6702,-24.2651,5128.7773],[-65.6664,-24.2694,5208.3442],[-65.6658,-24.2776,5111.9731],[-65.6678,-24.2911,5129.5996],[-65.6623,-24.3068,5112.4111],[-65.6284,-24.3294,4832.0581],[-65.6227,-24.3358,4731.6655],[-65.6206,-24.3409,4492.8481],[-65.6205,-24.3492,4531.2847],[-65.6286,-24.367,4670.2354],[-65.6281,-24.3749,4602.9805],[-65.6237,-24.3788,4588.7085],[-65.6151,-24.3811,4442.6064],[-65.6075,-24.3855,4294.6396],[-65.6003,-24.3943,4372.1455],[-65.5893,-24.4037,4367.7788],[-65.5768,-24.4114,3612.791],[-65.5731,-24.4188,3857.4539],[-65.5726,-24.4271,3787.5376],[-65.5674,-24.4296,3648.7078],[-65.5523,-24.4283,3307.4968],[-65.5411,-24.4301,3227.7705],[-65.5338,-24.435,3514.7886],[-65.5244,-24.4489,3526.6006],[-65.5099,-24.4586,3526.062],[-65.5069,-24.4581,3576.0576],[-65.5032,-24.4539,3578.6013],[-65.5005,-24.4489,3246.7805],[-65.4994,-24.4409,3290.7874],[-65.4962,-24.4361,3282.7092],[-65.4832,-24.4293,3373.3418],[-65.4803,-24.4289,3307.2163],[-65.4689,-24.4323,2965.8235],[-65.454,-24.4318,2661.1887],[-65.4498,-24.4357,2554.4961],[-65.4485,-24.4521,2520.4722],[-65.4471,-24.4545,2461.636],[-65.4267,-24.4704,2332.1182],[-65.4088,-24.4714,1993.62],[-65.4011,-24.4674,1795.4436],[-65.3922,-24.4658,1687.7377],[-65.3774,-24.4681,1554.6521],[-65.3568,-24.4649,1743.5669],[-65.3514,-24.4675,1780.963],[-65.3493,-24.4695,1865.8635],[-65.3484,-24.4749,1845.7688],[-65.3571,-24.4854,1722.1344],[-65.3418,-24.4987,1805.0527],[-65.3336,-24.5018,1542.3914],[-65.3251,-24.4989,1593.9785],[-65.3131,-24.4981,1449.6432],[-65.2903,-24.505,1337.2611],[-65.2753,-24.5043,1386.73],[-65.2635,-24.4959,1129.6311],[-65.2503,-24.4892,1249.3187],[-65.2388,-24.4862,1293.3108],[-65.2297,-24.4862,1344.3],[-65.2197,-24.4763,1186.7418],[-65.188,-24.4603,981.1786],[-65.1854,-24.461,980.5151],[-65.1545,-24.4785,917.5983],[-65.1346,-24.5026,865.5212],[-65.1232,-24.506,852.2299],[-65.0995,-24.523,800.2901],[-65.0919,-24.5316,783.5632],[-65.0854,-24.547,761.2559],[-65.0867,-24.5602,747.1257],[-65.079,-24.5649,737.5597],[-65.0392,-24.5775,687.9716],[-65.0128,-24.5831,663.283],[-64.9918,-24.5842,649.2758],[-64.9314,-24.6013,599.5732],[-64.9105,-24.6044,598.5549],[-64.8984,-24.6035,593.0804],[-64.8934,-24.601,599.1124],[-64.8776,-24.5807,592.7],[-64.8765,-24.5698,579.6968],[-64.8812,-24.563,575.324],[-64.8731,-24.5421,562.9559],[-64.8693,-24.5232,570.3657],[-64.8595,-24.5036,548.124],[-64.8464,-24.497,544.8637],[-64.8429,-24.4903,541.049],[-64.8373,-24.4883,541.2365],[-64.836,-24.4831,539.035],[-64.8321,-24.4777,534.1755],[-64.8286,-24.4815,541.1534],[-64.7467,-24.5262,625.9225],[-64.7372,-24.5329,644.4207],[-64.7185,-24.5508,702.6151],[-64.7105,-24.5685,793.5423],[-64.6979,-24.576,791.5184],[-64.6921,-24.5774,866.2003],[-64.6817,-24.5873,879.4453],[-64.6691,-24.6057,1081.6863],[-64.6622,-24.6114,1252.8428],[-64.6601,-24.6127,1376.0225],[-64.6438,-24.6055,1642.4613],[-64.6358,-24.6093,1616.3578],[-64.6297,-24.6087,1792.5637],[-64.6194,-24.6031,1703.6659],[-64.6118,-24.5912,1439.7699],[-64.5939,-24.5691,1640.083],[-64.5762,-24.5504,1444.2299],[-64.5657,-24.5454,1748.9771],[-64.5613,-24.5415,1575.0848],[-64.5548,-24.5291,1897.0286],[-64.5368,-24.507,2079.8359],[-64.5278,-24.4927,2033.8228],[-64.513,-24.4949,2016.9106],[-64.491,-24.4913,1782.4753],[-64.4797,-24.4937,1496.2428],[-64.4734,-24.4924,1658.9709],[-64.4527,-24.4799,2049.3455],[-64.4399,-24.4603,2044.3715],[-64.4313,-24.4515,2260.0581],[-64.4151,-24.4388,1881.5433],[-64.4014,-24.4318,1473.4961],[-64.3708,-24.4271,1456.204],[-64.3339,-24.4324,1088.0769],[-64.3251,-24.4296,1043.7256],[-64.3178,-24.4242,913.0604],[-64.3035,-24.4183,940.326],[-64.2796,-24.4128,819.9467],[-64.2767,-24.4076,806.0963],[-64.2754,-24.3934,934.1835],[-64.2594,-24.376,762.199],[-64.2508,-24.3576,1020.9648],[-64.2476,-24.3465,870.8691],[-64.2416,-24.3365,901.0577],[-64.2292,-24.3237,772.0325],[-64.1999,-24.3024,722.4561],[-64.1911,-24.2908,784.2051],[-64.1762,-24.2593,868.0019],[-64.1754,-24.2451,837.5887],[-64.1732,-24.2368,624.4199],[-64.1592,-24.218,773.8927],[-64.1557,-24.2069,837.9099],[-64.1554,-24.1985,648.8392],[-64.1663,-24.1779,892.2802],[-64.1666,-24.1437,773.3264],[-64.174,-24.128,764.443],[-64.1761,-24.1168,750.0931],[-64.1749,-24.0911,859.3607],[-64.1758,-24.0569,858.6053],[-64.1728,-23.9991,577.9801],[-64.1735,-23.507,307.5836],[-64.2384,-23.5055,316.7037],[-64.356,-23.5066,343.7108],[-64.3702,-23.5162,350.5731],[-64.3815,-23.535,325.4847],[-64.3943,-23.5461,345.4911],[-64.3975,-23.5506,345.0342],[-64.4001,-23.5555,351.1438],[-64.4065,-23.5873,343.7755],[-64.4155,-23.6074,351.8063],[-64.4226,-23.616,350.4427],[-64.4405,-23.63,343.7693]]]]}
,"properties": {"GID_1": "ARG.10_1","GID_0": "ARG","country": "Argentina","state": "Jujuy","VARNAME_1": "NA","NL_NAME_1": "NA","TYPE_1": "Provincia","ENGTYPE_1": "Province","CC_1": "NA","HASC_1": "AR.JY","ISO_1": "AR-Y","name": "Jujuy.state","area_km2": 53254.02,"hist_schema_id": "Elevation0-9000","hist_area_km2": {"300": 31.28,"325": 287.96,"350": 221.86,"375": 389.25,"400": 477.03,"425": 400.27,"450": 391.3,"475": 381.63,"500": 388.06,"525": 356.26,"550": 323.79,"575": 294.89,"600": 248.81,"625": 220.62,"650": 218.45,"675": 215.34,"700": 223.66,"725": 233.52,"750": 206.65,"775": 203.89,"800": 201.75,"825": 205.79,"850": 213.02,"875": 206.44,"900": 193.93,"925": 178.59,"950": 174.67,"975": 168.36,"1000": 166.95,"1025": 166.34,"1050": 165.55,"1075": 162.71,"1100": 155.28,"1125": 153.76,"1150": 152.65,"1175": 165.42,"1200": 164.62,"1225": 158.36,"1250": 152.6,"1275": 147.41,"1300": 139.7,"1325": 139.9,"1350": 137.11,"1375": 133.19,"1400": 135.5,"1425": 138.17,"1450": 148.36,"1475": 147.73,"1500": 147.03,"1525": 143.64,"1550": 133.79,"1575": 124.94,"1600": 122.26,"1625": 119.55,"1650": 112.85,"1675": 109.3,"1700": 107.61,"1725": 105.17,"1750": 98.15,"1775": 101.97,"1800": 97.62,"1825": 91.65,"1850": 90.19,"1875": 85.3,"1900": 80.44,"1925": 80.83,"1950": 77.56,"1975": 77.04,"2000": 71.82,"2025": 70.83,"2050": 65.34,"2075": 73.24,"2100": 69.19,"2125": 63.42,"2150": 60.18,"2175": 58.97,"2200": 56.26,"2225": 56.29,"2250": 55.52,"2275": 56.84,"2300": 53.26,"2325": 54.28,"2350": 54.16,"2375": 54.94,"2400": 53.9,"2425": 52.44,"2450": 52.47,"2475": 55.7,"2500": 52.94,"2525": 50.85,"2550": 51.36,"2575": 48.8,"2600": 51.42,"2625": 50.52,"2650": 51.74,"2675": 52.5,"2700": 52.33,"2725": 52.24,"2750": 53.89,"2775": 56.71,"2800": 56.87,"2825": 59.69,"2850": 58.7,"2875": 56.99,"2900": 59.54,"2925": 57.66,"2950": 60.56,"2975": 60.57,"3000": 61.81,"3025": 63.7,"3050": 64.41,"3075": 65.96,"3100": 66.73,"3125": 71.13,"3150": 75.71,"3175": 76.36,"3200": 78.78,"3225": 79.77,"3250": 78.05,"3275": 75.13,"3300": 76.74,"3325": 79.0,"3350": 83.59,"3375": 86.06,"3400": 977.38,"3425": 811.42,"3450": 600.24,"3475": 594.28,"3500": 723.01,"3525": 737.45,"3550": 647.04,"3575": 612.06,"3600": 620.88,"3625": 628.57,"3650": 735.95,"3675": 1246.79,"3700": 1066.03,"3725": 882.94,"3750": 803.48,"3775": 754.79,"3800": 768.38,"3825": 836.82,"3850": 829.29,"3875": 754.21,"3900": 1397.7,"3925": 1026.84,"3950": 850.43,"3975": 761.75,"4000": 716.34,"4025": 675.77,"4050": 654.24,"4075": 703.07,"4100": 737.51,"4125": 728.37,"4150": 701.49,"4175": 670.55,"4200": 667.3,"4225": 651.4,"4250": 630.82,"4275": 624.54,"4300": 594.57,"4325": 590.14,"4350": 581.52,"4375": 552.79,"4400": 520.78,"4425": 500.07,"4450": 469.96,"4475": 452.9,"4500": 465.06,"4525": 488.85,"4550": 476.28,"4575": 442.63,"4600": 415.55,"4625": 369.23,"4650": 317.08,"4675": 270.93,"4700": 234.91,"4725": 213.64,"4750": 183.15,"4775": 166.65,"4800": 149.65,"4825": 137.25,"4850": 126.66,"4875": 107.19,"4900": 93.18,"4925": 82.59,"4950": 67.68,"4975": 55.58,"5000": 51.9,"5025": 48.81,"5050": 44.44,"5075": 37.01,"5100": 32.51,"5125": 28.04,"5150": 25.05,"5175": 20.79,"5200": 19.24,"5225": 14.63,"5250": 13.0,"5275": 11.31,"5300": 9.99,"5325": 9.5,"5350": 8.94,"5375": 7.67,"5400": 7.18,"5425": 5.62,"5450": 5.13,"5475": 5.37,"5500": 4.65,"5525": 3.91,"5550": 4.24,"5575": 3.53,"5600": 2.77,"5625": 2.73,"5650": 1.85,"5675": 1.74,"5700": 1.15,"5725": 0.86,"5750": 0.76}}}