{"type":"Feature","properties":{"GID_2":"ARG.7.13_1","GID_0":"ARG","country":"Argentina","GID_1":"ARG.7_1","state":"Corrientes","NL_NAME_1":"NA","county":"Lavalle","VARNAME_2":"NA","NL_NAME_2":"NA","TYPE_2":"Departamento","ENGTYPE_2":"Department","CC_2":"NA","HASC_2":"AR.CN.LA","name":"Lavalle.county"},
"geometry":{"type": "MultiPolygon","coordinates": [[[[-59.1588,-28.7738,37.9742],[-59.1614,-28.7809,41.1781],[-59.159,-28.8046,38.0397],[-59.1657,-28.8332,35.7065],[-59.162,-28.8516,32.0],[-59.1636,-28.8701,31.5],[-59.1867,-28.9418,38.9521],[-59.192,-28.9948,29.5],[-59.1962,-29.013,29.5],[-59.2075,-29.0489,29.5],[-59.215,-29.0634,35.1223],[-59.2271,-29.0753,35.5751],[-59.249,-29.086,29.5],[-59.2365,-29.0845,37.2357],[-59.2345,-29.087,37.1492],[-59.2364,-29.096,36.9877],[-59.2283,-29.0929,36.9501],[-59.2162,-29.0923,36.736],[-59.2127,-29.0936,32.2759],[-59.2052,-29.1019,38.9113],[-59.1931,-29.1019,37.2433],[-59.18,-29.0939,39.4168],[-59.1626,-29.0745,48.7284],[-59.1233,-29.0588,48.3283],[-59.1166,-29.0736,58.2448],[-59.1027,-29.0724,55.7986],[-59.1007,-29.0836,60.469],[-59.0023,-29.0875,61.3328],[-58.9974,-29.0738,61.0662],[-58.9251,-29.0887,56.1443],[-58.8912,-29.0994,58.2658],[-58.8482,-29.1096,56.2795],[-58.8115,-29.1245,53.4359],[-58.801,-29.1301,47.1778],[-58.7999,-29.1332,46.6168],[-58.8037,-29.1434,49.4951],[-58.8148,-29.1538,46.6631],[-58.8198,-29.1635,49.7666],[-58.826,-29.1681,49.2019],[-58.83,-29.1781,46.3974],[-58.8428,-29.1915,45.5636],[-58.845,-29.2055,48.9164],[-58.8546,-29.221,44.8091],[-58.8514,-29.2314,48.5526],[-58.8512,-29.249,47.0795],[-58.8456,-29.254,42.076],[-58.8237,-29.2452,45.7158],[-58.8116,-29.2454,45.2249],[-58.8037,-29.2471,40.9615],[-58.7974,-29.2516,41.4454],[-58.7926,-29.2585,40.7603],[-58.7824,-29.2447,40.3179],[-58.7597,-29.2244,44.0339],[-58.7564,-29.2179,42.52],[-58.7557,-29.2039,41.2987],[-58.7488,-29.2001,42.6728],[-58.7415,-29.1916,43.184],[-58.7305,-29.1881,42.989],[-58.7197,-29.1775,42.8346],[-58.7179,-29.1528,44.8015],[-58.709,-29.1329,42.5572],[-58.7028,-29.1237,39.4739],[-58.6997,-29.1216,42.9671],[-58.6917,-29.1217,43.7121],[-58.6884,-29.1199,42.5089],[-58.6845,-29.1102,44.0068],[-58.6774,-29.1073,43.6932],[-58.6748,-29.1006,43.9563],[-58.6694,-29.0953,42.6604],[-58.6643,-29.0822,43.7172],[-58.6568,-29.0792,41.8708],[-58.6452,-29.0772,41.8599],[-58.6351,-29.0662,41.302],[-58.6193,-29.0663,42.4369],[-58.6121,-29.0634,41.7112],[-58.6099,-29.0603,42.714],[-58.607,-29.0544,45.3508],[-58.6079,-29.053,45.273],[-58.7587,-28.9304,58.6137],[-58.8694,-28.8498,62.4594],[-58.8838,-28.8409,63.0088],[-58.8945,-28.8359,63.1813],[-58.9065,-28.8345,63.5159],[-58.9347,-28.8358,58.9409],[-58.9701,-28.8335,50.9858],[-58.9695,-28.8253,54.1886],[-59.0348,-28.816,61.2609],[-59.0346,-28.7975,61.9878],[-59.0979,-28.7835,62.4588],[-59.1139,-28.7815,46.6626],[-59.1222,-28.774,37.8623],[-59.1258,-28.773,35.1494],[-59.1441,-28.7801,33.0],[-59.1588,-28.7738,37.9742]]]]}}