{"type": "Feature","bbox": [-65.6545,-27.0199,-65.2179,-26.7404],"geometry": {"type": "MultiPolygon","coordinates": [[[[-65.2769,-26.8471,417.4247],[-65.3093,-26.8383,466.9003],[-65.3748,-26.8238,1400.5452],[-65.3792,-26.8286,1368.5988],[-65.381,-26.8342,1444.8008],[-65.3802,-26.836,1397.5145],[-65.3744,-26.8345,1350.8801],[-65.3847,-26.8489,1457.0217],[-65.4072,-26.8449,1122.5906],[-65.4319,-26.8377,741.4693],[-65.4358,-26.8329,736.642],[-65.4329,-26.8103,794.192],[-65.4415,-26.8038,846.7947],[-65.4468,-26.7893,958.4338],[-65.4528,-26.779,927.8283],[-65.4706,-26.7656,971.3194],[-65.4845,-26.7607,971.6299],[-65.5014,-26.7581,1235.9353],[-65.5087,-26.7543,1092.1029],[-65.523,-26.7621,1576.7764],[-65.5272,-26.7613,1455.171],[-65.5322,-26.764,1491.157],[-65.5449,-26.7656,1425.2505],[-65.5538,-26.7606,1448.5422],[-65.5615,-26.7629,1561.5806],[-65.5734,-26.7591,1844.6226],[-65.5773,-26.7547,1799.6835],[-65.5888,-26.7495,1728.7943],[-65.5948,-26.7442,1910.7808],[-65.6092,-26.7404,2344.252],[-65.6242,-26.7469,2488.1895],[-65.6361,-26.7552,2501.731],[-65.6456,-26.7577,2481.9888],[-65.6461,-26.7688,2554.1392],[-65.6508,-26.7836,2660.7129],[-65.6505,-26.797,2748.6509],[-65.6542,-26.808,2814.5435],[-65.6524,-26.819,2844.4011],[-65.6545,-26.8319,2612.3254],[-65.649,-26.8263,2857.9038],[-65.621,-26.8251,3095.7856],[-65.6179,-26.827,2867.7144],[-65.6184,-26.8397,3083.6479],[-65.6058,-26.8394,2729.1162],[-65.5938,-26.8434,2723.4297],[-65.5888,-26.8409,2472.885],[-65.5747,-26.8458,2247.1821],[-65.5641,-26.8452,2039.1199],[-65.5557,-26.8471,2075.1213],[-65.545,-26.847,1826.2034],[-65.5431,-26.8498,1899.0549],[-65.5173,-26.8478,1612.1506],[-65.5062,-26.862,1173.2015],[-65.4985,-26.865,1010.8011],[-65.4834,-26.8758,929.1521],[-65.4777,-26.8815,792.3232],[-65.4765,-26.8848,859.1774],[-65.4636,-26.8906,684.5347],[-65.458,-26.8987,680.2264],[-65.4541,-26.9004,665.7346],[-65.4491,-26.9067,590.02],[-65.448,-26.918,547.8046],[-65.4401,-26.9316,525.5577],[-65.4341,-26.93,501.0449],[-65.4304,-26.9369,474.1873],[-65.4183,-26.9479,455.9747],[-65.4107,-26.9511,442.4221],[-65.4051,-26.9593,427.8548],[-65.3973,-26.9575,427.1407],[-65.3889,-26.9636,406.2717],[-65.3783,-26.9642,401.2524],[-65.3767,-26.9655,396.7425],[-65.3728,-26.9701,393.4329],[-65.3713,-26.9757,391.647],[-65.3625,-26.9842,385.0858],[-65.3623,-26.9938,382.3041],[-65.3531,-27.0042,375.1688],[-65.3522,-27.01,370.1838],[-65.346,-27.015,366.4269],[-65.3362,-27.0197,368.0324],[-65.3306,-27.0131,364.5843],[-65.3271,-27.0001,368.5082],[-65.3144,-26.9927,371.8374],[-65.3205,-26.9857,372.3862],[-65.3207,-26.982,374.1623],[-65.3179,-26.9767,377.6453],[-65.312,-26.975,379.1662],[-65.3105,-26.9659,382.5184],[-65.3061,-26.9664,381.4595],[-65.3051,-26.9647,381.658],[-65.3003,-26.9499,386.0753],[-65.2979,-26.9288,389.8636],[-65.2958,-26.9255,394.9059],[-65.2941,-26.9255,390.2314],[-65.2932,-26.9314,388.583],[-65.2888,-26.9351,387.7572],[-65.2871,-26.9426,385.2111],[-65.2797,-26.9464,384.8832],[-65.2693,-26.9562,379.8882],[-65.2659,-26.9651,376.6017],[-65.2605,-26.9709,375.4423],[-65.2591,-26.9805,371.9017],[-65.2632,-26.9869,370.7311],[-65.2616,-27.0021,366.871],[-65.265,-27.0112,365.3631],[-65.2609,-27.0199,360.6901],[-65.2574,-27.0178,361.9116],[-65.2568,-27.012,365.8116],[-65.2537,-27.0095,362.8288],[-65.2485,-26.9949,369.6461],[-65.2363,-26.9745,374.0483],[-65.2321,-26.9704,375.5927],[-65.2297,-26.959,381.4326],[-65.2218,-26.9527,385.3663],[-65.2227,-26.9335,390.2419],[-65.2188,-26.9226,391.7267],[-65.2179,-26.9124,396.153],[-65.2327,-26.8949,395.6377],[-65.2345,-26.8798,398.9647],[-65.2355,-26.8781,399.67],[-65.2756,-26.8685,398.7069],[-65.2767,-26.8591,405.9011],[-65.2746,-26.8496,408.2549],[-65.2769,-26.8471,417.4247]]]]}
,"properties": {"GID_2": "ARG.24.10_1","GID_0": "ARG","country": "Argentina","GID_1": "ARG.24_1","state": "Tucumán","NL_NAME_1": "NA","county": "Lules","VARNAME_2": "NA","NL_NAME_2": "NA","TYPE_2": "Departamento","ENGTYPE_2": "Department","CC_2": "NA","HASC_2": "AR.TM.LU","name": "Lules.county","area_km2": 521.6723,"hist_schema_id": "Elevation0-9000","hist_area_km2": {"350": 0.2644,"375": 61.4159,"400": 88.2516,"425": 23.7288,"450": 12.6689,"475": 9.4168,"500": 8.1686,"525": 6.5425,"550": 5.6159,"575": 4.9919,"600": 4.8217,"625": 4.4624,"650": 4.7463,"675": 4.5762,"700": 6.657,"725": 6.5059,"750": 8.057,"775": 7.3006,"800": 7.5276,"825": 7.0931,"850": 6.9609,"875": 6.8287,"900": 7.737,"925": 7.4534,"950": 7.5104,"975": 7.4161,"1000": 6.5651,"1025": 6.1489,"1050": 5.3545,"1075": 4.3512,"1100": 3.1973,"1125": 2.8002,"1150": 2.5542,"1175": 2.6678,"1200": 2.6868,"1225": 2.4786,"1250": 2.5544,"1275": 2.5922,"1300": 2.7058,"1325": 2.8383,"1350": 3.1789,"1375": 2.8003999999999998,"1400": 3.1411,"1425": 2.8573,"1450": 2.4412,"1475": 2.4033,"1500": 2.6116,"1525": 2.5169,"1550": 2.3278,"1575": 2.3089,"1600": 2.3467,"1625": 2.5928,"1650": 2.4225,"1675": 2.6875,"1700": 2.1008,"1725": 2.271,"1750": 2.1385,"1775": 2.536,"1800": 2.9902,"1825": 3.0281,"1850": 2.9903,"1875": 2.801,"1900": 2.8958,"1925": 2.7632,"1950": 3.0661,"1975": 3.3499,"2000": 3.8041,"2025": 4.1447,"2050": 2.7441,"2075": 2.4982,"2100": 1.9494,"2125": 1.9304,"2150": 1.987,"2175": 1.9493,"2200": 1.7979,"2225": 1.6086,"2250": 1.7032,"2275": 1.5898,"2300": 1.5897,"2325": 1.7979,"2350": 1.3248,"2375": 1.4761,"2400": 1.2491,"2425": 1.514,"2450": 1.5708,"2475": 1.3059,"2500": 1.3816,"2525": 1.3626,"2550": 1.2302,"2575": 1.514,"2600": 1.2681,"2625": 1.5898,"2650": 1.287,"2675": 1.3816,"2700": 1.4005,"2725": 1.4952,"2750": 1.6276,"2775": 1.2491,"2800": 1.5897,"2825": 1.5707,"2850": 1.4572,"2875": 1.2869,"2900": 1.1165,"2925": 1.1733,"2950": 1.003,"2975": 1.2869,"3000": 1.003,"3025": 0.9841,"3050": 0.9273,"3075": 0.9273,"3100": 0.7948,"3125": 0.6623,"3150": 0.6434,"3175": 0.5299,"3200": 0.3784,"3225": 0.4163,"3250": 0.3217,"3275": 0.3784,"3300": 0.3974,"3325": 0.2271,"3350": 0.246,"3375": 0.1892,"3400": 0.0568}}}