{"type":"Feature","properties":{"GID_2":"ARG.15.6_1","GID_0":"ARG","country":"Argentina","GID_1":"ARG.15_1","state":"Neuquén","NL_NAME_1":"NA","county":"Confluencia","VARNAME_2":"Neuquen","NL_NAME_2":"NA","TYPE_2":"Departamento","ENGTYPE_2":"Department","CC_2":"NA","HASC_2":"AR.NQ.CO","name":"Confluencia.county"},
"geometry":{"type": "MultiPolygon","coordinates": [[[[-69.3571,-38.6086,600.654],[-69.5938,-38.7877,702.586],[-69.3294,-39.0063,765.2023],[-68.8551,-39.3937,374.5],[-68.84,-39.3866,374.5],[-68.8332,-39.3769,374.5],[-68.8283,-39.3636,374.5],[-68.8189,-39.3521,374.5],[-68.8192,-39.3301,374.5],[-68.8227,-39.3195,374.5],[-68.8129,-39.3083,374.5],[-68.8148,-39.2973,374.5],[-68.8104,-39.2899,374.5],[-68.8106,-39.2844,374.5],[-68.8048,-39.2813,374.5],[-68.7942,-39.281,374.5],[-68.7711,-39.2744,374.5],[-68.7672,-39.2698,374.5],[-68.7542,-39.2625,343.7716],[-68.746,-39.2619,312.4086],[-68.7312,-39.2578,354.2982],[-68.7213,-39.2515,323.8358],[-68.716,-39.2434,314.5913],[-68.7056,-39.2345,346.5716],[-68.6941,-39.2281,311.5],[-68.6749,-39.2212,311.5],[-68.6656,-39.2129,311.5],[-68.6591,-39.2002,311.5],[-68.661,-39.1893,311.5],[-68.6698,-39.1774,331.5742],[-68.6699,-39.1719,361.3841],[-68.668,-39.1667,384.5427],[-68.6603,-39.1611,377.5298],[-68.648,-39.1556,311.5],[-68.6392,-39.1407,311.5],[-68.6017,-39.116,311.5],[-68.5831,-39.096,305.3278],[-68.5667,-39.0856,296.5477],[-68.5387,-39.0741,294.1848],[-68.5286,-39.0716,294.8567],[-68.5076,-39.0714,290.8986],[-68.4897,-39.0583,292.4214],[-68.4633,-39.0447,286.7998],[-68.4563,-39.0386,290.8701],[-68.4448,-39.0322,288.1744],[-68.438,-39.031,286.8116],[-68.421,-39.0342,285.3703],[-68.4143,-39.0327,286.0078],[-68.4079,-39.0305,283.8874],[-68.3986,-39.0223,285.6468],[-68.3872,-39.0162,284.4027],[-68.3744,-39.0121,283.2238],[-68.3589,-39.0009,283.5516],[-68.3457,-38.9971,279.9821],[-68.3347,-38.9958,277.6536],[-68.3263,-38.9918,277.8245],[-68.2901,-38.9812,275.303],[-68.2725,-38.9809,274.8207],[-68.2654,-38.9867,274.1631],[-68.262,-38.9876,274.1761],[-68.2374,-38.987,272.2906],[-68.2253,-38.9815,272.4576],[-68.2195,-38.9747,272.7282],[-68.2118,-38.969,267.5],[-68.1942,-38.9691,267.0659],[-68.1841,-38.9709,266.0],[-68.1825,-38.9734,270.1925],[-68.1764,-38.9764,269.1946],[-68.1629,-38.9752,267.0385],[-68.145,-38.9836,270.0681],[-68.1345,-38.9833,263.6137],[-68.0866,-38.9922,261.8477],[-68.0695,-38.9893,263.2107],[-68.058,-38.9831,255.5],[-68.0263,-38.9818,259.3425],[-68.0163,-38.9793,254.0037],[-68.0142,-38.9771,258.5384],[-68.0127,-38.9662,261.9153],[-68.0168,-38.9557,262.2343],[-68.0397,-38.9391,262.939],[-68.0479,-38.9302,268.378],[-68.0523,-38.9228,268.2642],[-68.0533,-38.9119,269.4115],[-68.0721,-38.9049,280.9398],[-68.073,-38.8995,273.188],[-68.0711,-38.8887,274.9713],[-68.0719,-38.886,270.6604],[-68.0789,-38.8801,274.4755],[-68.0794,-38.8636,275.5048],[-68.0848,-38.8567,278.7225],[-68.0896,-38.8464,283.8983],[-68.0893,-38.8328,280.732],[-68.1004,-38.8223,285.8832],[-68.1094,-38.8044,284.4999],[-68.113,-38.7937,289.3895],[-68.1187,-38.7837,290.6533],[-68.1254,-38.7512,293.6362],[-68.1346,-38.743,295.0966],[-68.1483,-38.7346,296.5082],[-68.1641,-38.7287,300.322],[-68.1883,-38.7129,303.1953],[-68.233,-38.6972,309.5706],[-68.245,-38.6882,311.2634],[-68.2541,-38.6899,312.3557],[-68.2644,-38.6839,310.1289],[-68.2973,-38.6616,316.8358],[-68.3059,-38.6497,317.351],[-68.3426,-38.6205,325.3086],[-68.3663,-38.6044,329.8688],[-68.3921,-38.5898,337.0],[-68.4477,-38.5723,345.7229],[-68.4566,-38.568,377.6157],[-68.4834,-38.5501,347.7718],[-68.5003,-38.5333,350.9891],[-68.5145,-38.5161,354.3602],[-68.5289,-38.5072,355.4581],[-68.5421,-38.4959,357.8185],[-68.5641,-38.485,361.8722],[-68.5854,-38.4804,361.988],[-68.6103,-38.4594,367.4324],[-68.6358,-38.4452,372.118],[-68.661,-38.426,376.2739],[-68.6772,-38.4156,376.7771],[-68.6894,-38.41,381.6834],[-68.7215,-38.4016,385.4566],[-68.7538,-38.3883,389.9171],[-68.7689,-38.3851,405.9235],[-68.7844,-38.3845,432.8689],[-68.845,-38.3771,404.732],[-68.8599,-38.3799,408.2034],[-68.8842,-38.3899,411.286],[-68.9138,-38.413,416.209],[-68.9235,-38.4288,417.2255],[-68.9455,-38.4516,422.86],[-68.9543,-38.472,427.103],[-68.9599,-38.4788,427.3008],[-68.9776,-38.4925,430.9659],[-68.9925,-38.498,454.1375],[-69.0175,-38.5217,462.9206],[-69.0206,-38.5316,484.9422],[-69.0266,-38.5395,460.0297],[-69.0462,-38.5512,442.9272],[-69.0533,-38.5573,442.6367],[-69.0563,-38.5618,444.2401],[-69.0596,-38.5789,448.9749],[-69.083,-38.5878,453.5148],[-69.0976,-38.6047,481.0748],[-69.1137,-38.609,508.329],[-69.1353,-38.6206,478.0029],[-69.1566,-38.6251,481.8502],[-69.2075,-38.6248,488.6491],[-69.2279,-38.6343,490.4144],[-69.2356,-38.6353,508.5013],[-69.2419,-38.6341,512.5789],[-69.2472,-38.6282,502.286],[-69.2587,-38.6214,542.3302],[-69.2751,-38.6181,589.5663],[-69.3025,-38.6175,500.3625],[-69.3244,-38.624,619.5409],[-69.3336,-38.6245,621.6363],[-69.3442,-38.6144,590.6726],[-69.3571,-38.6086,600.654]]]]}}