{"type": "Feature","bbox": [-69.324072566203469,-45.59011913969951,-69.107420568634552,-45.229817448090358],"geometry": {"type": "Polygon","coordinates": [[[-69.115221218003541,-45.268673512871743,270.5163],[-69.123463413563229,-45.258665132549254,270.0468],[-69.12979224229656,-45.261020045566312,268.0],[-69.1300866064237,-45.279859349702747,268.0],[-69.140242168809735,-45.2683791487446,268.0],[-69.142744263890364,-45.264552415091885,268.0],[-69.147601271988037,-45.247184931591136,268.0],[-69.149956185005081,-45.24159201317562,268.0],[-69.1584927446919,-45.233938545870217,268.0],[-69.170414491840731,-45.229817448090358,268.5707],[-69.182924967243835,-45.2301118122175,276.0756],[-69.1938164399477,-45.234527274124474,283.0733],[-69.201175543126,-45.243063833811277,295.3112],[-69.204413548524442,-45.253366578260881,293.5196],[-69.204707912651571,-45.264846779219027,295.4711],[-69.203236092015914,-45.276032616050031,296.407],[-69.203677638206614,-45.288690273516693,293.0707],[-69.210006466939944,-45.296049376694981,293.9371],[-69.220456393453119,-45.298698653839182,315.765],[-69.232966868856209,-45.297521197330639,341.6161],[-69.246213254577142,-45.293694463677923,386.1714],[-69.258723729980233,-45.287807181135292,347.613],[-69.265641286967835,-45.282508626846919,305.5107],[-69.275502485226738,-45.269850969380258,275.9841],[-69.281684131896512,-45.263963686837627,268.0],[-69.292869968727516,-45.2589594966764,268.0],[-69.306116354448434,-45.257782040167882,268.0],[-69.317743737470138,-45.262197502074855,268.0],[-69.324072566203469,-45.273088974778716,268.0],[-69.321423289059283,-45.283686083355462,268.0],[-69.312886729372465,-45.293988827805066,268.0],[-69.292575604600373,-45.308707034161642,268.0],[-69.278887672688754,-45.314299952577159,282.809],[-69.249304077912029,-45.319009778611246,322.8087],[-69.235763328063967,-45.324897061153877,278.3105],[-69.22678522218645,-45.333433620840708,268.0],[-69.221928214088777,-45.3434420011632,268.0],[-69.22089793964382,-45.3546278379942,268.0],[-69.223988762978692,-45.366696767206577,268.0],[-69.231053502029866,-45.376705147529066,268.0],[-69.2407675182252,-45.385830435470154,268.0],[-69.249156895848458,-45.3955444516655,268.0],[-69.2519533550562,-45.407319016750762,268.0],[-69.2485681675942,-45.424980864378654,268.0],[-69.247979439339929,-45.433223059938342,268.0],[-69.250481534420544,-45.443820168515089,268.0],[-69.2635807380779,-45.472962217101127,322.4801],[-69.272706026019,-45.514761923153827,274.447],[-69.284774955231384,-45.547141977138295,268.0],[-69.286835504121314,-45.5583278139693,268.0],[-69.287424232375571,-45.5695136508003,269.5388],[-69.273294754273252,-45.59011913969951,268.0],[-69.239884425843812,-45.587175498428195,268.0],[-69.17115040215856,-45.567453101910388,268.0],[-69.142449899763221,-45.554795444443727,268.0],[-69.133030247695018,-45.524770303476288,268.0],[-69.129645060233,-45.489740972347619,268.0],[-69.115368400067112,-45.446469445659261,268.0],[-69.119047951656256,-45.428513233904226,268.0],[-69.1300866064237,-45.395838815792615,268.0],[-69.13111688086866,-45.378471332291866,268.0],[-69.128614785788045,-45.368462951969377,268.0],[-69.116545856575641,-45.347563098943027,268.0],[-69.111688848477968,-45.334022349094965,268.0],[-69.108450843079524,-45.318715414484132,267.9852],[-69.107420568634552,-45.302231023364754,267.5],[-69.109039571333781,-45.28604099637252,267.5],[-69.115221218003541,-45.268673512871743,270.5163]]]}
,"properties": {"featurecla": "Lake","scalerank": 9,"name": "Lago Musters","name_abb": "L. Musters","name_alt": null,"note": null,"delta": null,"dam_name": null,"year": -99,"admin": null,"min_zoom": 7.0,"min_label": 8.0,"area_km2": 380.8648,"hist_schema_id": "Elevation0-9000","hist_area_km2": {"275": 364.1497,"300": 6.427,"325": 3.5635,"350": 4.2495,"375": 1.6998,"400": 0.5666,"425": 0.2087}}}