{"type":"Feature","properties":{"featurecla":"Lake","scalerank":6,"name":"Lago Colhu Huapi","name_abb":"L. Colhu Huapi","name_alt":null,"note":null,"delta":null,"dam_name":null,"year":-99,"admin":null,"min_zoom":5.0,"min_label":6.5},
"geometry":{"type": "Polygon","coordinates": [[[-68.5859545174208,-45.563037640003415,256.7789],[-68.582127783768087,-45.546847613011181,254.0151],[-68.619217663786685,-45.553323623808069,266.9486],[-68.6380569679231,-45.551557439045268,251.0],[-68.654099812851783,-45.54331524348558,252.5856],[-68.658220910631627,-45.531540678400319,285.6687],[-68.644974524910708,-45.524770303476288,251.0],[-68.625104946329316,-45.519471749187915,251.0],[-68.609356465527767,-45.512701374263884,255.3877],[-68.625104946329316,-45.506225363466996,251.0],[-68.678237671276577,-45.49916062441585,265.2547],[-68.664991285555658,-45.482087505042188,251.9426],[-68.653069538406825,-45.470018575829812,251.0],[-68.648654076499852,-45.457066554236008,251.0],[-68.657779364440927,-45.437049793591058,265.8061],[-68.665727195873487,-45.432045603429827,269.3637],[-68.674410937623875,-45.431456875175542,253.3294],[-68.681475676675035,-45.429396326285627,253.5578],[-68.68441931794635,-45.420271038344538,251.6613],[-68.68441931794635,-45.385830435470154,251.0],[-68.6932502417603,-45.374055870384865,251.0],[-68.713561366532389,-45.364047490062404,286.2093],[-68.736668950512225,-45.35698275101123,288.4767],[-68.753447705758731,-45.354922202121315,269.8449],[-68.76581099909825,-45.358454571646888,272.3408],[-68.785386213552513,-45.366696767206577,251.0],[-68.799957237845533,-45.378471332291866,253.6612],[-68.797749506892046,-45.392600810394185,251.5274],[-68.790684767840887,-45.408202109132162,251.0],[-68.787446762442428,-45.432634331684085,254.72],[-68.791126314031573,-45.455006005346092,253.1688],[-68.804961428006763,-45.464720021541439,251.0],[-68.825714098969556,-45.46059892376158,323.3091],[-68.846319587868763,-45.450001815184862,305.3607],[-68.883115103760233,-45.423214679615853,295.1679],[-68.902837500278054,-45.396133179919758,277.1429],[-68.893859394400536,-45.370229136732178,251.0],[-68.8763447288362,-45.340203995764739,251.7455],[-68.870163082166428,-45.300464838601954,251.0],[-68.879141188043945,-45.273972067160116,252.9754],[-68.895625579163323,-45.259548224930654,253.0027],[-68.9172613425075,-45.253660942388024,284.3584],[-68.9413992009323,-45.252483485879509,279.6002],[-68.960091323005159,-45.2598425890578,255.0141],[-68.975692621743136,-45.277504436685689,281.69],[-68.985406637938482,-45.2998761103477,254.1505],[-68.986142548256311,-45.320775963374047,269.3771],[-68.975251075552436,-45.339026539256196,260.0631],[-68.960827233322988,-45.355805294502716,254.211],[-68.954792768716786,-45.374938962766265,256.7775],[-68.969069428882676,-45.399371185318188,260.0161],[-68.983787635239253,-45.417033032946108,267.5074],[-68.99232419492607,-45.435283608828257,256.5553],[-68.991882648735384,-45.453534184710435,255.0536],[-68.97937217333228,-45.471196032338327,253.7882],[-68.932421095054778,-45.495628254890249,251.7471],[-68.925356356003618,-45.505047906958481,253.4431],[-68.909313511074942,-45.532129406654576,253.0848],[-68.906664233930755,-45.556267265079384,255.9841],[-68.90416213885014,-45.567453101910388,256.2794],[-68.887972111857891,-45.591296596208053,253.7882],[-68.8745785440734,-45.623382286065407,255.2761],[-68.8633927072424,-45.640749769566156,255.1621],[-68.847497044377292,-45.652524334651446,256.0757],[-68.824831006588155,-45.656645432431276,255.5365],[-68.723275382727735,-45.663415807355307,253.1613],[-68.701639619383556,-45.660766530211134,252.7972],[-68.682211586992864,-45.651052514015788,251.0],[-68.664844103492086,-45.644870867346015,255.9679],[-68.647035073800623,-45.653407427032846,257.2213],[-68.627607041409931,-45.668125633389423,257.6909],[-68.610681104099868,-45.672246731169253,253.9744],[-68.59581571567972,-45.668125633389423,257.2339],[-68.582127783768087,-45.656645432431276,277.2158],[-68.581097509323129,-45.6522299705243,276.0981],[-68.583158058213058,-45.639866677184784,255.7547],[-68.582127783768087,-45.635451215277811,258.09],[-68.578153868051814,-45.633979394642154,257.8393],[-68.5653490285216,-45.631035753370838,258.5529],[-68.561669476932437,-45.629269568608038,255.3359],[-68.55401600962702,-45.622204829556864,252.6908],[-68.547245634702989,-45.617789367649891,255.0123],[-68.542388626605316,-45.611313356853,252.787],[-68.540475259778958,-45.5983613352592,252.103],[-68.550483640101433,-45.579227666995649,252.5585],[-68.5859545174208,-45.563037640003415,256.7789]]]}}