{"type": "Feature","bbox": [-71.631004230534359,-44.978136119392786,-71.364015967225939,-44.866866479337006],"geometry": {"type": "Polygon","coordinates": [[[-71.38373836374376,-44.964006641290467,944.8029],[-71.364015967225939,-44.964006641290467,970.7706],[-71.393599562002663,-44.946344793662576,924.0],[-71.4649828628321,-44.918085837457909,924.0],[-71.550201277636717,-44.8957141637959,924.0],[-71.5631532992305,-44.889532517126156,924.0],[-71.570806766535938,-44.883645234583526,924.0],[-71.575222228442911,-44.878052316168009,924.0],[-71.580373600667713,-44.873048126006779,924.0],[-71.590529163053759,-44.868338299972663,924.0],[-71.5998016330584,-44.866866479337006,924.0],[-71.631004230534359,-44.868338299972663,1040.7773],[-71.61731629862274,-44.880112865057924,1000.0732],[-71.569482127963838,-44.902484538719932,1019.3409],[-71.521942321432078,-44.946050429535433,946.6884],[-71.486765808239838,-44.960474271764895,932.4213],[-71.479553887125121,-44.962240456527667,924.0],[-71.4486456537763,-44.96665591843464,924.0],[-71.417001510109642,-44.976958662884243,926.1052],[-71.398750934227479,-44.978136119392786,924.0],[-71.398750934227479,-44.971365744468756,924.0],[-71.411850137884826,-44.972837565104413,924.0],[-71.4240662491608,-44.972248836850156,924.0],[-71.4339274474197,-44.967833374943183,924.0],[-71.439667547898779,-44.957824994620694,929.8735],[-71.419945151380958,-44.957824994620694,962.2632],[-71.38373836374376,-44.964006641290467,944.8029]]]}
,"properties": {"featurecla": "Lake","scalerank": 8,"name": "Lago Fontana","name_abb": "L. Fontana","name_alt": null,"note": null,"delta": null,"dam_name": null,"year": -99,"admin": null,"min_zoom": 6.0,"min_label": 7.0,"area_km2": 66.48435,"hist_schema_id": "Elevation0-9000","hist_area_km2": {"925": 60.94478,"950": 3.64761,"975": 1.14114,"1000": 0.52552,"1025": 0.19526,"1050": 0.03005}}}