{"type": "Feature","bbox": [-71.973496892452062,-44.8957141637959,-71.645280890700249,-44.827421686301363],"geometry": {"type": "Polygon","coordinates": [[[-71.915212795279984,-44.880407229185067,926.0],[-71.8712053582738,-44.892181794270329,967.1617],[-71.826462010949783,-44.8957141637959,1194.3485],[-71.807181160622662,-44.893064886651729,1076.4819],[-71.74816115313277,-44.875108674896694,1061.093],[-71.699885436283168,-44.876874859659495,1065.9456],[-71.676336306112631,-44.874225582515294,970.7025],[-71.6588216405483,-44.861567925048632,951.6747],[-71.655142088959153,-44.864511566319948,924.0],[-71.651756901497137,-44.866572115209891,946.5807],[-71.6485188960987,-44.867455207591263,944.1387],[-71.645280890700249,-44.867749571718406,952.3922],[-71.652198447687837,-44.851265180599029,1006.4487],[-71.674864485476974,-44.843317349166483,926.0],[-71.727114118042849,-44.840373707895168,926.0],[-71.7488970634506,-44.841845528530826,926.0],[-71.827050739204054,-44.869221392354063,1107.4061],[-71.847361863976133,-44.871870669498236,926.0],[-71.867525806684654,-44.869515756481206,1031.187],[-71.932580278780762,-44.848027175200571,1158.3271],[-71.941116838467579,-44.841256800276568,1101.799],[-71.948917487836567,-44.833603332971137,971.5],[-71.958778686095471,-44.827716050428506,1154.7002],[-71.973496892452062,-44.827421686301363,1030.6687],[-71.951566764980754,-44.859507376158717,926.0],[-71.915212795279984,-44.880407229185067,926.0]]]}
,"properties": {"featurecla": "Lake","scalerank": 8,"name": "Lago La Plata","name_abb": "L. La Plata","name_alt": null,"note": null,"delta": null,"dam_name": null,"year": -99,"admin": null,"min_zoom": 6.0,"min_label": 7.0,"area_km2": 77.48084,"hist_schema_id": "Elevation0-9000","hist_area_km2": {"925": 49.84725,"950": 5.83055,"975": 5.69482,"1000": 4.16226,"1025": 2.85494,"1050": 2.01352,"1075": 2.02867,"1100": 1.51771,"1125": 1.26232,"1150": 0.90163,"1175": 0.75127,"1200": 0.4807,"1225": 0.13519}}}