{"type": "Feature","bbox": [-63.3939,-35.3792,-62.2662,-34.3824],"geometry": {"type": "MultiPolygon","coordinates": [[[[-62.347,-34.6537,102.3472],[-62.3291,-34.5591,105.108],[-62.3131,-34.5593,104.3921],[-62.2677,-34.3833,101.2594],[-62.2662,-34.3824,101.0],[-63.3939,-34.385,136.9701],[-63.3911,-34.4865,136.6662],[-63.3932,-35.0658,124.4943],[-63.3898,-35.3792,118.193],[-63.3265,-35.329,115.8143],[-63.3435,-35.3047,116.6867],[-63.3027,-35.271,116.6537],[-63.2803,-35.2882,115.9146],[-63.2086,-35.2309,114.7137],[-63.2304,-35.2115,113.5623],[-63.1351,-35.1311,116.7407],[-63.0902,-35.1692,113.1587],[-63.1143,-35.1912,113.8605],[-62.9622,-35.317,106.9047],[-62.704,-35.1041,106.7904],[-62.6696,-35.133,105.5612],[-62.6439,-35.1123,103.598],[-62.6778,-35.0835,106.8297],[-62.6064,-35.0241,105.06],[-62.6377,-34.9972,107.0398],[-62.605,-34.9947,106.2313],[-62.6097,-34.8891,109.0576],[-62.6156,-34.8904,109.4852],[-62.621,-34.6336,109.4226],[-62.6079,-34.6371,109.1316],[-62.5909,-34.6528,108.3566],[-62.58,-34.6145,108.2269],[-62.347,-34.6537,102.3472]]]]}
,"properties": {"GID_2": "ARG.1.57_1","GID_0": "ARG","country": "Argentina","GID_1": "ARG.1_1","state": "BuenosAires","NL_NAME_1": "NA","county": "GeneralVillegas","VARNAME_2": "NA","NL_NAME_2": "NA","TYPE_2": "Partido","ENGTYPE_2": "Part","CC_2": "NA","HASC_2": "AR.BA.GV","name": "GeneralVillegas.county","area_km2": 7369.546,"hist_schema_id": "Elevation0-9000","hist_area_km2": {"100": 1982.338,"125": 5376.422,"150": 10.786}}}