{"type":"Feature","properties":{"GID_2":"ARG.24.16_1","GID_0":"ARG","country":"Argentina","GID_1":"ARG.24_1","state":"Tucumán","NL_NAME_1":"NA","county":"Trancas","VARNAME_2":"NA","NL_NAME_2":"NA","TYPE_2":"Departamento","ENGTYPE_2":"Department","CC_2":"NA","HASC_2":"AR.TM.TR","name":"Trancas.county"},
"geometry":{"type": "MultiPolygon","coordinates": [[[[-65.7109,-26.3565,3558.4358],[-65.7195,-26.3772,3558.2483],[-65.7245,-26.3833,3634.1758],[-65.7253,-26.387,3677.7178],[-65.7226,-26.3983,3599.2976],[-65.7149,-26.4098,3507.3962],[-65.7208,-26.42,3403.3853],[-65.721,-26.4239,3485.198],[-65.7115,-26.4452,3215.678],[-65.7106,-26.4529,3482.5674],[-65.7121,-26.4624,3714.6729],[-65.7077,-26.469,3716.5562],[-65.7066,-26.4746,3692.709],[-65.7008,-26.4827,3742.4277],[-65.7015,-26.4904,3871.4634],[-65.704,-26.4957,4039.6182],[-65.7032,-26.5034,3890.7417],[-65.7067,-26.5083,3700.7839],[-65.7088,-26.5157,3720.9971],[-65.7089,-26.5234,3893.7681],[-65.7067,-26.5292,3764.6777],[-65.6962,-26.527,3217.1824],[-65.6819,-26.5305,3112.2056],[-65.6695,-26.5289,2679.7842],[-65.6631,-26.53,2718.6011],[-65.6548,-26.5283,2537.2969],[-65.6485,-26.5289,2309.157],[-65.6425,-26.531,2367.4519],[-65.6339,-26.5396,2054.4648],[-65.6249,-26.5449,2181.4109],[-65.6154,-26.5553,1922.8075],[-65.6112,-26.5557,1840.5867],[-65.604,-26.5515,1794.6121],[-65.5828,-26.5491,1721.2805],[-65.5621,-26.5394,1598.7694],[-65.5514,-26.5398,1557.7698],[-65.5413,-26.5428,1599.0399],[-65.5327,-26.5427,1436.2218],[-65.5231,-26.5468,1367.0513],[-65.5167,-26.5472,1285.1458],[-65.5117,-26.5508,1247.1375],[-65.5075,-26.5509,1459.5029],[-65.5009,-26.5464,1226.1248],[-65.5019,-26.5447,1178.6335],[-65.4979,-26.5337,1158.0256],[-65.4876,-26.5277,1142.9225],[-65.4852,-26.5224,1095.2092],[-65.4726,-26.522,1152.6382],[-65.4699,-26.5246,1021.9474],[-65.4699,-26.5284,1206.0464],[-65.4846,-26.5421,1299.2845],[-65.4838,-26.5478,1330.8424],[-65.4883,-26.5519,1371.8571],[-65.4895,-26.5555,1506.6628],[-65.4844,-26.5603,1639.3723],[-65.4895,-26.5639,1579.1246],[-65.4935,-26.5706,1485.3239],[-65.4918,-26.5762,1688.072],[-65.4823,-26.5839,1882.3776],[-65.4788,-26.5989,2003.3788],[-65.4749,-26.6033,1998.1403],[-65.4669,-26.6008,1951.5266],[-65.464,-26.598,1889.8036],[-65.4568,-26.5822,2023.8694],[-65.447,-26.5859,1682.1416],[-65.4341,-26.5958,1490.6515],[-65.4245,-26.5999,1325.1982],[-65.4115,-26.6127,1130.1239],[-65.4055,-26.6148,1082.6995],[-65.3996,-26.6204,1070.4398],[-65.3862,-26.6265,976.446],[-65.3715,-26.6249,932.3017],[-65.3589,-26.6262,863.8157],[-65.3453,-26.6205,827.8898],[-65.3375,-26.614,804.9514],[-65.3248,-26.6148,784.2682],[-65.3167,-26.6125,761.707],[-65.3105,-26.6139,764.2701],[-65.2963,-26.6055,729.6227],[-65.2902,-26.6039,721.3197],[-65.2838,-26.6041,697.306],[-65.2682,-26.6104,673.1829],[-65.2619,-26.6109,655.6348],[-65.2556,-26.6097,658.4367],[-65.2424,-26.6035,633.6926],[-65.2342,-26.6038,630.425],[-65.2327,-26.6002,606.9637],[-65.2375,-26.5964,636.2947],[-65.2363,-26.590699999999998,646.519],[-65.2393,-26.5816,621.7155],[-65.2365,-26.5787,618.6794],[-65.2363,-26.571,635.7312],[-65.2324,-26.5644,605.1232],[-65.2346,-26.5592,642.7149],[-65.2293,-26.5562,608.0903],[-65.2279,-26.5527,609.3226],[-65.2286,-26.549,609.6907],[-65.2277,-26.5472,617.898],[-65.2236,-26.5473,611.8575],[-65.2227,-26.5434,611.9204],[-65.1674,-26.5454,1353.7878],[-65.1651,-26.5418,1406.416],[-65.1581,-26.5374,1410.3799],[-65.1544,-26.5264,1509.9303],[-65.1475,-26.5191,1514.8011],[-65.1397,-26.5165,1454.0171],[-65.1297,-26.5194,1452.8693],[-65.1243,-26.5165,1537.4939],[-65.1225,-26.509,1510.3352],[-65.1222,-26.4897,1455.6836],[-65.1145,-26.4537,1548.3647],[-65.1162,-26.4463,1584.1929],[-65.1107,-26.4338,1612.1238],[-65.1063,-26.4033,1529.0721],[-65.0988,-26.394,1554.5381],[-65.0945,-26.3812,1704.4183],[-65.0866,-26.3706,1817.136],[-65.0761,-26.3613,1845.4226],[-65.0709,-26.3507,1925.6417],[-65.0593,-26.3424,1927.4047],[-65.0491,-26.33,2046.2015],[-65.0449,-26.3232,2122.2642],[-65.0391,-26.3008,2309.8315],[-64.9961,-26.2392,1342.9662],[-65.0118,-26.2444,1476.6934],[-65.0306,-26.2393,1741.1664],[-65.0419,-26.2417,2123.0725],[-65.2624,-26.1931,779.7645],[-65.2706,-26.1779,778.2951],[-65.2744,-26.1674,788.5942],[-65.2782,-26.147,802.2532],[-65.2874,-26.1259,805.2136],[-65.2916,-26.0887,821.9026],[-65.2984,-26.0827,824.9874],[-65.3199,-26.0739,850.626],[-65.3441,-26.0735,892.0248],[-65.3487,-26.0748,905.0951],[-65.3747,-26.0894,941.4355],[-65.3849,-26.0922,904.6937],[-65.3932,-26.0968,903.941],[-65.4119,-26.0995,896.5706],[-65.4189,-26.1053,905.5941],[-65.4288,-26.1103,914.1443],[-65.4575,-26.1081,944.4891],[-65.4708,-26.1052,992.0931],[-65.4905,-26.0932,1039.6855],[-65.5015,-26.0905,1059.2502],[-65.5205,-26.0921,1198.8757],[-65.5395,-26.0889,1207.7432],[-65.5643,-26.0975,1357.7736],[-65.5722,-26.1053,1424.6012],[-65.5896,-26.1151,1561.4495],[-65.5865,-26.1219,1624.7864],[-65.5957,-26.1242,1620.1909],[-65.6035,-26.1255,1868.1357],[-65.617,-26.1229,1954.6296],[-65.6259,-26.1184,1984.5593],[-65.6735,-26.1183,3065.9346],[-65.6797,-26.1348,3510.175],[-65.6845,-26.1429,3858.0215],[-65.6858,-26.1543,3529.4004],[-65.6831,-26.1682,3660.5413],[-65.6846,-26.1825,3469.3684],[-65.6887,-26.1955,3192.1497],[-65.6971,-26.2092,3117.7849],[-65.6985,-26.2276,3569.5935],[-65.6907,-26.2401,3159.2129],[-65.6911,-26.2463,3166.2678],[-65.6994,-26.2534,3034.6887],[-65.701,-26.2578,3167.4961],[-65.7,-26.2694,3174.9265],[-65.7016,-26.2759,2971.686],[-65.7126,-26.2852,3497.4312],[-65.7032,-26.2987,3391.1604],[-65.7038,-26.303,3075.6057],[-65.7115,-26.3129,2959.239],[-65.7145,-26.3214,3460.7671],[-65.7053,-26.3337,3469.8276],[-65.7041,-26.3397,3433.1155],[-65.7109,-26.3565,3558.4358]]]]}}