{"type":"Feature","properties":{"GID_2":"ARG.19.7_1","GID_0":"ARG","country":"Argentina","GID_1":"ARG.19_1","state":"SanLuis","NL_NAME_1":"NA","county":"Junín","VARNAME_2":"SantaRosa","NL_NAME_2":"NA","TYPE_2":"Departamento","ENGTYPE_2":"Department","CC_2":"NA","HASC_2":"AR.SL.JU","name":"Junín.county"},
"geometry":{"type": "MultiPolygon","coordinates": [[[[-64.9367,-32.3148,2178.3518],[-64.9487,-32.3077,2159.8169],[-64.9646,-32.3155,1468.9697],[-64.9763,-32.3173,1307.4126],[-64.9833,-32.3222,1073.1204],[-65.007,-32.3198,904.8976],[-65.0179,-32.3161,857.0535],[-65.059,-32.3223,754.6183],[-65.0728,-32.3178,737.1082],[-65.2134,-32.3213,583.2797],[-65.2131,-32.3009,575.6088],[-65.2169,-32.2756,566.3925],[-65.2122,-32.2608,554.022],[-65.217,-32.2434,552.3392],[-65.2206,-32.2365,548.5519],[-65.2246,-32.2326,544.9863],[-65.2293,-32.2197,540.8143],[-65.2424,-32.2069,537.4795],[-65.2418,-32.1917,540.9689],[-65.2351,-32.1644,521.2164],[-65.2391,-32.1548,520.6937],[-65.2397,-32.1446,516.3861],[-65.243,-32.1405,514.0715],[-65.2433,-32.1354,510.3492],[-65.2518,-32.1252,505.3288],[-65.2526,-32.1177,497.7421],[-65.2486,-32.1138,500.0993],[-65.2485,-32.1088,496.4122],[-65.2559,-32.0978,491.8924],[-65.2573,-32.0928,490.2068],[-65.2781,-32.0745,479.7548],[-65.29,-32.0567,472.8632],[-65.3199,-32.0399,462.2667],[-65.4043,-32.0066,433.0894],[-65.6461,-31.8952,350.4727],[-65.6551,-31.885,347.3725],[-65.6616,-31.8842,346.3391],[-65.6802,-31.8893,345.7423],[-65.6979,-31.8887,344.0338],[-65.6981,-32.2605,791.7241],[-65.4765,-32.2615,491.8026],[-65.4656,-32.2637,560.4238],[-65.4502,-32.2773,649.1121],[-65.439,-32.2784,711.8333],[-65.4241,-32.2855,764.1064],[-65.4201,-32.2941,742.7139],[-65.4166,-32.3085,657.1539],[-65.4142,-32.3467,689.563],[-65.4067,-32.3595,644.5913],[-65.3894,-32.3783,699.581],[-65.3831,-32.3916,705.3491],[-65.3843,-32.401,706.1849],[-65.3891,-32.4148,733.6772],[-65.3944,-32.4232,760.7078],[-65.3946,-32.428,758.2725],[-65.392,-32.4374,773.3147],[-65.3759,-32.4572,761.4332],[-65.3748,-32.4615,763.985],[-65.388,-32.4882,793.4021],[-65.392,-32.5049,835.6935],[-65.0731,-32.4296,737.2263],[-65.0575,-32.4349,761.0567],[-65.0499,-32.4419,773.2868],[-65.0408,-32.454,806.262],[-65.0357,-32.4558,815.4065],[-65.0246,-32.4545,821.7015],[-65.009,-32.459,850.0312],[-64.9983,-32.4564,880.4919],[-64.987,-32.4559,922.1851],[-64.9655,-32.4612,1182.9446],[-64.96,-32.4599,1228.1022],[-64.9524,-32.4546,1348.3243],[-64.9297,-32.4493,1982.0522],[-64.9309,-32.4454,2009.651],[-64.9375,-32.437,2015.4224],[-64.9374,-32.4192,1823.8528],[-64.9302,-32.3945,2014.5951],[-64.9244,-32.3855,2096.05],[-64.9165,-32.3779,2052.7026],[-64.915,-32.3727,2067.7639],[-64.9232,-32.3715,2092.5854],[-64.9244,-32.3692,2086.9646],[-64.9194,-32.3573,2167.6882],[-64.9189,-32.3522,2167.5391],[-64.9246,-32.3219,2215.6211],[-64.9367,-32.3148,2178.3518]]]]}}