{"type":"Feature","properties":{"GID_2":"ARG.11.10_1","GID_0":"ARG","country":"Argentina","GID_1":"ARG.11_1","state":"LaPampa","NL_NAME_1":"NA","county":"Guatraché","VARNAME_2":"NA","NL_NAME_2":"NA","TYPE_2":"Departamento","ENGTYPE_2":"Department","CC_2":"NA","HASC_2":"AR.LP.GU","name":"Guatraché.county"},
"geometry":{"type": "MultiPolygon","coordinates": [[[[-63.3915,-37.2697,127.1801],[-64.1674,-37.2661,170.5025],[-64.1678,-37.7179,222.8107],[-63.3925,-37.721,172.7117],[-63.3915,-37.2697,127.1801]]]]}}