{"type":"Feature","properties":{"GID_2":"ARG.1.127_1","GID_0":"ARG","country":"Argentina","GID_1":"ARG.1_1","state":"BuenosAires","NL_NAME_1":"NA","county":"Villarino","VARNAME_2":"Medanos","NL_NAME_2":"NA","TYPE_2":"Partido","ENGTYPE_2":"Part","CC_2":"NA","HASC_2":"AR.BA.VI","name":"Villarino.county"},
"geometry":{"type": "MultiPolygon","coordinates": [[[[-62.1004,-39.6646,0.9738],[-62.104,-39.664,0.7714],[-62.0974,-39.6718,0.7293],[-62.094,-39.6715,0.2731],[-62.0954,-39.6671,0.0],[-62.1004,-39.6646,0.9738]]],
[[[-62.1079,-39.6646,0.9811],[-62.1101,-39.6632,0.6501],[-62.1071,-39.6671,0.5234],[-62.1065,-39.666,0.6694],[-62.1079,-39.6646,0.9811]]],
[[[-62.0865,-39.4007,0.0],[-62.0899,-39.3996,0.151],[-62.0876,-39.404,0.1859],[-62.0788,-39.4096,0.1609],[-62.0713,-39.4107,1.1669],[-62.0718,-39.4129,1.2295],[-62.0593,-39.4135,1.1191],[-62.0599,-39.4115,0.165],[-62.0788,-39.4057,0.0],[-62.0865,-39.4007,0.0]]],
[[[-62.1387,-39.3804,1.1291],[-62.141,-39.3793,0.2848],[-62.139,-39.3871,0.0],[-62.1318,-39.3963,0.1496],[-62.0907,-39.4146,0.3921],[-62.0801,-39.4215,0.9335],[-62.0801,-39.4238,0.2557],[-62.0729,-39.426,0.7534],[-62.0757,-39.421,0.0],[-62.096,-39.4096,0.99],[-62.1129,-39.3968,0.821],[-62.1179,-39.391,0.0],[-62.1387,-39.3804,1.1291]]],
[[[-62.0832,-39.3965,0.9171],[-62.0882,-39.3951,0.8416],[-62.0846,-39.4004,0.0],[-62.0765,-39.4024,0.2989],[-62.0768,-39.3993,0.4534],[-62.0832,-39.3965,0.9171]]],
[[[-62.0993,-39.3915,0.1586],[-62.1018,-39.3904,0.0],[-62.0946,-39.3999,0.0],[-62.0896,-39.4015,0.0],[-62.0904,-39.399,0.0],[-62.0993,-39.3915,0.1586]]],
[[[-62.1401,-39.3618,0.4625],[-62.1421,-39.3607,0.2172],[-62.1399,-39.3635,0.2673],[-62.1338,-39.3662,0.0],[-62.1357,-39.3643,0.1726],[-62.1401,-39.3618,0.4625]]],
[[[-62.1354,-39.2424,0.9081],[-62.1357,-39.2382,0.7557],[-62.1365,-39.2376,0.0],[-62.1379,-39.2401,0.6716],[-62.1354,-39.2424,0.9081]]],
[[[-62.0329,-39.3285,0.9041],[-62.0343,-39.3262,0.235],[-62.0365,-39.3265,0.7074],[-62.0354,-39.3307,1.0745],[-62.0368,-39.3312,1.0306],[-62.0379,-39.3279,0.6108],[-62.0379,-39.334,0.886],[-62.0343,-39.3338,1.1267],[-62.0329,-39.3362,1.19],[-62.0351,-39.336,1.2257],[-62.036,-39.334,1.0484],[-62.039,-39.3382,0.0],[-62.0285,-39.3379,0.0],[-62.0315,-39.3362,1.1504],[-62.0307,-39.3357,1.1504],[-62.0285,-39.3368,0.0],[-62.0279,-39.3349,0.0],[-62.0324,-39.3332,1.1146],[-62.031,-39.3304,0.8526],[-62.0329,-39.3285,0.9041]]],
[[[-62.0115,-39.3213,0.9317],[-62.0132,-39.3201,0.4022],[-62.016,-39.3213,0.6835],[-62.014,-39.3224,0.9672],[-62.0146,-39.3246,0.8363],[-62.0157,-39.3226,0.6835],[-62.0179,-39.3226,0.497],[-62.0218,-39.324,0.9089],[-62.0274,-39.3232,0.7527],[-62.0296,-39.3246,0.8423],[-62.0285,-39.3276,0.7194],[-62.0185,-39.326,0.9771],[-62.0146,-39.3282,0.6856],[-62.0137,-39.3265,0.8853],[-62.0082,-39.3249,0.0],[-62.0099,-39.3232,0.9914],[-62.0065,-39.3229,0.2139],[-62.0115,-39.3213,0.9317]]],
[[[-61.9679,-39.291,0.0],[-61.9687,-39.289,0.0],[-61.971,-39.2893,0.0],[-61.9682,-39.2915,0.0],[-61.9674,-39.2974,0.0],[-61.9679,-39.3049,0.0],[-61.9701,-39.3071,0.0],[-61.9671,-39.3057,0.0],[-61.966,-39.3029,0.0],[-61.9679,-39.291,0.0]]],
[[[-62.0321,-39.2701,1.0714],[-62.031,-39.2685,0.9016],[-62.0351,-39.2676,1.0518],[-62.0346,-39.2693,0.9778],[-62.036,-39.2704,0.5115],[-62.0329,-39.2713,0.2476],[-62.0321,-39.2701,1.0714]]],
[[[-62.1465,-39.2271,0.3579],[-62.1504,-39.2254,0.7993],[-62.1485,-39.2382,0.9813],[-62.1443,-39.2385,1.2391],[-62.1418,-39.2407,1.1072],[-62.1382,-39.2387,0.0],[-62.1365,-39.2357,0.0],[-62.1393,-39.2307,0.2239],[-62.1426,-39.2287,0.0],[-62.1463,-39.2321,1.3411],[-62.1454,-39.2343,1.4241],[-62.1476,-39.234,1.5727],[-62.146,-39.2301,1.3586],[-62.144,-39.2293,1.0581],[-62.1465,-39.2271,0.3579]]],
[[[-62.1796,-39.1707,1.2126],[-62.1804,-39.1685,1.3587],[-62.1832,-39.1693,1.3231],[-62.1785,-39.1751,1.2664],[-62.1754,-39.1735,1.5119],[-62.171,-39.1757,1.293],[-62.1696,-39.1826,1.2306],[-62.1635,-39.1815,1.3994],[-62.1637,-39.1835,1.232],[-62.1674,-39.1837,1.1834],[-62.1665,-39.1854,1.4616],[-62.1688,-39.1865,0.9666],[-62.1651,-39.1871,0.28],[-62.1651,-39.189,1.2714],[-62.1637,-39.189,1.2714],[-62.1596,-39.1865,1.6111],[-62.1607,-39.1879,1.6111],[-62.1607,-39.1899,1.4338],[-62.159,-39.1904,1.9138],[-62.1604,-39.196,1.9091],[-62.1601,-39.2093,1.4179],[-62.1571,-39.2137,1.2545],[-62.1451,-39.2238,0.5139],[-62.1326,-39.2304,2.5741],[-62.1301,-39.2426,1.0711],[-62.1129,-39.2493,0.9847],[-62.1057,-39.2484,0.7021],[-62.0804,-39.2549,0.4381],[-62.0801,-39.2537,1.6593],[-62.0815,-39.2529,1.6972],[-62.0807,-39.2513,1.8641],[-62.0757,-39.2532,1.5387],[-62.0721,-39.2515,1.7489],[-62.0671,-39.2518,1.8134],[-62.0607,-39.2535,1.6536],[-62.0526,-39.2582,1.7275],[-62.051,-39.2551,1.5294],[-62.0638,-39.2468,1.633],[-62.0643,-39.2446,1.4749],[-62.0632,-39.2446,1.4749],[-62.0499,-39.2549,1.3969],[-62.0485,-39.2588,1.5077],[-62.0446,-39.2579,1.0915],[-62.0435,-39.2624,0.6546],[-62.0412,-39.261,1.0297],[-62.0401,-39.264,0.551],[-62.0357,-39.2624,1.1225],[-62.0329,-39.2632,0.3841],[-62.0396,-39.2518,0.0],[-62.0493,-39.2449,0.8883],[-62.056,-39.2371,0.0],[-62.0632,-39.2343,0.8835],[-62.0615,-39.2385,1.0929],[-62.0671,-39.2354,0.8767],[-62.0701,-39.2374,1.0664],[-62.0874,-39.2246,2.7291],[-62.0879,-39.2207,0.4478],[-62.0907,-39.2201,0.8745],[-62.0937,-39.2218,3.0642],[-62.116,-39.2093,0.0764],[-62.1279,-39.2057,3.6813],[-62.1437,-39.1979,1.3624],[-62.1562,-39.1868,1.4759],[-62.156,-39.1832,1.075],[-62.1715,-39.174,1.3647],[-62.1724,-39.1701,1.3733],[-62.1796,-39.1707,1.2126]]],
[[[-62.079,-39.1382,0.7295],[-62.0821,-39.1371,1.0601],[-62.0812,-39.1393,1.16],[-62.0854,-39.144,0.6279],[-62.084,-39.144,1.475],[-62.0832,-39.1471,0.9194],[-62.0765,-39.1499,1.0273],[-62.0782,-39.1463,0.556],[-62.0771,-39.1451,0.8908],[-62.0788,-39.141,1.0467],[-62.0779,-39.1382,0.7295],[-62.079,-39.1382,0.7295]]],
[[[-62.1188,-39.0879,1.2398],[-62.1232,-39.0862,0.5889],[-62.1257,-39.0871,1.2828],[-62.1257,-39.089,0.6317],[-62.1279,-39.0882,1.3804],[-62.1276,-39.0901,1.4985],[-62.1293,-39.0913,0.9828],[-62.1249,-39.0943,1.3785],[-62.1229,-39.0929,0.9367],[-62.1226,-39.0965,1.0027],[-62.1212,-39.0965,1.1813],[-62.1182,-39.094,1.4001999999999999],[-62.121,-39.0904,1.2551],[-62.1207,-39.0879,1.2812],[-62.1188,-39.0879,1.2398]]],
[[[-62.1893,-39.3124,0.94],[-62.1937,-39.3118,0.8783],[-62.1929,-39.3146,1.0313],[-62.1968,-39.3149,1.0191],[-62.1965,-39.3162,1.0191],[-62.1924,-39.3196,1.031],[-62.1893,-39.3274,0.9151],[-62.189,-39.3249,1.0411],[-62.1874,-39.3249,1.2716],[-62.1868,-39.3326,1.3743],[-62.1732,-39.3401,1.2444],[-62.184,-39.3262,1.0896],[-62.1857,-39.321,0.5089],[-62.1854,-39.3146,0.9509],[-62.1893,-39.3124,0.94]]],
[[[-62.1971,-39.3165,0.8695],[-62.2001,-39.3151,0.9688],[-62.2054,-39.3165,0.3149],[-62.2057,-39.3215,0.5651],[-62.2071,-39.3224,0.8439],[-62.206,-39.3257,0.4844],[-62.2035,-39.3257,1.0693],[-62.2024,-39.324,1.2775],[-62.1971,-39.3282,1.0813],[-62.1946,-39.3282,0.4746],[-62.1949,-39.3196,0.9874],[-62.1971,-39.3165,0.8695]]],
[[[-62.204,-39.3126,0.9071],[-62.2054,-39.3107,0.9636],[-62.2038,-39.3093,1.1572],[-62.2049,-39.3093,1.1543],[-62.2062,-39.3115,0.9012],[-62.204,-39.3135,0.8739],[-62.2026,-39.3132,0.8739],[-62.2026,-39.3121,0.9071],[-62.204,-39.3126,0.9071]]],
[[[-62.1599,-39.2274,1.3066],[-62.1626,-39.2257,1.1776],[-62.1613,-39.234,1.4438],[-62.1587,-39.2351,0.1785],[-62.1582,-39.2329,0.8833],[-62.1599,-39.2274,1.3066]]],
[[[-62.246,-39.331,1.3924],[-62.2435,-39.3312,1.2929],[-62.2429,-39.3304,1.2929],[-62.2457,-39.3296,1.3924],[-62.246,-39.331,1.3924]]],
[[[-62.2296,-39.3149,1.0304],[-62.2357,-39.3138,1.0269],[-62.2329,-39.3157,1.1778],[-62.2337,-39.319,1.0301],[-62.2318,-39.3224,0.4491],[-62.2232,-39.3243,1.2376],[-62.2107,-39.3301,1.1049],[-62.2129,-39.3265,1.4322],[-62.2185,-39.3237,1.0716],[-62.2187,-39.3207,0.3588],[-62.2207,-39.3213,0.869],[-62.2238,-39.3187,1.0248],[-62.2251,-39.3151,1.0296],[-62.2265,-39.3146,0.9755],[-62.2279,-39.3168,0.5203],[-62.2296,-39.3149,1.0304]]],
[[[-62.2235,-39.2571,1.3641],[-62.2285,-39.256,1.1309],[-62.2249,-39.2624,1.4276],[-62.2221,-39.2624,1.1784],[-62.2226,-39.2601,1.4784],[-62.2215,-39.2604,1.4784],[-62.2212,-39.2621,1.1784],[-62.2179,-39.2621,0.5568],[-62.2179,-39.2588,0.8069],[-62.2235,-39.2571,1.3641]]],
[[[-62.2313,-39.2024,1.9312],[-62.2337,-39.201,1.7198],[-62.2318,-39.2082,1.2456],[-62.2249,-39.2101,1.4716],[-62.2235,-39.2079,1.8311],[-62.2243,-39.2051,1.8724],[-62.2301,-39.2049,2.0902],[-62.2313,-39.2024,1.9312]]],
[[[-62.1785,-39.2304,1.4386],[-62.1801,-39.229,1.3932],[-62.1801,-39.2251,1.4603],[-62.1846,-39.229,1.2021],[-62.1779,-39.2324,1.1601],[-62.1785,-39.2304,1.4386]]],
[[[-62.191,-39.1726,1.5945],[-62.1954,-39.1715,1.9482],[-62.1974,-39.1746,1.3514],[-62.1918,-39.1779,1.5291],[-62.1899,-39.176,1.4376],[-62.191,-39.1726,1.5945]]],
[[[-62.1487,-39.0304,0.2707],[-62.1499,-39.0285,0.0],[-62.1518,-39.0288,0.5964],[-62.1518,-39.0326,1.3825],[-62.1538,-39.0326,1.3098],[-62.154,-39.0346,1.2503],[-62.1487,-39.0365,1.1724],[-62.149,-39.031,1.2682],[-62.1485,-39.0332,1.276],[-62.1446,-39.0351,0.9947],[-62.1463,-39.0318,0.3244],[-62.1487,-39.0304,0.2707]]],
[[[-62.2132,-39.004,2.365],[-62.2149,-39.0024,1.8275],[-62.2179,-39.0051,2.4135],[-62.2201,-39.0051,2.1233],[-62.2193,-39.0065,2.4586],[-62.2204,-39.0071,2.4586],[-62.2271,-39.0071,1.3802],[-62.2279,-39.0085,1.9645],[-62.224,-39.0096,1.9392],[-62.2174,-39.0074,2.5424],[-62.2146,-39.009,2.9079],[-62.2165,-39.0112,2.1708],[-62.2157,-39.0135,1.9411],[-62.2112,-39.016,2.7641],[-62.2112,-39.0187,2.0855],[-62.2132,-39.0196,1.7175],[-62.2126,-39.0215,1.0678],[-62.211,-39.0215,1.0678],[-62.2082,-39.0176,1.6589],[-62.2035,-39.0196,1.0409],[-62.2024,-39.0154,0.7846],[-62.2043,-39.0132,1.4603],[-62.2038,-39.0118,1.6624],[-62.1999,-39.0146,1.2568],[-62.1985,-39.0093,1.4308],[-62.194,-39.0065,1.2881],[-62.1943,-39.0043,2.1464],[-62.1968,-39.0043,1.2045],[-62.1982,-39.0082,2.2257],[-62.2015,-39.0104,1.2089],[-62.1993,-39.0076,1.7991],[-62.1987,-39.0035,1.7727],[-62.2026,-39.0026,1.0988],[-62.2093,-39.0051,1.76],[-62.2132,-39.004,2.365]]],
[[[-62.2326,-39.0071,1.7474],[-62.2349,-39.0051,1.1252],[-62.2438,-39.006,2.0084],[-62.2435,-39.0085,1.7695],[-62.2401,-39.0088,1.7197],[-62.2401,-39.0118,1.6581],[-62.2415,-39.0137,2.1683],[-62.2451,-39.0146,2.121],[-62.2418,-39.016,2.4131],[-62.2415,-39.021,2.3934],[-62.2376,-39.0229,2.9044],[-62.2363,-39.0254,1.784],[-62.2335,-39.0249,1.6933],[-62.2307,-39.0201,2.2775],[-62.2313,-39.0168,2.6444],[-62.2357,-39.0165,2.2051],[-62.2354,-39.0154,2.1724],[-62.2293,-39.0168,1.8456],[-62.2293,-39.0204,2.2775],[-62.2321,-39.0232,1.6649],[-62.2321,-39.0246,1.4098],[-62.2299,-39.0243,2.2753],[-62.2235,-39.0224,2.5671],[-62.2229,-39.0185,2.1931],[-62.2185,-39.0129,2.3024],[-62.2201,-39.0104,2.5749],[-62.2238,-39.0121,2.9215],[-62.2326,-39.0071,1.7474]]],
[[[-62.2199,-39.001,1.4858],[-62.219,-39.001,1.4858],[-62.219,-38.9996,1.4858],[-62.2199,-38.9999,1.4858],[-62.2199,-39.001,1.4858]]],
[[[-62.2254,-38.9535,2.2052],[-62.2265,-38.9499,0.3897],[-62.2282,-38.9499,1.7526],[-62.2265,-38.9524,1.5563],[-62.2285,-38.954,2.3975],[-62.2279,-38.9565,1.1193],[-62.2229,-38.9565,1.399],[-62.2226,-38.954,0.9039],[-62.2243,-38.9535,1.6877],[-62.2254,-38.9549,2.2799],[-62.2254,-38.9535,2.2052]]],
[[[-62.2313,-38.9512,2.278],[-62.2343,-38.9499,2.5428],[-62.2354,-38.9515,2.6437],[-62.2321,-38.9549,1.126],[-62.2313,-38.9512,2.278]]],
[[[-62.0399,-39.2296,1.1922],[-62.0432,-39.229,0.5952],[-62.0443,-39.2304,0.1089],[-62.0418,-39.2324,0.7297],[-62.0418,-39.2401,0.2405],[-62.0399,-39.2449,0.1196],[-62.0374,-39.2454,1.0121],[-62.0365,-39.2432,0.9641],[-62.0385,-39.2404,1.0642],[-62.0365,-39.2399,0.9936],[-62.0368,-39.2418,1.0414],[-62.0349,-39.2424,0.8141],[-62.0351,-39.2453,0.4907],[-62.0318,-39.2501,1.251],[-62.0318,-39.254,0.0],[-62.0271,-39.2565,1.7967],[-62.0199,-39.2638,1.346],[-62.0096,-39.2687,1.6556],[-62.001,-39.2776,0.0],[-61.9954,-39.2782,0.0839],[-61.9938,-39.2799,0.0415],[-61.9918,-39.2788,0.1372],[-61.984,-39.2685,0.0],[-61.981,-39.2551,0.0],[-61.986,-39.251,0.0],[-61.9921,-39.2368,0.0],[-61.9962,-39.2354,0.0],[-62.014,-39.2396,2.2971],[-62.0271,-39.2357,0.8528],[-62.0276,-39.2329,0.0],[-62.0399,-39.2296,1.1922]]],
[[[-61.966,-39.2401,0.0],[-61.9676,-39.2385,0.0],[-61.9732,-39.2387,0.9363],[-61.9738,-39.2421,1.0036],[-61.9762,-39.2432,0.8657],[-61.976,-39.2457,1.0646],[-61.9732,-39.2465,0.0],[-61.9729,-39.2482,0.0],[-61.9679,-39.2487,0.0],[-61.9687,-39.2468,0.1679],[-61.9671,-39.2465,0.0],[-61.9651,-39.2421,0.0],[-61.966,-39.2401,0.0]]],
[[[-62.0479,-39.2326,0.4719],[-62.0565,-39.2315,0.5446],[-62.0521,-39.2387,0.4341],[-62.0424,-39.2465,0.1777],[-62.0449,-39.2374,0.0],[-62.0438,-39.2343,0.0],[-62.0479,-39.2326,0.4719]]],
[[[-62.0812,-39.0696,2.2231],[-62.0879,-39.0687,0.846],[-62.0879,-39.0707,1.0642],[-62.0838,-39.0749,1.4361],[-62.0868,-39.0796,2.2144],[-62.0932,-39.0843,1.2437],[-62.091,-39.0851,3.0427],[-62.091,-39.0879,2.2558],[-62.0926,-39.0876,1.6024],[-62.0921,-39.0935,1.418],[-62.0882,-39.0954,1.8123],[-62.0926,-39.1021,1.4075],[-62.0907,-39.1071,1.6143],[-62.0818,-39.1087,1.3177],[-62.0721,-39.1263,1.3602],[-62.0749,-39.1326,0.829],[-62.0729,-39.1393,1.2949],[-62.0765,-39.1435,0.7181],[-62.0732,-39.1496,1.1606],[-62.0662,-39.151,1.7212],[-62.0654,-39.1551,1.2305],[-62.0599,-39.1551,0.737],[-62.0593,-39.1474,1.8449],[-62.0546,-39.1413,0.9896],[-62.0574,-39.1535,1.2484],[-62.0549,-39.1579,1.9403],[-62.0507,-39.1585,1.6696],[-62.049,-39.1604,1.3386],[-62.044,-39.1596,1.6606],[-62.0429,-39.1626,1.4205],[-62.0396,-39.161,1.6118],[-62.0415,-39.1593,1.5992],[-62.0404,-39.159,1.5992],[-62.0365,-39.1601,1.1056],[-62.0324,-39.1643,1.4139],[-62.0213,-39.1649,1.1001],[-62.0201,-39.161,1.2971],[-62.0187,-39.161,1.4874],[-62.0143,-39.1671,1.4601],[-62.014,-39.1724,1.2632],[-62.0115,-39.1704,1.3251],[-62.0029,-39.1732,1.486],[-61.9974,-39.1779,1.0374],[-61.9918,-39.1787,0.8836],[-61.9807,-39.1846,0.3817],[-61.9785,-39.1882,0.0],[-61.9629,-39.1885,0.6634],[-61.9582,-39.1924,-0.0707],[-61.954,-39.1918,0.0359],[-61.9457,-39.1954,0.7667],[-61.9451,-39.1971,0.1993],[-61.934,-39.1996,0.1047],[-61.926,-39.2046,0.0],[-61.9249,-39.2071,0.0],[-61.919,-39.2093,1.1981],[-61.9157,-39.2135,0.0],[-61.914,-39.2132,1.3837],[-61.9026,-39.2243,0.5954],[-61.8971,-39.2274,1.8741],[-61.8924,-39.2343,0.0],[-61.8715,-39.2435,0.0],[-61.8571,-39.229,0.0],[-61.8529,-39.221,0.0],[-61.8512,-39.2121,0.0],[-61.8512,-39.1987,0.6116],[-61.8537,-39.1893,1.2573],[-61.854,-39.1787,0.0],[-61.8621,-39.159,0.9539],[-61.8643,-39.1657,1.405],[-61.8632,-39.1712,0.9978],[-61.861,-39.1735,1.675],[-61.8621,-39.1807,1.5807],[-61.864,-39.1835,0.6204],[-61.8615,-39.1882,1.4583],[-61.8626,-39.1904,1.3917],[-61.8654,-39.1849,0.4821],[-61.8637,-39.1757,0.0],[-61.8674,-39.1668,0.0],[-61.8665,-39.1621,0.0],[-61.8701,-39.1574,0.0],[-61.8665,-39.146,1.0116],[-61.8668,-39.1413,0.8339],[-61.8743,-39.1362,1.3539],[-61.8779,-39.1301,0.4055],[-61.8815,-39.1193,0.0],[-61.879,-39.1012,0.0],[-61.8857,-39.0904,0.0],[-61.8924,-39.0879,0.0],[-61.8954,-39.096,0.0],[-61.8993,-39.0962,0.0],[-61.9015,-39.0996,0.1542],[-61.8993,-39.1076,0.2653],[-61.8907,-39.1132,0.3523],[-61.8885,-39.1215,1.0632],[-61.8893,-39.1299,1.3575],[-61.8963,-39.1343,0.3241],[-61.8951,-39.1321,0.3088],[-61.8896,-39.1285,1.1992],[-61.8893,-39.1215,1.0632],[-61.8915,-39.1168,0.5688],[-61.8915,-39.1135,0.3523],[-61.8999,-39.1082,0.8085],[-61.9035,-39.1021,0.0],[-61.9071,-39.1065,0.5538],[-61.909,-39.1065,0.0],[-61.9115,-39.1099,0.9627],[-61.9212,-39.1154,0.0],[-61.9079,-39.1029,0.5086],[-61.9071,-39.0999,0.4455],[-61.9093,-39.0999,0.8807],[-61.9101,-39.0968,0.9354],[-61.9137,-39.0965,1.1934],[-61.916,-39.0985,0.6168],[-61.9157,-39.0965,1.0879],[-61.9201,-39.0974,0.8732],[-61.9229,-39.0935,0.1594],[-61.9293,-39.0946,1.0717],[-61.9296,-39.0968,1.5616],[-61.9349,-39.0949,1.0346],[-61.9426,-39.0954,0.9611],[-61.9435,-39.0937,0.8516],[-61.949,-39.0932,1.2246],[-61.9562,-39.0887,0.0],[-62.0032,-39.0896,1.5707],[-62.0363,-39.0812,0.4819],[-62.039,-39.0796,0.6773],[-62.0376,-39.0785,0.0],[-62.0563,-39.071,0.0],[-62.0812,-39.0696,2.2231]]],
[[[-62.0696,-39.1529,1.5279],[-62.0713,-39.1518,1.6646],[-62.0732,-39.1521,1.3032],[-62.0687,-39.1543,1.5016],[-62.0696,-39.1529,1.5279]]],
[[[-62.0257,-39.0732,1.214],[-62.0288,-39.0724,0.9117],[-62.0276,-39.0751,0.0],[-62.0224,-39.0782,0.1005],[-62.0149,-39.0799,0.4786],[-62.0149,-39.0768,0.0],[-62.0185,-39.0735,0.0],[-62.0257,-39.0732,1.214]]],
[[[-61.9726,-39.0732,1.2098],[-61.9818,-39.0724,0.9482],[-61.976,-39.0749,0.1323],[-61.9682,-39.0751,0.2249],[-61.9726,-39.0732,1.2098]]],
[[[-62.0543,-39.0654,1.0325],[-62.0604,-39.0643,0.5395],[-62.0701,-39.0657,0.8215],[-62.0512,-39.0699,0.4739],[-62.0421,-39.0743,0.4646],[-62.0349,-39.0751,1.1779],[-62.0285,-39.079,0.0],[-62.039,-39.0696,1.121],[-62.0543,-39.0654,1.0325]]],
[[[-62.1332,-39.0882,1.3106],[-62.1329,-39.0862,1.1915],[-62.1346,-39.086,1.3647],[-62.1435,-39.0871,0.8363],[-62.1435,-39.0882,0.6289],[-62.1365,-39.0882,1.1381],[-62.134,-39.0907,0.7301],[-62.1318,-39.0893,0.1994],[-62.1332,-39.0882,1.3106]]],
[[[-62.1068,-39.0593,0.9675],[-62.1046,-39.0593,0.8091],[-62.1029,-39.0576,0.0],[-62.1068,-39.0579,0.0],[-62.1068,-39.0593,0.9675]]],
[[[-62.0862,-39.0574,0.8319],[-62.0951,-39.0563,1.2417],[-62.099,-39.0574,0.6061],[-62.0993,-39.059,1.3344],[-62.0896,-39.0582,1.2273],[-62.0876,-39.0593,1.2744],[-62.0862,-39.0574,0.8319]]],
[[[-62.1104,-39.0488,1.5323],[-62.1126,-39.0474,0.1855],[-62.1129,-39.0526,0.5231],[-62.1115,-39.0526,1.3706],[-62.1104,-39.0488,1.5323]]],
[[[-62.0199,-39.0571,0.9786],[-62.0226,-39.056,1.0403],[-62.0304,-39.0576,1.4186],[-62.0276,-39.0593,1.7316],[-62.0229,-39.0585,1.7091],[-62.0224,-39.0635,1.3823],[-62.0199,-39.0635,1.4207],[-62.0193,-39.0671,0.1951],[-62.0149,-39.0685,0.4599],[-62.0018,-39.0699,0.6157],[-62.001,-39.0682,1.3435],[-61.9971,-39.0682,1.1837],[-61.9971,-39.0696,0.5155],[-61.9896,-39.0699,0.3064],[-61.9918,-39.0679,0.0],[-62.0013,-39.0662,0.4842],[-62.0199,-39.0571,0.9786]]],
[[[-62.0399,-39.0568,1.0545],[-62.0404,-39.0557,1.2585],[-62.0435,-39.0557,1.0745],[-62.0421,-39.0571,0.3133],[-62.0399,-39.0568,1.0545]]],
[[[-62.0401,-39.0429,0.3851],[-62.0451,-39.0418,0.7891],[-62.0471,-39.0438,1.1823],[-62.0471,-39.0449,1.08],[-62.0446,-39.0435,1.2074],[-62.0401,-39.0443,1.1417],[-62.0418,-39.0451,1.179],[-62.0404,-39.0476,1.1976],[-62.0435,-39.0485,1.1473],[-62.0435,-39.0499,1.0714],[-62.0401,-39.0501,1.0155],[-62.0401,-39.0482,0.9417],[-62.0382,-39.0471,0.9088],[-62.0329,-39.0496,1.0413],[-62.0379,-39.046,1.2298],[-62.0401,-39.0429,0.3851]]],
[[[-62.0665,-38.9824,1.08],[-62.0779,-38.9821,0.0],[-62.1071,-38.9899,0.8549],[-62.1104,-38.9918,0.0],[-62.1113,-38.9943,1.5936],[-62.1149,-38.9943,0.0],[-62.1196,-38.9993,0.6175],[-62.1241,-38.9999,0.4703],[-62.1249,-39.0015,2.042],[-62.1285,-39.0015,0.6399],[-62.1365,-39.0062,1.2313],[-62.1371,-39.0054,1.2865],[-62.1365,-39.0043,1.2513],[-62.1318,-39.0021,0.659],[-62.139,-39.0024,0.1997],[-62.1426,-39.0046,1.3209],[-62.1465,-39.0093,0.0],[-62.1401,-39.0093,1.0534],[-62.1387,-39.0074,1.281],[-62.1404,-39.0051,1.2664],[-62.1374,-39.0068,1.121],[-62.1457,-39.0262,0.9257],[-62.1446,-39.0301,0.906],[-62.1407,-39.0337,2.9977],[-62.1399,-39.0396,1.177],[-62.1307,-39.0376,1.4964],[-62.1301,-39.0399,0.8262],[-62.1274,-39.0399,0.8216],[-62.1201,-39.0374,1.0272],[-62.1104,-39.0279,0.9102],[-62.1121,-39.0268,1.3645],[-62.1135,-39.0193,1.2988],[-62.1068,-39.0193,1.7388],[-62.0965,-39.0221,1.3095],[-62.0899,-39.0185,1.3556],[-62.0826,-39.0179,2.2111],[-62.0838,-39.0104,2.7201],[-62.081,-39.0074,1.9101],[-62.0893,-39.0062,1.9359],[-62.0926,-39.0099,2.3683],[-62.0901,-39.0065,2.3679],[-62.0915,-39.0049,2.4961],[-62.0937,-39.0049,2.1398],[-62.0946,-39.0074,2.8292],[-62.0951,-39.0065,2.8292],[-62.0946,-39.0046,2.1398],[-62.0976,-39.0065,2.6823],[-62.0957,-39.004,2.9274],[-62.0926,-39.0037,1.8927],[-62.0951,-39.0004,1.7394],[-62.0924,-39.0004,1.8685],[-62.086,-39.0054,2.6607],[-62.0826,-39.0026,2.3793],[-62.0818,-39.0057,2.1083],[-62.0804,-39.0057,1.7473],[-62.0768,-39.0035,1.8583],[-62.0765,-39.0004,2.2463],[-62.0665,-39.0004,2.0906],[-62.0682,-39.0051,1.6978],[-62.0668,-39.0118,1.9103],[-62.0646,-39.0137,2.1901],[-62.0596,-39.0132,1.4789],[-62.059,-39.0099,2.6239],[-62.0615,-39.0101,2.1985],[-62.0632,-39.0082,2.3511],[-62.0593,-39.0093,2.2058],[-62.0587,-39.0079,1.8808],[-62.0571,-39.009,2.059],[-62.0579,-39.0118,1.7464],[-62.0549,-39.0115,2.6556],[-62.0557,-39.0124,2.6556],[-62.0526,-39.0154,2.2059],[-62.0529,-39.0171,2.2075],[-62.0485,-39.0193,2.2684],[-62.0535,-39.0201,2.3325],[-62.056,-39.0126,2.6556],[-62.0596,-39.0137,1.4789],[-62.0588,-39.0185,1.2065],[-62.0601,-39.0213,1.6283],[-62.0549,-39.0299,0.9273],[-62.0476,-39.0293,2.5215],[-62.0446,-39.0324,2.4013],[-62.0471,-39.0357,1.3131],[-62.044,-39.0365,2.6345],[-62.0426,-39.039,1.2798],[-62.0399,-39.039,1.4942],[-62.0354,-39.0357,1.5716],[-62.0363,-39.034,2.5838],[-62.0312,-39.0307,2.3259],[-62.0296,-39.0312,2.6068],[-62.029,-39.0285,2.3781],[-62.0288,-39.0324,2.6998],[-62.0301,-39.0321,1.9612],[-62.0324,-39.0376,1.8248],[-62.0315,-39.0415,1.8902],[-62.0334,-39.041,1.9179],[-62.0337,-39.0424,1.3938],[-62.0285,-39.044,2.095],[-62.029,-39.046,1.9588],[-62.019,-39.0507,1.4721],[-62.0099,-39.0574,0.4638],[-62.0018,-39.0599,0.3079],[-62.001,-39.0615,0.0],[-61.9729,-39.069,0.5231],[-61.9601,-39.0682,0.8302],[-61.951,-39.0701,0.1257],[-61.9507,-39.0687,0.7896],[-61.9446,-39.0676,0.9831],[-61.9388,-39.071,0.9146],[-61.9365,-39.0696,0.8515],[-61.9251,-39.0687,0.0],[-61.9235,-39.0662,0.0],[-61.9201,-39.059,0.0],[-61.9188,-39.0499,0.0],[-61.9199,-39.0438,0.0],[-61.9224,-39.0404,0.0],[-61.9299,-39.0443,0.8426],[-61.9315,-39.0471,1.0409],[-61.9349,-39.0471,0.9822],[-61.9426,-39.0426,0.8752],[-61.946,-39.0424,1.1181],[-61.946,-39.0404,0.7653],[-61.9496,-39.0407,1.003],[-61.9518,-39.0376,0.8617],[-61.9599,-39.0351,1.3084],[-61.9604,-39.0312,1.269],[-61.959,-39.0299,0.4291],[-61.9626,-39.0276,1.2376],[-61.9612,-39.0251,0.4457],[-61.9646,-39.026,0.9671],[-61.9637,-39.031,1.2905],[-61.9712,-39.0315,1.5428],[-61.9649,-39.0237,0.856],[-61.9701,-39.021,1.2218],[-61.9718,-39.0235,1.5406],[-61.9715,-39.0213,1.3892],[-61.9801,-39.0163,1.4537],[-61.9799,-39.014,1.3647],[-61.9818,-39.0129,0.0],[-61.9846,-39.0135,1.2047],[-61.986,-39.0163,1.4415],[-61.9865,-39.0143,1.3682],[-61.9846,-39.0115,1.0418],[-61.9887,-39.009,0.7373],[-61.9929,-39.0099,0.8927],[-61.9979,-39.0054,0.7106],[-62.0026,-39.006,0.9454],[-62.0049,-39.0032,1.0789],[-62.011,-39.0013,1.2418],[-62.0249,-39.0015,1.301],[-62.0268,-38.999,0.0],[-62.0307,-39.0026,1.3681],[-62.0312,-39.0004,1.3893],[-62.036,-39.0051,1.6459],[-62.0351,-39.0026,1.3764],[-62.0299,-38.9987,1.0133],[-62.0307,-38.9976,0.0],[-62.0351,-38.9957,0.0],[-62.0346,-38.9976,1.0784],[-62.0382,-38.9987,1.5866],[-62.0418,-38.9962,1.2345],[-62.0449,-38.9999,1.7745],[-62.0465,-38.9999,1.9233],[-62.0446,-38.9962,1.4307],[-62.0471,-38.9938,1.7119],[-62.0438,-38.9935,0.6703],[-62.0488,-38.9926,0.5968],[-62.0499,-38.9951,1.7937],[-62.0515,-38.9951,1.4714],[-62.0546,-38.9901,0.4156],[-62.0618,-38.9899,1.7216],[-62.0599,-38.9874,1.3169],[-62.0568,-38.9885,1.3211],[-62.059,-38.9851,0.9406],[-62.0665,-38.9854,1.4252],[-62.0646,-38.9871,1.6779],[-62.0701,-38.9876,1.3139],[-62.0704,-38.989,1.3679],[-62.0729,-38.9882,1.5098],[-62.0729,-38.9899,1.7917],[-62.0782,-38.989,1.4447],[-62.0793,-38.9874,1.6874],[-62.0782,-38.9849,1.3953],[-62.0746,-38.9851,1.2926],[-62.0721,-38.9835,1.359],[-62.0704,-38.9849,1.375],[-62.0665,-38.9824,1.08]]],
[[[-62.1049,-39.0285,1.5205],[-62.1065,-39.0276,1.0965],[-62.111,-39.0318,1.2648],[-62.1093,-39.0326,1.3945],[-62.1076,-39.031,1.7553],[-62.1057,-39.0324,2.0843],[-62.1087,-39.0349,1.1168],[-62.1076,-39.036,1.858],[-62.1012,-39.0326,1.4754],[-62.1012,-39.0301,1.2961],[-62.1049,-39.0285,1.5205]]],
[[[-62.0701,-39.016,2.0847],[-62.0721,-39.014,2.415],[-62.0735,-39.0171,2.2807],[-62.0776,-39.0176,2.0832],[-62.0779,-39.0213,1.1228],[-62.071,-39.0213,1.2106],[-62.0724,-39.0187,1.9121],[-62.0701,-39.016,2.0847]]],
[[[-62.0721,-39.0118,2.1147],[-62.0732,-39.0088,2.2538],[-62.076,-39.0101,2.1996],[-62.0804,-39.0093,1.6928],[-62.0782,-39.0124,2.4302],[-62.081,-39.0157,2.5664],[-62.0743,-39.0163,2.2807],[-62.0715,-39.0132,2.415],[-62.0721,-39.0118,2.1147]]],
[[[-62.1335,-38.9999,0.0],[-62.1377,-38.9996,1.1405],[-62.1396,-39.0013,0.1997],[-62.136,-39.0013,0.4926],[-62.1335,-38.9999,0.0]]],
[[[-62.0604,-39.016,1.5716],[-62.0638,-39.0148,2.1125],[-62.064,-39.0196,0.9837],[-62.0612,-39.0199,0.9872],[-62.0604,-39.016,1.5716]]],
[[[-62.0704,-39.0051,1.4314],[-62.0732,-39.0057,1.9278],[-62.0732,-39.0076,2.2045],[-62.071,-39.0068,2.0736],[-62.0704,-39.0051,1.4314]]],
[[[-62.0065,-38.9987,0.9279],[-62.0076,-38.9965,1.0895],[-62.0115,-38.9979,0.6277],[-62.0115,-38.9985,0.3265],[-62.0082,-38.9993,0.8516],[-62.0065,-38.9987,0.9279]]],
[[[-62.0557,-38.9857,0.4409],[-62.0571,-38.9846,0.1274],[-62.0512,-38.9904,0.0],[-62.0512,-38.9899,0.0],[-62.0557,-38.9857,0.4409]]],
[[[-62.0829,-38.9704,1.0013],[-62.0849,-38.9696,1.3542],[-62.086,-38.9715,1.1192],[-62.0824,-38.9721,1.2901],[-62.0829,-38.9704,1.0013]]],
[[[-62.1326,-38.9482,1.6383],[-62.1365,-38.9468,0.9234],[-62.1401,-38.9482,1.393],[-62.141,-38.9501,1.0028],[-62.1446,-38.9493,0.0],[-62.1549,-38.9535,0.7241],[-62.1593,-38.9565,0.9482],[-62.1629,-38.9629,1.9406],[-62.161,-38.9643,2.1449],[-62.1521,-38.9593,1.7544],[-62.1535,-38.9637,1.9501],[-62.1551,-38.9654,2.4852],[-62.1571,-38.9649,2.1582],[-62.1571,-38.9674,2.7706],[-62.1515,-38.9785,1.129],[-62.1482,-38.9776,2.2407],[-62.1426,-38.9718,1.858],[-62.1421,-38.9685,2.0608],[-62.1446,-38.9649,2.131],[-62.1418,-38.966,2.6461],[-62.1393,-38.9696,2.1772],[-62.1407,-38.9782,2.3273],[-62.1426,-38.9776,2.4936],[-62.1437,-38.9799,2.6428],[-62.1487,-38.9804,2.5733],[-62.1493,-38.9832,1.3807],[-62.1465,-38.9868,2.4634],[-62.1343,-38.9849,1.8663],[-62.1343,-38.9824,2.5723],[-62.1329,-38.9821,2.5723],[-62.1315,-38.9899,3.0756],[-62.1343,-38.991,1.7191],[-62.1338,-38.9874,1.3234],[-62.1376,-38.9899,2.4179],[-62.136,-38.9863,2.5075],[-62.1379,-38.986,1.4961],[-62.1449,-38.9896,2.0971],[-62.146,-38.9924,1.6035],[-62.1387,-38.9929,2.4636],[-62.1382,-38.9912,2.4179],[-62.1354,-38.9912,2.4576],[-62.1332,-38.9929,2.0863],[-62.1296,-38.991,2.2872],[-62.1257,-38.9868,1.3076],[-62.1257,-38.9857,1.5995],[-62.1301,-38.9865,2.4501],[-62.131,-38.9854,2.1687],[-62.1287,-38.9793,2.4534],[-62.1265,-38.9821,1.8924],[-62.1215,-38.9807,2.5171],[-62.119,-38.9815,1.2842],[-62.1176,-38.9793,2.565],[-62.1157,-38.9807,1.8698],[-62.1043,-38.9779,1.8719],[-62.099,-38.9757,1.2479],[-62.0979,-38.9735,1.6187],[-62.0979,-38.9715,1.5974],[-62.1049,-38.9663,1.8083],[-62.1032,-38.9649,1.5139],[-62.1007,-38.9668,1.3064],[-62.0993,-38.964,0.5995],[-62.1018,-38.9624,1.4669],[-62.1021,-38.9582,1.194],[-62.1079,-38.9562,0.0],[-62.1037,-38.9612,1.5174],[-62.109,-38.9585,1.14],[-62.1057,-38.9626,1.4749],[-62.1124,-38.9649,2.1626],[-62.1146,-38.964,1.6945],[-62.1129,-38.9601,1.5067],[-62.1137,-38.9538,0.0],[-62.1171,-38.9543,1.0609],[-62.1237,-38.9607,1.0383],[-62.1212,-38.9562,1.4312],[-62.1249,-38.9551,1.5573],[-62.1265,-38.9518,1.713],[-62.1326,-38.9482,1.6383]]],
[[[-62.0896,-38.9663,1.4366],[-62.089,-38.9643,0.0],[-62.0904,-38.964,0.0],[-62.0924,-38.9674,1.3978],[-62.0946,-38.9665,1.2068],[-62.0943,-38.9676,1.2068],[-62.0926,-38.9685,1.4162],[-62.0929,-38.971,1.3278],[-62.091,-38.9693,1.4187],[-62.0887,-38.9712,1.374],[-62.0874,-38.969,1.4885],[-62.0857,-38.9696,1.2151],[-62.0865,-38.9668,0.198],[-62.0896,-38.9663,1.4366]]],
[[[-62.5814,-38.6214,48.8122],[-62.5961,-38.6216,51.1967],[-62.6103,-38.6097,54.5733],[-62.6127,-38.5935,58.6359],[-62.6173,-38.5789,62.366],[-62.6347,-38.5412,71.4184],[-62.6469,-38.5196,76.1847],[-62.7349,-38.5866,56.7695],[-62.8977,-38.4561,85.9301],[-63.3132,-38.7691,76.9491],[-63.3065,-38.7765,77.6598],[-63.3898,-38.8402,59.4782],[-63.3902,-39.2963,79.6035],[-63.3888,-39.3254,41.2294],[-63.3694,-39.3244,41.1822],[-63.3602,-39.327,50.5225],[-63.3225,-39.3314,56.3299],[-63.2949,-39.3365,58.6893],[-63.2792,-39.3432,66.5894],[-63.2723,-39.3479,66.9626],[-63.2408,-39.3597,60.5576],[-63.2327,-39.3699,41.2588],[-63.2117,-39.3809,53.4041],[-63.2013,-39.3812,57.7386],[-63.1918,-39.3909,44.9022],[-63.1844,-39.3943,43.4218],[-63.1719,-39.4058,36.3663],[-63.1593,-39.3988,35.8758],[-63.1578,-39.3946,33.2947],[-63.1483,-39.389,50.3818],[-63.1368,-39.3892,43.6344],[-63.1301,-39.3962,33.2179],[-63.1244,-39.3986,32.4623],[-63.1137,-39.4142,31.5945],[-63.1079,-39.4164,33.2104],[-63.1034,-39.4206,45.1844],[-63.1027,-39.4296,31.6795],[-63.1053,-39.4374,32.3911],[-63.1083,-39.4428,31.2146],[-63.1151,-39.4491,32.2135],[-63.1109,-39.4511,30.9339],[-63.1023,-39.4468,33.4887],[-63.0965,-39.4459,31.7135],[-63.0932,-39.4488,33.0063],[-63.0934,-39.4532,31.236],[-63.0998,-39.4572,31.2464],[-63.1034,-39.4631,28.5],[-63.1012,-39.4662,29.7679],[-63.0932,-39.4651,29.9124],[-63.0865,-39.4588,30.2266],[-63.0853,-39.4545,30.5225],[-63.065,-39.4557,28.6299],[-63.0661,-39.459,30.3657],[-63.0743,-39.4641,30.3837],[-63.0757,-39.4684,29.6001],[-63.0698,-39.4721,30.5058],[-63.059,-39.475,28.2409],[-63.053,-39.4815,26.822],[-63.0357,-39.478,28.2384],[-63.0323,-39.482,26.446],[-63.0331,-39.4866,25.5952],[-63.0277,-39.487,27.7066],[-63.0255,-39.4835,27.8111],[-63.0194,-39.4824,27.5455],[-63.0159,-39.4879,24.9184],[-63.0174,-39.4947,27.0395],[-63.0206,-39.4975,26.8016],[-63.0158,-39.4999,27.0712],[-63.0043,-39.4948,27.0504],[-62.9952,-39.4998,26.8526],[-62.975,-39.5006,26.0312],[-62.9679,-39.5024,24.6616],[-62.9629,-39.5089,25.1825],[-62.9575,-39.5118,25.5184],[-62.9504,-39.5109,25.2161],[-62.9285,-39.4999,23.6003],[-62.8992,-39.5029,35.3576],[-62.8831,-39.5074,30.8753],[-62.8683,-39.5199,34.3072],[-62.8461,-39.5243,20.733],[-62.8417,-39.5163,21.7284],[-62.8368,-39.513,21.3353],[-62.8221,-39.5112,21.2146],[-62.8126,-39.5064,21.1832],[-62.7833,-39.5032,21.1904],[-62.7702,-39.5056,19.7119],[-62.7538,-39.5008,18.9768],[-62.7325,-39.5089,18.5328],[-62.7231,-39.5204,17.5377],[-62.7188,-39.5225,23.4334],[-62.6967,-39.5259,26.6886],[-62.6926,-39.5286,27.0312],[-62.682,-39.5212,19.1584],[-62.6774,-39.5197,21.0171],[-62.6575,-39.518,17.7019],[-62.6479,-39.52,23.8306],[-62.6438,-39.5254,16.9993],[-62.6394,-39.5271,16.1454],[-62.6341,-39.5244,15.6543],[-62.6257,-39.5235,15.3158],[-62.6221,-39.5302,19.6378],[-62.6245,-39.5357,16.852],[-62.6218,-39.5383,15.4809],[-62.6018,-39.5435,15.9808],[-62.5795,-39.558,13.797],[-62.5689,-39.5627,13.8837],[-62.5401,-39.5664,12.1485],[-62.5177,-39.5867,11.8868],[-62.4957,-39.6002,12.0329],[-62.492,-39.6111,13.5129],[-62.4923,-39.6192,12.4109],[-62.4805,-39.6243,10.7014],[-62.4749,-39.6315,11.0119],[-62.4807,-39.6397,7.5],[-62.4789,-39.651,13.2516],[-62.4858,-39.6665,10.4101],[-62.4709,-39.6924,9.7655],[-62.4671,-39.6975,9.9273],[-62.4484,-39.7122,9.721],[-62.43,-39.7228,8.8341],[-62.4101,-39.7238,8.5379],[-62.3992,-39.7408,8.6306],[-62.3928,-39.7543,5.6366],[-62.3813,-39.7593,7.4132],[-62.3791,-39.7619,6.9868],[-62.3914,-39.7733,5.1232],[-62.387,-39.7795,5.6057],[-62.3759,-39.7804,6.0355],[-62.3728,-39.7761,6.616],[-62.3691,-39.7743,5.0447],[-62.3643,-39.7807,5.3559],[-62.3593,-39.7823,5.8243],[-62.3556,-39.7871,4.9882],[-62.3389,-39.8007,4.1535],[-62.3161,-39.7972,4.7441],[-62.2944,-39.7967,3.8902],[-62.2653,-39.8082,1.0547],[-62.256,-39.816,2.92],[-62.2339,-39.8153,2.1505],[-62.231,-39.8184,1.6035],[-62.231,-39.8238,1.0788],[-62.2261,-39.8304,1.6245],[-62.2102,-39.8386,1.6518],[-62.1971,-39.838,1.6341],[-62.1657,-39.8296,1.0098],[-62.1649,-39.8349,0.5076],[-62.1615,-39.8401,1.4128],[-62.1551,-39.8421,1.016],[-62.1504,-39.8465,1.0951],[-62.1476,-39.8512,0.8626],[-62.1482,-39.8546,0.5169],[-62.1451,-39.8582,1.1142],[-62.1424,-39.8587,0.4917],[-62.1418,-39.8571,0.3266],[-62.139,-39.8565,0.3911],[-62.129,-39.859,0.6525],[-62.1226,-39.8499,0.0],[-62.1196,-39.8468,0.0],[-62.1171,-39.8465,0.0],[-62.1151,-39.8393,0.0],[-62.1165,-39.8365,0.0],[-62.1157,-39.831,0.0],[-62.1174,-39.8299,3.4054],[-62.1176,-39.826,2.7127],[-62.1221,-39.8174,2.0031],[-62.1229,-39.8004,2.8036],[-62.1263,-39.786,1.6507],[-62.126,-39.7782,1.9014],[-62.124,-39.7749,1.7969],[-62.1246,-39.7707,1.9498],[-62.1271,-39.7676,2.2357],[-62.1243,-39.7549,2.5282],[-62.126,-39.7468,2.1098],[-62.1257,-39.7296,1.8435],[-62.1215,-39.7274,1.83],[-62.1146,-39.714,1.6979],[-62.111,-39.7137,1.1471],[-62.1096,-39.7062,1.6847],[-62.1054,-39.7021,1.0089],[-62.1049,-39.6937,0.1518],[-62.1076,-39.6924,0.3321],[-62.099,-39.6932,0.2452],[-62.0996,-39.6912,0.7783],[-62.094,-39.6896,0.0612],[-62.0968,-39.6896,0.4324],[-62.1024,-39.6907,0.8874],[-62.0929,-39.6871,1.1605],[-62.0904,-39.6821,0.8859],[-62.0907,-39.6787,0.0],[-62.0937,-39.6768,0.9965],[-62.0929,-39.6732,1.4171],[-62.094,-39.6724,0.2731],[-62.0976,-39.6724,0.7393],[-62.1051,-39.6671,0.8723],[-62.1063,-39.6676,0.5234],[-62.0999,-39.6754,0.565],[-62.1004,-39.6804,1.4071],[-62.0979,-39.6835,0.9375],[-62.0993,-39.6851,1.0108],[-62.1015,-39.6799,1.4071],[-62.104,-39.6801,1.8614],[-62.1093,-39.6762,1.4304],[-62.1115,-39.6688,1.3003],[-62.1143,-39.6699,1.4949],[-62.1157,-39.6671,1.4373],[-62.1182,-39.6674,1.8144],[-62.1188,-39.659,3.5072],[-62.116,-39.6549,0.236],[-62.1146,-39.6424,1.9096],[-62.116,-39.6393,2.0297],[-62.1143,-39.6368,2.7119],[-62.114,-39.6287,2.3931],[-62.1099,-39.6235,4.7138],[-62.1085,-39.619,3.2565],[-62.1065,-39.6182,0.0],[-62.1074,-39.6132,1.1626],[-62.1054,-39.6121,0.0],[-62.1065,-39.6115,2.4889],[-62.1057,-39.606,2.9401],[-62.1024,-39.5979,3.7444],[-62.1032,-39.5932,3.0983],[-62.1007,-39.5896,3.1913],[-62.0976,-39.5737,3.6354],[-62.0924,-39.5651,4.9177],[-62.0935,-39.5568,2.7844],[-62.0893,-39.5371,2.0894],[-62.0838,-39.5285,3.5188],[-62.0835,-39.5237,2.2757],[-62.0785,-39.5213,2.0372],[-62.081,-39.5176,2.1099],[-62.0779,-39.516,2.1906],[-62.0779,-39.5143,2.0811],[-62.0687,-39.5051,1.9324],[-62.0713,-39.5026,2.3958],[-62.0662,-39.4935,2.4177],[-62.0668,-39.4912,2.0473],[-62.0549,-39.4746,1.8807],[-62.0537,-39.4721,1.8778],[-62.0551,-39.4704,1.957],[-62.0457,-39.459,1.2571],[-62.0468,-39.4576,2.0849],[-62.0454,-39.4482,1.7789],[-62.0512,-39.446,1.5041],[-62.059,-39.4388,0.8485],[-62.0729,-39.4349,2.6482],[-62.0913,-39.4185,0.1624],[-62.1049,-39.4129,0.0],[-62.1365,-39.396,0.2811],[-62.1413,-39.3899,1.1694],[-62.1468,-39.3754,0.0],[-62.1543,-39.3646,1.2231],[-62.1601,-39.3604,0.33],[-62.2057,-39.3426,0.3539],[-62.2115,-39.3418,1.4138],[-62.2282,-39.331,0.3588],[-62.2346,-39.3246,1.0204],[-62.2415,-39.324,0.8745],[-62.2418,-39.3251,1.0376],[-62.2393,-39.3279,0.9634],[-62.234,-39.3285,0.891],[-62.2315,-39.3335,1.1192],[-62.2257,-39.3349,1.182],[-62.2165,-39.3407,1.4134],[-62.2254,-39.3379,1.1747],[-62.2418,-39.3374,1.3367],[-62.2451,-39.336,0.9398],[-62.2476,-39.3326,0.8525],[-62.2537,-39.3307,1.0202],[-62.2532,-39.326,0.9986],[-62.2615,-39.3201,1.4384],[-62.2576,-39.3185,1.0591],[-62.2596,-39.3151,1.127],[-62.271,-39.3082,1.0624],[-62.2679,-39.3082,0.9626],[-62.2663,-39.3065,1.4573],[-62.2607,-39.3071,1.3562],[-62.2593,-39.3032,1.2474],[-62.2535,-39.3079,1.5545],[-62.2485,-39.3087,1.4684],[-62.2363,-39.3032,1.1338],[-62.2346,-39.3049,1.1345],[-62.2304,-39.3051,1.2546],[-62.2301,-39.3007,1.4795],[-62.2276,-39.3024,1.2117],[-62.2229,-39.3004,1.7135],[-62.2118,-39.3035,1.5178],[-62.2035,-39.3082,1.1572],[-62.2001,-39.3082,1.1206],[-62.1943,-39.3068,1.2444],[-62.1882,-39.3015,1.5467],[-62.1846,-39.301,1.6796],[-62.1774,-39.3107,1.7959],[-62.1746,-39.3115,1.8352],[-62.1757,-39.3135,1.1437],[-62.1674,-39.3268,3.1951],[-62.1674,-39.3318,1.9602],[-62.166,-39.3329,1.9602],[-62.171,-39.3304,1.1751],[-62.1707,-39.3246,1.1322],[-62.1765,-39.3199,1.0608],[-62.1749,-39.3162,1.0128],[-62.1782,-39.3129,0.9681],[-62.1779,-39.3112,0.9887],[-62.1807,-39.311,0.43],[-62.1799,-39.3132,0.321],[-62.1813,-39.3143,0.321],[-62.1782,-39.3138,0.9967],[-62.1776,-39.3149,0.992],[-62.1815,-39.3154,0.4982],[-62.1829,-39.3213,0.6621],[-62.1801,-39.3243,1.1752],[-62.181,-39.3257,0.413],[-62.1796,-39.3279,0.8803],[-62.1701,-39.3379,0.1484],[-62.1057,-39.3787,1.7202],[-62.1046,-39.381,0.5422],[-62.0832,-39.3957,0.2212],[-62.0668,-39.4043,0.2155],[-62.0554,-39.406,0.8995],[-62.0451,-39.4124,1.0732],[-62.0426,-39.4124,2.057],[-62.0421,-39.4146,0.0],[-62.0332,-39.4146,0.353],[-62.0243,-39.4182,0.0],[-62.0182,-39.4171,1.3964],[-62.0201,-39.4143,1.5844],[-62.0174,-39.4113,1.7316],[-62.0179,-39.4099,1.4881],[-62.0137,-39.4062,1.4271],[-62.0115,-39.4068,1.8672],[-62.0101,-39.4035,1.7055],[-62.011,-39.399,1.6534],[-62.0099,-39.3963,1.5729],[-62.0112,-39.3946,1.6723],[-62.009,-39.3921,1.5543],[-62.0088,-39.3879,1.5226],[-62.0135,-39.391,1.5736],[-62.0176,-39.3887,2.4055],[-62.0112,-39.384,5.316],[-62.0088,-39.384,1.6277],[-62.0068,-39.3807,0.5546],[-62.0079,-39.3799,1.8744],[-62.0096,-39.3807,2.0264],[-62.0104,-39.3685,2.7063],[-62.0093,-39.3668,3.0155],[-62.0118,-39.3626,2.1555],[-62.0107,-39.3579,0.0],[-62.0171,-39.3521,0.8308],[-62.0321,-39.3524,0.2086],[-62.0376,-39.3504,0.2116],[-62.0465,-39.3421,3.1862],[-62.0671,-39.3112,0.2336],[-62.0732,-39.3085,1.3482],[-62.0754,-39.3051,0.7713],[-62.0846,-39.3065,1.0285],[-62.0915,-39.3037,0.9236],[-62.1021,-39.2979,0.3858],[-62.1063,-39.2938,0.3591],[-62.1101,-39.2954,1.1853],[-62.1396,-39.2876,0.0],[-62.1701,-39.284,0.6588],[-62.2004,-39.2721,0.1733],[-62.2115,-39.2696,1.2764],[-62.2335,-39.2726,0.0],[-62.2465,-39.271,0.0],[-62.2496,-39.2721,1.8193],[-62.251,-39.2704,0.2409],[-62.2607,-39.2707,1.2897],[-62.2815,-39.2654,1.3248],[-62.2899,-39.2693,0.7136],[-62.3015,-39.2701,1.7207],[-62.3112,-39.266,1.4282],[-62.3121,-39.264,1.605],[-62.3124,-39.2657,1.5222],[-62.3157,-39.2668,2.0977],[-62.3087,-39.271,2.0134],[-62.3126,-39.2715,3.291],[-62.3154,-39.2707,2.837],[-62.3193,-39.2663,2.4752],[-62.3204,-39.2593,2.5953],[-62.3246,-39.2582,3.1783],[-62.3235,-39.256,2.9033],[-62.3199,-39.2546,2.7303],[-62.3224,-39.2529,3.2136],[-62.321,-39.2518,2.7329],[-62.3174,-39.254,1.8864],[-62.3199,-39.2582,2.5953],[-62.3157,-39.2654,1.8814],[-62.3112,-39.2596,1.477],[-62.3112,-39.2565,1.3279],[-62.3085,-39.2554,1.5945],[-62.3057,-39.2565,1.1672],[-62.3074,-39.2551,1.4313],[-62.3065,-39.2524,1.3372],[-62.3082,-39.2537,1.5716],[-62.3104,-39.2526,1.8307],[-62.3074,-39.2515,1.3372],[-62.306,-39.249,1.5637],[-62.3049,-39.2504,1.5165],[-62.3018,-39.2501,1.3838],[-62.3015,-39.2518,1.1249],[-62.2949,-39.2551,1.3926],[-62.2863,-39.2568,1.555],[-62.2815,-39.2554,1.5179],[-62.2818,-39.2521,1.1417],[-62.2837,-39.2521,1.8604],[-62.286,-39.2482,1.5155],[-62.2812,-39.251,1.6271],[-62.2646,-39.2496,1.3662],[-62.2468,-39.2554,1.4832],[-62.2385,-39.2543,1.1675],[-62.2365,-39.2524,1.1658],[-62.2368,-39.2487,1.2542],[-62.2496,-39.2415,2.9112],[-62.2546,-39.2332,1.6347],[-62.2574,-39.2315,1.2064],[-62.2654,-39.2293,0.7949],[-62.2718,-39.2326,2.2411],[-62.2771,-39.2274,1.2679],[-62.2915,-39.2224,1.38],[-62.2976,-39.2185,1.8236],[-62.3004,-39.2124,0.8198],[-62.3146,-39.1974,1.2462],[-62.3201,-39.186,1.1756],[-62.3229,-39.1837,1.0836],[-62.3232,-39.1824,1.2234],[-62.3204,-39.1824,1.306],[-62.319,-39.1807,1.0188],[-62.3179,-39.1757,1.6171],[-62.3099,-39.1779,1.7418],[-62.306,-39.1718,1.6975],[-62.3063,-39.1651,1.5797],[-62.3143,-39.1557,1.3568],[-62.3071,-39.1532,1.4769],[-62.3051,-39.1499,1.463],[-62.3029,-39.1301,1.6437],[-62.304,-39.1268,1.6419],[-62.3132,-39.1243,1.2858],[-62.3043,-39.1218,1.043],[-62.291,-39.121,1.2358],[-62.284,-39.1126,1.1007],[-62.289,-39.1096,1.6804],[-62.2943,-39.109,1.6454],[-62.3024,-39.1012,1.5851],[-62.3168,-39.099,1.2286],[-62.3179,-39.0937,1.2369],[-62.3282,-39.0915,1.6433],[-62.3237,-39.091,1.3158],[-62.3185,-39.0874,1.2966],[-62.3182,-39.0799,1.4426],[-62.3043,-39.0785,1.6854],[-62.3032,-39.0735,1.6928],[-62.3046,-39.0713,1.7357],[-62.3021,-39.071,1.4919],[-62.3024,-39.069,1.6422],[-62.2993,-39.0651,1.8048],[-62.2957,-39.064,1.639],[-62.2951,-39.0574,1.5906],[-62.291,-39.0551,1.4788],[-62.289,-39.051,1.754],[-62.2857,-39.0499,1.6061],[-62.2854,-39.046,1.8122],[-62.2835,-39.046,1.7872],[-62.284,-39.0443,1.658],[-62.2801,-39.0451,1.4134],[-62.2801,-39.0404,1.6726],[-62.279,-39.0426,1.4986],[-62.2726,-39.0432,1.4243],[-62.2713,-39.0418,1.3994],[-62.2724,-39.0399,1.5917],[-62.2663,-39.041,1.7058],[-62.2635,-39.039,1.5752],[-62.2624,-39.0332,1.6796],[-62.2554,-39.0349,1.3375],[-62.2435,-39.031,1.5995],[-62.2424,-39.0165,2.2484],[-62.2479,-39.0143,1.914],[-62.2468,-39.0124,2.3863],[-62.2424,-39.0135,1.9932],[-62.2407,-39.0115,1.6581],[-62.2407,-39.0101,1.4899],[-62.244,-39.0096,2.6959],[-62.2443,-39.0054,2.0084],[-62.2421,-39.0043,3.0786],[-62.2285,-39.0049,1.7546],[-62.2232,-39.0026,1.9074],[-62.2211,-38.9999,1.6009],[-62.2285,-39.0018,2.131],[-62.2354,-39.0007,1.9358],[-62.2374,-38.9965,2.1098],[-62.2351,-38.9946,1.6572],[-62.2354,-38.9924,1.565],[-62.239,-38.9921,1.9893],[-62.2401,-38.9951,1.9608],[-62.2438,-38.994,1.3896],[-62.2435,-38.9957,1.7508],[-62.2471,-38.9968,2.38],[-62.2493,-38.9918,2.7292],[-62.2549,-38.989,1.8889],[-62.2562,-38.9912,2.2588],[-62.2513,-38.999,3.201],[-62.2513,-39.0029,1.7303],[-62.2526,-39.0021,2.1487],[-62.2532,-39.0035,2.2634],[-62.254,-38.9985,2.5404],[-62.2578,-39.0003,3.4448],[-62.2588,-38.9982,2.9777],[-62.2629,-38.9976,1.8612],[-62.2629,-38.9946,2.163],[-62.2607,-38.9943,2.7725],[-62.2596,-38.9921,1.9132],[-62.2596,-38.9904,1.3042],[-62.2621,-38.9896,2.2969],[-62.2682,-38.9929,0.4277],[-62.2674,-38.9946,1.2499],[-62.2646,-38.9946,2.4146],[-62.2643,-38.9976,2.3859],[-62.2663,-38.999,2.465],[-62.2682,-38.9962,1.2499],[-62.2685,-38.9987,0.0918],[-62.2668,-39.0004,1.5314],[-62.271,-39.0013,0.7787],[-62.2726,-39.006,0.0],[-62.2724,-39.0107,2.1894],[-62.2674,-39.0126,1.876],[-62.2682,-39.0165,0.486],[-62.2635,-39.0165,0.941],[-62.2685,-39.0176,2.6893],[-62.2687,-39.0126,0.7449],[-62.2735,-39.011,0.2507],[-62.2751,-39.0082,1.3347],[-62.2735,-39.0035,0.0],[-62.2735,-39.0007,0.1797],[-62.2749,-39.0001,0.9051],[-62.2721,-38.9965,0.2326],[-62.2718,-38.991,0.0],[-62.2788,-38.9946,2.2739],[-62.2876,-38.9943,1.1869],[-62.2935,-38.9985,1.6855],[-62.2943,-38.9976,2.2108],[-62.2918,-38.996,1.4332],[-62.2924,-38.994,0.6223],[-62.2962,-38.9971,1.8035],[-62.2954,-38.9946,2.4361],[-62.2968,-38.9938,0.8649],[-62.3085,-38.9926,1.5716],[-62.304,-38.991,2.2072],[-62.3043,-38.9924,1.7776],[-62.2935,-38.9926,2.7976],[-62.2935,-38.9884,1.9346],[-62.291,-38.9901,2.3477],[-62.2912,-38.9918,1.5085],[-62.2837,-38.991,2.4235],[-62.2826,-38.9879,2.9362],[-62.2821,-38.9907,2.1507],[-62.2771,-38.9899,0.3051],[-62.2749,-38.9882,2.9652],[-62.2771,-38.9854,1.6283],[-62.274,-38.9843,3.1348],[-62.2726,-38.9851,2.2332],[-62.2737,-38.9874,2.3119],[-62.2693,-38.9893,2.413],[-62.2663,-38.9879,2.9682],[-62.2699,-38.9832,2.529],[-62.269,-38.9807,2.2222],[-62.2649,-38.9804,1.8076],[-62.2663,-38.9832,1.604],[-62.2649,-38.9863,0.693],[-62.2635,-38.986,1.5981],[-62.2624,-38.9821,2.6464],[-62.2643,-38.9793,1.8966],[-62.2621,-38.9785,1.5184],[-62.2624,-38.9749,2.5778],[-62.2671,-38.9754,2.181],[-62.2713,-38.9738,2.1118],[-62.2704,-38.9801,2.3149],[-62.2757,-38.9793,2.4151],[-62.2768,-38.9776,1.078],[-62.2793,-38.979,1.1939],[-62.2799,-38.9813,2.8269],[-62.2826,-38.9793,0.9295],[-62.2829,-38.9843,2.8585],[-62.2865,-38.979,1.9451],[-62.2924,-38.9846,2.4509],[-62.2962,-38.9824,2.2128],[-62.2976,-38.9849,2.6466],[-62.2993,-38.9849,2.5213],[-62.2993,-38.9832,2.3478],[-62.3029,-38.9837,2.4206],[-62.3057,-38.989,2.0898],[-62.3124,-38.9865,2.01],[-62.3115,-38.9882,2.3254],[-62.314,-38.9868,1.8313],[-62.3182,-38.989,2.0876],[-62.3196,-38.9874,2.5523],[-62.3185,-38.984,2.5114],[-62.3226,-38.9824,3.2403],[-62.3182,-38.9801,2.2268],[-62.3185,-38.9782,2.397],[-62.3229,-38.9785,2.9302],[-62.3215,-38.9762,2.5137],[-62.3218,-38.9715,2.1118],[-62.3204,-38.9715,2.1118],[-62.3226,-38.9712,2.6014],[-62.3218,-38.9682,2.1447],[-62.3243,-38.9676,2.3284],[-62.3262,-38.9643,1.9144],[-62.3285,-38.966,2.9043],[-62.3346,-38.9612,2.0709],[-62.3382,-38.9624,2.8131],[-62.3387,-38.9585,3.0397],[-62.3454,-38.954,6.4156],[-62.3437,-38.9404,2.5519],[-62.341,-38.9379,5.1279],[-62.3374,-38.9379,2.4887],[-62.3365,-38.9354,2.6843],[-62.3332,-38.9354,1.1474],[-62.3365,-38.9304,5.3061],[-62.3362,-38.9279,1.7243],[-62.3293,-38.9126,4.6303],[-62.3271,-38.9115,1.1244],[-62.326,-38.9057,2.7997],[-62.3243,-38.9049,2.2988],[-62.3215,-38.9065,1.7198],[-62.3215,-38.9032,2.128],[-62.3232,-38.9026,2.3213],[-62.324,-38.8996,3.0109],[-62.3237,-38.8963,2.3514],[-62.3213,-38.8954,1.7151],[-62.3249,-38.8935,2.9444],[-62.331,-38.8812,2.1288],[-62.3312,-38.8843,2.5262],[-62.3332,-38.8843,2.3694],[-62.3365,-38.8835,2.6506],[-62.339,-38.8807,3.3385],[-62.3382,-38.8771,2.2636],[-62.3407,-38.8771,3.1262],[-62.3421,-38.8737,2.0808],[-62.339,-38.8704,2.6405],[-62.341,-38.8676,1.3784],[-62.3435,-38.8696,3.4234],[-62.3465,-38.8682,1.8364],[-62.3465,-38.8704,2.9476],[-62.3488,-38.8707,2.8738],[-62.3493,-38.8657,2.0997],[-62.3546,-38.8657,2.8734],[-62.3524,-38.8635,2.1721],[-62.3488,-38.8629,2.8346],[-62.3449,-38.8654,2.2485],[-62.3374,-38.8574,1.8236],[-62.3354,-38.8579,1.5278],[-62.3326,-38.8554,2.2361],[-62.3268,-38.8607,2.3659],[-62.3274,-38.8649,3.0241],[-62.3293,-38.8668,1.0592],[-62.3232,-38.8674,0.9082],[-62.3215,-38.8624,1.9897],[-62.3151,-38.8599,0.3399],[-62.3154,-38.8576,0.2084],[-62.3187,-38.8554,2.132],[-62.3138,-38.8549,0.3689],[-62.3126,-38.8512,3.091],[-62.309,-38.8551,2.5119],[-62.3118,-38.8576,0.0],[-62.3076,-38.8599,0.8944],[-62.3065,-38.8624,0.4917],[-62.3018,-38.8601,2.2689],[-62.3037,-38.8579,2.0133],[-62.3007,-38.8585,0.6738],[-62.3004,-38.8571,1.931],[-62.299,-38.8585,0.8877],[-62.2912,-38.8579,1.9047],[-62.2868,-38.8618,0.5667],[-62.2821,-38.8604,1.3281],[-62.279,-38.8568,1.7333],[-62.279,-38.8526,1.8491],[-62.2821,-38.8515,1.389],[-62.2868,-38.8532,1.1352],[-62.2921,-38.8518,1.271],[-62.294,-38.8501,1.9363],[-62.2949,-38.8449,1.0346],[-62.2988,-38.8437,1.1319],[-62.299,-38.8415,1.4118],[-62.3012,-38.8401,0.2424],[-62.3063,-38.8396,0.7836],[-62.3079,-38.841,0.0],[-62.3074,-38.8437,2.0297],[-62.3107,-38.8457,0.2553],[-62.3204,-38.8449,1.8584],[-62.324,-38.8404,0.7615],[-62.3285,-38.8418,1.0844],[-62.324,-38.8382,1.056],[-62.3196,-38.8443,2.092],[-62.3174,-38.8446,1.0572],[-62.3146,-38.8429,2.1026],[-62.3093,-38.8435,0.0],[-62.3093,-38.8393,0.3115],[-62.3104,-38.8371,0.19],[-62.3126,-38.8374,1.1462],[-62.3118,-38.8362,1.0784],[-62.3046,-38.8393,1.2692],[-62.2993,-38.8387,0.6059],[-62.296,-38.8326,1.0907],[-62.2965,-38.8304,0.8708],[-62.3099,-38.8293,0.7026],[-62.3157,-38.8399,1.7989],[-62.3165,-38.8362,2.3408],[-62.3146,-38.8346,0.7603],[-62.3149,-38.8321,2.0569],[-62.3132,-38.8315,0.3488],[-62.314,-38.8288,1.7137],[-62.3104,-38.8276,1.8901],[-62.2996,-38.8279,1.9905],[-62.2954,-38.8301,0.8708],[-62.2954,-38.8282,2.0108],[-62.2985,-38.8262,1.0987],[-62.299,-38.8224,0.6347],[-62.3074,-38.8196,0.679],[-62.3101,-38.8235,0.3214],[-62.3293,-38.8288,0.0],[-62.3304,-38.8318,1.2992],[-62.3338,-38.8315,1.198],[-62.3368,-38.8368,0.4366],[-62.346,-38.8401,0.7715],[-62.3474,-38.8421,1.4049],[-62.3482,-38.8413,1.4049],[-62.3465,-38.839,0.0],[-62.3571,-38.8307,1.5518],[-62.3582,-38.8237,0.0],[-62.3654,-38.8293,0.0],[-62.3732,-38.8293,0.4843],[-62.3765,-38.8226,1.1262],[-62.3726,-38.8201,1.4958],[-62.376,-38.8187,0.4272],[-62.3832,-38.8251,0.7058],[-62.384,-38.8276,0.4549],[-62.3871,-38.8274,0.9497],[-62.3874,-38.826,0.8078],[-62.384,-38.8257,0.9098],[-62.3768,-38.8182,0.4272],[-62.3746,-38.8179,1.3933],[-62.3682,-38.8201,0.7497],[-62.3696,-38.8232,1.6976],[-62.3743,-38.8226,0.2325],[-62.3726,-38.8285,0.4843],[-62.3643,-38.8271,0.3385],[-62.3624,-38.8246,0.0],[-62.3629,-38.819,0.0],[-62.371,-38.8162,0.843],[-62.3732,-38.8129,1.6989],[-62.3715,-38.8121,1.6989],[-62.3707,-38.8154,0.843],[-62.3654,-38.8168,0.8629],[-62.3618,-38.8124,2.516],[-62.3593,-38.8154,0.5877],[-62.351,-38.8162,1.5685],[-62.3485,-38.8143,1.3236],[-62.3488,-38.8185,0.0],[-62.3471,-38.8196,0.0],[-62.3471,-38.8221,0.0],[-62.3493,-38.8251,1.59],[-62.3524,-38.8237,0.2069],[-62.3526,-38.8257,1.4792],[-62.3485,-38.8296,0.0],[-62.3462,-38.8296,0.0],[-62.3421,-38.8243,0.0],[-62.3413,-38.8179,1.5952],[-62.3404,-38.8193,1.2745],[-62.3379,-38.8182,1.0045],[-62.3368,-38.8204,0.0],[-62.3312,-38.8207,0.316],[-62.3265,-38.816,1.7722],[-62.3237,-38.8171,0.2147],[-62.3226,-38.8151,1.3555],[-62.324,-38.8132,0.378],[-62.3254,-38.8146,1.1645],[-62.3282,-38.8129,2.1543],[-62.3321,-38.8157,1.5745],[-62.3338,-38.8151,0.2581],[-62.329,-38.8126,2.1543],[-62.3285,-38.8104,2.3257],[-62.3229,-38.8101,0.3178],[-62.3154,-38.8024,1.9154],[-62.3049,-38.8001,0.0],[-62.3037,-38.7971,1.9405],[-62.3007,-38.7988,0.6509],[-62.2993,-38.7976,1.2555],[-62.2962,-38.8024,0.5895],[-62.2949,-38.8012,1.1972],[-62.2951,-38.7974,1.4075],[-62.2985,-38.7979,0.0],[-62.3007,-38.7957,0.533],[-62.3024,-38.7887,0.4329],[-62.3043,-38.7882,0.3593],[-62.3068,-38.7921,0.8167],[-62.3082,-38.7899,0.0],[-62.3143,-38.7879,0.0],[-62.3154,-38.7857,0.0],[-62.3174,-38.7863,0.0],[-62.3176,-38.7846,0.0],[-62.3201,-38.786,0.4071],[-62.3224,-38.784,0.0],[-62.3282,-38.7863,0.6932],[-62.3282,-38.7849,1.3634],[-62.3196,-38.7821,0.0],[-62.3276,-38.7774,0.0],[-62.3326,-38.7776,0.2784],[-62.3349,-38.7749,0.0],[-62.3404,-38.7765,1.0794],[-62.3382,-38.7737,0.0],[-62.3415,-38.7707,0.0],[-62.3432,-38.7701,0.0],[-62.3426,-38.7718,1.1057],[-62.3446,-38.7721,1.6477],[-62.3443,-38.7701,0.0],[-62.3465,-38.769,0.0],[-62.3504,-38.771,0.3257],[-62.3457,-38.7663,0.0],[-62.3521,-38.7663,0.9292],[-62.3546,-38.7632,0.0],[-62.3654,-38.7612,0.5095],[-62.366,-38.7646,2.1506],[-62.3701,-38.7663,1.1121],[-62.3685,-38.7687,1.2064],[-62.3712,-38.7668,1.1121],[-62.3746,-38.7679,0.0],[-62.3893,-38.7646,0.7337],[-62.3918,-38.7679,1.6062],[-62.3924,-38.7657,0.6274],[-62.394,-38.7657,0.0],[-62.3954,-38.7704,1.5212],[-62.3946,-38.7735,1.3511],[-62.3963,-38.774,0.2378],[-62.3954,-38.7771,1.435],[-62.3976,-38.7765,0.7731],[-62.3982,-38.7715,1.8167],[-62.3957,-38.7649,0.0],[-62.4018,-38.7663,1.6972],[-62.4021,-38.7643,0.0],[-62.4049,-38.7651,1.3005],[-62.4062,-38.764,0.3193],[-62.4015,-38.7624,0.8878],[-62.3924,-38.7629,0.9343],[-62.3893,-38.761,1.8657],[-62.3887,-38.7626,0.7349],[-62.3854,-38.7621,1.3404],[-62.3851,-38.7643,0.4487],[-62.376,-38.7663,0.7291],[-62.3682,-38.7649,0.4764],[-62.3688,-38.7626,1.3536],[-62.3671,-38.7624,0.0],[-62.3668,-38.7596,0.5095],[-62.3646,-38.7604,0.2795],[-62.3599,-38.7585,1.0428],[-62.3496,-38.7646,0.0],[-62.3496,-38.7618,0.0],[-62.3526,-38.7593,0.0],[-62.3607,-38.7565,0.7998],[-62.3674,-38.756,0.0],[-62.371,-38.7576,0.8535],[-62.3763,-38.7557,0.3259],[-62.3804,-38.7562,1.3452],[-62.3815,-38.7535,0.3073],[-62.3849,-38.7565,1.7934],[-62.3846,-38.754,0.3715],[-62.3868,-38.7535,0.8193],[-62.3882,-38.7574,1.1007],[-62.3896,-38.7532,0.0],[-62.3915,-38.7571,0.5668],[-62.3921,-38.7535,1.2287],[-62.3951,-38.7521,0.0],[-62.3976,-38.7576,0.7036],[-62.3979,-38.751,0.0],[-62.4007,-38.7504,0.0],[-62.4032,-38.7526,0.3298],[-62.4038,-38.7568,1.3801],[-62.4115,-38.7585,0.7292],[-62.4151,-38.7618,0.7398],[-62.409,-38.764,0.7884],[-62.4087,-38.7699,0.1874],[-62.4118,-38.7718,0.935],[-62.4118,-38.7746,0.4067],[-62.4079,-38.7771,1.5827],[-62.411,-38.7782,0.9307],[-62.4071,-38.7779,1.5827],[-62.4071,-38.774,1.961],[-62.4018,-38.7724,1.7412],[-62.3996,-38.7765,1.9647],[-62.4018,-38.7807,1.8034],[-62.3999,-38.7818,2.0595],[-62.4038,-38.7821,2.3563],[-62.4012,-38.7765,2.0852],[-62.4021,-38.7743,2.0127],[-62.4043,-38.7743,2.384],[-62.4051,-38.7757,2.372],[-62.4038,-38.7776,2.3684],[-62.4071,-38.7793,2.4725],[-62.4065,-38.7812,2.429],[-62.411,-38.7818,2.0979],[-62.4096,-38.7832,2.3395],[-62.411,-38.7857,2.314],[-62.4129,-38.7849,1.9757],[-62.414,-38.7874,2.1803],[-62.4182,-38.7879,2.1331],[-62.4185,-38.784,2.2569],[-62.4154,-38.7812,2.308],[-62.4171,-38.7754,2.3638],[-62.4146,-38.7771,2.1302],[-62.4135,-38.774,0.6112],[-62.4157,-38.7674,1.956],[-62.4121,-38.766,0.0],[-62.4165,-38.7626,0.8294],[-62.4146,-38.7596,0.4848],[-62.4176,-38.7601,0.0],[-62.4176,-38.7635,1.1878],[-62.4218,-38.7663,0.384],[-62.4201,-38.7685,0.901],[-62.421,-38.7707,0.2801],[-62.4224,-38.7651,0.2691],[-62.4246,-38.7671,0.6059],[-62.4276,-38.7671,0.0],[-62.4262,-38.7718,0.8968],[-62.4304,-38.7785,1.3917],[-62.4313,-38.7776,0.6761],[-62.429,-38.7737,1.0412],[-62.4293,-38.7687,1.2228],[-62.4326,-38.7696,1.5472],[-62.4321,-38.7718,1.7306],[-62.4362,-38.7726,1.2122],[-62.4337,-38.7674,2.2949],[-62.4215,-38.7637,0.2908],[-62.4193,-38.7607,0.0],[-62.4271,-38.7618,1.9561],[-62.4324,-38.7596,1.0882],[-62.4374,-38.761,0.0],[-62.4382,-38.764,1.4604],[-62.4415,-38.7624,2.4182],[-62.4421,-38.7649,2.1815],[-62.4474,-38.7668,0.183],[-62.4474,-38.7699,1.9529],[-62.4504,-38.7699,0.377],[-62.4501,-38.7732,1.4813],[-62.4518,-38.7707,0.0],[-62.4554,-38.7715,0.9781],[-62.456,-38.7699,1.4817],[-62.4535,-38.7701,0.0],[-62.4529,-38.7679,2.1979],[-62.4454,-38.7654,1.0686],[-62.4415,-38.7615,2.4182],[-62.4385,-38.7615,0.0],[-62.4429,-38.7588,1.1958],[-62.4429,-38.7562,0.0],[-62.454,-38.7551,0.3312],[-62.4562,-38.7562,0.0],[-62.4557,-38.7585,1.7573],[-62.4601,-38.7596,0.3698],[-62.4596,-38.7607,0.3546],[-62.454,-38.7599,0.0],[-62.456,-38.7635,1.7249],[-62.4632,-38.7657,0.2487],[-62.464,-38.7682,1.1592],[-62.4674,-38.7685,1.0808],[-62.4643,-38.7651,0.9553],[-62.4565,-38.7629,0.8178],[-62.4549,-38.761,0.0],[-62.4612,-38.7618,2.4397],[-62.4629,-38.7596,0.7629],[-62.4601,-38.7585,1.0409],[-62.4601,-38.7532,1.1819],[-62.4663,-38.7549,0.7495],[-62.4674,-38.7518,0.0],[-62.4629,-38.7499,0.2653],[-62.464,-38.7537,0.0],[-62.4612,-38.7524,1.1091],[-62.4557,-38.7526,2.1197],[-62.454,-38.7479,1.6201],[-62.4529,-38.7515,1.2822],[-62.4543,-38.7529,0.0],[-62.4468,-38.7535,0.0],[-62.4451,-38.7507,0.0],[-62.4479,-38.7479,0.8871],[-62.4485,-38.7443,1.8212],[-62.4432,-38.7479,1.8128],[-62.4443,-38.7504,0.0],[-62.4404,-38.7529,1.9843],[-62.4399,-38.7588,0.4626],[-62.4313,-38.7582,0.0],[-62.4329,-38.7568,0.749],[-62.4318,-38.7543,0.0],[-62.4382,-38.7499,0.8256],[-62.436,-38.7487,0.3745],[-62.4376,-38.7446,0.861],[-62.4404,-38.7457,0.928],[-62.4418,-38.7446,2.35],[-62.4403,-38.7397,2.4303],[-62.4421,-38.7313,3.8884],[-62.4511,-38.7248,6.299],[-62.4517,-38.7155,8.5784],[-62.4572,-38.6993,14.2677],[-62.4557,-38.6913,15.8407],[-62.4565,-38.6816,18.5591],[-62.463,-38.6727,21.2087],[-62.4976,-38.6533,37.8884],[-62.5099,-38.6442,32.4353],[-62.548,-38.6343,40.7914],[-62.555,-38.6298,42.4376],[-62.5597,-38.6301,43.3502],[-62.57,-38.6232,45.094],[-62.5814,-38.6214,48.8122]]],
[[[-62.2829,-39.1182,1.3632],[-62.2874,-39.1179,1.3984],[-62.286,-39.121,1.2711],[-62.281,-39.1207,1.0875],[-62.281,-39.1188,1.0796],[-62.2829,-39.1182,1.3632]]],
[[[-62.2974,-38.9699,2.6178],[-62.299,-38.9679,0.2278],[-62.301,-38.9682,2.4034],[-62.3021,-38.9718,1.3077],[-62.3082,-38.9754,1.2969],[-62.3076,-38.9782,1.9267],[-62.3035,-38.976,2.6679],[-62.3015,-38.9793,1.8795],[-62.3051,-38.9793,1.6422],[-62.3046,-38.9801,1.9031],[-62.2954,-38.9804,1.7978],[-62.2926,-38.9712,1.239],[-62.3024,-38.9762,2.5285],[-62.2993,-38.9721,2.5191],[-62.296,-38.9718,1.3995],[-62.2974,-38.9699,2.6178]]],
[[[-62.3054,-38.9726,3.2206],[-62.3035,-38.9687,0.5121],[-62.3085,-38.9693,0.5557],[-62.3087,-38.9712,2.9333],[-62.3112,-38.9718,2.9075],[-62.3151,-38.9704,1.8732],[-62.319,-38.9729,2.2471],[-62.3135,-38.9718,1.5534],[-62.314,-38.9735,2.1503],[-62.3174,-38.9746,1.9957],[-62.3135,-38.9751,1.7434],[-62.3054,-38.9726,3.2206]]],
[[[-62.2671,-39.2601,1.578],[-62.2674,-39.2585,1.1145],[-62.2721,-39.2593,1.2765],[-62.2693,-39.2621,1.2785],[-62.2668,-39.2621,1.3154],[-62.2671,-39.2601,1.578]]],
[[[-62.2496,-38.969,1.6048],[-62.2532,-38.9676,0.5036],[-62.2571,-38.971,0.4687],[-62.2562,-38.9749,2.399],[-62.2585,-38.9751,1.9041],[-62.2579,-38.9796,3.0613],[-62.2535,-38.9818,2.0782],[-62.2532,-38.9849,0.0],[-62.2443,-38.984,1.8484],[-62.2404,-38.979,1.8737],[-62.2496,-38.969,1.6048]]],
[[[-62.2626,-38.9657,0.4373],[-62.271,-38.9649,1.3241],[-62.2701,-38.9682,1.1386],[-62.2643,-38.9718,0.5673],[-62.259,-38.9701,1.5024],[-62.2574,-38.9674,0.3021],[-62.2626,-38.9657,0.4373]]],
[[[-62.2735,-38.964,1.193],[-62.276,-38.9626,0.487],[-62.2768,-38.9657,1.8879],[-62.2785,-38.966,1.8879],[-62.2793,-38.9626,0.2655],[-62.2837,-38.969,2.0844],[-62.281,-38.9687,2.4369],[-62.2768,-38.9724,2.2444],[-62.274,-38.969,1.8752],[-62.2735,-38.964,1.193]]],
[[[-62.314,-38.9696,1.8732],[-62.3124,-38.9693,1.9011],[-62.316,-38.9687,1.9768],[-62.3157,-38.9701,1.544],[-62.314,-38.9696,1.8732]]],
[[[-62.2893,-38.969,2.8738],[-62.2893,-38.9676,2.2299],[-62.2921,-38.9671,1.8355],[-62.2968,-38.9685,2.4098],[-62.2943,-38.9704,1.2778],[-62.2893,-38.969,2.8738]]],
[[[-62.306,-38.9657,2.0858],[-62.3079,-38.9646,2.4226],[-62.309,-38.9676,2.2765],[-62.306,-38.9668,2.0071],[-62.306,-38.9657,2.0858]]],
[[[-62.2968,-38.9565,1.7591],[-62.296,-38.9535,2.1648],[-62.2982,-38.9532,2.5783],[-62.3012,-38.9582,2.6675],[-62.3004,-38.9599,2.0522],[-62.3032,-38.961,2.1455],[-62.3026,-38.9632,1.9578],[-62.299,-38.9626,2.1318],[-62.2949,-38.9649,0.1956],[-62.2932,-38.9624,2.0064],[-62.2912,-38.9643,2.3207],[-62.2904,-38.9604,2.4786],[-62.2876,-38.9607,2.6474],[-62.2868,-38.9626,2.253],[-62.2843,-38.9612,2.8357],[-62.2843,-38.959,0.5835],[-62.2901,-38.9571,1.2451],[-62.2932,-38.9582,1.7114],[-62.2943,-38.9604,2.15],[-62.2971,-38.9588,1.841],[-62.2968,-38.9565,1.7591]]],
[[[-62.2751,-38.9454,2.4929],[-62.2771,-38.9437,2.0371],[-62.2818,-38.9449,1.9379],[-62.2818,-38.9512,2.029],[-62.2713,-38.9512,2.4272],[-62.2718,-38.9493,2.0906],[-62.2751,-38.9479,2.5138],[-62.2751,-38.9454,2.4929]]],
[[[-62.2624,-38.9432,2.368],[-62.2637,-38.9401,1.3818],[-62.2668,-38.9415,1.7309],[-62.2685,-38.9404,0.6394],[-62.2668,-38.9429,1.7309],[-62.2704,-38.9449,2.1118],[-62.271,-38.9474,1.9808],[-62.269,-38.9499,2.2422],[-62.271,-38.9501,2.4272],[-62.2596,-38.9549,1.4147],[-62.2588,-38.9515,2.3839],[-62.2646,-38.9507,1.785],[-62.2624,-38.9432,2.368]]],
[[[-62.2579,-38.936,1.262],[-62.2593,-38.9343,0.5621],[-62.2582,-38.939,1.9796],[-62.2596,-38.941,2.2936],[-62.2518,-38.9404,1.9263],[-62.254,-38.939,2.4717],[-62.2543,-38.9368,2.2809],[-62.2571,-38.9379,2.2405],[-62.2579,-38.936,1.262]]],
[[[-62.2668,-38.9321,2.1677],[-62.2682,-38.9301,1.8172],[-62.2749,-38.9315,0.7533],[-62.2785,-38.9365,2.4792],[-62.2824,-38.9393,2.0485],[-62.2843,-38.9388,0.7112],[-62.284,-38.9426,0.8231],[-62.2799,-38.9426,1.4856],[-62.2782,-38.9374,2.4792],[-62.2749,-38.9362,2.4021],[-62.2732,-38.9371,2.2139],[-62.2746,-38.941,1.2905],[-62.2721,-38.9415,1.2645],[-62.2713,-38.9382,2.2394],[-62.2621,-38.9307,1.986],[-62.2668,-38.9321,2.1677]]],
[[[-62.1579,-38.9993,0.0],[-62.1646,-38.999,0.5962],[-62.1659,-38.9999,0.8649],[-62.1651,-39.0029,0.8175],[-62.1576,-39.0021,0.9131],[-62.1579,-38.9993,0.0]]],
[[[-62.2176,-39.0013,1.9316],[-62.2163,-39.0013,1.8275],[-62.2165,-38.9996,1.7721],[-62.2179,-39.0004,0.7441],[-62.2176,-39.0013,1.9316]]],
[[[-62.1646,-38.966,1.9276],[-62.1668,-38.9649,2.2123],[-62.171,-38.966,1.6407],[-62.176,-38.9693,1.6414],[-62.1762,-38.9715,1.7992],[-62.1674,-38.9729,2.1456],[-62.1618,-38.9674,2.5924],[-62.1646,-38.966,1.9276]]],
[[[-62.2071,-38.9601,1.4572],[-62.2032,-38.959,1.4343],[-62.2121,-38.9585,0.7452],[-62.2118,-38.961,1.4831],[-62.2071,-38.9601,1.4572]]],
[[[-62.2351,-38.9354,1.3063],[-62.2374,-38.9343,1.3498],[-62.2376,-38.9382,2.7991],[-62.2393,-38.9376,1.4138],[-62.2407,-38.9418,2.3321],[-62.2424,-38.9415,1.171],[-62.2424,-38.9454,1.6972],[-62.2446,-38.9449,2.3785],[-62.244,-38.9418,0.6542],[-62.2465,-38.9446,2.853],[-62.2521,-38.9451,1.322],[-62.254,-38.9482,2.6557],[-62.2557,-38.9479,1.8132],[-62.256,-38.9454,1.9836],[-62.2579,-38.9454,1.9836],[-62.2585,-38.9482,1.166],[-62.2554,-38.9521,2.5412],[-62.2562,-38.954,2.257],[-62.2529,-38.9551,1.9237],[-62.251,-38.954,2.5977],[-62.2476,-38.9579,2.8179],[-62.2451,-38.9579,1.9139],[-62.2451,-38.9551,2.0635],[-62.2476,-38.9557,2.2238],[-62.2496,-38.9529,1.9669],[-62.2526,-38.9518,2.5978],[-62.2476,-38.9507,3.058],[-62.2465,-38.9532,1.9682],[-62.2432,-38.9532,2.6203],[-62.2424,-38.9557,1.8815],[-62.2385,-38.9557,1.7777],[-62.2363,-38.9482,1.6905],[-62.2332,-38.9487,1.2764],[-62.2332,-38.941,1.2243],[-62.2354,-38.9388,1.5507],[-62.2329,-38.9368,1.056],[-62.2351,-38.9354,1.3063]]],
[[[-62.2363,-38.9324,1.9463],[-62.2376,-38.931,0.0],[-62.2393,-38.9332,1.4388],[-62.2424,-38.9337,0.351],[-62.2426,-38.9374,2.2737],[-62.2399,-38.9371,2.0301],[-62.2387,-38.9337,1.4388],[-62.2363,-38.9324,1.9463]]],
[[[-62.2446,-38.926,3.1234],[-62.2426,-38.9257,2.1057],[-62.2426,-38.9224,0.4798],[-62.246,-38.924,0.7757],[-62.2465,-38.9274,2.0382],[-62.2446,-38.926,3.1234]]],
[[[-62.2371,-38.924,1.7181],[-62.2354,-38.9265,0.4599],[-62.2349,-38.9207,1.0606],[-62.2371,-38.9207,0.7574],[-62.2371,-38.924,1.7181]]],
[[[-62.2104,-38.956,1.1299],[-62.211,-38.9496,1.3473],[-62.2121,-38.9496,1.3473],[-62.2121,-38.9557,0.5934],[-62.2118,-38.9565,0.0],[-62.2104,-38.956,1.1299]]],
[[[-62.2157,-38.9493,1.4961],[-62.2157,-38.9479,1.299],[-62.2179,-38.9482,1.3652],[-62.2179,-38.9507,1.0284],[-62.2151,-38.9507,1.1967],[-62.2157,-38.9493,1.4961]]],
[[[-62.1732,-38.9174,1.4037],[-62.1726,-38.9157,1.0262],[-62.1746,-38.9151,0.9047],[-62.179,-38.919,0.0],[-62.1813,-38.9229,0.0],[-62.1804,-38.9285,1.0951],[-62.1821,-38.9287,1.0673],[-62.1837,-38.9329,0.7327],[-62.1896,-38.9349,1.2883],[-62.1907,-38.9374,1.3908],[-62.194,-38.9379,1.389],[-62.2001,-38.9432,2.0254],[-62.1987,-38.9443,2.0254],[-62.1946,-38.9424,1.6369],[-62.1963,-38.9457,1.2465],[-62.1937,-38.9468,1.4474],[-62.1963,-38.949,1.3004],[-62.1929,-38.9485,1.4299],[-62.191,-38.9529,1.1337],[-62.1985,-38.9551,1.0477],[-62.1993,-38.9571,1.2309],[-62.2018,-38.9574,1.1942],[-62.2018,-38.9593,1.4408],[-62.1893,-38.9565,1.3473],[-62.181,-38.9526,1.4749],[-62.1688,-38.9435,0.8455],[-62.1882,-38.9515,0.6153],[-62.1685,-38.9426,0.6888],[-62.1615,-38.9371,1.525],[-62.1546,-38.9349,0.7382],[-62.1554,-38.9293,1.3929],[-62.1585,-38.929,1.3705],[-62.1576,-38.9318,1.3529],[-62.1557,-38.9326,1.4096],[-62.1565,-38.9343,1.4801],[-62.161,-38.9346,1.5653],[-62.1635,-38.9368,1.5926],[-62.1674,-38.936,1.2465],[-62.1671,-38.9396,1.4076],[-62.1707,-38.9418,1.5358],[-62.1743,-38.9396,1.1732],[-62.1807,-38.9437,1.6773],[-62.1837,-38.9429,1.5236],[-62.1818,-38.9335,1.9686],[-62.1738,-38.9349,1.3699],[-62.1729,-38.9313,2.0963],[-62.1715,-38.931,1.8165],[-62.1718,-38.9274,1.557],[-62.1665,-38.926,1.5451],[-62.1646,-38.9221,1.5465],[-62.1626,-38.9229,1.1094],[-62.1624,-38.926,1.101],[-62.1568,-38.9246,1.389],[-62.1568,-38.9226,0.2277],[-62.1626,-38.9212,0.3111],[-62.1651,-38.919,0.2973],[-62.169,-38.9188,1.44],[-62.1729,-38.9215,1.6379],[-62.1749,-38.9199,1.5592],[-62.1732,-38.9174,1.4037]]],
[[[-62.1524,-38.9238,0.8655],[-62.1546,-38.9226,0.0],[-62.1546,-38.9243,1.527],[-62.151,-38.9257,1.0366],[-62.1518,-38.9282,1.5224],[-62.1493,-38.9274,1.7172],[-62.1487,-38.9287,1.4388],[-62.1504,-38.929,1.542],[-62.1529,-38.934,0.2262],[-62.1468,-38.9285,0.9007],[-62.1524,-38.9238,0.8655]]],
[[[-62.1921,-38.9265,1.3267],[-62.1926,-38.9249,0.9912],[-62.1951,-38.9249,1.1515],[-62.1951,-38.9268,1.1555],[-62.1921,-38.9265,1.3267]]],
[[[-62.2088,-38.906,1.1758],[-62.214,-38.9038,0.1551],[-62.2201,-38.9101,0.8301],[-62.2196,-38.9118,1.667],[-62.2212,-38.9124,0.2943],[-62.2226,-38.9162,2.015],[-62.2262,-38.9188,1.0363],[-62.2246,-38.9221,1.527],[-62.226,-38.9251,0.4748],[-62.224,-38.9296,0.8458],[-62.2154,-38.934,1.0663],[-62.214,-38.9368,0.1645],[-62.2121,-38.936,1.1771],[-62.2129,-38.9321,2.0261],[-62.211,-38.934,1.3213],[-62.2074,-38.9332,1.1326],[-62.2029,-38.929,0.9764],[-62.1999,-38.9232,0.2759],[-62.1918,-38.9221,1.6581],[-62.1893,-38.9235,0.0],[-62.1857,-38.9212,1.0202],[-62.1829,-38.9224,0.0],[-62.1801,-38.9162,1.4621],[-62.1804,-38.9135,1.0847],[-62.1818,-38.9135,1.0847],[-62.1813,-38.916,1.4621],[-62.1824,-38.916,1.6607],[-62.1851,-38.9126,1.4066],[-62.1874,-38.9126,1.3361],[-62.1857,-38.9154,1.0408],[-62.1876,-38.9179,1.7398],[-62.1918,-38.9171,1.5786],[-62.1929,-38.9154,1.556],[-62.1996,-38.9135,1.3615],[-62.1985,-38.9085,1.5355],[-62.204,-38.9082,1.3319],[-62.2057,-38.9051,1.375],[-62.2088,-38.906,1.1758]]],
[[[-62.1532,-38.9176,1.3412],[-62.1565,-38.9162,0.0],[-62.159,-38.9162,0.0],[-62.159,-38.9179,1.3386],[-62.1629,-38.9171,0.8763],[-62.1607,-38.9193,1.4952],[-62.1571,-38.9176,1.4534],[-62.154,-38.921,1.2843],[-62.1524,-38.9193,0.1617],[-62.1532,-38.9176,1.3412]]],
[[[-62.2135,-38.8943,1.1731],[-62.214,-38.8918,1.1552],[-62.2149,-38.8968,1.0585],[-62.2129,-38.8982,0.4229],[-62.2076,-38.8965,0.7983],[-62.2085,-38.8949,1.2165],[-62.2112,-38.8963,1.3868],[-62.2137,-38.8954,1.1038],[-62.2135,-38.8943,1.1731]]],
[[[-62.3035,-38.9449,0.9806],[-62.3024,-38.9443,2.2309],[-62.3024,-38.9415,1.5289],[-62.3046,-38.9421,1.0665],[-62.3035,-38.9449,0.9806]]],
[[[-62.2743,-38.9029,2.0854],[-62.2751,-38.8996,2.3162],[-62.2815,-38.9038,2.8669],[-62.2857,-38.9035,1.4844],[-62.2849,-38.9071,1.8199],[-62.2899,-38.9087,1.9333],[-62.2907,-38.9104,2.9818],[-62.2929,-38.9096,2.4461],[-62.2932,-38.9071,2.151],[-62.2962,-38.9093,2.7536],[-62.2982,-38.9071,2.1423],[-62.301,-38.9082,2.5963],[-62.3037,-38.9049,2.2475],[-62.3051,-38.906,2.2475],[-62.301,-38.9107,2.4848],[-62.3021,-38.9132,0.7494],[-62.2965,-38.9151,1.4169],[-62.2801,-38.9085,1.6388],[-62.2729,-38.9096,-0.0234],[-62.2699,-38.9074,2.1683],[-62.2693,-38.9038,2.2503],[-62.2707,-38.9024,2.0836],[-62.2726,-38.9038,2.5165],[-62.2743,-38.9029,2.0854]]],
[[[-62.3063,-38.8999,2.2747],[-62.3076,-38.8976,2.3797],[-62.3063,-38.8965,2.411],[-62.3082,-38.8965,2.3797],[-62.3099,-38.899,1.9629],[-62.314,-38.899,1.581],[-62.3143,-38.9051,1.9956],[-62.3165,-38.9087,1.4909],[-62.3151,-38.9126,1.8816],[-62.3129,-38.9104,2.4041],[-62.3082,-38.9113,0.6135],[-62.3071,-38.9085,0.7657],[-62.3099,-38.9051,2.7438],[-62.3068,-38.9038,2.1684],[-62.291,-38.9068,2.1254],[-62.2896,-38.9049,1.9447],[-62.2912,-38.9015,2.3045],[-62.2957,-38.9032,2.8724],[-62.3007,-38.9021,2.6397],[-62.301,-38.8987,1.1738],[-62.3063,-38.8999,2.2747]]],
[[[-62.3121,-38.8893,2.5788],[-62.3138,-38.8879,1.0167],[-62.3143,-38.8896,2.9283],[-62.3162,-38.8896,1.5613],[-62.3146,-38.8946,1.3886],[-62.3112,-38.8963,1.7326],[-62.3046,-38.8954,2.4671],[-62.3049,-38.8968,1.9708],[-62.2999,-38.8979,1.9147],[-62.3007,-38.8954,2.0714],[-62.2985,-38.8946,2.4142],[-62.2979,-38.9004,1.4347],[-62.2954,-38.901,3.1374],[-62.294,-38.8957,0.8491],[-62.3024,-38.8924,0.7141],[-62.3074,-38.8921,0.8651],[-62.3121,-38.8893,2.5788]]],
[[[-62.256,-38.9121,2.7998],[-62.2576,-38.9104,2.1193],[-62.2607,-38.9126,2.0498],[-62.2629,-38.9121,1.7925],[-62.2629,-38.9143,1.8455],[-62.2612,-38.916,2.0383],[-62.2557,-38.9162,3.1007],[-62.2518,-38.9204,1.4134],[-62.2499,-38.9162,2.4955],[-62.256,-38.9121,2.7998]]],
[[[-62.2696,-38.916,2.6957],[-62.2676,-38.9162,2.0653],[-62.2682,-38.9129,2.0],[-62.2746,-38.914,-0.1346],[-62.2737,-38.9162,2.1245],[-62.2707,-38.9171,0.8388],[-62.2696,-38.916,2.6957]]],
[[[-62.254,-38.8857,1.637],[-62.2551,-38.8835,1.0316],[-62.2568,-38.8835,0.3166],[-62.2565,-38.8857,1.7513],[-62.2585,-38.8865,1.9488],[-62.2632,-38.8849,1.8013],[-62.2649,-38.886,0.9889],[-62.2637,-38.8879,2.1624],[-62.2651,-38.8893,1.4682],[-62.2624,-38.8921,0.593],[-62.256,-38.8935,1.3467],[-62.2535,-38.8918,1.596],[-62.2549,-38.8899,2.2645],[-62.2535,-38.8885,2.0012],[-62.254,-38.8857,1.637]]],
[[[-62.2593,-38.8735,2.0958],[-62.2604,-38.8696,2.082],[-62.2637,-38.8704,2.1518],[-62.2624,-38.8737,1.2426],[-62.2579,-38.8768,0.569],[-62.2593,-38.8735,2.0958]]],
[[[-62.2796,-38.8826,1.9946],[-62.2821,-38.8812,0.4449],[-62.2863,-38.884,1.2267],[-62.2857,-38.8868,2.4029],[-62.2871,-38.8882,1.2126],[-62.2843,-38.8918,2.7549],[-62.2865,-38.8921,1.4757],[-62.2865,-38.8935,1.9703],[-62.2849,-38.8951,1.9592],[-62.2863,-38.8965,3.0836],[-62.2887,-38.8943,1.0361],[-62.2876,-38.8965,2.3801],[-62.2912,-38.8979,1.7267],[-62.2871,-38.8996,1.4447],[-62.2876,-38.9024,0.971],[-62.2793,-38.9004,2.2156],[-62.2804,-38.8982,2.2291],[-62.2751,-38.8957,3.0293],[-62.2768,-38.8929,1.8048],[-62.2793,-38.8929,1.8393],[-62.2807,-38.8899,1.7898],[-62.2779,-38.8874,2.4016],[-62.2768,-38.8896,1.0941],[-62.2751,-38.8896,1.1711],[-62.2743,-38.8838,0.2059],[-62.2796,-38.8826,1.9946]]],
[[[-62.2879,-38.8851,1.8647],[-62.2896,-38.8838,1.8848],[-62.2946,-38.8846,0.9822],[-62.2924,-38.8851,2.3258],[-62.2904,-38.8885,0.5914],[-62.2876,-38.8874,2.3171],[-62.2879,-38.8851,1.8647]]],
[[[-62.3101,-38.8654,1.961],[-62.3146,-38.864,0.8445],[-62.3143,-38.8662,0.9889],[-62.3104,-38.8679,2.3418],[-62.3096,-38.8704,0.0],[-62.3107,-38.8737,1.7699],[-62.3151,-38.8743,0.4328],[-62.3132,-38.8771,2.9603],[-62.3135,-38.8796,2.4648],[-62.3146,-38.8807,1.9192],[-62.3171,-38.8799,1.695],[-62.3196,-38.8751,0.6211],[-62.3226,-38.8763,1.5158],[-62.3226,-38.879,1.6343],[-62.3196,-38.8787,2.2963],[-62.321,-38.8812,1.6013],[-62.3165,-38.886,2.693],[-62.3082,-38.8868,1.9194],[-62.3085,-38.8899,1.1264],[-62.3063,-38.891,2.6223],[-62.3046,-38.8904,1.6823],[-62.3057,-38.8882,2.7626],[-62.3046,-38.8882,2.1837],[-62.301,-38.8915,0.9539],[-62.2962,-38.8915,2.539],[-62.2965,-38.8935,1.1958],[-62.2943,-38.8949,0.8491],[-62.2929,-38.8924,0.9797],[-62.2949,-38.8874,0.5793],[-62.2993,-38.8843,0.3381],[-62.3049,-38.8843,2.5385],[-62.3074,-38.8818,1.9135],[-62.3065,-38.8799,2.2868],[-62.3029,-38.8793,2.5632],[-62.2988,-38.8815,0.0],[-62.2951,-38.8799,0.9917],[-62.2899,-38.881,1.4852],[-62.289,-38.8776,2.0098],[-62.291,-38.876,1.9537],[-62.2782,-38.8765,1.4337],[-62.2749,-38.8735,1.7724],[-62.2757,-38.8776,1.611],[-62.2729,-38.8782,0.8689],[-62.2701,-38.8774,1.4177],[-62.269,-38.8746,1.9028],[-62.2707,-38.8712,1.9488],[-62.2693,-38.8676,1.7207],[-62.2749,-38.8671,0.0],[-62.2821,-38.8693,0.7814],[-62.2907,-38.8654,0.4301],[-62.2924,-38.8707,2.0744],[-62.2946,-38.8707,0.0],[-62.296,-38.8732,1.8665],[-62.2971,-38.8712,0.3272],[-62.2993,-38.8721,0.9124],[-62.3018,-38.8751,2.7579],[-62.3032,-38.8724,1.571],[-62.3024,-38.8704,0.8406],[-62.3043,-38.8707,1.874],[-62.3101,-38.8654,1.961]]],
[[[-62.3293,-38.8712,2.7693],[-62.3285,-38.8696,2.7693],[-62.3326,-38.871,0.0],[-62.3335,-38.8757,2.2312],[-62.3349,-38.876,2.2036],[-62.334,-38.8799,1.6445],[-62.3335,-38.8768,1.4872],[-62.3288,-38.8757,1.7481],[-62.329,-38.8746,1.7481],[-62.3312,-38.8757,1.656],[-62.3293,-38.8712,2.7693]]],
[[[-62.2537,-38.8674,1.2541],[-62.2562,-38.866,0.5836],[-62.2582,-38.8682,1.1487],[-62.2582,-38.8712,1.6232],[-62.256,-38.8735,1.2665],[-62.2521,-38.8715,1.566],[-62.2515,-38.8679,1.045],[-62.2537,-38.8674,1.2541]]],
[[[-62.2774,-38.8665,0.452],[-62.276,-38.8657,1.0582],[-62.2821,-38.8671,0.7124],[-62.2796,-38.8674,0.7409],[-62.2774,-38.8665,0.452]]],
[[[-62.2624,-38.8624,1.2543],[-62.2615,-38.861,0.3877],[-62.2626,-38.8604,0.0],[-62.2668,-38.8646,0.9975],[-62.2643,-38.8646,1.3122],[-62.2624,-38.8624,1.2543]]],
[[[-62.2682,-38.8618,0.8802],[-62.2676,-38.8585,1.1227],[-62.2699,-38.8579,1.1508],[-62.2715,-38.8599,1.3231],[-62.2699,-38.8607,1.3351],[-62.2704,-38.864,0.9054],[-62.2682,-38.8618,0.8802]]],
[[[-62.2318,-38.9076,1.8705],[-62.2343,-38.9065,1.9154],[-62.241,-38.9074,1.2073],[-62.2421,-38.9096,3.0673],[-62.2476,-38.9113,3.4278],[-62.2485,-38.9146,2.0719],[-62.2393,-38.9115,1.5613],[-62.2307,-38.9126,1.4192],[-62.2304,-38.909,1.9591],[-62.2318,-38.9076,1.8705]]],
[[[-62.2412,-38.8943,0.7491],[-62.2438,-38.8932,0.0],[-62.2485,-38.9007,0.3418],[-62.2582,-38.9026,0.9481],[-62.2554,-38.9057,2.6385],[-62.2549,-38.909,2.6305],[-62.2526,-38.9099,1.997],[-62.2493,-38.9079,2.6701],[-62.2507,-38.9057,2.2761],[-62.2499,-38.904,2.8831],[-62.2443,-38.906,1.9956],[-62.2415,-38.8996,1.6267],[-62.2374,-38.8993,1.5114],[-62.2363,-38.9007,1.2965],[-62.2396,-38.9024,1.1591],[-62.2399,-38.9046,1.1018],[-62.2301,-38.9021,1.5309],[-62.2304,-38.8982,1.4914],[-62.2412,-38.8943,0.7491]]],
[[[-62.2454,-38.8835,1.5577],[-62.2479,-38.8824,0.2046],[-62.2476,-38.8849,1.8672],[-62.2393,-38.891,1.9618],[-62.2365,-38.8913,0.7885],[-62.2363,-38.889,1.2163],[-62.2337,-38.8901,0.8157],[-62.2337,-38.8843,1.62],[-62.2415,-38.8835,1.1881],[-62.2435,-38.8849,1.6796],[-62.2454,-38.8835,1.5577]]],
[[[-62.2426,-38.8696,1.819],[-62.2438,-38.8685,1.5651],[-62.2462,-38.8693,1.1574],[-62.2462,-38.8715,1.7081],[-62.244,-38.8724,1.7404],[-62.2485,-38.8724,1.0597],[-62.2485,-38.8743,1.2224],[-62.2457,-38.8743,1.7637],[-62.2457,-38.8754,1.2699],[-62.2499,-38.8757,0.9824],[-62.2513,-38.8776,0.6476],[-62.2504,-38.879,0.8259],[-62.2471,-38.8799,1.7267],[-62.2449,-38.8785,1.6015],[-62.241,-38.8715,0.9531],[-62.2426,-38.8696,1.819]]],
[[[-62.1979,-38.8937,1.5363],[-62.1999,-38.8926,1.4541],[-62.2012,-38.8943,1.4901],[-62.1987,-38.8943,1.6124],[-62.1979,-38.8937,1.5363]]],
[[[-62.1957,-38.8929,0.0],[-62.1971,-38.8904,1.429],[-62.1971,-38.8932,1.5363],[-62.1954,-38.894,0.0],[-62.1957,-38.8929,0.0]]],
[[[-62.2024,-38.8874,0.1448],[-62.2068,-38.8862,0.9942],[-62.2074,-38.8876,1.3091],[-62.2029,-38.8885,1.4393],[-62.2018,-38.8907,1.4409],[-62.1982,-38.8904,1.429],[-62.199,-38.8887,0.9095],[-62.2024,-38.8874,0.1448]]],
[[[-62.2374,-38.871,1.0003],[-62.2371,-38.8696,1.0003],[-62.2396,-38.8699,0.99],[-62.2418,-38.8757,1.6561],[-62.2382,-38.8737,1.005],[-62.2374,-38.871,1.0003]]],
[[[-62.2301,-38.8674,0.7315],[-62.2326,-38.866,0.417],[-62.231,-38.869,1.4674],[-62.2262,-38.8696,1.1679],[-62.2262,-38.8688,0.8015],[-62.2301,-38.8674,0.7315]]],
[[[-62.2399,-38.8449,1.2997],[-62.2415,-38.8435,1.2282],[-62.2432,-38.8443,1.2629],[-62.2393,-38.8474,1.1739],[-62.2426,-38.8482,1.261],[-62.2446,-38.8587,0.4996],[-62.2404,-38.8546,1.3281],[-62.2307,-38.8574,0.9779],[-62.2307,-38.8557,0.9425],[-62.234,-38.8554,1.209],[-62.2324,-38.8546,1.0917],[-62.2332,-38.8524,1.1284],[-62.2313,-38.8501,1.7218],[-62.2351,-38.846,0.1624],[-62.2382,-38.8465,1.1739],[-62.2399,-38.8449,1.2997]]],
[[[-62.2343,-38.8407,1.2115],[-62.2321,-38.8407,1.4072],[-62.2318,-38.8387,1.6795],[-62.234,-38.8382,1.2373],[-62.2343,-38.8407,1.2115]]],
[[[-62.2518,-38.8304,1.2722],[-62.2529,-38.8285,1.2677],[-62.2571,-38.829,1.3245],[-62.256,-38.8318,1.253],[-62.254,-38.8315,1.3395],[-62.2537,-38.8343,1.2791],[-62.2493,-38.8357,1.3342],[-62.249,-38.8387,1.0738],[-62.246,-38.8396,1.182],[-62.2429,-38.8374,1.3798],[-62.246,-38.8429,1.2037],[-62.2374,-38.8426,0.2238],[-62.2438,-38.8343,1.2291],[-62.2462,-38.8346,1.3437],[-62.2462,-38.8304,0.9756],[-62.2507,-38.829,1.1567],[-62.2518,-38.8304,1.2722]]],
[[[-62.2404,-38.8218,1.1431],[-62.2501,-38.8213,0.9951],[-62.2507,-38.8229,0.9951],[-62.2404,-38.8246,1.096],[-62.2349,-38.8271,1.5087],[-62.2343,-38.8288,1.2028],[-62.2321,-38.8285,1.4424],[-62.2335,-38.8221,1.2978],[-62.2404,-38.8218,1.1431]]],
[[[-62.236,-38.8213,1.5529],[-62.2349,-38.8215,1.2978],[-62.2354,-38.8185,0.7735],[-62.2371,-38.8185,1.5828],[-62.2374,-38.819,1.5828],[-62.236,-38.8213,1.5529]]],
[[[-62.3157,-38.866,0.9129],[-62.3171,-38.8643,0.0],[-62.3182,-38.8674,1.5447],[-62.3218,-38.8701,1.7756],[-62.3221,-38.8746,0.0249],[-62.314,-38.8721,1.6979],[-62.3157,-38.866,0.9129]]],
[[[-62.289,-38.8629,0.9228],[-62.2915,-38.8618,1.3667],[-62.2935,-38.864,0.1691],[-62.2882,-38.864,0.2655],[-62.2879,-38.8626,0.1762],[-62.289,-38.8629,0.9228]]],
[[[-62.3346,-38.8604,2.5416],[-62.3354,-38.8587,1.8257],[-62.3376,-38.8587,2.2841],[-62.339,-38.8604,2.101],[-62.3354,-38.8679,1.7267],[-62.3326,-38.8626,2.2525],[-62.3346,-38.8604,2.5416]]],
[[[-62.2846,-38.8426,1.2427],[-62.2863,-38.8413,1.4811],[-62.2921,-38.8421,0.4939],[-62.2924,-38.8479,1.5902],[-62.2874,-38.8479,1.8536],[-62.284,-38.8451,1.7313],[-62.2846,-38.8426,1.2427]]],
[[[-62.2651,-38.8551,1.1616],[-62.2674,-38.8535,1.1777],[-62.2704,-38.856,0.7237],[-62.2676,-38.8557,1.1141],[-62.2649,-38.8587,0.776],[-62.2579,-38.8593,0.9099],[-62.2593,-38.8551,0.8032],[-62.2637,-38.8568,1.292],[-62.2651,-38.8551,1.1616]]],
[[[-62.2524,-38.8421,1.2577],[-62.2529,-38.8393,1.1882],[-62.2546,-38.8393,1.1311],[-62.2562,-38.8426,1.1808],[-62.2537,-38.8432,0.5866],[-62.2524,-38.8421,1.2577]]],
[[[-62.2815,-38.8393,1.0911],[-62.2832,-38.8385,0.9353],[-62.2804,-38.8424,0.9887],[-62.2796,-38.841,0.9476],[-62.2815,-38.8393,1.0911]]],
[[[-62.2585,-38.8315,1.3443],[-62.2588,-38.8285,0.9531],[-62.2604,-38.8282,0.0],[-62.264,-38.8346,1.0716],[-62.2582,-38.8332,1.2279],[-62.2585,-38.8315,1.3443]]],
[[[-62.2915,-38.8329,1.2668],[-62.2949,-38.8329,0.9517],[-62.2982,-38.839,0.9579],[-62.2879,-38.8413,0.8185],[-62.2876,-38.8371,1.6029],[-62.2915,-38.8329,1.2668]]],
[[[-62.3446,-38.8357,0.5523],[-62.3451,-38.8368,1.2215],[-62.3415,-38.8357,0.8941],[-62.336,-38.8296,0.0],[-62.3379,-38.8301,0.9183],[-62.3446,-38.8357,0.5523]]],
[[[-62.3232,-38.8246,0.0],[-62.3249,-38.8237,0.9615],[-62.329,-38.824,0.9968],[-62.3249,-38.8254,0.1912],[-62.3232,-38.8246,0.0]]],
[[[-62.271,-38.831,0.9836],[-62.2713,-38.8299,0.9836],[-62.2793,-38.8304,0.5814],[-62.2768,-38.8321,0.7981],[-62.271,-38.831,0.9836]]],
[[[-62.2779,-38.8237,1.2875],[-62.2807,-38.8235,1.3604],[-62.2751,-38.8285,1.2242],[-62.2737,-38.8271,1.3661],[-62.2718,-38.8276,1.1036],[-62.2721,-38.8257,1.1166],[-62.2779,-38.8237,1.2875]]],
[[[-62.2724,-38.8021,1.326],[-62.2757,-38.8012,1.2441],[-62.2791,-38.8035,0.3372],[-62.2771,-38.8151,2.115],[-62.2754,-38.8168,1.7238],[-62.2765,-38.8201,1.2888],[-62.2743,-38.8221,1.5422],[-62.2687,-38.8229,3.0443],[-62.2601,-38.8218,1.4679],[-62.2588,-38.8179,1.4286],[-62.2607,-38.8118,1.0108],[-62.2679,-38.8079,0.7688],[-62.2679,-38.8051,0.6375],[-62.2724,-38.8021,1.326]]]]}}