{"type": "Feature","bbox": [-67.0917,-45.1335,-65.1868,-43.7587],"geometry": {"type": "MultiPolygon","coordinates": [[[[-66.0099,-45.1129,0.0],[-66.0115,-45.1115,0.0],[-66.0115,-45.114,0.0],[-66.0065,-45.1168,0.0],[-66.0071,-45.1146,0.0],[-66.0099,-45.1129,0.0]]],
[[[-66.0171,-45.1099,0.0],[-66.0151,-45.1099,0.0],[-66.0157,-45.1082,0.1839],[-66.019,-45.109,0.0088],[-66.0171,-45.1099,0.0]]],
[[[-65.9651,-45.0968,0.2657],[-65.9679,-45.0957,0.0],[-65.9682,-45.0985,0.0],[-65.9657,-45.1021,1.142],[-65.9668,-45.1037,0.0],[-65.966,-45.1065,1.8637],[-65.956,-45.1118,0.0],[-65.9607,-45.1188,0.0],[-65.9568,-45.1207,0.0],[-65.9435,-45.1196,0.0],[-65.946,-45.1149,0.4349],[-65.9437,-45.1135,0.2459],[-65.944,-45.1087,0.4619],[-65.9479,-45.1076,0.0],[-65.9479,-45.1087,3.1376],[-65.9535,-45.109,0.0],[-65.9543,-45.1068,0.2914],[-65.9601,-45.1035,3.7656],[-65.9607,-45.101,0.0],[-65.9618,-45.1029,0.0],[-65.964,-45.1018,0.2762],[-65.9646,-45.0999,1.0796],[-65.9632,-45.0985,0.0],[-65.9651,-45.0968,0.2657]]],
[[[-66.0257,-45.1007,0.0],[-66.0265,-45.0993,0.0],[-66.0296,-45.0993,0.0],[-66.0282,-45.1007,0.0],[-66.0257,-45.1007,0.0]]],
[[[-66.0485,-45.1279,0.0],[-66.0599,-45.1279,0.0],[-66.0629,-45.1318,0.0],[-66.0604,-45.1335,0.0],[-66.0601,-45.1318,0.0],[-66.0571,-45.1304,3.6754],[-66.054,-45.1315,0.0],[-66.0499,-45.129,0.3411],[-66.0454,-45.1299,0.0],[-66.0485,-45.1279,0.0]]],
[[[-66.0946,-45.1185,0.6527],[-66.0937,-45.1171,0.6772],[-66.0974,-45.1168,1.1711],[-66.0985,-45.1196,0.0],[-66.0957,-45.1196,0.0],[-66.0946,-45.1185,0.6527]]],
[[[-66.319,-45.0679,0.0],[-66.3213,-45.0665,0.6731],[-66.3246,-45.0665,0.0],[-66.3168,-45.0696,0.0],[-66.319,-45.0679,0.0]]],
[[[-66.2871,-45.0546,0.0],[-66.2865,-45.0537,0.0],[-66.2885,-45.0535,0.4333],[-66.2899,-45.0557,0.0],[-66.2929,-45.0557,0.0],[-66.2971,-45.0587,0.0],[-66.2885,-45.061,3.4876],[-66.289,-45.0676,0.0],[-66.2862,-45.066,0.0],[-66.2799,-45.0674,0.0],[-66.2799,-45.0646,0.0],[-66.2754,-45.0662,1.1043],[-66.2785,-45.0604,0.0],[-66.2793,-45.0615,0.0],[-66.2782,-45.0626,0.0],[-66.2821,-45.0626,0.0],[-66.2854,-45.061,1.639],[-66.2865,-45.0585,0.0],[-66.2901,-45.0574,0.0],[-66.2871,-45.0546,0.0]]],
[[[-66.0071,-45.0815,1.8467],[-66.0085,-45.0799,1.6324],[-66.0163,-45.081,0.0],[-66.0146,-45.084,3.8902],[-66.0235,-45.0854,-0.0325],[-66.0232,-45.0893,-0.0399],[-66.0179,-45.0921,-0.064],[-66.0171,-45.0988,0.2571],[-66.0085,-45.1051,-0.0193],[-65.9996,-45.1065,0.0],[-65.9957,-45.1099,0.0],[-65.9935,-45.1096,0.0],[-65.9929,-45.1118,0.0],[-65.996,-45.1129,0.0],[-65.9904,-45.1154,0.0],[-65.989,-45.1154,0.0],[-65.9901,-45.1107,0.0],[-65.9849,-45.1085,0.629],[-65.9818,-45.1099,0.0],[-65.976,-45.1093,10.3431],[-65.9726,-45.1126,0.4373],[-65.9676,-45.1124,0.0],[-65.9632,-45.1096,0.0],[-65.971,-45.1057,0.4025],[-65.9849,-45.1051,8.097],[-65.9882,-45.1024,1.1568],[-65.9885,-45.0996,0.0],[-65.9865,-45.0962,11.2256],[-65.9818,-45.0957,0.0],[-65.9871,-45.0924,1.5794],[-65.9876,-45.0893,0.0],[-65.9932,-45.0876,0.0],[-65.994,-45.0921,5.4297],[-65.9993,-45.0876,0.0],[-66.0038,-45.0871,7.6877],[-66.0043,-45.0832,0.0],[-66.0071,-45.0815,1.8467]]],
[[[-66.0379,-45.0899,0.5149],[-66.0485,-45.089,0.0],[-66.0501,-45.0921,0.079],[-66.0432,-45.0935,0.0],[-66.041,-45.0915,0.0],[-66.0376,-45.0943,-0.097],[-66.0335,-45.094,0.0],[-66.0379,-45.0899,0.5149]]],
[[[-66.0282,-45.0862,0.0],[-66.0263,-45.0862,0.0],[-66.0268,-45.0843,0.0],[-66.029,-45.0846,0.0],[-66.0282,-45.0862,0.0]]],
[[[-65.9615,-45.0504,0.0],[-65.9671,-45.0493,0.0],[-65.9707,-45.0512,0.0],[-65.9665,-45.0543,0.665],[-65.9615,-45.0504,0.0]]],
[[[-65.9737,-45.0512,0.0],[-65.9765,-45.0504,0.0],[-65.9774,-45.0518,0.0],[-65.974,-45.0526,0.0],[-65.9737,-45.0512,0.0]]],
[[[-65.9624,-45.0446,1.5681],[-65.9654,-45.0435,0.0],[-65.9638,-45.0482,0.0],[-65.9618,-45.0465,0.0],[-65.9624,-45.0446,1.5681]]],
[[[-65.9829,-45.0332,0.0],[-65.9865,-45.0326,0.0],[-65.9874,-45.034,0.0],[-65.9843,-45.0351,0.0],[-65.9829,-45.0332,0.0]]],
[[[-65.9374,-45.1193,0.5136],[-65.9401,-45.1182,3.1597],[-65.9424,-45.1201,0.0],[-65.9413,-45.1215,0.0],[-65.9351,-45.121,0.0],[-65.9374,-45.1193,0.5136]]],
[[[-65.8054,-45.0624,0.0],[-65.8079,-45.0615,15.7854],[-65.8121,-45.0632,0.7848],[-65.8129,-45.0657,1.6702],[-65.811,-45.0682,0.0],[-65.8085,-45.0685,0.0],[-65.8049,-45.0638,0.0],[-65.8054,-45.0624,0.0]]],
[[[-65.7171,-45.0493,0.0],[-65.7187,-45.0482,0.2482],[-65.7213,-45.0501,0.0],[-65.7207,-45.0512,6.3846],[-65.7237,-45.054,0.0],[-65.7229,-45.0565,0.0],[-65.7199,-45.0565,1.9081],[-65.7165,-45.0601,0.0],[-65.7099,-45.0593,3.1968],[-65.7079,-45.0604,0.0],[-65.7046,-45.0587,0.0],[-65.7043,-45.0563,0.0],[-65.7079,-45.0557,1.4091],[-65.7101,-45.0529,0.0],[-65.7171,-45.0493,0.0]]],
[[[-65.8607,-45.0479,0.0],[-65.864,-45.0471,0.0],[-65.8626,-45.0501,0.1541],[-65.8654,-45.0518,0.0],[-65.8624,-45.0512,0.1541],[-65.8615,-45.0529,0.0],[-65.8587,-45.0518,0.0],[-65.8607,-45.0479,0.0]]],
[[[-65.3968,-45.1021,0.769],[-65.4024,-45.1015,0.0],[-65.4001,-45.104,0.8155],[-65.3924,-45.1054,0.0],[-65.3932,-45.1032,0.0],[-65.3968,-45.1021,0.769]]],
[[[-65.6246,-45.0537,2.1356],[-65.6274,-45.0526,0.0],[-65.6276,-45.0554,1.0951],[-65.6299,-45.0551,0.3408],[-65.6301,-45.0565,0.0],[-65.6279,-45.0579,0.8674],[-65.6204,-45.0565,0.0],[-65.6204,-45.0551,2.5955],[-65.6246,-45.0537,2.1356]]],
[[[-65.5985,-45.0421,1.6503],[-65.5987,-45.0407,0.0],[-65.6054,-45.0418,5.4885],[-65.6071,-45.0446,13.0966],[-65.6093,-45.0418,0.3429],[-65.611,-45.0438,2.2103],[-65.616,-45.0426,0.0],[-65.619,-45.044,0.0],[-65.619,-45.0468,11.7816],[-65.6235,-45.0462,0.0],[-65.6243,-45.0493,12.0865],[-65.6149,-45.0568,2.2278],[-65.6174,-45.0615,1.9662],[-65.6224,-45.0596,3.3403],[-65.6243,-45.0601,1.9226],[-65.6251,-45.0632,0.0],[-65.6196,-45.0643,0.2935],[-65.6154,-45.0635,0.0],[-65.6121,-45.0607,6.9149],[-65.6065,-45.0612,4.2666],[-65.6021,-45.0585,1.7413],[-65.5987,-45.0593,1.2767],[-65.5974,-45.0576,1.7785],[-65.594,-45.0574,0.8335],[-65.5912,-45.0585,0.2707],[-65.5926,-45.0615,0.0],[-65.5826,-45.0629,6.9131],[-65.579,-45.066,3.8533],[-65.5718,-45.0671,0.0],[-65.5729,-45.0643,0.0],[-65.5771,-45.0632,0.3342],[-65.5768,-45.0601,0.1302],[-65.5804,-45.0604,0.9997],[-65.5871,-45.056,0.0],[-65.591,-45.0574,0.7208],[-65.5915,-45.056,2.1755],[-65.5882,-45.0546,0.0],[-65.5849,-45.0504,0.0142],[-65.5854,-45.0457,0.0],[-65.5921,-45.0426,0.0],[-65.5954,-45.0454,1.6641],[-65.5985,-45.0421,1.6503]]],
[[[-65.4829,-44.9999,2.353],[-65.4863,-44.9985,0.0],[-65.4863,-45.001,0.0],[-65.4932,-45.0001,0.0],[-65.4926,-45.0026,9.9581],[-65.4954,-45.0026,0.0],[-65.4849,-45.0107,0.0],[-65.4849,-45.0054,5.1912],[-65.4824,-45.004,1.5472],[-65.4765,-45.006,0.0],[-65.4743,-45.0051,0.0],[-65.4829,-44.9999,2.353]]],
[[[-65.8449,-45.0465,0.8597],[-65.8496,-45.0457,0.0],[-65.8499,-45.0474,0.0],[-65.846,-45.0512,0.9207],[-65.8407,-45.0504,0.0],[-65.8418,-45.0476,0.0],[-65.8449,-45.0465,0.8597]]],
[[[-65.9168,-45.0457,0.0],[-65.919,-45.0449,0.1693],[-65.9204,-45.0468,0.0],[-65.9163,-45.0512,0.1832],[-65.9157,-45.0499,0.1832],[-65.9168,-45.0457,0.0]]],
[[[-65.8868,-45.0471,0.1009],[-65.8896,-45.046,0.0],[-65.8885,-45.0488,0.0],[-65.8851,-45.049,0.0],[-65.8868,-45.0471,0.1009]]],
[[[-65.8774,-45.0393,0.0],[-65.8796,-45.0385,0.0],[-65.8835,-45.0412,0.504],[-65.8821,-45.0429,0.0],[-65.8799,-45.0418,0.0],[-65.8782,-45.0438,0.0],[-65.8721,-45.0429,0.0],[-65.8774,-45.0393,0.0]]],
[[[-65.7574,-45.0357,3.5306],[-65.7588,-45.0349,6.6034],[-65.7671,-45.0371,0.0],[-65.7676,-45.0393,0.0],[-65.7624,-45.041,2.6651],[-65.7604,-45.0393,25.2082],[-65.7518,-45.0376,0.0],[-65.7529,-45.036,0.0],[-65.7574,-45.0357,3.5306]]],
[[[-65.8715,-45.0299,1.1663],[-65.8737,-45.0299,0.0],[-65.8732,-45.0326,3.0383],[-65.8763,-45.0351,0.0],[-65.8715,-45.0357,0.0],[-65.8665,-45.0412,1.3328],[-65.8596,-45.0412,0.0],[-65.8604,-45.0393,0.0],[-65.8654,-45.0382,4.5506],[-65.8715,-45.0299,1.1663]]],
[[[-65.8596,-45.0332,1.6],[-65.8632,-45.0324,0.0],[-65.8615,-45.0365,0.0],[-65.8568,-45.0371,0.0],[-65.8571,-45.0351,0.8841],[-65.8596,-45.0332,1.6]]],
[[[-65.5624,-44.9982,0.0],[-65.5632,-44.9971,0.0],[-65.5654,-44.9979,0.0],[-65.564,-45.0013,0.0],[-65.5599,-45.0001,0.0],[-65.5624,-44.9982,0.0]]],
[[[-65.571,-44.9885,0.0],[-65.5743,-44.9879,0.0],[-65.5751,-44.9907,0.7606],[-65.5685,-44.9918,0.0],[-65.569,-44.9893,0.0],[-65.571,-44.9885,0.0]]],
[[[-65.561,-44.9635,0.9051],[-65.5651,-44.9626,0.0],[-65.5663,-44.9646,0.0],[-65.5643,-44.9654,0.3888],[-65.561,-44.9635,0.9051]]],
[[[-65.6668,-44.7696,0.0],[-65.6704,-44.7693,0.0],[-65.6651,-44.7737,0.3045],[-65.6574,-44.776,8.4428],[-65.6535,-44.7754,1.0644],[-65.6551,-44.7737,0.0],[-65.6668,-44.7696,0.0]]],
[[[-65.6421,-44.7682,0.1096],[-65.6435,-44.7676,0.0],[-65.6443,-44.769,0.0],[-65.6401,-44.7718,0.0],[-65.6382,-44.771,0.0],[-65.6396,-44.769,0.0],[-65.6421,-44.7682,0.1096]]],
[[[-65.6501,-44.7674,0.0],[-65.6529,-44.7665,0.0],[-65.6543,-44.7676,0.0],[-65.649,-44.7687,0.0],[-65.6501,-44.7674,0.0]]],
[[[-65.2626,-44.2615,0.0512],[-65.2654,-44.2596,0.4921],[-65.2671,-44.2621,0.0],[-65.2626,-44.2626,0.0512],[-65.2626,-44.2615,0.0512]]],
[[[-66.3435,-45.0535,5.8763],[-66.3446,-45.0518,0.0],[-66.3446,-45.0537,5.8763],[-66.3487,-45.0535,0.0],[-66.3501,-45.0549,0.0],[-66.3429,-45.056,7.3673],[-66.3407,-45.0585,0.0],[-66.3346,-45.0596,0.0],[-66.3346,-45.0568,6.0351],[-66.3365,-45.0557,11.4026],[-66.3335,-45.0546,0.0],[-66.3388,-45.0526,0.0],[-66.3407,-45.0543,7.4087],[-66.3435,-45.0535,5.8763]]],
[[[-66.1082,-44.9982,0.0],[-66.1113,-44.9974,0.0],[-66.1137,-44.999,0.0],[-66.1085,-44.9996,0.0],[-66.1082,-44.9982,0.0]]],
[[[-66.2054,-44.9971,0.0],[-66.204,-44.9974,0.0],[-66.2076,-44.9962,0.0],[-66.2076,-44.9971,0.0],[-66.2054,-44.9971,0.0]]],
[[[-66.1626,-44.9929,0.0],[-66.1646,-44.9921,0.0],[-66.1649,-44.994,4.2402],[-66.1665,-44.9926,0.0],[-66.1674,-44.9938,1.7501],[-66.1629,-44.9968,0.0],[-66.1626,-44.9929,0.0]]],
[[[-66.1049,-44.9918,0.0],[-66.1057,-44.9907,1.0545],[-66.1076,-44.9912,0.0],[-66.1057,-44.9943,0.0],[-66.1049,-44.9918,0.0]]],
[[[-66.1829,-44.9923,0.2714],[-66.184,-44.9904,0.0],[-66.1862,-44.9915,4.4122],[-66.1865,-44.9938,0.0],[-66.1843,-44.9938,0.0],[-66.1829,-44.9923,0.2714]]],
[[[-67.0917,-44.7207,214.2674],[-67.0814,-45.0352,553.9179],[-67.0799,-45.0463,567.8446],[-66.3674,-45.0432,0.0],[-66.359,-45.0401,0.0],[-66.3476,-45.0421,1.8876],[-66.3463,-45.0442,0.7459],[-66.3435,-45.0449,0.0],[-66.3379,-45.0415,0.8313],[-66.3313,-45.0426,6.8548],[-66.3276,-45.0454,1.6329],[-66.3299,-45.0476,0.4941],[-66.3282,-45.0476,4.5168],[-66.326,-45.0507,4.619],[-66.3265,-45.0526,0.0],[-66.3204,-45.0524,0.8307],[-66.3193,-45.0471,1.5646],[-66.3174,-45.0462,4.0947],[-66.3082,-45.0471,3.0432],[-66.3087,-45.0493,4.1133],[-66.3107,-45.0496,0.0],[-66.309,-45.0516,0.0],[-66.3029,-45.051,1.9406],[-66.3001,-45.0468,1.7332],[-66.2924,-45.0462,9.9634],[-66.291,-45.0479,12.4979],[-66.2921,-45.0501,0.0],[-66.2857,-45.0515,0.0],[-66.2862,-45.0526,0.0],[-66.2835,-45.0532,0.0],[-66.2807,-45.059,0.474],[-66.2782,-45.0596,0.0],[-66.2787,-45.056,1.2106],[-66.2763,-45.0565,0.0],[-66.2763,-45.0532,0.0],[-66.2776,-45.0535,2.0979],[-66.2765,-45.0501,0.0],[-66.2679,-45.0465,0.0],[-66.2688,-45.0432,4.6341],[-66.2657,-45.041,3.5618],[-66.2613,-45.0415,0.0],[-66.2618,-45.0399,0.0],[-66.2585,-45.0365,0.0],[-66.2615,-45.0337,0.0],[-66.261,-45.0307,3.337],[-66.2515,-45.0285,0.0],[-66.2518,-45.0332,0.0],[-66.2476,-45.034,0.0],[-66.2474,-45.0321,0.0],[-66.2507,-45.0307,0.7668],[-66.249,-45.0293,0.0],[-66.254,-45.0271,0.0],[-66.2538,-45.0254,0.7169],[-66.2457,-45.0251,0.0],[-66.2457,-45.021,3.148],[-66.2371,-45.0204,8.4985],[-66.2326,-45.0237,0.0],[-66.236,-45.0251,0.0],[-66.2349,-45.0276,0.0],[-66.2307,-45.0312,0.0],[-66.2293,-45.0307,0.0],[-66.2304,-45.0285,2.0397],[-66.2262,-45.0301,0.0],[-66.2243,-45.0271,0.6492],[-66.2288,-45.0229,2.792],[-66.2257,-45.0215,0.0],[-66.2262,-45.0176,0.0],[-66.2324,-45.014,2.2657],[-66.2321,-45.0107,3.6655],[-66.2276,-45.0101,0.0],[-66.2299,-45.0071,5.5565],[-66.2224,-45.0049,0.0],[-66.2199,-45.009,0.0],[-66.2168,-45.0043,3.042],[-66.2074,-45.0029,0.3372],[-66.2087,-45.0018,0.3372],[-66.2076,-44.9982,0.0],[-66.2096,-44.9974,1.886],[-66.2093,-44.9954,2.2893],[-66.2021,-44.989,0.6535],[-66.1979,-44.9885,0.0],[-66.1968,-44.9854,5.96],[-66.1949,-44.9846,0.0],[-66.1954,-44.9832,0.0],[-66.1926,-44.9829,4.4958],[-66.1865,-44.9837,1.3841],[-66.1771,-44.9885,2.4509],[-66.1765,-44.9899,3.4825],[-66.1796,-44.991,0.0],[-66.1796,-44.9929,0.0],[-66.176,-44.9921,2.5664],[-66.1768,-44.9946,0.9929],[-66.1757,-44.9951,0.9344],[-66.179,-44.9971,0.0],[-66.1749,-44.9974,0.0],[-66.1749,-44.999,0.2885],[-66.1726,-44.9996,0.8545],[-66.1738,-45.0035,0.0],[-66.1699,-45.0032,0.0],[-66.1687,-45.0015,0.7613],[-66.1718,-45.0001,1.891],[-66.1726,-44.996,4.5842],[-66.1699,-44.996,2.7237],[-66.1685,-44.9996,0.0],[-66.1651,-44.999,0.0],[-66.1665,-44.9965,0.3172],[-66.1687,-44.9962,2.2462],[-66.1671,-44.9957,0.0],[-66.1682,-44.994,0.0],[-66.171,-44.9935,1.7444],[-66.1676,-44.9899,0.0],[-66.1665,-44.9912,0.0],[-66.1643,-44.9907,0.0],[-66.166,-44.9879,0.0],[-66.1649,-44.9849,0.0],[-66.1601,-44.9843,0.9679],[-66.1576,-44.9849,4.1554],[-66.1607,-44.9863,0.0],[-66.1588,-44.9887,4.2468],[-66.1599,-44.9907,0.0],[-66.151,-44.9954,0.0],[-66.1479,-44.9918,0.0],[-66.1426,-44.9921,0.0],[-66.1435,-44.9901,1.5628],[-66.1396,-44.991,0.4559],[-66.1371,-44.9879,5.9302],[-66.1332,-44.9901,0.0],[-66.134,-44.9887,0.3957],[-66.1318,-44.9885,0.0],[-66.1307,-44.9865,0.0],[-66.1229,-44.9887,0.0],[-66.1196,-44.9863,0.0],[-66.1157,-44.9863,0.0],[-66.1126,-44.9865,0.0],[-66.1085,-44.9896,0.0],[-66.0926,-44.9907,6.3112],[-66.0921,-44.9962,0.0],[-66.084,-44.9996,0.0],[-66.0818,-44.9996,0.0],[-66.0824,-44.9968,1.2485],[-66.0807,-44.9965,0.0],[-66.0829,-44.9924,1.3638],[-66.081,-44.9904,1.5002],[-66.0785,-44.9907,4.2664],[-66.0796,-44.9943,0.0],[-66.0746,-44.9974,0.0],[-66.0729,-44.9949,0.0],[-66.0782,-44.994,0.0],[-66.0779,-44.9924,1.0524],[-66.074,-44.9929,0.0],[-66.0749,-44.9907,0.0],[-66.0718,-44.9921,0.4719],[-66.0699,-44.9982,0.0],[-66.0674,-44.9985,0.0],[-66.0657,-44.9954,0.5094],[-66.0612,-44.9949,0.0],[-66.059,-44.9979,0.0],[-66.0638,-45.0004,0.0],[-66.0635,-45.0035,0.0],[-66.0615,-45.0051,0.0],[-66.0568,-45.0054,0.0],[-66.0565,-45.0043,3.2898],[-66.0507,-45.004,0.0],[-66.0496,-45.0015,0.0],[-66.0424,-45.001,2.2133],[-66.0404,-45.0043,0.0],[-66.0418,-45.0049,0.0],[-66.0418,-45.0074,0.0],[-66.039,-45.0043,0.0],[-66.0315,-45.0037,0.0],[-66.0301,-45.0049,0.0],[-66.0257,-45.0029,5.2157],[-66.0237,-45.0046,0.0],[-66.0113,-45.0068,0.0],[-66.0101,-45.0085,0.0],[-66.004,-45.0062,6.5789],[-65.9865,-45.0187,4.645],[-65.9857,-45.0204,0.0],[-65.9874,-45.0221,0.0],[-65.981,-45.0249,0.0],[-65.9735,-45.0321,5.3841],[-65.9721,-45.0363,0.0],[-65.9654,-45.0393,6.5106],[-65.9632,-45.0438,0.4225],[-65.9604,-45.0454,0.0],[-65.9501,-45.0443,1.4782],[-65.9465,-45.0454,0.0],[-65.9454,-45.0443,2.9465],[-65.9365,-45.0515,0.0],[-65.931,-45.0501,0.0],[-65.921,-45.0429,0.2034],[-65.9185,-45.0438,0.0],[-65.9185,-45.041,0.0],[-65.9151,-45.0426,0.4417],[-65.9129,-45.0493,0.0],[-65.9082,-45.049,0.0],[-65.9085,-45.0471,0.1657],[-65.9121,-45.0468,0.0],[-65.9112,-45.0435,0.0],[-65.9137,-45.0396,0.0],[-65.916,-45.0399,0.8855],[-65.9151,-45.0379,0.0],[-65.9176,-45.0376,0.2282],[-65.9135,-45.0332,0.0],[-65.9071,-45.0365,0.0],[-65.9035,-45.034,0.0],[-65.8979,-45.0365,0.0],[-65.8951,-45.0354,2.1634],[-65.8943,-45.039,0.0],[-65.8921,-45.0404,0.0],[-65.8868,-45.0399,0.0],[-65.8849,-45.036,0.0],[-65.8863,-45.031,2.2391],[-65.8843,-45.029,0.3221],[-65.8929,-45.0235,1.9274],[-65.8926,-45.0215,1.7671],[-65.8899,-45.0204,0.4059],[-65.8904,-45.0179,0.3547],[-65.8951,-45.0132,0.8534],[-65.8926,-45.0082,2.2844],[-65.8746,-45.0024,6.2554],[-65.8693,-45.0049,0.0],[-65.864,-45.0049,0.0],[-65.851,-45.0021,3.0454],[-65.8421,-45.0035,5.7441],[-65.8412,-45.006,1.6225],[-65.8326,-45.0088,1.7501],[-65.829,-45.0126,0.0],[-65.8246,-45.0146,1.5512],[-65.8238,-45.0176,6.2707],[-65.8274,-45.0196,0.0],[-65.8246,-45.0262,0.6042],[-65.8288,-45.0293,0.0],[-65.8299,-45.0324,2.0476],[-65.8343,-45.0326,0.0],[-65.8337,-45.0357,1.2397],[-65.8301,-45.036,2.1037],[-65.8307,-45.0396,0.0],[-65.829,-45.041,0.0],[-65.8249,-45.0401,0.3085],[-65.819,-45.0421,0.0],[-65.8154,-45.0401,0.0],[-65.8112,-45.0404,0.0],[-65.8121,-45.0382,0.0],[-65.8101,-45.0354,1.9125],[-65.8015,-45.032,9.9841],[-65.8015,-45.0279,1.1386],[-65.8051,-45.0254,0.0],[-65.811,-45.0288,5.0595],[-65.8151,-45.0251,0.7658],[-65.8151,-45.0199,0.0],[-65.8101,-45.0163,0.6544],[-65.8065,-45.0157,3.8402],[-65.804,-45.0163,0.0],[-65.804,-45.0187,0.0],[-65.8018,-45.0196,0.0],[-65.8021,-45.0221,0.0],[-65.7993,-45.0251,1.3278],[-65.7971,-45.0262,0.0],[-65.794,-45.0237,1.1185],[-65.7887,-45.031,1.802],[-65.7868,-45.0296,0.0],[-65.7871,-45.0276,14.3416],[-65.7832,-45.0268,1.6853],[-65.7838,-45.0254,8.4637],[-65.7799,-45.0279,5.2006],[-65.7771,-45.0266,0.5084],[-65.7757,-45.0201,1.8903],[-65.7724,-45.0245,1.5097],[-65.7696,-45.0207,5.9522],[-65.7674,-45.0207,6.2055],[-65.7632,-45.0237,0.0],[-65.7368,-45.0251,4.1488],[-65.7321,-45.0296,5.0525],[-65.7376,-45.0312,0.0],[-65.7379,-45.0337,0.3585],[-65.7351,-45.0343,10.5622],[-65.7374,-45.0365,16.7279],[-65.7371,-45.0407,3.3125],[-65.7229,-45.0421,2.5536],[-65.7235,-45.0435,0.0],[-65.7213,-45.0449,0.0],[-65.7149,-45.0462,4.6944],[-65.7096,-45.0443,6.3963],[-65.7007,-45.046,4.8719],[-65.6993,-45.0496,4.5841],[-65.7032,-45.0521,0.4298],[-65.6968,-45.0599,0.0],[-65.6935,-45.061,6.6198],[-65.6935,-45.0635,0.0],[-65.6857,-45.0615,0.0],[-65.6871,-45.0596,7.1766],[-65.6835,-45.0574,0.0],[-65.689,-45.0529,1.1019],[-65.689,-45.0488,0.0871],[-65.6976,-45.0468,3.3055],[-65.6924,-45.0438,0.0],[-65.6899,-45.0401,1.453],[-65.686,-45.0424,0.0],[-65.6843,-45.0418,0.0],[-65.6849,-45.0376,6.9972],[-65.6813,-45.0418,0.0],[-65.6749,-45.0429,16.3587],[-65.6729,-45.0457,0.0],[-65.6679,-45.0435,4.5952],[-65.6599,-45.0457,0.0],[-65.656,-45.0396,0.0],[-65.6537,-45.0399,0.0],[-65.6526,-45.0421,0.8978],[-65.6496,-45.0429,9.5537],[-65.6504,-45.0443,6.9157],[-65.654,-45.0443,0.0],[-65.6537,-45.0474,0.0],[-65.6487,-45.0521,0.0],[-65.6449,-45.0524,0.0],[-65.6435,-45.0501,0.711],[-65.6449,-45.046,0.8451],[-65.6423,-45.0443,0.0],[-65.6424,-45.0412,3.0779],[-65.637,-45.0407,3.5618],[-65.6351,-45.0385,2.2931],[-65.6371,-45.0357,13.579],[-65.6343,-45.0354,2.4655],[-65.6263,-45.0393,0.3911],[-65.6237,-45.0371,3.6098],[-65.6207,-45.0379,1.3865],[-65.6215,-45.036,8.9021],[-65.6182,-45.0365,0.0],[-65.6168,-45.0332,5.4029],[-65.6129,-45.0351,0.0],[-65.6101,-45.0343,0.0],[-65.611,-45.0304,1.6777],[-65.6068,-45.0312,0.0],[-65.6057,-45.0288,0.0],[-65.6071,-45.0271,2.5496],[-65.6029,-45.0285,0.0],[-65.601,-45.0274,0.5435],[-65.6043,-45.0235,5.7976],[-65.6049,-45.0204,0.0],[-65.6093,-45.0165,4.7001],[-65.6121,-45.0151,0.0],[-65.6146,-45.0168,12.8408],[-65.6193,-45.0157,3.0806],[-65.6162,-45.0132,0.0],[-65.6243,-45.0101,6.1539],[-65.6237,-45.006,0.9179],[-65.6204,-45.0024,5.338],[-65.6165,-45.0004,7.5957],[-65.6104,-45.0004,2.6031],[-65.6101,-45.0024,3.2256],[-65.606,-45.004,1.8266],[-65.6062,-45.0076,0.0773],[-65.6029,-45.0043,4.3826],[-65.5882,-45.0082,0.0],[-65.5835,-45.0071,2.937],[-65.5849,-45.0049,0.7697],[-65.5826,-45.001,0.0],[-65.5843,-44.9985,1.8625],[-65.5857,-44.999,9.4559],[-65.5876,-44.996,0.0],[-65.5918,-44.996,11.2549],[-65.5929,-44.9946,11.2549],[-65.591,-44.9924,4.7732],[-65.5893,-44.9926,0.1274],[-65.5888,-44.9907,0.7091],[-65.5837,-44.9915,0.5804],[-65.5888,-44.989,0.0],[-65.5985,-44.9893,3.8057],[-65.6032,-44.9863,7.1975],[-65.6035,-44.9843,0.0768],[-65.6054,-44.9843,0.7873],[-65.6038,-44.9835,0.0768],[-65.6049,-44.9815,0.4011],[-65.6032,-44.9815,0.0],[-65.604,-44.9782,1.4469],[-65.6062,-44.9771,5.0273],[-65.6043,-44.9729,6.1785],[-65.6021,-44.9712,5.9707],[-65.5951,-44.9732,0.0],[-65.5926,-44.9724,0.3756],[-65.5993,-44.9679,0.6871],[-65.5985,-44.9651,4.7941],[-65.5907,-44.9651,0.548],[-65.5943,-44.9568,5.3461],[-65.5821,-44.9604,0.5703],[-65.5771,-44.9588,12.4049],[-65.5746,-44.9621,1.3396],[-65.569,-44.9607,2.0278],[-65.5663,-44.9574,0.5802],[-65.5693,-44.9532,8.6874],[-65.5649,-44.9532,0.7022],[-65.5618,-44.9554,0.0],[-65.5612,-44.9526,0.0],[-65.564,-44.9512,6.0232],[-65.5629,-44.9499,6.0232],[-65.559,-44.9496,0.3981],[-65.5585,-44.9515,0.0],[-65.5565,-44.9518,0.0],[-65.5512,-44.9504,0.0],[-65.5574,-44.9493,3.8852],[-65.5546,-44.9471,3.5264],[-65.5551,-44.9454,7.3124],[-65.5512,-44.9463,0.0],[-65.5482,-44.9435,0.0],[-65.5521,-44.9424,4.7864],[-65.5529,-44.9396,1.2853],[-65.5499,-44.941,10.0347],[-65.5426,-44.9407,9.2228],[-65.5365,-44.9382,0.9892],[-65.5346,-44.9351,5.9202],[-65.5318,-44.9351,0.0],[-65.5399,-44.9287,11.3107],[-65.5329,-44.9304,5.6602],[-65.519,-44.9299,0.0],[-65.5235,-44.9271,6.3787],[-65.5246,-44.9243,0.0],[-65.5329,-44.9218,8.5019],[-65.5365,-44.916,0.0],[-65.5424,-44.9132,10.3936],[-65.5426,-44.9101,0.4961],[-65.5399,-44.9087,1.6489],[-65.536,-44.9096,0.0],[-65.5387,-44.9065,2.8899],[-65.5429,-44.9071,0.1836],[-65.5424,-44.9096,0.4961],[-65.5454,-44.9099,1.2509],[-65.5465,-44.9121,0.6472],[-65.5524,-44.9093,0.0],[-65.5565,-44.9124,1.6076],[-65.5551,-44.9065,0.74],[-65.5615,-44.9062,1.2446],[-65.5612,-44.9051,1.2446],[-65.5585,-44.9049,0.0],[-65.5585,-44.9035,0.0],[-65.5674,-44.9024,1.8547],[-65.5693,-44.9029,0.0],[-65.5693,-44.9051,5.1372],[-65.574,-44.9057,3.6906],[-65.5713,-44.9007,5.2637],[-65.5687,-44.9001,0.0],[-65.5721,-44.8954,0.2632],[-65.5776,-44.8963,3.5467],[-65.5862,-44.8949,0.0],[-65.5921,-44.8976,0.5369],[-65.5932,-44.9007,1.2298],[-65.5912,-44.9026,4.238],[-65.5979,-44.9032,0.0],[-65.5987,-44.9074,0.7278],[-65.6018,-44.9068,2.3054],[-65.606,-44.9085,2.765],[-65.6076,-44.9038,2.4189],[-65.6032,-44.9035,0.0],[-65.601,-44.9007,1.6365],[-65.6026,-44.8985,1.2384],[-65.6068,-44.8979,0.0],[-65.606,-44.896,0.0],[-65.6079,-44.8946,0.0],[-65.6074,-44.8932,0.0],[-65.6115,-44.8913,3.343],[-65.6121,-44.8893,0.0],[-65.6137,-44.8918,7.5089],[-65.6162,-44.8868,0.0],[-65.6207,-44.8851,0.8677],[-65.6226,-44.886,0.1485],[-65.6237,-44.8907,3.8185],[-65.626,-44.8896,8.2681],[-65.6254,-44.8868,5.0435],[-65.6274,-44.8835,1.6835],[-65.6312,-44.884,0.0],[-65.6315,-44.8865,8.0504],[-65.6332,-44.8868,7.0858],[-65.634,-44.8851,5.9572],[-65.6329,-44.8843,1.012],[-65.6346,-44.8835,1.012],[-65.6393,-44.884,0.0],[-65.6471,-44.8882,8.9528],[-65.6513,-44.8876,0.0],[-65.6524,-44.891,0.0],[-65.6568,-44.8899,2.1048],[-65.6565,-44.891,2.1048],[-65.6593,-44.891,0.0],[-65.6601,-44.8879,0.0],[-65.6615,-44.8907,2.6283],[-65.6663,-44.8901,6.3628],[-65.6718,-44.8857,0.0],[-65.6721,-44.884,6.7928],[-65.6687,-44.8838,0.5887],[-65.669,-44.8818,1.0382],[-65.6729,-44.8815,2.6963],[-65.6743,-44.8785,0.5317],[-65.6829,-44.8785,0.0],[-65.6862,-44.8804,1.9201],[-65.6871,-44.8735,0.801],[-65.6951,-44.8724,0.0],[-65.6974,-44.876,0.0],[-65.7035,-44.876,1.3392],[-65.7079,-44.8712,0.0],[-65.7126,-44.8696,1.2859],[-65.7151,-44.864,3.7806],[-65.7237,-44.8571,6.1097],[-65.724,-44.854,1.3414],[-65.7282,-44.8482,2.5927],[-65.7282,-44.8415,3.6391],[-65.724,-44.8376,4.5042],[-65.7213,-44.8376,3.8194],[-65.721,-44.8404,0.1881],[-65.7193,-44.8413,0.0],[-65.7174,-44.8401,0.0],[-65.7218,-44.8335,1.0689],[-65.7249,-44.8332,4.2364],[-65.7293,-44.8151,1.0779],[-65.7271,-44.8082,0.0],[-65.7249,-44.8087,0.0],[-65.7149,-44.8032,0.0],[-65.7026,-44.8021,0.2582],[-65.6988,-44.8037,0.0],[-65.7018,-44.8007,0.0],[-65.7026,-44.7962,0.0],[-65.6974,-44.7882,1.037],[-65.6976,-44.7785,7.7992],[-65.694,-44.7707,0.0],[-65.6965,-44.7399,2.4961],[-65.6901,-44.7201,0.0],[-65.6776,-44.7035,0.0],[-65.6699,-44.6985,2.6551],[-65.6704,-44.6963,7.5569],[-65.6674,-44.6901,0.0],[-65.6574,-44.6804,1.204],[-65.6349,-44.6646,2.4241],[-65.621,-44.6599,0.0],[-65.6104,-44.6501,3.445],[-65.6079,-44.6521,0.0],[-65.6085,-44.6487,2.3788],[-65.5987,-44.6446,0.0],[-65.596,-44.6454,0.0],[-65.5965,-44.6437,1.3322],[-65.5918,-44.6424,6.3038],[-65.5851,-44.6424,6.4482],[-65.5826,-44.6443,3.1942],[-65.5824,-44.6471,0.5942],[-65.5846,-44.6471,0.0],[-65.5835,-44.6521,0.0],[-65.5807,-44.6499,0.0],[-65.5738,-44.649,0.0],[-65.5743,-44.6476,4.3833],[-65.569,-44.6482,0.0],[-65.5665,-44.646,0.0],[-65.5729,-44.646,0.0],[-65.5721,-44.644,0.0],[-65.5501,-44.6251,0.4424],[-65.5188,-44.6093,7.3545],[-65.5085,-44.6085,0.0],[-65.5013,-44.6043,6.9297],[-65.4951,-44.6037,1.9794],[-65.4868,-44.604,6.7283],[-65.486,-44.6057,0.4589],[-65.4837,-44.6057,2.2281],[-65.4837,-44.6085,0.0],[-65.4804,-44.6065,0.0],[-65.4824,-44.606,0.2083],[-65.4826,-44.6035,1.9548],[-65.4788,-44.5999,1.8316],[-65.4751,-44.5993,7.1552],[-65.4726,-44.6024,0.0],[-65.4729,-44.5996,0.2488],[-65.4715,-44.5988,2.2586],[-65.4671,-44.6001,0.463],[-65.4665,-44.604,0.0],[-65.4643,-44.604,0.0],[-65.4604,-44.5996,0.0],[-65.464,-44.5985,0.0],[-65.4643,-44.5943,3.1424],[-65.4629,-44.5935,0.5238],[-65.4596,-44.5957,0.0],[-65.459,-44.5932,0.0],[-65.4635,-44.5921,0.4654],[-65.464,-44.5901,0.0],[-65.4676,-44.5918,4.4263],[-65.4696,-44.5829,3.5253],[-65.4618,-44.5762,5.2283],[-65.4538,-44.5749,1.3621],[-65.451,-44.5765,0.0],[-65.4512,-44.5785,0.0],[-65.4496,-44.5785,0.0],[-65.4496,-44.5754,0.0],[-65.4465,-44.576,0.0],[-65.446,-44.5729,7.0514],[-65.4393,-44.5735,0.0],[-65.4365,-44.5707,3.0621],[-65.4293,-44.5701,0.0],[-65.426,-44.5704,2.399],[-65.4271,-44.5735,0.0],[-65.424,-44.574,3.5652],[-65.4238,-44.5757,0.0],[-65.4199,-44.5732,0.0],[-65.4154,-44.5732,0.3449],[-65.4132,-44.5749,1.366],[-65.4143,-44.579,0.5603],[-65.4101,-44.5799,1.063],[-65.4085,-44.5826,0.0],[-65.4104,-44.5857,0.0],[-65.4001,-44.5879,1.2729],[-65.3962,-44.5951,0.0],[-65.3915,-44.5988,0.0],[-65.3907,-44.5974,0.0],[-65.394,-44.5937,0.0],[-65.3907,-44.5913,0.0],[-65.391,-44.5854,0.7084],[-65.3893,-44.5812,4.2681],[-65.3871,-44.5788,3.057],[-65.3851,-44.5804,0.0],[-65.384,-44.5774,3.0066],[-65.3818,-44.5762,6.8763],[-65.3751,-44.5768,4.2087],[-65.3729,-44.584,0.3855],[-65.3757,-44.5882,0.0],[-65.3649,-44.5893,0.0],[-65.3651,-44.586,0.0],[-65.3685,-44.5846,1.877],[-65.369,-44.5826,1.5845],[-65.361,-44.581,0.0],[-65.3562,-44.5762,0.1601],[-65.3574,-44.5732,1.8039],[-65.3668,-44.571,0.0273],[-65.3679,-44.5704,1.0968],[-65.3671,-44.5693,0.0],[-65.3701,-44.5693,0.0],[-65.3735,-44.5657,0.7518],[-65.3821,-44.5671,7.1018],[-65.381,-44.566,0.0],[-65.384,-44.5635,0.0],[-65.3887,-44.5618,0.48],[-65.3924,-44.5626,9.5955],[-65.391,-44.5593,0.0],[-65.3929,-44.5587,0.7596],[-65.3918,-44.5568,0.0],[-65.394,-44.5549,0.0],[-65.3924,-44.5493,3.2709],[-65.3863,-44.5438,0.8226],[-65.3829,-44.5429,1.9297],[-65.3818,-44.5407,8.8481],[-65.3779,-44.5432,0.5991],[-65.3737,-44.5404,0.6934],[-65.3715,-44.5415,0.0],[-65.3718,-44.5429,0.0],[-65.3668,-44.5435,0.0],[-65.359,-44.5382,0.0],[-65.3607,-44.5329,0.0],[-65.3704,-44.5329,0.0],[-65.3743,-44.5312,8.9511],[-65.3721,-44.5271,1.1575],[-65.3771,-44.524,0.0],[-65.3774,-44.5226,10.5213],[-65.371,-44.5221,0.0],[-65.3726,-44.5204,2.0175],[-65.3754,-44.521,2.176],[-65.3763,-44.5182,2.0745],[-65.3685,-44.5154,0.0],[-65.3682,-44.5124,4.895],[-65.3585,-44.5121,8.4908],[-65.3599,-44.5165,0.0578],[-65.3574,-44.5179,0.5928],[-65.3524,-44.5135,0.0],[-65.3551,-44.5112,7.0264],[-65.3518,-44.5088,1.1367],[-65.3482,-44.5088,6.9913],[-65.3487,-44.5112,2.865],[-65.3465,-44.5112,0.4953],[-65.346,-44.5082,1.2395],[-65.3443,-44.5076,2.3777],[-65.3285,-44.5074,6.0354],[-65.3246,-44.5101,0.747],[-65.3226,-44.5151,0.0],[-65.3187,-44.5157,0.6028],[-65.3238,-44.5215,0.7152],[-65.3221,-44.5235,0.0265],[-65.3246,-44.5262,0.0],[-65.3229,-44.5304,0.0],[-65.3199,-44.5318,0.0],[-65.3168,-44.531,6.1087],[-65.3179,-44.5329,0.9751],[-65.3151,-44.5335,0.0],[-65.3132,-44.5335,0.0],[-65.3149,-44.5296,0.2406],[-65.3143,-44.5262,1.3451],[-65.3115,-44.5251,0.0],[-65.3101,-44.5207,4.4022],[-65.3112,-44.5168,0.1087],[-65.3071,-44.5149,1.32],[-65.3026,-44.5174,0.0],[-65.3007,-44.511,5.8718],[-65.2968,-44.5115,0.7076],[-65.2979,-44.5143,0.0],[-65.2932,-44.5193,0.0],[-65.2904,-44.5176,0.0],[-65.294,-44.5154,5.3814],[-65.2782,-44.519,0.0],[-65.279,-44.5146,1.7374],[-65.2768,-44.5135,0.0],[-65.2768,-44.5115,1.2118],[-65.2807,-44.5112,0.0],[-65.2829,-44.509,0.0],[-65.286,-44.5099,10.8286],[-65.2871,-44.5062,6.5467],[-65.2857,-44.5051,0.3558],[-65.2882,-44.5043,0.0],[-65.2882,-44.5018,0.2871],[-65.284,-44.4979,7.6628],[-65.2835,-44.4935,5.0808],[-65.2985,-44.4887,0.7303],[-65.2985,-44.4921,4.9127],[-65.3082,-44.4907,0.3845],[-65.3093,-44.4943,7.6345],[-65.3121,-44.4949,8.7102],[-65.319,-44.4918,6.0959],[-65.3221,-44.4885,7.2232],[-65.3226,-44.4846,2.543],[-65.3185,-44.4846,0.0],[-65.3154,-44.481,0.0],[-65.3163,-44.4793,9.8507],[-65.3143,-44.4785,0.7116],[-65.3157,-44.4771,0.1103],[-65.314,-44.4749,3.57],[-65.3099,-44.474,0.8568],[-65.311,-44.4671,1.4731],[-65.3129,-44.4674,0.0],[-65.3149,-44.4649,0.4575],[-65.319,-44.4657,2.0637],[-65.3229,-44.4635,0.7662],[-65.3249,-44.466,1.1752],[-65.3279,-44.4651,3.1091],[-65.3285,-44.4629,0.0],[-65.331,-44.4637,5.6508],[-65.3335,-44.4596,1.8495],[-65.3337,-44.4554,0.5336],[-65.3313,-44.4532,0.7611],[-65.3299,-44.4551,0.0],[-65.3293,-44.4526,5.3142],[-65.3271,-44.4529,2.1316],[-65.3274,-44.4493,7.8089],[-65.3204,-44.4479,6.2955],[-65.3201,-44.4504,0.0],[-65.3168,-44.4507,0.0],[-65.3143,-44.446,0.237],[-65.3165,-44.4435,1.9575],[-65.3104,-44.4429,6.3839],[-65.3104,-44.4443,0.0],[-65.3043,-44.4415,0.0],[-65.3071,-44.4401,0.1611],[-65.3076,-44.436,0.0],[-65.3118,-44.4365,9.7302],[-65.3107,-44.4351,1.1003],[-65.3118,-44.4343,10.0622],[-65.3087,-44.434,0.0],[-65.3124,-44.431,3.0142],[-65.3118,-44.4279,7.7381],[-65.3074,-44.4296,0.0],[-65.3051,-44.424,4.0116],[-65.3007,-44.4251,-0.0852],[-65.2996,-44.4293,0.0],[-65.3007,-44.4315,0.0],[-65.2965,-44.4307,0.0],[-65.2968,-44.4287,1.7011],[-65.2862,-44.4321,0.0],[-65.2829,-44.4313,0.0],[-65.2818,-44.4287,0.0995],[-65.2829,-44.4276,0.0],[-65.2915,-44.4268,13.3255],[-65.2899,-44.4246,0.0],[-65.2918,-44.4226,8.5927],[-65.281,-44.4238,0.0],[-65.2799,-44.4224,-0.0175],[-65.2812,-44.4201,1.9882],[-65.2754,-44.4221,0.0],[-65.276,-44.4193,0.0],[-65.2796,-44.4185,5.219],[-65.2774,-44.4165,0.0],[-65.2804,-44.4168,0.0905],[-65.2796,-44.4146,0.0],[-65.2826,-44.4157,0.0],[-65.2812,-44.4137,0.0],[-65.2849,-44.4124,2.1662],[-65.2846,-44.4101,1.2645],[-65.2804,-44.4093,4.3526],[-65.2807,-44.4115,0.0],[-65.2774,-44.4093,2.5285],[-65.2749,-44.4113,0.0],[-65.274,-44.4062,4.9446],[-65.2685,-44.4068,0.0],[-65.2679,-44.401,0.1253],[-65.2637,-44.399,0.0],[-65.2671,-44.3957,5.7295],[-65.2668,-44.3935,8.6477],[-65.2588,-44.3871,6.9453],[-65.256,-44.3871,3.2254],[-65.254,-44.3893,1.0997],[-65.2465,-44.3876,0.3679],[-65.2396,-44.389,0.0],[-65.2351,-44.3879,0.4],[-65.2304,-44.381,0.0],[-65.2257,-44.379,0.0],[-65.2324,-44.3765,3.4862],[-65.2321,-44.3724,8.7681],[-65.2243,-44.3701,0.158],[-65.219,-44.3721,0.0],[-65.2165,-44.3679,0.6932],[-65.214,-44.3671,0.0],[-65.2221,-44.3618,2.5248],[-65.2196,-44.3554,0.0],[-65.2232,-44.3543,1.2263],[-65.2226,-44.3524,0.4548],[-65.2262,-44.3499,8.4615],[-65.2229,-44.3449,0.0233],[-65.2246,-44.3413,3.6661],[-65.2229,-44.3382,0.4844],[-65.226,-44.3338,0.5625],[-65.2321,-44.3335,0.0752],[-65.2365,-44.3365,5.6837],[-65.2399,-44.3357,0.0],[-65.2421,-44.3376,0.353],[-65.2468,-44.3374,1.6743],[-65.2535,-44.3329,0.0],[-65.2593,-44.326,6.4671],[-65.2613,-44.316,4.7],[-65.2524,-44.3104,0.1056],[-65.2521,-44.3076,0.0209],[-65.2624,-44.3067,5.3539],[-65.2679,-44.3026,1.737],[-65.2746,-44.2837,0.0],[-65.2746,-44.2801,0.0],[-65.2693,-44.276,0.0],[-65.2698,-44.2701,0.0],[-65.2768,-44.2685,7.38],[-65.2846,-44.2635,4.9534],[-65.2993,-44.2485,1.2526],[-65.3032,-44.2418,5.7496],[-65.3101,-44.2229,7.6357],[-65.3115,-44.211,3.5824],[-65.311,-44.1971,6.493],[-65.3071,-44.1824,1.5267],[-65.2982,-44.1688,0.0],[-65.2979,-44.1657,3.6155],[-65.2962,-44.1662,1.1383],[-65.2885,-44.1576,0.0],[-65.2807,-44.1543,0.0],[-65.2765,-44.1476,6.1795],[-65.2615,-44.1449,0.5675],[-65.259,-44.148,0.0],[-65.2554,-44.1454,0.2054],[-65.2526,-44.1454,0.7241],[-65.2518,-44.1485,0.0],[-65.2482,-44.1471,1.9365],[-65.2399,-44.1479,2.5872],[-65.2387,-44.1465,0.0],[-65.2326,-44.1463,0.0],[-65.2318,-44.1437,9.6536],[-65.2293,-44.1449,0.0],[-65.2279,-44.141,5.0829],[-65.2207,-44.1393,0.0],[-65.221,-44.1374,0.1963],[-65.2193,-44.1368,0.1963],[-65.2204,-44.1354,0.0],[-65.2176,-44.1324,0.4574],[-65.2196,-44.1304,1.766],[-65.2157,-44.129,1.172],[-65.2171,-44.1268,8.8887],[-65.216,-44.1257,1.9781],[-65.2179,-44.1243,1.8177],[-65.2168,-44.1237,0.0],[-65.2176,-44.1215,0.8153],[-65.2249,-44.119,0.0],[-65.2293,-44.1196,3.4257],[-65.2293,-44.1182,0.0],[-65.2318,-44.1185,8.4015],[-65.2337,-44.1162,13.4792],[-65.2301,-44.1154,1.2332],[-65.2301,-44.1121,0.3296],[-65.2335,-44.1113,2.319],[-65.2351,-44.1082,0.0],[-65.2335,-44.1024,0.1805],[-65.2304,-44.1001,0.0],[-65.2337,-44.0988,1.9125],[-65.231,-44.0949,0.0],[-65.2368,-44.0949,4.162],[-65.2401,-44.0901,10.1038],[-65.2393,-44.076,0.0],[-65.2357,-44.0701,0.9947],[-65.2288,-44.0657,0.0],[-65.2182,-44.0618,0.0],[-65.2176,-44.059,2.3623],[-65.2157,-44.0579,0.3099],[-65.2179,-44.0551,1.9644],[-65.2165,-44.049,4.968],[-65.2093,-44.0482,0.0],[-65.206,-44.046,0.0],[-65.2093,-44.0418,5.1608],[-65.1949,-44.0421,0.0],[-65.189,-44.039,0.8919],[-65.1868,-44.0349,1.547],[-65.1915,-44.0349,1.0983],[-65.1926,-44.0368,4.9125],[-65.196,-44.0363,2.7564],[-65.201,-44.0385,6.7179],[-65.2043,-44.0368,0.68],[-65.2101,-44.0371,0.2624],[-65.2129,-44.0407,4.5016],[-65.2115,-44.0424,5.3699],[-65.2162,-44.0424,0.0],[-65.2174,-44.044,1.1216],[-65.2213,-44.0432,0.0],[-65.2246,-44.0449,5.9437],[-65.2382,-44.0376,1.1797],[-65.2476,-44.0285,0.0],[-65.2518,-44.0271,1.1288],[-65.249,-44.0221,0.0],[-65.2524,-44.0224,6.7752],[-65.2513,-44.0193,0.0],[-65.2532,-44.0165,1.1457],[-65.2515,-44.014,0.0],[-65.2529,-44.0135,2.4862],[-65.2485,-44.0121,1.0924],[-65.2487,-44.0104,11.2754],[-65.2457,-44.0101,0.0],[-65.246,-44.0076,0.0],[-65.2485,-44.0043,0.0],[-65.2507,-44.0054,4.2995],[-65.251,-44.0021,0.4428],[-65.2546,-44.0004,3.0481],[-65.2571,-43.9949,7.7199],[-65.2504,-43.9824,1.3878],[-65.246,-43.9793,3.1163],[-65.2435,-43.9793,7.5838],[-65.2412,-43.9826,0.0],[-65.2379,-43.9801,0.1539],[-65.2376,-43.9776,4.7046],[-65.2321,-43.9801,0.0],[-65.2293,-43.9779,0.0],[-65.2301,-43.9726,2.0463],[-65.2343,-43.9696,2.1726],[-65.2404,-43.971,3.4826],[-65.2407,-43.969,0.0],[-65.2471,-43.9676,0.0],[-65.2499,-43.9676,0.0],[-65.2504,-43.9699,1.482],[-65.2532,-43.971,0.0],[-65.2635,-43.966,0.0],[-65.2685,-43.9685,0.8066],[-65.2721,-43.9682,0.8359],[-65.276,-43.966,0.0],[-65.2763,-43.9637,0.0],[-65.2807,-43.9635,0.6803],[-65.2879,-43.9499,1.3456],[-65.2865,-43.9485,0.0],[-65.2871,-43.9465,1.3197],[-65.2899,-43.9449,1.7664],[-65.2899,-43.9424,0.0],[-65.2929,-43.9412,2.182],[-65.2915,-43.9379,0.0],[-65.2949,-43.9388,5.4938],[-65.299,-43.934,0.0],[-65.3001,-43.9285,8.4753],[-65.2988,-43.9271,0.0],[-65.3007,-43.9238,6.8627],[-65.2985,-43.9204,0.0],[-65.3015,-43.9199,12.3871],[-65.3026,-43.9162,8.6739],[-65.299,-43.9143,0.0],[-65.3024,-43.9137,5.9808],[-65.3029,-43.909,0.0],[-65.3054,-43.9062,0.3479],[-65.3035,-43.9054,0.0],[-65.3051,-43.904,0.0],[-65.3046,-43.9004,0.0],[-65.3087,-43.8971,0.0],[-65.3093,-43.8918,0.0],[-65.3107,-43.891,4.6388],[-65.3099,-43.8854,1.2346],[-65.311,-43.8826,0.0],[-65.314,-43.8807,7.0335],[-65.3126,-43.8787,0.0],[-65.316,-43.8746,7.7318],[-65.3154,-43.8712,0.0],[-65.3165,-43.8712,1.569],[-65.3171,-43.8671,1.0684],[-65.3157,-43.8624,0.0],[-65.3182,-43.8571,0.0],[-65.3218,-43.8568,0.0],[-65.3221,-43.8546,0.6872],[-65.3251,-43.8535,1.6158],[-65.3276,-43.8462,1.4191],[-65.3276,-43.844,0.0],[-65.3224,-43.841,0.0],[-65.3229,-43.8387,0.0],[-65.3251,-43.8385,0.0],[-65.3257,-43.8326,0.0],[-65.3229,-43.8288,0.0],[-65.3218,-43.8221,0.0],[-65.3199,-43.8218,0.0],[-65.3199,-43.819,0.0],[-65.3229,-43.816,1.8739],[-65.3201,-43.8101,1.6325],[-65.3218,-43.8085,0.0],[-65.3154,-43.8054,0.0],[-65.3151,-43.8024,0.0],[-65.3096,-43.796,0.0],[-65.3132,-43.7893,0.0],[-65.3174,-43.7874,0.0],[-65.3196,-43.7815,0.0],[-65.3257,-43.7793,0.0],[-65.331,-43.7807,2.1103],[-65.3368,-43.7776,0.0],[-65.3388,-43.7788,6.573],[-65.3401,-43.7768,0.0],[-65.3482,-43.7762,0.0],[-65.3504,-43.7729,0.0],[-65.3499,-43.7704,0.0],[-65.3526,-43.769,0.0],[-65.3529,-43.7587,39.2559],[-66.097,-43.7756,286.9341],[-66.4593,-43.782,149.4392],[-66.4577,-43.7849,133.1593],[-66.4563,-43.7985,126.0],[-66.4443,-43.8118,126.0],[-66.4357,-43.8177,165.9783],[-66.4324,-43.8235,203.4613],[-66.4309,-43.8321,245.9087],[-66.434,-43.8391,178.7986],[-66.4325,-43.8581,252.9715],[-66.4354,-43.8695,241.6913],[-66.4393,-43.8752,273.103],[-66.4683,-43.8961,212.796],[-66.475,-43.9043,127.875],[-66.4778,-43.9157,128.0],[-66.4783,-43.9485,226.7761],[-66.4801,-43.9569,205.1982],[-66.4839,-43.9638,134.9715],[-66.4903,-43.9709,196.4925],[-66.4994,-43.9763,207.9334],[-66.5263,-43.9847,162.3942],[-66.541,-43.9916,220.1319],[-66.5495,-43.9929,202.5376],[-66.5759,-43.9915,195.8931],[-66.5834,-44.0005,132.7411],[-66.5947,-44.0088,173.0408],[-66.6006,-44.0162,182.4655],[-66.6048,-44.019,155.6723],[-66.6183,-44.0236,185.6566],[-66.6237,-44.0203,174.7893],[-66.6298,-44.0198,219.76],[-66.6547,-44.0555,208.5895],[-66.6759,-44.0744,155.4777],[-66.682,-44.0829,206.8336],[-66.68,-44.0921,180.8629],[-66.6855,-44.1032,241.5851],[-66.6753,-44.1218,258.7193],[-66.6747,-44.1365,230.9729],[-66.6904,-44.1762,183.2333],[-66.6945,-44.1917,177.5293],[-66.6969,-44.195,154.001],[-66.7138,-44.2033,239.0538],[-66.7267,-44.2163,236.426],[-66.743,-44.2285,227.2188],[-66.7604,-44.2341,231.4391],[-66.7758,-44.2423,259.0632],[-66.7989,-44.2628,273.0763],[-66.807,-44.2764,198.2506],[-66.8109,-44.2798,184.7917],[-66.8065,-44.2941,166.8318],[-66.8067,-44.3259,201.1309],[-66.8094,-44.3416,203.0073],[-66.8143,-44.3527,196.3366],[-66.8245,-44.3655,200.9645],[-66.834,-44.3866,206.2778],[-66.8605,-44.4145,173.4501],[-66.8703,-44.4224,202.7572],[-66.8797,-44.4275,192.358],[-66.8952,-44.4479,177.2637],[-66.9089,-44.4575,186.5133],[-66.9171,-44.4687,185.7213],[-66.9313,-44.4809,201.3694],[-66.9387,-44.4958,198.1195],[-66.9391,-44.5107,198.4944],[-66.9407,-44.5147,190.0498],[-66.9474,-44.5202,192.2484],[-66.9614,-44.5232,220.4609],[-66.9683,-44.5313,215.8073],[-66.9681,-44.5377,198.213],[-66.9606,-44.5455,192.8372],[-66.959,-44.5518,186.5458],[-66.9623,-44.5588,193.9117],[-66.9695,-44.5655,194.0423],[-66.9692,-44.5803,198.0723],[-66.9729,-44.5905,197.7487],[-66.9949,-44.6116,192.5927],[-67.0089,-44.6357,193.9227],[-67.0158,-44.6519,197.5672],[-67.0248,-44.6552,197.1343],[-67.0317,-44.6619,198.1549],[-67.044,-44.6655,197.105],[-67.0491,-44.6693,195.3037],[-67.059,-44.6844,196.3579],[-67.0595,-44.6897,196.8675],[-67.0625,-44.6927,196.7548],[-67.0665,-44.7018,197.5594],[-67.0782,-44.7154,198.6151],[-67.0917,-44.7207,214.2674]]]]}
,"properties": {"GID_2": "ARG.4.4_1","GID_0": "ARG","country": "Argentina","GID_1": "ARG.4_1","state": "Chubut","NL_NAME_1": "NA","county": "FlorentinoAmeghino","VARNAME_2": "Camarones","NL_NAME_2": "NA","TYPE_2": "Departamento","ENGTYPE_2": "Department","CC_2": "NA","HASC_2": "AR.CH.FA","name": "FlorentinoAmeghino.county","area_km2": 15875.52,"hist_schema_id": "Elevation0-9000","hist_area_km2": {"0": 222.26,"25": 574.64,"50": 664.26,"75": 682.49,"100": 656.34,"125": 551.6,"150": 458.98,"175": 428.71,"200": 499.05,"225": 585.1,"250": 1083.81,"275": 1685.61,"300": 1860.15,"325": 1499.75,"350": 1060.89,"375": 1270.35,"400": 1015.9,"425": 490.94,"450": 228.67,"475": 151.64,"500": 81.76,"525": 90.4,"550": 30.78,"575": 1.44}}}