{"type": "Feature","bbox": [-62.6377,-35.1614,-62.0882,-34.6145],"geometry": {"type": "MultiPolygon","coordinates": [[[[-62.2746,-35.1503,99.7577],[-62.1705,-35.0648,111.1473],[-62.1817,-35.0526,116.9951],[-62.0882,-34.9758,110.0468],[-62.1957,-34.8779,106.443],[-62.2217,-34.8768,101.8171],[-62.2233,-34.8337,103.2346],[-62.2817,-34.8325,101.8126],[-62.285,-34.7914,100.2859],[-62.3031,-34.7893,100.5022],[-62.2606,-34.7586,98.0],[-62.2754,-34.7401,100.4103],[-62.2011,-34.6791,100.4532],[-62.58,-34.6145,108.2269],[-62.5909,-34.6528,108.3566],[-62.6079,-34.6371,109.1316],[-62.621,-34.6336,109.4226],[-62.6156,-34.8904,109.4852],[-62.6097,-34.8891,109.0576],[-62.605,-34.9947,106.2313],[-62.6377,-34.9972,107.0398],[-62.5441,-35.0775,102.837],[-62.4657,-35.0146,103.8952],[-62.2881,-35.1614,98.3385],[-62.2746,-35.1503,99.7577]]]]}
,"properties": {"GID_2": "ARG.1.5_1","GID_0": "ARG","country": "Argentina","GID_1": "ARG.1_1","state": "BuenosAires","NL_NAME_1": "NA","county": "Ameghino","VARNAME_2": "NA","NL_NAME_2": "NA","TYPE_2": "Partido","ENGTYPE_2": "Part","CC_2": "NA","HASC_2": "NA","name": "Ameghino.county","area_km2": 1838.295,"hist_schema_id": "Elevation0-9000","hist_area_km2": {"100": 1576.318,"125": 261.89,"150": 0.087}}}