{"type": "Feature","bbox": [-70.0937,-33.3963,-68.6286,-32.6331],"geometry": {"type": "MultiPolygon","coordinates": [[[[-68.8781,-32.9562,933.2946],[-68.8784,-32.9669,932.0535],[-68.9075,-32.9966,976.6877],[-68.934,-33.0108,1029.4783],[-68.9647,-33.0228,1082.3621],[-68.9975,-33.0397,1083.6886],[-69.0232,-33.0427,1088.3898],[-69.0657,-33.0439,1183.5735],[-69.0831,-33.0489,1162.6375],[-69.0955,-33.0458,1185.1393],[-69.1077,-33.0338,1265.4303],[-69.1197,-33.0168,1341.0239],[-69.126,-33.0016,1282.8684],[-69.1357,-32.9915,1375.0],[-69.1685,-32.9718,1375.0],[-69.1939,-32.9489,1375.0],[-69.2306,-32.9207,1494.1501],[-69.2389,-32.9172,1453.3973],[-69.2572,-32.9136,1470.4641],[-69.265,-32.9097,1463.6824],[-69.2672,-32.9021,1523.4858],[-69.2647,-32.8865,1582.0725],[-69.2714,-32.8747,1565.7056],[-69.2734,-32.8512,1987.0129],[-69.2784,-32.8448,1781.1951],[-69.3017,-32.8236,1656.4397],[-69.3195,-32.7991,1664.3699],[-69.3269,-32.7765,1741.6761],[-69.3288,-32.7477,1849.8672],[-69.334,-32.7246,1709.4197],[-69.3592,-32.6857,1716.2737],[-69.3746,-32.6729,1762.366],[-69.3853,-32.6601,1781.0768],[-69.4023,-32.6487,1812.2371],[-69.4393,-32.6356,1863.5386],[-69.4514,-32.6332,1882.3154],[-69.4637,-32.6331,1897.6223],[-69.4793,-32.6347,1919.3611],[-69.4903,-32.6436,1939.0327],[-69.4948,-32.6504,1972.8708],[-69.5195,-32.7041,2137.5854],[-69.5257,-32.7131,2337.0059],[-69.5365,-32.7226,2124.3352],[-69.5527,-32.7347,2106.0144],[-69.5733,-32.7463,2102.5356],[-69.5861,-32.7576,2082.8999],[-69.5966,-32.7631,2151.3984],[-69.6074,-32.7724,2403.2534],[-69.6435,-32.7875,2246.9014],[-69.6753,-32.8123,2230.2891],[-69.7026,-32.8244,2448.3787],[-69.7119,-32.8314,2352.2749],[-69.7382,-32.845,2400.3806],[-69.7714,-32.8517,2890.5454],[-69.7868,-32.8509,3044.2832],[-69.862799999999993,-32.8287,3000.6074],[-69.8781,-32.8265,2698.353],[-69.9194,-32.8156,2992.9795],[-69.9377,-32.813,2973.7112],[-69.9901,-32.8168,2938.415],[-70.0128,-32.8086,3401.1597],[-70.0282,-32.807,3504.8228],[-70.0609,-32.8116,3192.074],[-70.0838,-32.8126,3853.5837],[-70.0824,-32.8179,3899.625],[-70.0783,-32.8233,3841.624],[-70.0555,-32.8316,4201.2729],[-70.0523,-32.8375,4475.8633],[-70.0543,-32.8384,4510.0605],[-70.0545,-32.8463,4498.7056],[-70.0559,-32.8477,4514.7114],[-70.0546,-32.851,4401.9766],[-70.0565,-32.857,4579.3691],[-70.0525,-32.8614,4355.002],[-70.0469,-32.8646,4582.522],[-70.0434,-32.869,4316.2988],[-70.0344,-32.8738,4256.0776],[-70.0231,-32.8766,4807.2329],[-70.017,-32.88,4812.9829],[-70.0024,-32.882,5107.6392],[-69.992,-32.8934,4756.0439],[-69.9889,-32.9019,4312.4424],[-69.9914,-32.9119,4488.8271],[-70.0022,-32.92,4547.3145],[-70.0048,-32.9242,4756.4434],[-70.0043,-32.9271,4654.8477],[-70.0073,-32.9303,4541.5928],[-70.0033,-32.9401,4727.9033],[-70.0,-32.9441,4824.3677],[-70.0011,-32.9466,4796.5708],[-70.0047,-32.9481,4859.5615],[-70.0087,-32.9532,5150.7754],[-70.0203,-32.9564,4927.3457],[-70.0213,-32.965,5025.9009],[-70.0275,-32.9699,5031.3711],[-70.0249,-32.9741,5088.8408],[-70.0254,-32.9777,4965.9619],[-70.0221,-32.981,4898.0645],[-70.0225,-32.9975,4301.9834],[-70.0199,-33.0073,4167.8843],[-70.0276,-33.0122,4381.3394],[-70.0281,-33.0164,4503.9062],[-70.035,-33.0232,4624.8223],[-70.0437,-33.0235,4538.0674],[-70.0504,-33.0261,4468.6543],[-70.0536,-33.0295,4709.4473],[-70.068,-33.0277,4994.7617],[-70.0813,-33.0287,5358.7119],[-70.0822,-33.0344,5437.8242],[-70.0878,-33.0394,5505.4385],[-70.0855,-33.0432,5810.0181],[-70.0864,-33.0456,5900.5347],[-70.0917,-33.0477,5792.9453],[-70.0937,-33.0514,5815.9604],[-70.0746,-33.0647,5188.1807],[-70.0702,-33.0794,5335.2817],[-70.0707,-33.0816,5384.0479],[-70.0674,-33.0868,5534.4355],[-70.0708,-33.0954,5776.4292],[-70.066,-33.1032,6038.2559],[-70.0713,-33.1083,5714.9258],[-70.0736,-33.1141,5431.2881],[-70.0762,-33.1166,5473.7637],[-70.0759,-33.1208,5462.5752],[-70.0741,-33.123,5384.4087],[-70.0607,-33.1288,5437.8506],[-70.0522,-33.1354,5401.395],[-70.0525,-33.1391,5234.6929],[-70.0566,-33.1442,5274.7046],[-70.0565,-33.1491,5617.1152],[-70.0638,-33.1514,5665.5142],[-70.0671,-33.1547,5503.1743],[-70.0627,-33.1659,5160.6719],[-70.0573,-33.1712,5321.9204],[-70.0607,-33.1774,5441.9116],[-70.0651,-33.1794,5485.5181],[-70.0604,-33.1938,4948.917],[-70.0647,-33.2003,4776.5649],[-70.0642,-33.2058,4935.5542],[-70.0552,-33.2259,4871.5859],[-70.0379,-33.2287,4860.438],[-70.0284,-33.2326,5103.7158],[-70.0266,-33.2349,5227.3721],[-70.0295,-33.2411,5010.9512],[-70.0279,-33.2466,4948.6758],[-70.034,-33.2538,4767.0171],[-70.0387,-33.2702,5278.4238],[-70.0311,-33.2732,4981.8711],[-70.0273,-33.2766,5075.6367],[-70.0219,-33.2771,4839.9727],[-70.0125,-33.2821,4786.0723],[-70.0088,-33.2858,4774.9043],[-70.0062,-33.2861,4749.562],[-70.0128,-33.3011,4817.4932],[-70.0101,-33.3037,4797.6357],[-70.0081,-33.3122,4843.2676],[-70.0092,-33.3165,4825.417],[-70.0029,-33.3227,4910.8081],[-69.9997,-33.3221,4834.23],[-69.9946,-33.3179,4882.9004],[-69.9914,-33.3186,4884.3447],[-69.9821,-33.3128,5133.9678],[-69.9709,-33.31,4851.9453],[-69.9687,-33.3073,4801.9751],[-69.9675,-33.299,4777.1357],[-69.9585,-33.2901,4817.022],[-69.9531,-33.2883,4697.7949],[-69.9497,-33.2816,5334.9771],[-69.9428,-33.2846,5158.8071],[-69.9367,-33.2761,4928.1113],[-69.9301,-33.275,4633.041],[-69.9239,-33.2685,5057.1567],[-69.9168,-33.2671,5432.3086],[-69.9176,-33.2643,5293.9336],[-69.9154,-33.2559,5312.105],[-69.9213,-33.2458,5836.7461],[-69.918,-33.2447,5930.71],[-69.9084,-33.2699,4899.6543],[-69.9043,-33.2729,4687.0176],[-69.8902,-33.276,4542.8965],[-69.8861,-33.2786,4575.8267],[-69.8813,-33.2763,4689.7363],[-69.8735,-33.2764,4668.2192],[-69.8598,-33.283,4672.9326],[-69.8554,-33.2787,4647.0332],[-69.8462,-33.2755,4751.8857],[-69.8406,-33.2718,5106.6387],[-69.8336,-33.2737,5204.2266],[-69.8282,-33.2802,5026.3848],[-69.8243,-33.2805,4986.502],[-69.8156,-33.2887,4748.6147],[-69.8087,-33.2897,4741.9028],[-69.8009,-33.2874,4949.1123],[-69.792,-33.3068,4647.6152],[-69.7838,-33.315,5035.1948],[-69.7833,-33.3184,5107.165],[-69.7766,-33.3291,5475.1821],[-69.7759,-33.3343,5620.3018],[-69.7698,-33.3432,5977.8125],[-69.7699,-33.3493,6316.7993],[-69.5176,-33.0336,4358.3555],[-69.5085,-33.0253,4331.54],[-69.5008,-33.0209,4004.2393],[-69.4651,-33.017,5468.4917],[-69.4534,-33.0112,5656.6699],[-69.4444,-33.0094,5662.8125],[-69.4361,-33.0123,5101.6353],[-69.4245,-33.0279,5245.147],[-69.421,-33.0379,5013.4404],[-69.414,-33.0443,4914.8506],[-69.4129,-33.0654,4028.1155],[-69.3944,-33.0724,4015.3901],[-69.3879,-33.0812,3853.199],[-69.345,-33.0871,2721.2483],[-69.3058,-33.0954,2314.3071],[-69.2595,-33.1104,2374.647],[-69.2225,-33.114,2037.4912],[-69.2047,-33.1188,1988.2852],[-69.2004,-33.1222,2001.7615],[-69.1909,-33.136,1892.2136],[-69.1863,-33.1484,1773.8413],[-69.1556,-33.1778,1838.8553],[-69.1416,-33.2011,1741.2015],[-69.1117,-33.2149,1639.7754],[-69.0904,-33.2373,1424.197],[-69.0683,-33.247,1346.8881],[-69.0299,-33.2574,1196.6648],[-69.0008,-33.2726,1111.9248],[-68.984,-33.2794,1074.3749],[-68.9501,-33.2836,993.4721],[-68.9396,-33.2887,978.5229],[-68.9147,-33.2885,939.1599],[-68.9064,-33.2923,928.231],[-68.9211,-33.3412,930.9326],[-68.8835,-33.355,884.1321],[-68.8625,-33.3599,860.7477],[-68.844,-33.3619,845.7422],[-68.8416,-33.3635,843.3186],[-68.8317,-33.3798,827.013],[-68.8215,-33.3897,813.8538],[-68.8109,-33.395,797.2034],[-68.7954,-33.3963,788.5996],[-68.7795,-33.3882,787.345],[-68.7676,-33.3729,789.5562],[-68.7235,-33.336,783.5],[-68.7162,-33.3274,783.5],[-68.7138,-33.3067,790.3258],[-68.711,-33.2965,772.1645],[-68.7054,-33.2902,752.9022],[-68.698,-33.2759,745.292],[-68.6829,-33.2628,733.4767],[-68.6798,-33.2582,740.8429],[-68.6798,-33.253,729.6759],[-68.6836,-33.2489,728.5925],[-68.6711,-33.2264,718.6494],[-68.6654,-33.2107,717.4317],[-68.6664,-33.2078,720.3868],[-68.6614,-33.1933,716.5309],[-68.655,-33.1908,710.0949],[-68.6495,-33.1797,706.9943],[-68.6485,-33.1705,703.9186],[-68.6443,-33.1636,701.4934],[-68.6433,-33.1545,699.603],[-68.6403,-33.1496,696.8169],[-68.6383,-33.1363,692.415],[-68.6286,-33.1268,687.0423],[-68.8243,-33.0917,1065.0815],[-68.8218,-33.0512,888.3461],[-68.8392,-33.0458,917.2104],[-68.8469,-33.0366,919.3481],[-68.8578,-33.0318,921.1199],[-68.8483,-33.0116,903.8011],[-68.8355,-33.0133,889.9594],[-68.8194,-32.9773,844.2297],[-68.8088,-32.9604,816.2772],[-68.8224,-32.9574,826.5237],[-68.8781,-32.9562,933.2946]]]]}
,"properties": {"GID_2": "ARG.13.9_1","GID_0": "ARG","country": "Argentina","GID_1": "ARG.13_1","state": "Mendoza","NL_NAME_1": "NA","county": "LujándeCuyo","VARNAME_2": "Lujan|Lujan","NL_NAME_2": "NA","TYPE_2": "Departamento","ENGTYPE_2": "Department","CC_2": "NA","HASC_2": "AR.MZ.LC","name": "LujándeCuyo.county","area_km2": 4845.74,"hist_schema_id": "Elevation0-9000","hist_area_km2": {"700": 13.74,"725": 31.144,"750": 33.016,"775": 41.102,"800": 52.194,"825": 59.418,"850": 70.292,"875": 85.154,"900": 103.56,"925": 91.841,"950": 86.599,"975": 88.271,"1000": 71.41,"1025": 62.04,"1050": 48.19,"1075": 39.686,"1100": 30.38,"1125": 25.036,"1150": 22.212,"1175": 21.003,"1200": 15.32,"1225": 11.572,"1250": 11.253,"1275": 11.662,"1300": 11.999,"1325": 12.711,"1350": 14.948,"1375": 24.604,"1400": 17.902,"1425": 16.057,"1450": 16.538,"1475": 15.704,"1500": 16.913,"1525": 16.86,"1550": 17.039,"1575": 16.792,"1600": 17.415,"1625": 15.887,"1650": 14.377,"1675": 14.466,"1700": 15.338,"1725": 15.357,"1750": 15.768,"1775": 16.339,"1800": 16.398,"1825": 18.184,"1850": 18.67,"1875": 18.978,"1900": 18.071,"1925": 15.932,"1950": 15.592,"1975": 14.431,"2000": 13.541,"2025": 12.402,"2050": 11.889,"2075": 11.303,"2100": 12.978,"2125": 12.338,"2150": 12.107,"2175": 12.747,"2200": 13.137,"2225": 14.099,"2250": 13.581,"2275": 14.451,"2300": 14.45,"2325": 13.401,"2350": 14.364,"2375": 13.938,"2400": 12.943,"2425": 13.425,"2450": 12.892,"2475": 12.02,"2500": 12.004,"2525": 11.665,"2550": 11.631,"2575": 12.487,"2600": 12.059,"2625": 13.876,"2650": 13.591,"2675": 15.155,"2700": 16.577,"2725": 16.363,"2750": 17.143,"2775": 16.092,"2800": 16.538,"2825": 16.61,"2850": 18.657,"2875": 18.335,"2900": 17.622,"2925": 17.78,"2950": 18.654,"2975": 19.451,"3000": 17.993,"3025": 19.557,"3050": 19.878,"3075": 18.864,"3100": 20.516,"3125": 20.783,"3150": 20.819,"3175": 22.26,"3200": 22.881,"3225": 23.84,"3250": 24.0,"3275": 25.53,"3300": 27.451,"3325": 25.868,"3350": 26.524,"3375": 27.647,"3400": 27.2,"3425": 28.39,"3450": 29.582,"3475": 30.24,"3500": 32.249,"3525": 32.0,"3550": 31.998,"3575": 33.012,"3600": 33.938,"3625": 34.468,"3650": 33.989,"3675": 35.855,"3700": 36.3,"3725": 35.055,"3750": 37.828,"3775": 37.38,"3800": 37.613,"3825": 40.436,"3850": 39.869,"3875": 39.494,"3900": 40.841,"3925": 42.243,"3950": 42.277,"3975": 43.149,"4000": 44.089,"4025": 42.809,"4050": 43.269,"4075": 42.47,"4100": 43.48,"4125": 44.723,"4150": 44.688,"4175": 42.822,"4200": 43.174,"4225": 41.628,"4250": 42.534,"4275": 41.466,"4300": 40.842,"4325": 41.57,"4350": 40.874,"4375": 38.901,"4400": 39.541,"4425": 37.516,"4450": 37.992,"4475": 37.94,"4500": 35.669,"4525": 35.419,"4550": 35.113,"4575": 32.893,"4600": 32.361,"4625": 30.938,"4650": 30.245,"4675": 30.671,"4700": 27.543,"4725": 27.135,"4750": 25.216,"4775": 25.891,"4800": 23.847,"4825": 21.857,"4850": 20.47,"4875": 20.807,"4900": 17.573,"4925": 17.429,"4950": 15.334,"4975": 15.528,"5000": 12.383,"5025": 11.76,"5050": 10.215,"5075": 9.859,"5100": 8.367,"5125": 7.141,"5150": 6.448,"5175": 6.376,"5200": 4.814,"5225": 4.192,"5250": 3.481,"5275": 3.108,"5300": 2.824,"5325": 2.309,"5350": 2.203,"5375": 1.563,"5400": 2.078,"5425": 1.51,"5450": 1.083,"5475": 1.208,"5500": 1.03,"5525": 1.066,"5550": 0.924,"5575": 0.781,"5600": 0.657,"5625": 0.763,"5650": 0.551,"5675": 0.479,"5700": 0.515,"5725": 0.497,"5750": 0.32,"5775": 0.266,"5800": 0.231,"5825": 0.266,"5850": 0.106,"5875": 0.142,"5900": 0.107,"5925": 0.053,"5950": 0.071,"6000": 0.053}}}