{"type":"Feature","properties":{"GID_2":"ARG.11.4_1","GID_0":"ARG","country":"Argentina","GID_1":"ARG.11_1","state":"LaPampa","NL_NAME_1":"NA","county":"Catriló","VARNAME_2":"NA","NL_NAME_2":"NA","TYPE_2":"Departamento","ENGTYPE_2":"Department","CC_2":"NA","HASC_2":"AR.LP.CA","name":"Catriló.county"},
"geometry":{"type": "MultiPolygon","coordinates": [[[[-63.3899,-36.5134,122.7394],[-63.3896,-36.3645,123.2677],[-63.9369,-36.3643,153.1862],[-63.9377,-36.812,144.5229],[-63.3906,-36.8136,130.0013],[-63.3899,-36.5134,122.7394]]]]}}