{"type":"Feature","properties":{"GID_2":"ARG.1.65_1","GID_0":"ARG","country":"Argentina","GID_1":"ARG.1_1","state":"BuenosAires","NL_NAME_1":"NA","county":"Laprida","VARNAME_2":"NA","NL_NAME_2":"NA","TYPE_2":"Partido","ENGTYPE_2":"Part","CC_2":"NA","HASC_2":"AR.BA.LR","name":"Laprida.county"},
"geometry":{"type": "MultiPolygon","coordinates": [[[[-60.4572,-37.6022,212.5393],[-60.4648,-37.5962,212.7242],[-60.3399,-37.4967,230.7487],[-60.4999,-37.3764,220.9107],[-60.466,-37.348,223.4615],[-60.5696,-37.27,215.5002],[-60.5743,-37.274,215.654],[-60.6286,-37.23,208.797],[-60.6261,-37.2272,209.0035],[-60.7336,-37.1388,189.1216],[-60.7206,-37.1275,189.2433],[-60.8143,-37.0589,179.5453],[-61.0131,-37.2054,181.6555],[-60.8884,-37.3037,196.6204],[-60.9697,-37.3678,192.9127],[-60.9646,-37.3738,193.381],[-60.9675,-37.3767,193.2056],[-60.876,-37.4529,199.7084],[-61.0636,-37.6032,206.4557],[-61.0699,-37.598,209.7925],[-61.1764,-37.681,214.8681],[-60.8562,-37.9377,184.4841],[-60.6579,-37.7809,192.0941],[-60.6448,-37.7906,190.8475],[-60.5622,-37.7238,199.4526],[-60.5901,-37.7019,199.1288],[-60.4572,-37.6022,212.5393]]]]}}