{"type": "Feature","bbox": [-58.0469,-38.246,-57.5213,-37.7026],"geometry": {"type": "MultiPolygon","coordinates": [[[[-58.0469,-37.9581,240.3858],[-57.9599,-38.0273,131.3039],[-57.9435,-38.0146,119.6272],[-57.8822,-38.0578,85.4722],[-57.8566,-38.0366,96.3412],[-57.8296,-38.0521,89.2717],[-57.8467,-38.0644,76.4323],[-57.8434,-38.0671,76.1245],[-57.8366,-38.0791,62.5281],[-57.8358,-38.0871,65.0468],[-57.8245,-38.0875,57.5738],[-57.8182,-38.0892,54.2721],[-57.8149,-38.0927,53.9409],[-57.8132,-38.105,63.3693],[-57.8146,-38.1097,62.1643],[-57.8195,-38.1152,46.8577],[-57.8209,-38.1287,42.6466],[-57.8094,-38.1444,40.7565],[-57.8109,-38.1492,38.2036],[-57.7926,-38.2024,21.6324],[-57.7838,-38.2093,12.325],[-57.7842,-38.2315,7.456],[-57.7783,-38.246,0.5686],[-57.7743,-38.2457,1.8458],[-57.7482,-38.2343,5.3581],[-57.7287,-38.229,2.1443],[-57.726,-38.2265,0.8742],[-57.7026,-38.2163,0.0],[-57.6976,-38.2107,1.1449],[-57.6796,-38.2029,15.1174],[-57.6632,-38.1921,9.0758],[-57.6551,-38.184,7.9882],[-57.6521,-38.1835,0.0],[-57.6504,-38.1804,0.0],[-57.6393,-38.1729,8.1721],[-57.6351,-38.1721,0.0],[-57.6343,-38.1674,8.3347],[-57.6113,-38.1468,0.0],[-57.6068,-38.1385,0.0],[-57.6071,-38.1346,0.0],[-57.6049,-38.1307,0.0],[-57.591,-38.1174,0.0],[-57.5701,-38.1065,0.0],[-57.5438,-38.0976,17.1591],[-57.5429,-38.0949,3.4142],[-57.541,-38.0949,0.0],[-57.5396,-38.084,1.3599],[-57.5354,-38.0826,0.0],[-57.5351,-38.0812,0.0],[-57.5418,-38.0776,5.4132],[-57.5412,-38.0668,0.0],[-57.5312,-38.0504,0.0],[-57.5315,-38.0496,1.5034],[-57.5346,-38.051,3.1266],[-57.5354,-38.0476,0.0],[-57.5343,-38.0457,0.0],[-57.5382,-38.0449,0.0],[-57.5387,-38.0429,0.1317],[-57.5363,-38.0385,1.6007],[-57.5321,-38.0374,0.8496],[-57.5318,-38.0363,0.8496],[-57.5346,-38.0363,3.1764],[-57.5349,-38.0349,0.0],[-57.534,-38.0329,10.3441],[-57.5318,-38.0326,2.5453],[-57.5312,-38.0282,0.0],[-57.529,-38.0249,0.0],[-57.5268,-38.0243,0.0],[-57.5271,-38.0207,9.218],[-57.5232,-38.0165,7.4764],[-57.5238,-38.0151,0.0],[-57.531,-38.0149,1.1042],[-57.5326,-38.0076,1.0498],[-57.5421,-38.0037,24.4264],[-57.5404,-37.9974,11.1963],[-57.544,-37.9912,3.6276],[-57.5438,-37.9824,12.516],[-57.5421,-37.9804,0.0],[-57.5418,-37.9696,10.8062],[-57.5332,-37.9482,0.0],[-57.5307,-37.9332,0.0],[-57.5268,-37.9263,0.0],[-57.5218,-37.9049,6.0132],[-57.5213,-37.8959,11.9303],[-57.7007,-37.7641,33.9847],[-57.6794,-37.7603,30.0784],[-57.6702,-37.7508,29.5016],[-57.7373,-37.7026,34.3079],[-58.0469,-37.9581,240.3858]]]]}
,"properties": {"GID_2": "ARG.1.52_1","GID_0": "ARG","country": "Argentina","GID_1": "ARG.1_1","state": "BuenosAires","NL_NAME_1": "NA","county": "GeneralPueyrredón","VARNAME_2": "MardelPlata","NL_NAME_2": "NA","TYPE_2": "Partido","ENGTYPE_2": "Part","CC_2": "NA","HASC_2": "AR.BA.GP","name": "GeneralPueyrredón.county","area_km2": 1447.958,"hist_schema_id": "Elevation0-9000","hist_area_km2": {"0": 16.736,"25": 522.769,"50": 381.631,"75": 201.294,"100": 160.939,"125": 81.401,"150": 33.729,"175": 23.738,"200": 15.501,"225": 8.664,"250": 1.555}}}