{"type": "Feature","bbox": [-63.7965,-29.8111,-62.8357,-28.9294],"geometry": {"type": "MultiPolygon","coordinates": [[[[-62.8357,-29.8111,78.113],[-62.8388,-29.7885,78.7688],[-62.8531,-29.786,79.0488],[-62.8653,-29.7868,79.5415],[-62.8712,-29.7818,79.1706],[-62.878,-29.7708,79.2794],[-62.876,-29.7512,79.2199],[-62.8708,-29.7436,79.1934],[-62.8702,-29.7365,78.9997],[-62.8604,-29.7121,79.5268],[-62.8724,-29.7083,79.4368],[-62.8873,-29.6989,79.8569],[-62.8974,-29.7002,80.1048],[-62.9053,-29.6982,80.5666],[-62.9086,-29.6917,80.8225],[-62.9047,-29.6778,80.8327],[-62.909,-29.6698,81.0561],[-62.914,-29.6666,80.9875],[-62.9182,-29.6661,80.9433],[-62.9225,-29.6691,80.9482],[-62.9329,-29.669,80.9996],[-62.9457,-29.6552,81.5206],[-62.9616,-29.644,81.5088],[-62.9661,-29.6337,81.6499],[-62.9742,-29.6366,81.6325],[-62.9788,-29.6155,82.0876],[-62.9832,-29.6117,81.9745],[-62.9871,-29.6016,82.0621],[-63.0014,-29.578,82.7711],[-63.0079,-29.5735,82.5845],[-63.0164,-29.5634,82.8889],[-63.023,-29.5592,83.5049],[-63.0302,-29.5556,83.3058],[-63.0383,-29.5557,83.432],[-63.052,-29.5517,83.6425],[-63.0582,-29.5474,83.9692],[-63.0646,-29.5381,84.8529],[-63.066,-29.5276,84.6011],[-63.0735,-29.5215,85.3],[-63.077,-29.5132,85.4064],[-63.0857,-29.5033,85.9164],[-63.1036,-29.4774,85.9634],[-63.1263,-29.4546,86.7578],[-63.1328,-29.4434,86.4699],[-63.1383,-29.4381,86.3554],[-63.1404,-29.4132,87.5957],[-63.1392,-29.3989,87.4108],[-63.1361,-29.3887,88.4815],[-63.1501,-29.3456,87.401],[-63.1679,-29.3418,90.3707],[-63.1796,-29.3271,89.8321],[-63.1984,-29.3164,90.5601],[-63.2043,-29.307,90.7282],[-63.2165,-29.3005,91.9297],[-63.225,-29.2904,91.2646],[-63.2448,-29.2725,92.5361],[-63.2454,-29.2655,92.03],[-63.2418,-29.2592,92.0127],[-63.2435,-29.2559,91.8843],[-63.262,-29.2489,92.2196],[-63.2965,-29.2208,94.9012],[-63.3214,-29.1902,93.9814],[-63.3359,-29.1568,95.8061],[-63.3438,-29.1463,95.5004],[-63.3469,-29.1441,95.9435],[-63.3691,-29.1423,97.4003],[-63.3775,-29.1343,97.9575],[-63.3822,-29.1264,98.1315],[-63.3931,-29.1216,98.9638],[-63.3987,-29.1163,105.6719],[-63.4242,-29.0798,101.341],[-63.4414,-29.0702,102.4628],[-63.4638,-29.0617,103.6033],[-63.4774,-29.0484,104.6384],[-63.4797,-29.0435,104.592],[-63.4838,-29.0395,105.0193],[-63.497,-29.0348,105.2815],[-63.5066,-29.028199999999998,104.9643],[-63.5187,-29.0269,105.8149],[-63.5278,-29.0199,104.5851],[-63.5377,-29.0187,101.4695],[-63.541,-29.0142,104.2282],[-63.5536,-29.0085,106.3284],[-63.5623,-28.9944,107.3974],[-63.5677,-28.9735,104.7136],[-63.5748,-28.9702,106.1426],[-63.5949,-28.9684,107.5815],[-63.6127,-28.9595,109.2267],[-63.6207,-28.9414,103.1933],[-63.6241,-28.937,108.9439],[-63.6399,-28.9338,106.9372],[-63.6491,-28.93,106.4081],[-63.6572,-28.9294,109.2436],[-63.6721,-28.935,109.3349],[-63.6836,-28.9425,108.7284],[-63.6893,-28.9439,106.1571],[-63.7197,-28.9402,105.7335],[-63.7322,-28.9348,110.511],[-63.7504,-28.9338,110.4834],[-63.7666,-28.93,110.0778],[-63.7965,-29.0661,214.0894],[-63.6796,-29.3517,412.7953],[-63.6556,-29.355,441.9142],[-63.6599,-29.4256,479.998],[-63.623,-29.4302,488.4684],[-63.6187,-29.4457,469.7409],[-63.5598,-29.4594,353.6553],[-63.564,-29.4791,342.4189],[-63.557,-29.4841,332.6702],[-63.544,-29.4976,304.3882],[-63.539,-29.5058,311.8995],[-63.5332,-29.5061,301.5862],[-63.5348,-29.5271,282.2246],[-63.5229,-29.5301,275.7943],[-63.5179,-29.5341,282.554],[-63.4991,-29.5256,266.305],[-63.4399,-29.5522,205.0605],[-63.4181,-29.556,190.0627],[-63.3967,-29.5619,173.5759],[-63.3676,-29.5648,150.0005],[-63.3231,-29.5738,115.9748],[-63.3449,-29.6341,117.1366],[-63.3466,-29.6632,109.1058],[-63.3297,-29.6637,97.5336],[-63.3291,-29.6738,98.1551],[-63.3041,-29.6744,87.8915],[-63.3042,-29.6841,87.5157],[-63.2886,-29.6842,83.14],[-63.2876,-29.7045,82.5149],[-63.2927,-29.7379,80.0649],[-63.2836,-29.7388,80.2266],[-63.2851,-29.7623,79.5829],[-63.2695,-29.7624,79.1124],[-63.27,-29.7813,78.8685],[-62.8357,-29.8111,78.113]]]]}
,"properties": {"GID_2": "ARG.22.20_1","GID_0": "ARG","country": "Argentina","GID_1": "ARG.22_1","state": "SantiagodelEstero","NL_NAME_1": "NA","county": "Quebrachos","VARNAME_2": "Sumampa","NL_NAME_2": "NA","TYPE_2": "Departamento","ENGTYPE_2": "Department","CC_2": "NA","HASC_2": "AR.SE.QU","name": "Quebrachos.county","area_km2": 3720.546,"hist_schema_id": "Elevation0-9000","hist_area_km2": {"75": 1145.408,"100": 644.894,"125": 273.667,"150": 207.769,"175": 207.036,"200": 191.782,"225": 190.189,"250": 204.005,"275": 152.58,"300": 143.291,"325": 104.485,"350": 67.777,"375": 58.006,"400": 43.712,"425": 30.491,"450": 28.027,"475": 17.196,"500": 8.995,"525": 1.237}}}