{"type":"Feature","properties":{"ISO3166-1-Alpha-3":"ARG","country":"Argentina","fill":"#F00","id":"1298","name":"San Luis"},
"geometry":{"type": "Polygon","coordinates": [[[-67.23462,-31.86679,717.0969],[-67.25571,-31.86555,603.9666],[-67.27098,-31.86296,546.614],[-67.30255,-31.85397,528.7506],[-67.34439,-31.84684,530.699],[-67.36697,-31.85795,530.3198],[-67.37689,-31.86684,530.358],[-67.38387,-31.87749,529.662],[-67.38712,-31.88534,527.2233],[-67.38847,-31.8919,526.1207],[-67.38883,-31.89764,524.3812],[-67.38743,-31.90828,523.8702],[-67.38198,-31.93185,522.1183],[-67.38053,-31.94229,520.9849],[-67.38206,-31.95784,519.3453],[-67.38263,-31.96043,518.6981],[-67.3827,-31.96198,518.153],[-67.38221,-31.96311,518.126],[-67.38053,-31.96585,518.1524],[-67.37596,-31.97655,517.2045],[-67.37436,-31.98657,517.4044],[-67.37495,-31.99329,516.6353],[-67.37635,-31.99805,516.4303],[-67.3771,-31.99955,516.4303],[-67.39234,-32.0428,511.9974],[-67.39498,-32.05494,511.3847],[-67.39591,-32.06362,509.6164],[-67.39443,-32.08626,508.7391],[-67.39177,-32.10233,507.079],[-67.39299,-32.16284,503.8737],[-67.39079,-32.19406,502.4432],[-67.39301,-32.26216,495.8731],[-67.38986,-32.30433,494.3222],[-67.3617,-32.39683,490.0664],[-67.33911,-32.41032,489.2567],[-67.32901,-32.41952,488.0652],[-67.32072,-32.43099,486.2971],[-67.31927,-32.43859,486.8384],[-67.32087,-32.45502,485.8947],[-67.31731,-32.462,485.6222],[-67.31067,-32.46913,485.4548],[-67.30524,-32.4774,484.2482],[-67.3016,-32.48629,484.0735],[-67.29702,-32.51336,481.3301],[-67.28297,-32.54385,478.8676],[-67.27974,-32.55729,479.9789],[-67.27824,-32.57197,479.0378],[-67.25837,-32.65356,475.6198],[-67.2523,-32.66705,475.6884],[-67.24499,-32.67801,476.1305],[-67.23222,-32.68932,476.4841],[-67.22152,-32.69614,474.6545],[-67.21419,-32.70493,475.3041],[-67.21147,-32.72209,475.2406],[-67.20636,-32.73929,474.7809],[-67.19693,-32.75046,473.3279],[-67.19212,-32.7611,473.0324],[-67.20961,-32.79174,471.78],[-67.21455,-32.8197,470.7939],[-67.21829,-32.82823,469.9441],[-67.20581,-32.86998,468.8459],[-67.20612,-32.89355,468.4086],[-67.22171,-32.90393,464.7791],[-67.22695,-32.91613,466.8949],[-67.21796,-32.94342,467.2534],[-67.19783,-32.98651,463.5492],[-67.19786,-32.99768,464.1911],[-67.20336,-33.01685,459.3112],[-67.20403,-33.02744,459.3251],[-67.20111,-33.03881,460.3925],[-67.19225,-33.05902,461.2137],[-67.18416,-33.14976,455.8335],[-67.19036,-33.22888,460.0956],[-67.18295,-33.25523,458.0989],[-67.17732,-33.26505,461.5405],[-67.17734,-33.30117,456.6646],[-67.15313,-33.34711,453.8672],[-67.14941,-33.36634,454.6478],[-67.15336,-33.4098,456.2],[-67.15194,-33.42907,458.084],[-67.14259,-33.45201,457.8252],[-67.04699,-33.58916,446.2156],[-67.02663,-33.60673,439.4087],[-67.01968,-33.6165,443.2217],[-67.00714,-33.65221,441.4461],[-67.00231,-33.66058,440.8411],[-66.98833,-33.70523,437.461],[-66.96505,-33.73939,434.7476],[-66.94028,-33.80641,430.7101],[-66.93712,-33.82538,430.2923],[-66.92958,-33.83793,428.9026],[-66.91188,-33.85044,428.0572],[-66.87568,-33.87034,426.304],[-66.85966,-33.88176,428.3],[-66.844,-33.89628,423.6635],[-66.83204,-33.91395,423.8431],[-66.82173,-33.95974,418.0582],[-66.80845,-33.97353,416.343],[-66.79248,-33.98268,414.952],[-66.77886,-33.99327,414.549],[-66.77135,-34.00816,414.5085],[-66.76427,-34.03896,411.5369],[-66.74706,-34.06417,410.2374],[-66.74571,-34.07937,409.2795],[-66.75155,-34.10996,407.9326],[-66.75476,-34.16257,405.6662],[-66.7592,-34.18453,403.9225],[-66.77264,-34.19869,403.2838],[-66.78049,-34.19926,403.492],[-66.79357,-34.19181,403.7308],[-66.79997,-34.19187,404.2607],[-66.80349,-34.19616,404.3835],[-66.80672,-34.20964,403.2105],[-66.82137,-34.22928,402.5406],[-66.82261,-34.2423,403.2815],[-66.81424,-34.26762,401.9586],[-66.81116,-34.34488,391.0369],[-66.79997,-34.36317,394.9663],[-66.81261,-34.38462,396.6172],[-66.80357,-34.39692,393.6297],[-66.78747,-34.40865,389.5798],[-66.77886,-34.42803,389.7489],[-66.77264,-34.5134,388.3425],[-66.74887,-34.57748,386.1107],[-66.74535,-34.59964,385.8739],[-66.73796,-34.61541,386.1469],[-66.69073,-34.65799,380.6865],[-66.572,-34.85291,376.3971],[-66.54609,-34.9249,373.0705],[-66.54366,-34.94546,372.1432],[-66.55355,-34.99724,370.9398],[-66.55033,-35.01073,371.1452],[-66.53627,-35.0484,369.142],[-66.53307,-35.06613,369.0472],[-66.52898,-35.07827,365.8819],[-66.51033,-35.10824,365.7514],[-66.50513,-35.12416,362.4287],[-66.50661,-35.14147,362.496],[-66.52562,-35.19925,361.6145],[-66.51444,-35.21098,360.5644],[-66.50823,-35.21935,359.0898],[-66.50513,-35.2272,356.688],[-66.5065,-35.23992,356.5487],[-66.51126,-35.25056,354.3486],[-66.51637,-35.25867,354.9194],[-66.5188,-35.2641,354.089],[-66.50656,-35.32647,353.0624],[-66.50513,-35.34265,351.0583],[-66.51707,-35.40502,347.2444],[-66.52113,-35.49422,345.0244],[-66.52562,-35.51458,343.8564],[-66.5556,-35.57075,343.0618],[-66.5672,-35.67162,340.9949],[-66.60815,-35.82985,329.7983],[-66.61606,-35.90205,330.9047],[-66.6288,-35.94907,323.3254],[-66.62918,-35.96535,322.2869],[-66.62311,-35.99791,325.9229],[-66.61717,-35.99992,326.2875],[-66.06312,-36.00002,345.088],[-66.02661,-35.99992,344.8804],[-65.13522,-36.00101,289.9299],[-65.09579,-36.00132,287.9714],[-65.09227,-36.00049,287.8227],[-65.08778,-35.99878,287.5143],[-65.08744,-35.84541,287.0072],[-65.08662,-35.00179,271.8679],[-65.08662,-34.99993,272.5931],[-65.0869,-33.96237,374.1007],[-65.1317,-33.20547,871.7587],[-65.12984,-33.19952,879.2086],[-65.12488,-33.18893,892.4658],[-65.09439,-33.14103,957.556],[-65.09114,-33.13684,960.4697],[-65.08762,-33.13358,968.2965],[-65.08419,-33.13167,978.4699],[-65.07592,-33.12878,1005.7294],[-65.05088,-33.12521,1040.4504],[-65.04419,-33.12315,1055.4846],[-65.03838,-33.11927,1022.1451],[-65.03248,-33.11126,1004.6589],[-65.03137,-33.10521,1027.2461],[-65.03202,-33.09953,1062.3125],[-65.04383,-33.07659,1108.2291],[-65.04336,-33.0601,1211.135],[-65.03853,-33.04966,1158.8973],[-65.01238,-33.00682,1252.1597],[-65.0076,-32.99457,1382.3428],[-65.00587,-32.98548,1365.1552],[-65.01339,-32.96765,1509.8851],[-65.01595,-32.95546,1340.8861],[-65.01466,-32.94817,1289.173],[-65.01246,-32.94181,1169.234],[-64.97357,-32.87965,1501.2666],[-64.97016,-32.87014,1441.8734],[-64.96846,-32.86218,1413.1832],[-64.96732,-32.8259,1527.7131],[-64.96528,-32.81722,1558.1041],[-64.96267,-32.81025,1567.9626],[-64.94892,-32.78942,1603.5864],[-64.94624,-32.78224,1597.4686],[-64.94518,-32.77598,1634.6699],[-64.94634,-32.76219,1644.7007],[-64.94626,-32.75123,1672.4006],[-64.94425,-32.74425,1672.4127],[-64.94107,-32.73893,1685.3221],[-64.92619,-32.72705,1759.1372],[-64.91911,-32.71914,1734.7374],[-64.91544,-32.71232,1776.5427],[-64.91298,-32.7055,1795.9772],[-64.90608,-32.66436,1621.1017],[-64.88319,-32.61951,1800.7656],[-64.8773,-32.59207,1814.4213],[-64.87412,-32.55822,1742.0403],[-64.8742,-32.54938,1718.2969],[-64.87531,-32.54411,1746.4233],[-64.88324,-32.52308,1950.0112],[-64.888,-32.50375,1920.0166],[-64.89249,-32.48437,1920.1117],[-64.91554,-32.44773,2014.6311],[-64.91993,-32.43735,2106.5532],[-64.92249,-32.42898,2085.7236],[-64.92185,-32.40515,2138.0469],[-64.91756,-32.3789,2073.5593],[-64.9157,-32.35229,2129.7402],[-64.91694,-32.3218,2209.0234],[-64.91939,-32.30816,2172.5007],[-64.92283,-32.29917,2150.8042],[-64.92743,-32.29596,2149.3081],[-64.93239,-32.29317,2138.6201],[-64.93843,-32.29126,2182.0317],[-64.94502,-32.29048,2166.571],[-64.95166,-32.29095,2222.998],[-64.97021,-32.29488,1654.6736],[-65.06949,-32.31958,741.6881],[-65.17689,-32.32965,604.9163],[-65.18966,-32.32764,596.7512],[-65.19599,-32.32412,590.7469],[-65.19997,-32.31963,587.8622],[-65.2024,-32.30909,586.2358],[-65.20281,-32.3034,582.2331],[-65.20111,-32.26051,558.3936],[-65.20397,-32.25023,554.8616],[-65.20643,-32.24568,553.0845],[-65.22237,-32.22553,542.2747],[-65.23206,-32.20744,538.5646],[-65.23787,-32.18667,528.6422],[-65.23994,-32.17571,525.8271],[-65.24082,-32.16439,524.6889],[-65.24041,-32.14625,524.0629],[-65.24097,-32.14057,513.518],[-65.24508,-32.12512,503.2788],[-65.24916,-32.11871,499.9005],[-65.25549,-32.11163,498.5369],[-65.2835,-32.08884,486.4901],[-65.31053,-32.06114,469.9877],[-65.58966,-31.91521,368.4797],[-65.64059,-31.89325,351.8703],[-65.67152,-31.8857,344.7208],[-65.75965,-31.8855,341.4464],[-65.8597,-31.901,343.906],[-65.90729,-31.90074,344.0636],[-65.92336,-31.89857,344.8181],[-65.93158,-31.89593,344.2297],[-65.9383,-31.89309,343.551],[-65.95326,-31.88426,340.9746],[-65.95899,-31.88172,341.6068],[-65.96925,-31.87857,336.9427],[-66.01651,-31.87118,336.3062],[-66.05439,-31.87144,339.7266],[-66.10449,-31.88219,352.987],[-66.12668,-31.88958,364.3935],[-66.16717,-31.90958,390.0875],[-66.21717,-31.92544,433.5799],[-66.26843,-31.93009,474.7452],[-66.31719,-31.9258,525.4911],[-66.33036,-31.92684,521.687],[-66.36269,-31.93355,510.5882],[-66.37385,-31.93381,508.7631],[-66.38264,-31.93247,505.5301],[-66.4093,-31.92048,492.718],[-66.42374,-31.91604,485.455],[-66.43302,-31.9149,479.7037],[-66.44093,-31.91505,475.5975],[-66.49346,-31.92069,445.8913],[-66.49932,-31.92038,442.8599],[-66.50141,-31.91955,439.9908],[-66.52144,-31.90756,423.0469],[-66.53239,-31.90338,412.7471],[-66.54025,-31.90255,406.4059],[-66.54697,-31.90338,402.0969],[-66.5681,-31.91185,393.7796],[-66.58443,-31.91526,383.9817],[-66.59394,-31.91495,377.2004],[-66.60148,-31.91366,370.6413],[-66.61167,-31.90937,365.6731],[-66.63929,-31.89495,365.8027],[-66.66182,-31.88844,365.8005],[-66.73052,-31.87656,367.0214],[-66.98513,-31.88849,466.534],[-67.02296,-31.88214,517.7468],[-67.0288,-31.88028,518.3934],[-67.0342,-31.8778,508.6631],[-67.039,-31.87485,510.6319],[-67.05179,-31.86446,500.8734],[-67.06019,-31.86095,504.5692],[-67.07202,-31.85754,515.8986],[-67.09487,-31.85304,533.9376],[-67.10719,-31.85185,542.6312],[-67.11654,-31.85216,550.8527],[-67.15039,-31.86188,594.0861],[-67.23462,-31.86679,717.0969]]]}}