{"type":"Feature","properties":{"GID_1":"ARG.19_1","GID_0":"ARG","country":"Argentina","state":"SanLuis","VARNAME_1":"NA","NL_NAME_1":"NA","TYPE_1":"Provincia","ENGTYPE_1":"Province","CC_1":"NA","HASC_1":"AR.SL","ISO_1":"AR-D","name":"SanLuis.state"},
"geometry":{"type": "MultiPolygon","coordinates": [[[[-65.1073,-34.8539,288.3672],[-65.1106,-34.0609,366.489],[-65.1098,-33.9125,387.8384],[-65.1201,-33.6315,479.534],[-65.1483,-33.2025,864.3271],[-65.1464,-33.1934,873.3789],[-65.1428,-33.1883,878.6207],[-65.1149,-33.1665,921.1837],[-65.1097,-33.1574,935.7211],[-65.0993,-33.1481,946.3475],[-65.0893,-33.1436,956.866],[-65.0828,-33.1493,951.8452],[-65.0712,-33.1516,970.0938],[-65.0599,-33.148,994.9762],[-65.0523,-33.14,1029.4174],[-65.0521,-33.1324,1019.645],[-65.0574,-33.1205,1036.5798],[-65.0571,-33.1103,1055.5502],[-65.0628,-33.0931,1061.397],[-65.054,-33.0798,1108.7633],[-65.0516,-33.0622,1111.3665],[-65.0481,-33.0579,1124.1608],[-65.0365,-33.0498,1190.553],[-65.0297,-33.0414,1235.6873],[-65.0182,-33.0151,1268.2192],[-65.0146,-32.9847,1423.0497],[-65.0159,-32.9825,1478.8856],[-65.0262,-32.9772,1424.1772],[-65.028,-32.9722,1242.8362],[-65.0273,-32.9698,1340.1298],[-65.0146,-32.963,1556.4373],[-65.0097,-32.9566,1550.5833],[-65.0035,-32.9238,1172.4802],[-64.9984,-32.9146,1170.8368],[-64.9836,-32.9018,1513.297],[-64.9783,-32.8992,1523.1403],[-64.9773,-32.897,1549.2407],[-64.9855,-32.8865,1397.1991],[-64.9756,-32.8809,1520.2407],[-64.9709,-32.848,1448.3551],[-64.9722,-32.82,1549.1318],[-64.9667,-32.8054,1580.0208],[-64.9604,-32.7967,1617.8589],[-64.9571,-32.7869,1622.8243],[-64.9551,-32.7614,1577.9231],[-64.9553,-32.7384,1552.0583],[-64.9409,-32.7103,1837.5394],[-64.9369,-32.7065,1863.3813],[-64.9265,-32.7017,1798.7151],[-64.927,-32.6965,1658.8196],[-64.9323,-32.6874,1349.8926],[-64.9319,-32.6722,1564.8379],[-64.9406,-32.6649,1473.5221],[-64.9408,-32.6574,1335.6765],[-64.9372,-32.6503,1361.1287],[-64.9297,-32.6459,1402.0414],[-64.9288,-32.6438,1404.3572],[-64.9289,-32.6309,1720.6127],[-64.9259,-32.6209,1747.7971],[-64.9094,-32.6148,1851.6077],[-64.899,-32.6057,1903.837],[-64.8892,-32.587,1832.756],[-64.884,-32.5808,1771.7861],[-64.8811,-32.5734,1725.4092],[-64.8846,-32.5667,1806.6394],[-64.8997,-32.554,1825.5254],[-64.8957,-32.5472,1878.0394],[-64.8882,-32.5395,1948.4985],[-64.8867,-32.5292,1952.812],[-64.8882,-32.5278,1946.4474],[-64.9063,-32.5269,1867.7451],[-64.9109,-32.5236,1907.3945],[-64.916,-32.5143,1927.9567],[-64.9055,-32.5019,1928.6465],[-64.8978,-32.499,1927.9344],[-64.8949,-32.4916,1904.5266],[-64.9034,-32.4845,1917.6777],[-64.9152,-32.4828,1945.1626],[-64.925,-32.4773,1926.385],[-64.93,-32.4681,1918.3269],[-64.9298,-32.4477,1992.7817],[-64.9366,-32.4394,2020.1379],[-64.938,-32.4345,1989.1556],[-64.9374,-32.4192,1823.8528],[-64.9343,-32.412,2020.5072],[-64.9313,-32.3969,2039.7234],[-64.9261,-32.3877,2068.9536],[-64.9165,-32.3779,2052.7026],[-64.915,-32.3727,2067.7639],[-64.9232,-32.3715,2092.5854],[-64.9244,-32.3692,2086.9646],[-64.9194,-32.3573,2167.6882],[-64.9189,-32.3522,2167.5391],[-64.9246,-32.3219,2215.6211],[-64.9487,-32.3077,2159.8169],[-64.9646,-32.3155,1468.9697],[-64.9763,-32.3173,1307.4126],[-64.9833,-32.3222,1073.1204],[-65.007,-32.3198,904.8976],[-65.0179,-32.3161,857.0535],[-65.059,-32.3223,754.6183],[-65.0728,-32.3178,737.1082],[-65.2134,-32.3213,583.2797],[-65.2131,-32.3009,575.6088],[-65.2169,-32.2756,566.3925],[-65.2122,-32.2608,554.022],[-65.217,-32.2434,552.3392],[-65.2206,-32.2365,548.5519],[-65.2246,-32.2326,544.9863],[-65.2293,-32.2197,540.8143],[-65.2424,-32.2069,537.4795],[-65.2418,-32.1917,540.9689],[-65.2351,-32.1644,521.2164],[-65.2391,-32.1548,520.6937],[-65.2397,-32.1446,516.3861],[-65.243,-32.1405,514.0715],[-65.2433,-32.1354,510.3492],[-65.2518,-32.1252,505.3288],[-65.2526,-32.1177,497.7421],[-65.2486,-32.1138,500.0993],[-65.2485,-32.1088,496.4122],[-65.2559,-32.0978,491.8924],[-65.2573,-32.0928,490.2068],[-65.2781,-32.0745,479.7548],[-65.29,-32.0567,472.8632],[-65.3199,-32.0399,462.2667],[-65.4043,-32.0066,433.0894],[-65.6461,-31.8952,350.4727],[-65.6527,-31.8869,348.5277],[-65.6581,-31.8841,346.6768],[-65.6823,-31.8895,345.3023],[-65.7425,-31.8852,342.7145],[-65.7886,-31.8857,339.5782],[-65.8623,-31.8949,339.7051],[-65.9048,-31.8984,343.7866],[-65.9187,-31.8969,344.0037],[-65.9487,-31.8866,342.3908],[-65.9553,-31.886,341.6793],[-66.0176,-31.9212,352.9722],[-66.0604,-31.9429,362.728],[-66.0682,-31.9494,367.5498],[-66.0723,-31.9554,371.4391],[-66.0722,-31.9704,376.7934],[-66.0729,-31.9725,377.858],[-66.0753,-31.9728,378.4258],[-66.0857,-31.9678,378.0077],[-66.1107,-31.9507,375.4474],[-66.1239,-31.9459,377.7657],[-66.1308,-31.9467,379.651],[-66.1372,-31.9498,382.7601],[-66.1409,-31.9547,384.4999],[-66.1475,-31.9698,389.3387],[-66.1532,-31.9705,391.3212],[-66.2532,-31.9465,454.6548],[-66.2813,-31.9427,485.3522],[-66.3064,-31.9426,608.037],[-66.3161,-31.9457,587.821],[-66.3279,-31.9529,568.8229],[-66.3348,-31.9597,543.0942],[-66.3432,-31.9732,520.282],[-66.3426,-32.0025,486.2364],[-66.3885,-32.0008,507.2206],[-66.5596,-31.9769,415.1264],[-66.5579,-31.9573,403.1992],[-66.5632,-31.9555,400.0512],[-66.6103,-31.9529,367.4162],[-66.6277,-31.9495,367.0657],[-66.6407,-31.9449,366.5504],[-66.6833,-31.9176,366.2416],[-66.6994,-31.8976,366.1519],[-66.7131,-31.8872,366.069],[-66.7403,-31.887,367.0632],[-66.7526,-31.8931,367.2061],[-66.7663,-31.8963,367.937],[-66.8157,-31.9006,377.8707],[-66.8727,-31.9017,410.2613],[-66.8797,-31.9012,412.6273],[-66.8916,-31.8958,417.7509],[-66.9306,-31.899,436.353],[-66.9803,-31.9003,465.5874],[-67.0582,-31.8961,522.858],[-67.0941,-31.8982,564.663],[-67.101,-31.8925,565.7555],[-67.1024,-31.8894,564.6846],[-67.113,-31.8824,570.896],[-67.1415,-31.8793,600.2596],[-67.1841,-31.8794,649.0249],[-67.2367,-31.8869,774.3505],[-67.2435,-31.8865,785.1878],[-67.2637,-31.8801,563.6974],[-67.2911,-31.8738,528.3527],[-67.3261,-31.8685,527.5886],[-67.3472,-31.8686,529.5947],[-67.3861,-31.8746,529.4756],[-67.3875,-31.8794,529.3828],[-67.3724,-31.9302,522.4583],[-67.3718,-31.9514,519.6066],[-67.3601,-31.9734,518.6496],[-67.362,-31.9912,517.4844],[-67.3562,-32.0023,515.2523],[-67.3717,-32.0551,510.7039],[-67.3763,-32.0763,507.8447],[-67.3771,-32.0967,507.6657],[-67.3808,-32.1221,505.6675],[-67.3738,-32.1468,504.5735],[-67.3681,-32.1557,503.4207],[-67.3667,-32.1608,502.5621],[-67.3651,-32.1862,501.4862],[-67.3579,-32.2111,498.9446],[-67.3568,-32.2636,494.8676],[-67.3242,-32.2963,492.6192],[-67.2872,-32.3594,491.0737],[-67.3693,-32.359,491.2507],[-67.3672,-32.376,490.333],[-67.3566,-32.3943,490.0298],[-67.3398,-32.3992,488.8531],[-67.33,-32.4119,489.3922],[-67.3238,-32.4391,486.8469],[-67.3186,-32.4514,486.0607],[-67.3176,-32.4616,485.6222],[-67.3061,-32.4763,484.221],[-67.3025,-32.4991,483.0784],[-67.2984,-32.5114,481.8224],[-67.2982,-32.5292,480.8552],[-67.2854,-32.5522,479.614],[-67.2859,-32.5572,479.2364],[-67.2911,-32.5665,478.9075],[-67.2919,-32.5741,478.6226],[-67.2893,-32.5786,478.6215],[-67.2672,-32.5997,477.9126],[-67.2626,-32.6092,477.4317],[-67.2607,-32.6166,477.0501],[-67.263,-32.6267,477.1266],[-67.2604,-32.6366,476.7343],[-67.262,-32.6492,475.8178],[-67.2532,-32.6655,475.1852],[-67.249,-32.683,475.1673],[-67.2439,-32.6922,474.2856],[-67.2175,-32.7046,475.0342],[-67.2099,-32.7124,474.9408],[-67.2038,-32.7241,474.7632],[-67.204,-32.742,474.3785],[-67.1896,-32.7669,471.2139],[-67.1894,-32.7693,471.2852],[-67.1923,-32.773,474.4307],[-67.1885,-32.777,472.873],[-67.1886,-32.7871,471.7565],[-67.1988,-32.7927,471.6108],[-67.2027,-32.7965,471.8284],[-67.2118,-32.8153,471.8731],[-67.2116,-32.8255,470.6206],[-67.201,-32.8573,469.278],[-67.2016,-32.8751,468.8693],[-67.2052,-32.8875,468.2143],[-67.2057,-32.9028,468.2007],[-67.2149,-32.9159,467.6046],[-67.2162,-32.9261,466.3401],[-67.2198,-32.9358,466.3724],[-67.2128,-32.95,467.4265],[-67.2024,-32.9626,465.3768],[-67.2,-32.9699,464.7724],[-67.2019,-32.9903,462.8713],[-67.2065,-32.9996,464.3907],[-67.2023,-33.0145,459.5698],[-67.2019,-33.0221,459.2932],[-67.2055,-33.0345,460.855],[-67.2119,-33.046,461.4352],[-67.2098,-33.0508,460.7001],[-67.2033,-33.0562,461.2788],[-67.2031,-33.0611,461.5277],[-67.1976,-33.0669,460.8216],[-67.1948,-33.0742,461.8894],[-67.1984,-33.0916,457.3246],[-67.196,-33.1247,460.851],[-67.1942,-33.1348,456.6529],[-67.1896,-33.1442,456.0891],[-67.183,-33.1528,455.9045],[-67.1809,-33.1628,455.9341],[-67.1888,-33.2029,455.8952],[-67.1865,-33.2437,457.6797],[-67.1837,-33.2483,457.7827],[-67.182,-33.2584,457.7633],[-67.1831,-33.2864,460.6275],[-67.1798,-33.2962,456.8619],[-67.1666,-33.3068,455.6713],[-67.1553,-33.3219,452.9236],[-67.1564,-33.3321,454.0349],[-67.1597,-33.3388,455.3996],[-67.1592,-33.3618,452.7571],[-67.1531,-33.376,452.1092],[-67.1552,-33.3861,456.344],[-67.1608,-33.3951,460.1704],[-67.1567,-33.402,459.7624],[-67.1563,-33.4326,457.2227],[-67.1407,-33.4546,456.7338],[-67.1354,-33.4664,455.2523],[-67.119,-33.4811,454.0392],[-67.1079,-33.5157,453.092],[-67.1033,-33.5252,452.7986],[-67.0961,-33.5333,448.7568],[-67.0874,-33.536,451.4446],[-67.0776,-33.5418,451.4025],[-67.0708,-33.5641,444.8062],[-67.0628,-33.575,448.3394],[-67.0476,-33.5875,446.6575],[-67.0188,-33.5958,448.3175],[-67.0114,-33.6038,449.1685],[-67.0112,-33.6166,439.5198],[-67.0059,-33.6254,441.6912],[-67.0082,-33.643,441.8299],[-67.0031,-33.6736,440.4745],[-67.003,-33.6889,438.7573],[-67.0001,-33.6934,438.2101],[-66.9764,-33.7131,438.3446],[-66.9308,-33.7339,444.5722],[-66.9,-33.7587,430.9011],[-66.8928,-33.7698,433.1204],[-66.8899,-33.7824,432.5173],[-66.8887,-33.8027,429.4988],[-66.8602,-33.8327,426.3745],[-66.8483,-33.8476,425.5225],[-66.8445,-33.8572,424.7289],[-66.8433,-33.8699,424.5088],[-66.8238,-33.8988,422.741],[-66.8145,-33.9054,423.0192],[-66.8086,-33.9064,421.383],[-66.79,-33.915,419.9778],[-66.7876,-33.9167,419.4778],[-66.7853,-33.9239,419.2545],[-66.782,-33.9285,418.7493],[-66.7683,-33.9336,415.4684],[-66.7592,-33.9336,417.1387],[-66.7428,-33.9452,417.1964],[-66.7399,-33.9496,417.0244],[-66.7393,-33.9598,415.3256],[-66.7411,-33.9671,415.2977],[-66.7267,-34.0024,412.5251],[-66.731,-34.0233,411.5896],[-66.7409,-34.0571,409.9821],[-66.7373,-34.0612,410.0234],[-66.737,-34.064,410.1442],[-66.7375,-34.0914,408.215],[-66.739,-34.0962,408.4951],[-66.7489,-34.1085,407.8172],[-66.7446,-34.1153,407.4469],[-66.7365,-34.1227,407.1343],[-66.7352,-34.1326,404.1875],[-66.7382,-34.1397,405.9967],[-66.7535,-34.1517,406.456],[-66.7559,-34.1591,405.8255],[-66.7477,-34.175,405.0529],[-66.7467,-34.1874,403.7361],[-66.7436,-34.1944,403.5374],[-66.7496,-34.2037,402.8337],[-66.7539,-34.2058,402.9297],[-66.7729,-34.1977,403.9929],[-66.7775,-34.2013,403.8998],[-66.7765,-34.2111,402.749],[-66.7791,-34.216,402.3831],[-66.784,-34.2164,403.0983],[-66.7961,-34.2108,402.7716],[-66.7982,-34.2109,402.4734],[-66.8011,-34.217,402.3863],[-66.8069,-34.2426,402.4384],[-66.8036,-34.252,400.7798],[-66.8051,-34.262,401.7108],[-66.8028,-34.282,399.6334],[-66.8037,-34.2843,399.6635],[-66.811,-34.2888,399.2412],[-66.8115,-34.291,399.8372],[-66.8091,-34.2985,398.3214],[-66.8036,-34.3073,392.08],[-66.8033,-34.315,391.0603],[-66.8082,-34.3241,397.7897],[-66.8171,-34.3307,397.2898],[-66.8044,-34.3446,394.8541],[-66.8009,-34.3571,396.1359],[-66.7897,-34.3545,395.1235],[-66.7865,-34.3572,395.4078],[-66.7845,-34.3631,394.0517],[-66.7855,-34.368,394.308],[-66.7898,-34.3717,389.8599],[-66.7873,-34.3818,394.6465],[-66.7883,-34.3836,394.586],[-66.7975,-34.3857,393.8461],[-66.8062,-34.3845,396.3401],[-66.8067,-34.3921,395.4011],[-66.804,-34.3964,394.1427],[-66.7785,-34.4141,390.9211],[-66.7726,-34.4256,387.3432],[-66.7717,-34.433,389.9151],[-66.7783,-34.4574,391.5939],[-66.7723,-34.4792,389.1293],[-66.7764,-34.5015,389.2391],[-66.7757,-34.514,389.2819],[-66.7738,-34.5213,389.0405],[-66.7648,-34.5371,385.8863],[-66.7579,-34.5536,384.2977],[-66.753,-34.5707,383.4424],[-66.7504,-34.5879,385.0574],[-66.7335,-34.6117,387.1337],[-66.7265,-34.6281,385.9946],[-66.7194,-34.6362,384.3223],[-66.7045,-34.6486,380.8389],[-66.6964,-34.6701,381.6591],[-66.6846,-34.6877,380.9398],[-66.6479,-34.705,392.4251],[-66.6393,-34.7153,386.8656],[-66.6369,-34.7225,383.9686],[-66.6387,-34.7298,377.7382],[-66.6533,-34.7429,378.8792],[-66.6551,-34.7471,380.2085],[-66.6275,-34.7833,379.7806],[-66.6191,-34.7966,378.6956],[-66.6045,-34.8092,378.2248],[-66.5967,-34.82,377.1805],[-66.5835,-34.8336,377.1042],[-66.5762,-34.8446,376.3293],[-66.5675,-34.8632,376.337],[-66.5619,-34.8826,376.4337],[-66.5528,-34.8984,369.9656],[-66.5479,-34.9332,373.2683],[-66.5387,-34.9489,370.4386],[-66.5398,-34.9588,369.2933],[-66.5524,-34.9726,370.5327],[-66.5553,-34.9903,371.2168],[-66.5528,-35.0001,370.9113],[-66.5478,-35.0091,370.2296],[-66.5503,-35.0214,370.9278],[-66.5413,-35.0373,368.6235],[-66.5422,-35.0522,368.6709],[-66.5409,-35.059,369.0059],[-66.533,-35.0704,365.9997],[-66.528,-35.0873,367.2045],[-66.5165,-35.0988,366.5399],[-66.5145,-35.1088,365.5566],[-66.5068,-35.1223,364.1283],[-66.5036,-35.1522,361.9736],[-66.5075,-35.1945,359.2882],[-66.5023,-35.2368,356.1843],[-66.5058,-35.2463,354.8948],[-66.5138,-35.2568,354.8948],[-66.5152,-35.2643,353.6346],[-66.5226,-35.2725,353.4162],[-66.5245,-35.277,353.471],[-66.5201,-35.3042,357.1646],[-66.5076,-35.3243,354.1344],[-66.5077,-35.3418,352.5436],[-66.5114,-35.359,351.2561],[-66.5211,-35.3827,355.8629],[-66.5207,-35.3952,349.9367],[-66.53,-35.4137,347.9821],[-66.5272,-35.431,346.7232],[-66.527,-35.4735,346.5404],[-66.5313,-35.4931,344.747],[-66.5337,-35.5255,344.1105],[-66.5391,-35.5372,342.9372],[-66.539,-35.5472,342.6642],[-66.5532,-35.5663,345.211],[-66.5648,-35.5741,342.4208],[-66.5762,-35.5918,345.7695],[-66.5777,-35.5968,345.9795],[-66.5761,-35.6039,345.7051],[-66.5654,-35.6093,340.9593],[-66.5696,-35.6212,344.8737],[-66.5697,-35.6261,345.394],[-66.5605,-35.6325,340.9314],[-66.5591,-35.6398,340.7861],[-66.5618,-35.647,341.0235],[-66.5684,-35.6554,342.0519],[-66.5708,-35.6728,341.1658],[-66.5854,-35.7109,335.4615],[-66.5858,-35.7158,338.3834],[-66.582,-35.7356,333.943],[-66.5871,-35.7472,336.0419],[-66.5827,-35.7671,335.4001],[-66.5831,-35.7718,332.0175],[-66.598,-35.7992,335.1315],[-66.6012,-35.8088,334.9702],[-66.6024,-35.8187,328.5187],[-66.6158,-35.8467,330.3916],[-66.6195,-35.8715,328.2134],[-66.6163,-35.8862,330.334],[-66.6193,-35.9012,326.2305],[-66.6216,-35.9058,327.7595],[-66.6306,-35.9075,328.3479],[-66.6318,-35.9092,329.3594],[-66.6307,-35.927,323.8652],[-66.6263,-35.9416,323.7884],[-66.6348,-35.9547,328.1402],[-66.6373,-35.9671,326.2385],[-66.6261,-35.9989,326.0932],[-65.6475,-35.999,338.7474],[-65.1022,-35.9969,293.6699],[-65.1073,-34.8539,288.3672]]]]}}