{"type":"Feature","properties":{"GID_2":"ARG.1.35_1","GID_0":"ARG","country":"Argentina","GID_1":"ARG.1_1","state":"BuenosAires","NL_NAME_1":"NA","county":"Dolores","VARNAME_2":"NA","NL_NAME_2":"NA","TYPE_2":"Partido","ENGTYPE_2":"Part","CC_2":"NA","HASC_2":"AR.BA.DO","name":"Dolores.county"},
"geometry":{"type": "MultiPolygon","coordinates": [[[[-57.978,-36.2662,9.2952],[-57.994,-36.2803,8.6795],[-57.7803,-36.4401,8.7217],[-57.7965,-36.4536,16.2152],[-57.801,-36.4514,9.364],[-57.8182,-36.4669,9.982],[-57.7832,-36.4945,7.9935],[-57.8529,-36.5555,9.3418],[-57.768,-36.6255,8.9108],[-57.782,-36.6368,9.2099],[-57.659,-36.7295,8.1375],[-57.5032,-36.5893,4.1809],[-57.472,-36.5729,4.4481],[-57.4065,-36.5127,4.5199],[-57.4476,-36.4813,4.8572],[-57.4246,-36.4614,4.1825],[-57.4068,-36.4183,5.1095],[-57.3509,-36.3677,3.6337],[-57.4822,-36.338,4.783],[-57.425,-36.1612,4.4703],[-57.5369,-36.1353,5.0115],[-57.5354,-36.131,4.9939],[-57.6499,-36.109,5.4351],[-57.6776,-36.2045,6.8926],[-57.7885,-36.1795,8.2563],[-57.8192,-36.279,8.3591],[-57.8765,-36.2685,8.894],[-57.8879,-36.3028,9.2608],[-57.9709,-36.2725,8.7475],[-57.978,-36.2662,9.2952]]]]}}