{"type": "Feature","bbox": [-65.5784,-23.8207,-65.0258,-23.2889],"geometry": {"type": "MultiPolygon","coordinates": [[[[-65.5454,-23.473,4685.0996],[-65.5612,-23.5429,4512.6084],[-65.5196,-23.6121,3317.4856],[-65.506,-23.6425,3544.6309],[-65.4901,-23.6848,3270.6577],[-65.4064,-23.7126,3736.3796],[-65.3732,-23.6838,3841.8291],[-65.3362,-23.687,4485.4072],[-65.3438,-23.7573,3905.6833],[-65.3311,-23.7734,3609.9939],[-65.3235,-23.7802,3285.7388],[-65.2948,-23.7937,2890.7427],[-65.2593,-23.8159,2167.614],[-65.242,-23.8202,2357.7822],[-65.2242,-23.8207,2446.3467],[-65.2041,-23.8135,1909.4524],[-65.1794,-23.8105,1538.0107],[-65.1543,-23.7921,1659.8633],[-65.1368,-23.7889,1347.8361],[-65.1213,-23.7971,1327.4751],[-65.1089,-23.8088,1175.7863],[-65.1029,-23.8106,1245.6566],[-65.065,-23.7507,1277.9448],[-65.0365,-23.7189,1254.6506],[-65.036,-23.7025,1028.4447],[-65.0258,-23.6847,1135.8323],[-65.0275,-23.6814,1061.7849],[-65.143,-23.5371,1970.9987],[-65.1253,-23.411,3942.3738],[-65.1785,-23.3205,4434.8584],[-65.2505,-23.3655,4409.4873],[-65.2818,-23.3812,4055.761],[-65.3164,-23.3891,3176.843],[-65.3341,-23.3894,2786.5203],[-65.3483,-23.3877,2743.8838],[-65.3806,-23.3737,2858.314],[-65.3928,-23.3621,3116.6155],[-65.4071,-23.3609,3134.1899],[-65.453,-23.343,3383.6052],[-65.4801,-23.3272,3127.2905],[-65.4918,-23.3149,3293.8154],[-65.5129,-23.3115,3264.1604],[-65.5448,-23.2906,3430.8845],[-65.5774,-23.2889,3516.2612],[-65.5784,-23.2942,3549.2168],[-65.5728,-23.3309,3647.6978],[-65.5763,-23.347,3757.7207],[-65.5753,-23.3535,3834.4973],[-65.535,-23.4267,4936.3115],[-65.5454,-23.473,4685.0996]]]]}
,"properties": {"GID_2": "ARG.10.13_1","GID_0": "ARG","country": "Argentina","GID_1": "ARG.10_1","state": "Jujuy","NL_NAME_1": "NA","county": "Tilcara","VARNAME_2": "NA","NL_NAME_2": "NA","TYPE_2": "Departamento","ENGTYPE_2": "Department","CC_2": "NA","HASC_2": "AR.JY.TI","name": "Tilcara.county","area_km2": 2017.123,"hist_schema_id": "Elevation0-9000","hist_area_km2": {"975": 0.078,"1000": 0.214,"1025": 0.408,"1050": 0.582,"1075": 0.718,"1100": 1.145,"1125": 1.553,"1150": 2.349,"1175": 3.106,"1200": 3.688,"1225": 5.377,"1250": 6.541,"1275": 8.268,"1300": 8.675,"1325": 9.626,"1350": 10.015,"1375": 9.141,"1400": 9.045,"1425": 8.754,"1450": 8.967,"1475": 8.23,"1500": 7.299,"1525": 6.619,"1550": 6.988,"1575": 5.61,"1600": 5.784,"1625": 5.629,"1650": 5.707,"1675": 5.066,"1700": 5.629,"1725": 5.532,"1750": 5.125,"1775": 5.533,"1800": 5.222,"1825": 5.164,"1850": 5.281,"1875": 5.397,"1900": 5.261,"1925": 5.824,"1950": 5.417,"1975": 5.591,"2000": 5.436,"2025": 5.688,"2050": 5.339,"2075": 5.514,"2100": 5.494,"2125": 5.805,"2150": 5.533,"2175": 5.825,"2200": 5.747,"2225": 6.097,"2250": 6.893,"2275": 7.242,"2300": 7.67,"2325": 8.447,"2350": 9.301,"2375": 11.399,"2400": 12.118,"2425": 11.808,"2450": 12.43,"2475": 15.656,"2500": 16.976,"2525": 16.006,"2550": 16.123,"2575": 16.862,"2600": 18.399,"2625": 18.42,"2650": 20.014,"2675": 20.23,"2700": 22.096,"2725": 20.425,"2750": 20.366,"2775": 19.861,"2800": 19.258,"2825": 20.036,"2850": 19.355,"2875": 19.746,"2900": 19.862,"2925": 18.308,"2950": 19.046,"2975": 19.318,"3000": 19.725,"3025": 19.046,"3050": 19.143,"3075": 19.046,"3100": 19.047,"3125": 19.552,"3150": 19.864,"3175": 21.07,"3200": 20.079,"3225": 20.449,"3250": 19.865,"3275": 19.633,"3300": 20.1,"3325": 20.101,"3350": 19.11,"3375": 19.577,"3400": 18.798,"3425": 19.13,"3450": 20.587,"3475": 21.347,"3500": 19.266,"3525": 21.619,"3550": 22.535,"3575": 25.142,"3600": 24.655,"3625": 23.371,"3650": 23.993,"3675": 23.293,"3700": 22.496,"3725": 24.267,"3750": 25.201,"3775": 25.704,"3800": 26.152,"3825": 25.296,"3850": 22.79,"3875": 22.597,"3900": 20.789,"3925": 20.187,"3950": 20.127,"3975": 19.37,"4000": 19.409,"4025": 17.463,"4050": 18.65,"4075": 17.114,"4100": 16.51,"4125": 16.491,"4150": 16.334,"4175": 16.138,"4200": 16.739,"4225": 14.678,"4250": 14.813,"4275": 14.308,"4300": 12.694,"4325": 13.568,"4350": 12.869,"4375": 12.966,"4400": 13.005,"4425": 12.83,"4450": 11.372,"4475": 10.03,"4500": 9.894,"4525": 8.962,"4550": 9.311,"4575": 8.359,"4600": 7.543,"4625": 6.551,"4650": 6.726,"4675": 5.871,"4700": 5.25,"4725": 4.977,"4750": 4.589,"4775": 4.316,"4800": 3.83,"4825": 3.675,"4850": 2.897,"4875": 2.586,"4900": 2.139,"4925": 1.711,"4950": 1.07,"4975": 1.264,"5000": 0.972,"5025": 0.798,"5050": 0.7,"5075": 0.447,"5100": 0.233,"5150": 0.039}}}