{"type": "Feature","bbox": [-65.2352,-24.0942,-64.4438,-23.4581],"geometry": {"type": "MultiPolygon","coordinates": [[[[-65.0693,-24.0271,973.1489],[-65.0561,-24.0404,875.9032],[-65.0555,-24.0473,872.6313],[-65.0069,-24.0281,753.7155],[-64.9687,-24.019,707.6325],[-64.933,-24.0157,644.4252],[-64.9089,-24.0092,682.7707],[-64.9019,-24.0095,696.8031],[-64.8844,-24.0137,724.5056],[-64.8747,-24.018,628.1448],[-64.8587,-24.0357,631.9415],[-64.8431,-24.0436,587.438],[-64.8391,-24.0528,557.5115],[-64.8248,-24.0623,478.5363],[-64.8087,-24.088,432.065],[-64.8003,-24.0942,425.8292],[-64.7507,-24.088,408.4942],[-64.723,-24.0736,398.9391],[-64.7003,-24.082,401.4472],[-64.6853,-24.0438,389.1886],[-64.6801,-24.0247,388.9072],[-64.6689,-24.008,394.8833],[-64.6637,-23.9854,383.3726],[-64.6637,-23.9723,381.8635],[-64.6587,-23.9498,382.3827],[-64.653,-23.9308,377.212],[-64.6469,-23.919,376.0382],[-64.6453,-23.9059,376.1067],[-64.6384,-23.8907,373.1785],[-64.6257,-23.8708,363.3281],[-64.6241,-23.8612,365.0333],[-64.6191,-23.8565,361.3819],[-64.617,-23.8435,367.3495],[-64.6035,-23.8326,368.4143],[-64.5976,-23.8171,362.5341],[-64.5905,-23.8099,362.509],[-64.5842,-23.7981,357.576],[-64.575,-23.788,355.4735],[-64.5697,-23.7758,354.5836],[-64.5653,-23.7705,358.0049],[-64.5642,-23.7676,357.6888],[-64.5662,-23.7544,357.531],[-64.5638,-23.7449,354.9799],[-64.5554,-23.7342,352.7349],[-64.5351,-23.7207,402.9594],[-64.5177,-23.7176,356.7672],[-64.5117,-23.7058,354.7081],[-64.497,-23.6962,351.121],[-64.4952,-23.6934,354.5269],[-64.4956,-23.6867,348.4219],[-64.4938,-23.6841,345.6228],[-64.4685,-23.6717,339.9594],[-64.4594,-23.6539,338.864],[-64.4438,-23.6349,341.6194],[-64.4487,-23.6345,340.4324],[-64.4499,-23.6292,344.7227],[-64.4593,-23.623,346.0361],[-64.4622,-23.6187,349.9376],[-64.4644,-23.6028,356.0855],[-64.4622,-23.5978,360.3192],[-64.4639,-23.5931,364.3529],[-64.4747,-23.5887,368.3084],[-64.4777,-23.5843,374.3503],[-64.4832,-23.5826,378.8426],[-64.4844,-23.5877,376.1997],[-64.4888,-23.5848,376.7888],[-64.4942,-23.5751,390.688],[-64.4999,-23.5719,401.3816],[-64.516,-23.549,451.5572],[-64.5493,-23.5189,504.1387],[-64.5538,-23.516,517.1714],[-64.5822,-23.5093,591.9661],[-64.6024,-23.4981,628.9633],[-64.6352,-23.4862,706.2288],[-64.6453,-23.481,862.4615],[-64.6611,-23.465,863.4397],[-64.67,-23.4581,883.0674],[-64.6758,-23.459,867.1626],[-64.6807,-23.462,995.2359],[-64.6979,-23.4639,1054.499],[-64.7087,-23.4683,1158.4155],[-64.7261,-23.4692,1351.0159],[-64.7489,-23.4741,1529.5111],[-64.7541,-23.4767,1374.3085],[-64.7623,-23.4846,1837.8823],[-64.7674,-23.4868,1647.9839],[-64.7794,-23.4873,1676.0103],[-64.8005,-23.506,2051.208],[-64.811,-23.5103,2051.5234],[-64.8228,-23.5104,2106.0684],[-64.8283,-23.5088,2397.8447],[-64.8488,-23.498,2746.2285],[-64.8611,-23.5005,2472.9661],[-64.8511,-23.5484,3298.0254],[-64.8411,-23.622,2342.9741],[-64.8961,-23.6925,1446.3816],[-64.9391,-23.7338,929.165],[-64.9868,-23.7175,1518.3162],[-65.0258,-23.6847,1135.8323],[-65.036,-23.7025,1028.4447],[-65.0365,-23.7189,1254.6506],[-65.065,-23.7507,1277.9448],[-65.1029,-23.8106,1245.6566],[-65.1117,-23.8068,1198.118],[-65.1186,-23.7992,1354.7966],[-65.1272,-23.7933,1246.7686],[-65.1335,-23.79,1285.1549],[-65.1404,-23.789,1396.5413],[-65.1574,-23.7938,1697.2461],[-65.1794,-23.8105,1538.0107],[-65.2041,-23.8135,1909.4524],[-65.2242,-23.8207,2446.3467],[-65.2352,-23.8206,2621.8757],[-65.2299,-23.8385,2388.6501],[-65.2125,-23.8736,1763.6102],[-65.2074,-23.8707,1755.116],[-65.1967,-23.8699,1570.4602],[-65.1789,-23.8715,1201.6908],[-65.1618,-23.8761,1092.6796],[-65.1591,-23.882,1178.2142],[-65.1497,-23.8869,1146.3733],[-65.1366,-23.9026,1138.7123],[-65.1256,-23.911,1170.3531],[-65.1037,-23.9328,1242.7256],[-65.0949,-23.9543,954.8988],[-65.0872,-23.9965,1364.1667],[-65.0693,-24.0271,973.1489]]]]}
,"properties": {"GID_2": "ARG.10.5_1","GID_0": "ARG","country": "Argentina","GID_1": "ARG.10_1","state": "Jujuy","NL_NAME_1": "NA","county": "Ledesma","VARNAME_2": "Lib.Gral.SanMartin","NL_NAME_2": "NA","TYPE_2": "Departamento","ENGTYPE_2": "Department","CC_2": "NA","HASC_2": "AR.JY.LE","name": "Ledesma.county","area_km2": 2802.108,"hist_schema_id": "Elevation0-9000","hist_area_km2": {"325": 1.088,"350": 68.956,"375": 283.753,"400": 278.598,"425": 121.604,"450": 76.647,"475": 67.205,"500": 60.146,"525": 53.728,"550": 53.515,"575": 48.861,"600": 48.379,"625": 48.689,"650": 47.623,"675": 48.492,"700": 47.906,"725": 49.862,"750": 45.633,"775": 46.565,"800": 47.318,"825": 47.844,"850": 50.479,"875": 53.133,"900": 49.607,"925": 48.293,"950": 45.809,"975": 46.274,"1000": 46.371,"1025": 45.304,"1050": 43.497,"1075": 43.149,"1100": 42.409,"1125": 43.01,"1150": 42.254,"1175": 40.333,"1200": 36.687,"1225": 34.787,"1250": 32.517,"1275": 30.461,"1300": 29.55,"1325": 29.242,"1350": 25.089,"1375": 22.995,"1400": 21.54,"1425": 19.582,"1450": 17.234,"1475": 15.431,"1500": 14.131,"1525": 12.268,"1550": 12.133,"1575": 10.659,"1600": 9.34,"1625": 9.418,"1650": 7.904,"1675": 7.477,"1700": 7.088,"1725": 7.517,"1750": 5.904,"1775": 6.177,"1800": 7.109,"1825": 6.294,"1850": 6.177,"1875": 6.294,"1900": 5.983,"1925": 5.887,"1950": 5.654,"1975": 5.654,"2000": 4.955,"2025": 4.585,"2050": 4.372,"2075": 5.188,"2100": 4.45,"2125": 4.003,"2150": 3.964,"2175": 3.672,"2200": 3.808,"2225": 3.4,"2250": 3.245,"2275": 2.954,"2300": 2.662,"2325": 2.448,"2350": 2.273,"2375": 2.118,"2400": 1.962,"2425": 1.866,"2450": 1.963,"2475": 1.749,"2500": 1.594,"2525": 1.827,"2550": 1.652,"2575": 1.866,"2600": 1.536,"2625": 1.419,"2650": 1.166,"2675": 1.419,"2700": 0.875,"2725": 1.438,"2750": 1.186,"2775": 0.972,"2800": 1.05,"2825": 0.875,"2850": 0.894,"2875": 1.283,"2900": 0.933,"2925": 0.797,"2950": 0.855,"2975": 0.739,"3000": 0.739,"3025": 0.641,"3050": 0.525,"3075": 0.641,"3100": 0.505,"3125": 0.486,"3150": 0.505,"3175": 0.428,"3200": 0.428,"3225": 0.214,"3250": 0.33,"3275": 0.058,"3300": 0.058}}}