{"type":"Feature","properties":{"GID_2":"ARG.24.12_1","GID_0":"ARG","country":"Argentina","GID_1":"ARG.24_1","state":"Tucumán","NL_NAME_1":"NA","county":"RióChico","VARNAME_2":"Aquilares","NL_NAME_2":"NA","TYPE_2":"Departamento","ENGTYPE_2":"Department","CC_2":"NA","HASC_2":"AR.TM.RC","name":"RióChico.county"},
"geometry":{"type": "MultiPolygon","coordinates": [[[[-65.9713,-27.4198,1730.1395],[-65.9316,-27.4384,1719.3467],[-65.9119,-27.4613,1768.6628],[-65.9085,-27.4684,1520.0667],[-65.8946,-27.4806,1759.0991],[-65.8889,-27.4887,1760.3848],[-65.8799,-27.4939,1570.6627],[-65.8757,-27.5027,1681.6978],[-65.8517,-27.5157,1453.6221],[-65.8369,-27.5298,1316.6039],[-65.8324,-27.5364,1252.4591],[-65.8308,-27.5366,1229.723],[-65.8295,-27.5328,1131.3281],[-65.821,-27.5241,869.3469],[-65.8069,-27.5152,936.0807],[-65.7876,-27.5164,663.7648],[-65.7495,-27.5107,653.3118],[-65.7446,-27.5169,656.9878],[-65.7393,-27.5201,579.4968],[-65.7031,-27.5248,465.6127],[-65.6886,-27.521,437.9471],[-65.6713,-27.5098,406.3055],[-65.6674,-27.5114,399.3187],[-65.6654,-27.5147,400.1816],[-65.6572,-27.5172,393.8293],[-65.6551,-27.5169,392.0606],[-65.6574,-27.5143,393.1745],[-65.6563,-27.5111,391.5316],[-65.646,-27.5081,382.7629],[-65.6417,-27.5075,381.28],[-65.6292,-27.51,375.0982],[-65.6103,-27.5063,363.1931],[-65.5997,-27.5079,359.2676],[-65.5875,-27.5119,356.6409],[-65.5672,-27.5261,350.5999],[-65.559,-27.535,348.6524],[-65.5535,-27.536,347.1793],[-65.5516,-27.5169,346.2227],[-65.5418,-27.4808,346.297],[-65.5395,-27.4776,345.7273],[-65.5396,-27.4756,345.2019],[-65.5416,-27.4751,345.9111],[-65.548,-27.4802,348.2358],[-65.5543,-27.4805,348.9394],[-65.5603,-27.4785,349.3517],[-65.5642,-27.474,351.6066],[-65.5524,-27.4234,358.5157],[-65.5559,-27.4221,354.7972],[-65.5623,-27.4144,358.3242],[-65.5661,-27.4126,358.9282],[-65.5852,-27.4096,361.7922],[-65.606,-27.4126,366.6303],[-65.6079,-27.4116,366.6303],[-65.6072,-27.4059,371.7001],[-65.6087,-27.4024,369.9355],[-65.6171,-27.401,376.579],[-65.6195,-27.4041,376.0515],[-65.6199,-27.4098,372.5997],[-65.6221,-27.4099,373.1231],[-65.6331,-27.4005,380.042],[-65.6391,-27.3999,382.4798],[-65.642,-27.3973,389.6758],[-65.644,-27.3979,386.1037],[-65.6497,-27.3924,391.3013],[-65.6535,-27.3931,389.4204],[-65.6574,-27.3977,387.9047],[-65.6659,-27.3977,390.7626],[-65.675,-27.387,406.662],[-65.6791,-27.3761,411.5161],[-65.6859,-27.3713,418.0642],[-65.6918,-27.3633,429.3401],[-65.7094,-27.3524,456.5823],[-65.723,-27.3467,476.5271],[-65.736,-27.3472,497.1996],[-65.755,-27.3435,525.9045],[-65.7657,-27.3431,551.0474],[-65.778,-27.3394,565.1632],[-65.8038,-27.3385,657.4122],[-65.8101,-27.3394,652.1447],[-65.8146,-27.3436,709.5865],[-65.8206,-27.3456,737.6866],[-65.8462,-27.3428,788.1276],[-65.8613,-27.3498,857.4852],[-65.8675,-27.3485,952.8829],[-65.8714,-27.3497,951.4898],[-65.8843,-27.349,919.0369],[-65.899,-27.3516,1088.3793],[-65.9064,-27.3611,1033.9221],[-65.9137,-27.3648,1144.0162],[-65.9156,-27.3684,1330.3892],[-65.9213,-27.3704,1497.6742],[-65.9271,-27.3785,1305.3546],[-65.9306,-27.3808,1190.0339],[-65.9515,-27.3829,1700.5671],[-65.9704,-27.3805,1911.6305],[-65.9673,-27.3987,1321.2469],[-65.9713,-27.4198,1730.1395]]]]}}