{"type": "Feature","bbox": [-63.5806,-33.1412,-62.854,-32.0083],"geometry": {"type": "MultiPolygon","coordinates": [[[[-63.2042,-33.1221,140.052],[-63.1916,-33.1246,139.0774],[-63.1339,-32.9145,152.1422],[-63.1165,-32.9156,147.2169],[-63.0954,-32.8387,150.3191],[-63.0688,-32.8424,148.8286],[-63.0615,-32.814,150.3863],[-63.1121,-32.8024,154.1911],[-63.074,-32.6441,162.6317],[-63.0694,-32.6363,162.7809],[-63.0715,-32.6312,164.0613],[-63.0758,-32.6273,165.2671],[-63.1078,-32.6222,168.5535],[-63.1245,-32.6138,170.7194],[-63.1287,-32.6099,171.9469],[-63.1289,-32.5933,173.4151],[-63.1246,-32.5716,172.5897],[-63.1117,-32.5346,175.0567],[-63.098,-32.5159,173.6636],[-63.1275,-32.5121,178.1783],[-63.1397,-32.5041,179.0778],[-63.147,-32.5056,180.4898],[-63.1691,-32.4684,186.0932],[-63.1653,-32.4607,186.2219],[-63.1377,-32.4207,181.8634],[-63.1259,-32.4229,181.7738],[-63.1084,-32.43,180.3144],[-63.1038,-32.4286,178.9995],[-63.1044,-32.4172,180.7528],[-63.0988,-32.4074,177.9769],[-63.074,-32.4205,173.0108],[-63.0604,-32.3823,169.3737],[-63.043,-32.387,168.493],[-63.0388,-32.3727,167.3003],[-62.9279,-32.3926,155.6848],[-62.8715,-32.1648,148.834],[-62.8787,-32.1559,149.9432],[-62.854,-32.0641,148.515],[-62.9188,-32.0499,155.0319],[-63.0114,-32.0497,168.4984],[-63.0119,-32.0273,168.8404],[-63.0525,-32.0286,175.0538],[-63.0575,-32.0083,174.4877],[-63.1158,-32.0085,182.9577],[-63.1799,-32.0897,193.2222],[-63.2026,-32.0526,196.5958],[-63.2659,-32.0693,207.0086],[-63.2767,-32.0755,208.4918],[-63.3015,-32.0706,211.7571],[-63.308,-32.0712,213.0232],[-63.3265,-32.0759,215.2403],[-63.3412,-32.0868,219.118],[-63.3603,-32.0844,220.6664],[-63.372,-32.0883,225.4257],[-63.3911,-32.0885,228.4639],[-63.3973,-32.0899,230.4098],[-63.4138,-32.0985,232.3447],[-63.441,-32.106,236.9299],[-63.3682,-32.1917,225.7269],[-63.4512,-32.2417,246.2096],[-63.4745,-32.2321,249.4019],[-63.4938,-32.2313,253.0008],[-63.5133,-32.2326,257.4016],[-63.5179,-32.2362,258.7106],[-63.5244,-32.2517,257.3866],[-63.5283,-32.256,257.3434],[-63.5388,-32.2622,260.191],[-63.548,-32.2766,261.3048],[-63.5488,-32.2921,261.0109],[-63.5659,-32.3829,254.5627],[-63.5073,-32.3922,242.1324],[-63.5806,-32.7007,217.3723],[-63.5544,-32.7081,212.3597],[-63.569,-32.7687,211.301],[-63.5459,-32.8165,198.399],[-63.5201,-32.8211,193.2045],[-63.5282,-32.866,196.5349],[-63.425,-32.9054,179.4841],[-63.4052,-32.8417,181.2319],[-63.3491,-32.8518,172.5084],[-63.3973,-33.0375,174.1125],[-63.4598,-33.0278,184.0513],[-63.481,-33.1111,185.6785],[-63.3288,-33.1412,158.812],[-63.3164,-33.0995,157.4128],[-63.2042,-33.1221,140.052]]]]}
,"properties": {"GID_2": "ARG.6.6_1","GID_0": "ARG","country": "Argentina","GID_1": "ARG.6_1","state": "Córdoba","NL_NAME_1": "NA","county": "GeneralSanMartín","VARNAME_2": "GeneralSanMartín","NL_NAME_2": "NA","TYPE_2": "Departamento","ENGTYPE_2": "Department","CC_2": "NA","HASC_2": "AR.CB.GM","name": "GeneralSanMartín.county","area_km2": 4898.769,"hist_schema_id": "Elevation0-9000","hist_area_km2": {"150": 841.647,"175": 1728.312,"200": 1313.411,"225": 796.418,"250": 218.928,"275": 0.054}}}