{"type": "Feature","bbox": [-59.2965,-33.4745,-58.1443,-32.4486],"geometry": {"type": "MultiPolygon","coordinates": [[[[-59.2965,-33.1459,6.266],[-59.2736,-33.1526,5.4027],[-59.2665,-33.1576,5.0621],[-59.2565,-33.1792,8.5597],[-59.2329,-33.2421,6.6037],[-59.2246,-33.2559,6.4822],[-59.2156,-33.278,6.4178],[-59.2046,-33.2993,6.0621],[-59.1761,-33.3481,5.7196],[-59.1717,-33.3591,5.6444],[-59.1596,-33.3714,7.0827],[-59.1641,-33.3652,5.6719],[-59.1491,-33.3774,6.6534],[-59.1226,-33.3931,5.3079],[-59.1096,-33.397,5.6383],[-59.0872,-33.397,5.6088],[-58.9514,-33.4603,5.5724],[-58.8576,-33.4745,5.5841],[-58.8242,-33.4368,5.9421],[-58.8016,-33.4497,5.8543],[-58.788,-33.4348,6.3566],[-58.7641,-33.4509,5.4707],[-58.7697,-33.463,7.3047],[-58.7541,-33.4697,5.4835],[-58.6484,-33.4376,7.1927],[-58.6078,-33.4528,3.1646],[-58.5976,-33.4398,2.6957],[-58.5821,-33.4318,2.5454],[-58.5774,-33.4321,2.4476],[-58.5676,-33.4399,2.0082],[-58.5539,-33.4413,2.1101],[-58.5247,-33.4615,0.0],[-58.5232,-33.4544,0.0],[-58.5138,-33.4422,0.0],[-58.4989,-33.4114,0.0],[-58.4942,-33.4058,0.0],[-58.4978,-33.3949,2.4377],[-58.4885,-33.3856,2.321],[-58.4785,-33.3678,2.2905],[-58.4562,-33.3507,0.0],[-58.4614,-33.3392,2.3436],[-58.4514,-33.3278,1.3774],[-58.4228,-33.3064,2.5279],[-58.4183,-33.293,0.0],[-58.4244,-33.2768,0.0],[-58.4339,-33.2588,0.0],[-58.4343,-33.2495,0.0],[-58.4205,-33.2208,0.0],[-58.4253,-33.1635,0.0],[-58.4214,-33.1545,0.0],[-58.4197,-33.1446,0.8292],[-58.4168,-33.1414,0.0],[-58.4177,-33.1388,3.0646],[-58.412,-33.1341,0.0],[-58.4082,-33.1279,4.4115],[-58.4085,-33.1241,2.7053],[-58.4116,-33.1198,2.7614],[-58.4239,-33.1143,1.0841],[-58.432,-33.0976,0.0],[-58.4285,-33.0835,0.0],[-58.4157,-33.0857,3.9711],[-58.4132,-33.0763,1.6588],[-58.3997,-33.0669,4.1845],[-58.3709,-33.0695,6.8262],[-58.3415,-33.0669,5.4573],[-58.3345,-33.0887,2.2953],[-58.346,-33.104,1.4225],[-58.3488,-33.113,0.0],[-58.3086,-33.1023,0.0],[-58.2757,-33.1024,0.0],[-58.2509,-33.0984,0.0],[-58.2121,-33.0852,0.5],[-58.203,-33.0836,0.5],[-58.1712,-33.0715,0.875],[-58.1523,-33.0513,1.0],[-58.151,-33.046,1.5],[-58.1515,-33.0375,2.9066],[-58.1578,-33.0358,2.6273],[-58.1572,-33.0254,2.2866],[-58.1443,-33.0039,2.7216],[-58.1463,-33.0007,3.9205],[-58.2674,-32.9995,12.2719],[-58.2668,-32.8748,33.7453],[-58.5063,-32.8782,9.4063],[-58.5003,-32.8689,10.3128],[-58.4927,-32.8507,7.9096],[-58.4984,-32.8358,10.3527],[-58.4955,-32.8289,10.2077],[-58.4959,-32.825,10.7293],[-58.5009,-32.8143,11.0839],[-58.5013,-32.8103,10.9366],[-58.5002,-32.8066,10.7584],[-58.495,-32.8002,11.2906],[-58.4937,-32.7926,11.4327],[-58.5042,-32.767,13.1526],[-58.5031,-32.7514,13.4921],[-58.4997,-32.7401,13.9368],[-58.5107,-32.7277,12.1967],[-58.5139,-32.7167,13.0403],[-58.5236,-32.7035,16.337],[-58.5195,-32.6841,14.8169],[-58.5201,-32.6805,15.2494],[-58.5312,-32.6734,16.3365],[-58.5365,-32.6628,15.8357],[-58.5371,-32.655,18.6346],[-58.5269,-32.6292,20.3067],[-58.5322,-32.6104,17.2931],[-58.5247,-32.5922,19.7621],[-58.5246,-32.5765,19.9045],[-58.5252,-32.5728,21.2156],[-58.5295,-32.566,22.2144],[-58.5421,-32.5545,23.4316],[-58.5504,-32.5518,24.2112],[-58.5735,-32.5522,25.5135],[-58.5823,-32.5504,27.1095],[-58.5936,-32.5439,29.9497],[-58.6017,-32.5345,27.9804],[-58.6123,-32.527,30.5821],[-58.6278,-32.5188,27.4197],[-58.6449,-32.5129,26.4389],[-58.6492,-32.5131,26.7732],[-58.6531,-32.5154,27.8245],[-58.6623,-32.5239,28.8911],[-58.6706,-32.5274,30.0241],[-58.6795,-32.5275,29.6933],[-58.6939,-32.537,30.5377],[-58.7182,-32.5478,31.7827],[-58.7362,-32.5492,39.3989],[-58.7495,-32.5471,39.5009],[-58.7731,-32.559,38.456],[-58.7822,-32.5593,39.1988],[-58.8078,-32.5509,43.3825],[-58.8304,-32.5477,43.4282],[-58.8426,-32.5422,45.1048],[-58.8495,-32.5373,48.0721],[-58.8576,-32.5278,50.7608],[-58.879,-32.5131,53.4094],[-58.883,-32.5118,54.6824],[-58.8965,-32.515,56.3141],[-58.9048,-32.5128,62.3452],[-58.9099,-32.5065,63.1665],[-58.9142,-32.4954,56.6531],[-58.9165,-32.4761,46.3813],[-58.9285,-32.4812,50.6515],[-58.9365,-32.4697,45.7906],[-58.9407,-32.4753,51.6632],[-58.9514,-32.5002,54.5355],[-58.9572,-32.5063,47.5409],[-58.97,-32.5108,52.9232],[-58.9781,-32.5082,51.1806],[-58.9929,-32.4985,48.6949],[-59.021,-32.4856,52.4338],[-59.0468,-32.4776,38.625],[-59.0712,-32.4669,27.9998],[-59.0894,-32.4553,25.8026],[-59.1123,-32.4486,23.5924],[-59.1007,-32.466,24.5503],[-59.1036,-32.4813,22.5215],[-59.1011,-32.4888,24.4096],[-59.1016,-32.4926,23.1147],[-59.1097,-32.5106,23.2942],[-59.1124,-32.5301,21.5345],[-59.1017,-32.5373,21.7423],[-59.0997,-32.5404,22.4023],[-59.0993,-32.5603,21.9027],[-59.0979,-32.5635,21.8689],[-59.0936,-32.5653,19.8254],[-59.0919,-32.5689,18.0],[-59.0951,-32.5802,23.2138],[-59.0995,-32.5869,21.7178],[-59.0975,-32.5984,17.9929],[-59.1008,-32.6215,20.608],[-59.1188,-32.6614,18.4366],[-59.1198,-32.669,18.2113],[-59.1221,-32.6724,19.6578],[-59.126,-32.7033,19.3216],[-59.13,-32.7143,17.4697],[-59.1232,-32.7451,17.2648],[-59.1207,-32.7479,15.9823],[-59.1112,-32.7499,15.5171],[-59.1101,-32.7526,15.3116],[-59.1202,-32.7608,15.517],[-59.1223,-32.7642,16.8542],[-59.1187,-32.7912,14.5819],[-59.115,-32.7988,14.3854],[-59.1155,-32.8018,13.4932],[-59.124,-32.8056,16.1805],[-59.136,-32.8176,14.6476],[-59.1365,-32.821,15.2989],[-59.1277,-32.8349,12.8187],[-59.1276,-32.8387,13.277],[-59.1312,-32.8459,14.0253],[-59.1421,-32.8528,14.4453],[-59.1517,-32.8704,13.4343],[-59.154,-32.8819,12.4467],[-59.146,-32.9039,12.8921],[-59.1491,-32.9153,10.8794],[-59.1847,-32.9395,11.092],[-59.1971,-32.9516,10.3734],[-59.2015,-32.9581,10.3474],[-59.202,-32.9616,11.6069],[-59.198,-32.9732,10.7472],[-59.2,-32.9762,10.1957],[-59.2183,-32.9889,11.8164],[-59.2511,-33.04,7.5424],[-59.2619,-33.0472,12.489],[-59.2881,-33.074,14.1014],[-59.2905,-33.0854,15.5157],[-59.2855,-33.1001,13.2463],[-59.2889,-33.1074,14.4123],[-59.2927,-33.1265,10.819],[-59.2932,-33.1382,6.4996],[-59.2965,-33.1459,6.266]]]]}
,"properties": {"GID_2": "ARG.8.8_1","GID_0": "ARG","country": "Argentina","GID_1": "ARG.8_1","state": "EntreRíos","NL_NAME_1": "NA","county": "Gualeguaychú","VARNAME_2": "NA","NL_NAME_2": "NA","TYPE_2": "Departamento","ENGTYPE_2": "Department","CC_2": "NA","HASC_2": "AR.ER.GC","name": "Gualeguaychú.county","area_km2": 7238.602,"hist_schema_id": "Elevation0-9000","hist_area_km2": {"0": 1992.369,"25": 3010.746,"50": 2127.031,"75": 108.456}}}