{"type": "Feature","bbox": [-58.3382,-27.4323,-57.7524,-27.2477],"geometry": {"type": "MultiPolygon","coordinates": [[[[-57.7792,-27.3337,49.0],[-57.8014,-27.3319,49.0],[-57.8098,-27.3283,49.0],[-57.8521,-27.2964,49.0],[-57.8737,-27.2897,49.0],[-57.9087,-27.2892,52.1914],[-57.9435,-27.2828,49.0],[-57.9864,-27.2684,49.0],[-58.0069,-27.2637,48.5],[-58.0712,-27.2682,47.0],[-58.0973,-27.2726,47.0],[-58.1224,-27.269,46.5],[-58.1514,-27.2689,46.0],[-58.1605,-27.2665,46.0],[-58.1881,-27.2498,46.0],[-58.2046,-27.2477,46.0],[-58.2434,-27.2491,46.0],[-58.2817,-27.2544,46.0],[-58.3117,-27.2608,46.0],[-58.3382,-27.27,50.5286],[-58.3315,-27.2834,54.1995],[-58.3285,-27.301,59.912],[-58.3231,-27.3181,62.557],[-58.3101,-27.344,63.5494],[-58.3006,-27.3674,67.7288],[-58.3007,-27.3744,67.0875],[-58.3088,-27.3982,63.6662],[-58.3112,-27.4156,60.2151],[-58.2787,-27.4201,60.7973],[-58.2523,-27.4282,60.8365],[-58.2248,-27.4323,64.2162],[-58.1971,-27.4298,65.2342],[-58.1815,-27.4267,61.7373],[-58.1621,-27.4145,62.4237],[-58.1506,-27.4118,62.4197],[-58.1222,-27.399,63.1009],[-58.0989,-27.3939,63.7102],[-58.0791,-27.3924,64.8058],[-58.0393,-27.3927,66.6101],[-57.9839,-27.398,65.6482],[-57.9564,-27.4023,64.54],[-57.9009,-27.4215,64.6871],[-57.8839,-27.4303,64.8483],[-57.8825,-27.4207,64.4319],[-57.8749,-27.4043,64.6515],[-57.8665,-27.3968,64.7252],[-57.8524,-27.3902,64.7092],[-57.8255,-27.3839,64.6025],[-57.8019,-27.3819,65.3688],[-57.7745,-27.3863,63.9384],[-57.7641,-27.3815,64.5649],[-57.7547,-27.3701,67.4111],[-57.7524,-27.3544,49.5],[-57.7606,-27.3558,49.5],[-57.7684,-27.3541,54.0285],[-57.7748,-27.3465,54.5205],[-57.774,-27.3344,49.0],[-57.7792,-27.3337,49.0]]]]}
,"properties": {"GID_2": "ARG.7.11_1","GID_0": "ARG","country": "Argentina","GID_1": "ARG.7_1","state": "Corrientes","NL_NAME_1": "NA","county": "Itatí","VARNAME_2": "NA","NL_NAME_2": "NA","TYPE_2": "Departamento","ENGTYPE_2": "Department","CC_2": "NA","HASC_2": "AR.CN.IT","name": "Itatí.county","area_km2": 783.3445,"hist_schema_id": "Elevation0-9000","hist_area_km2": {"50": 274.6273,"75": 508.6607,"100": 0.0565}}}