{"type":"Feature","properties":{"ISO3166-1-Alpha-3":"ARG","country":"Argentina","fill":"#F00","id":"1310","name":"Santa Fe"},
"geometry":{"type": "Polygon","coordinates": [[[-58.98187,-28.12014,47.7198],[-58.95048,-28.11239,41.1058],[-58.9203,-28.09482,40.6551],[-58.89472,-28.07079,42.4343],[-58.87702,-28.04335,43.3912],[-58.86475,-27.99932,43.3391],[-59.59744,-28.00041,57.3444],[-60.04132,-28.0001,60.047],[-60.74468,-28.00268,64.8498],[-61.70995,-28.00041,75.3548],[-61.76995,-28.35739,78.9291],[-61.86549,-28.91689,80.5487],[-61.95141,-29.40146,74.3161],[-61.99885,-29.66517,81.1397],[-62.08713,-30.15661,88.5149],[-62.13408,-30.41685,93.1291],[-62.13207,-30.44104,93.5981],[-62.12532,-30.45768,93.7195],[-61.90392,-30.67255,98.4925],[-61.8571,-30.73146,98.0533],[-61.8658,-30.78877,98.9882],[-62.12155,-31.60856,104.2781],[-62.1384,-31.64148,105.3609],[-62.18214,-31.67652,106.7897],[-62.22276,-31.7068,101.2333],[-62.23589,-31.71977,101.3737],[-62.23754,-31.73098,101.9396],[-62.2363,-31.7378,101.4933],[-62.22121,-31.75971,100.5707],[-62.21906,-31.76452,100.5495],[-62.21733,-31.76953,100.7652],[-62.21669,-31.77785,101.2574],[-62.21705,-31.78886,101.105],[-62.22291,-31.83382,100.3373],[-62.22266,-31.84793,99.9715],[-62.21563,-31.90756,98.9741],[-62.21421,-31.91335,98.7058],[-62.2124,-31.91831,98.8073],[-62.21,-31.92286,98.7151],[-62.19785,-31.93996,98.3636],[-62.18739,-31.95143,97.8506],[-62.18475,-31.95552,97.7286],[-62.18408,-31.96275,97.683],[-62.18529,-31.9719,97.6353],[-62.19728,-32.00084,97.9069],[-62.20584,-32.01603,97.7136],[-62.21217,-32.03298,97.6695],[-62.2156,-32.05851,98.7497],[-62.21857,-32.1385,97.1892],[-62.19111,-32.16367,96.5059],[-62.17093,-32.17907,95.8654],[-62.13889,-32.21173,94.2602],[-62.1309,-32.2169,93.9403],[-62.10119,-32.22832,92.7456],[-62.08217,-32.24051,91.8775],[-62.07822,-32.24408,91.6669],[-62.07287,-32.25364,91.2561],[-62.04458,-32.33849,90.0432],[-62.03745,-32.35317,91.3347],[-62.01463,-32.38629,90.0656],[-61.94345,-32.43239,87.2689],[-61.93081,-32.44314,89.6912],[-61.91699,-32.45869,92.2953],[-61.91412,-32.46293,94.305],[-61.90622,-32.48598,88.3507],[-61.90012,-32.51646,83.0013],[-61.89753,-32.54959,80.6511],[-61.89508,-32.5562,80.6105],[-61.88883,-32.56396,80.261],[-61.88343,-32.56861,80.3809],[-61.8725,-32.57481,80.6266],[-61.86839,-32.57956,80.7028],[-61.86611,-32.58618,80.4309],[-61.86591,-32.59754,79.9208],[-61.86699,-32.60561,78.8959],[-61.86865,-32.61284,78.2264],[-61.87061,-32.61873,78.0275],[-61.87573,-32.62922,78.0411],[-61.8789,-32.63372,77.3609],[-61.89407,-32.64979,76.0753],[-61.89552,-32.65403,75.7165],[-61.89449,-32.65878,75.809],[-61.88748,-32.66271,75.0144],[-61.87976,-32.66467,74.5817],[-61.84922,-32.66896,77.1305],[-61.84283,-32.67103,80.1706],[-61.83754,-32.67361,84.422],[-61.83302,-32.67692,89.9966],[-61.82937,-32.68064,92.8945],[-61.80139,-32.72441,100.3642],[-61.78426,-32.75909,86.8207],[-61.78028,-32.76482,85.1784],[-61.77677,-32.76854,83.7946],[-61.74956,-32.78802,87.9528],[-61.74566,-32.79185,89.2688],[-61.74227,-32.79696,89.6767],[-61.7353,-32.81226,99.2051],[-61.73338,-32.81924,93.6486],[-61.73297,-32.82745,98.5683],[-61.73491,-32.8366,92.6531],[-61.7408,-32.85164,100.2998],[-61.75491,-32.87587,85.2001],[-61.7586,-32.89634,69.2714],[-61.7577,-32.95732,86.2652],[-61.75958,-32.98114,91.5367],[-61.76284,-32.99985,85.4638],[-61.76607,-33.00646,79.6007],[-61.78025,-33.02992,60.706],[-61.81648,-33.06155,83.5855],[-61.83131,-33.07193,90.4786],[-61.84604,-33.07984,96.1319],[-61.85144,-33.08186,93.8848],[-61.8573,-33.08356,92.179],[-61.87038,-33.08527,80.0923],[-61.87764,-33.08501,79.3244],[-61.89169,-33.08325,97.800299999999993],[-61.91991,-33.1141,82.0305],[-62.14496,-33.42013,113.8762],[-62.45024,-33.83659,123.8786],[-62.85381,-34.38214,120.6541],[-62.28826,-34.38074,101.0],[-61.76271,-34.37738,92.8218],[-61.71052,-34.37682,89.8549],[-61.3808,-34.07053,104.391],[-61.14215,-33.84827,84.9151],[-60.96307,-33.67722,75.9612],[-60.92798,-33.63371,74.7939],[-60.93715,-33.60291,77.7824],[-60.92721,-33.57893,77.1295],[-60.91925,-33.57103,77.8143],[-60.91046,-33.56374,76.7902],[-60.9038,-33.56023,74.6425],[-60.89783,-33.5579,74.4559],[-60.87362,-33.55201,66.2036],[-60.85972,-33.55046,66.9672],[-60.8408,-33.55041,64.8217],[-60.82471,-33.55304,63.404],[-60.8185,-33.55526,63.3322],[-60.78639,-33.57134,61.1909],[-60.77378,-33.57351,61.4465],[-60.67763,-33.57568,59.059],[-60.67151,-33.57692,59.7701],[-60.66554,-33.57888,58.3343],[-60.62658,-33.60286,62.2568],[-60.59818,-33.62751,51.1075],[-60.5919,-33.63133,49.4503],[-60.58294,-33.63521,48.0095],[-60.56676,-33.64032,47.7592],[-60.54271,-33.64286,51.9399],[-60.52785,-33.64022,48.7661],[-60.52217,-33.63851,50.0695],[-60.49992,-33.63402,59.2781],[-60.47566,-33.62219,48.4919],[-60.46682,-33.612,42.1398],[-60.43057,-33.54793,49.012],[-60.42623,-33.53697,40.9345],[-60.41995,-33.51232,34.7497],[-60.41357,-33.46612,32.1413],[-60.41013,-33.45956,36.8258],[-60.40615,-33.4546,37.572],[-60.36458,-33.42737,28.6664],[-60.35303,-33.41718,27.878],[-60.34781,-33.41005,27.3866],[-60.34533,-33.40354,26.8448],[-60.34595,-33.39817,26.6623],[-60.34858,-33.38768,27.3463],[-60.34926,-33.38194,32.2904],[-60.34869,-33.37429,29.2286],[-60.34709,-33.36535,29.7616],[-60.34313,-33.35218,30.4295],[-60.34052,-33.34644,30.4633],[-60.3368,-33.342,29.4433],[-60.33238,-33.33957,27.9611],[-60.32675,-33.33765,26.4655],[-60.31414,-33.33523,22.8037],[-60.30626,-33.33275,18.8949],[-60.29794,-33.32851,20.0669],[-60.28606,-33.31864,18.1523],[-60.28058,-33.31213,18.7256],[-60.27753,-33.30644,18.4408],[-60.27453,-33.29104,10.9413],[-60.27531,-33.28122,20.1631],[-60.27559,-33.27761,20.0681],[-60.29409,-33.25657,17.1417],[-60.32466,-33.24159,30.4546],[-60.34747,-33.22412,17.0921],[-60.35267,-33.21802,18.2343],[-60.36476,-33.19932,5.2307],[-60.38192,-33.18226,2.5],[-60.39303,-33.1742,2.5],[-60.40142,-33.17146,3.6662],[-60.41458,-33.16511,6.3509],[-60.43227,-33.1586,7.6804],[-60.49542,-33.12206,6.5243],[-60.55211,-33.06108,3.5],[-60.55733,-33.05219,3.5],[-60.58268,-32.98439,7.671],[-60.58694,-32.97685,4.0],[-60.591,-32.97313,4.0],[-60.60108,-32.96641,8.9204],[-60.6056,-32.96259,4.0],[-60.62239,-32.94062,4.0],[-60.67546,-32.84652,6.9104],[-60.69001,-32.80952,4.5],[-60.69854,-32.76994,9.5728],[-60.70582,-32.6795,6.8838],[-60.7127,-32.65992,10.3838],[-60.72283,-32.64271,10.7117],[-60.7598,-32.59491,5.5],[-60.76701,-32.57832,7.2762],[-60.76923,-32.56054,6.3125],[-60.76567,-32.54106,11.6566],[-60.73657,-32.47771,5.0],[-60.72934,-32.45543,5.0],[-60.72714,-32.43523,7.5917],[-60.73249,-32.37544,12.2659],[-60.73117,-32.35446,6.6544],[-60.72637,-32.33446,5.5],[-60.70515,-32.27503,8.884],[-60.70177,-32.25488,11.2601],[-60.70146,-32.23436,9.4673],[-60.70898,-32.17473,6.5],[-60.70693,-32.15618,6.5],[-60.69973,-32.13757,6.5],[-60.66632,-32.08807,10.8953],[-60.6618,-32.06926,7.5],[-60.66624,-32.04833,8.8194],[-60.67782,-32.02916,7.5],[-60.70598,-31.99453,14.8023],[-60.71763,-31.9719,8.0],[-60.72252,-31.94725,10.0346],[-60.71996,-31.92234,11.4695],[-60.70921,-31.89929,10.5768],[-60.68105,-31.86617,10.6533],[-60.67404,-31.85289,10.7693],[-60.67107,-31.8425,19.0434],[-60.66658,-31.81108,11.9566],[-60.65497,-31.78183,9.0],[-60.65092,-31.76581,10.9927],[-60.65435,-31.7531,12.1013],[-60.65311,-31.75227,12.4489],[-60.65053,-31.74969,16.1505],[-60.64932,-31.74886,16.3273],[-60.65311,-31.74147,15.8123],[-60.65371,-31.73222,10.9423],[-60.65172,-31.72308,12.5197],[-60.64777,-31.71605,10.5],[-60.6405,-31.70995,11.5974],[-60.63239,-31.70633,11.768],[-60.60526,-31.69972,13.864],[-60.58547,-31.69843,14.2247],[-60.56361,-31.70091,9.0],[-60.49511,-31.70044,9.0],[-60.47367,-31.69734,9.0],[-60.45302,-31.69176,9.0],[-60.43318,-31.6838,9.0],[-60.41411,-31.67352,9.0],[-60.38073,-31.64908,56.0313],[-60.35166,-31.6206,10.0],[-60.30213,-31.55518,16.0991],[-60.27497,-31.53022,11.5],[-60.26221,-31.51311,18.8079],[-60.25471,-31.50531,11.5],[-60.24001,-31.49306,16.5197],[-60.22684,-31.4879,21.4867],[-60.22306,-31.4849,22.0234],[-60.21177,-31.468,11.5],[-60.20565,-31.46273,11.5],[-60.19795,-31.45803,23.3382],[-60.19113,-31.45503,14.6069],[-60.17617,-31.45053,12.5327],[-60.16898,-31.44712,16.1127],[-60.16366,-31.44206,15.3722],[-60.14485,-31.41198,11.5],[-60.10439,-31.36806,15.6334],[-60.09806,-31.35457,18.0698],[-60.09403,-31.35369,16.9464],[-60.06338,-31.26951,13.0],[-60.05331,-31.25608,17.0066],[-60.01308,-31.22435,15.9163],[-60.0008,-31.21225,21.2868],[-59.94044,-31.11614,14.5],[-59.88071,-31.04203,14.5],[-59.84099,-30.97733,19.3353],[-59.79487,-30.92504,15.5],[-59.77379,-30.89243,23.4198],[-59.71984,-30.83099,16.5],[-59.66064,-30.73606,17.5],[-59.65416,-30.71719,23.279],[-59.65018,-30.65952,18.0],[-59.64602,-30.64066,23.1251],[-59.62506,-30.59255,21.2735],[-59.62235,-30.57483,19.0],[-59.62222,-30.51679,21.1307],[-59.61553,-30.47907,21.0],[-59.61478,-30.46269,21.4878],[-59.61811,-30.44677,22.7786],[-59.64597,-30.39985,22.2944],[-59.65299,-30.38388,24.6502],[-59.66152,-30.33691,21.7592],[-59.6693,-30.29386,24.4853],[-59.66671,-30.27608,23.8671],[-59.64759,-30.22549,21.5],[-59.64423,-30.20684,21.5],[-59.64178,-30.16886,25.3786],[-59.6384,-30.15036,25.626],[-59.63126,-30.1331,21.5],[-59.60253,-30.08483,22.0],[-59.59713,-30.0671,22.0],[-59.59535,-30.04917,25.6795],[-59.59907,-30.01269,22.0],[-59.63023,-29.93006,25.8193],[-59.6648,-29.87833,25.5417],[-59.67279,-29.84712,24.7238],[-59.6648,-29.81906,23.0],[-59.63258,-29.76459,27.7117],[-59.62698,-29.75059,30.2175],[-59.59109,-29.61499,31.135],[-59.58907,-29.41118,32.6033],[-59.5829,-29.37779,27.6057],[-59.54768,-29.25956,31.8283],[-59.53282,-29.23088,31.9266],[-59.51127,-29.20757,32.057],[-59.48497,-29.18917,32.2995],[-59.45577,-29.17522,32.8181],[-59.35888,-29.14349,29.0],[-59.32994,-29.12442,33.5183],[-59.30322,-29.10065,33.6181],[-59.27413,-29.08014,30.713],[-59.22726,-29.05823,29.5],[-59.21336,-29.04846,29.5],[-59.19744,-29.02205,29.5],[-59.19271,-28.98841,35.7668],[-59.19439,-28.92139,37.1188],[-59.19031,-28.92051,35.5836],[-59.18204,-28.9019,31.0],[-59.16008,-28.86785,31.5],[-59.15256,-28.84888,32.0],[-59.15044,-28.82444,32.5],[-59.14101,-28.78972,33.0],[-59.14018,-28.78057,33.0],[-59.14078,-28.77147,33.5],[-59.14251,-28.7631,33.5],[-59.14292,-28.74579,37.9861],[-59.13706,-28.72894,40.5987],[-59.0991,-28.66419,37.7435],[-59.09166,-28.64611,34.0],[-59.08696,-28.62709,38.08],[-59.08569,-28.60787,37.2862],[-59.09081,-28.53128,37.7382],[-59.06621,-28.40137,36.4191],[-59.06797,-28.38447,36.0],[-59.08768,-28.34096,42.2718],[-59.09099,-28.32194,36.5],[-59.08205,-28.2653,37.0],[-59.08329,-28.24691,42.311],[-59.09042,-28.21078,37.5],[-59.09073,-28.19223,37.5],[-59.08752,-28.17523,37.5],[-59.08138,-28.15756,37.5],[-59.07223,-28.14154,38.0],[-59.05993,-28.12945,38.0],[-59.04205,-28.122,43.1758],[-59.022,-28.11983,41.4525],[-58.98187,-28.12014,47.7198]]]}}