{"type":"Feature","properties":{"featurecla":"River","scalerank":6,"rivernum":287,"dissolve":"287River","name":"Salado4","name_alt":null,"note":null,"min_zoom":5.0,"strokeweig":0.25,"name_en":"Salado","min_label":6.0},
"geometry":{"type": "LineString","coordinates": [[-63.558837890625,-27.617022393755889,146.2274],[-63.562060546874989,-27.622588800005886,145.437],[-63.569091796875,-27.62786223750588,145.7663],[-63.576098632812489,-27.634307550005886,143.3165],[-63.579345703125,-27.64397551875588,142.6904],[-63.578662109374989,-27.66765715938088,146.4319],[-63.57666015625,-27.67864348750588,146.2702],[-63.572509765625,-27.688995050005886,145.4394],[-63.56494140625,-27.69866301875588,144.3863],[-63.538378906249989,-27.72307708125588,143.1243],[-63.533789062499991,-27.73357512813088,141.3365],[-63.526464843749991,-27.758623956255889,141.7061],[-63.513110351562489,-27.783526300005889,138.6868],[-63.497412109374991,-27.84661223750588,139.5125],[-63.447607421874991,-27.957842706255889,133.6782],[-63.387866210937489,-28.050616143755889,129.0396],[-63.377001953124989,-28.05828215938088,126.4685],[-63.35888671875,-28.06585051875588,129.0889],[-63.298779296875,-28.113604425005889,125.9693],[-63.270800781249989,-28.12835051875588,126.9468],[-63.264013671874991,-28.134112237505889,124.7341],[-63.261279296874989,-28.143877862505889,123.3581],[-63.259326171874989,-28.15764739375588,123.4436],[-63.255541992187489,-28.169756768755889,124.1982],[-63.247314453125,-28.17498137813088,124.2396],[-63.224560546875,-28.176592706255889,123.306],[-63.205126953124989,-28.181670831255886,122.7021],[-63.188720703125,-28.190264581255889,121.4005],[-63.12177734375,-28.26189544063088,118.8115],[-63.113818359374989,-28.27459075313088,118.1319],[-63.121142578124989,-28.342120050005889,115.5121],[-63.120654296874989,-28.360674737505889,116.1824],[-63.099853515625,-28.39885833125588,113.7254],[-63.06103515625,-28.42278411250588,111.6926],[-62.969824218749991,-28.44988372188088,108.6501],[-62.95068359375,-28.458330987505889,108.8407],[-62.934497070312489,-28.47014739375588,109.1261],[-62.904638671874991,-28.50115325313088,106.7046],[-62.894335937499989,-28.51628997188088,105.7514],[-62.88330078125,-28.54705169063088,106.3693],[-62.873583984374989,-28.56536223750588,104.6444],[-62.849609375,-28.59050872188088,104.0754],[-62.738330078124989,-28.663116143755886,103.1571],[-62.734912109374989,-28.66668059688088,103.8744],[-62.72900390625,-28.67522551875588,99.9171],[-62.715917968749991,-28.703155206255886,99.9311],[-62.723876953125,-28.722686456255886,96.5],[-62.717382812499991,-28.73772551875588,99.5756],[-62.705078125,-28.75090911250588,98.4938],[-62.695483398437489,-28.76409270625588,97.6372],[-62.696240234375,-28.76946380000588,98.096],[-62.700048828124991,-28.77532317500588,96.5596],[-62.7033203125,-28.782549737505889,98.446],[-62.702246093749991,-28.79192473750588,96.8171],[-62.696875,-28.797881768755886,96.3897],[-62.688891601562489,-28.800811456255886,95.199],[-62.680712890624989,-28.802764581255886,98.1318],[-62.675,-28.80559661250588,96.4365],[-62.667578124999991,-28.81682708125588,97.5034],[-62.65390625,-28.860870050005886,96.0931],[-62.637451171875,-28.88005950313088,92.9207],[-62.633398437499991,-28.88811614375588,95.8755],[-62.6328125,-28.89275481563088,93.2931],[-62.633105468749989,-28.897491143755886,93.0629],[-62.634448242187489,-28.901885675005886,94.7231],[-62.636816406249991,-28.905596612505889,97.8221],[-62.641845703125,-28.91155364375588,98.0696],[-62.642504882812489,-28.91375090938088,97.3088],[-62.641210937499991,-28.914385675005889,97.3088],[-62.640234374999991,-28.91545989375588,97.047],[-62.662695312499991,-28.93962981563088,91.9711],[-62.658203125,-28.97942473750588,92.7002],[-62.620361328125,-29.05950286250588,89.1836],[-62.592578124999989,-29.090850518755886,90.4584],[-62.558203124999991,-29.10662200313088,88.3135],[-62.520605468749991,-29.119170831255886,87.3112],[-62.483203124999989,-29.141436456255889,85.2706],[-62.411181640624989,-29.20623137813088,84.8049],[-62.396484375,-29.21672942500588,84.2567],[-62.345996093749989,-29.244463800005889,84.105],[-62.317236328124991,-29.27190520625588,84.1455],[-62.27099609375,-29.326690362505886,81.8419],[-62.23681640625,-29.34685637813088,79.5109],[-62.195483398437489,-29.354815362505889,79.8749],[-62.11181640625,-29.35564544063088,77.9904],[-62.072314453124989,-29.36736419063088,76.9426],[-62.031591796874991,-29.386260675005886,74.8615],[-61.992431640625,-29.39592864375588,74.809],[-61.951831054687489,-29.39324309688088,74.2679],[-61.9072265625,-29.374834893755889,74.0007],[-61.9140625,-29.38103606563088,74.1753],[-61.872900390624991,-29.35588958125588,73.3253],[-61.850024414062489,-29.34514739375588,73.8822],[-61.828369140625,-29.340655206255889,73.1411],[-61.811132812499991,-29.33294036250588,72.6459],[-61.784912109375,-29.29436614375588,73.8503],[-61.770605468749991,-29.278643487505889,72.5362],[-61.760546874999989,-29.27288176875588,72.0199],[-61.750439453125,-29.26970794063088,72.7938],[-61.740161132812489,-29.269073175005886,75.1506],[-61.729663085937489,-29.27117278438088,72.8936],[-61.716259765625,-29.27727630000588,72.2031],[-61.712817382812489,-29.283721612505886,70.4062],[-61.711840820312489,-29.291534112505886,71.1408],[-61.705517578125,-29.302569268755889,70.9834],[-61.669970703124989,-29.347002862505889,70.4765],[-61.622119140624989,-29.383330987505886,69.2591],[-61.603125,-29.391924737505889,68.2533],[-61.581958007812489,-29.395342706255889,68.5181],[-61.517041015625,-29.393096612505886,67.5856],[-61.496264648437489,-29.395342706255889,67.1403],[-61.47919921875,-29.40227630000588,66.6943],[-61.44296875,-29.424639581255889,65.9368],[-61.42431640625,-29.432940362505889,65.2756],[-61.389819335937489,-29.45354583125588,64.5904],[-61.381152343749989,-29.45745208125588,64.3518],[-61.344824218749991,-29.46355559688088,64.4758],[-61.32421875,-29.474151300005886,63.4376],[-61.295166015625,-29.50383880000588,62.3061],[-61.277197265624991,-29.51873137813088,62.4594],[-61.251757812499989,-29.529131768755889,61.0793],[-61.167333984374991,-29.53923919063088,59.634],[-61.144677734374994,-29.550811456255886,59.4207],[-61.131591796875,-29.56609465938088,59.4557],[-61.112060546875,-29.60076262813088,57.0],[-61.09619140625,-29.615752862505886,58.5271],[-61.047656249999989,-29.64568450313088,57.2766],[-61.02392578125,-29.65593840938088,56.0],[-61.011083984374991,-29.645049737505886,54.5],[-60.994726562499991,-29.646807550005889,56.3506],[-60.978271484375,-29.65569426875588,56.436],[-60.964941406249991,-29.66619231563088,55.6666],[-60.955664062499991,-29.67107512813088,56.223],[-60.940527343749991,-29.675811456255886,57.7621],[-60.926513671875,-29.67742278438088,56.265],[-60.920263671874991,-29.67302825313088,56.2935],[-60.915576171874989,-29.666827081255889,55.5409],[-60.905517578125,-29.674151300005889,55.747],[-60.895922851562489,-29.68499114375588,55.5663],[-60.893017578125,-29.689483331255886,55.6294],[-60.808837890625,-29.74773528438088,53.1109],[-60.771289062499989,-29.76018645625588,52.4187],[-60.755859375,-29.772002862505886,52.1062],[-60.720068359374991,-29.83025481563088,51.7236],[-60.712646484375,-29.849932550005889,50.952],[-60.702807617187489,-29.867998956255889,50.4246],[-60.700537109374991,-29.878252862505889,51.7403],[-60.702929687499989,-29.88811614375588,51.0722],[-60.713061523437489,-29.90349700313088,50.9891],[-60.71484375,-29.91594817500588,49.5932],[-60.70849609375,-29.95549895625588,49.1249],[-60.711376953125,-29.96843840938088,47.9416],[-60.725390624999989,-29.988116143755889,47.9108],[-60.733837890625,-30.003448175005886,47.3488],[-60.739184570312489,-30.02361419063088,49.5418],[-60.741796874999991,-30.045733331255889,47.1604],[-60.7421875,-30.06682708125588,46.8795],[-60.737353515624989,-30.089385675005886,46.4098],[-60.718920898437489,-30.11834075313088,45.9855],[-60.71484375,-30.13201262813088,46.1796],[-60.723437499999989,-30.18621184688088,44.9343],[-60.722265624999991,-30.20403411250588,43.8953],[-60.716259765625,-30.22307708125588,43.56],[-60.706396484374991,-30.240557550005889,44.3094],[-60.693408203124989,-30.25310637813088,41.7301],[-60.659106445312489,-30.26384856563088,43.9777],[-60.652587890625,-30.27874114375588,42.7172],[-60.654150390624991,-30.29876067500588,42.5178],[-60.664965820312489,-30.34124114375588,43.2092],[-60.667041015624989,-30.35808684688088,41.9727],[-60.667041015624989,-30.39861419063088,41.0103],[-60.6630859375,-30.41472747188088,40.8507],[-60.647216796875,-30.45549895625588,40.6995],[-60.64599609375,-30.47771575313088,40.9451],[-60.65283203125,-30.49749114375588,40.0038],[-60.662207031249991,-30.50823333125588,40.2747],[-60.670336914062489,-30.51995208125588,39.4389],[-60.673876953124989,-30.54265715938088,39.0217],[-60.6689453125,-30.55364348750588,38.1735],[-60.632910156249991,-30.59441497188088,38.91],[-60.612402343749991,-30.63054778438088,38.2582],[-60.599365234375,-30.67546965938088,36.5313],[-60.603076171874989,-30.719268487505886,36.209],[-60.632910156249991,-30.75212981563088,35.6658],[-60.653857421874989,-30.756182550005889,34.9676],[-60.698974609375,-30.752959893755886,34.8131],[-60.718554687499989,-30.76262786250588,34.0292],[-60.744726562499991,-30.794756768755889,33.0943],[-60.76025390625,-30.805010675005889,34.2639],[-60.783740234374989,-30.806670831255886,32.8714],[-60.816503906249991,-30.79900481563088,32.738],[-60.822924804687489,-30.80584075313088,32.6632],[-60.82470703125,-30.830596612505886,32.0047],[-60.816088867187489,-30.845049737505889,31.796],[-60.799902343749991,-30.86223723750588,31.8755],[-60.791064453124989,-30.88005950313088,31.2735],[-60.804248046874989,-30.896026300005886,29.7159],[-60.81201171875,-30.895342706255889,31.3679],[-60.834399414062489,-30.88689544063088,29.4452],[-60.84521484375,-30.88860442500588,40.3032],[-60.853369140624991,-30.898760675005889,31.3058],[-60.85078125,-30.909209893755886,30.189],[-60.835253906249989,-30.92644622188088,29.2077]]}}