{"type":"Feature","properties":{"featurecla":"River","scalerank":6,"rivernum":287,"dissolve":"287River","name":"Salado5","name_alt":null,"note":null,"min_zoom":5.0,"strokeweig":0.3,"name_en":"Salado","min_label":6.0},
"geometry":{"type": "LineString","coordinates": [[-60.835253906249989,-30.92644622188088,29.2077],[-60.83837890625,-30.967803643755886,28.0436],[-60.839599609375,-30.97210051875588,28.5202],[-60.845800781249991,-30.98455169063088,30.0165],[-60.8486328125,-30.988604425005889,28.5987],[-60.850439453124991,-30.994463800005889,28.6092],[-60.846826171874994,-30.99920012813088,28.2234],[-60.83837890625,-31.00530364375588,28.01],[-60.831469726562489,-31.020049737505886,32.4563],[-60.826464843749989,-31.02605559688088,34.9568],[-60.81787109375,-31.03264739375588,28.3672],[-60.827490234374991,-31.04338958125588,27.279],[-60.835546874999991,-31.06218840938088,28.3485],[-60.837451171874989,-31.08001067500588,27.0381],[-60.828417968749989,-31.08782317500588,26.0612],[-60.807714843749991,-31.09172942500588,26.6912],[-60.796630859375,-31.10222747188088,27.6147],[-60.796923828124989,-31.11760833125588,26.7369],[-60.810400390624991,-31.136260675005886,23.4558],[-60.837084960937489,-31.159991143755889,24.182],[-60.843188476562489,-31.17449309688088,23.8305],[-60.84521484375,-31.20086028438088,23.5679],[-60.850146484374989,-31.22185637813088,22.6814],[-60.862353515624989,-31.239092706255889,23.2132],[-60.893017578125,-31.26604583125588,24.8762],[-60.911791992187489,-31.295440362505886,21.2763],[-60.919287109374991,-31.333526300005886,22.3281],[-60.906835937499991,-31.363604425005889,19.7325],[-60.86572265625,-31.368487237505889,19.4427],[-60.857836914062489,-31.36419036250588,23.2953],[-60.848730468749991,-31.351885675005889,21.9871],[-60.83837890625,-31.347979425005889,23.8591],[-60.8271484375,-31.347979425005889,20.2418],[-60.813574218749991,-31.350909112505889,21.0817],[-60.802197265625,-31.35662200313088,19.9188],[-60.797412109374989,-31.365264581255886,20.7266],[-60.796728515624991,-31.38665130000588,18.5147],[-60.797656249999989,-31.397784112505889,19.5046],[-60.800830078124989,-31.40252044063088,15.8915],[-60.80830078125,-31.407745050005886,16.0506],[-60.803076171874991,-31.418780206255889,15.6336],[-60.79443359375,-31.428545831255889,15.9204],[-60.791186523437489,-31.42986419063088,15.4134],[-60.784838867187489,-31.44451262813088,14.5676],[-60.782080078124991,-31.457354425005889,15.6838],[-60.783544921874991,-31.50872161250588,18.2832],[-60.771899414062489,-31.59148528438088,15.5943],[-60.754003906249991,-31.658233331255886,12.3581],[-60.755859375,-31.691241143755889,21.0658],[-60.773681640625,-31.721514581255889,11.5905],[-60.79931640625,-31.742705987505886,13.2764],[-60.822265625,-31.766436456255889,11.0],[-60.838916015624989,-31.838702081255889,11.274],[-60.840625,-31.857256768755889,10.7908],[-60.835253906249989,-31.872393487505889,9.3758],[-60.825537109374991,-31.87981536250588,9.0],[-60.814794921874991,-31.88176848750588,9.0],[-60.79150390625,-31.87981536250588,9.0],[-60.785327148437489,-31.880205987505889,9.0],[-60.779101562499989,-31.88176848750588,10.0157],[-60.773486328124989,-31.88469817500588,10.3098],[-60.768896484374991,-31.888995050005889,10.4157],[-60.767260742187489,-31.89202239375588,10.3404],[-60.765478515624991,-31.89837005000588,10.3231],[-60.764257812499991,-31.90154387813088,12.7226],[-60.73984375,-31.931670831255886,16.6515],[-60.733642578125,-31.94280364375588,8.5],[-60.724291992187489,-31.954131768755886,11.1238],[-60.721777343749991,-31.95842864375588,8.5]]}}