{"type":"Feature","properties":{"GID_1":"ARG.21_1","GID_0":"ARG","country":"Argentina","state":"SantaFe","VARNAME_1":"SantaFé","NL_NAME_1":"NA","TYPE_1":"Provincia","ENGTYPE_1":"Province","CC_1":"NA","HASC_1":"AR.SF","ISO_1":"AR-S","name":"SantaFe.state"},
"geometry":{"type": "MultiPolygon","coordinates": [[[[-60.9164,-33.6002,72.0952],[-60.9145,-33.5916,72.1672],[-60.907,-33.5815,70.9768],[-60.872,-33.552,66.1412],[-60.8538,-33.543,65.0758],[-60.8291,-33.5413,63.4324],[-60.8185,-33.5425,62.7762],[-60.8118,-33.5458,62.5142],[-60.7988,-33.5624,63.9042],[-60.793,-33.5659,61.4158],[-60.7499,-33.5794,60.8859],[-60.7289,-33.5812,59.278],[-60.6979,-33.5749,59.9003],[-60.681,-33.5792,56.6421],[-60.6593,-33.5894,55.9519],[-60.6484,-33.6008,55.0468],[-60.6219,-33.6203,56.9337],[-60.6114,-33.6221,55.0528],[-60.6068,-33.6264,51.0803],[-60.5895,-33.6274,51.1002],[-60.5843,-33.6313,50.1439],[-60.5737,-33.6324,52.4112],[-60.5451,-33.6442,50.0557],[-60.5275,-33.6452,46.6379],[-60.507,-33.6403,51.6002],[-60.4964,-33.6398,48.054],[-60.4805,-33.6335,50.6677],[-60.4735,-33.6331,45.1704],[-60.4676,-33.63,43.1015],[-60.4618,-33.6292,42.2127],[-60.4595,-33.6266,43.5513],[-60.4583,-33.621,45.0916],[-60.4619,-33.6044,41.625],[-60.4596,-33.6018,41.3072],[-60.458,-33.5841,38.1455],[-60.4535,-33.5765,39.9509],[-60.4416,-33.5655,43.85],[-60.436,-33.5617,44.1684],[-60.4229,-33.5584,41.0029],[-60.4153,-33.5483,34.5374],[-60.4149,-33.5423,36.7473],[-60.4207,-33.5253,34.6742],[-60.4203,-33.5076,34.3498],[-60.4162,-33.4902,33.1422],[-60.4055,-33.4589,34.1005],[-60.4011,-33.4543,37.0081],[-60.3944,-33.452,29.6154],[-60.3883,-33.4417,30.5548],[-60.3812,-33.4402,29.8218],[-60.3717,-33.4318,29.51],[-60.3681,-33.4317,29.0339],[-60.3604,-33.4255,28.5701],[-60.3505,-33.4229,28.5498],[-60.3404,-33.4147,26.5775],[-60.3278,-33.397,29.5486],[-60.32,-33.3807,24.8834],[-60.3183,-33.3748,25.6033],[-60.3223,-33.3634,23.363],[-60.3223,-33.3581,24.3898],[-60.3195,-33.3561,23.6039],[-60.3184,-33.3503,23.7278],[-60.3119,-33.3396,23.3246],[-60.3076,-33.3355,21.6108],[-60.3006,-33.3337,20.9917],[-60.2917,-33.3248,20.3988],[-60.2828,-33.32,19.7388],[-60.2828,-33.3141,13.9075],[-60.2809,-33.3085,18.2924],[-60.2657,-33.2829,6.3702],[-60.2665,-33.2701,9.9271],[-60.2628,-33.2686,7.1095],[-60.2562,-33.2691,1.5],[-60.2499,-33.2601,1.5],[-60.289,-33.2466,1.5],[-60.2976,-33.2414,2.0],[-60.3019,-33.2367,2.0],[-60.3046,-33.2281,2.0],[-60.3068,-33.2104,5.1146],[-60.306,-33.1896,7.6797],[-60.3113,-33.1787,2.0],[-60.3187,-33.1723,2.0],[-60.3351,-33.1666,5.1173],[-60.3492,-33.1665,5.0892],[-60.359,-33.1695,5.0502],[-60.3761,-33.18,2.5],[-60.3856,-33.1839,4.6377],[-60.4303,-33.1646,4.5914],[-60.4497,-33.1519,3.0],[-60.471,-33.1413,3.0],[-60.4932,-33.1267,3.0],[-60.5238,-33.1023,3.5],[-60.5419,-33.0804,4.4669],[-60.5529,-33.0586,3.5],[-60.5712,-33.0406,3.5],[-60.6017,-33.0044,3.5],[-60.6096,-32.9879,4.0],[-60.6024,-32.9681,4.0],[-60.6042,-32.9625,4.0],[-60.6109,-32.9519,4.0],[-60.6267,-32.936,5.5326],[-60.6585,-32.9174,4.0],[-60.6762,-32.9022,4.0],[-60.6794,-32.8914,4.0],[-60.6804,-32.8705,4.0],[-60.6736,-32.8353,7.93],[-60.6737,-32.8265,9.7721],[-60.6772,-32.8181,10.0892],[-60.6846,-32.808,4.5],[-60.7051,-32.7919,4.5],[-60.7104,-32.7809,4.5],[-60.7159,-32.7637,4.5],[-60.7176,-32.746,4.5],[-60.7159,-32.7342,5.0],[-60.7127,-32.7289,5.0],[-60.6967,-32.7173,4.5],[-60.6955,-32.7086,8.5301],[-60.6995,-32.7005,4.5],[-60.7126,-32.6828,4.5],[-60.7209,-32.6633,4.5],[-60.7424,-32.6328,5.7789],[-60.7484,-32.6188,7.1622],[-60.7492,-32.61,5.0],[-60.7425,-32.5964,5.0],[-60.7415,-32.5756,5.0],[-60.7434,-32.5638,5.0],[-60.7544,-32.5265,5.0],[-60.7567,-32.4969,5.0],[-60.7546,-32.4849,5.0],[-60.752,-32.4797,5.0],[-60.7304,-32.4644,5.0],[-60.7209,-32.4519,5.0],[-60.7123,-32.402,5.0],[-60.7122,-32.3932,5.0],[-60.7177,-32.3792,5.0],[-60.7196,-32.3466,12.2783],[-60.7222,-32.3412,8.802],[-60.7342,-32.3265,7.8242],[-60.7367,-32.3177,7.991],[-60.7359,-32.312,10.1522],[-60.7293,-32.3052,8.095],[-60.7189,-32.304,8.012],[-60.6905,-32.3162,8.6273],[-60.6839,-32.3172,10.4858],[-60.6771,-32.3149,5.5],[-60.6734,-32.3068,5.5],[-60.6735,-32.2978,5.5],[-60.6782,-32.2743,6.0],[-60.6762,-32.2536,6.0],[-60.6723,-32.2362,6.0],[-60.674,-32.2245,6.0],[-60.6824,-32.2114,6.5],[-60.687,-32.207,6.5],[-60.7148,-32.1945,7.6116],[-60.7258,-32.1873,8.1276],[-60.7319,-32.18,10.0854],[-60.7337,-32.1712,7.9224],[-60.7296,-32.1599,9.2277],[-60.7048,-32.1393,6.5],[-60.6808,-32.1138,6.5],[-60.6618,-32.0889,7.0],[-60.6582,-32.0806,7.0],[-60.6582,-32.0688,7.5],[-60.6625,-32.0483,7.5],[-60.6849,-32.0183,8.0],[-60.6928,-32.0125,8.0],[-60.6966,-32.0076,8.0],[-60.7192,-32.009,20.1952],[-60.7238,-32.0049,15.3683],[-60.7143,-31.9671,8.0],[-60.7077,-31.9497,8.5],[-60.6887,-31.9344,11.455],[-60.6709,-31.9242,8.5],[-60.6656,-31.9179,12.9627],[-60.6626,-31.9104,13.4685],[-60.6638,-31.9027,13.8789],[-60.6713,-31.8883,12.4339],[-60.6736,-31.8781,14.4361],[-60.6713,-31.8679,14.732],[-60.6602,-31.8462,9.0],[-60.6584,-31.8387,9.0],[-60.6599,-31.8335,9.0],[-60.6668,-31.8221,13.3719],[-60.6659,-31.8063,13.6595],[-60.6612,-31.7885,9.0],[-60.6607,-31.7807,15.8609],[-60.6617,-31.7729,12.2463],[-60.6695,-31.7503,15.7092],[-60.6686,-31.7426,17.9399],[-60.6633,-31.7301,15.0133],[-60.6581,-31.7237,12.6639],[-60.646,-31.7228,12.4362],[-60.625,-31.7262,15.7058],[-60.61,-31.7238,9.0],[-60.5999,-31.718,9.0],[-60.5828,-31.6995,9.0],[-60.5735,-31.6929,13.3579],[-60.5492,-31.6912,9.0],[-60.5315,-31.6953,9.0],[-60.5238,-31.6996,9.0],[-60.5055,-31.7,9.0],[-60.4669,-31.6924,9.0],[-60.4441,-31.6848,9.0],[-60.428,-31.6773,9.0],[-60.4139,-31.6674,14.6909],[-60.4028,-31.655,9.0],[-60.3818,-31.636,9.5],[-60.3417,-31.6172,10.5],[-60.3252,-31.6057,10.5],[-60.3213,-31.596,10.5],[-60.3233,-31.5855,12.2123],[-60.331,-31.5744,11.0],[-60.3332,-31.5641,16.4571],[-60.3326,-31.5535,11.5],[-60.3282,-31.547,11.5],[-60.3133,-31.5377,11.5],[-60.2968,-31.5309,11.5],[-60.2576,-31.5265,11.5],[-60.241,-31.5201,11.5],[-60.2318,-31.5132,12.5102],[-60.2265,-31.5067,11.5],[-60.2252,-31.4938,17.9056],[-60.2198,-31.4844,11.5],[-60.2073,-31.4696,11.5],[-60.1962,-31.4608,11.5],[-60.1888,-31.4523,16.2752],[-60.1721,-31.4466,15.2401],[-60.1512,-31.4432,12.492],[-60.1408,-31.438,11.5],[-60.134,-31.4292,11.5],[-60.1303,-31.4193,15.0734],[-60.1213,-31.4056,13.3097],[-60.1133,-31.3832,11.5],[-60.1008,-31.3594,15.6743],[-60.0936,-31.3394,12.0],[-60.09,-31.3188,12.5],[-60.0975,-31.2962,12.5],[-60.0977,-31.291,12.5],[-60.0954,-31.2863,12.5],[-60.0858,-31.276,13.0],[-60.069,-31.2701,13.0],[-60.0485,-31.2656,13.0],[-60.0389,-31.2592,16.9354],[-60.0254,-31.2535,13.0],[-60.0152,-31.2437,13.0],[-60.0061,-31.2301,14.0],[-60.0013,-31.2178,16.4467],[-60.0,-31.2074,18.7154],[-60.0007,-31.1891,15.8566],[-59.9864,-31.1723,14.5],[-59.9745,-31.1373,15.3486],[-59.9617,-31.1135,14.5],[-59.9509,-31.1046,16.7771],[-59.9227,-31.0951,14.5],[-59.89,-31.0606,14.5],[-59.8735,-31.0386,14.5],[-59.8694,-31.0262,14.5],[-59.8583,-31.0137,14.5],[-59.8407,-30.9863,14.5],[-59.8311,-30.9762,14.5],[-59.8176,-30.9659,15.0],[-59.7971,-30.9369,15.0],[-59.7873,-30.9271,15.5],[-59.7775,-30.9052,20.0582],[-59.7615,-30.8896,15.5],[-59.7533,-30.8727,16.0],[-59.7494,-30.8442,19.8687],[-59.7436,-30.832,22.5798],[-59.7359,-30.8284,20.1243],[-59.7238,-30.8294,16.5],[-59.712,-30.8271,16.5],[-59.7042,-30.8232,16.5],[-59.6908,-30.8125,16.5],[-59.6861,-30.8057,16.5],[-59.6847,-30.8007,16.75],[-59.6883,-30.788,17.6634],[-59.6859,-30.7753,18.0934],[-59.6746,-30.7568,17.0],[-59.6585,-30.7378,17.5],[-59.6512,-30.7264,22.9862],[-59.6384,-30.7153,18.9688],[-59.6266,-30.7,18.0],[-59.6249,-30.6898,18.0],[-59.6289,-30.6771,19.1595],[-59.6326,-30.6731,20.5109],[-59.6611,-30.6537,24.1331],[-59.6723,-30.6322,18.5],[-59.6721,-30.6245,18.5],[-59.6669,-30.6094,19.6682],[-59.6573,-30.5962,18.5],[-59.6462,-30.5748,19.0],[-59.6464,-30.5591,19.0],[-59.6508,-30.5201,19.5],[-59.658,-30.5002,22.3851],[-59.6633,-30.4772,20.0],[-59.6717,-30.4576,20.4956],[-59.6743,-30.4367,24.3088],[-59.6959,-30.423,20.5],[-59.7058,-30.4129,23.4612],[-59.7083,-30.4053,24.2527],[-59.7063,-30.3926,26.5317],[-59.7022,-30.3857,22.7679],[-59.681,-30.3711,21.0],[-59.6618,-30.351,21.0],[-59.655,-30.3253,23.3724],[-59.6564,-30.318,23.0208],[-59.6722,-30.3057,21.0],[-59.6867,-30.2889,23.2923],[-59.6892,-30.2814,26.3447],[-59.688,-30.2764,24.3934],[-59.6785,-30.2663,26.7217],[-59.648,-30.2451,21.9373],[-59.6296,-30.2359,26.3312],[-59.6224,-30.228,24.534],[-59.6182,-30.2098,23.7605],[-59.623,-30.1949,23.0498],[-59.6249,-30.1688,21.5],[-59.624,-30.161,25.4022],[-59.6194,-30.1432,22.4649],[-59.6011,-30.1162,21.5],[-59.5927,-30.0967,26.0418],[-59.5942,-30.0837,24.0329],[-59.6,-30.066,22.0],[-59.5995,-30.061,23.0087],[-59.5915,-30.0469,24.5871],[-59.5716,-30.0418,22.0],[-59.5657,-30.0357,22.0],[-59.563,-30.0284,22.0],[-59.5637,-30.0153,22.0],[-59.5661,-30.0051,22.0],[-59.5861,-30.0021,22.0],[-59.5883,-30.0,22.0],[-59.593,-29.9852,22.0],[-59.5938,-29.9746,22.0],[-59.5996,-29.9623,22.0],[-59.6134,-29.916,23.7418],[-59.6157,-29.9029,27.681],[-59.6239,-29.8828,22.5],[-59.6296,-29.8766,22.5],[-59.6721,-29.8507,22.5],[-59.6801,-29.8307,29.9626],[-59.6785,-29.8201,28.3636],[-59.6723,-29.811,28.3342],[-59.6333,-29.7774,24.5],[-59.6248,-29.7664,24.5],[-59.6182,-29.7543,24.5],[-59.6181,-29.7518,24.5],[-59.6272,-29.7348,25.0],[-59.6293,-29.7243,25.0],[-59.6363,-29.7067,28.5508],[-59.6373,-29.6988,30.6483],[-59.6345,-29.6885,25.5],[-59.6264,-29.6772,28.3261],[-59.6101,-29.6614,29.2778],[-59.6054,-29.6545,26.1971],[-59.603,-29.6469,26.5],[-59.6089,-29.6127,25.5],[-59.6154,-29.5978,27.5908],[-59.6158,-29.5925,29.2024],[-59.6147,-29.5873,30.9029],[-59.6086,-29.578,25.5],[-59.606,-29.5703,25.5],[-59.6086,-29.5465,29.6896],[-59.6084,-29.5066,30.5835],[-59.6059,-29.4881,26.5],[-59.5951,-29.4412,26.5],[-59.6063,-29.4166,26.5],[-59.6091,-29.4089,26.5],[-59.6091,-29.4037,26.5],[-59.5971,-29.3763,26.5],[-59.5901,-29.3644,32.6264],[-59.5688,-29.3543,31.7034],[-59.5462,-29.3408,30.445],[-59.5355,-29.3314,33.2259],[-59.5254,-29.3181,33.7697],[-59.5089,-29.2838,28.3472],[-59.5025,-29.2416,27.0],[-59.4929,-29.2251,28.4275],[-59.488,-29.2218,27.5],[-59.4793,-29.2195,32.9937],[-59.44,-29.2192,28.9031],[-59.3991,-29.2099,33.816],[-59.3778,-29.1909,30.1435],[-59.3713,-29.1788,34.2025],[-59.3696,-29.1657,29.0],[-59.3547,-29.1457,29.0],[-59.3395,-29.1328,35.5266],[-59.3353,-29.1228,30.0093],[-59.3324,-29.1044,36.2421],[-59.327,-29.0981,35.3621],[-59.3195,-29.0936,35.3746],[-59.3136,-29.0922,35.2792],[-59.2773,-29.0912,29.5],[-59.2509,-29.0867,29.5],[-59.2271,-29.0753,35.5751],[-59.2185,-29.0678,41.1853],[-59.2122,-29.0587,31.5925],[-59.2075,-29.0489,29.5],[-59.1975,-29.0182,29.5],[-59.192,-28.9948,29.5],[-59.1894,-28.9603,34.7556],[-59.1861,-28.9392,37.1441],[-59.164,-28.8728,31.5],[-59.162,-28.8516,32.0],[-59.1657,-28.8332,35.7065],[-59.1601,-28.8126,39.337],[-59.1588,-28.802,36.9505],[-59.1612,-28.7783,43.3421],[-59.1546,-28.7695,33.5],[-59.14,-28.7603,33.5],[-59.1286,-28.7446,34.0],[-59.1227,-28.7295,34.0],[-59.1213,-28.7189,39.9359],[-59.1101,-28.7064,38.8348],[-59.1034,-28.7015,34.0],[-59.0974,-28.6727,40.1495],[-59.0879,-28.6624,34.0],[-59.0811,-28.6576,34.0],[-59.0771,-28.6447,38.484],[-59.08,-28.6373,37.1452],[-59.1039,-28.6213,34.0],[-59.1082,-28.6143,34.0],[-59.1095,-28.6064,34.0],[-59.1081,-28.5958,34.0],[-59.1002,-28.5815,34.0],[-59.0921,-28.5531,39.2658],[-59.0849,-28.5356,34.0],[-59.0602,-28.4954,34.0],[-59.0569,-28.483,39.3231],[-59.0593,-28.4754,37.8894],[-59.0722,-28.4574,34.5],[-59.0803,-28.4375,38.621],[-59.0807,-28.4269,35.0],[-59.0748,-28.4177,38.2593],[-59.0745,-28.4125,39.076],[-59.0752,-28.3991,36.0],[-59.0811,-28.373,36.7643],[-59.0834,-28.3681,39.9241],[-59.0945,-28.3556,44.0951],[-59.1002,-28.3434,36.125],[-59.098,-28.3142,36.5],[-59.0948,-28.2958,36.5],[-59.095,-28.2771,40.1444],[-59.1017,-28.2378,42.4197],[-59.0972,-28.2115,37.5],[-59.0915,-28.1965,37.5],[-59.0817,-28.1863,42.7519],[-59.0721,-28.18,38.8886],[-59.0685,-28.1757,40.6628],[-59.0669,-28.1706,39.5],[-59.0671,-28.1414,38.0],[-59.0601,-28.1299,38.0],[-59.0533,-28.1245,42.5582],[-59.0446,-28.1225,42.8938],[-59.0326,-28.1223,44.7285],[-59.0096,-28.1273,38.0],[-58.9812,-28.1191,49.3972],[-58.9692,-28.1188,41.9645],[-58.9514,-28.121,42.4792],[-58.9264,-28.112,38.875],[-58.9112,-28.0991,39.5],[-58.904,-28.0906,39.5],[-58.8906,-28.0698,40.0],[-58.8782,-28.04,42.6912],[-58.8708,-28.0326,42.6572],[-58.8774,-28.0202,40.0],[-58.8808,-28.0073,44.7634],[-58.893,-27.9993,45.104],[-60.0996,-27.9979,60.2304],[-60.3884,-28.0,64.0839],[-61.4189,-27.9988,68.2202],[-61.5833,-27.9973,71.2012],[-61.6646,-27.9984,73.062],[-61.7172,-27.9939,82.8649],[-61.8559,-28.8394,79.9748],[-61.9231,-29.2308,75.2459],[-62.004,-29.7172,82.4534],[-62.107,-30.3697,92.3876],[-62.1277,-30.4881,93.3174],[-62.0938,-30.5249,95.5367],[-62.0235,-30.5924,96.8327],[-61.9782,-30.598,97.9133],[-61.9826,-30.6463,99.1031],[-61.8794,-30.6609,98.4301],[-61.8323,-30.6735,97.4022],[-61.8611,-30.7928,98.9578],[-62.0597,-31.3991,111.3532],[-62.1047,-31.534,105.1285],[-62.132,-31.6086,104.3186],[-62.2496,-31.7016,101.4721],[-62.2354,-31.7218,101.2729],[-62.2235,-31.743,100.5873],[-62.2184,-31.7607,100.4741],[-62.215,-31.7815,101.0939],[-62.2146,-31.797,101.4013],[-62.2275,-31.8321,100.4868],[-62.231,-31.8474,100.0732],[-62.2321,-31.8657,99.5657],[-62.2296,-31.8867,99.1241],[-62.2243,-31.8986,98.873],[-62.2015,-31.9201,98.8891],[-62.1929,-31.9308,98.5926],[-62.1794,-31.96,97.7315],[-62.1761,-31.9727,97.7104],[-62.1749,-31.997,97.5443],[-62.1824,-32.0467,97.8602],[-62.1772,-32.0554,97.6703],[-62.1948,-32.1171,96.7247],[-62.1767,-32.1585,96.0136],[-62.1273,-32.2083,93.5568],[-62.0393,-32.2575,90.6646],[-62.005,-32.3567,89.603],[-61.9835,-32.3829,91.2753],[-61.985,-32.3946,87.8534],[-61.9638,-32.4194,87.039],[-61.9436,-32.4383,85.6877],[-61.9315,-32.4589,84.8326],[-61.9206,-32.4882,83.5823],[-61.9111,-32.5203,82.1579],[-61.9144,-32.5275,81.6075],[-61.9279,-32.5376,81.1918],[-61.9282,-32.5403,81.0594],[-61.9268,-32.5425,81.0373],[-61.9215,-32.5449,80.7863],[-61.9066,-32.5473,80.6757],[-61.9028,-32.5511,80.889],[-61.9012,-32.5561,80.5454],[-61.9014,-32.5612,80.1234],[-61.9044,-32.5684,79.2577],[-61.9179,-32.5787,79.113],[-61.9196,-32.5806,79.1005],[-61.9201,-32.5858,78.9707],[-61.9119,-32.5887,78.4327],[-61.8938,-32.5872,78.3915],[-61.8883,-32.5891,78.9126],[-61.8874,-32.607,78.2907],[-61.8907,-32.6168,77.6048],[-61.8972,-32.6221,77.306],[-61.9132,-32.6233,77.1796],[-61.9495,-32.6433,77.8472],[-61.9532,-32.6737,77.5019],[-61.9319,-32.6879,74.852],[-61.9153,-32.6941,75.2755],[-61.9034,-32.6956,74.1049],[-61.8883,-32.6944,73.9913],[-61.8649,-32.6978,73.902],[-61.8437,-32.7228,73.0462],[-61.8323,-32.7493,72.67],[-61.8048,-32.7649,71.3505],[-61.8002,-32.7714,71.6899],[-61.7977,-32.7841,71.2915],[-61.7893,-32.791,71.3953],[-61.7883,-32.8063,70.9395],[-61.7829,-32.8287,69.7741],[-61.7858,-32.8465,68.8585],[-61.7915,-32.8637,67.9155],[-61.7964,-32.8732,68.4711],[-61.7804,-32.8976,67.5859],[-61.7777,-32.9075,67.5381],[-61.7841,-32.9324,66.506],[-61.7889,-32.9386,66.822],[-61.789,-32.9464,66.6159],[-61.7949,-32.9713,66.2157],[-61.7939,-32.9788,65.4197],[-61.7953,-32.9838,64.9647],[-61.7909,-32.9984,62.9127],[-61.7954,-33.0186,62.9295],[-61.7988,-33.0227,62.111],[-61.8122,-33.0332,66.1928],[-61.8172,-33.0395,67.0062],[-61.8499,-33.0619,73.6164],[-61.8533,-33.0689,79.394],[-61.8692,-33.0808,76.6226],[-61.879,-33.0967,78.2109],[-61.8865,-33.1047,78.6628],[-61.9142,-33.1203,76.5],[-61.925,-33.1247,82.6934],[-61.9678,-33.1847,103.5901],[-62.0135,-33.2557,112.4064],[-62.2063,-33.5125,109.0],[-62.497,-33.8941,120.8663],[-62.5761,-33.9948,121.0175],[-62.6184,-34.0436,119.8725],[-62.7406,-34.2026,119.0633],[-62.855,-34.3548,121.5745],[-62.8676,-34.3688,122.658],[-62.8867,-34.3809,122.5462],[-62.8892,-34.3843,123.0575],[-62.4777,-34.3824,107.7734],[-62.0021,-34.3827,102.8801],[-61.7177,-34.3788,88.742],[-61.6188,-34.2884,88.5],[-61.569,-34.2487,92.7607],[-61.5304,-34.2121,87.6637],[-61.5017,-34.1822,81.5],[-61.3099,-33.9993,97.9174],[-61.0746,-33.7805,88.9322],[-60.9163,-33.6366,73.9221],[-60.9184,-33.615,73.9995],[-60.9164,-33.6002,72.0952]]]]}}