{"type":"Feature","properties":{"GID_2":"ARG.1.11_1","GID_0":"ARG","country":"Argentina","GID_1":"ARG.1_1","state":"BuenosAires","NL_NAME_1":"NA","county":"Balcarce","VARNAME_2":"NA","NL_NAME_2":"NA","TYPE_2":"Partido","ENGTYPE_2":"Part","CC_2":"NA","HASC_2":"AR.BA.BC","name":"Balcarce.county"},
"geometry":{"type": "MultiPolygon","coordinates": [[[[-58.6111,-37.4145,107.8059],[-58.8084,-37.5792,148.9819],[-58.6514,-37.7058,157.7455],[-58.6349,-37.7151,168.7988],[-58.5071,-37.8104,168.266],[-58.5911,-37.8809,190.824],[-58.5226,-37.9313,236.6436],[-58.5253,-37.9344,222.566],[-58.4563,-37.982,154.4085],[-58.3735,-38.0434,98.5209],[-58.37,-38.0414,98.8086],[-58.3122,-38.088,82.1086],[-58.3176,-38.0896,80.6804],[-58.2624,-38.1344,65.1139],[-57.7373,-37.7026,34.3079],[-58.165,-37.3927,56.3507],[-58.2811,-37.493,72.6526],[-58.3566,-37.443,76.8115],[-58.429,-37.5019,88.226],[-58.5788,-37.3874,100.1667],[-58.6111,-37.4145,107.8059]]]]}}