{"type":"Feature","properties":{"GID_2":"ARG.1.75_1","GID_0":"ARG","country":"Argentina","GID_1":"ARG.1_1","state":"BuenosAires","NL_NAME_1":"NA","county":"MarChiquita","VARNAME_2":"CoronelVidal","NL_NAME_2":"NA","TYPE_2":"Partido","ENGTYPE_2":"Part","CC_2":"NA","HASC_2":"AR.BA.MC","name":"MarChiquita.county"},
"geometry":{"type": "MultiPolygon","coordinates": [[[[-57.426,-37.7262,0.4145],[-57.4287,-37.7262,0.0],[-57.4285,-37.7301,0.0],[-57.4254,-37.7301,0.2299],[-57.426,-37.7262,0.4145]]],
[[[-57.4076,-37.6724,0.0],[-57.409,-37.6721,0.0],[-57.4101,-37.674,0.5046],[-57.4085,-37.6743,0.4581],[-57.4076,-37.6724,0.0]]],
[[[-57.399,-37.6565,0.0],[-57.4018,-37.6571,0.0],[-57.4024,-37.6587,0.0],[-57.4007,-37.659,0.0],[-57.399,-37.6565,0.0]]],
[[[-58.0662,-37.4088,47.6432],[-58.1002,-37.4399,52.2499],[-57.6702,-37.7508,29.5016],[-57.6794,-37.7603,30.0784],[-57.7007,-37.7641,33.9847],[-57.5216,-37.8964,10.594],[-57.5137,-37.8754,4.1255],[-57.5146,-37.8699,1.4191],[-57.5126,-37.8676,0.0],[-57.5129,-37.8651,10.559],[-57.5096,-37.8615,0.0],[-57.5037,-37.846,1.2489],[-57.4979,-37.8396,0.0],[-57.4946,-37.8324,5.1957],[-57.4646,-37.7946,0.9812],[-57.4615,-37.7929,3.8125],[-57.4579,-37.7863,2.1411],[-57.4551,-37.7851,0.0],[-57.4554,-37.7835,3.0069],[-57.4485,-37.7776,0.0],[-57.4476,-37.7743,5.0982],[-57.4451,-37.7737,3.6679],[-57.4432,-37.7696,4.1741],[-57.4404,-37.7687,0.0],[-57.4379,-37.7624,3.5219],[-57.4313,-37.7582,0.0],[-57.431,-37.7554,6.8316],[-57.4226,-37.7504,1.8947],[-57.4149,-37.7421,0.2306],[-57.4154,-37.7418,0.2306],[-57.4193,-37.7443,0.0],[-57.4232,-37.7443,0.4653],[-57.4262,-37.7385,0.8938],[-57.4301,-37.7379,0.0],[-57.4337,-37.734,0.0],[-57.4332,-37.7293,0.8151],[-57.4293,-37.7224,0.638],[-57.4335,-37.714,0.4903],[-57.4301,-37.7076,0.1982],[-57.4321,-37.6993,0.0],[-57.4282,-37.6951,0.0],[-57.4299,-37.6943,0.2327],[-57.429,-37.6924,1.4451],[-57.4165,-37.6837,0.9022],[-57.4096,-37.6688,0.8617],[-57.4043,-37.6626,0.5959],[-57.4051,-37.6613,0.5959],[-57.4076,-37.6621,0.8374],[-57.4079,-37.6637,1.0994],[-57.4149,-37.6674,0.5452],[-57.4229,-37.6676,0.3983],[-57.4179,-37.6557,0.4767],[-57.4154,-37.654,0.0],[-57.4135,-37.6493,0.6835],[-57.411,-37.6471,0.8875],[-57.4065,-37.6499,0.0],[-57.4038,-37.6482,0.0],[-57.404,-37.6415,1.008],[-57.406,-37.6399,0.7154],[-57.411,-37.6404,0.8068],[-57.4151,-37.6324,0.1368],[-57.4107,-37.6226,1.3559],[-57.4004,-37.6096,1.1679],[-57.3901,-37.6021,1.1952],[-57.384,-37.6007,0.0],[-57.3824,-37.5982,0.2823],[-57.3787,-37.5968,0.0],[-57.374,-37.591,1.1199],[-57.3701,-37.5893,0.0],[-57.3718,-37.5876,0.9013],[-57.3635,-37.5849,0.0],[-57.3579,-37.5799,0.0],[-57.3563,-37.5732,0.0],[-57.3521,-37.5701,0.0],[-57.3429,-37.5665,0.0],[-57.3301,-37.5643,0.567],[-57.3268,-37.5615,0.0],[-57.3229,-37.5618,1.1022],[-57.3274,-37.566,0.6512],[-57.3432,-37.5704,0.0],[-57.3488,-37.5765,0.0],[-57.3496,-37.5885,0.0],[-57.3451,-37.5932,0.3504],[-57.3443,-37.6035,0.2509],[-57.3504,-37.6054,0.3858],[-57.3607,-37.6049,0.5137],[-57.3696,-37.6063,0.7005],[-57.3768,-37.6104,0.2378],[-57.3851,-37.6182,0.7177],[-57.3862,-37.6215,0.175],[-57.3851,-37.6249,0.4894],[-57.3793,-37.6332,0.0],[-57.3737,-37.6385,0.0],[-57.3554,-37.6479,0.8994],[-57.3501,-37.6532,0.9433],[-57.3535,-37.6574,0.6912],[-57.3549,-37.6568,0.0],[-57.3563,-37.6599,0.927],[-57.3718,-37.6693,0.1038],[-57.386,-37.6849,0.9317],[-57.3907,-37.6865,1.1934],[-57.394,-37.6837,0.5784],[-57.4049,-37.6826,0.0],[-57.409,-37.684,0.0],[-57.4157,-37.6907,1.3217],[-57.4274,-37.6965,0.2033],[-57.4276,-37.6993,0.0],[-57.4243,-37.7068,1.6808],[-57.4262,-37.7124,1.3057],[-57.4282,-37.7121,0.6166],[-57.4279,-37.7182,0.9816],[-57.4229,-37.7221,4.0838],[-57.4221,-37.7254,6.2127],[-57.4238,-37.7271,2.5439],[-57.4238,-37.731,2.0105],[-57.4271,-37.7318,0.8725],[-57.4279,-37.734,1.0955],[-57.4238,-37.7365,0.9868],[-57.4218,-37.7421,0.8274],[-57.4176,-37.741,2.7518],[-57.4171,-37.7376,2.8689],[-57.4132,-37.7374,1.1143],[-57.4079,-37.7307,2.2603],[-57.4049,-37.7299,0.0],[-57.4038,-37.7276,2.6207],[-57.391,-37.7187,0.0],[-57.3712,-37.701,3.2868],[-57.3676,-37.7001,0.0],[-57.3599,-37.6912,4.904],[-57.3554,-37.6893,3.2506],[-57.3549,-37.6868,5.2903],[-57.3449,-37.6771,7.1561],[-57.3338,-37.6704,2.1159],[-57.3229,-37.6601,5.7869],[-57.3046,-37.6465,6.4445],[-57.2982,-37.6429,5.5915],[-57.2907,-37.6413,0.0],[-57.2674,-37.6176,4.2367],[-57.2429,-37.5968,0.7468],[-57.241,-37.5968,0.0],[-57.234,-37.5868,3.8157],[-57.226,-37.579,3.2358],[-57.1921,-37.5543,3.4597],[-57.7725,-37.1391,18.8271],[-58.0662,-37.4088,47.6432]]]]}}