{"type":"Feature","properties":{"featurecla":"River","scalerank":6,"rivernum":286,"dissolve":"286River","name":"Mendoza","name_alt":null,"note":null,"min_zoom":5.0,"strokeweig":0.15,"name_en":"Mendoza","min_label":6.0},
"geometry":{"type": "LineString","coordinates": [[-70.136474609375,-32.23796965938088,3508.343],[-70.125,-32.249834893755889,3094.9006],[-70.116455078125,-32.26091887813088,3287.8599],[-70.107421875,-32.27044036250588,2830.3862],[-70.094091796874991,-32.27752044063088,3101.9429],[-70.04150390625,-32.290362237505889,2807.8911],[-70.021826171874991,-32.30388762813088,2873.7461],[-70.014013671874991,-32.33171965938088,2829.9824],[-70.017626953124989,-32.33660247188088,2760.1829],[-70.024462890624989,-32.341827081255886,3069.708],[-70.028759765625,-32.34880950313088,2905.9451],[-70.024511718749991,-32.35906340938088,2757.6226],[-70.01123046875,-32.36638762813088,3090.7922],[-69.990771484374989,-32.37029387813088,2587.8904],[-69.953784179687489,-32.370928643755889,2695.1189],[-69.930517578124991,-32.365752862505886,3502.2034],[-69.886083984374991,-32.34636809688088,2761.9629],[-69.865527343749989,-32.334307550005889,2469.8699],[-69.848071289062489,-32.320147393755889,2578.3064],[-69.834277343749989,-32.30291106563088,2465.8669],[-69.823657226562489,-32.283526300005889,2534.0381],[-69.8125,-32.25188567500588,2417.8679],[-69.803515624999989,-32.210284112505889,2325.6985],[-69.792236328125,-32.18279387813088,2372.5059],[-69.788330078125,-32.162920831255889,2440.2878],[-69.78857421875,-32.13860442500588,2485.0396],[-69.795751953124991,-32.11760833125588,2408.9678],[-69.812841796874991,-32.107940362505886,2727.7412],[-69.817187499999989,-32.086455987505886,2700.8748],[-69.809741210937489,-32.06853606563088,2559.0898],[-69.794970703124989,-32.053252862505886,2395.9668],[-69.758105468749989,-32.02385833125588,2044.1949],[-69.745214843749991,-32.00628020625588,2023.194],[-69.736328125,-31.98626067500588,2030.1056],[-69.72919921875,-31.962920831255886,1966.3134],[-69.72119140625,-31.91448333125588,2228.8396],[-69.714038085937489,-31.892608331255886,1942.8907],[-69.69775390625,-31.87151458125588,2237.1672]]}}