{"type":"Feature","properties":{"featurecla":"River","scalerank":6,"rivernum":338,"dissolve":"338River","name":"San11","name_alt":null,"note":null,"min_zoom":5.0,"strokeweig":0.2,"name_en":"San Juan","min_label":6.0},
"geometry":{"type": "LineString","coordinates": [[-68.417578124999991,-31.51238372188088,596.7509],[-68.3896484375,-31.535967706255889,591.7111],[-68.366870117187489,-31.56121184688088,587.9697],[-68.3505859375,-31.59295012813088,581.7609],[-68.341845703124989,-31.63591887813088,574.8462],[-68.34326171875,-31.67302825313088,571.0598],[-68.378173828125,-31.818389581255886,561.9878],[-68.37666015625,-31.835284112505889,558.623],[-68.36591796875,-31.854815362505889,555.315],[-68.362963867187489,-31.86248137813088,554.4218],[-68.364062499999989,-31.881182550005889,556.0799],[-68.362963867187489,-31.88982512813088,554.7486],[-68.350268554687489,-31.91204192500588,550.4423],[-68.305517578124991,-31.95330169063088,547.6105],[-68.287207031249991,-31.978545831255886,547.3258],[-68.272387695312489,-32.009795831255886,545.3353],[-68.266699218749991,-32.027178643755889,544.7566],[-68.266772460937489,-32.040557550005886,544.5705],[-68.276660156249989,-32.04827239375588,543.7047],[-68.291796874999989,-32.05559661250588,542.4889],[-68.30126953125,-32.067413018755886,541.6628],[-68.294042968749991,-32.088409112505886,540.5774],[-68.259814453124989,-32.104327081255889,539.3621],[-68.219775390624989,-32.10491301875588,538.3728],[-68.055957031249989,-32.06853606563088,530.6],[-68.020849609374991,-32.069170831255889,534.6046],[-67.985595703125,-32.088409112505886,527.4706],[-67.959643554687489,-32.11199309688088,525.9852],[-67.948974609375,-32.12566497188088,530.4556],[-67.939794921874991,-32.15862395625588,530.7957],[-67.92724609375,-32.16887786250588,526.9022],[-67.889404296875,-32.184600518755886,525.1476],[-67.875048828124989,-32.194170831255889,520.5067],[-67.862719726562489,-32.205108331255886,520.2961],[-67.839648437499989,-32.23503997188088,520.983],[-67.831958007812489,-32.239288018755886,518.7654],[-67.739184570312489,-32.25286223750588,518.0925],[-67.735205078124991,-32.25188567500588,514.6694],[-67.721972656249989,-32.246612237505886,514.6162],[-67.71533203125,-32.245440362505889,515.0896],[-67.706787109375,-32.24773528438088,513.8861],[-67.694580078125,-32.25750090938088,515.0651],[-67.687670898437489,-32.25969817500588,518.8583],[-67.620532226562489,-32.258623956255889,507.9765],[-67.599462890624991,-32.253936456255886,506.2416],[-67.5849609375,-32.25286223750588,506.2707],[-67.568212890624991,-32.25725676875588,505.6082],[-67.55517578125,-32.26653411250588,503.3568],[-67.5451171875,-32.275909112505886,504.0676],[-67.537158203124989,-32.28020598750588,503.0802],[-67.491943359375,-32.27825286250588,500.1823],[-67.478515625,-32.28020598750588,500.0988],[-67.466162109374991,-32.286944268755889,498.1271],[-67.457128906249991,-32.296709893755889,497.8245],[-67.4443359375,-32.314971612505886,496.8687],[-67.36181640625,-32.389483331255889,490.1475]]}}