{"type":"Feature","properties":{"featurecla":"River","scalerank":5,"rivernum":192,"dissolve":"192River","name":"Colorado","name_alt":null,"note":null,"min_zoom":4.7,"strokeweig":0.15,"name_en":"Colorado","min_label":5.7},
"geometry":{"type": "LineString","coordinates": [[-70.302001953125,-35.28801848750588,2871.4136],[-70.299902343749991,-35.32903411250588,1979.8782],[-70.261035156249989,-35.432647393755886,1887.1133],[-70.250732421875,-35.485186456255889,1857.4924],[-70.242431640625,-35.511553643755889,1813.9535],[-70.223242187499991,-35.543487237505886,1763.5303],[-70.216064453125,-35.57463958125588,1745.7971],[-70.209521484374989,-35.58660247188088,1735.6599],[-70.197851562499991,-35.600127862505886,1726.5004],[-70.189306640624991,-35.61394622188088,1741.7015],[-70.182910156249989,-35.628448175005886,1774.9266],[-70.177905273437489,-35.644366143755889,1678.6848],[-70.197558593749989,-35.65569426875588,1749.5491],[-70.202978515624991,-35.672393487505886,1656.8894],[-70.196704101562489,-35.69133880000588,1862.1803],[-70.175219726562489,-35.71795012813088,1650.5474],[-70.173022460937489,-35.723174737505886,1619.4915],[-70.16845703125,-35.72600676875588,1621.9595],[-70.1421875,-35.72820403438088,1614.5415],[-70.129736328124991,-35.731280206255889,1599.83],[-70.11865234375,-35.735674737505889,1605.397],[-70.110205078124991,-35.740557550005889,1572.6417],[-70.096850585937489,-35.756866143755886,1598.9773],[-70.086474609374989,-35.79461028438088,1544.0413],[-70.072363281249991,-35.81316497188088,1527.9756]]}}