{"type": "Feature","bbox": [-70.2241,-35.9985,-66.7574,-34.0939],"geometry": {"type": "MultiPolygon","coordinates": [[[[-67.0746,-35.998,332.6673],[-67.0818,-35.9842,333.8829],[-67.0853,-35.964,336.2581],[-67.0897,-35.9565,337.2413],[-67.0979,-35.9486,337.1987],[-67.1137,-35.9423,339.1508],[-67.1237,-35.943,339.6064],[-67.135,-35.9475,341.5156],[-67.1436,-35.943,341.7377],[-67.1497,-35.9317,342.5937],[-67.1558,-35.9013,344.8528],[-67.1835,-35.8718,347.9028],[-67.1935,-35.8551,349.3801],[-67.1995,-35.8415,351.4603],[-67.2121,-35.8288,351.7114],[-67.2245,-35.8039,354.9957],[-67.2287,-35.7988,354.683],[-67.2579,-35.7827,359.8959],[-67.2836,-35.7497,362.6772],[-67.3115,-35.7354,365.9339],[-67.3258,-35.7313,366.7585],[-67.3385,-35.7247,369.2775],[-67.3661,-35.6978,372.0077],[-67.3742,-35.685,371.4406],[-67.3861,-35.6716,373.5057],[-67.3897,-35.6689,374.609],[-67.4146,-35.6587,378.6644],[-67.4226,-35.6535,378.5518],[-67.4258,-35.6504,379.6082],[-67.4298,-35.6406,380.2895],[-67.4337,-35.6353,382.1343],[-67.4865,-35.6112,385.6239],[-67.5068,-35.598,386.682],[-67.5258,-35.5539,392.8844],[-67.5274,-35.5414,394.1829],[-67.5357,-35.5336,394.2229],[-67.5493,-35.5269,396.6915],[-67.5459,-35.5201,396.2197],[-67.5551,-35.501,399.9016],[-67.5552,-35.4856,400.7933],[-67.5575,-35.4781,402.0596],[-67.5693,-35.4695,403.1888],[-67.5742,-35.4575,405.1086],[-67.583,-35.4546,404.4408],[-67.5914,-35.447,406.5063],[-67.5986,-35.4273,407.9792],[-67.6133,-35.4177,410.7392],[-67.6196,-35.406,411.7177],[-67.6321,-35.3985,412.5302],[-67.6378,-35.3893,413.994],[-67.6464,-35.3859,415.244],[-67.6501,-35.382,416.3374],[-67.6525,-35.3745,416.8377],[-67.6481,-35.3464,419.9058],[-67.6493,-35.3388,422.0546],[-67.6531,-35.3318,421.9738],[-67.6511,-35.3269,421.6191],[-67.6439,-35.3216,423.3328],[-67.644,-35.3193,423.6467],[-67.6512,-35.3108,423.2766],[-67.6596,-35.3075,424.1069],[-67.6657,-35.3017,425.1168],[-67.6695,-35.2946,425.8279],[-67.6724,-35.2821,426.9639],[-67.6868,-35.2721,429.3901],[-67.6885,-35.2567,430.5222],[-67.707,-35.247,432.8076],[-67.709,-35.2422,432.8673],[-67.7087,-35.2322,434.5236],[-67.7191,-35.2259,436.7828],[-67.7225,-35.222,436.317],[-67.724,-35.2142,437.8924],[-67.7217,-35.2041,438.9204],[-67.7218,-35.1964,440.3104],[-67.7263,-35.1817,441.683],[-67.7205,-35.1696,443.2427],[-67.7217,-35.1593,443.988],[-67.7203,-35.1518,446.015],[-67.7108,-35.1384,448.0789],[-67.7155,-35.1236,450.4089],[-67.7138,-35.1186,451.3093],[-67.708,-35.1125,452.1113],[-67.709,-35.1075,452.9834],[-67.7078,-35.0998,454.1802],[-67.7012,-35.0826,454.9896],[-67.7042,-35.0676,457.2741],[-67.7015,-35.0523,460.4574],[-67.7048,-35.0397,461.1215],[-67.7059,-35.0192,464.7943],[-67.7138,-35.0112,467.8695],[-67.7044,-34.9813,469.5855],[-67.7192,-34.965,473.5115],[-67.7221,-34.9553,474.2797],[-67.7318,-34.9487,475.7565],[-67.6523,-34.5473,488.558],[-67.6529,-34.5444,487.949],[-67.644,-34.5372,489.4662],[-67.6358,-34.5334,486.9878],[-67.6237,-34.5313,483.684],[-67.6082,-34.5331,482.3483],[-67.5946,-34.539,481.1261],[-67.5761,-34.5417,476.7],[-67.5519,-34.5381,474.1489],[-67.5354,-34.5452,471.6626],[-67.5199,-34.545,470.7651],[-67.5086,-34.5535,467.3434],[-67.4772,-34.5569,464.335],[-67.4311,-34.5483,459.0019],[-67.4243,-34.5457,457.3791],[-67.4214,-34.5422,456.6698],[-67.4145,-34.5402,455.5687],[-67.4069,-34.5401,455.7094],[-67.3905,-34.5449,452.7242],[-67.3631,-34.5458,449.8009],[-67.3557,-34.5448,447.0247],[-67.3353,-34.537,447.7351],[-67.328,-34.5361,446.507],[-67.3184,-34.538,444.0505],[-67.3042,-34.5338,442.0993],[-67.2943,-34.5333,441.4023],[-67.2847,-34.5352,440.5761],[-67.2683,-34.5445,438.4446],[-67.2484,-34.5455,436.2914],[-67.2165,-34.5572,431.9453],[-67.175,-34.5507,426.8063],[-67.1656,-34.5535,426.4255],[-67.153,-34.56,424.8916],[-67.1307,-34.5594,422.7128],[-67.1039,-34.5644,418.415],[-67.0944,-34.562,418.1379],[-67.0816,-34.5556,417.5381],[-67.0384,-34.5396,414.1559],[-66.9542,-34.5144,401.6175],[-66.9327,-34.5003,398.2539],[-66.923,-34.4985,397.9823],[-66.9158,-34.5002,398.1072],[-66.9001,-34.5102,398.6223],[-66.8704,-34.513,396.0664],[-66.841,-34.524,391.0432],[-66.8193,-34.5287,390.0593],[-66.7984,-34.54,387.9978],[-66.7574,-34.5551,384.2604],[-66.7637,-34.5394,384.7624],[-66.7738,-34.5213,389.0405],[-66.776,-34.5115,389.6326],[-66.7764,-34.5015,389.2391],[-66.7723,-34.4792,389.1293],[-66.7783,-34.4574,391.5939],[-66.7717,-34.433,389.9151],[-66.7726,-34.4256,387.3432],[-66.7785,-34.4141,390.9211],[-66.804,-34.3964,394.1427],[-66.8072,-34.3892,395.8329],[-66.8062,-34.3845,396.3401],[-66.7975,-34.3857,393.8461],[-66.7883,-34.3836,394.586],[-66.7873,-34.3818,394.6465],[-66.7898,-34.3717,389.8599],[-66.7855,-34.368,394.308],[-66.7848,-34.3606,394.1407],[-66.7897,-34.3545,395.1235],[-66.8009,-34.3571,396.1359],[-66.8044,-34.3446,394.8541],[-66.8171,-34.3307,397.2898],[-66.8082,-34.3241,397.7897],[-66.8033,-34.315,391.0603],[-66.8036,-34.3073,392.08],[-66.8091,-34.2985,398.3214],[-66.8115,-34.291,399.8372],[-66.811,-34.2888,399.2412],[-66.8037,-34.2843,399.6635],[-66.8028,-34.282,399.6334],[-66.805,-34.2626,401.7108],[-67.1405,-34.2615,424.0585],[-67.1509,-34.0939,426.1258],[-67.5948,-34.1244,475.3034],[-67.6389,-34.2104,479.3914],[-67.9982,-34.2007,577.0052],[-68.0183,-34.1941,587.5043],[-68.0269,-34.1963,592.3087],[-68.039,-34.1945,598.5234],[-68.0819,-34.1999,612.9757],[-68.1686,-34.2,656.0863],[-68.2075,-34.1918,679.9008],[-68.2375,-34.1786,700.0589],[-68.2639,-34.1712,721.4649],[-68.3071,-34.1679,746.8882],[-68.3287,-34.1687,763.5894],[-68.3433,-34.1724,775.5326],[-68.3714,-34.1886,801.2092],[-68.4003,-34.1978,858.9022],[-68.4138,-34.2083,845.519],[-68.4279,-34.2135,877.2031],[-68.4465,-34.2144,896.0766],[-68.4703,-34.208,910.6682],[-68.486,-34.2156,920.2891],[-68.5058,-34.2072,957.1411],[-68.5115,-34.2062,967.2357],[-68.5319,-34.2126,995.9673],[-68.5442,-34.2129,1013.3495],[-68.5875,-34.2269,1044.1119],[-68.603,-34.2278,1075.7294],[-68.6266,-34.2339,1094.6968],[-68.6348,-34.2305,1113.5836],[-68.6534,-34.2306,1124.425],[-68.7097,-34.2447,1174.9304],[-68.7138,-34.2475,1179.8304],[-68.7509,-34.3279,1302.3136],[-68.8315,-34.321,1653.756],[-68.8384,-34.331,1600.0792],[-69.0347,-34.3186,1748.4576],[-69.1154,-34.6113,1328.0],[-69.1245,-34.6131,1335.0381],[-69.1303,-34.612,1331.9689],[-69.1348,-34.6194,1333.5419],[-69.1369,-34.6204,1338.217],[-69.1459,-34.6183,1422.4121],[-69.1546,-34.6212,1420.8932],[-69.1648,-34.627,1454.9086],[-69.1891,-34.6315,1447.24],[-69.2033,-34.6365,1389.4257],[-69.2158,-34.6367,1424.5924],[-69.2279,-34.639,1425.0723],[-69.3137,-34.6622,1505.1176],[-69.3277,-34.6679,1624.7629],[-69.3451,-34.6786,1643.8557],[-69.3733,-34.6896,1580.6484],[-69.3851,-34.6929,1557.8473],[-69.4098,-34.6953,1565.0728],[-69.4316,-34.6953,1661.4568],[-69.4589,-34.6898,1727.9756],[-69.4674,-34.6868,1636.8467],[-69.4829,-34.678,1651.7039],[-69.5,-34.6719,1617.1553],[-69.5091,-34.6615,1816.2935],[-69.53,-34.646,1713.4126],[-69.5428,-34.6315,1998.5614],[-69.5527,-34.6252,2275.5088],[-69.5597,-34.6111,1923.0209],[-69.5789,-34.5979,1880.6199],[-69.6007,-34.5794,2102.8752],[-69.6063,-34.5649,2296.3398],[-69.6107,-34.558,2052.1069],[-69.6457,-34.5368,2034.5565],[-69.6904,-34.494,2051.6355],[-69.7026,-34.486,2143.5122],[-69.7136,-34.4812,2056.8699],[-69.7346,-34.4767,2072.2361],[-69.7502,-34.4769,2089.916],[-69.7662,-34.4691,2261.9341],[-69.77,-34.4651,2195.6157],[-69.7734,-34.4578,2166.2927],[-69.7776,-34.4427,2137.199],[-69.7797,-34.4248,2201.9609],[-69.7867,-34.4135,2293.1089],[-69.8115,-34.3941,2551.7578],[-69.862799999999993,-34.3703,2673.4543],[-69.884,-34.3514,2538.7175],[-69.898,-34.3413,2758.6123],[-69.9133,-34.325,2942.7349],[-69.9438,-34.3033,3110.0569],[-69.9843,-34.2563,4075.4541],[-69.9871,-34.2611,4155.4834],[-70.0029,-34.2616,4038.6582],[-70.0061,-34.2656,4118.3174],[-70.0113,-34.2663,4353.8057],[-70.0148,-34.2743,4683.0039],[-70.0198,-34.2765,4821.0532],[-70.019,-34.2811,4943.2686],[-70.0234,-34.2826,5073.937],[-70.025,-34.286,5043.6255],[-70.0306,-34.2886,5131.105],[-70.0315,-34.2916,5030.9248],[-70.0286,-34.2998,4695.6543],[-70.0218,-34.3087,4370.2891],[-70.0215,-34.315,4021.2141],[-70.0144,-34.3384,4127.4531],[-70.019,-34.3467,4094.9832],[-70.0165,-34.3526,4226.6904],[-70.0171,-34.3548,4312.2485],[-70.0227,-34.3604,4259.5166],[-70.0243,-34.3659,4314.8257],[-70.0258,-34.3665,4356.3877],[-70.0245,-34.3747,4311.7383],[-70.0158,-34.3819,3992.1084],[-70.0132,-34.3892,4041.8132],[-70.0093,-34.394,3890.5859],[-70.0123,-34.4052,3800.4639],[-70.0141,-34.4069,3822.0225],[-70.0122,-34.4094,3868.8582],[-70.0129,-34.4119,3872.9526],[-70.0222,-34.4157,3940.377],[-70.0298,-34.4245,4119.4038],[-70.0364,-34.4232,4128.3149],[-70.0459,-34.4288,4239.6924],[-70.0476,-34.4317,4323.1357],[-70.048,-34.438,4135.8115],[-70.0526,-34.4425,4183.2964],[-70.0547,-34.4488,4504.8276],[-70.0651,-34.452,4208.0176],[-70.0718,-34.4615,4033.3696],[-70.0791,-34.4663,4043.999],[-70.0814,-34.4729,3990.4172],[-70.0909,-34.4762,4146.8281],[-70.1003,-34.483,4188.3682],[-70.1177,-34.476,4225.1904],[-70.1318,-34.4879,4114.1367],[-70.1313,-34.4909,4186.2148],[-70.128,-34.4936,4218.2812],[-70.1308,-34.4998,4081.9727],[-70.1299,-34.5013,3979.8704],[-70.1332,-34.5048,4072.6382],[-70.1341,-34.5099,4080.4587],[-70.1398,-34.5159,4060.8186],[-70.1449,-34.5248,3936.7161],[-70.1456,-34.5283,4072.636],[-70.1436,-34.5325,4121.7305],[-70.1473,-34.5331,4048.248],[-70.1553,-34.5453,3865.3438],[-70.1646,-34.5521,3736.7188],[-70.1693,-34.5577,3682.8328],[-70.1684,-34.5633,3760.4241],[-70.1732,-34.5662,3761.2505],[-70.1726,-34.5703,3765.1951],[-70.175,-34.5721,3775.4766],[-70.1751,-34.5756,3902.356],[-70.1857,-34.5727,3738.2454],[-70.1904,-34.5755,3659.1626],[-70.1913,-34.5784,3660.418],[-70.1953,-34.5807,3688.7905],[-70.1926,-34.5832,3760.2607],[-70.1907,-34.5892,3847.8184],[-70.1955,-34.5908,3682.6475],[-70.1974,-34.5945,3688.333],[-70.2046,-34.5947,3770.7903],[-70.2051,-34.5969,3727.3401],[-70.2011,-34.6014,4024.9712],[-70.2137,-34.6074,3783.4238],[-70.2179,-34.6119,3788.4783],[-70.2165,-34.6212,3992.2466],[-70.2195,-34.6338,4018.5015],[-70.2241,-34.6416,3975.7266],[-70.2197,-34.6502,3777.9792],[-70.2207,-34.6592,3952.1226],[-70.2157,-34.6614,3867.0737],[-70.2154,-34.6667,3884.6147],[-70.2132,-34.67,3930.4971],[-70.196,-34.6732,3312.8022],[-70.1742,-34.6736,2894.1108],[-70.1477,-34.681,2817.0525],[-70.1229,-34.6828,2732.575],[-70.1092,-34.689,2320.1912],[-70.1069,-34.6906,2253.5994],[-70.1042,-34.698,2222.7354],[-70.1039,-34.7211,2202.7295],[-70.0987,-34.7331,2192.2327],[-70.0816,-34.7546,2174.8105],[-70.0561,-34.7734,2155.8821],[-70.0435,-34.788,2157.3718],[-70.0271,-34.7954,2144.8225],[-70.0017,-34.8102,2121.5632],[-69.9848,-34.8251,2113.0806],[-69.9496,-34.8358,2095.7737],[-69.9071,-34.8619,2102.1362],[-69.8791,-34.873,2046.478],[-69.8724,-34.8783,2010.1433],[-69.8326,-34.8986,1943.0681],[-69.8114,-34.9138,1916.281],[-69.7972,-34.9189,1890.5583],[-69.7735,-34.9312,1860.2324],[-69.7653,-34.942,1857.3218],[-69.736,-34.9505,1810.5048],[-69.7145,-34.9528,1789.5907],[-69.6825,-34.9689,1749.2581],[-69.6614,-34.9842,1721.5532],[-69.6562,-34.9906,1712.4651],[-69.6531,-34.9978,1704.4008],[-69.6508,-35.008,1692.811],[-69.6505,-35.0234,1680.9348],[-69.648,-35.0308,1670.4324],[-69.6304,-35.0551,1635.1694],[-69.6224,-35.069,1617.6064],[-69.6058,-35.0877,1638.5477],[-69.5756,-35.1099,1558.1725],[-69.57,-35.1191,1546.6412],[-69.5653,-35.134,1530.6589],[-69.5508,-35.1508,1510.1282],[-69.5467,-35.1631,1497.9805],[-69.5437,-35.1676,1493.3481],[-69.5302,-35.1783,1478.9685],[-69.519,-35.1828,1469.4678],[-69.5023,-35.1943,1452.7974],[-69.4756,-35.2073,1431.0989],[-69.4703,-35.2135,1425.0642],[-69.467,-35.2261,1420.7203],[-69.464,-35.2305,1417.1165],[-69.4364,-35.2472,1404.6398],[-69.4307,-35.2492,1401.4001],[-69.4182,-35.2501,1397.5813],[-69.4046,-35.2565,1391.0732],[-69.3893,-35.2588,1387.5006],[-69.3779,-35.2632,1384.4283],[-69.3685,-35.2635,1381.2126],[-69.3574,-35.2678,1378.9768],[-69.3356,-35.2669,1372.9886],[-69.3294,-35.2612,1372.0643],[-69.3097,-35.2544,1370.24],[-68.7413,-35.373,1588.4656],[-68.4862,-35.5718,3512.3337],[-68.2935,-35.9985,1196.3096],[-67.5804,-35.998,542.859],[-67.5041,-35.9955,494.437],[-67.0746,-35.998,332.6673]]]]}
,"properties": {"GID_2": "ARG.13.15_1","GID_0": "ARG","country": "Argentina","GID_1": "ARG.13_1","state": "Mendoza","NL_NAME_1": "NA","county": "SanRafael","VARNAME_2": "NA","NL_NAME_2": "NA","TYPE_2": "Departamento","ENGTYPE_2": "Department","CC_2": "NA","HASC_2": "AR.MZ.SR","name": "SanRafael.county","area_km2": 31778.98,"hist_schema_id": "Elevation0-9000","hist_area_km2": {"325": 20.11,"350": 365.0,"375": 281.56,"400": 900.18,"425": 1242.76,"450": 1503.43,"475": 1433.53,"500": 1672.92,"525": 1374.27,"550": 1067.15,"575": 898.08,"600": 756.55,"625": 735.05,"650": 678.87,"675": 581.58,"700": 506.24,"725": 462.87,"750": 419.44,"775": 369.56,"800": 318.22,"825": 296.2,"850": 285.3,"875": 268.51,"900": 260.38,"925": 247.73,"950": 250.56,"975": 232.04,"1000": 228.35,"1025": 216.44,"1050": 223.06,"1075": 209.53,"1100": 211.07,"1125": 241.92,"1150": 256.38,"1175": 227.32,"1200": 207.0,"1225": 190.53,"1250": 174.54,"1275": 190.61,"1300": 796.59,"1325": 1101.94,"1350": 937.32,"1375": 697.24,"1400": 559.03,"1425": 447.42,"1450": 467.26,"1475": 454.06,"1500": 423.18,"1525": 348.26,"1550": 301.98,"1575": 267.72,"1600": 194.72,"1625": 172.0,"1650": 169.12,"1675": 153.5,"1700": 145.62,"1725": 148.66,"1750": 148.31,"1775": 149.1,"1800": 126.89,"1825": 85.19,"1850": 70.26,"1875": 63.34,"1900": 59.2,"1925": 54.77,"1950": 52.03,"1975": 48.4,"2000": 46.89,"2025": 47.46,"2050": 47.42,"2075": 49.01,"2100": 52.99,"2125": 49.63,"2150": 47.03,"2175": 46.7,"2200": 47.2,"2225": 48.21,"2250": 45.46,"2275": 44.17,"2300": 45.32,"2325": 43.97,"2350": 43.84,"2375": 43.91,"2400": 37.74,"2425": 34.5,"2450": 31.87,"2475": 32.45,"2500": 32.9,"2525": 32.84,"2550": 34.15,"2575": 34.65,"2600": 34.85,"2625": 36.42,"2650": 35.41,"2675": 36.64,"2700": 38.09,"2725": 38.21,"2750": 39.36,"2775": 37.73,"2800": 37.58,"2825": 38.82,"2850": 38.09,"2875": 37.13,"2900": 38.05,"2925": 38.53,"2950": 37.17,"2975": 38.36,"3000": 36.91,"3025": 35.99,"3050": 35.4,"3075": 37.55,"3100": 36.05,"3125": 36.56,"3150": 37.61,"3175": 38.06,"3200": 36.09,"3225": 37.75,"3250": 37.43,"3275": 36.37,"3300": 36.78,"3325": 40.34,"3350": 39.88,"3375": 39.07,"3400": 39.46,"3425": 40.04,"3450": 39.85,"3475": 39.15,"3500": 41.79,"3525": 39.68,"3550": 39.99,"3575": 39.78,"3600": 39.14,"3625": 37.3,"3650": 36.43,"3675": 34.58,"3700": 33.29,"3725": 30.27,"3750": 29.31,"3775": 29.43,"3800": 26.04,"3825": 25.4,"3850": 23.35,"3875": 22.64,"3900": 22.53,"3925": 20.18,"3950": 18.38,"3975": 16.82,"4000": 15.52,"4025": 13.95,"4050": 12.9,"4075": 12.06,"4100": 9.79,"4125": 8.78,"4150": 7.92,"4175": 7.03,"4200": 6.18,"4225": 5.36,"4250": 5.01,"4275": 4.26,"4300": 4.64,"4325": 4.14,"4350": 3.51,"4375": 3.54,"4400": 3.19,"4425": 2.5,"4450": 2.53,"4475": 1.95,"4500": 1.59,"4525": 1.62,"4550": 1.2,"4575": 0.82,"4600": 0.65,"4625": 0.59,"4650": 0.58,"4675": 0.49,"4700": 0.56,"4725": 0.33,"4750": 0.52,"4775": 0.42,"4800": 0.26,"4825": 0.35,"4850": 0.26,"4875": 0.26,"4925": 0.35,"4950": 0.31,"4975": 0.31,"5000": 0.3,"5025": 0.28}}}