{"type": "Feature","bbox": [-68.4649,-31.6108,-67.9844,-31.4469],"geometry": {"type": "MultiPolygon","coordinates": [[[[-68.4649,-31.4556,608.6826],[-68.4465,-31.4709,600.9495],[-68.4287,-31.5021,597.9079],[-68.41,-31.5256,595.0535],[-68.3917,-31.5366,591.7873],[-68.3888,-31.5463,583.8577],[-68.3814,-31.5571,582.0156],[-67.9844,-31.6108,1417.7534],[-68.0265,-31.4512,2389.0566],[-68.3633,-31.4556,593.7825],[-68.4155,-31.4534,600.796],[-68.4499,-31.4469,606.3792],[-68.4556,-31.449,607.2574],[-68.4649,-31.4556,608.6826]]]]}
,"properties": {"GID_2": "ARG.18.12_1","GID_0": "ARG","country": "Argentina","GID_1": "ARG.18_1","state": "SanJuan","NL_NAME_1": "NA","county": "SanMartín","VARNAME_2": "SantaLucia","NL_NAME_2": "NA","TYPE_2": "Departamento","ENGTYPE_2": "Department","CC_2": "NA","HASC_2": "AR.SJ.SM","name": "SanMartín.county","area_km2": 558.2645,"hist_schema_id": "Elevation0-9000","hist_area_km2": {"575": 63.8599,"600": 123.5004,"625": 3.9223,"650": 3.651,"675": 3.3076,"700": 2.91,"725": 2.187,"750": 2.5845,"775": 2.7108,"800": 2.7109,"825": 3.0721,"850": 3.5603,"875": 3.6142,"900": 4.4457,"925": 4.8791,"950": 6.18,"975": 5.8549,"1000": 6.6317,"1025": 6.0718,"1050": 6.2168,"1075": 5.8916,"1100": 6.1628,"1125": 6.3258,"1150": 6.0907,"1175": 5.8377,"1200": 6.6151,"1225": 6.9039,"1250": 6.8318,"1275": 7.4464,"1300": 7.6991,"1325": 7.5722,"1350": 8.5298,"1375": 7.1016,"1400": 7.3725,"1425": 6.8305,"1450": 7.2097,"1475": 7.0469,"1500": 6.4688,"1525": 7.1557,"1550": 7.5531,"1575": 6.9926,"1600": 7.3176,"1625": 6.9746,"1650": 7.0827,"1675": 7.2279,"1700": 6.5412,"1725": 7.0113,"1750": 6.9751,"1775": 6.5054,"1800": 6.2528,"1825": 5.2593,"1850": 5.2591,"1875": 4.681,"1900": 4.2292,"1925": 4.1392,"1950": 3.7416,"1975": 4.338,"2000": 4.8804,"2025": 4.2118,"2050": 4.3744,"2075": 4.5192,"2100": 4.7723,"2125": 4.2664,"2150": 4.2847,"2175": 4.7007,"2200": 4.3392,"2225": 3.3992,"2250": 2.9472,"2275": 3.7067,"2300": 3.0921,"2325": 2.1699,"2350": 1.0306,"2375": 0.3978,"2400": 0.0904,"2425": 0.0362}}}