{"type": "Feature","bbox": [-72.4417,-52.3982,-68.3519,-50.6823],"geometry": {"type": "MultiPolygon","coordinates": [[[[-68.4353,-52.3963,2.029],[-68.4344,-52.3974,2.029],[-68.4345,-52.3962,4.4302],[-68.4353,-52.3951,4.4302],[-68.4353,-52.3963,2.029]]],
[[[-68.4353,-52.394,5.2495],[-68.4353,-52.3938,5.2495],[-68.4356,-52.3943,0.0],[-68.4353,-52.3944,5.2495],[-68.4353,-52.394,5.2495]]],
[[[-69.0086,-51.5812,0.0139],[-69.0158,-51.5807,0.0218],[-69.0153,-51.5821,1.5863],[-69.0192,-51.5832,0.4624],[-69.0114,-51.586,0.4649],[-69.0014,-51.584,0.3836],[-69.0086,-51.5812,0.0139]]],
[[[-69.0314,-51.5751,5.5639],[-69.0347,-51.5735,0.9992],[-69.0375,-51.5749,1.5512],[-69.0392,-51.5785,1.2427],[-69.0475,-51.5815,0.3427],[-69.0347,-51.5862,1.3413],[-69.0186,-51.5854,0.44],[-69.0236,-51.5829,0.0562],[-69.0247,-51.579,4.1129],[-69.0236,-51.5779,0.0],[-69.0314,-51.5751,5.5639]]],
[[[-69.0764,-51.5899,1.8752],[-69.0825,-51.5901,0.0],[-69.0886,-51.5937,0.0],[-69.0803,-51.594,0.4478],[-69.0719,-51.5896,0.163],[-69.0764,-51.5899,1.8752]]],
[[[-69.0747,-51.5876,1.4751],[-69.0736,-51.5851,1.8699],[-69.0786,-51.5854,2.2897],[-69.0781,-51.5865,0.0],[-69.0825,-51.5893,0.0],[-69.0808,-51.5896,2.2058],[-69.0747,-51.5876,1.4751]]],
[[[-69.0353,-51.566,0.2957],[-69.0358,-51.5638,0.0171],[-69.0392,-51.564,0.6428],[-69.0436,-51.5671,1.8925],[-69.0469,-51.5671,0.8685],[-69.0481,-51.5693,3.2151],[-69.0442,-51.5701,0.5773],[-69.0353,-51.566,0.2957]]],
[[[-69.0281,-51.5632,1.7357],[-69.0297,-51.5618,0.9154],[-69.0297,-51.5638,1.7357],[-69.0331,-51.5646,0.2957],[-69.0264,-51.5649,0.4114],[-69.0281,-51.5632,1.7357]]],
[[[-68.9997,-51.0001,0.0],[-68.9997,-50.9999,0.0],[-69.0003,-50.9999,0.0],[-69.0003,-51.0001,0.0],[-68.9997,-51.0001,0.0]]],
[[[-69.1081,-51.6565,0.8672],[-69.1125,-51.6568,0.0515],[-69.1136,-51.6593,0.2615],[-69.1181,-51.6621,0.9669],[-69.1119,-51.6615,0.775],[-69.1086,-51.659,1.8102],[-69.1081,-51.6565,0.8672]]],
[[[-69.1169,-51.6443,0.0],[-69.1236,-51.6437,0.0],[-69.1308,-51.6479,0.5],[-69.1275,-51.6504,0.5],[-69.1242,-51.6504,0.0],[-69.1181,-51.6468,0.0],[-69.1169,-51.6443,0.0]]],
[[[-69.1119,-51.6349,0.0],[-69.1186,-51.6343,0.0],[-69.1125,-51.6368,0.0],[-69.1153,-51.6385,0.0],[-69.1136,-51.6399,0.0],[-69.1064,-51.6371,0.0],[-69.1075,-51.6354,0.0],[-69.1119,-51.6349,0.0]]],
[[[-69.1003,-51.599,0.0],[-69.1036,-51.5985,0.0],[-69.1136,-51.6012,1.2197],[-69.1064,-51.6018,0.0],[-69.1003,-51.599,0.0]]],
[[[-71.6941,-52.0045,153.7539],[-71.694,-52.0003,150.1736],[-71.694,-52.0002,150.1736],[-71.6941,-52.0045,153.7539]]],
[[[-69.1342,-51.6463,0.5],[-69.1408,-51.6465,0.5],[-69.1425,-51.6474,0.5],[-69.1425,-51.6493,0.5],[-69.1369,-51.6482,0.5],[-69.1342,-51.6463,0.5]]],
[[[-69.1569,-51.6282,0.5],[-69.1603,-51.6274,0.5],[-69.1608,-51.6287,0.5],[-69.1497,-51.631,0.5],[-69.1503,-51.6299,0.5],[-69.1569,-51.6282,0.5]]],
[[[-69.7548,-50.7557,284.7663],[-69.965,-50.7523,233.3715],[-70.646,-50.7368,320.0929],[-71.5003,-50.7117,493.636],[-72.2933,-50.6823,1717.7292],[-72.3008,-50.6922,1678.1243],[-72.2993,-50.6968,1763.2639],[-72.3022,-50.7022,1678.672],[-72.3005,-50.7069,1968.314],[-72.3112,-50.708,1809.9067],[-72.3184,-50.7164,1820.7041],[-72.3267,-50.7162,1724.2334],[-72.3359,-50.7184,1738.069],[-72.3394,-50.7242,1636.04],[-72.347,-50.7299,1697.0278],[-72.3496,-50.7398,1791.5646],[-72.3479,-50.7486,1853.2942],[-72.3494,-50.7531,1889.3169],[-72.3441,-50.7601,1964.6599],[-72.3402,-50.7602,1811.3087],[-72.3365,-50.7631,1494.0972],[-72.3297,-50.7627,1321.311],[-72.3255,-50.7698,1061.0032],[-72.3169,-50.7745,1044.6448],[-72.3115,-50.7805,1012.1563],[-72.2963,-50.7905,952.4586],[-72.2942,-50.7952,910.3854],[-72.2866,-50.8019,837.8496],[-72.2862,-50.8048,841.2042],[-72.281,-50.809,784.5176],[-72.2786,-50.8159,717.2042],[-72.2682,-50.8263,630.6377],[-72.2686,-50.831,600.9573],[-72.2596,-50.8369,537.9828],[-72.2651,-50.853,441.0933],[-72.268,-50.8546,434.8553],[-72.2668,-50.8632,408.9085],[-72.2643,-50.8679,403.7063],[-72.2575,-50.8721,384.7513],[-72.2565,-50.8744,378.1389],[-72.249,-50.8754,370.7953],[-72.2468,-50.8782,367.5909],[-72.2488,-50.8792,372.8178],[-72.249,-50.8812,362.6616],[-72.2516,-50.8815,360.003],[-72.2519,-50.8846,353.3434],[-72.2556,-50.8898,345.7488],[-72.2509,-50.8927,340.1405],[-72.2507,-50.8953,336.9781],[-72.2471,-50.8971,319.8282],[-72.2462,-50.9051,315.1923],[-72.2482,-50.9065,302.5023],[-72.2488,-50.9106,295.0661],[-72.2581,-50.9181,277.5905],[-72.257,-50.9265,260.3595],[-72.2633,-50.9438,231.3857],[-72.2621,-50.9465,225.47559999999999],[-72.2586,-50.9488,222.4973],[-72.2643,-50.9528,217.3833],[-72.2691,-50.9797,203.0136],[-72.2647,-51.001,197.6022],[-72.2651,-51.0328,161.1077],[-72.2658,-51.0351,149.1552],[-72.2706,-51.0372,156.1585],[-72.2786,-51.0293,138.9929],[-72.3049,-51.0319,120.6517],[-72.3085,-51.0285,122.7923],[-72.3177,-51.0299,115.7614],[-72.3423,-51.0284,106.7513],[-72.3503,-51.0306,111.5966],[-72.361,-51.0231,98.695],[-72.3731,-51.0224,94.7917],[-72.3763,-51.0805,327.5484],[-72.3916,-51.0843,427.6969],[-72.403,-51.092,707.1761],[-72.4071,-51.0985,865.197],[-72.4065,-51.1034,910.0588],[-72.4085,-51.1076,890.7021],[-72.4046,-51.1172,966.6045],[-72.4054,-51.1199,931.3352],[-72.402,-51.125,959.2914],[-72.4019,-51.1333,1009.3041],[-72.398,-51.1372,1010.7936],[-72.3952,-51.1446,1008.2247],[-72.3898,-51.1472,976.4399],[-72.3848,-51.153,895.9749],[-72.3813,-51.1541,876.173],[-72.3792,-51.1583,842.0303],[-72.3763,-51.1604,832.2874],[-72.3632,-51.1651,827.8185],[-72.3621,-51.1682,823.8436],[-72.3595,-51.1689,826.4719],[-72.3619,-51.1735,845.8987],[-72.3599,-51.177,817.1584],[-72.3603,-51.1798,836.3376],[-72.3533,-51.1811,873.5256],[-72.3528,-51.1849,861.754],[-72.3496,-51.1884,791.4172],[-72.347,-51.1983,699.3976],[-72.3481,-51.204,640.1292],[-72.3318,-51.2099,619.4435],[-72.321,-51.2107,592.3828],[-72.3139,-51.2096,588.7368],[-72.3047,-51.2008,705.5803],[-72.3035,-51.2013,703.2683],[-72.2997,-51.2058,664.8374],[-72.2985,-51.2101,567.1246],[-72.2964,-51.2109,615.5282],[-72.2943,-51.2167,547.6421],[-72.2868,-51.2252,440.9396],[-72.2586,-51.2442,252.6514],[-72.2591,-51.2527,265.3122],[-72.2603,-51.2561,283.9912],[-72.2655,-51.2617,330.0811],[-72.2666,-51.2708,369.1808],[-72.2631,-51.2744,370.9078],[-72.2696,-51.2837,446.394],[-72.2735,-51.2861,452.3487],[-72.2953,-51.2882,559.6296],[-72.3061,-51.2931,596.0358],[-72.3109,-51.2991,607.0701],[-72.3064,-51.3012,613.8864],[-72.3077,-51.3074,606.6667],[-72.3235,-51.3097,496.7383],[-72.3261,-51.3114,508.8278],[-72.3268,-51.3145,493.3843],[-72.3312,-51.3139,492.769],[-72.3579,-51.3182,690.3387],[-72.3631,-51.3224,744.4343],[-72.3635,-51.3246,772.6743],[-72.3617,-51.3261,772.6743],[-72.365,-51.3329,773.929],[-72.3715,-51.3363,753.1147],[-72.3688,-51.3398,827.0157],[-72.369,-51.3426,864.3284],[-72.3632,-51.342,843.6095],[-72.3575,-51.3447,793.2799],[-72.3507,-51.3433,782.6922],[-72.3489,-51.3496,759.5348],[-72.3477,-51.35,759.5348],[-72.3365,-51.349,710.2242],[-72.3316,-51.3444,713.528],[-72.326,-51.3457,686.2612],[-72.3176,-51.3529,740.968],[-72.3131,-51.3632,651.3395],[-72.3088,-51.366,664.191],[-72.3104,-51.3706,661.2338],[-72.308,-51.3774,612.5972],[-72.3109,-51.3861,614.8657],[-72.3095,-51.3889,606.7794],[-72.3129,-51.3954,529.3754],[-72.31,-51.4034,586.5531],[-72.322,-51.4063,621.827],[-72.3381,-51.4244,687.448],[-72.3368,-51.4278,701.3666],[-72.3388,-51.4302,684.653],[-72.338,-51.437,669.0585],[-72.3411,-51.4478,607.2824],[-72.3367,-51.4589,576.134],[-72.3326,-51.4636,542.7302],[-72.3272,-51.4661,531.0432],[-72.3241,-51.475,440.4092],[-72.3288,-51.4777,461.3065],[-72.3459,-51.4773,587.0557],[-72.3468,-51.4811,610.8032],[-72.3513,-51.4845,603.3206],[-72.3507,-51.4888,590.2427],[-72.354,-51.4935,616.1028],[-72.3502,-51.5087,455.7434],[-72.3472,-51.5119,393.7964],[-72.3446,-51.5206,371.9242],[-72.3542,-51.5226,271.9577],[-72.3601,-51.5259,310.6385],[-72.3651,-51.5234,322.5114],[-72.3753,-51.5227,359.3588],[-72.3908,-51.5149,371.0192],[-72.4048,-51.5135,482.3685],[-72.4066,-51.5195,489.5305],[-72.3928,-51.5237,340.0594],[-72.3928,-51.5251,323.9945],[-72.3951,-51.5284,346.5386],[-72.4016,-51.5299,400.7432],[-72.4081,-51.5342,437.1741],[-72.418,-51.5445,511.37],[-72.4257,-51.5469,514.441],[-72.4304,-51.5547,574.3916],[-72.4354,-51.5726,646.5845],[-72.4417,-51.5848,690.8409],[-72.4288,-51.5875,682.4664],[-72.4187,-51.5858,650.7679],[-72.4018,-51.5878,727.9603],[-72.3909,-51.5916,698.5009],[-72.3901,-51.5945,691.4452],[-72.3877,-51.5958,706.2696],[-72.3815,-51.594,714.7265],[-72.3805,-51.5909,740.4895],[-72.382,-51.5857,743.279],[-72.3768,-51.5845,752.1786],[-72.3701,-51.5893,752.9291],[-72.3608,-51.5865,710.7258],[-72.3488,-51.5864,617.4445],[-72.3382,-51.5841,747.7175],[-72.327,-51.5874,712.476],[-72.323,-51.5929,650.589],[-72.3225,-51.6032,536.4957],[-72.3183,-51.6162,441.6389],[-72.3191,-51.6254,388.6324],[-72.3039,-51.6324,288.1203],[-72.2963,-51.6304,288.1425],[-72.2876,-51.6326,289.5289],[-72.2874,-51.6353,295.606],[-72.2844,-51.636,294.3622],[-72.2832,-51.6382,292.4748],[-72.2887,-51.64,283.7531],[-72.2909,-51.6453,280.7048],[-72.2967,-51.6464,282.5453],[-72.2882,-51.6521,272.7436],[-72.2898,-51.6595,267.1188],[-72.2924,-51.6618,258.8817],[-72.2907,-51.6625,254.3357],[-72.2875,-51.6696,249.7453],[-72.2899,-51.6728,247.3264],[-72.2913,-51.6788,241.0148],[-72.3006,-51.6873,241.2722],[-72.2989,-51.6902,253.8499],[-72.2989,-51.6975,246.9097],[-72.2973,-51.6992,254.1296],[-72.2786,-51.7048,253.2764],[-72.2694,-51.7053,262.3025],[-72.2555,-51.7026,283.9413],[-72.2475,-51.6993,288.6714],[-72.2465,-51.7043,289.2316],[-72.2448,-51.7055,299.1709],[-72.2383,-51.7055,302.0436],[-72.2351,-51.7033,302.7546],[-72.2296,-51.7029,304.4576],[-72.2215,-51.7079,249.0716],[-72.1998,-51.713,216.2839],[-72.1965,-51.716,228.8491],[-72.1911,-51.7175,251.8629],[-72.1889,-51.7217,240.1657],[-72.1762,-51.7213,229.384],[-72.1657,-51.7231,228.3604],[-72.1605,-51.726,236.8989],[-72.1609,-51.7278,244.8557],[-72.1699,-51.7317,193.2447],[-72.1767,-51.7322,196.6543],[-72.1847,-51.7352,191.5175],[-72.1729,-51.74,182.5748],[-72.1598,-51.7415,179.6541],[-72.152,-51.746,187.4994],[-72.1463,-51.7449,201.1884],[-72.1399,-51.7461,181.9037],[-72.137,-51.743899999999996,178.961],[-72.1309,-51.7431,188.6825],[-72.1218,-51.744,203.9982],[-72.1209,-51.7448,202.7867],[-72.124,-51.7482,195.4737],[-72.124,-51.7508,191.2631],[-72.1187,-51.7538,160.6879],[-72.1155,-51.7641,171.7534],[-72.1123,-51.7679,166.823],[-72.1032,-51.7714,172.3835],[-72.0759,-51.7733,211.8163],[-72.0748,-51.7776,186.4501],[-72.078,-51.7807,179.097],[-72.078,-51.7828,183.4833],[-72.0632,-51.785,179.5912],[-72.0466,-51.7977,178.2513],[-72.0403,-51.7997,178.121],[-72.0147,-51.8176,172.9724],[-71.9934,-51.8384,163.7285],[-71.9889,-51.8408,166.6721],[-71.9844,-51.8478,167.7397],[-71.9669,-51.8651,164.8655],[-71.956,-51.8679,171.6566],[-71.9481,-51.874,175.7818],[-71.9472,-51.8805,172.6047],[-71.9411,-51.8861,174.9162],[-71.943,-51.8945,181.7243],[-71.9395,-51.9015,174.5991],[-71.9386,-51.9084,152.0718],[-71.9296,-51.9131,140.895],[-71.9288,-51.9149,131.4142],[-71.9327,-51.9202,140.3329],[-71.9453,-51.9148,172.1532],[-71.948,-51.9195,170.8025],[-71.9603,-51.926,173.8288],[-71.9684,-51.9264,175.4004],[-71.9719,-51.9282,175.2621],[-71.9801,-51.9332,178.0191],[-71.9875,-51.9405,173.9088],[-72.0285,-51.9565,189.0323],[-72.034,-51.9615,184.1573],[-72.0286,-51.9679,184.7452],[-72.0176,-51.9703,179.6485],[-72.0117,-51.9764,173.185],[-72.0048,-51.9791,178.6038],[-71.9932,-51.9792,183.1375],[-71.9794,-51.9756,183.9016],[-71.9731,-51.9717,176.8559],[-71.9654,-51.9721,175.9298],[-71.9622,-51.9778,180.8102],[-71.9557,-51.9789,179.0293],[-71.9545,-51.9874,162.3529],[-71.9448,-51.9907,162.4911],[-71.9311,-51.991,175.6968],[-71.923,-51.9991,169.8111],[-69.9955,-52.0007,130.3888],[-69.4861,-52.1516,247.8213],[-69.1901,-52.15,125.6376],[-69.0786,-52.1835,93.5335],[-68.9869,-52.2036,82.2664],[-68.838,-52.2777,96.171],[-68.7097,-52.2855,82.5899],[-68.586,-52.3067,71.802],[-68.5722,-52.326,85.4568],[-68.5135,-52.3295,90.8568],[-68.4186,-52.3325,52.0653],[-68.4177,-52.3869,7.8784],[-68.4306,-52.3948,6.3435],[-68.4333,-52.3979,4.0961],[-68.4319,-52.3982,0.0],[-68.4297,-52.3976,0.0],[-68.4214,-52.3932,0.0],[-68.4075,-52.3832,0.0],[-68.3925,-52.364,5.8707],[-68.3853,-52.3574,1.0194],[-68.3753,-52.3492,2.1147],[-68.3531,-52.336,4.6989],[-68.3519,-52.3226,0.0],[-68.3531,-52.3207,22.5587],[-68.3664,-52.3096,60.5788],[-68.3836,-52.291,0.0],[-68.3831,-52.2899,0.0],[-68.3992,-52.2768,58.6213],[-68.4186,-52.2554,0.0],[-68.4314,-52.2451,14.0001],[-68.4325,-52.2424,0.0],[-68.4381,-52.239,5.5764],[-68.4381,-52.2371,1.3033],[-68.4414,-52.2357,0.0],[-68.4503,-52.2265,25.8778],[-68.4781,-52.2035,0.0],[-68.4797,-52.2004,0.0],[-68.4819,-52.2001,16.9983],[-68.4925,-52.189,0.0],[-68.5014,-52.1826,13.1762],[-68.5125,-52.1699,0.0],[-68.5192,-52.1657,7.461],[-68.5253,-52.159,0.0],[-68.5303,-52.1565,43.5772],[-68.5314,-52.154,0.0],[-68.5631,-52.1282,31.8285],[-68.5697,-52.1201,0.0],[-68.5786,-52.1132,25.337],[-68.5908,-52.0996,7.3421],[-68.6092,-52.0829,7.3694],[-68.6092,-52.0807,0.158],[-68.6303,-52.0624,2.3421],[-68.6436,-52.0451,3.8136],[-68.6714,-52.0199,6.8046],[-68.7147,-51.9735,2.5313],[-68.7147,-51.9715,0.1575],[-68.7297,-51.9529,2.5755],[-68.7319,-51.9521,2.5755],[-68.7364,-51.9443,0.0],[-68.7503,-51.9293,6.6251],[-68.7803,-51.8807,0.0],[-68.8042,-51.8454,0.1639],[-68.8058,-51.8451,5.4851],[-68.8058,-51.8429,0.1969],[-68.8114,-51.8365,4.2153],[-68.8131,-51.831,0.0],[-68.8192,-51.8251,3.7748],[-68.8242,-51.8146,1.3305],[-68.8403,-51.7932,2.519],[-68.8508,-51.7762,0.0],[-68.9203,-51.6924,0.0],[-68.9358,-51.6668,6.9272],[-68.9414,-51.649,0.0],[-68.9464,-51.6449,3.8509],[-68.9508,-51.6346,1.8288],[-68.9581,-51.6249,0.9049],[-68.9803,-51.6137,0.3248],[-68.9997,-51.6093,1.7218],[-68.9997,-51.608,0.0],[-69.0014,-51.6093,1.3749],[-69.0125,-51.6063,3.9721],[-69.0153,-51.6079,0.8507],[-69.0153,-51.6099,6.8146],[-69.0192,-51.6101,0.6693],[-69.0281,-51.6151,1.0383],[-69.0342,-51.6149,1.2215],[-69.0492,-51.6193,0.0431],[-69.0581,-51.6254,1.2798],[-69.0631,-51.6251,0.0984],[-69.0642,-51.6271,0.6833],[-69.0786,-51.6354,0.4857],[-69.0936,-51.6415,2.666],[-69.1036,-51.6499,0.1828],[-69.1086,-51.6604,1.1654],[-69.1131,-51.6632,1.6506],[-69.1264,-51.666,0.5],[-69.1269,-51.6679,0.5],[-69.1369,-51.6685,0.5],[-69.1419,-51.6738,0.5],[-69.1425,-51.6782,4.1771],[-69.1453,-51.6799,5.2451],[-69.1675,-51.6851,4.9052],[-69.2081,-51.6846,3.2647],[-69.2153,-51.6904,4.3972],[-69.2225,-51.6935,7.0684],[-69.2308,-51.6935,6.5787],[-69.2314,-51.691,3.0249],[-69.2342,-51.6901,5.2878],[-69.2403,-51.6912,5.7054],[-69.2419,-51.6946,7.8536],[-69.2442,-51.6954,5.838],[-69.2431,-51.6918,4.4402],[-69.2369,-51.6904,4.401],[-69.2336,-51.6879,5.8661],[-69.2308,-51.6882,4.0098],[-69.2286,-51.6915,3.2181],[-69.2219,-51.6912,2.9201],[-69.2153,-51.6799,5.737],[-69.2086,-51.676,5.4201],[-69.1825,-51.6712,2.8241],[-69.1714,-51.6674,1.0366],[-69.1542,-51.6562,0.5],[-69.1558,-51.6524,3.3899],[-69.1525,-51.6499,0.5],[-69.1519,-51.6454,2.5513],[-69.1492,-51.6449,0.5],[-69.1481,-51.6465,0.5],[-69.1492,-51.6471,0.5],[-69.1469,-51.6471,0.5],[-69.1292,-51.6418,0.5],[-69.1203,-51.6415,0.0],[-69.1192,-51.6407,0.0],[-69.1219,-51.6385,0.0],[-69.1197,-51.6365,0.0],[-69.1658,-51.6296,0.5],[-69.1631,-51.6279,0.5],[-69.1658,-51.6254,0.5],[-69.1686,-51.6263,0.5],[-69.1753,-51.6224,0.5],[-69.1875,-51.6204,0.5],[-69.1953,-51.6168,0.5],[-69.2114,-51.6143,0.5],[-69.2175,-51.611,0.5],[-69.2253,-51.6101,0.5],[-69.2458,-51.6018,0.5],[-69.2619,-51.5993,0.5],[-69.2725,-51.5999,4.7573],[-69.3069,-51.5932,9.7474],[-69.3136,-51.5899,0.5],[-69.3342,-51.5854,1.0],[-69.3581,-51.5857,1.0],[-69.3719,-51.589,1.0],[-69.3853,-51.5896,1.0],[-69.4542,-51.6065,11.6858],[-69.4781,-51.601,1.0],[-69.4992,-51.6012,5.1892],[-69.5153,-51.6035,6.3667],[-69.5225,-51.606,5.4111],[-69.5231,-51.6079,6.94],[-69.5269,-51.6065,5.5681],[-69.5342,-51.6085,5.7123],[-69.5486,-51.6082,12.465],[-69.5547,-51.6132,7.8607],[-69.5681,-51.6124,4.34],[-69.5719,-51.6143,5.1776],[-69.5719,-51.6157,7.1798],[-69.5781,-51.6179,3.5],[-69.5869,-51.6174,4.383],[-69.5981,-51.6215,7.9239],[-69.6014,-51.6207,21.7751],[-69.5842,-51.6157,18.747],[-69.5781,-51.616,32.6937],[-69.5658,-51.6099,9.1161],[-69.5558,-51.6093,15.3444],[-69.5514,-51.6046,9.336],[-69.5392,-51.6026,11.1434],[-69.5353,-51.5996,4.0259],[-69.5253,-51.6001,2.2648],[-69.5192,-51.594,19.9082],[-69.5114,-51.5918,1.0],[-69.5097,-51.5896,1.0],[-69.5014,-51.5896,1.0],[-69.4975,-51.5862,63.9317],[-69.4803,-51.584,1.0],[-69.4736,-51.5804,21.5174],[-69.4636,-51.5796,1.0],[-69.4575,-51.5771,1.0],[-69.4503,-51.5774,8.0787],[-69.4442,-51.5737,2.0623],[-69.4397,-51.5737,1.0],[-69.4375,-51.5715,1.0],[-69.4292,-51.5726,1.0],[-69.4186,-51.5707,1.0],[-69.3897,-51.5576,19.4487],[-69.3553,-51.5551,1.0],[-69.3458,-51.5518,1.0],[-69.3314,-51.5532,1.0],[-69.3214,-51.5524,20.8374],[-69.3053,-51.5587,0.5],[-69.2892,-51.559,25.1475],[-69.2864,-51.5612,16.2769],[-69.2781,-51.5626,40.1418],[-69.2781,-51.5646,0.5],[-69.2708,-51.5643,27.2196],[-69.2625,-51.5685,2.4777],[-69.2497,-51.571,18.5454],[-69.2442,-51.5751,4.9111],[-69.2447,-51.5768,0.5],[-69.2431,-51.5782,1.2194],[-69.2319,-51.5838,0.5],[-69.1825,-51.5974,0.5],[-69.1653,-51.5999,0.5],[-69.1503,-51.6051,0.5],[-69.1347,-51.6071,0.0],[-69.1281,-51.6063,0.0],[-69.1314,-51.6035,4.3079],[-69.1147,-51.6007,1.2197],[-69.0931,-51.594,0.0],[-69.0847,-51.5885,0.8778],[-69.0697,-51.5732,2.4744],[-69.0581,-51.5668,2.2629],[-69.0453,-51.5629,32.6254],[-69.0192,-51.5601,3.7997],[-69.0014,-51.5624,5.7889],[-68.9997,-51.564,0.0],[-68.9981,-51.5632,0.6568],[-68.9892,-51.5685,3.0376],[-68.9847,-51.5729,8.5138],[-68.9808,-51.5824,0.3814],[-68.9781,-51.5826,4.572],[-68.9592,-51.5732,3.1959],[-68.9553,-51.5687,0.0],[-68.9558,-51.5671,0.0],[-68.9531,-51.5618,1.1319],[-68.9464,-51.5554,5.7348],[-68.9453,-51.5507,0.0],[-68.9519,-51.5332,13.2466],[-68.9492,-51.5293,0.9388],[-68.9547,-51.526,3.064],[-68.9603,-51.5137,55.9005],[-68.9597,-51.5123,0.1314],[-68.9925,-51.459,2.7453],[-68.9986,-51.4407,19.2471],[-69.0008,-51.4396,74.1499],[-69.0008,-51.4346,0.0],[-69.0092,-51.4182,11.3781],[-69.0103,-51.4093,0.0],[-69.0119,-51.4082,0.0],[-69.0142,-51.4001,0.0],[-69.0169,-51.3974,0.0],[-69.0231,-51.3754,0.0],[-69.0264,-51.3704,12.1544],[-69.0297,-51.3563,2.0724],[-69.0286,-51.3526,0.0],[-69.0308,-51.3524,14.6256],[-69.0325,-51.349,27.0275],[-69.0319,-51.3465,0.0],[-69.0336,-51.3443,2.8522],[-69.0319,-51.3437,0.0],[-69.0364,-51.341,17.1235],[-69.0381,-51.3374,0.0],[-69.0358,-51.3357,0.0],[-69.0419,-51.329,14.4269],[-69.0486,-51.3121,26.904],[-69.0475,-51.3099,0.0],[-69.0497,-51.3087,0.0],[-69.0486,-51.3076,0.0],[-69.0514,-51.3001,0.0],[-69.0497,-51.2988,0.0],[-69.0531,-51.2962,4.6663],[-69.0558,-51.2896,40.6864],[-69.0553,-51.2874,9.0746],[-69.0581,-51.284,0.0],[-69.0631,-51.2696,30.6726],[-69.0631,-51.2649,1.5418],[-69.0664,-51.2615,21.4117],[-69.0669,-51.256,0.0],[-69.0686,-51.2543,10.4828],[-69.0675,-51.2507,0.0],[-69.0697,-51.2504,0.0],[-69.0731,-51.2371,0.0],[-69.0747,-51.2363,13.2575],[-69.0769,-51.2304,11.5643],[-69.0775,-51.2257,32.9736],[-69.0758,-51.2243,0.0],[-69.0797,-51.2218,4.3893],[-69.0797,-51.2196,0.0],[-69.0836,-51.2151,51.0412],[-69.0847,-51.2074,0.0],[-69.0875,-51.2038,0.0],[-69.0864,-51.2018,0.0],[-69.0919,-51.1979,2.1036],[-69.0969,-51.1893,0.0],[-69.0964,-51.1874,0.0],[-69.1014,-51.1815,9.8112],[-69.1119,-51.1568,0.0],[-69.1125,-51.1501,8.6246],[-69.1175,-51.1401,0.0],[-69.1164,-51.1385,0.0],[-69.1192,-51.1371,2.6955],[-69.1186,-51.131,0.0],[-69.1208,-51.1279,5.0042],[-69.1203,-51.124,0.0],[-69.1236,-51.1215,16.9156],[-69.1242,-51.1151,0.0],[-69.1269,-51.1107,7.4478],[-69.1253,-51.1093,1.834],[-69.1281,-51.1057,0.0],[-69.1275,-51.1007,0.0],[-69.1297,-51.0996,1.6993],[-69.1281,-51.0974,0.0],[-69.1308,-51.0965,0.0],[-69.1331,-51.086,3.0597],[-69.1353,-51.0843,28.233],[-69.1353,-51.079,21.397],[-69.1375,-51.0768,5.0582],[-69.1392,-51.056,0.0],[-69.1414,-51.0546,17.2323],[-69.1397,-51.0537,0.0],[-69.1447,-51.0443,0.0],[-69.1464,-51.0438,21.4454],[-69.1481,-51.0335,17.9914],[-69.1503,-51.0293,0.0],[-69.1525,-51.0121,0.0],[-69.1536,-51.0118,18.6721],[-69.1542,-50.9962,0.0],[-69.1581,-50.9876,0.0],[-69.1664,-50.9793,0.0],[-69.1725,-50.9765,1.6805],[-69.1886,-50.976,1.0632],[-69.1931,-50.9738,0.0],[-69.2064,-50.9751,0.0],[-69.2047,-50.9801,0.0],[-69.2103,-50.9851,2.0753],[-69.2458,-50.9996,29.8887],[-69.2647,-51.0093,0.5],[-69.2769,-51.0135,5.6023],[-69.2936,-51.0165,0.5],[-69.2925,-51.0179,0.5],[-69.2997,-51.0215,0.5],[-69.3075,-51.0285,2.9962],[-69.3114,-51.0349,8.9926],[-69.3442,-51.0512,0.5],[-69.3592,-51.061,0.5],[-69.3703,-51.0646,1.4051],[-69.3703,-51.0665,1.9701],[-69.3814,-51.0765,1.4112],[-69.3836,-51.0821,40.1503],[-69.3919,-51.0838,1.9631],[-69.3947,-51.0868,11.7858],[-69.4014,-51.0879,4.8502],[-69.4031,-51.0907,5.0715],[-69.4075,-51.0918,5.0902],[-69.4153,-51.0904,7.8498],[-69.4219,-51.0868,5.8255],[-69.4314,-51.0887,4.3943],[-69.4319,-51.0929,6.3014],[-69.4347,-51.0913,5.8819],[-69.4325,-51.0879,6.1824],[-69.4269,-51.0874,3.6115],[-69.4208,-51.084,4.0625],[-69.4058,-51.086,2.3069],[-69.3969,-51.0818,2.8977],[-69.3931,-51.0782,4.8299],[-69.3897,-51.0724,4.8617],[-69.3897,-51.0696,4.5754],[-69.3842,-51.0626,5.4906],[-69.3669,-51.0501,4.5517],[-69.3642,-51.0499,4.5961],[-69.3614,-51.0465,4.8802],[-69.3481,-51.039,4.0347],[-69.3342,-51.026,4.735],[-69.3347,-51.0221,4.868],[-69.3258,-51.0137,2.4969],[-69.3192,-51.0104,2.5896],[-69.3153,-51.0068,3.8693],[-69.3153,-51.0049,4.167],[-69.3064,-51.0007,3.9038],[-69.3053,-50.9974,4.4566],[-69.2986,-50.9951,2.5367],[-69.2981,-50.9932,4.1186],[-69.2919,-50.9901,3.7824],[-69.2925,-50.989,4.541],[-69.2686,-50.9815,0.5],[-69.2675,-50.9782,1.9854],[-69.2636,-50.9782,0.5],[-69.2647,-50.9774,4.5875],[-69.2614,-50.9738,4.4744],[-69.2564,-50.9707,3.7897],[-69.2592,-50.9696,4.7137],[-69.2558,-50.9679,4.939],[-69.2419,-50.9663,3.3543],[-69.2331,-50.9663,3.6835],[-69.2281,-50.969,3.6164],[-69.2336,-50.9729,0.0],[-69.2331,-50.9757,0.0],[-69.2364,-50.9754,3.1776],[-69.2364,-50.9732,0.0],[-69.2403,-50.9715,0.0],[-69.2453,-50.9718,2.6043],[-69.2508,-50.9746,3.0295],[-69.2481,-50.9762,4.644],[-69.2481,-50.9785,0.0],[-69.2503,-50.9785,0.5],[-69.2503,-50.9801,0.5],[-69.2419,-50.9832,0.0],[-69.2386,-50.9832,0.0],[-69.2353,-50.9796,0.0],[-69.2269,-50.9762,0.9043],[-69.2236,-50.9712,2.8181],[-69.2225,-50.9599,0.0],[-69.2158,-50.9496,0.0],[-69.2164,-50.9468,3.0708],[-69.2142,-50.9449,0.0],[-69.2075,-50.9407,4.3549],[-69.2019,-50.9396,0.0],[-69.1981,-50.9349,0.0],[-69.1753,-50.9207,0.0],[-69.1669,-50.9224,2.8666],[-69.1597,-50.9199,0.0],[-69.1358,-50.9021,4.6167],[-69.1319,-50.8976,0.0],[-69.1292,-50.8829,0.0],[-69.1297,-50.8646,0.0],[-69.1281,-50.864,0.0],[-69.1281,-50.851,0.0],[-69.1303,-50.8304,0.0],[-69.1308,-50.7962,0.0],[-69.1358,-50.7796,10.6833],[-69.1375,-50.7646,0.0],[-69.138,-50.7658,0.0],[-69.7548,-50.7557,284.7663]]],
[[[-69.2219,-50.9849,0.0],[-69.2219,-50.9835,0.0],[-69.2242,-50.9837,0.0],[-69.2292,-50.9893,0.0],[-69.2253,-50.9882,0.0],[-69.2219,-50.9849,0.0]]],
[[[-69.2108,-50.9665,0.0],[-69.2103,-50.9649,0.0],[-69.2125,-50.9649,0.0],[-69.2131,-50.9671,0.0],[-69.2108,-50.9665,0.0]]],
[[[-69.1908,-50.9504,0.0],[-69.1919,-50.949,0.0],[-69.1986,-50.9499,0.0],[-69.1942,-50.951,0.0],[-69.1964,-50.9532,0.0],[-69.1897,-50.9518,0.0],[-69.1908,-50.9504,0.0]]]]}
,"properties": {"GID_2": "ARG.20.3_1","GID_0": "ARG","country": "Argentina","GID_1": "ARG.20_1","state": "SantaCruz","NL_NAME_1": "NA","county": "GüerAike","VARNAME_2": "RioGallegos|GerAike","NL_NAME_2": "NA","TYPE_2": "Departamento","ENGTYPE_2": "Department","CC_2": "NA","HASC_2": "AR.SC.GA","name": "GüerAike.county","area_km2": 33549.29,"hist_schema_id": "Elevation0-9000","hist_area_km2": {"0": 504.3,"25": 1277.89,"50": 1379.73,"75": 1941.4,"100": 2600.57,"125": 3155.01,"150": 3134.45,"175": 1926.0,"200": 2027.18,"225": 1992.89,"250": 1469.21,"275": 1614.29,"300": 1836.68,"325": 1670.0,"350": 1106.6,"375": 833.04,"400": 679.65,"425": 614.8,"450": 512.79,"475": 443.46,"500": 337.76,"525": 306.45,"550": 267.85,"575": 270.83,"600": 207.12,"625": 154.63,"650": 124.67,"675": 109.69,"700": 92.93,"725": 85.4,"750": 75.85,"775": 71.8,"800": 65.23,"825": 62.56,"850": 58.66,"875": 50.52,"900": 48.01,"925": 44.13,"950": 39.28,"975": 35.32,"1000": 27.72,"1025": 21.59,"1050": 18.89,"1075": 19.64,"1100": 17.97,"1125": 16.95,"1150": 15.86,"1175": 16.49,"1200": 14.72,"1225": 14.86,"1250": 14.79,"1275": 14.15,"1300": 12.01,"1325": 7.77,"1350": 6.12,"1375": 5.04,"1400": 4.88,"1425": 7.41,"1450": 4.96,"1475": 4.43,"1500": 4.29,"1525": 4.15,"1550": 3.72,"1575": 4.0,"1600": 3.76,"1625": 3.49,"1650": 3.45,"1675": 3.23,"1700": 3.18,"1725": 2.66,"1750": 2.94,"1775": 2.39,"1800": 2.11,"1825": 1.49,"1850": 1.54,"1875": 1.9,"1900": 1.84,"1925": 0.95,"1950": 0.87,"1975": 0.64,"2000": 0.55,"2025": 0.42,"2050": 0.35,"2075": 0.31}}}