{"type": "Feature","bbox": [-73.330957064719755,-50.66966651748362,-71.973496892452062,-49.966724981893179],"geometry": {"type": "Polygon","coordinates": [[[-72.003816397546615,-50.167481316596991,181.1024],[-72.021919791365221,-50.1592391210373,179.2103],[-72.044291465027229,-50.1574729362745,198.0275],[-72.060481492019463,-50.158061664528759,192.8384],[-72.075494062503182,-50.154823659130329,195.0011],[-72.093891820448917,-50.142166001663668,225.1526],[-72.09698264378379,-50.133040713722579,178.5],[-72.099337556800847,-50.119499963874517,178.5],[-72.104047382834949,-50.110374675933429,257.7925],[-72.114350127284567,-50.114201409586144,203.601],[-72.1412844449171,-50.130391436578407,178.5],[-72.156297015400824,-50.1462870994435,178.5],[-72.181170784143447,-50.153351838494672,180.4265],[-72.5548660435371,-50.168364408978391,178.5],[-72.699546012022324,-50.193090995657428,190.5977],[-72.714411400442472,-50.193385359784571,191.4718],[-72.727216239972691,-50.191030446767513,204.0756],[-72.74885200331687,-50.181905158826424,195.428],[-72.761804024910674,-50.179550245809395,197.4411],[-72.782998242064153,-50.186026256606283,178.5],[-72.8215599427184,-50.214579576938064,178.5],[-72.843784434316845,-50.220761223607809,199.8652],[-72.853498450512177,-50.218111946463637,178.5],[-72.863948377025352,-50.212519028048121,302.6425],[-72.882198952907515,-50.196917729310144,313.5088],[-72.893973517992791,-50.192207903276056,662.0259],[-72.995676323916783,-50.196917729310144,346.1776],[-73.0201085464687,-50.191913539148914,178.5],[-73.043510494575671,-50.172779870885364,178.5],[-73.068678627445436,-50.101838116246626,178.5],[-73.080747556657826,-50.090946643542736,178.5],[-73.102677684129148,-50.086531181635763,321.1883],[-73.124019083346184,-50.075934073059045,269.6075],[-73.14168093097409,-50.060627138448183,178.5],[-73.1528667678051,-50.042376562566034,178.5],[-73.143741479864,-49.977616454597069,178.5],[-73.149040034152378,-49.966724981893179,178.5],[-73.162286419873311,-49.970846079673038,434.9385],[-73.17641589797563,-49.98939101968233,249.9832],[-73.187013006552363,-49.9946895739707,178.5],[-73.194813655921351,-49.9920402968265,178.5],[-73.227929620223662,-49.97349535681721,198.0373],[-73.224985978952347,-49.985269921902471,182.7787],[-73.217921239901187,-49.991745932699388,206.3968],[-73.210709318786471,-49.997044486987733,178.5],[-73.207471313388012,-50.004697954293164,184.9478],[-73.206735403070184,-50.016766883505568,209.4297],[-73.20438049005314,-50.025009079065256,201.9375],[-73.194372109730651,-50.042376562566034,179.9457],[-73.189515101632978,-50.043848383201691,178.5],[-73.178034900674845,-50.050913122252837,178.5],[-73.170528615432985,-50.059155317812525,182.5913],[-73.176710262102759,-50.062982051465241,215.9521],[-73.193194653222136,-50.065042600355156,187.2196],[-73.202614305290339,-50.0644538721009,178.5],[-73.2105621367229,-50.059155317812525,178.5],[-73.265461046432961,-50.004697954293164,178.5],[-73.281945437552324,-49.99351211746216,178.5],[-73.289304540730626,-49.997338851114876,191.0388],[-73.290776361366284,-50.010585236835794,183.1734],[-73.289893268984883,-50.0662200568637,690.0564],[-73.294750277082557,-50.071224247024929,498.9463],[-73.3044642932779,-50.078288986076075,364.1333],[-73.311970578519762,-50.086825545762906,358.1164],[-73.3104987578841,-50.09712829021251,386.4766],[-73.29210099993837,-50.099777567356711,193.2194],[-73.245002739597311,-50.078583350203218,178.5],[-73.235288723401965,-50.087119909890049,252.3535],[-73.2402929135632,-50.106842306407856,509.0089],[-73.252214660712028,-50.125387246417148,363.8558],[-73.279443342471708,-50.155412387384587,649.5342],[-73.299901649307358,-50.1880868054962,1011.5665],[-73.311529032329062,-50.202216283598517,386.5671],[-73.330957064719755,-50.213696484556664,476.0174],[-73.319624045825179,-50.227237234404726,178.5],[-73.304611475341474,-50.224587957260525,178.5],[-73.289893268984883,-50.213696484556664,178.5],[-73.279443342471708,-50.203982468361318,178.5],[-73.262517405161645,-50.193974088038829,178.5],[-73.243089372770953,-50.1889698978776,178.5],[-73.225574707206619,-50.18161079469931,178.5],[-73.213652960057786,-50.165420767707076,178.5],[-73.218215604028316,-50.1583560286559,178.5],[-73.219393060536845,-50.155412387384587,178.5],[-73.213652960057786,-50.1454040070621,232.1642],[-73.221159245299646,-50.138633632138067,178.5],[-73.202908669417482,-50.121854876891575,178.5],[-73.177446172420588,-50.116850686730345,178.5],[-73.15507449875858,-50.125387246417148,410.2794],[-73.141975295101219,-50.1583560286559,325.0104],[-73.133585917477973,-50.16483203945279,324.1974],[-73.123724719219055,-50.170424957868306,294.1149],[-73.1106255155617,-50.179550245809395,191.1573],[-73.101647409684176,-50.183671343589225,197.041],[-73.098262222222161,-50.1863206207334,226.8858],[-73.097379129840775,-50.1907360826404,212.4523],[-73.099292496667132,-50.202805011852774,256.954],[-73.098262222222161,-50.206926109632633,279.3807],[-73.077509551259382,-50.217817582336494,293.3846],[-73.049250595054744,-50.223999229006267,178.5],[-72.939894321825335,-50.22753159853184,178.5],[-72.892796061484262,-50.2410723483799,178.5],[-72.860563189563351,-50.239894891871387,178.5],[-72.844520344634674,-50.242249804888417,178.5],[-72.837455605583514,-50.251669456956648,178.5],[-72.839368972409858,-50.261383473151994,217.0433],[-72.844520344634674,-50.2716862176016,232.4269],[-72.852173811940091,-50.279339684907029,275.2806],[-72.861446281944737,-50.282577690305459,318.4369],[-72.93444858547339,-50.284049510941117,793.0093],[-72.960352628660985,-50.28934806522949,434.8007],[-72.993615775026853,-50.306421184603124,753.8311],[-73.005390340112129,-50.308776097620182,791.0969],[-73.167143427970984,-50.282577690305459,617.3661],[-73.218804332282588,-50.264915842677567,997.6219],[-73.248829473250012,-50.260206016643451,928.5474],[-73.262075858970945,-50.272274945855855,513.0783],[-73.267668777386447,-50.29023115761089,178.5],[-73.2941615488283,-50.329675950646532,847.0464],[-73.302992472642245,-50.350281439545739,886.7889],[-73.300931923752316,-50.367354558919374,179.4368],[-73.286213717395739,-50.3647052817752,189.101],[-73.265461046432961,-50.350575803672882,178.5],[-73.24529710372444,-50.333208320172105,467.2333],[-73.239262639118238,-50.3255548528667,505.6671],[-73.228959894668634,-50.308187369365925,303.6208],[-73.221159245299646,-50.302594450950409,178.5],[-73.208060041642284,-50.300239537933379,178.5],[-73.193636199412822,-50.301711358569037,178.5],[-73.142416841291919,-50.315840836671356,178.5],[-73.122547262710526,-50.324966124612416,178.5],[-73.109300876989607,-50.338801238587621,301.0863],[-73.099734042857818,-50.383838950038751,178.5],[-73.077509551259382,-50.411214813862017,193.4462],[-73.0701504480811,-50.432997759269739,509.4816],[-73.072652543161709,-50.437707585303855,656.5838],[-73.076773640941553,-50.449776514516259,688.9085],[-73.07853982570434,-50.46155107960152,303.1143],[-73.073682817606667,-50.467143998017036,246.8019],[-73.062644162839234,-50.469204546906951,265.2083],[-73.036740119651654,-50.478624198975155,178.5],[-73.014221263926075,-50.483039660882127,178.5],[-72.980958117560192,-50.501290236764305,178.5],[-72.9680060959664,-50.503645149781363,178.5],[-72.938422501189677,-50.505116970417021,178.5],[-72.9262063899137,-50.508649339942593,178.5],[-72.9154620992734,-50.521306997409255,178.5],[-72.9266479361044,-50.532787198367373,209.2043],[-72.944309783732308,-50.546327948215435,265.1358],[-72.953582253736954,-50.566344708860385,184.7248],[-72.9577033515168,-50.58606710537822,178.5],[-72.9874341283571,-50.650532849220042,196.0825],[-72.983607394704379,-50.66966651748362,205.1817],[-72.963149087868729,-50.664662327322361,178.5],[-72.939747139761764,-50.646411751440212,248.259],[-72.9262063899137,-50.63198790921075,262.0921],[-72.909280452603639,-50.59018820315805,486.4998],[-72.902362895616037,-50.583712192361162,544.4631],[-72.89515097450132,-50.580474186962704,506.7285],[-72.884995412115273,-50.5728207196573,288.3581],[-72.876164488301328,-50.562812339334812,182.586],[-72.872337754648612,-50.552803959012351,178.5],[-72.86630329004241,-50.5292548288418,195.0739],[-72.849818898923033,-50.513064801849566,199.5356],[-72.824650766053281,-50.503939513908477,178.9056],[-72.792859440323056,-50.501290236764305,217.0488],[-72.7750504106316,-50.493636769458874,228.2211],[-72.752384372842457,-50.475680557703839,209.3603],[-72.7336922507696,-50.453308884041832,182.3105],[-72.727657786163391,-50.432997759269739,178.5],[-72.816702934620722,-50.470087639288352,188.2387],[-72.865567379724581,-50.484511481517785,181.937],[-72.919436014989671,-50.488043851043358,182.7791],[-72.974923652954,-50.4789185631023,301.191],[-73.004065701540028,-50.469498911034066,397.341],[-73.02555428282065,-50.456841253567404,178.5],[-73.032766203935367,-50.439473770066655,178.5],[-73.03718166584234,-50.385310770674408,181.0895],[-73.043510494575671,-50.3638221893938,178.5],[-73.026290193138479,-50.339978695096136,178.5],[-73.007009342811344,-50.333797048426391,178.5],[-72.983460212640821,-50.334091412553505,178.5],[-72.953582253736954,-50.329970314773675,365.1736],[-72.941218960397421,-50.324083032231044,374.6687],[-72.931504944202075,-50.317312657307014,178.5],[-72.920907835625343,-50.3117197388915,178.5],[-72.905895265141623,-50.308776097620182,178.5],[-72.893679153865662,-50.309953554128725,178.5],[-72.86586174385171,-50.316429564925613,178.5],[-72.850554809240862,-50.316723929052728,178.5],[-72.805075551599018,-50.307009912857382,178.5],[-72.783292606191281,-50.299062081424836,179.8906],[-72.768574399834691,-50.28934806522949,180.1701],[-72.761362478719974,-50.277867864271371,179.0617],[-72.759596293957188,-50.26933130458454,178.5],[-72.7556223782409,-50.261972201406252,178.5],[-72.741345718075024,-50.254907462355078,178.5],[-72.72971833505332,-50.254318734100821,178.5],[-72.6617202216859,-50.262560929660509,178.5],[-72.614621961344838,-50.261383473151994,178.5],[-72.612414230391352,-50.26521020680471,178.5],[-72.617712784679711,-50.292880434755062,178.5],[-72.60637976578515,-50.300828266187636,178.5],[-72.550303399566559,-50.319078842069786,178.5],[-72.529697910667352,-50.3229055757225,178.5],[-72.504235413670457,-50.320550662705443,178.5],[-72.461258251109228,-50.30612682047601,178.5],[-72.4368260285573,-50.302594450950409,178.5],[-72.378836295512372,-50.308776097620182,178.5],[-72.363382178837952,-50.305538092221724,178.5],[-72.338066863904629,-50.296118440153521,178.5],[-72.323643021675181,-50.296412804280664,178.5],[-72.311574092462777,-50.301416994441894,181.5909],[-72.292440424199228,-50.3143690160357,178.5],[-72.278899674351166,-50.316723929052728,178.5],[-72.246961166557384,-50.303183179204694,178.5],[-72.24166261226901,-50.299356445551979,178.5],[-72.229004954802349,-50.286993152212432,178.5],[-72.19986290621631,-50.279634049034144,178.5],[-72.043261190582257,-50.265798935058967,178.5],[-71.998665025321813,-50.247253995049675,180.7404],[-71.973496892452062,-50.213696484556664,188.8633],[-71.991747468334225,-50.18161079469931,181.7124],[-72.003816397546615,-50.167481316596991,181.1024]]]}
,"properties": {"featurecla": "Lake","scalerank": 4,"name": "Lago Argentino","name_abb": "L. Argentino","name_alt": null,"note": null,"delta": null,"dam_name": null,"year": -99,"admin": null,"min_zoom": 4.0,"min_label": 5.0,"area_km2": 1449.364,"hist_schema_id": "Elevation0-9000","hist_area_km2": {"150": 0.543,"175": 1230.153,"200": 43.106,"225": 29.405,"250": 23.671,"275": 19.534,"300": 13.741,"325": 10.582,"350": 7.825,"375": 7.009,"400": 5.843,"425": 5.584,"450": 4.905,"475": 4.714,"500": 3.876,"525": 4.039,"550": 3.226,"575": 2.914,"600": 2.832,"625": 2.656,"650": 2.507,"675": 2.181,"700": 1.842,"725": 1.897,"750": 1.721,"775": 1.301,"800": 1.341,"825": 1.206,"850": 1.138,"875": 1.084,"900": 0.948,"925": 0.989,"950": 0.854,"975": 1.003,"1000": 0.813,"1025": 0.583,"1050": 0.339,"1075": 0.461,"1100": 0.217,"1125": 0.176,"1150": 0.108,"1175": 0.068,"1200": 0.068,"1225": 0.081,"1250": 0.041,"1275": 0.041,"1300": 0.041,"1325": 0.081,"1350": 0.027,"1375": 0.014,"1400": 0.027,"1425": 0.014}}}