{"type":"Feature","properties":{"featurecla":"River","scalerank":7,"rivernum":568,"dissolve":"568River","name":"Deseado1","name_alt":null,"note":null,"min_zoom":6.0,"strokeweig":0.25,"name_en":"Deseado","min_label":7.0},
"geometry":{"type": "LineString","coordinates": [[-69.534228515624989,-46.75969817500588,272.2265],[-69.3994140625,-46.75994231563088,238.4236],[-69.315966796874989,-46.74529387813088,230.4959],[-69.199267578124989,-46.737627862505875,223.3779],[-69.077001953124991,-46.69133880000588,223.2917],[-68.964770507812489,-46.67864348750588,207.7359],[-68.907519531249989,-46.68132903438088,204.2299],[-68.803515624999989,-46.69988372188088,196.5391],[-68.568945312499991,-46.702666925005886,181.2077],[-68.541601562499991,-46.707549737505886,182.8296],[-68.514746093749991,-46.720245050005886,177.9321],[-68.466479492187489,-46.75457122188088,173.0021],[-68.441503906249991,-46.76824309688088,170.9385],[-68.419189453125,-46.77459075313088,169.7978],[-68.301367187499991,-46.775225518755875,163.7616],[-68.255859375,-46.78313567500588,157.479],[-68.216064453125,-46.80364348750588,156.2637],[-68.143359374999989,-46.883330987505886,145.0884],[-68.128222656249989,-46.90691497188088,143.1861],[-68.068164062499989,-46.93840911250588,137.6508],[-68.025195312499989,-47.002764581255875,132.3211],[-68.009814453124989,-47.01287200313088,132.9076],[-68.000439453125,-47.01726653438088,131.6188],[-67.981982421874989,-47.036455987505875,127.8228],[-67.975683593749991,-47.040850518755875,127.77],[-67.946093749999989,-47.046416925005886,126.0355],[-67.863427734375,-47.08806731563088,142.1197],[-67.833251953125,-47.09856536250588,174.0491],[-67.80830078125,-47.101397393755875,171.1312],[-67.697363281249991,-47.094268487505886,111.8245],[-67.370214843749991,-47.126788018755875,117.2681],[-67.320849609374989,-47.150713800005875,87.7205],[-67.261572265624991,-47.193877862505886,80.4733],[-67.252539062499991,-47.208819268755875,128.9219],[-67.243408203125,-47.219268487505886,126.2562],[-67.184326171875,-47.24627044063088,76.5221],[-67.174072265625,-47.25969817500588,71.0622],[-67.165332031249989,-47.27800872188088,71.9187],[-67.159228515624989,-47.298370050005886,117.9415],[-67.156982421875,-47.31829192500588,90.9106],[-67.151123046875,-47.33855559688088,77.9811],[-67.137304687499991,-47.36126067500588,125.7085],[-67.108569335937489,-47.39714934688088,153.2759],[-67.07587890625,-47.42962005000588,135.1453],[-67.064794921874991,-47.44988372188088,109.0162],[-67.071044921875,-47.46941497188088,58.7128],[-67.077807617187489,-47.483721612505875,110.0926],[-67.081396484374991,-47.50554778438088,116.6763],[-67.082177734375,-47.52898528438088,74.6357],[-67.080615234374989,-47.547881768755886,101.6819],[-67.074755859374989,-47.57048919063088,72.1326],[-67.065283203124991,-47.591143487505875,63.0804],[-67.05224609375,-47.60979583125588,107.6897],[-67.035449218749989,-47.62590911250588,91.0286],[-67.016162109374989,-47.63884856563088,97.4657],[-66.995410156249989,-47.64934661250588,78.1316],[-66.982836914062489,-47.65325286250588,78.2463],[-66.944262695312489,-47.656573175005875,43.0268],[-66.932958984374991,-47.659698175005886,41.5442],[-66.923144531249989,-47.66472747188088,39.7938],[-66.904833984374989,-47.677764581255886,72.5118],[-66.878344726562489,-47.691436456255886,117.2435],[-66.849707031249991,-47.69670989375588,69.8143],[-66.711669921875,-47.700713800005886,47.9468],[-66.703466796874991,-47.70403411250588,40.192],[-66.69677734375,-47.70964934688088,29.9561],[-66.691088867187489,-47.718096612505875,74.2257],[-66.668872070312489,-47.76873137813088,128.1789],[-66.658935546875,-47.783721612505886,125.3192],[-66.635986328125,-47.805987237505875,16.3955],[-66.608837890625,-47.824541925005875,15.9727],[-66.524340820312489,-47.860674737505875,58.8413],[-66.498779296875,-47.86785247188088,10.9399],[-66.470703125,-47.87078215938088,62.1839],[-66.384326171874989,-47.865069268755875,69.0438]]}}