{"type":"Feature","properties":{"featurecla":"River","scalerank":9,"rivernum":1033,"dissolve":"1033River","name":"Chico1","name_alt":null,"note":null,"min_zoom":7.1,"strokeweig":0.2,"name_en":"Chico","min_label":8.1},
"geometry":{"type": "LineString","coordinates": [[-71.493896484375,-48.12078215938088,697.6641],[-71.446459960937489,-48.13030364375588,685.3309],[-71.4248046875,-48.13909270625588,678.8783],[-71.278613281249989,-48.236846612505886,627.988],[-71.233251953124991,-48.257354425005886,603.5219],[-71.135595703124991,-48.284014581255875,576.4398],[-71.072265625,-48.320635675005875,590.6537],[-71.049414062499991,-48.32683684688088,715.1054],[-70.931567382812489,-48.342608331255875,524.6282],[-70.893652343749991,-48.357256768755875,515.4786],[-70.859423828124989,-48.376983331255886,529.0158],[-70.842822265624989,-48.38347747188088,501.7246],[-70.800537109375,-48.387237237505886,492.7451],[-70.782397460937489,-48.391143487505886,488.4428],[-70.74462890625,-48.40447356563088,479.8197],[-70.590673828124991,-48.43206145625588,449.5212],[-70.56494140625,-48.439483331255886,527.8091],[-70.540942382812489,-48.45110442500588,475.407],[-70.520190429687489,-48.467803643755886,427.5238],[-70.505224609374991,-48.51067473750588,411.8235],[-70.534521484374991,-48.54387786250588,400.328],[-70.624804687499989,-48.58562590938088,382.8134],[-70.651416015624989,-48.60198333125588,407.7029],[-70.67333984375,-48.62493255000588,419.1157],[-70.685302734375,-48.65300872188088,402.912],[-70.682080078125,-48.68450286250588,414.7366],[-70.648535156249991,-48.72478606563088,427.533],[-70.596484374999989,-48.74651458125588,344.7019],[-70.486010742187489,-48.759112237505875,326.3446],[-70.380859375,-48.753936456255886,311.314],[-70.372119140624989,-48.754717706255875,338.874],[-70.363574218749989,-48.756866143755886,405.92],[-70.30224609375,-48.78411223750588,337.1085],[-70.288671874999991,-48.793487237505886,380.1092],[-70.263598632812489,-48.816436456255886,314.1696],[-70.23779296875,-48.84612395625588,274.515],[-70.221484374999989,-48.878936456255886,261.2369],[-70.22509765625,-48.910967706255875,259.2974],[-70.288916015624991,-48.968096612505875,248.69],[-70.294921875,-48.98479583125588,260.4288],[-70.288867187499989,-48.99285247188088,273.9392],[-70.274023437499991,-49.005205987505875,232.8404],[-70.267382812499989,-49.01213958125588,228.5952],[-70.261523437499989,-49.02190520625588,226.3599],[-70.258642578124991,-49.03118255000588,232.6157],[-70.254931640624989,-49.051788018755886,226.1958],[-70.24580078125,-49.07000090938088,320.101],[-70.230810546874991,-49.083330987505875,227.8441],[-70.171728515624991,-49.11614348750588,220.274],[-69.885424804687489,-49.226885675005875,164.4464],[-69.8701171875,-49.235674737505875,157.5258]]}}