{"type":"Feature","properties":{"featurecla":"River","scalerank":5,"rivernum":196,"dissolve":"196River","name":"Santa1","name_alt":null,"note":null,"min_zoom":4.7,"strokeweig":0.2,"name_en":"Santa Cruz","min_label":5.7},
"geometry":{"type": "LineString","coordinates": [[-71.981689453125,-50.223663018755886,178.5],[-71.949462890625,-50.23015715938088,227.8068],[-71.868090820312489,-50.220049737505875,218.476],[-71.847753906249991,-50.21965911250588,218.2681],[-71.789892578124991,-50.22795989375588,205.1902],[-71.758105468749989,-50.227569268755886,164.0],[-71.66748046875,-50.20086028438088,177.1844],[-71.603369140624991,-50.195342706255886,199.5624],[-71.570654296874991,-50.197588800005875,172.7617],[-71.478564453124989,-50.220245050005886,145.948],[-71.255175781249989,-50.21892669063088,134.9695],[-71.156005859375,-50.204131768755886,238.5479],[-71.13623046875,-50.205401300005875,167.28],[-71.030566406249989,-50.232256768755875,158.0646],[-71.001879882812489,-50.243487237505875,162.8751],[-70.990771484374989,-50.24651458125588,162.0592],[-70.979345703124991,-50.246905206255875,155.3958],[-70.966162109374991,-50.243975518755875,131.2509],[-70.954541015625,-50.238604425005875,130.3199],[-70.922900390624989,-50.21746184688088,132.5154],[-70.912768554687489,-50.21282317500588,130.3139],[-70.833911132812489,-50.189776300005875,184.8462],[-70.809008789062489,-50.186553643755886,276.0688],[-70.782568359374991,-50.19011809688088,320.2749],[-70.772900390625,-50.194659112505875,314.4517],[-70.756689453124991,-50.207842706255875,153.7351],[-70.747729492187489,-50.213409112505886,119.1366],[-70.737231445312489,-50.216827081255886,112.5],[-70.677099609374991,-50.21843840938088,118.4007],[-70.498217773437489,-50.201495050005875,106.1031],[-70.486914062499991,-50.202471612505875,105.1521],[-70.443115234375,-50.22087981563088,103.9272],[-70.3140625,-50.24065520625588,105.9675],[-70.274267578124991,-50.254913018755886,99.5648],[-70.257128906249989,-50.25750090938088,95.899],[-70.239794921874989,-50.256182550005875,100.3214],[-70.222900390625,-50.249541925005886,98.7584],[-70.2119140625,-50.23674895625588,94.1075],[-70.207763671875,-50.20501067500588,87.5685],[-70.197021484375,-50.191924737505886,103.2031],[-70.185961914062489,-50.18792083125588,81.5],[-70.173193359374991,-50.186846612505875,86.6471],[-70.148535156249991,-50.18889739375588,85.6008],[-70.116259765624989,-50.196807550005886,85.2613],[-70.106127929687489,-50.197784112505886,79.7749],[-70.059741210937489,-50.18743255000588,80.3779]]}}