{"type":"Feature","properties":{"featurecla":"River","scalerank":5,"rivernum":196,"dissolve":"196River","name":"Santa2","name_alt":null,"note":null,"min_zoom":4.7,"strokeweig":0.25,"name_en":"Santa Cruz","min_label":5.7},
"geometry":{"type": "LineString","coordinates": [[-70.059741210937489,-50.18743255000588,80.3779],[-70.027197265624991,-50.17937590938088,77.4412],[-69.990332031249991,-50.16448333125588,76.8734],[-69.9619140625,-50.162432550005875,73.2445],[-69.933837890625,-50.16765715938088,86.5006],[-69.879980468749991,-50.18816497188088,72.7531],[-69.837158203125,-50.198760675005886,69.0806],[-69.7951171875,-50.197588800005875,66.8643],[-69.754077148437489,-50.18670012813088,63.0721],[-69.714208984374991,-50.16838958125588,60.494],[-69.690673828125,-50.14568450313088,59.5732],[-69.655859374999991,-50.08904387813088,42.8092],[-69.626708984375,-50.072295831255886,51.192],[-69.603125,-50.072588800005875,48.9451],[-69.560400390624991,-50.09002044063088,49.72],[-69.537451171874991,-50.095049737505875,39.0935],[-69.433520507812489,-50.091338800005886,34.8322],[-69.4,-50.096026300005875,32.3872],[-69.318530273437489,-50.12542083125588,28.1833],[-69.183764648437489,-50.128448175005886,18.9534],[-69.14912109375,-50.122588800005886,21.3296],[-69.128710937499989,-50.11370208125588,28.5083],[-69.115527343749989,-50.101885675005875,32.4046],[-69.090917968749991,-50.07097747188088,14.7868],[-69.070849609374989,-50.05657317500588,10.9376],[-69.0302734375,-50.037627862505886,18.4159],[-69.013110351562489,-50.017120050005886,14.6758]]}}