{"type":"Feature","properties":{"featurecla":"River","scalerank":7,"rivernum":568,"dissolve":"568River","name":"Deseado","name_alt":null,"note":null,"min_zoom":6.0,"strokeweig":0.2,"name_en":"Deseado","min_label":7.0},
"geometry":{"type": "LineString","coordinates": [[-71.199267578124989,-46.56926848750588,205.5],[-71.174853515624989,-46.57463958125588,211.0332],[-71.145117187499991,-46.57732512813088,236.2751],[-71.115405273437489,-46.57634856563088,287.0397],[-71.090991210937489,-46.570635675005875,351.3806],[-71.034423828125,-46.54314544063088,375.6573],[-71.013598632812489,-46.543975518755886,433.8036],[-70.930419921875,-46.571807550005886,413.1816],[-70.832861328124991,-46.59075286250588,464.9112],[-70.704272460937489,-46.59734465938088,365.958],[-70.680224609374989,-46.58855559688088,386.7161],[-70.616381835937489,-46.541045831255886,384.5751],[-70.585302734374991,-46.52971770625588,600.1154],[-70.533447265625,-46.518877862505875,354.7465],[-70.482470703124989,-46.51580169063088,469.9239],[-70.423828125,-46.52190520625588,388.5945],[-70.366943359375,-46.537139581255886,501.7807],[-70.348803710937489,-46.54802825313088,335.9639],[-70.313891601562489,-46.57683684688088,408.4233],[-70.299121093749989,-46.584991143755886,362.1537],[-70.261523437499989,-46.582061456255886,316.9678],[-70.192187499999989,-46.538604425005886,298.606],[-70.15595703125,-46.52629973750588,376.1321],[-70.021728515625,-46.52800872188088,288.3796],[-69.995214843749991,-46.53655364375588,287.2565],[-69.917626953125,-46.58489348750588,279.7422],[-69.841796875,-46.60686614375588,298.4778],[-69.753857421875,-46.656573175005875,327.4763],[-69.720703125,-46.667315362505875,323.194],[-69.70859375,-46.66765715938088,316.4844],[-69.684326171875,-46.665362237505875,260.7137],[-69.67255859375,-46.668291925005875,259.3556],[-69.659472656249989,-46.67864348750588,266.4858],[-69.639697265624989,-46.70647551875588,255.5459],[-69.628515624999991,-46.719073175005875,255.1257],[-69.607348632812489,-46.73308684688088,253.497],[-69.534228515624989,-46.75969817500588,272.2265]]}}