{"type":"Feature","properties":{"featurecla":"River","scalerank":9,"rivernum":1033,"dissolve":"1033River","name":"Chico2","name_alt":null,"note":null,"min_zoom":7.1,"strokeweig":0.25,"name_en":"Chico","min_label":8.1},
"geometry":{"type": "LineString","coordinates": [[-69.8701171875,-49.235674737505875,157.5258],[-69.752368164062489,-49.29583098750588,137.7452],[-69.743212890624989,-49.30242278438088,135.073],[-69.7203125,-49.32561614375588,130.6306],[-69.712011718749991,-49.33220794063088,128.2764],[-69.694140624999989,-49.342803643755886,125.2562],[-69.686450195312489,-49.348955987505875,124.1085],[-69.675390624999991,-49.364580987505875,120.7366],[-69.668798828124991,-49.380401300005886,117.661],[-69.660253906249991,-49.395538018755886,114.2509],[-69.627685546875,-49.420733331255875,108.7947],[-69.621386718749989,-49.43328215938088,106.0075],[-69.617773437499991,-49.447588800005875,103.9607],[-69.610156249999989,-49.464678643755875,100.6513],[-69.59814453125,-49.478350518755875,97.3177],[-69.572021484375,-49.50017669063088,113.8878],[-69.562109374999991,-49.51604583125588,114.4189],[-69.557788085937489,-49.534014581255875,107.369],[-69.553881835937489,-49.541534112505886,104.7932],[-69.544921875,-49.547881768755886,95.8523],[-69.520678710937489,-49.55559661250588,79.0548],[-69.492919921875,-49.55950286250588,74.1969],[-69.439379882812489,-49.55828215938088,67.9411],[-69.410205078124989,-49.553741143755886,65.6038],[-69.345703125,-49.55584075313088,61.8028],[-69.238378906249991,-49.584991143755886,53.7664],[-69.176562499999989,-49.58440520625588,49.642],[-69.161914062499989,-49.586748956255875,47.319],[-69.149707031249989,-49.59124114375588,68.273],[-69.114355468749991,-49.61638762813088,39.6433],[-69.100146484374989,-49.621905206255875,38.3141],[-69.030810546874989,-49.63420989375588,38.4883],[-68.977709960937489,-49.651202081255875,33.7179],[-68.944091796875,-49.654815362505886,25.7169],[-68.927587890624991,-49.65837981563088,30.0251],[-68.879248046874991,-49.67864348750588,26.7965],[-68.856982421874989,-49.683428643755875,23.9228],[-68.811450195312489,-49.684112237505886,20.2934],[-68.788989257812489,-49.68718840938088,23.7948],[-68.780322265624989,-49.69060637813088,21.3293],[-68.772705078125,-49.695342706255886,18.065],[-68.75048828125,-49.715166925005875,14.3651],[-68.738037109375,-49.727080987505886,12.7304]]}}