{"type":"Feature","properties":{"featurecla":"River","scalerank":9,"rivernum":1034,"dissolve":"1034River","name":"Gallegos","name_alt":null,"note":null,"min_zoom":7.1,"strokeweig":0.15,"name_en":"Gallegos","min_label":8.1},
"geometry":{"type": "LineString","coordinates": [[-72.293310546874991,-52.157745050005886,308.0891],[-72.27294921875,-52.151690362505875,313.3844],[-72.181201171874989,-52.142413018755875,275.9521],[-72.11376953125,-52.12712981563088,239.4998],[-72.087011718749991,-52.116729425005886,235.4379],[-72.058837890625,-52.092608331255875,229.2594],[-72.018017578125,-52.027178643755875,281.6438],[-71.992724609374989,-51.99871184688088,169.7426],[-71.920654296875,-51.95183684688088,170.4897],[-71.843798828124989,-51.91326262813088,167.753]]}}