{"type":"Feature","properties":{"featurecla":"River","scalerank":9,"rivernum":1034,"dissolve":"1034River","name":"Gallegos1","name_alt":null,"note":null,"min_zoom":7.1,"strokeweig":0.2,"name_en":"Gallegos","min_label":8.1},
"geometry":{"type": "LineString","coordinates": [[-71.843798828124989,-51.91326262813088,167.753],[-71.81416015625,-51.902178643755875,150.8025],[-71.787768554687489,-51.898272393755875,149.7492],[-71.669677734375,-51.894366143755875,119.6945],[-71.644873046874991,-51.88591887813088,127.434],[-71.624682617187489,-51.871612237505886,116.1544],[-71.612597656249989,-51.85344817500588,109.6317],[-71.611279296875,-51.837432550005886,107.1824],[-71.617236328124989,-51.806475518755875,130.8223],[-71.603857421874991,-51.79558684688088,133.9684],[-71.573535156249989,-51.79631926875588,134.2083],[-71.541259765625,-51.803057550005875,137.4573],[-71.521582031249991,-51.809600518755886,146.7759],[-71.481127929687489,-51.83123137813088,118.8983],[-71.456787109375,-51.84050872188088,132.2005],[-71.432543945312489,-51.844268487505886,120.1106],[-71.402026367187489,-51.841827081255886,124.1478],[-71.2919921875,-51.81072356563088,106.8395],[-71.123388671874991,-51.806963800005875,170.1246],[-71.05,-51.81951262813088,148.8395],[-70.868457031249989,-51.82170989375588,165.4931]]}}