{"type":"Feature","properties":{"featurecla":"River","scalerank":9,"rivernum":1034,"dissolve":"1034River","name":"Gallegos2","name_alt":null,"note":null,"min_zoom":7.1,"strokeweig":0.25,"name_en":"Gallegos","min_label":8.1},
"geometry":{"type": "LineString","coordinates": [[-70.868457031249989,-51.82170989375588,165.4931],[-70.779541015625,-51.821807550005886,165.8142],[-70.699951171875,-51.807647393755886,195.842],[-70.664355468749989,-51.80535247188088,198.7782],[-70.591552734375,-51.809405206255875,143.7284],[-70.556445312499989,-51.80413176875588,131.6889],[-70.512744140624989,-51.784209893755886,167.0511],[-70.434326171875,-51.73699309688088,129.0044],[-70.387866210937489,-51.72429778438088,82.3452],[-70.35703125,-51.72380950313088,131.1481],[-70.344824218749991,-51.72136809688088,138.4355],[-70.325976562499989,-51.71257903438088,127.4521],[-70.311767578125,-51.701006768755875,114.8531],[-70.30126953125,-51.689288018755875,127.0983],[-70.28857421875,-51.68279387813088,148.9003],[-70.267822265625,-51.68670012813088,119.4997],[-70.227587890624989,-51.703155206255886,79.2885],[-70.204760742187489,-51.703643487505886,72.6782],[-70.156835937499991,-51.673858331255886,85.9489],[-70.130078125,-51.66887786250588,79.4384],[-70.073095703124991,-51.665850518755875,65.8001],[-69.9482421875,-51.63030364375588,54.7994],[-69.708251953125,-51.61638762813088,115.5938],[-69.687426757812489,-51.61834075313088,71.7605],[-69.679931640625,-51.621123956255886,69.832],[-69.664843749999989,-51.631182550005875,67.3899],[-69.656176757812489,-51.63420989375588,66.292],[-69.643798828125,-51.633819268755886,62.7348],[-69.616796874999991,-51.62517669063088,22.3005]]}}