{"type": "Feature","bbox": [-71.8311,-40.6203,-70.5447,-40.0283],"geometry": {"type": "MultiPolygon","coordinates": [[[[-70.8206,-40.0738,706.9318],[-70.8545,-40.0753,834.1936],[-70.8924,-40.0825,674.9208],[-70.9241,-40.1,681.8701],[-70.9439,-40.1134,692.4719],[-70.9556,-40.1174,696.0586],[-70.9752,-40.1193,770.1456],[-70.9871,-40.1155,767.5165],[-71.0301,-40.0927,718.0732],[-71.0542,-40.0758,725.8932],[-71.0647,-40.0629,742.7229],[-71.0699,-40.0605,742.5641],[-71.0898,-40.0592,745.7439],[-71.1093,-40.0598,757.8956],[-71.1471,-40.0674,822.8732],[-71.1638,-40.0749,793.4568],[-71.186,-40.0939,806.5447],[-71.1915,-40.0947,807.4497],[-71.2108,-40.09,837.304],[-71.2237,-40.0887,825.7775],[-71.2356,-40.093,829.1176],[-71.2417,-40.092,894.2102],[-71.2594,-40.085,981.9188],[-71.2851,-40.0882,878.9313],[-71.2975,-40.0865,893.9646],[-71.3361,-40.0676,900.0],[-71.3876,-40.0291,900.0],[-71.3935,-40.0283,907.1824],[-71.4002,-40.0298,900.0],[-71.4179,-40.0359,900.0],[-71.4311,-40.0359,900.0],[-71.4491,-40.0303,900.0],[-71.4619,-40.0291,900.0],[-71.4995,-40.0372,900.0],[-71.5385,-40.0355,900.0],[-71.5507,-40.0389,900.0],[-71.5702,-40.0386,989.1475],[-71.622,-40.0424,1559.1558],[-71.6477,-40.0399,1546.5725],[-71.6791,-40.0287,1619.7666],[-71.6863,-40.0301,1659.937],[-71.6891,-40.0372,1664.0022],[-71.6814,-40.0505,1742.1151],[-71.6709,-40.0633,1602.7031],[-71.6661,-40.0733,1329.0599],[-71.6741,-40.0815,1003.062],[-71.6727,-40.0851,965.0557],[-71.6672,-40.0899,906.0715],[-71.6671,-40.0947,880.9721],[-71.6698,-40.0991,722.2086],[-71.6735,-40.1014,660.8007],[-71.6739,-40.105,668.1809],[-71.6899,-40.1102,936.326],[-71.6877,-40.1134,925.7534],[-71.6964,-40.1177,929.8326],[-71.6998,-40.1175,900.4651],[-71.7084,-40.1113,991.1588],[-71.7195,-40.1104,1218.1779],[-71.7296,-40.1028,1411.6722],[-71.7383,-40.0994,1464.3965],[-71.7458,-40.0983,1518.0015],[-71.7509,-40.0947,1473.1677],[-71.7616,-40.0932,1564.4623],[-71.7648,-40.0907,1557.8705],[-71.7782,-40.0901,1515.1578],[-71.7817,-40.0883,1476.741],[-71.7868,-40.0896,1350.6],[-71.8137,-40.0801,1692.5144],[-71.814,-40.0803,1692.5144],[-71.8163,-40.0821,1674.9838],[-71.8171,-40.0828,1674.9838],[-71.8179,-40.0863,1684.5134],[-71.8246,-40.0886,1892.6281],[-71.8271,-40.0911,1826.1248],[-71.8273,-40.1016,1731.2517],[-71.8307,-40.1043,1809.9775],[-71.8311,-40.1064,1946.5061],[-71.8274,-40.1108,1929.6617],[-71.8254,-40.1112,1957.8256],[-71.8157,-40.1051,1645.6343],[-71.8105,-40.1041,1698.1543],[-71.8102,-40.1083,1573.6707],[-71.8032,-40.1101,1629.4453],[-71.8005,-40.1145,1701.623],[-71.8053,-40.1233,1700.3364],[-71.8041,-40.1265,1705.399],[-71.8014,-40.1282,1643.3436],[-71.7992,-40.1377,1649.6741],[-71.8073,-40.1361,1541.2594],[-71.8117,-40.1395,1662.3903],[-71.814,-40.1428,1810.7638],[-71.8136,-40.1464,1743.7791],[-71.8087,-40.1525,1619.6376],[-71.8109,-40.1536,1566.0983],[-71.8128,-40.1575,1519.061],[-71.8175,-40.158,1512.5793],[-71.8228,-40.1674,1568.4922],[-71.8285,-40.1733,1813.3431],[-71.8236,-40.1749,1734.2776],[-71.8184,-40.1806,1657.042],[-71.8032,-40.1837,1720.1935],[-71.7978,-40.1875,1755.7314],[-71.7988,-40.1895,1706.6067],[-71.8071,-40.1935,1397.2764],[-71.8096,-40.1967,1516.0233],[-71.8095,-40.1993,1559.0284],[-71.8151,-40.2031,1673.2853],[-71.8164,-40.2056,1716.1351],[-71.8273,-40.2053,1645.4735],[-71.8294,-40.2099,1693.6075],[-71.8295,-40.2169,1795.6062],[-71.8258,-40.2228,1897.7128],[-71.826,-40.2266,1970.1781],[-71.8237,-40.2328,2125.1929],[-71.8109,-40.2315,1993.9663],[-71.807,-40.2327,1794.7987],[-71.8041,-40.2356,1735.301],[-71.8036,-40.242,1709.5731],[-71.7975,-40.247,1844.1199],[-71.8001,-40.2507,1696.7278],[-71.7998,-40.2547,1900.7267],[-71.7936,-40.2581,1759.6217],[-71.7851,-40.259,1642.4814],[-71.7886,-40.2633,1597.8623],[-71.7849,-40.2694,1524.2209],[-71.7766,-40.2697,1355.7593],[-71.7742,-40.2736,1390.2825],[-71.7672,-40.2738,1512.3159],[-71.7662,-40.276,1505.5461],[-71.7617,-40.2763,1609.0607],[-71.7574,-40.2836,1719.2397],[-71.7581,-40.2906,1585.4152],[-71.7553,-40.2912,1583.0748],[-71.7615,-40.2991,1666.7168],[-71.7545,-40.3031,1932.1411],[-71.751,-40.3031,1890.9653],[-71.747,-40.3067,1837.8781],[-71.7362,-40.3057,1878.0779],[-71.7265,-40.2912,1426.8464],[-71.7186,-40.2865,1536.2856],[-71.7162,-40.2787,2021.6006],[-71.708,-40.2841,1869.923],[-71.7015,-40.2837,1914.5149],[-71.699,-40.2893,1775.3397],[-71.6926,-40.2895,1700.5106],[-71.6895,-40.2928,1775.5385],[-71.6843,-40.2936,1884.1079],[-71.6838,-40.297,1934.3923],[-71.6809,-40.298,1977.6166],[-71.6786,-40.3037,1844.1191],[-71.6715,-40.3108,1717.5522],[-71.6729,-40.3219,1570.4835],[-71.6769,-40.3263,1644.924],[-71.6733,-40.328,1652.4067],[-71.6734,-40.3304,1650.2065],[-71.6706,-40.331,1628.6968],[-71.6683,-40.3375,1692.4967],[-71.6721,-40.3408,1621.5156],[-71.6719,-40.3429,1594.7385],[-71.6587,-40.3477,1603.2966],[-71.656,-40.355,1354.9951],[-71.6586,-40.3584,1434.1078],[-71.6567,-40.3637,1755.5082],[-71.6611,-40.3639,1626.4722],[-71.6637,-40.3667,1569.7798],[-71.6679,-40.3665,1663.4969],[-71.6854,-40.3723,1674.4663],[-71.6937,-40.3732,1800.2836],[-71.6921,-40.3784,1689.5394],[-71.6929,-40.3815,1682.6241],[-71.688,-40.3824,1775.7782],[-71.6872,-40.3844,1767.1135],[-71.6913,-40.3865,1692.3127],[-71.6916,-40.3908,1757.5825],[-71.6892,-40.3926,1773.6906],[-71.6931,-40.3967,1483.7798],[-71.6927,-40.4049,1500.6372],[-71.6997,-40.4115,1909.6704],[-71.707,-40.4134,1651.9312],[-71.7077,-40.4154,1589.4434],[-71.7057,-40.4175,1620.7657],[-71.7102,-40.4247,1770.2811],[-71.7242,-40.4269,1503.873],[-71.7264,-40.4295,1458.5242],[-71.7406,-40.4363,2151.0479],[-71.7316,-40.4384,1695.15],[-71.7233,-40.4382,1288.1646],[-71.6973,-40.457,1326.5875],[-71.6607,-40.4676,1441.6525],[-71.6412,-40.4678,1504.1174],[-71.6294,-40.4628,1141.4753],[-71.6118,-40.4686,1333.4009],[-71.5988,-40.4681,1510.5585],[-71.5863,-40.4646,960.9414],[-71.5808,-40.4664,1129.9656],[-71.5577,-40.4848,1612.9314],[-71.5506,-40.4931,1632.7198],[-71.5488,-40.4981,1618.4429],[-71.5447,-40.5017,1612.8031],[-71.5054,-40.5199,1671.8634],[-71.4741,-40.5525,1217.3074],[-71.4687,-40.5544,1315.031],[-71.4487,-40.5537,1679.4387],[-71.416,-40.556,1431.75],[-71.3706,-40.5621,1571.0144],[-71.36,-40.5676,1506.6654],[-71.3193,-40.6005,1380.2302],[-71.2968,-40.6109,1422.1372],[-71.2709,-40.6136,1778.7905],[-71.2382,-40.6118,1738.6519],[-71.2202,-40.6056,1355.7328],[-71.2049,-40.5962,1284.0594],[-71.1859,-40.5918,1330.4099],[-71.1802,-40.5934,1375.3052],[-71.1643,-40.6031,1146.7164],[-71.1522,-40.6061,1280.2014],[-71.014,-40.6123,902.6997],[-70.8954,-40.6203,699.5],[-70.8784,-40.6194,699.5],[-70.8744,-40.6172,699.5],[-70.8766,-40.6078,699.5],[-70.8759,-40.6054,699.5],[-70.8713,-40.6029,699.5],[-70.8505,-40.5986,699.5],[-70.8202,-40.5983,699.5],[-70.778,-40.5852,699.5],[-70.7689,-40.5852,701.5173],[-70.7571,-40.5876,699.5],[-70.737,-40.5824,601.5119],[-70.731,-40.5826,619.8318],[-70.7205,-40.5872,590.691],[-70.7176,-40.5944,604.7296],[-70.7139,-40.5965,599.7378],[-70.7024,-40.5926,589.0],[-70.6872,-40.593,589.0],[-70.6633,-40.5889,589.0],[-70.6539,-40.5834,589.0],[-70.6418,-40.5673,590.4252],[-70.6264,-40.553,589.0],[-70.6106,-40.5462,589.0],[-70.5996,-40.5385,589.0],[-70.5603,-40.5261,589.0],[-70.5515,-40.5197,589.0],[-70.5447,-40.5102,589.0],[-70.5678,-40.5087,658.7778],[-70.6006,-40.5092,721.2043],[-70.6201,-40.5063,733.847],[-70.6236,-40.5027,739.3558],[-70.6317,-40.4831,657.7653],[-70.6447,-40.472,589.0],[-70.6551,-40.4484,589.0],[-70.6692,-40.4378,698.3635],[-70.6707,-40.418,589.0],[-70.6689,-40.403,589.0],[-70.6668,-40.3977,589.0],[-70.6676,-40.3935,602.5399],[-70.6796,-40.3883,589.0],[-70.6827,-40.3844,638.597],[-70.6818,-40.3737,589.0],[-70.693,-40.3728,704.1835],[-70.6944,-40.368,629.608],[-70.6934,-40.3626,589.0],[-70.6895,-40.3588,589.0],[-70.6739,-40.3492,630.442],[-70.6702,-40.3452,639.4227],[-70.6651,-40.3307,675.8551],[-70.6597,-40.3217,617.3503],[-70.6595,-40.3166,589.0],[-70.6616,-40.3119,589.0],[-70.6687,-40.3034,589.7676],[-70.673,-40.2939,594.6843],[-70.673,-40.289,593.9525],[-70.6709,-40.284,592.2727],[-70.6499,-40.2729,597.2903],[-70.6432,-40.2642,598.3727],[-70.6401,-40.2542,600.7911],[-70.6428,-40.2505,601.1136],[-70.6542,-40.2445,652.8317],[-70.6671,-40.2333,645.4651],[-70.6885,-40.2081,614.5992],[-70.6985,-40.1896,616.919],[-70.7093,-40.1839,652.5274],[-70.713,-40.1798,658.341],[-70.7287,-40.1523,620.428],[-70.749,-40.1327,626.4459],[-70.7838,-40.1101,780.5484],[-70.8206,-40.0738,706.9318]]]]}
,"properties": {"GID_2": "ARG.15.8_1","GID_0": "ARG","country": "Argentina","GID_1": "ARG.15_1","state": "Neuquén","NL_NAME_1": "NA","county": "Lacar","VARNAME_2": "SanMartindelosAndes","NL_NAME_2": "NA","TYPE_2": "Departamento","ENGTYPE_2": "Department","CC_2": "NA","HASC_2": "AR.NQ.LA","name": "Lacar.county","area_km2": 5040.238,"hist_schema_id": "Elevation0-9000","hist_area_km2": {"600": 47.701,"625": 37.458,"650": 109.37,"675": 58.54,"700": 93.727,"725": 102.033,"750": 111.898,"775": 130.564,"800": 163.303,"825": 186.569,"850": 197.474,"875": 195.776,"900": 186.719,"925": 193.975,"950": 144.825,"975": 139.755,"1000": 149.492,"1025": 127.299,"1050": 116.908,"1075": 107.357,"1100": 100.77,"1125": 98.519,"1150": 97.903,"1175": 90.456,"1200": 86.895,"1225": 86.757,"1250": 88.587,"1275": 83.484,"1300": 83.078,"1325": 83.19,"1350": 83.106,"1375": 84.128,"1400": 82.772,"1425": 83.971,"1450": 86.444,"1475": 85.596,"1500": 85.239,"1525": 83.326,"1550": 83.355,"1575": 79.052,"1600": 75.704,"1625": 71.064,"1650": 69.092,"1675": 62.751,"1700": 57.289,"1725": 52.323,"1750": 46.827,"1775": 40.52,"1800": 35.17,"1825": 29.371,"1850": 25.96,"1875": 22.305,"1900": 20.367,"1925": 17.526,"1950": 16.414,"1975": 13.427,"2000": 10.533,"2025": 8.029,"2050": 6.447,"2075": 4.928,"2100": 3.815,"2125": 2.959,"2150": 2.345,"2175": 1.617,"2200": 1.569,"2225": 1.31,"2250": 0.728,"2275": 0.615,"2300": 0.647,"2325": 0.405,"2350": 0.324,"2375": 0.227,"2400": 0.194,"2425": 0.065}}}