{"type":"Feature","properties":{"GID_2":"ARG.1.23_1","GID_0":"ARG","country":"Argentina","GID_1":"ARG.1_1","state":"BuenosAires","NL_NAME_1":"NA","county":"CarlosTejedor","VARNAME_2":"NA","NL_NAME_2":"NA","TYPE_2":"Partido","ENGTYPE_2":"Part","CC_2":"NA","HASC_2":"AR.BA.CT","name":"CarlosTejedor.county"},
"geometry":{"type": "MultiPolygon","coordinates": [[[[-62.6064,-35.0241,105.06],[-62.6778,-35.0835,106.8297],[-62.6439,-35.1123,103.598],[-62.6696,-35.133,105.5612],[-62.704,-35.1041,106.7904],[-62.8926,-35.2599,101.0],[-62.8613,-35.2862,105.8295],[-62.8908,-35.311,105.6057],[-62.8431,-35.3521,104.9512],[-62.8679,-35.3717,104.412],[-62.8041,-35.4261,102.0304],[-62.7825,-35.4095,102.1057],[-62.6857,-35.4883,95.8728],[-62.6933,-35.4948,95.9377],[-62.4152,-35.725,85.5901],[-62.4134,-35.7215,85.5286],[-62.3368,-35.7844,87.1818],[-62.0954,-35.5924,86.5794],[-62.1267,-35.5657,86.4681],[-62.0524,-35.5069,88.0952],[-61.9904,-35.5576,86.4494],[-61.9037,-35.4872,89.2534],[-62.2283,-35.216,97.195],[-62.2125,-35.2029,97.0962],[-62.2746,-35.1503,99.7577],[-62.2881,-35.1614,98.3385],[-62.4657,-35.0146,103.8952],[-62.5441,-35.0775,102.837],[-62.6064,-35.0241,105.06]]]]}}