{"type": "Feature","bbox": [-58.926,-26.3921,-57.7968,-25.5604],"geometry": {"type": "MultiPolygon","coordinates": [[[[-58.2056,-26.3921,49.0],[-58.2004,-26.375,49.0],[-58.1981,-26.3714,49.5],[-58.1894,-26.3665,49.5],[-58.1703,-26.3594,49.5],[-58.1645,-26.352,49.5],[-58.1539,-26.3236,49.5],[-58.1556,-26.3031,50.0819],[-58.1688,-26.2827,49.5],[-58.1695,-26.2779,49.5],[-58.1674,-26.2656,49.5],[-58.161,-26.2602,50.0],[-58.1254,-26.2472,50.0],[-58.1204,-26.2444,52.753],[-58.1132,-26.2366,53.3907],[-58.1112,-26.2229,55.652],[-58.1139,-26.2103,50.0],[-58.1263,-26.2014,53.3827],[-58.1453,-26.1927,50.0],[-58.1529,-26.1875,50.125],[-58.1565,-26.1831,54.1267],[-58.1555,-26.1805,50.5],[-58.1412,-26.179,51.0],[-58.1167,-26.182,51.0],[-58.1125,-26.1789,51.0],[-58.1109,-26.171,52.8977],[-58.1159,-26.1603,51.0],[-58.1153,-26.153199999999998,51.0],[-58.1026,-26.1326,53.4353],[-58.08,-26.1162,53.5368],[-58.0692,-26.1114,54.9823],[-58.0556,-26.1098,51.0],[-58.0408,-26.1125,51.0],[-58.0142,-26.1036,51.0],[-57.9915,-26.0905,51.0],[-57.977,-26.0855,59.322],[-57.9436,-26.0642,51.0],[-57.9049,-26.0249,51.0],[-57.8953,-26.0212,51.0],[-57.8807,-26.0184,51.0],[-57.8494,-26.006,51.0],[-57.8455,-25.9931,56.3302],[-57.8472,-25.9842,54.1201],[-57.8775,-25.9677,53.6147],[-57.884,-25.9591,56.4865],[-57.8857,-25.9503,54.449],[-57.8827,-25.9368,51.5],[-57.8695,-25.9297,51.5],[-57.8501,-25.9244,51.5],[-57.8394,-25.9173,51.5],[-57.8374,-25.9095,51.5],[-57.8378,-25.9017,51.5],[-57.861,-25.8794,55.2833],[-57.8625,-25.8689,55.4714],[-57.8565,-25.8609,53.5376],[-57.8433,-25.8559,56.0701],[-57.813,-25.848,54.6137],[-57.8013,-25.8376,52.0],[-57.7968,-25.8296,53.4513],[-57.7993,-25.8081,52.0],[-57.8078,-25.7911,52.0],[-57.8328,-25.7525,56.1853],[-57.8492,-25.7451,61.912],[-57.8695,-25.7391,59.6975],[-57.8784,-25.7398,60.5845],[-57.9087,-25.7375,61.9826],[-57.9261,-25.7326,68.0906],[-57.9563,-25.7195,63.6851],[-57.9768,-25.7143,62.7698],[-57.9896,-25.7025,64.9728],[-58.0011,-25.699,63.082],[-58.0071,-25.693,64.932],[-58.0185,-25.6892,63.294],[-58.0206,-25.6873,63.3103],[-58.0219,-25.6821,63.0993],[-58.0245,-25.6804,63.4761],[-58.0272,-25.6699,65.9516],[-58.0355,-25.6583,70.0829],[-58.0358,-25.6558,63.7238],[-58.0296,-25.64,65.0747],[-58.0293,-25.6345,63.7798],[-58.034,-25.6129,70.0302],[-58.0396,-25.6066,66.9119],[-58.0675,-25.5959,65.8418],[-58.0798,-25.5881,66.6671],[-58.1379,-25.5725,67.3564],[-58.1527,-25.5629,68.3209],[-58.1588,-25.5629,66.997],[-58.1707,-25.5714,66.7793],[-58.1796,-25.5728,68.0299],[-58.1901,-25.5777,67.7843],[-58.2043,-25.5726,67.9911],[-58.2206,-25.5604,67.9557],[-58.2209,-25.588,68.1142],[-58.4918,-25.5856,73.346],[-58.605,-25.5831,75.8677],[-58.6047,-25.7772,75.4806],[-58.9259,-25.7786,82.9141],[-58.926,-26.1853,75.9966],[-58.7577,-26.1835,68.3644],[-58.7567,-26.1573,69.6489],[-58.5687,-26.1592,65.9456],[-58.569,-26.1735,65.5988],[-58.5054,-26.1736,68.0088],[-58.5041,-26.3434,61.431399999999996],[-58.3384,-26.3485,60.376],[-58.3329,-26.3467,58.576],[-58.2674,-26.3442,60.0529],[-58.2056,-26.3921,49.0]]]]}
,"properties": {"GID_2": "ARG.9.2_1","GID_0": "ARG","country": "Argentina","GID_1": "ARG.9_1","state": "Formosa","NL_NAME_1": "NA","county": "Formosa","VARNAME_2": "NA","NL_NAME_2": "NA","TYPE_2": "Departamento","ENGTYPE_2": "Department","CC_2": "NA","HASC_2": "AR.FM.FO","name": "Formosa.county","area_km2": 6537.758,"hist_schema_id": "Elevation0-9000","hist_area_km2": {"50": 1603.365,"75": 4930.805,"100": 3.588}}}