{"type":"Feature","properties":{"GID_2":"ARG.18.18_1","GID_0":"ARG","country":"Argentina","GID_1":"ARG.18_1","state":"SanJuan","NL_NAME_1":"NA","county":"Zonda","VARNAME_2":"NA","NL_NAME_2":"NA","TYPE_2":"Departamento","ENGTYPE_2":"Department","CC_2":"NA","HASC_2":"AR.SJ.ZO","name":"Zonda.county"},
"geometry":{"type": "MultiPolygon","coordinates": [[[[-69.1115,-31.896,4279.5645],[-68.6813,-31.8914,1407.6825],[-68.6751,-31.8749,1471.6816],[-68.6669,-31.8275,1795.8877],[-68.6649,-31.7492,2103.1189],[-68.67,-31.7116,1931.075],[-68.6899,-31.6929,1942.0182],[-68.6964,-31.6789,1791.2024],[-68.7012,-31.6387,1495.7792],[-68.6938,-31.6039,1492.698],[-68.6935,-31.5837,1415.5293],[-68.689,-31.5633,984.104],[-68.6895,-31.5614,911.47],[-68.7017,-31.5599,833.5222],[-68.7019,-31.5582,924.7542],[-68.6797,-31.5216,970.679],[-68.6635,-31.4864,907.9667],[-68.6563,-31.4783,919.2834],[-68.65,-31.4768,774.9298],[-68.6542,-31.4703,752.5],[-68.6616,-31.465,752.5],[-68.6675,-31.4656,752.5],[-68.6761,-31.469,752.5],[-68.6979,-31.489,770.4021],[-68.708,-31.4957,771.6198],[-68.762,-31.4994,811.9786],[-68.7901,-31.5047,856.7792],[-68.8791,-31.5102,908.9926],[-68.911,-31.509,1333.2242],[-68.9777,-31.5125,1238.2177],[-68.9935,-31.5098,1112.1696],[-68.9956,-31.5081,1054.0],[-68.9984,-31.5001,1076.4232],[-68.9987,-31.4919,1054.0],[-68.9871,-31.455,1264.0573],[-68.9859,-31.4386,1335.83],[-68.9877,-31.4306,1236.3431],[-68.9993,-31.4082,1181.3416],[-68.9995,-31.3671,1194.8812],[-69.0086,-31.356,1297.0409],[-69.0214,-31.3479,1139.156],[-69.0279,-31.3384,1147.22],[-69.039,-31.3014,1247.0115],[-69.0449,-31.2917,1407.1385],[-69.0572,-31.283,1520.7582],[-69.0609,-31.2756,1870.8892],[-69.0763,-31.2658,1444.3229],[-69.0945,-31.2611,1728.7495],[-69.1075,-31.2532,1338.3218],[-69.1135,-31.2514,1433.8242],[-69.1259,-31.2489,1529.4037],[-69.1418,-31.2485,1586.8619],[-69.1599,-31.2436,1506.0762],[-69.185,-31.2396,1406.5298],[-69.2039,-31.2409,1408.6882],[-69.2325,-31.2395,1825.0762],[-69.2349,-31.2708,1856.3499],[-69.239,-31.2966,2448.2559],[-69.2394,-31.3198,3354.8887],[-69.2349,-31.3325,3403.8789],[-69.216,-31.3523,3844.9573],[-69.2101,-31.3648,3790.7671],[-69.2049,-31.38,3834.7],[-69.2012,-31.4022,3501.8975],[-69.2029,-31.4279,3791.5037],[-69.2075,-31.4425,3817.8784],[-69.2138,-31.4541,3668.0469],[-69.216,-31.4631,3690.2881],[-69.2061,-31.4872,3651.5403],[-69.2026,-31.509,3760.0894],[-69.1922,-31.5321,3856.7891],[-69.1719,-31.5483,3865.509],[-69.1548,-31.5696,3551.969],[-69.1519,-31.5789,3663.8391],[-69.1518,-31.6054,3911.0098],[-69.1548,-31.6192,3999.3638],[-69.1598,-31.6327,3827.1758],[-69.1626,-31.6601,3980.8452],[-69.1624,-31.6832,4164.9932],[-69.1603,-31.6895,4196.1128],[-69.1564,-31.6937,4297.5938],[-69.1551,-31.6989,4219.2666],[-69.1578,-31.7108,4327.7969],[-69.1572,-31.7185,4218.6611],[-69.1451,-31.7434,3878.5129],[-69.131,-31.7884,3668.429],[-69.1039,-31.8434,3879.8674],[-69.1056,-31.8727,4020.3376],[-69.108,-31.8872,4157.6567],[-69.1115,-31.896,4279.5645]]]]}}