{"type": "Feature","bbox": [-67.7739,-44.721,-66.431,-42.879],"geometry": {"type": "MultiPolygon","coordinates": [[[[-67.0927,-44.721,214.2674],[-67.0805,-44.7166,198.9501],[-67.0765,-44.7137,198.7818],[-67.0658,-44.7009,197.9118],[-67.0625,-44.6927,196.7548],[-67.0595,-44.6897,196.8675],[-67.059,-44.6844,196.3579],[-67.0537,-44.678,195.9791],[-67.0524,-44.6728,195.6594],[-67.0482,-44.6684,195.7367],[-67.0427,-44.665,197.105],[-67.0329,-44.6625,197.9973],[-67.0248,-44.6552,197.1343],[-67.0158,-44.6519,197.5672],[-67.0089,-44.6357,193.9227],[-66.9949,-44.6116,192.5927],[-66.9735,-44.5915,196.7158],[-66.9692,-44.5803,198.0723],[-66.9695,-44.5655,194.0423],[-66.9623,-44.5588,193.9117],[-66.959,-44.5518,186.5458],[-66.9606,-44.5455,192.8372],[-66.9681,-44.5377,198.213],[-66.9683,-44.5313,215.8073],[-66.9614,-44.5232,220.4609],[-66.9474,-44.5202,192.2484],[-66.9407,-44.5147,190.0498],[-66.9391,-44.5107,198.4944],[-66.9387,-44.4958,198.1195],[-66.9313,-44.4809,201.3694],[-66.9171,-44.4687,185.7213],[-66.9089,-44.4575,186.5133],[-66.8952,-44.4479,177.2637],[-66.8797,-44.4275,192.358],[-66.8703,-44.4224,202.7572],[-66.8605,-44.4145,173.4501],[-66.834,-44.3866,206.2778],[-66.8245,-44.3655,200.9645],[-66.8143,-44.3527,196.3366],[-66.8094,-44.3416,203.0073],[-66.8067,-44.3259,201.1309],[-66.8065,-44.2941,166.8318],[-66.8109,-44.2798,184.7917],[-66.807,-44.2764,198.2506],[-66.7989,-44.2628,273.0763],[-66.7758,-44.2423,259.0632],[-66.7604,-44.2341,231.4391],[-66.743,-44.2285,227.2188],[-66.7267,-44.2163,236.426],[-66.7138,-44.2033,239.0538],[-66.6969,-44.195,154.001],[-66.6945,-44.1917,177.5293],[-66.6904,-44.1762,183.2333],[-66.6747,-44.1365,230.9729],[-66.6753,-44.1218,258.7193],[-66.6855,-44.1032,241.5851],[-66.68,-44.0921,180.8629],[-66.682,-44.0829,206.8336],[-66.6759,-44.0744,155.4777],[-66.6547,-44.0555,208.5895],[-66.6298,-44.0198,219.76],[-66.6237,-44.0203,174.7893],[-66.6183,-44.0236,185.6566],[-66.6035,-44.0184,135.8421],[-66.5947,-44.0088,173.0408],[-66.5834,-44.0005,132.7411],[-66.5759,-43.9915,195.8931],[-66.5438,-43.9924,218.2964],[-66.5263,-43.9847,162.3942],[-66.5045,-43.9785,200.1354],[-66.4894,-43.9701,196.4925],[-66.4832,-43.9629,129.5],[-66.4792,-43.9538,205.3648],[-66.4774,-43.938,267.991],[-66.4777,-43.9147,128.0],[-66.4745,-43.9033,127.875],[-66.4663,-43.8945,135.6056],[-66.4429,-43.8786,242.2214],[-66.4354,-43.8695,241.6913],[-66.4321,-43.8549,238.2066],[-66.434,-43.8401,159.5966],[-66.431,-43.8331,245.4907],[-66.4321,-43.8246,209.6534],[-66.4357,-43.8177,165.9783],[-66.4443,-43.8118,126.0],[-66.4563,-43.7985,126.0],[-66.4577,-43.7849,133.1593],[-66.4593,-43.782,149.4392],[-66.5246,-43.783,263.4158],[-66.5265,-43.7685,255.2689],[-66.5299,-43.3353,207.7428],[-67.1482,-43.3403,242.22],[-67.1536,-42.879,85.804],[-67.7739,-42.8826,668.1251],[-67.7481,-44.6849,413.7133],[-67.0942,-44.6789,281.0198],[-67.0927,-44.721,214.2674]]]]}
,"properties": {"GID_2": "ARG.4.9_1","GID_0": "ARG","country": "Argentina","GID_1": "ARG.4_1","state": "Chubut","NL_NAME_1": "NA","county": "Mártires","VARNAME_2": "LasPlumas|Martines","NL_NAME_2": "NA","TYPE_2": "Departamento","ENGTYPE_2": "Department","CC_2": "NA","HASC_2": "AR.CH.MA","name": "Mártires.county","area_km2": 15602.16,"hist_schema_id": "Elevation0-9000","hist_area_km2": {"75": 20.05,"100": 120.45,"125": 303.39,"150": 429.04,"175": 558.94,"200": 1010.27,"225": 1952.85,"250": 2381.6,"275": 2092.37,"300": 2049.82,"325": 1820.63,"350": 1255.71,"375": 634.95,"400": 247.75,"425": 139.87,"450": 108.77,"475": 61.95,"500": 49.28,"525": 56.96,"550": 52.91,"575": 46.33,"600": 41.4,"625": 32.54,"650": 24.02,"675": 18.1,"700": 22.21,"725": 47.12,"750": 13.5,"775": 5.54,"800": 2.07,"825": 1.76}}}