{"type":"Feature","properties":{"GID_2":"ARG.6.8_1","GID_0":"ARG","country":"Argentina","GID_1":"ARG.6_1","state":"Córdoba","NL_NAME_1":"NA","county":"JuárezCelman","VARNAME_2":"LaCarlota","NL_NAME_2":"NA","TYPE_2":"Departamento","ENGTYPE_2":"Department","CC_2":"NA","HASC_2":"AR.CB.JC","name":"JuárezCelman.county"},
"geometry":{"type": "MultiPolygon","coordinates": [[[[-63.5459,-32.8165,198.399],[-63.7136,-32.7868,246.5571],[-63.6949,-32.7136,244.511],[-63.9185,-32.7023,329.3234],[-63.9271,-32.7088,332.6476],[-63.9506,-32.7181,344.0917],[-63.9568,-32.7276,344.6851],[-63.9614,-32.7316,346.9123],[-63.9727,-32.7362,351.7299],[-64.0467,-33.0009,339.3788],[-64.0653,-33.0014,348.2016],[-64.0604,-33.0422,340.3227],[-64.0373,-33.0408,332.5518],[-64.0137,-33.0424,322.0119],[-63.9974,-33.0406,317.0003],[-63.9799,-33.047,312.7378],[-63.9891,-33.1037,306.3787],[-64.0458,-33.1068,329.1479],[-64.0425,-33.1796,318.1302],[-64.0266,-33.1756,312.3389],[-64.0069,-33.1758,305.3244],[-63.9942,-33.1784,302.5633],[-63.9765,-33.1856,300.8201],[-63.9374,-33.1861,285.4101],[-63.8994,-33.1947,270.932],[-63.8936,-33.6377,218.0685],[-64.0434,-33.6417,262.5632],[-64.0438,-33.8175,228.6772],[-63.5623,-33.817,138.8186],[-63.2369,-33.8186,124.3565],[-63.0864,-33.2551,125.6487],[-63.2339,-33.2278,143.2207],[-63.2042,-33.1221,140.052],[-63.3164,-33.0995,157.4128],[-63.3288,-33.1412,158.812],[-63.481,-33.1111,185.6785],[-63.4598,-33.0278,184.0513],[-63.3973,-33.0375,174.1125],[-63.3491,-32.8518,172.5084],[-63.4052,-32.8417,181.2319],[-63.425,-32.9054,179.4841],[-63.5282,-32.866,196.5349],[-63.5201,-32.8211,193.2045],[-63.5459,-32.8165,198.399]]]]}}