{"type":"Feature","properties":{"GID_2":"ARG.11.7_1","GID_0":"ARG","country":"Argentina","GID_1":"ARG.11_1","state":"LaPampa","NL_NAME_1":"NA","county":"ChicalCó","VARNAME_2":"Puelches","NL_NAME_2":"NA","TYPE_2":"Departamento","ENGTYPE_2":"Department","CC_2":"NA","HASC_2":"AR.LP.CC","name":"ChicalCó.county"},
"geometry":{"type": "MultiPolygon","coordinates": [[[[-67.1202,-35.9978,335.3333],[-67.5041,-35.9955,494.437],[-67.5804,-35.998,542.859],[-68.2958,-35.9985,1188.6375],[-68.2958,-36.1663,1095.4055],[-68.2417,-36.1657,1027.0394],[-68.2407,-36.2369,1032.1938],[-68.242,-36.811,844.0255],[-67.111,-36.8007,292.3663],[-67.1202,-35.9978,335.3333]]]]}}