{"type":"Feature","properties":{"GID_2":"ARG.1.39_1","GID_0":"ARG","country":"Argentina","GID_1":"ARG.1_1","state":"BuenosAires","NL_NAME_1":"NA","county":"ExaltacióndelaCruz","VARNAME_2":"CapilladelSeñor","NL_NAME_2":"NA","TYPE_2":"Partido","ENGTYPE_2":"Part","CC_2":"NA","HASC_2":"AR.BA.EC","name":"ExaltacióndelaCruz.county"},
"geometry":{"type": "MultiPolygon","coordinates": [[[[-59.1061,-34.2046,27.4147],[-59.2412,-34.1808,31.7406],[-59.24,-34.1755,29.2448],[-59.3124,-34.165,12.5926],[-59.3274,-34.1701,12.6005],[-59.3334,-34.1761,13.3506],[-59.3385,-34.1766,15.2727],[-59.3663,-34.2009,15.0995],[-59.3703,-34.2028,15.4015],[-59.3777,-34.2139,16.8182],[-59.3839,-34.2297,20.0543],[-59.3806,-34.2433,18.2874],[-59.3058,-34.2665,39.0075],[-59.3139,-34.2865,40.0644],[-59.319,-34.291,40.3252],[-59.2823,-34.3135,37.2196],[-59.2787,-34.3098,37.1644],[-59.2586,-34.3241,31.396],[-59.257,-34.3221,32.4647],[-59.2511,-34.3267,36.6521],[-59.2564,-34.3305,30.6952],[-59.1991,-34.3759,21.0261],[-59.2039,-34.3819,23.3507],[-59.1386,-34.4276,36.4388],[-59.1307,-34.4246,39.5363],[-59.0976,-34.4685,33.3892],[-59.0739,-34.4536,31.6575],[-59.077,-34.4475,32.6259],[-59.0733,-34.4457,31.0541],[-59.0732,-34.4434,33.4596],[-59.0697,-34.4419,33.5024],[-59.0689,-34.4435,33.4556],[-59.0583,-34.4372,29.7134],[-59.0356,-34.4281,27.4824],[-59.0421,-34.4181,26.2628],[-59.0334,-34.4136,28.8896],[-59.0357,-34.4099,35.071],[-59.0292,-34.4074,23.729],[-59.033,-34.4022,28.7924],[-58.9961,-34.3822,17.5089],[-58.9971,-34.3786,25.403],[-58.9921,-34.3769,22.4465],[-58.9905,-34.3656,24.4787],[-58.9952,-34.3585,26.4362],[-58.9838,-34.3521,21.9505],[-58.9252,-34.4199,11.4989],[-58.9255,-34.4107,4.9525],[-58.9273,-34.4059,4.6738],[-58.9234,-34.3938,11.8435],[-58.9228,-34.387,8.2169],[-58.9687,-34.3405,19.1972],[-58.9739,-34.3405,16.4997],[-58.9745,-34.3318,19.2393],[-58.9801,-34.3271,18.9163],[-58.9852,-34.3294,25.2637],[-58.9941,-34.3209,27.4605],[-58.9986,-34.3216,28.1511],[-59.0211,-34.2971,16.0537],[-59.0182,-34.2947,15.4192],[-59.061,-34.253,25.5321],[-59.0556,-34.25,21.5957],[-59.0806,-34.2284,21.8542],[-59.0924,-34.2332,27.6837],[-59.1069,-34.2193,30.0338],[-59.1061,-34.2046,27.4147]]]]}}