{"type": "Feature","bbox": [-63.9319,-30.3263,-62.522,-29.6449],"geometry": {"type": "MultiPolygon","coordinates": [[[[-63.9319,-30.0824,599.6694],[-63.9107,-30.0764,573.3864],[-63.8981,-30.0773,569.7035],[-63.8485,-30.1013,467.7257],[-63.8351,-30.1128,430.2563],[-63.8296,-30.1156,428.1044],[-63.5138,-30.1658,163.7845],[-63.5109,-30.2562,151.6958],[-63.4149,-30.2564,92.1636],[-63.4142,-30.291,88.3455],[-63.381,-30.2881,76.8057],[-63.3775,-30.2175,83.6156],[-62.522,-30.3263,68.0699],[-62.5274,-30.3169,67.5],[-62.5353,-30.3134,67.5],[-62.5437,-30.3027,67.5],[-62.565,-30.2884,67.5],[-62.5689,-30.2761,68.0478],[-62.5778,-30.2746,70.3544],[-62.5801,-30.2729,70.0],[-62.583,-30.2575,70.8964],[-62.5828,-30.2496,70.9314],[-62.588,-30.2435,69.9918],[-62.5815,-30.238,71.7962],[-62.5837,-30.2332,71.9017],[-62.5895,-30.2272,71.8021],[-62.5847,-30.2245,70.0],[-62.5845,-30.2224,70.9293],[-62.5853,-30.2197,71.7979],[-62.584,-30.2145,71.8663],[-62.5874,-30.2104,70.5],[-62.5862,-30.2081,70.5],[-62.5788,-30.204,71.6294],[-62.5789,-30.1988,71.7735],[-62.575,-30.1947,71.7829],[-62.5784,-30.1909,71.9315],[-62.5748,-30.1866,70.772],[-62.5788,-30.1801,71.0424],[-62.5825,-30.1837,71.2512],[-62.5925,-30.1769,71.4811],[-62.5893,-30.1736,71.3148],[-62.5906,-30.1684,70.0],[-62.5873,-30.1641,71.896],[-62.586,-30.1588,71.8887],[-62.5848,-30.1569,71.873],[-62.5815,-30.157,71.8411],[-62.58,-30.1548,71.6699],[-62.5865,-30.1457,72.1455],[-62.5764,-30.1424,72.0767],[-62.5714,-30.1329,72.1116],[-62.57,-30.1252,71.9254],[-62.5627,-30.1111,71.9536],[-62.5581,-30.1083,72.2001],[-62.5554,-30.1035,71.7763],[-62.561,-30.0927,72.414],[-62.5599,-30.0823,72.4736],[-62.5661,-30.0767,72.3507],[-62.5657,-30.072,71.5],[-62.5723,-30.0609,71.5],[-62.5814,-30.061,72.3681],[-62.5866,-30.0587,72.6353],[-62.6011,-30.0598,72.8582],[-62.6097,-30.0575,73.1285],[-62.6181,-30.059,73.0826],[-62.628,-30.0531,73.1073],[-62.6367,-30.0512,73.4715],[-62.6378,-30.0459,73.2732],[-62.6464,-30.0441,73.4586],[-62.6557,-30.0375,73.621],[-62.6611,-30.0311,73.7436],[-62.6693,-30.0285,73.7438],[-62.6815,-30.0137,74.1949],[-62.6955,-29.9871,74.3002],[-62.7022,-29.9819,74.0947],[-62.7027,-29.9766,74.7676],[-62.716,-29.9709,74.7167],[-62.7256,-29.9543,75.0573],[-62.7635,-29.9392,75.6651],[-62.7657,-29.9342,76.3761],[-62.7662,-29.9155,75.8488],[-62.7693,-29.9081,76.0585],[-62.7842,-29.8913,76.39],[-62.7862,-29.8837,76.5785],[-62.7948,-29.8809,76.9416],[-62.799,-29.8772,77.1362],[-62.8024,-29.8698,77.1526],[-62.8031,-29.8566,77.2612],[-62.8079,-29.8497,77.5321],[-62.8107,-29.8422,77.572],[-62.8097,-29.8316,77.7874],[-62.8064,-29.8272,77.8228],[-62.7995,-29.822,77.9892],[-62.7883,-29.8182,77.1938],[-62.7836,-29.8148,78.2032],[-63.3383,-29.7765,91.4309],[-63.4519,-29.7759,166.7126],[-63.4506,-29.7492,167.4412],[-63.4523,-29.7237,172.842],[-63.4833,-29.7227,202.1023],[-63.4691,-29.6634,212.9691],[-63.5079,-29.6684,262.5669],[-63.525,-29.6621,284.1893],[-63.5634,-29.6576,326.9489],[-63.6255,-29.6474,482.6999],[-63.7228,-29.6634,589.4827],[-63.7645,-29.6449,615.8798],[-63.768,-29.6472,621.6221],[-63.7711,-29.6516,622.2392],[-63.7963,-29.7771,629.7083],[-63.8162,-29.7783,657.6841],[-63.8187,-29.842,598.8454],[-63.8438,-29.8431,619.0152],[-63.8494,-29.8454,618.6748],[-63.8601,-29.8511,651.8689],[-63.8688,-29.8591,652.1029],[-63.8841,-29.8688,635.2148],[-63.8869,-29.8792,638.1858],[-63.886,-29.9067,630.7823],[-63.8946,-29.9212,644.038],[-63.8934,-29.9485,630.1783],[-63.8981,-29.9585,625.9265],[-63.9077,-29.9722,649.7589],[-63.9076,-29.9783,648.3383],[-63.9223,-30.0452,646.7319],[-63.9319,-30.0824,599.6694]]]]}
,"properties": {"GID_2": "ARG.6.16_1","GID_0": "ARG","country": "Argentina","GID_1": "ARG.6_1","state": "Córdoba","NL_NAME_1": "NA","county": "RióSeco","VARNAME_2": "VilladeMaria","NL_NAME_2": "NA","TYPE_2": "Departamento","ENGTYPE_2": "Department","CC_2": "NA","HASC_2": "AR.CB.RS","name": "RióSeco.county","area_km2": 6139.745,"hist_schema_id": "Elevation0-9000","hist_area_km2": {"75": 3415.824,"100": 250.405,"125": 220.39,"150": 226.142,"175": 200.217,"200": 184.212,"225": 183.491,"250": 162.225,"275": 135.439,"300": 118.594,"325": 101.179,"350": 102.833,"375": 90.772,"400": 72.936,"425": 57.922,"450": 46.515,"475": 46.099,"500": 51.454,"525": 54.898,"550": 65.373,"575": 84.74,"600": 101.816,"625": 103.621,"650": 50.505,"675": 11.774,"700": 0.367}}}