{"type":"Feature","properties":{"GID_2":"ARG.13.4_1","GID_0":"ARG","country":"Argentina","GID_1":"ARG.13_1","state":"Mendoza","NL_NAME_1":"NA","county":"Guaymallén","VARNAME_2":"NA","NL_NAME_2":"NA","TYPE_2":"Departamento","ENGTYPE_2":"Department","CC_2":"NA","HASC_2":"AR.MZ.GU","name":"Guaymallén.county"},
"geometry":{"type": "MultiPolygon","coordinates": [[[[-68.8264,-32.9076,766.2072],[-68.8296,-32.9185,785.0707],[-68.8232,-32.9147,776.0367],[-68.811,-32.9117,760.0583],[-68.7229,-32.9351,695.2256],[-68.7042,-32.9666,705.8149],[-68.6943,-32.9643,694.377],[-68.6823,-32.9544,681.2953],[-68.6783,-32.9353,667.063],[-68.6684,-32.9363,664.3465],[-68.652,-32.8825,635.8931],[-68.6381,-32.8695,634.1066],[-68.6304,-32.8377,626.3795],[-68.6229,-32.8284,624.7617],[-68.6171,-32.8244,623.7433],[-68.6152,-32.8162,621.9325],[-68.6715,-32.8117,627.6154],[-68.6837,-32.8248,633.1902],[-68.7297,-32.8335,654.0984],[-68.7692,-32.851,681.3245],[-68.7893,-32.8579,695.7087],[-68.817,-32.8729,719.385],[-68.8217,-32.8951,743.5188],[-68.8264,-32.9076,766.2072]]]]}}