{"type":"Feature","properties":{"GID_2":"ARG.8.11_1","GID_0":"ARG","country":"Argentina","GID_1":"ARG.8_1","state":"EntreRíos","NL_NAME_1":"NA","county":"LaPaz","VARNAME_2":"NA","NL_NAME_2":"NA","TYPE_2":"Departamento","ENGTYPE_2":"Department","CC_2":"NA","HASC_2":"AR.ER.LP","name":"LaPaz.county"},
"geometry":{"type": "MultiPolygon","coordinates": [[[[-59.6608,-30.3486,21.0],[-59.6652,-30.3552,26.3309],[-59.681,-30.3711,21.0],[-59.698,-30.3819,23.3881],[-59.704,-30.3878,23.305],[-59.7069,-30.3951,23.4],[-59.7081,-30.4083,23.1934],[-59.7058,-30.4129,23.4612],[-59.6938,-30.4248,24.4419],[-59.6743,-30.4367,24.3088],[-59.6717,-30.4576,20.4956],[-59.6633,-30.4772,20.0],[-59.658,-30.5002,22.3851],[-59.6508,-30.5201,19.5],[-59.6464,-30.5591,19.0],[-59.6462,-30.5748,19.0],[-59.6573,-30.5962,18.5],[-59.6669,-30.6094,19.6682],[-59.6721,-30.6245,18.5],[-59.6723,-30.6322,18.5],[-59.6611,-30.6537,24.1331],[-59.6326,-30.6731,20.5109],[-59.6289,-30.6771,19.1595],[-59.6252,-30.6871,20.224],[-59.6256,-30.6977,18.0],[-59.6347,-30.7112,19.002],[-59.6512,-30.7264,22.9862],[-59.6585,-30.7378,17.5],[-59.6746,-30.7568,17.0],[-59.6859,-30.7753,18.0934],[-59.6883,-30.788,17.6634],[-59.6847,-30.8007,16.75],[-59.689,-30.8105,16.5],[-59.6972,-30.8181,16.5],[-59.7093,-30.826,16.5],[-59.7209,-30.8291,16.5],[-59.7359,-30.8284,20.1243],[-59.7436,-30.832,22.5798],[-59.7494,-30.8442,19.8687],[-59.7519,-30.8676,16.0],[-59.7563,-30.8801,16.4326],[-59.7631,-30.8917,15.5],[-59.779,-30.9074,15.5],[-59.7888,-30.9293,15.5],[-59.7971,-30.9369,15.0],[-59.8176,-30.9659,15.0],[-59.8311,-30.9762,14.5],[-59.8407,-30.9863,14.5],[-59.8583,-31.0137,14.5],[-59.8694,-31.0262,14.5],[-59.8724,-31.0363,14.5],[-59.8765,-31.0432,14.5],[-59.8955,-31.0668,14.5],[-59.9227,-31.0951,14.5],[-59.9482,-31.1033,18.292],[-59.9601,-31.1113,14.5],[-59.9722,-31.1324,17.7912],[-59.981,-31.1544,14.5],[-59.957,-31.1761,18.65],[-59.9364,-31.2014,45.4137],[-59.9348,-31.213,35.9476],[-59.9372,-31.2362,24.6647],[-59.9366,-31.2439,37.8718],[-59.9318,-31.2548,40.4339],[-59.9226,-31.2681,41.048],[-59.9063,-31.2866,48.165],[-59.903,-31.3018,43.0298],[-59.8881,-31.3425,57.2829],[-59.8793,-31.3766,61.5672],[-59.8785,-31.3997,55.1144],[-59.8674,-31.4167,70.6763],[-59.8646,-31.4241,74.1223],[-59.8644,-31.4317,70.3301],[-59.8694,-31.4466,62.4749],[-59.8655,-31.4536,65.3241],[-59.8567,-31.4625,67.4231],[-59.8499,-31.4726,73.7576],[-59.8428,-31.4777,73.5751],[-59.8373,-31.4702,81.2055],[-59.8338,-31.4589,76.5523],[-59.8222,-31.4336,75.2968],[-59.7941,-31.414,84.0087],[-59.7856,-31.4117,84.141],[-59.7585,-31.4092,75.8713],[-59.7404,-31.4102,73.0003],[-59.7092,-31.4147,69.0872],[-59.6838,-31.4228,79.6282],[-59.6659,-31.4253,76.9292],[-59.6356,-31.4335,76.9079],[-59.6277,-31.4381,79.9949],[-59.6262,-31.4412,79.7609],[-59.6399,-31.4614,76.6182],[-59.6445,-31.4724,77.1246],[-59.6459,-31.4917,68.0438],[-59.6416,-31.5061,73.0884],[-59.6291,-31.501,73.5764],[-59.5681,-31.4674,79.9504],[-59.5399,-31.455,77.692],[-59.5274,-31.4441,80.3981],[-59.5199,-31.4396,80.2624],[-59.5065,-31.4378,78.8085],[-59.496,-31.4305,76.446],[-59.487,-31.4273,76.9938],[-59.4864,-31.4252,77.3255],[-59.4905,-31.4223,74.8164],[-59.4913,-31.4188,76.6528],[-59.489,-31.4111,75.2656],[-59.4826,-31.4007,74.4737],[-59.4706,-31.3891,73.0768],[-59.4648,-31.3787,76.9682],[-59.4559,-31.3698,72.9503],[-59.4386,-31.3657,66.8626],[-59.4314,-31.3612,73.9809],[-59.4271,-31.3543,74.6596],[-59.4264,-31.3466,75.2049],[-59.4227,-31.3396,75.883],[-59.4176,-31.3331,74.7159],[-59.4101,-31.3288,77.02],[-59.4025,-31.3191,73.9264],[-59.3958,-31.3139,70.1753],[-59.3481,-31.3022,74.8913],[-59.3079,-31.2849,76.1782],[-59.302,-31.2791,75.7832],[-59.2869,-31.2706,74.2343],[-59.2709,-31.2567,72.5125],[-59.2622,-31.256,70.9925],[-59.2485,-31.259,69.9072],[-59.2549,-31.2393,65.0499],[-59.2635,-31.2213,70.051],[-59.2711,-31.212,62.231],[-59.2756,-31.1968,66.0399],[-59.275,-31.1891,66.5442],[-59.2718,-31.1819,60.4809],[-59.266,-31.1552,55.6478],[-59.2663,-31.1397,54.1336],[-59.2638,-31.1165,54.3591],[-59.2652,-31.1088,64.4789],[-59.2737,-31.1,63.2948],[-59.2784,-31.0891,63.9437],[-59.2782,-31.0695,67.5624],[-59.2809,-31.0679,68.0771],[-59.29,-31.0678,63.4997],[-59.2936,-31.0657,66.1973],[-59.2953,-31.058,68.2658],[-59.2941,-31.0503,64.1804],[-59.2957,-31.0427,64.8248],[-59.2937,-31.0352,64.9786],[-59.2948,-31.0275,65.7959],[-59.2992,-31.021,65.4319],[-59.3074,-31.0173,59.7904],[-59.3142,-31.0074,61.5275],[-59.3281,-30.9707,60.9137],[-59.327,-30.9631,58.8119],[-59.3191,-30.9537,53.1625],[-59.3002,-30.9431,62.4616],[-59.2939,-30.9376,61.8791],[-59.2924,-30.934,60.6902],[-59.293,-30.9262,54.8326],[-59.3007,-30.9122,60.2749],[-59.3013,-30.9084,57.5175],[-59.2786,-30.8846,46.7281],[-59.277,-30.8809,45.2565],[-59.277,-30.8731,44.2507],[-59.2803,-30.8578,47.4097],[-59.2895,-30.8446,44.6725],[-59.2862,-30.8373,55.7009],[-59.2881,-30.8302,52.3203],[-59.3095,-30.805,38.4544],[-59.3255,-30.7914,36.9919],[-59.3402,-30.7825,47.1522],[-59.3423,-30.7789,51.5514],[-59.3414,-30.7754,48.7958],[-59.3118,-30.7663,52.1449],[-59.292,-30.7572,52.7076],[-59.2849,-30.7525,46.2465],[-59.2768,-30.7433,59.9328],[-59.2726,-30.7417,56.5689],[-59.2276,-30.7406,54.3703],[-59.2142,-30.7389,50.5769],[-59.2103,-30.737,45.8977],[-59.207,-30.7299,53.716],[-59.2006,-30.7246,51.7654],[-59.1838,-30.7189,51.1377],[-59.1703,-30.719,54.8073],[-59.1529,-30.7154,43.4829],[-59.136,-30.7026,57.5791],[-59.1193,-30.6971,43.4987],[-59.1018,-30.685,47.9593],[-59.0615,-30.6678,44.9596],[-59.036,-30.6601,45.1927],[-59.0283,-30.6563,44.4329],[-59.0126,-30.6425,45.1141],[-59.0043,-30.6245,45.0977],[-58.9965,-30.6149,46.4209],[-58.9943,-30.5955,45.4547],[-58.991,-30.5886,49.9492],[-58.9747,-30.5751,57.6376],[-58.9577,-30.5569,53.0932],[-58.9505,-30.5522,56.6912],[-58.9467,-30.5454,59.8936],[-58.947,-30.5416,59.4596],[-58.9532,-30.5312,59.6648],[-58.9543,-30.5234,56.2555],[-58.9589,-30.5171,57.3459],[-58.9862,-30.4968,57.5087],[-59.002,-30.4894,56.8476],[-59.0117,-30.4813,56.6904],[-59.0355,-30.4708,61.1222],[-59.0505,-30.4563,62.2972],[-59.0611,-30.4395,53.0322],[-59.0594,-30.4162,48.23],[-59.0635,-30.3932,55.8309],[-59.0702,-30.3788,53.4228],[-59.084,-30.3689,58.262],[-59.085,-30.3614,56.8491],[-59.092,-30.357,59.8342],[-59.1165,-30.3466,53.2831],[-59.1298,-30.345,52.3416],[-59.1477,-30.3454,51.3248],[-59.1564,-30.3433,50.2996],[-59.1628,-30.3384,43.0367],[-59.1726,-30.3222,34.3977],[-59.1863,-30.3294,35.6479],[-59.2043,-30.3304,39.482],[-59.2123,-30.3415,34.799],[-59.2281,-30.3491,35.764],[-59.2369,-30.3599,33.0888],[-59.2423,-30.3613,37.1597],[-59.2487,-30.3607,34.3184],[-59.2652,-30.3546,44.3051],[-59.2768,-30.3578,33.3174],[-59.2919,-30.357,34.931399999999996],[-59.2975,-30.3552,31.1013],[-59.3096,-30.3477,33.3541],[-59.3278,-30.3487,28.9429],[-59.3515,-30.3288,29.099],[-59.3782,-30.3271,27.8146],[-59.3977,-30.3207,26.1766],[-59.4064,-30.3236,25.8554],[-59.4171,-30.3198,26.656],[-59.428,-30.3244,25.2071],[-59.434,-30.3245,23.6402],[-59.4385,-30.328,24.2899],[-59.4444,-30.3273,24.7996],[-59.45,-30.3293,24.7384],[-59.456,-30.3273,27.1252],[-59.4579,-30.3283,25.0815],[-59.4601,-30.3338,25.2494],[-59.4685,-30.3344,24.9106],[-59.4758,-30.3385,24.1076],[-59.5119,-30.3411,23.7038],[-59.5348,-30.335,29.7248],[-59.5459,-30.3378,23.2901],[-59.5483,-30.333,23.0259],[-59.5512,-30.3333,23.2316],[-59.5595,-30.337,23.2305],[-59.5607,-30.3472,22.6618],[-59.5642,-30.3472,22.7607],[-59.5669,-30.3514,22.8727],[-59.5693,-30.3619,22.9777],[-59.5696,-30.3749,21.7079],[-59.583,-30.4151,22.3983],[-59.5884,-30.4217,21.6097],[-59.5959,-30.4256,21.235],[-59.608,-30.4231,22.7955],[-59.614,-30.4177,21.7643],[-59.6202,-30.4,24.0868],[-59.6277,-30.3857,21.871],[-59.628,-30.3673,24.0286],[-59.6316,-30.3604,23.9831],[-59.6388,-30.3554,25.2099],[-59.6608,-30.3486,21.0]]]]}}