{"type":"Feature","properties":{"GID_2":"ARG.12.18_1","GID_0":"ARG","country":"Argentina","GID_1":"ARG.12_1","state":"LaRioja","NL_NAME_1":"NA","county":"Vinchina","VARNAME_2":"GeneralSarmiento","NL_NAME_2":"NA","TYPE_2":"Departamento","ENGTYPE_2":"Department","CC_2":"NA","HASC_2":"AR.LR.VI","name":"Vinchina.county"},
"geometry":{"type": "MultiPolygon","coordinates": [[[[-69.089,-27.773,5463.6577],[-69.0896,-27.7863,5426.6548],[-69.0952,-27.7886,5400.9297],[-69.0955,-27.799,5405.5303],[-69.0999,-27.8052,5276.1904],[-69.1007,-27.8163,5184.7622],[-69.1058,-27.8231,5191.6006],[-69.1039,-27.8262,5222.5376],[-69.1087,-27.8305,5173.2324],[-69.1061,-27.8335,5179.623],[-69.1114,-27.8377,5225.1592],[-69.1142,-27.842,5184.6582],[-69.1097,-27.8465,5216.396],[-69.1105,-27.8518,5190.3159],[-69.1135,-27.8549,5218.5972],[-69.1137,-27.8573,5198.1328],[-69.1283,-27.8664,5079.6084],[-69.1323,-27.8725,4924.0039],[-69.129,-27.8794,4900.4502],[-69.1296,-27.8848,5050.0771],[-69.1255,-27.8888,4981.0957],[-69.1216,-27.8976,4786.958],[-69.1233,-27.9015,4750.8408],[-69.1401,-27.917,4869.6514],[-69.1435,-27.9186,4922.1694],[-69.1471,-27.9266,5030.0708],[-69.1517,-27.9272,4965.8433],[-69.1559,-27.9318,4939.1797],[-69.1553,-27.947,5018.7363],[-69.165,-27.9532,4971.9375],[-69.1668,-27.9611,4977.8076],[-69.1702,-27.9619,4941.8145],[-69.1733,-27.9663,4946.8052],[-69.1735,-27.9719,4979.3457],[-69.1811,-27.9723,4810.165],[-69.1898,-27.9662,4781.7676],[-69.1968,-27.9682,4694.7378],[-69.2074,-27.9636,4684.6387],[-69.2234,-27.9721,4712.084],[-69.2349,-27.9662,4767.5454],[-69.2379,-27.967,4752.0352],[-69.2388,-27.9703,4763.4346],[-69.2368,-27.9795,4895.5166],[-69.2436,-27.98,4815.7529],[-69.2485,-27.9839,4797.1636],[-69.2499,-27.9881,4810.7808],[-69.2532,-27.9899,4781.9146],[-69.2517,-28.0049,4665.793],[-69.2568,-28.0104,4640.5762],[-69.2667,-28.0093,4595.4233],[-69.2688,-28.0118,4604.5464],[-69.2662,-28.0151,4623.3799],[-69.2667,-28.0291,4747.8271],[-69.2645,-28.0316,4718.0801],[-69.266,-28.0368,4769.4985],[-69.2605,-28.04,4883.0342],[-69.2633,-28.047,4830.4414],[-69.2791,-28.0526,4373.2363],[-69.2812,-28.0567,4243.4155],[-69.2852,-28.0577,4239.6426],[-69.2863,-28.0604,4230.8574],[-69.2905,-28.0622,4229.6221],[-69.3016,-28.072,4195.3843],[-69.2969,-28.0786,4430.3945],[-69.2992,-28.083,4460.2788],[-69.3011,-28.0957,4596.9307],[-69.305,-28.1032,4652.2715],[-69.302,-28.1087,4796.8394],[-69.3056,-28.1141,4799.8877],[-69.3046,-28.1202,4786.2495],[-69.3085,-28.1228,4761.041],[-69.3077,-28.1293,4718.2769],[-69.3131,-28.1311,4832.9731],[-69.314,-28.1344,4883.7764],[-69.3239,-28.1427,4792.9927],[-69.3251,-28.1483,4765.5356],[-69.3298,-28.156,4659.7891],[-69.3337,-28.1585,4802.9482],[-69.3364,-28.1646,4978.835],[-69.3413,-28.1676,4949.3657],[-69.3462,-28.1678,4928.9673],[-69.362,-28.18,4731.4922],[-69.3806,-28.1817,4659.5391],[-69.3833,-28.1842,4684.7734],[-69.3843,-28.1905,4728.5249],[-69.3811,-28.1946,4803.5986],[-69.3837,-28.2065,4968.3721],[-69.3823,-28.2117,5013.9004],[-69.3905,-28.2214,5164.3296],[-69.391,-28.2266,5214.3945],[-69.3289,-28.2676,4609.7314],[-68.4607,-28.7423,1947.052],[-68.2188,-28.8691,1365.1931],[-68.0127,-28.9027,2509.8801],[-67.8355,-29.008,5823.291],[-67.8334,-28.9981,5876.4102],[-67.8326,-28.9768,5648.9619],[-67.8277,-28.9516,5701.2236],[-67.8282,-28.9132,5132.0195],[-67.8247,-28.8813,4978.6855],[-67.8771,-28.7611,3938.6582],[-67.8298,-28.5355,4056.9341],[-67.8617,-28.4098,3424.8613],[-67.8669,-28.3979,3177.5801],[-67.8763,-28.3648,3085.4702],[-67.8737,-28.3265,3204.3784],[-67.8706,-28.3185,3362.1106],[-67.8613,-28.307,3481.1191],[-67.883,-28.2934,3427.7314],[-67.8904,-28.285,3309.2622],[-67.8961,-28.2756,3494.0166],[-67.9011,-28.2631,3467.4529],[-67.9091,-28.2274,3730.24],[-67.9016,-28.2198,3797.6804],[-67.9017,-28.214,3900.3645],[-67.9091,-28.2109,3766.1604],[-67.9222,-28.2134,3545.9575],[-67.9238,-28.2085,3630.186],[-67.9234,-28.1952,3646.4685],[-67.9182,-28.1637,4281.8765],[-67.9198,-28.1585,4330.6875],[-67.9219,-28.1568,4368.6069],[-67.9317,-28.1565,4441.6992],[-67.932,-28.1553,4453.8818],[-67.9157,-28.132,4329.2852],[-67.9152,-28.1271,4572.5933],[-67.9176,-28.122,4769.7612],[-67.9738,-28.1169,3479.584],[-67.9975,-28.1288,3570.3943],[-68.0094,-28.1281,3512.8589],[-68.0175,-28.1251,3548.4199],[-68.0203,-28.1264,3803.1575],[-68.0262,-28.1357,3865.6226],[-68.0304,-28.1394,3883.4727],[-68.0454,-28.1401,4029.8867],[-68.0566,-28.1439,4190.0283],[-68.0763,-28.16,4289.2656],[-68.1034,-28.1597,4102.3237],[-68.1141,-28.1549,4153.9253],[-68.1185,-28.1507,4238.2363],[-68.1164,-28.1408,4130.499],[-68.1253,-28.13,4382.8418],[-68.129,-28.1174,4284.667],[-68.1483,-28.1053,4138.4849],[-68.1542,-28.1049,4065.8433],[-68.1635,-28.1072,4186.6182],[-68.1688,-28.1062,4063.6831],[-68.1759,-28.0947,4027.2817],[-68.1802,-28.091,4010.9673],[-68.1858,-28.0896,3948.137],[-68.1997,-28.0947,3921.9104],[-68.2103,-28.0851,3998.6855],[-68.2181,-28.0813,4015.6917],[-68.2567,-28.0749,4442.71],[-68.2624,-28.0757,4312.5024],[-68.2748,-28.0871,4243.8965],[-68.2809,-28.0874,4219.2412],[-68.2833,-28.0861,4265.7285],[-68.2965,-28.0746,4251.3564],[-68.2999,-28.0675,4149.459],[-68.3027,-28.049,4199.9038],[-68.2979,-28.0337,4396.2012],[-68.2994,-28.0284,4361.646],[-68.3028,-28.0242,4260.5059],[-68.3387,-28.0257,3904.7808],[-68.3497,-28.0216,3943.2317],[-68.3617,-28.0202,3858.5198],[-68.4083,-28.0088,4562.6846],[-68.4128,-28.0111,4670.4214],[-68.4227,-28.0249,4237.9175],[-68.4346,-28.0263,4360.8237],[-68.4436,-28.0244,4373.1738],[-68.4552,-28.0063,4222.8633],[-68.4565,-28.0011,4340.9053],[-68.4392,-27.9596,4228.1934],[-68.4352,-27.9238,4223.8276],[-68.4285,-27.9027,4303.6919],[-68.4273,-27.8846,4407.6279],[-68.4287,-27.8788,4502.0605],[-68.4329,-27.8718,4599.7837],[-68.4404,-27.8673,4814.2734],[-68.4445,-27.8625,4831.354],[-68.4501,-27.8412,4841.2705],[-68.4554,-27.8348,5025.98],[-68.4624,-27.8298,4902.1655],[-68.4877,-27.8214,4462.5723],[-68.4973,-27.8162,4399.7422],[-68.5056,-27.8045,4627.9971],[-68.5094,-27.7929,4724.582],[-68.5087,-27.787,4700.4629],[-68.492,-27.7338,4653.4932],[-68.553,-27.7108,5448.5977],[-68.6446,-27.7498,4534.5718],[-68.7366,-27.7582,5404.1377],[-68.804,-27.7608,6668.4639],[-68.8456,-27.7805,5430.2021],[-69.089,-27.773,5463.6577]]]]}}