{"type": "Feature","bbox": [-63.7888,-29.3214,-63.0049,-28.5853],"geometry": {"type": "MultiPolygon","coordinates": [[[[-63.0941,-28.9036,98.0442],[-63.0935,-28.8287,100.6923],[-63.1416,-28.8276,101.7585],[-63.1391,-28.7734,102.4947],[-63.2607,-28.7601,103.531],[-63.2473,-28.6595,106.7072],[-63.335,-28.6595,106.5448],[-63.3348,-28.6304,107.4118],[-63.3762,-28.6301,107.5751],[-63.3761,-28.5971,108.8341],[-63.4823,-28.5853,110.5394],[-63.4834,-28.6121,109.9617],[-63.5333,-28.6081,114.2182],[-63.5382,-28.6309,111.3189],[-63.6232,-28.6953,109.3751],[-63.599,-28.7259,108.3669],[-63.59,-28.7221,108.2824],[-63.5762,-28.7411,107.9564],[-63.6787,-28.7991,113.5651],[-63.6666,-28.8164,112.126],[-63.7888,-28.9169,111.4621],[-63.7734,-28.9271,109.9998],[-63.7604,-28.932,106.8936],[-63.7484,-28.9341,110.8434],[-63.7342,-28.9344,109.6847],[-63.7283,-28.9358,108.7202],[-63.7217,-28.9398,108.6876],[-63.6914,-28.9438,105.3837],[-63.6836,-28.9425,108.7284],[-63.6721,-28.935,109.3349],[-63.6611,-28.9302,109.7007],[-63.6491,-28.93,106.4081],[-63.6399,-28.9338,106.9372],[-63.6241,-28.937,108.9439],[-63.6207,-28.9414,103.1933],[-63.6149,-28.9567,109.14],[-63.6109,-28.9605,109.1714],[-63.593,-28.969,107.1545],[-63.5748,-28.9702,106.1426],[-63.5692,-28.9722,105.3223],[-63.5668,-28.9751,105.2805],[-63.5616,-28.996,107.164],[-63.5536,-29.0085,106.3284],[-63.541,-29.0142,104.2282],[-63.5377,-29.0187,101.4695],[-63.5278,-29.0199,104.5851],[-63.5187,-29.0269,105.8149],[-63.5066,-29.028199999999998,104.9643],[-63.497,-29.0348,105.2815],[-63.4838,-29.0395,105.0193],[-63.4797,-29.0435,104.592],[-63.4774,-29.0484,104.6384],[-63.4638,-29.0617,103.6033],[-63.4414,-29.0702,102.4628],[-63.4242,-29.0798,101.341],[-63.3987,-29.1163,105.6719],[-63.3931,-29.1216,98.9638],[-63.3822,-29.1264,98.1315],[-63.3775,-29.1343,97.9575],[-63.3691,-29.1423,97.4003],[-63.3469,-29.1441,95.9435],[-63.3438,-29.1463,95.5004],[-63.3359,-29.1568,95.8061],[-63.3214,-29.1902,93.9814],[-63.2965,-29.2208,94.9012],[-63.262,-29.2489,92.2196],[-63.2435,-29.2559,91.8843],[-63.2418,-29.2592,92.0127],[-63.2449,-29.2637,92.5145],[-63.2459,-29.2691,92.3994],[-63.2435,-29.274,92.2925],[-63.2358,-29.2798,91.3536],[-63.2165,-29.3005,91.9297],[-63.2043,-29.307,90.7282],[-63.1984,-29.3164,90.5601],[-63.1894,-29.3214,89.6084],[-63.0361,-29.237,90.5664],[-63.0475,-29.2208,90.4272],[-63.0058,-29.2203,89.9066],[-63.0049,-28.9882,95.6234],[-63.0947,-28.9875,94.3901],[-63.0941,-28.9036,98.0442]]]]}
,"properties": {"GID_2": "ARG.22.24_1","GID_0": "ARG","country": "Argentina","GID_1": "ARG.22_1","state": "SantiagodelEstero","NL_NAME_1": "NA","county": "Salavina","VARNAME_2": "LosTelares","NL_NAME_2": "NA","TYPE_2": "Departamento","ENGTYPE_2": "Department","CC_2": "NA","HASC_2": "AR.SE.SV","name": "Salavina.county","area_km2": 3098.727,"hist_schema_id": "Elevation0-9000","hist_area_km2": {"100": 3033.813,"125": 64.265,"150": 0.575,"175": 0.074}}}