{"type":"Feature","properties":{"GID_2":"ARG.20.2_1","GID_0":"ARG","country":"Argentina","GID_1":"ARG.20_1","state":"SantaCruz","NL_NAME_1":"NA","county":"Deseado","VARNAME_2":"PuertoDeseado","NL_NAME_2":"NA","TYPE_2":"Departamento","ENGTYPE_2":"Department","CC_2":"NA","HASC_2":"AR.SC.DE","name":"Deseado.county"},
"geometry":{"type": "MultiPolygon","coordinates": [[[[-66.3213,-48.3582,0.6588],[-66.3226,-48.3574,0.0],[-66.3265,-48.3607,0.0],[-66.3238,-48.3621,-0.2451],[-66.3213,-48.3582,0.6588]]],
[[[-66.2626,-48.2443,0.1659],[-66.2657,-48.2429,0.0],[-66.2682,-48.2438,0.2429],[-66.2674,-48.2449,0.0],[-66.2626,-48.2443,0.1659]]],
[[[-66.2471,-48.239,0.0],[-66.2471,-48.2379,0.0],[-66.251,-48.2385,0.074],[-66.2551,-48.241,0.1764],[-66.2557,-48.2432,-0.265],[-66.2535,-48.2435,-0.1713],[-66.2518,-48.2424,-0.2946],[-66.2526,-48.2415,-0.1905],[-66.2471,-48.239,0.0]]],
[[[-66.086,-48.1285,1.1696],[-66.0888,-48.1276,-0.2122],[-66.0807,-48.1338,-0.0383],[-66.0793,-48.1332,-0.0383],[-66.0829,-48.1293,0.0],[-66.086,-48.1285,1.1696]]],
[[[-66.1057,-48.1254,0.8223],[-66.1071,-48.1246,0.804],[-66.1085,-48.126,0.0],[-66.1021,-48.1274,0.3682],[-66.1024,-48.1257,0.2876],[-66.1057,-48.1254,0.8223]]],
[[[-65.9499,-48.1157,1.2282],[-65.9543,-48.1149,0.1292],[-65.9549,-48.1162,0.1292],[-65.9518,-48.1171,0.0],[-65.9493,-48.1165,1.4791],[-65.9499,-48.1157,1.2282]]],
[[[-66.0129,-48.1113,1.3383],[-66.014,-48.1104,0.0238],[-66.0179,-48.114,0.0199],[-66.0124,-48.1162,0.5238],[-66.0096,-48.1149,0.0],[-66.009,-48.1135,0.0],[-66.0126,-48.1126,1.3383],[-66.0129,-48.1113,1.3383]]],
[[[-65.9924,-48.1124,0.5622],[-65.9943,-48.1113,0.6975],[-65.9951,-48.1135,0.0],[-65.9915,-48.1151,0.0],[-65.9904,-48.1132,-0.492],[-65.9924,-48.1124,0.5622]]],
[[[-65.9401,-48.1229,0.0],[-65.9471,-48.1221,0.67],[-65.9518,-48.1232,0.0],[-65.9401,-48.1254,0.0],[-65.9379,-48.1232,-0.081],[-65.9401,-48.1229,0.0]]],
[[[-65.894,-48.1129,0.0],[-65.8968,-48.1124,0.0],[-65.8954,-48.1165,0.0],[-65.8921,-48.116,-0.0764],[-65.8921,-48.1135,0.3737],[-65.894,-48.1129,0.0]]],
[[[-65.8882,-48.0843,1.7163],[-65.8901,-48.0824,0.0],[-65.8926,-48.0851,0.0275],[-65.8887,-48.0857,0.8003],[-65.8882,-48.0843,1.7163]]],
[[[-65.8965,-48.0743,0.8208],[-65.8987,-48.0735,0.0427],[-65.9021,-48.0776,0.2253],[-65.8968,-48.0793,1.4958],[-65.894,-48.0774,-0.1539],[-65.8965,-48.0743,0.8208]]],
[[[-65.9262,-48.0232,0.0],[-65.9274,-48.0218,0.0],[-65.9326,-48.0251,0.0],[-65.9232,-48.0257,0.024],[-65.9262,-48.0232,0.0]]],
[[[-65.9318,-48.0171,0.6003],[-65.9362,-48.0165,0.0],[-65.9368,-48.0179,0.0],[-65.9346,-48.019,0.1891],[-65.931,-48.0176,0.0],[-65.9318,-48.0171,0.6003]]],
[[[-65.899,-48.0035,0.5741],[-65.9035,-48.004,0.6042],[-65.904,-48.0071,0.0458],[-65.9004,-48.0062,1.531],[-65.8979,-48.004,0.0],[-65.899,-48.0035,0.5741]]],
[[[-65.8715,-47.9585,0.4941],[-65.8718,-47.9571,0.0],[-65.8749,-47.9593,0.0],[-65.8729,-47.9596,0.0],[-65.8715,-47.9585,0.4941]]],
[[[-65.8621,-47.9571,1.04],[-65.8668,-47.9568,1.8547],[-65.8696,-47.9599,0.0],[-65.8674,-47.9607,0.0],[-65.8621,-47.9571,1.04]]],
[[[-65.8707,-47.9549,0.0],[-65.8704,-47.954,0.0],[-65.8737,-47.9543,0.0],[-65.8729,-47.9557,0.2618],[-65.8707,-47.9549,0.0]]],
[[[-65.8643,-47.9474,1.2967],[-65.8704,-47.9468,2.3023],[-65.8712,-47.9482,0.0],[-65.8674,-47.9493,3.0641],[-65.8613,-47.9482,0.2778],[-65.8643,-47.9474,1.2967]]],
[[[-65.7327,-47.9179,0.0],[-65.7343,-47.9173,0.0],[-65.7368,-47.9218,0.0],[-65.7326,-47.9207,0.0],[-65.7327,-47.9179,0.0]]],
[[[-65.7363,-47.9174,1.1612],[-65.7351,-47.9143,0.0],[-65.7393,-47.9146,2.8646],[-65.7432,-47.9218,0.0],[-65.7396,-47.9212,0.0],[-65.7363,-47.9174,1.1612]]],
[[[-65.7565,-47.9126,0.0],[-65.7596,-47.9124,0.0],[-65.7613,-47.914,0.0],[-65.7551,-47.9154,0.0],[-65.7546,-47.914,0.0682],[-65.7565,-47.9126,0.0]]],
[[[-65.7146,-47.9054,0.0795],[-65.719,-47.906,2.3856],[-65.721,-47.9101,6.6043],[-65.7274,-47.9113,0.4134],[-65.7187,-47.9165,0.0],[-65.7154,-47.9149,0.2392],[-65.7118,-47.9157,0.0],[-65.7101,-47.9146,0.0],[-65.7102,-47.9118,0.0],[-65.7124,-47.9113,0.6359],[-65.7146,-47.9054,0.0795]]],
[[[-65.8651,-47.8007,0.0],[-65.8695,-47.7996,0.7152],[-65.8737,-47.8035,1.5885],[-65.8654,-47.804,0.0],[-65.8651,-47.8007,0.0]]],
[[[-65.8892,-47.936,0.0],[-65.8918,-47.936,0.2823],[-65.8918,-47.9379,0.9059],[-65.889,-47.9374,0.5048],[-65.8892,-47.936,0.0]]],
[[[-65.8793,-47.763,0.0],[-65.8832,-47.7624,0.0],[-65.8843,-47.764,1.0029],[-65.891,-47.7637,0.6493],[-65.891,-47.7649,0.0],[-65.8893,-47.7668,0.0],[-65.8726,-47.7651,0.0],[-65.8793,-47.763,0.0]]],
[[[-65.8388,-47.7422,0.3023],[-65.8401,-47.7415,0.3023],[-65.8415,-47.7432,0.2498],[-65.8415,-47.7474,0.0632],[-65.8376,-47.7471,0.0],[-65.8399,-47.7457,0.0],[-65.8388,-47.7422,0.3023]]],
[[[-65.9846,-48.1074,0.0],[-65.9863,-48.1068,0.0],[-65.9874,-48.1101,-0.2559],[-65.9863,-48.1113,0.0],[-65.9835,-48.1107,0.0],[-65.9832,-48.1079,0.0],[-65.9846,-48.1074,0.0]]],
[[[-68.2259,-46.0041,689.9526],[-68.9489,-46.0069,368.698],[-69.6563,-46.0051,445.8796],[-69.6867,-47.1613,642.1299],[-69.7076,-47.2347,647.8019],[-69.7344,-48.3221,756.4024],[-69.3553,-48.4383,713.8644],[-68.9883,-48.4183,358.6897],[-68.3354,-48.3796,282.8416],[-68.1855,-48.4446,183.8825],[-67.6161,-48.0917,188.0758],[-67.5874,-48.1123,221.3257],[-67.5531,-48.113,186.7919],[-67.1719,-48.4839,76.0233],[-66.8805,-48.5804,18.6517],[-66.8715,-48.5774,0.8616],[-66.8726,-48.5743,3.3213],[-66.8696,-48.5737,0.0],[-66.8712,-48.5718,1.4058],[-66.8643,-48.5668,0.7365],[-66.8624,-48.5621,2.8719],[-66.8554,-48.5543,4.546],[-66.8446,-48.5476,2.1015],[-66.8382,-48.5457,0.0],[-66.8382,-48.5437,0.4735],[-66.8424,-48.5418,0.0],[-66.8424,-48.5371,0.0],[-66.8399,-48.5324,3.3229],[-66.8276,-48.521,8.2019],[-66.814,-48.5137,4.2822],[-66.8035,-48.5121,0.0],[-66.8012,-48.5082,0.0],[-66.7965,-48.5054,2.1723],[-66.7821,-48.5006,3.9827],[-66.7707,-48.4993,0.6381],[-66.7712,-48.4962,2.4916],[-66.7696,-48.4929,4.7097],[-66.7624,-48.486,1.7873],[-66.7546,-48.4815,0.0],[-66.7549,-48.4748,0.0],[-66.7454,-48.4704,1.5445],[-66.741,-48.471,0.0],[-66.741,-48.4687,1.6919],[-66.7365,-48.4654,2.9066],[-66.6974,-48.454,6.8787],[-66.6849,-48.4529,7.0756],[-66.6829,-48.4543,0.3123],[-66.6815,-48.4518,0.0],[-66.6849,-48.4487,2.7449],[-66.6807,-48.4451,3.0431],[-66.659,-48.4346,0.0],[-66.6482,-48.4324,4.8032],[-66.6185,-48.4274,5.5242],[-66.5729,-48.4232,0.0],[-66.5479,-48.4229,7.9911],[-66.5396,-48.4249,0.0],[-66.5382,-48.4204,8.278],[-66.5304,-48.4165,0.88],[-66.5143,-48.416,7.4546],[-66.4918,-48.4179,-0.3561],[-66.494,-48.4157,2.7536],[-66.494,-48.4124,5.8153],[-66.4921,-48.4101,0.2415],[-66.4665,-48.4004,2.9185],[-66.4749,-48.3974,0.0],[-66.4721,-48.3898,-0.1243],[-66.4662,-48.3865,2.8398],[-66.4676,-48.3854,5.0322],[-66.4668,-48.3815,3.8666],[-66.4765,-48.3751,7.0602],[-66.4768,-48.3701,5.3445],[-66.4751,-48.3671,0.3499],[-66.4679,-48.3604,2.8435],[-66.4485,-48.3526,4.2543],[-66.4193,-48.3493,5.5259],[-66.3918,-48.3501,2.3698],[-66.3721,-48.3526,7.0119],[-66.3626,-48.3565,0.2785],[-66.3626,-48.3615,-0.2184],[-66.3568,-48.3621,0.0576],[-66.3499,-48.354,1.1852],[-66.3399,-48.3521,0.8431],[-66.3404,-48.3537,1.84],[-66.3454,-48.354,-0.9593],[-66.3479,-48.3587,0.7089],[-66.3499,-48.3593,-0.2651],[-66.3446,-48.359,-0.0116],[-66.3412,-48.356,0.0384],[-66.3418,-48.359,1.8896],[-66.3449,-48.3604,-0.3435],[-66.3435,-48.3621,-0.1183],[-66.3401,-48.3601,0.9666],[-66.3407,-48.3624,-0.5163],[-66.3393,-48.3635,0.0044],[-66.3343,-48.3621,0.0],[-66.3329,-48.3535,0.3053],[-66.336,-48.3529,-0.1285],[-66.3362,-48.3512,0.2047],[-66.3337,-48.3493,-0.2031],[-66.3343,-48.3462,0.0],[-66.3412,-48.3474,-0.4121],[-66.3482,-48.3435,2.3356],[-66.3499,-48.3379,-0.1096],[-66.356,-48.3307,2.6382],[-66.3599,-48.3199,1.6057],[-66.3593,-48.3124,5.8066],[-66.3571,-48.3079,12.3708],[-66.3549,-48.3071,-0.0923],[-66.3551,-48.3034,11.4124],[-66.3462,-48.299,-0.3311],[-66.3415,-48.2937,-0.3474],[-66.3435,-48.2907,-0.0454],[-66.3432,-48.2865,1.0712],[-66.3374,-48.2774,6.9428],[-66.3251,-48.2687,3.1522],[-66.3182,-48.2676,4.1711],[-66.3157,-48.2654,2.2756],[-66.3096,-48.2668,0.0],[-66.3115,-48.2643,0.7232],[-66.3082,-48.2612,3.8979],[-66.3065,-48.2618,-0.2823],[-66.3049,-48.2574,2.2208],[-66.2971,-48.2524,2.2056],[-66.2812,-48.2504,-0.0443],[-66.2818,-48.2482,-0.4044],[-66.2776,-48.2476,-0.1092],[-66.2787,-48.2468,-0.1092],[-66.2774,-48.2462,-0.1494],[-66.2782,-48.2426,7.8884],[-66.2679,-48.241,1.3865],[-66.2626,-48.2382,0.2589],[-66.2626,-48.2324,2.8602],[-66.2601,-48.2293,5.6385],[-66.2579,-48.2287,2.2591],[-66.2568,-48.2315,0.0],[-66.2549,-48.2315,0.0],[-66.2571,-48.2287,2.2591],[-66.2518,-48.2282,0.0],[-66.2524,-48.2265,0.1155],[-66.256,-48.2271,0.3026],[-66.2576,-48.2257,4.653],[-66.2557,-48.2199,0.0],[-66.2454,-48.2165,-0.0385],[-66.2401,-48.209,11.4776],[-66.2276,-48.2007,3.5073],[-66.2201,-48.1999,0.7772],[-66.2049,-48.2015,0.0662],[-66.1976,-48.1951,1.3256],[-66.1837,-48.196,-0.2957],[-66.1774,-48.1937,2.132],[-66.1721,-48.1957,0.3131],[-66.1676,-48.1954,-0.4158],[-66.1674,-48.194,0.8741],[-66.1635,-48.194,-0.1618],[-66.161,-48.1912,3.3437],[-66.1585,-48.1915,-0.1763],[-66.1571,-48.1882,-0.3526],[-66.154,-48.1874,0.1328],[-66.1546,-48.1813,-0.1839],[-66.156,-48.1796,0.1565],[-66.1637,-48.181,0.3604],[-66.1665,-48.1793,-0.0102],[-66.1663,-48.1779,3.7224],[-66.1615,-48.176,-0.1379],[-66.1637,-48.1732,2.1657],[-66.1585,-48.1721,-0.0551],[-66.1557,-48.1696,0.0],[-66.1521,-48.1701,0.0],[-66.1513,-48.1676,2.175],[-66.1476,-48.1676,-0.2815],[-66.1465,-48.1649,-1.1865],[-66.1457,-48.1665,-0.7695],[-66.1429,-48.1662,0.0],[-66.144,-48.1621,0.697],[-66.139,-48.1637,-0.1071],[-66.1387,-48.1621,-0.2967],[-66.1357,-48.1618,-0.2915],[-66.1393,-48.1613,0.8394],[-66.1407,-48.159,-0.1295],[-66.1384,-48.1571,-0.1967],[-66.139,-48.1546,1.0765],[-66.1368,-48.1501,-0.1018],[-66.1335,-48.1482,0.6905],[-66.1368,-48.1437,0.2892],[-66.1329,-48.1435,0.9816],[-66.1379,-48.1399,0.2212],[-66.1349,-48.1385,0.0],[-66.1224,-48.1404,-0.342],[-66.1235,-48.1382,0.12],[-66.126,-48.1377,0.1526],[-66.1288,-48.1324,5.0434],[-66.124,-48.1257,0.9596],[-66.1179,-48.1221,3.9611],[-66.1004,-48.1182,-0.0021],[-66.0982,-48.1146,3.1421],[-66.0912,-48.1149,0.0],[-66.0882,-48.1121,5.7733],[-66.0788,-48.1101,0.3216],[-66.066,-48.1113,-0.4539],[-66.0665,-48.1135,0.161],[-66.0632,-48.1137,0.1526],[-66.0643,-48.1199,0.3179],[-66.0599,-48.1204,-0.1558],[-66.0601,-48.1149,-0.0521],[-66.0554,-48.1151,0.2746],[-66.0568,-48.1093,12.1403],[-66.0434,-48.1049,0.7272],[-66.0293,-48.1057,7.68],[-66.0271,-48.1071,7.0929],[-66.0276,-48.1096,1.3372],[-66.0307,-48.1107,0.0],[-66.0304,-48.1126,-0.0392],[-66.0287,-48.1129,0.9589],[-66.0268,-48.1129,0.0111],[-66.0265,-48.111,1.3372],[-66.0221,-48.1084,1.4638],[-66.016,-48.1099,0.0],[-66.0137,-48.1054,6.8657],[-66.009,-48.1037,2.263],[-66.0051,-48.1037,4.7923],[-66.0004,-48.1074,0.0],[-65.9951,-48.106,2.0073],[-65.9938,-48.1104,-0.0681],[-65.9921,-48.1107,-0.171],[-65.9879,-48.1093,0.0499],[-65.9887,-48.1071,-0.0316],[-65.991,-48.1065,2.0084],[-65.9893,-48.1035,2.1072],[-65.9818,-48.1004,5.3652],[-65.9765,-48.1001,2.422],[-65.9735,-48.1021,0.2154],[-65.9657,-48.101,9.5561],[-65.9601,-48.1021,1.104],[-65.9599,-48.104,0.3726],[-65.9543,-48.1026,9.593],[-65.9507,-48.1046,0.0],[-65.9479,-48.1074,3.9705],[-65.9482,-48.1096,0.0],[-65.9454,-48.1096,4.9684],[-65.9438,-48.1129,1.5406],[-65.9451,-48.1165,5.7378],[-65.949,-48.1171,1.4791],[-65.9474,-48.1193,3.8589],[-65.9488,-48.1207,0.5656],[-65.9401,-48.1221,0.0],[-65.9362,-48.1204,0.0217],[-65.9424,-48.1174,3.5972],[-65.9393,-48.1162,0.1315],[-65.9413,-48.1154,0.0579],[-65.9399,-48.1123,4.4912],[-65.9351,-48.1124,3.8192],[-65.9354,-48.1143,0.0],[-65.9321,-48.116,0.7923],[-65.9293,-48.116,2.0525],[-65.9287,-48.1135,0.9916],[-65.9276,-48.1146,-0.0732],[-65.926,-48.1132,-0.1107],[-65.926,-48.1165,0.0],[-65.9235,-48.1174,0.0],[-65.9212,-48.1135,0.0],[-65.9151,-48.111,0.3839],[-65.9137,-48.1079,0.6634],[-65.9074,-48.1068,-0.0033],[-65.9074,-48.1051,0.2433],[-65.9174,-48.1049,4.2496],[-65.9143,-48.1035,0.0],[-65.9157,-48.0982,1.1751],[-65.9037,-48.1037,0.0],[-65.9085,-48.1001,1.0723],[-65.9068,-48.0996,0.6247],[-65.9079,-48.0968,0.5569],[-65.9054,-48.0949,2.359],[-65.9049,-48.0974,0.573],[-65.9021,-48.099,3.0267],[-65.9032,-48.1007,0.3192],[-65.899,-48.1021,0.0862],[-65.8982,-48.1049,0.0],[-65.8915,-48.1015,-0.0895],[-65.8951,-48.0999,0.806],[-65.8982,-48.0954,0.3926],[-65.9046,-48.0937,-0.1237],[-65.9026,-48.0918,-0.2008],[-65.8965,-48.091,0.2076],[-65.9054,-48.089,1.464],[-65.9088,-48.0854,2.8326],[-65.9115,-48.0849,3.341],[-65.9118,-48.0835,2.5838],[-65.909,-48.0832,2.4197],[-65.9099,-48.0812,0.6622],[-65.9171,-48.0785,0.0],[-65.924,-48.0782,3.012],[-65.9268,-48.0757,0.0],[-65.9315,-48.0779,0.0],[-65.9346,-48.0768,1.7062],[-65.9343,-48.0754,0.2064],[-65.9404,-48.0757,1.1216],[-65.949,-48.0726,2.7792],[-65.9515,-48.0693,2.5876],[-65.9485,-48.0713,2.7792],[-65.9488,-48.0693,0.3307],[-65.9468,-48.0693,0.0],[-65.9476,-48.0665,0.9045],[-65.9532,-48.069,2.8293],[-65.9568,-48.0687,3.1519],[-65.9638,-48.0615,2.9234],[-65.9693,-48.0524,2.2631],[-65.9721,-48.0537,2.2597],[-65.9704,-48.051,0.7793],[-65.9721,-48.0482,0.1101],[-65.9746,-48.0479,1.7227],[-65.9693,-48.0457,0.055],[-65.971,-48.0446,1.2548],[-65.9646,-48.0449,0.082],[-65.9626,-48.0426,2.5494],[-65.9571,-48.0412,0.0],[-65.9557,-48.0365,0.0],[-65.9515,-48.0349,0.0],[-65.9504,-48.0324,0.8327],[-65.9426,-48.0329,0.4616],[-65.9402,-48.0309,0.0],[-65.9413,-48.0274,0.0],[-65.9468,-48.0274,0.0],[-65.9468,-48.0238,0.0],[-65.9488,-48.0218,0.0],[-65.9571,-48.0196,5.4028],[-65.9551,-48.0154,3.4841],[-65.9479,-48.0137,1.393],[-65.9471,-48.0168,0.0937],[-65.9435,-48.0168,-0.0188],[-65.9318,-48.016,0.0],[-65.9313,-48.0146,0.0],[-65.9332,-48.0101,0.0],[-65.9379,-48.0101,0.6582],[-65.9362,-48.0082,0.0819],[-65.9435,-48.0085,9.5779],[-65.9457,-48.0062,8.6062],[-65.9429,-48.0015,3.9966],[-65.939,-48.0035,0.0],[-65.9343,-48.0026,0.4813],[-65.9346,-47.9976,2.4849],[-65.9326,-47.9957,3.1562],[-65.931,-47.9974,0.6677],[-65.9265,-47.996,0.0],[-65.929,-47.9924,0.0],[-65.9254,-47.9924,0.392],[-65.9238,-47.9899,0.3623],[-65.9268,-47.9899,1.5851],[-65.9301,-47.9865,0.3091],[-65.9371,-47.9899,3.3133],[-65.9401,-47.9871,0.7772],[-65.9421,-47.9815,0.4172],[-65.9454,-47.9837,2.1161],[-65.9485,-47.9837,6.1134],[-65.9515,-47.9807,7.7061],[-65.951,-47.9707,13.0816],[-65.9418,-47.9543,12.0655],[-65.9335,-47.9457,14.1676],[-65.9232,-47.939,7.2041],[-65.9146,-47.9349,0.0],[-65.9021,-47.9315,2.5819],[-65.8946,-47.9315,1.9408],[-65.8901,-47.9337,-0.062],[-65.8804,-47.9334,3.6433],[-65.8704,-47.9362,9.8805],[-65.8715,-47.9382,-0.1081],[-65.8699,-47.9385,2.827],[-65.869,-47.9432,2.9967],[-65.8737,-47.9432,0.0],[-65.8729,-47.9446,5.9046],[-65.8746,-47.9465,0.0],[-65.8682,-47.946,1.7045],[-65.8657,-47.944,0.8144],[-65.8676,-47.9418,0.3971],[-65.8654,-47.9387,7.323],[-65.8615,-47.9399,0.0],[-65.8573,-47.9365,5.1465],[-65.8382,-47.9404,7.6455],[-65.8363,-47.9462,5.0931],[-65.8407,-47.9501,0.0],[-65.8421,-47.9551,1.0113],[-65.841,-47.9574,0.8412],[-65.8432,-47.961,0.4278],[-65.8404,-47.961,14.7166],[-65.8396,-47.9637,0.0],[-65.8376,-47.9643,0.4804],[-65.836,-47.9632,0.0],[-65.8376,-47.9612,10.7933],[-65.8371,-47.9593,13.1845],[-65.8337,-47.9576,15.3767],[-65.8315,-47.959,2.7725],[-65.8337,-47.9615,1.2849],[-65.8324,-47.9657,0.0],[-65.8296,-47.9657,0.0],[-65.8288,-47.9632,1.503],[-65.8254,-47.9632,0.0],[-65.8257,-47.9612,5.8529],[-65.821,-47.9604,0.2124],[-65.821,-47.9568,5.7495],[-65.816,-47.9565,0.2697],[-65.8118,-47.9612,0.2287],[-65.8063,-47.9612,0.9774],[-65.8054,-47.9596,0.8604],[-65.8037,-47.961,0.8604],[-65.8046,-47.9582,0.5026],[-65.801,-47.9571,0.0],[-65.7999,-47.9512,13.5948],[-65.7904,-47.9532,0.0],[-65.7893,-47.9518,2.0659],[-65.7782,-47.9507,21.4333],[-65.7688,-47.9532,0.0],[-65.764,-47.9496,0.0],[-65.7674,-47.9446,2.3553],[-65.7874,-47.9465,31.2924],[-65.789,-47.9449,1.8693],[-65.7876,-47.944,1.1097],[-65.7893,-47.9432,10.0413],[-65.7885,-47.9405,0.0],[-65.7907,-47.9382,0.0],[-65.7924,-47.9396,20.321],[-65.7949,-47.939,5.6287],[-65.7943,-47.9354,7.6306],[-65.7907,-47.9362,2.3872],[-65.7874,-47.9349,0.3685],[-65.794,-47.9304,11.0816],[-65.7932,-47.9265,1.4288],[-65.7887,-47.9221,1.7313],[-65.7835,-47.9235,0.0],[-65.7785,-47.9226,1.0428],[-65.7768,-47.9204,8.6552],[-65.7629,-47.9196,0.0],[-65.7663,-47.9179,1.6365],[-65.7615,-47.9168,0.0],[-65.7637,-47.914,0.0],[-65.7699,-47.9135,2.6698],[-65.7704,-47.9115,0.0],[-65.7751,-47.9115,7.4313],[-65.7676,-47.9082,0.0],[-65.7676,-47.9068,0.3068],[-65.7821,-47.909,13.5031],[-65.7868,-47.9065,1.7343],[-65.7879,-47.9038,0.1802],[-65.7926,-47.9043,1.2276],[-65.7935,-47.9024,1.3132],[-65.7993,-47.9023,0.0],[-65.7999,-47.9035,7.4424],[-65.8101,-47.9026,0.0],[-65.8204,-47.9046,10.0574],[-65.8204,-47.9032,0.1606],[-65.8262,-47.9026,4.4064],[-65.8279,-47.9001,0.3504],[-65.8313,-47.8987,1.3577],[-65.8318,-47.8946,0.0],[-65.8351,-47.8935,0.6822],[-65.8429,-47.8951,3.8115],[-65.8454,-47.8926,8.4852],[-65.8485,-47.8862,0.0],[-65.8524,-47.8824,4.1863],[-65.8526,-47.8785,0.0],[-65.8607,-47.8699,9.1732],[-65.8607,-47.8601,0.0],[-65.864,-47.8501,13.1314],[-65.8635,-47.8368,3.4321],[-65.8663,-47.8265,0.4007],[-65.8754,-47.8101,0.0],[-65.8757,-47.806,4.2432],[-65.8743,-47.804,1.5885],[-65.8782,-47.8024,5.1115],[-65.881,-47.7979,1.0868],[-65.881,-47.7949,0.0],[-65.8751,-47.7926,0.0],[-65.8804,-47.7935,1.2173],[-65.8796,-47.7912,0.0],[-65.8821,-47.7907,2.1067],[-65.8854,-47.7857,0.0],[-65.8851,-47.7765,0.0],[-65.8801,-47.7762,1.5864],[-65.8793,-47.7743,0.0],[-65.8843,-47.7726,0.4096],[-65.8854,-47.7704,0.0],[-65.8974,-47.7676,1.2994],[-65.8979,-47.7657,1.861],[-65.8951,-47.7635,1.0122],[-65.8927,-47.7637,0.0],[-65.8987,-47.7626,0.0],[-65.899,-47.759,1.4741],[-65.8818,-47.7557,0.74],[-65.8812,-47.754,3.7557],[-65.876,-47.7521,2.5189],[-65.869,-47.7529,2.4108],[-65.861,-47.7507,18.7935],[-65.8554,-47.7515,0.0],[-65.8521,-47.7496,0.0],[-65.8529,-47.7482,0.0],[-65.8515,-47.7457,10.3108],[-65.8473,-47.7474,0.5002],[-65.8471,-47.7454,5.1472],[-65.8421,-47.7435,0.2498],[-65.8454,-47.7396,6.0931],[-65.8454,-47.7349,7.8073],[-65.8354,-47.7174,5.1929],[-65.8321,-47.714,0.0],[-65.8187,-47.6854,3.3439],[-65.8193,-47.6837,6.4604],[-65.7918,-47.636,5.2816],[-65.7818,-47.6099,0.0],[-65.7804,-47.6026,0.6547],[-65.7732,-47.5896,0.0],[-65.7663,-47.5818,0.0],[-65.7654,-47.5765,8.8638],[-65.7588,-47.5632,3.1248],[-65.7557,-47.5529,0.0],[-65.7554,-47.5457,0.0],[-65.7476,-47.5221,0.0],[-65.7401,-47.5121,5.2103],[-65.7385,-47.5018,0.0],[-65.7382,-47.476,0.7026],[-65.7321,-47.4571,4.6631],[-65.729,-47.4307,0.0],[-65.726,-47.4179,1.4626],[-65.7265,-47.3854,1.7996],[-65.7251,-47.3751,0.0],[-65.7213,-47.3634,6.43],[-65.7185,-47.3284,0.0],[-65.7237,-47.3174,7.4144],[-65.7254,-47.3068,3.1427],[-65.7324,-47.2899,8.2785],[-65.7335,-47.2815,0.0],[-65.7376,-47.2723,0.0],[-65.744,-47.2635,9.6292],[-65.7465,-47.256,6.1125],[-65.7468,-47.2468,0.6743],[-65.7554,-47.2351,4.1013],[-65.7582,-47.226,4.8901],[-65.7562,-47.2146,0.0],[-65.7526,-47.2104,8.9577],[-65.7462,-47.2068,2.7913],[-65.7413,-47.2071,4.8529],[-65.7393,-47.211,14.5143],[-65.7365,-47.2101,1.0063],[-65.739,-47.2062,0.5056],[-65.7368,-47.2029,1.7731],[-65.7374,-47.2012,0.0],[-65.7404,-47.2024,2.286],[-65.7501,-47.1999,9.9019],[-65.7751,-47.1857,6.5556],[-65.7999,-47.1679,4.0421],[-65.807,-47.159,0.0],[-65.814,-47.1557,1.7741],[-65.8138,-47.1546,0.0],[-65.8163,-47.1549,6.6342],[-65.8187,-47.1524,0.0],[-65.8301,-47.1479,0.0],[-65.8393,-47.1415,14.2262],[-65.849,-47.1312,7.4429],[-65.8518,-47.1254,4.8679],[-65.8524,-47.1101,-0.4982],[-65.8557,-47.1082,6.5409],[-65.8649,-47.1071,9.002],[-65.8712,-47.101,0.1369],[-65.8732,-47.0968,11.6426],[-65.8935,-47.0985,19.3336],[-65.9024,-47.0965,17.9282],[-65.9229,-47.0887,13.2409],[-65.9282,-47.0851,0.0],[-65.934,-47.0851,16.4603],[-65.9365,-47.0835,11.5313],[-65.9376,-47.0799,8.7437],[-65.9421,-47.0785,15.4058],[-65.9437,-47.0762,0.0],[-65.9454,-47.0776,5.1117],[-65.954,-47.0779,0.0],[-65.9621,-47.0749,3.8101],[-65.9743,-47.0737,2.7744],[-65.9751,-47.0721,0.0],[-65.9784,-47.0715,7.9033],[-65.984,-47.074,3.4334],[-65.9846,-47.076,12.6526],[-65.9899,-47.076,6.5091],[-66.0013,-47.0726,0.8348],[-66.016,-47.0746,11.994],[-66.0437,-47.0715,4.6973],[-66.0693,-47.0746,7.557],[-66.1012,-47.0857,7.6406],[-66.1182,-47.0832,5.9969],[-66.1393,-47.084,6.3468],[-66.159,-47.0818,6.0219],[-66.1807,-47.0882,17.845],[-66.2132,-47.0868,7.434],[-66.2396,-47.0799,7.6701],[-66.2804,-47.0768,11.3564],[-66.2857,-47.0735,9.4203],[-66.2949,-47.0713,12.8627],[-66.3074,-47.0729,0.0],[-66.3238,-47.0721,16.485],[-66.3293,-47.0699,6.5314],[-66.3487,-47.0696,33.5434],[-66.391,-47.0615,19.0215],[-66.4043,-47.0574,0.0],[-66.4174,-47.0574,17.8243],[-66.424,-47.0546,17.9959],[-66.4396,-47.0535,15.1732],[-66.4565,-47.0482,10.7987],[-66.5071,-47.041,0.0],[-66.5351,-47.0462,0.0],[-66.539,-47.0482,14.3887],[-66.5515,-47.0496,39.6281],[-66.5629,-47.049,6.9509],[-66.569,-47.0457,0.0],[-66.5813,-47.0465,7.743],[-66.5921,-47.0418,4.7475],[-66.6023,-47.0421,7.0481],[-66.6121,-47.046,8.2287],[-66.6282,-47.0468,7.3945],[-66.6401,-47.0449,6.7811],[-66.6485,-47.0407,3.8068],[-66.6546,-47.0329,0.0],[-66.6607,-47.0299,3.0092],[-66.6743,-47.0302,2.7508],[-66.6918,-47.0357,9.6083],[-66.706,-47.0351,7.3231],[-66.714,-47.0332,7.1105],[-66.759,-47.0171,24.8334],[-66.7887,-47.0018,9.3993],[-66.7946,-46.9971,9.5263],[-66.7957,-46.9926,0.0],[-66.8049,-46.9843,0.0],[-66.8243,-46.9729,3.5926],[-66.8504,-46.9538,3.0159],[-66.8571,-46.946,0.0],[-66.8557,-46.9379,7.8798],[-66.8599,-46.9332,4.2939],[-66.8662,-46.9346,28.2575],[-66.8768,-46.9329,2.7903],[-66.8838,-46.9276,1.04],[-66.8913,-46.9151,0.935],[-66.9013,-46.9099,2.3539],[-66.9068,-46.9012,0.7345],[-66.921,-46.8879,0.0],[-66.9251,-46.8812,3.507],[-66.9379,-46.8726,11.457],[-66.9404,-46.8688,28.9335],[-66.9399,-46.8651,36.2022],[-66.9504,-46.8585,61.9739],[-66.954,-46.8526,0.3693],[-66.959,-46.8504,0.9082],[-66.9707,-46.8504,9.249],[-66.9818,-46.8446,19.2916],[-66.9871,-46.8387,20.7945],[-66.9874,-46.8354,0.0],[-66.991,-46.831,0.0],[-67.0287,-46.8135,5.0252],[-67.0443,-46.8007,0.0],[-67.0529,-46.7876,0.0],[-67.074,-46.7757,1.3215],[-67.0829,-46.7663,2.1507],[-67.089,-46.7546,0.0],[-67.0968,-46.751,0.0],[-67.1073,-46.7368,0.0],[-67.1162,-46.7326,0.0],[-67.1237,-46.7249,0.0],[-67.1257,-46.7215,9.3893],[-67.1254,-46.7151,0.0],[-67.1332,-46.7076,5.1089],[-67.131,-46.7051,0.0],[-67.1276,-46.7046,0.0],[-67.1282,-46.7018,0.0],[-67.1343,-46.7029,0.0],[-67.1354,-46.7007,0.0],[-67.1415,-46.6993,0.0],[-67.1418,-46.7035,0.0],[-67.1449,-46.7038,0.5093],[-67.1504,-46.7007,0.0],[-67.1476,-46.6999,0.0],[-67.149,-46.6974,0.0],[-67.154,-46.6968,0.0],[-67.1549,-46.6979,0.0],[-67.1565,-46.6968,0.0],[-67.1568,-46.6957,0.0],[-67.1524,-46.6951,0.0],[-67.1521,-46.6935,0.0],[-67.1626,-46.6904,0.0],[-67.1657,-46.6904,0.0],[-67.1674,-46.693,3.0846],[-67.1704,-46.6926,0.0],[-67.1724,-46.6915,2.177],[-67.1701,-46.6896,0.0],[-67.1726,-46.6865,0.0],[-67.1785,-46.6929,0.0],[-67.1829,-46.6937,10.8806],[-67.1971,-46.6901,9.9193],[-67.2093,-46.6813,9.8113],[-67.229,-46.6749,3.991],[-67.2337,-46.6718,10.1122],[-67.2412,-46.6637,10.8008],[-67.2495,-46.6493,0.4557],[-67.2565,-46.6446,4.6032],[-67.2649,-46.6424,1.0187],[-67.2754,-46.6426,2.0252],[-67.2877,-46.6355,0.0],[-67.2999,-46.6338,1.2136],[-67.306,-46.6307,0.0],[-67.3107,-46.6318,3.0694],[-67.3224,-46.6287,0.0],[-67.3268,-46.629,0.4864],[-67.3399,-46.6232,0.0],[-67.3501,-46.621,0.0],[-67.3612,-46.6143,0.0],[-67.3645,-46.6104,0.0],[-67.3768,-46.6065,8.1915],[-67.3896,-46.5971,1.9635],[-67.399,-46.5882,8.5593],[-67.4043,-46.5779,0.0],[-67.4088,-46.5765,16.7573],[-67.419,-46.5693,1.2149],[-67.4221,-46.5651,0.0],[-67.4304,-46.5593,0.0],[-67.4377,-46.5493,0.0],[-67.4393,-46.549,0.0],[-67.454,-46.5243,0.0],[-67.4601,-46.5179,1.4872],[-67.4649,-46.5065,0.0],[-67.4687,-46.5026,5.3094],[-67.4679,-46.501,0.0],[-67.4721,-46.4979,0.0],[-67.4765,-46.4912,0.0],[-67.4815,-46.4882,1.0916],[-67.4852,-46.4793,2.4644],[-67.4932,-46.4718,0.42],[-67.4927,-46.4626,0.0],[-67.494,-46.4593,0.0],[-67.4968,-46.4579,0.0],[-67.5018,-46.4498,7.8992],[-67.5135,-46.4376,0.0],[-67.5135,-46.4324,0.0],[-67.5293,-46.4115,5.7119],[-67.5338,-46.4018,0.0],[-67.5413,-46.3949,2.2642],[-67.5413,-46.3904,0.0],[-67.5465,-46.3829,4.5177],[-67.5473,-46.3779,0.0],[-67.5493,-46.3776,0.2748],[-67.5524,-46.3732,0.0],[-67.5701,-46.3429,0.0],[-67.5879,-46.3051,4.9505],[-67.5899,-46.2974,1.4284],[-67.5926,-46.294,1.3105],[-67.5929,-46.2896,0.2921],[-67.5996,-46.274,0.5031],[-67.616,-46.2215,0.0],[-67.6221,-46.194,0.0],[-67.6274,-46.1568,3.748],[-67.6282,-46.124,1.0913],[-67.6276,-46.1146,3.3737],[-67.6254,-46.1101,0.261],[-67.6268,-46.1054,5.8047],[-67.6251,-46.1043,1.346],[-67.6265,-46.1029,2.6458],[-67.6251,-46.1004,2.8393],[-67.6271,-46.0937,6.9153],[-67.6271,-46.0821,7.9153],[-67.6251,-46.0785,6.4167],[-67.621,-46.0765,0.0],[-67.6249,-46.0754,8.4479],[-67.6243,-46.0721,0.0],[-67.6218,-46.0715,0.0],[-67.6196,-46.0729,0.0],[-67.6132,-46.0704,0.0],[-67.6137,-46.0676,0.0],[-67.6115,-46.0643,0.0],[-67.6121,-46.0624,0.0],[-67.6246,-46.0618,0.0],[-67.6257,-46.0526,3.2242],[-67.6229,-46.0479,8.9038],[-67.6182,-46.0496,0.0],[-67.614,-46.0468,0.0],[-67.6099,-46.0474,0.0],[-67.6079,-46.0457,0.0],[-67.601,-46.0457,0.0],[-67.5979,-46.044,0.0],[-67.5968,-46.0393,0.0],[-67.5985,-46.0387,0.0],[-67.599,-46.0357,0.0],[-67.5935,-46.0368,0.0],[-67.5926,-46.0357,0.0],[-67.5965,-46.0329,0.0],[-67.5904,-46.0293,0.0],[-67.5926,-46.0288,0.0],[-67.5918,-46.0274,0.0],[-67.5937,-46.0262,0.0],[-67.5815,-46.0229,0.0],[-67.5868,-46.0201,0.0],[-67.5888,-46.0168,0.0],[-67.5804,-46.0129,0.0],[-67.5801,-46.0115,0.0],[-67.584,-46.0118,0.0],[-67.5893,-46.009,0.0],[-67.589,-46.0024,0.0],[-67.5907,-45.9979,0.0],[-68.2259,-46.0041,689.9526]]]]}}