{"type":"Feature","properties":{"GID_2":"ARG.1.48_1","GID_0":"ARG","country":"Argentina","GID_1":"ARG.1_1","state":"BuenosAires","NL_NAME_1":"NA","county":"GeneralLasHeras","VARNAME_2":"NA","NL_NAME_2":"NA","TYPE_2":"Partido","ENGTYPE_2":"Part","CC_2":"NA","HASC_2":"AR.BA.GH","name":"GeneralLasHeras.county"},
"geometry":{"type": "MultiPolygon","coordinates": [[[[-58.7922,-34.9605,20.0231],[-58.8619,-34.907,31.8897],[-58.8453,-34.892,28.1722],[-58.9207,-34.8343,35.017],[-58.9305,-34.8179,30.8661],[-58.9523,-34.8343,34.3426],[-59.0391,-34.7725,27.8775],[-59.0409,-34.7704,28.0527],[-59.04,-34.7681,28.687],[-59.0741,-34.7394,34.0011],[-59.0725,-34.7367,33.6367],[-59.0907,-34.7201,29.6839],[-59.0947,-34.7214,29.5462],[-59.105,-34.7321,31.155],[-59.1168,-34.7512,31.6781],[-59.1314,-34.7641,33.2637],[-59.1446,-34.7823,34.9439],[-59.1549,-34.7901,35.7534],[-59.1672,-34.8074,37.5972],[-59.2227,-34.8575,42.2849],[-59.1603,-34.9047,38.2437],[-59.077,-34.9642,36.7964],[-58.9996,-35.0246,36.305],[-59.0191,-35.0415,34.4699],[-58.9391,-35.1036,31.1576],[-58.8817,-35.0525,31.3336],[-58.8677,-35.0443,32.018],[-58.7829,-34.967,20.7952],[-58.7922,-34.9605,20.0231]]]]}}