{"type": "Feature","bbox": [-63.7886,-28.9036,-62.6849,-28.224],"geometry": {"type": "MultiPolygon","coordinates": [[[[-62.6849,-28.8585,95.6905],[-62.6985,-28.839,96.716],[-62.694,-28.8304,97.3566],[-62.6943,-28.8207,96.4648],[-62.6982,-28.8173,96.8449],[-62.7174,-28.8076,96.0136],[-62.7179,-28.8033,95.6525],[-62.715,-28.7937,96.4971],[-62.7161,-28.7891,97.0395],[-62.7298,-28.7825,96.519],[-62.7274,-28.7782,97.0922],[-62.7273,-28.7736,97.1543],[-62.73,-28.7694,97.01],[-62.7442,-28.762,98.6801],[-62.7496,-28.7624,99.039],[-62.7547,-28.7607,100.0943],[-62.7625,-28.7478,99.6923],[-62.7632,-28.7432,99.8455],[-62.7549,-28.7306,99.6145],[-62.7543,-28.7258,98.7374],[-62.7492,-28.7176,99.3682],[-62.7483,-28.7031,100.1818],[-62.7561,-28.6853,102.0523],[-62.7568,-28.6708,102.2901],[-62.7602,-28.6616,100.8841],[-62.7641,-28.6584,102.103],[-62.7804,-28.6563,101.2531],[-62.7955,-28.6507,102.0029],[-62.8077,-28.6412,102.1537],[-62.8218,-28.6338,102.8428],[-62.8263,-28.6253,102.776],[-62.8347,-28.619,103.5119],[-62.8392,-28.6163,104.2209],[-62.8502,-28.616,104.116],[-62.8605,-28.6136,104.4471],[-62.8765,-28.6006,104.3845],[-62.8957,-28.5921,105.5201],[-62.9078,-28.5823,106.0568],[-62.9146,-28.5642,105.1272],[-62.9085,-28.536,106.3617],[-62.9049,-28.5322,105.912],[-62.9061,-28.5278,105.7431],[-62.9176,-28.5176,108.8196],[-62.9197,-28.5132,108.6634],[-62.9207,-28.5037,108.5586],[-62.9396,-28.4945,109.7728],[-62.9563,-28.4821,110.5144],[-62.963,-28.4689,110.4176],[-62.9728,-28.4648,109.7378],[-62.9888,-28.462,110.3794],[-62.9989,-28.4583,111.3277],[-63.008,-28.4529,109.8097],[-63.0149,-28.4457,112.4391],[-63.0305,-28.4418,111.1984],[-63.0431,-28.4325,111.5421],[-63.0531,-28.4288,110.4235],[-63.0571,-28.4255,112.5423],[-63.0776,-28.4184,112.0982],[-63.0807,-28.4148,112.4584],[-63.0835,-28.4004,113.4609],[-63.084,-28.3668,114.8924],[-63.098,-28.3524,114.2688],[-63.1124,-28.3457,117.496],[-63.121,-28.3398,115.5831],[-63.1264,-28.3315,115.8006],[-63.1273,-28.3267,116.4356],[-63.1257,-28.3223,116.0899],[-63.1155,-28.3101,117.8227],[-63.2617,-28.3087,120.3742],[-63.2628,-28.3418,118.0323],[-63.3763,-28.3232,119.2964],[-63.3759,-28.3108,120.4702],[-63.3924,-28.3069,121.2137],[-63.4663,-28.2243,125.8489],[-63.478,-28.224,123.8042],[-63.4818,-28.257,124.8519],[-63.5268,-28.2498,125.3711],[-63.5294,-28.266,124.5999],[-63.5409,-28.265,124.9095],[-63.5422,-28.271,124.3973],[-63.5827,-28.266,127.0993],[-63.5868,-28.2816,125.6225],[-63.6113,-28.2802,126.8339],[-63.6181,-28.3165,123.9872],[-63.6536,-28.3142,124.9496],[-63.6607,-28.356,126.0073],[-63.7307,-28.3525,127.6295],[-63.7345,-28.3748,126.4127],[-63.7216,-28.3833,123.6257],[-63.7886,-28.4354,124.4114],[-63.7735,-28.4473,122.4715],[-63.7672,-28.4568,125.8067],[-63.7668,-28.4606,121.8005],[-63.7639,-28.4635,128.8927],[-63.7601,-28.4651,125.497],[-63.7524,-28.4628,124.3312],[-63.7454,-28.4693,123.4371],[-63.7332,-28.4719,122.5275],[-63.7222,-28.4816,124.5804],[-63.7104,-28.4882,122.152],[-63.7068,-28.4989,122.2097],[-63.7141,-28.5136,117.4718],[-63.7141,-28.5338,119.7023],[-63.7049,-28.5339,118.4899],[-63.6872,-28.5551,116.5307],[-63.6816,-28.5672,116.1006],[-63.6794,-28.5657,115.9427],[-63.6743,-28.556,115.9802],[-63.6719,-28.5554,116.1542],[-63.6696,-28.5572,115.5287],[-63.667,-28.5644,115.7],[-63.6587,-28.5688,115.3205],[-63.6602,-28.5736,114.643],[-63.6567,-28.5773,114.576],[-63.6527,-28.5786,114.7715],[-63.6457,-28.5772,116.1129],[-63.6418,-28.5779,114.5959],[-63.6281,-28.5869,114.1755],[-63.6183,-28.5871,115.1834],[-63.6114,-28.5916,114.2889],[-63.5976,-28.5937,114.1657],[-63.5747,-28.6035,112.5404],[-63.5658,-28.6115,114.2088],[-63.5616,-28.6235,112.19],[-63.5566,-28.6294,110.8954],[-63.5534,-28.6424,111.4176],[-63.5382,-28.6309,111.3189],[-63.5333,-28.6081,114.2182],[-63.4834,-28.6121,109.9617],[-63.4823,-28.5853,110.5394],[-63.3761,-28.5971,108.8341],[-63.3762,-28.6301,107.5751],[-63.3348,-28.6304,107.4118],[-63.335,-28.6595,106.5448],[-63.2473,-28.6595,106.7072],[-63.2607,-28.7601,103.531],[-63.1391,-28.7734,102.4947],[-63.1416,-28.8276,101.7585],[-63.0935,-28.8287,100.6923],[-63.0941,-28.9036,98.0442],[-62.9159,-28.903,96.6323],[-62.9148,-28.8588,99.3123],[-62.6849,-28.8585,95.6905]]]]}
,"properties": {"GID_2": "ARG.22.4_1","GID_0": "ARG","country": "Argentina","GID_1": "ARG.22_1","state": "SantiagodelEstero","NL_NAME_1": "NA","county": "Avellaneda","VARNAME_2": "Herrera","NL_NAME_2": "NA","TYPE_2": "Departamento","ENGTYPE_2": "Department","CC_2": "NA","HASC_2": "AR.SE.AV","name": "Avellaneda.county","area_km2": 3737.325,"hist_schema_id": "Elevation0-9000","hist_area_km2": {"100": 2191.798,"125": 1545.527}}}