{"type":"Feature","properties":{"GID_2":"ARG.7.3_1","GID_0":"ARG","country":"Argentina","GID_1":"ARG.7_1","state":"Corrientes","NL_NAME_1":"NA","county":"Capital","VARNAME_2":"Corrientes|Capital(Corrientes)","NL_NAME_2":"NA","TYPE_2":"Departamento","ENGTYPE_2":"Department","CC_2":"NA","HASC_2":"AR.CN.CN","name":"Capital.county"},
"geometry":{"type": "MultiPolygon","coordinates": [[[[-58.7697,-27.3819,47.3745],[-58.8023,-27.4122,43.5],[-58.8159,-27.4334,47.4034],[-58.8316,-27.4499,43.5],[-58.8561,-27.4658,43.0],[-58.8725,-27.4727,43.0],[-58.8849,-27.4804,43.0],[-58.8872,-27.4822,43.6861],[-58.889,-27.4873,47.6092],[-58.8882,-27.5036,48.4189],[-58.8802,-27.5182,43.0],[-58.8733,-27.5271,44.9147],[-58.8692,-27.543,45.9104],[-58.87,-27.5536,46.5078],[-58.8778,-27.5683,47.5918],[-58.8796,-27.6008,43.0],[-58.8777,-27.6058,43.0],[-58.8625,-27.6229,49.3623],[-58.8532,-27.6297,44.3418],[-58.8392,-27.6538,42.5],[-58.8315,-27.6621,42.5],[-58.8205,-27.6558,44.989],[-58.8152,-27.6492,42.5],[-58.8078,-27.6463,43.8527],[-58.7959,-27.6459,58.6536],[-58.751,-27.6312,60.2679],[-58.7196,-27.6272,56.8034],[-58.6825,-27.6151,59.8144],[-58.6637,-27.6067,63.9419],[-58.6695,-27.6013,59.6537],[-58.6691,-27.5977,59.9141],[-58.6619,-27.5773,59.838],[-58.6469,-27.5444,55.0454],[-58.6407,-27.5093,57.8624],[-58.6323,-27.5019,59.1906],[-58.6247,-27.5006,57.8011],[-58.6335,-27.4721,57.375],[-58.65,-27.4736,58.7532],[-58.6497,-27.4785,58.5198],[-58.658,-27.48,57.9],[-58.6646,-27.473,59.5954],[-58.6753,-27.4742,57.8463],[-58.6699,-27.4263,61.9462],[-58.6885,-27.4014,59.8907],[-58.6938,-27.3975,57.806],[-58.7051,-27.3782,51.8578],[-58.7092,-27.3751,53.6381],[-58.7146,-27.3669,44.5],[-58.7192,-27.3682,44.5],[-58.7388,-27.3809,44.0],[-58.7507,-27.3826,44.0],[-58.7626,-27.3804,47.4954],[-58.7697,-27.3819,47.3745]]]]}}