{"type": "Feature","bbox": [-68.4744,-31.4556,-67.7847,-30.9205],"geometry": {"type": "MultiPolygon","coordinates": [[[[-68.4744,-31.4516,610.6549],[-68.4649,-31.4556,608.6826],[-68.4556,-31.449,607.2574],[-68.4499,-31.4469,606.3792],[-68.4155,-31.4534,600.796],[-68.3633,-31.4556,593.7825],[-68.0265,-31.4512,2389.0566],[-68.0188,-31.4382,2435.5186],[-68.0013,-31.4153,2208.1423],[-67.964,-31.3816,2438.7144],[-67.9371,-31.3511,3001.1997],[-67.9145,-31.3214,3113.7502],[-67.9006,-31.2967,3103.0984],[-67.8961,-31.2865,2905.9385],[-67.8849,-31.241,2949.2808],[-67.8752,-31.1898,2549.7126],[-67.8714,-31.1515,2197.2014],[-67.8548,-31.1189,1900.0305],[-67.8035,-31.0298,643.3873],[-67.7847,-30.9936,643.1731],[-67.8253,-30.9836,646.2246],[-67.8778,-30.9645,648.5648],[-67.9133,-30.9415,651.598],[-67.9212,-30.933,653.8895],[-67.9293,-30.9205,656.059],[-68.3353,-30.9221,762.4164],[-68.3354,-31.2847,583.4398],[-68.361,-31.3056,582.9169],[-68.3992,-31.3406,590.8567],[-68.4398,-31.3933,600.611],[-68.461,-31.4432,606.8354],[-68.4644,-31.4472,608.4927],[-68.4744,-31.4516,610.6549]]]]}
,"properties": {"GID_2": "ARG.18.2_1","GID_0": "ARG","country": "Argentina","GID_1": "ARG.18_1","state": "SanJuan","NL_NAME_1": "NA","county": "Angaco","VARNAME_2": "VilladelSalvador","NL_NAME_2": "NA","TYPE_2": "Departamento","ENGTYPE_2": "Department","CC_2": "NA","HASC_2": "AR.SJ.AN","name": "Angaco.county","area_km2": 2647.995,"hist_schema_id": "Elevation0-9000","hist_area_km2": {"575": 189.127,"600": 265.754,"625": 77.139,"650": 334.026,"675": 278.384,"700": 170.628,"725": 141.944,"750": 89.816,"775": 64.307,"800": 44.24,"825": 34.428,"850": 31.688,"875": 28.564,"900": 25.567,"925": 21.085,"950": 17.641,"975": 15.792,"1000": 14.993,"1025": 13.526,"1050": 12.42,"1075": 11.767,"1100": 12.728,"1125": 12.364,"1150": 11.675,"1175": 11.44,"1200": 11.73,"1225": 11.132,"1250": 10.897,"1275": 10.679,"1300": 9.682,"1325": 10.225,"1350": 11.386,"1375": 11.549,"1400": 11.476,"1425": 12.183,"1450": 11.058,"1475": 11.601,"1500": 13.087,"1525": 11.402,"1550": 11.547,"1575": 11.711,"1600": 12.182,"1625": 11.239,"1650": 11.71,"1675": 11.673,"1700": 10.876,"1725": 10.459,"1750": 11.926,"1775": 10.513,"1800": 10.803,"1825": 10.493,"1850": 9.932,"1875": 10.837,"1900": 9.804,"1925": 9.931,"1950": 9.514,"1975": 9.424,"2000": 9.479,"2025": 9.37,"2050": 10.766,"2075": 11.111,"2100": 10.765,"2125": 10.149,"2150": 10.875,"2175": 10.33,"2200": 9.714,"2225": 9.968,"2250": 10.64,"2275": 11.094,"2300": 10.532,"2325": 9.607,"2350": 8.899,"2375": 7.558,"2400": 7.251,"2425": 6.58,"2450": 6.653,"2475": 6.979,"2500": 7.179,"2525": 7.234,"2550": 7.106,"2575": 7.378,"2600": 7.142,"2625": 6.797,"2650": 7.015,"2675": 7.613,"2700": 7.215,"2725": 7.94,"2750": 6.906,"2775": 6.381,"2800": 6.434,"2825": 6.162,"2850": 5.836,"2875": 6.398,"2900": 5.673,"2925": 5.872,"2950": 5.781,"2975": 6.886,"3000": 7.393,"3025": 8.444,"3050": 9.604,"3075": 8.137,"3100": 4.857,"3125": 2.12,"3150": 0.471}}}