{"type": "Feature","bbox": [-64.086963813889838,-39.915581964068423,-56.612172004291267,-25.460870050005951],"geometry": {"type": "MultiPolygon","coordinates": [[[[-56.855394729692279,-36.293431536562835,0.0],[-56.820423957416239,-36.377373956255937,1.3742],[-57.117801192544562,-37.492635988354152,0.0],[-56.612172004291267,-36.811211846880951,0.0],[-56.612172004291267,-36.423150323443437,0.0],[-56.855394729692279,-36.293431536562835,0.0]]],
[[[-57.6925909342481,-34.901188713271878,0.0],[-57.228077766010045,-35.398858331255894,11.8424],[-57.148713197092718,-35.589361815142922,0.0],[-57.000233527728767,-35.329522393755894,0.0],[-57.599964973041239,-34.94146087031838,0.0],[-57.6925909342481,-34.901188713271878,0.0]]],
[[[-57.227976043733577,-37.641115951788919,0.0],[-59.337524443212658,-38.695861952779751,15.317],[-57.670521613666239,-38.292779229693394,0.0],[-57.423573371478767,-37.90471770625588,0.0],[-57.227976043733577,-37.641115951788919,0.0]]],
[[[-60.733890670432316,-32.391786919688457,6.3382],[-60.749850305421518,-32.176145306146296,9.0559],[-60.757313605853767,-32.198540948443409,9.7816],[-60.733890670432316,-32.391786919688457,6.3382]]],
[[[-60.733890670432316,-32.391786919688457,6.3382],[-60.704457160541239,-32.789483331255951,4.5],[-60.682869193351195,-32.812728817683336,4.5],[-60.733890670432316,-32.391786919688457,6.3382]]],
[[[-60.682869193351195,-32.812728817683336,4.5],[-60.651478644916295,-33.071709893755894,32.371],[-59.699025031635017,-33.706719659380951,28.9806],[-58.958180305072489,-34.18291594844338,24.3852],[-58.50841223866621,-34.394585870318437,2.1651],[-58.476060841840166,-34.16816340671916,13.2009],[-58.481922980853739,-34.130059503130951,2.0278],[-60.245777961322517,-33.283379815630951,4.4492],[-60.682869193351195,-32.812728817683336,4.5]]],
[[[-59.58179115609812,-38.754925854798429,21.3745],[-62.283314582416295,-38.986504815630909,1.7862],[-62.204756296447641,-39.889807502045429,0.0],[-62.15086829335371,-39.915581964068423,1.8244],[-61.83330237538496,-39.069024346880937,0.0],[-60.880787726947489,-39.069024346880937,0.0],[-59.58179115609812,-38.754925854798429,21.3745]]],
[[[-60.766403406052888,-31.644441537809129,17.4873],[-60.724660230751,-30.704406914778431,50.9214],[-60.757008430072489,-30.782037042193409,38.1645],[-60.842396613666267,-31.322686456255909,43.8745],[-60.766403406052888,-31.644441537809129,17.4873]]],
[[[-60.879937020577245,-29.687835827809963,55.0669],[-60.880787726947489,-29.685113214068394,54.9061],[-60.8903981211578,-29.68289543078906,55.026],[-60.879937020577245,-29.687835827809963,55.0669]]],
[[[-63.48977450724766,-27.726434605644954,142.3851],[-63.641628601757361,-27.339872738024212,160.2675],[-63.630909797259989,-27.538262628130951,149.3143],[-63.48977450724766,-27.726434605644954,142.3851]]],
[[[-64.045108041316155,-25.530577065003655,329.8535],[-64.0707901683538,-25.460870050005951,330.4223],[-64.086963813889838,-25.488727277811449,341.3044],[-64.045108041316155,-25.530577065003655,329.8535]]]]}
,"properties": {"featurecla": "Plain","name": "PAMPAS","namealt": null,"region": "South America","subregion": null,"min_label": 3.5,"max_label": 7.0,"scalerank": 2,"area_km2": 17828.14,"hist_schema_id": "Elevation0-9000","hist_area_km2": {"0": 11606.69,"25": 4491.07,"50": 1042.95,"75": 311.03,"100": 138.3,"125": 55.87,"150": 161.17,"175": 9.04,"200": 1.72,"325": 7.25,"350": 3.04}}}