{"type": "Feature","bbox": [-65.6338,-28.6667,-65.0994,-28.1383],"geometry": {"type": "MultiPolygon","coordinates": [[[[-65.2341,-28.6055,369.1759],[-65.1789,-28.6004,345.4722],[-65.1669,-28.6082,341.4133],[-65.1257,-28.6091,340.959],[-65.0994,-28.4695,390.3565],[-65.1092,-28.3361,465.6772],[-65.2393,-28.2882,675.6199],[-65.2757,-28.2866,755.8713],[-65.3179,-28.2509,766.3926],[-65.3435,-28.2333,734.4047],[-65.3978,-28.2019,741.491],[-65.4549,-28.1748,655.1603],[-65.4754,-28.1608,514.9471],[-65.5046,-28.1484,515.2123],[-65.5291,-28.1408,557.33],[-65.5485,-28.1383,662.2554],[-65.5675,-28.1412,787.3311],[-65.5847,-28.1493,1043.8104],[-65.592,-28.1588,996.575],[-65.5956,-28.17,1059.6044],[-65.5968,-28.1815,1204.6685],[-65.5946,-28.1926,1155.7236],[-65.5813,-28.2252,1132.1567],[-65.5789,-28.2481,1196.7189],[-65.5611,-28.3151,1787.1062],[-65.5603,-28.3323,1708.3345],[-65.5643,-28.3896,1948.8796],[-65.5623,-28.4242,1980.7213],[-65.5642,-28.4294,1943.8057],[-65.5719,-28.4389,1922.807],[-65.5867,-28.45,1316.1859],[-65.5963,-28.4714,1784.8394],[-65.6066,-28.4858,1544.9338],[-65.6051,-28.503,1774.8781],[-65.6108,-28.5313,1790.6354],[-65.6138,-28.5599,1742.7004],[-65.6222,-28.5876,1655.324],[-65.6338,-28.6121,1583.3629],[-65.6159,-28.6266,1480.9197],[-65.6047,-28.6324,1448.7249],[-65.5919,-28.6341,1380.8783],[-65.4752,-28.6667,797.4097],[-65.4687,-28.6519,789.0579],[-65.4644,-28.6472,832.3342],[-65.4588,-28.6451,831.291],[-65.4326,-28.6439,753.6801],[-65.3753,-28.6633,599.1447],[-65.2794,-28.6061,399.1447],[-65.2733,-28.6046,394.8838],[-65.2341,-28.6055,369.1759]]]]}
,"properties": {"GID_2": "ARG.2.8_1","GID_0": "ARG","country": "Argentina","GID_1": "ARG.2_1","state": "Catamarca","NL_NAME_1": "NA","county": "ElAlto","VARNAME_2": "VillaElAlto","NL_NAME_2": "NA","TYPE_2": "Departamento","ENGTYPE_2": "Department","CC_2": "NA","HASC_2": "AR.CT.EA","name": "ElAlto.county","area_km2": 2082.513,"hist_schema_id": "Elevation0-9000","hist_area_km2": {"350": 51.108,"375": 64.692,"400": 62.853,"425": 69.282,"450": 62.94,"475": 47.201,"500": 42.383,"525": 50.625,"550": 48.638,"575": 47.697,"600": 50.83,"625": 43.183,"650": 44.263,"675": 45.024,"700": 46.424,"725": 47.195,"750": 49.554,"775": 59.13,"800": 59.796,"825": 51.507,"850": 48.913,"875": 45.781,"900": 48.151,"925": 45.95,"950": 43.543,"975": 40.504,"1000": 39.256,"1025": 42.542,"1050": 37.059,"1075": 35.626,"1100": 34.918,"1125": 31.822,"1150": 30.049,"1175": 29.675,"1200": 27.417,"1225": 26.968,"1250": 25.007,"1275": 25.452,"1300": 24.556,"1325": 23.698,"1350": 21.275,"1375": 19.672,"1400": 18.197,"1425": 15.789,"1450": 15.117,"1475": 15.843,"1500": 15.397,"1525": 13.364,"1550": 13.607,"1575": 14.072,"1600": 13.717,"1625": 12.991,"1650": 12.433,"1675": 11.725,"1700": 13.364,"1725": 13.738,"1750": 13.291,"1775": 11.614,"1800": 9.584,"1825": 7.478,"1850": 6.882,"1875": 7.852,"1900": 7.125,"1925": 5.297,"1950": 4.831,"1975": 4.235,"2000": 3.899,"2025": 4.383,"2050": 2.891,"2075": 1.362,"2100": 0.261,"2125": 0.019}}}