{"type": "Feature","bbox": [-60.923,-36.7288,-59.3868,-36.0099],"geometry": {"type": "MultiPolygon","coordinates": [[[[-59.4909,-36.2309,61.0691],[-59.3868,-36.1376,50.0249],[-59.5577,-36.0099,45.6115],[-59.5982,-36.0446,49.9744],[-59.6185,-36.0293,49.167],[-59.6709,-36.073,52.2492],[-59.6754,-36.0715,52.0358],[-59.7215,-36.1077,56.2874],[-59.7982,-36.0465,52.9041],[-59.8601,-36.0975,57.5462],[-59.8398,-36.1142,58.1957],[-59.953,-36.2071,68.6032],[-59.9597,-36.2201,70.0321],[-59.9671,-36.2502,73.4804],[-59.9696,-36.2542,73.8217],[-60.0592,-36.1908,68.2928],[-60.0918,-36.1651,65.7628],[-60.2501,-36.3004,81.9978],[-60.2971,-36.2674,79.7473],[-60.3615,-36.3246,88.7263],[-60.5268,-36.214,78.5679],[-60.5704,-36.2354,79.8938],[-60.6951,-36.137,77.2938],[-60.7108,-36.1375,77.7997],[-60.7263,-36.1402,78.8609],[-60.7429,-36.1533,79.8636],[-60.7619,-36.1606,79.4943],[-60.7729,-36.1698,80.2863],[-60.7799,-36.1784,81.2831],[-60.7784,-36.1854,81.6302],[-60.801,-36.2009,83.7787],[-60.8109,-36.2147,84.8898],[-60.8061,-36.2278,85.2537],[-60.8011,-36.2313,87.348],[-60.8055,-36.2416,85.9577],[-60.8074,-36.2535,86.3942],[-60.8174,-36.2605,87.108],[-60.8262,-36.2712,87.1929],[-60.829,-36.2812,87.9046],[-60.8394,-36.2987,90.0033],[-60.868,-36.3277,91.1125],[-60.8799,-36.3314,92.2321],[-60.8946,-36.3402,92.65],[-60.9071,-36.3418,92.9296],[-60.8672,-36.3729,94.404],[-60.923,-36.4175,98.804],[-60.8704,-36.46,99.6992],[-60.7571,-36.3694,92.5483],[-60.7268,-36.3936,91.049],[-60.6529,-36.3407,87.1637],[-60.5731,-36.3956,94.2398],[-60.568,-36.3901,93.7771],[-60.5387,-36.4113,97.0808],[-60.5431,-36.4173,97.9208],[-60.4392,-36.498,112.1715],[-60.4764,-36.5289,117.7234],[-60.3229,-36.6517,137.637],[-60.2807,-36.6212,128.5253],[-60.1644,-36.7149,129.4308],[-60.1504,-36.6979,126.5504],[-60.146,-36.6865,125.3113],[-60.1473,-36.6801,124.9696],[-60.1447,-36.6748,124.0853],[-60.1397,-36.6728,123.5817],[-60.118,-36.6905,124.6114],[-60.1138,-36.6869,124.1189],[-60.0586,-36.7288,130.0837],[-59.9267,-36.6183,114.1641],[-60.033,-36.536,107.2422],[-60.0031,-36.5106,104.9899],[-59.9934,-36.519,105.2494],[-59.9203,-36.4528,97.1997],[-59.9243,-36.4493,96.2652],[-59.8618,-36.3954,89.2225],[-59.8629,-36.3906,88.8432],[-59.8465,-36.3754,86.5185],[-59.8263,-36.361,84.1512],[-59.8205,-36.3651,84.0413],[-59.8103,-36.3585,83.8428],[-59.7986,-36.3438,83.1121],[-59.7963,-36.3464,82.9653],[-59.7268,-36.2867,73.9934],[-59.637,-36.3613,78.6978],[-59.4909,-36.2309,61.0691]]]]}
,"properties": {"GID_2": "ARG.1.116_1","GID_0": "ARG","country": "Argentina","GID_1": "ARG.1_1","state": "BuenosAires","NL_NAME_1": "NA","county": "Tapalqué","VARNAME_2": "Taplquen|Taplquen","NL_NAME_2": "NA","TYPE_2": "Partido","ENGTYPE_2": "Part","CC_2": "NA","HASC_2": "AR.BA.TP","name": "Tapalqué.county","area_km2": 4105.877,"hist_schema_id": "Elevation0-9000","hist_area_km2": {"50": 560.944,"75": 1543.122,"100": 1387.636,"125": 613.885,"150": 0.289}}}