{"type": "Feature","bbox": [-58.7146,-27.5084,-58.3003,-27.27],"geometry": {"type": "MultiPolygon","coordinates": [[[[-58.7146,-27.3669,44.5],[-58.7092,-27.3751,53.6381],[-58.7051,-27.3782,51.8578],[-58.6938,-27.3975,57.806],[-58.6885,-27.4014,59.8907],[-58.6699,-27.4263,61.9462],[-58.6753,-27.4742,57.8463],[-58.6646,-27.473,59.5954],[-58.658,-27.48,57.9],[-58.6497,-27.4785,58.5198],[-58.65,-27.4736,58.7532],[-58.6335,-27.4721,57.375],[-58.6247,-27.5006,57.8011],[-58.6223,-27.5027,60.0035],[-58.6145,-27.5034,56.1886],[-58.6085,-27.5081,53.8857],[-58.6006,-27.5072,56.2805],[-58.5928,-27.5084,55.4368],[-58.5851,-27.507,56.3339],[-58.5745,-27.5021,55.9295],[-58.5568,-27.4878,59.1213],[-58.5468,-27.4819,62.7042],[-58.519,-27.4812,64.3396],[-58.4986,-27.4704,58.5119],[-58.4837,-27.4585,56.2674],[-58.4795,-27.4527,57.5997],[-58.4785,-27.442,64.9383],[-58.4824,-27.4246,56.2985],[-58.4818,-27.4176,59.0784],[-58.4557,-27.4014,56.6762],[-58.4444,-27.398,57.1818],[-58.4165,-27.3987,57.718],[-58.4046,-27.3974,58.935],[-58.3892,-27.3867,60.0769],[-58.3776,-27.3839,69.8323],[-58.3657,-27.3838,69.0253],[-58.3432,-27.3907,62.2815],[-58.3303,-27.399,59.5759],[-58.3112,-27.4156,60.2151],[-58.3088,-27.3982,63.6662],[-58.3003,-27.3709,69.7054],[-58.3016,-27.364,65.3366],[-58.3101,-27.344,63.5494],[-58.3231,-27.3181,62.557],[-58.3285,-27.301,59.912],[-58.3315,-27.2834,54.1995],[-58.3382,-27.27,50.5286],[-58.3764,-27.279,46.0],[-58.3911,-27.2793,46.0],[-58.4178,-27.2731,46.0],[-58.4333,-27.2728,46.0],[-58.4515,-27.2787,46.0],[-58.4618,-27.2786,46.0],[-58.475,-27.2754,46.0],[-58.4856,-27.2748,46.0],[-58.5055,-27.2788,46.0],[-58.5266,-27.2908,46.0],[-58.54,-27.2956,45.0],[-58.5788,-27.3008,45.0],[-58.5965,-27.3012,45.0],[-58.602,-27.2993,45.0],[-58.6064,-27.2953,45.0],[-58.6174,-27.3176,45.0],[-58.6203,-27.3282,44.5],[-58.6312,-27.3409,44.5],[-58.6359,-27.3444,44.5],[-58.6465,-27.3495,44.5],[-58.6683,-27.3564,44.5],[-58.6905,-27.3593,46.3219],[-58.7146,-27.3669,44.5]]]]}
,"properties": {"GID_2": "ARG.7.19_1","GID_0": "ARG","country": "Argentina","GID_1": "ARG.7_1","state": "Corrientes","NL_NAME_1": "NA","county": "SanCosme","VARNAME_2": "NA","NL_NAME_2": "NA","TYPE_2": "Departamento","ENGTYPE_2": "Department","CC_2": "NA","HASC_2": "AR.CN.SC","name": "SanCosme.county","area_km2": 610.0243,"hist_schema_id": "Elevation0-9000","hist_area_km2": {"50": 442.3259,"75": 167.6796,"100": 0.0188}}}