{"type": "Feature","bbox": [-64.4884,-35.818,-63.9359,-35.4588],"geometry": {"type": "MultiPolygon","coordinates": [[[[-63.9359,-35.818,141.0137],[-63.937,-35.4602,145.2011],[-64.4867,-35.4588,189.3965],[-64.4884,-35.8146,210.6307],[-63.9359,-35.818,141.0137]]]]}
,"properties": {"GID_2": "ARG.11.21_1","GID_0": "ARG","country": "Argentina","GID_1": "ARG.11_1","state": "LaPampa","NL_NAME_1": "NA","county": "Trenel","VARNAME_2": "NA","NL_NAME_2": "NA","TYPE_2": "Departamento","ENGTYPE_2": "Department","CC_2": "NA","HASC_2": "AR.LP.TR","name": "Trenel.county","area_km2": 1974.946,"hist_schema_id": "Elevation0-9000","hist_area_km2": {"125": 4.593,"150": 517.056,"175": 557.45,"200": 698.756,"225": 197.09}}}