{"type":"Feature","properties":{"featurecla":"River","scalerank":5,"rivernum":192,"dissolve":"192River","name":"Colorado2","name_alt":null,"note":null,"min_zoom":4.7,"strokeweig":0.25,"name_en":"Colorado","min_label":5.7},
"geometry":{"type": "LineString","coordinates": [[-66.762548828124991,-38.51628997188088,230.031],[-66.756518554687489,-38.51946380000588,229.6936],[-66.738525390625,-38.53362395625588,226.5192],[-66.728686523437489,-38.53679778438088,225.8331],[-66.684008789062489,-38.54363372188088,220.8845],[-66.648046874999991,-38.55754973750588,221.8732],[-66.616943359375,-38.57952239375588,216.4352],[-66.593603515624991,-38.60735442500588,209.0],[-66.580981445312489,-38.63860442500588,229.279],[-66.57373046875,-38.685088800005886,209.3509],[-66.562060546874989,-38.70159270625588,208.5061],[-66.53662109375,-38.708038018755886,207.4571],[-66.510302734374989,-38.710479425005886,209.3438],[-66.391943359374991,-38.734209893755875,213.1341],[-66.34765625,-38.734893487505886,209.1132],[-66.215380859374989,-38.71672942500588,193.3393],[-65.960302734374991,-38.742217706255886,192.4017],[-65.949804687499991,-38.744463800005875,184.9652],[-65.928759765624989,-38.753741143755875,181.7729],[-65.902441406249991,-38.75750090938088,180.2602],[-65.868408203125,-38.76946380000588,179.1783],[-65.826513671874991,-38.773272393755875,210.8028],[-65.813159179687489,-38.77629973750588,211.6735],[-65.803515624999989,-38.78142669063088,205.9895],[-65.785253906249991,-38.794268487505875,173.5966],[-65.775634765625,-38.79680755000588,174.4364],[-65.734375,-38.79680755000588,198.3094],[-65.718847656249991,-38.799834893755886,209.7804],[-65.707080078124989,-38.806475518755875,181.2992],[-65.69775390625,-38.81365325313088,170.7866],[-65.689697265625,-38.817901300005886,170.4843],[-65.670507812499991,-38.81731536250588,169.2971],[-65.64892578125,-38.80999114375588,164.3977],[-65.628100585937489,-38.79876067500588,166.8142],[-65.611425781249991,-38.786944268755875,164.6515],[-65.590136718749989,-38.77752044063088,161.6786],[-65.563085937499991,-38.775909112505886,174.2915],[-65.511523437499989,-38.783721612505886,160.1485],[-65.423681640624991,-38.811553643755886,166.0393],[-65.38671875,-38.832061456255886,155.3647],[-65.367529296874991,-38.838409112505886,161.3228],[-65.357666015625,-38.836944268755886,154.4533],[-65.313525390624989,-38.82415130000588,151.6922],[-65.261572265624991,-38.825518487505875,133.3979],[-65.114306640624989,-38.80364348750588,127.2466],[-64.977709960937489,-38.80364348750588,153.3824]]}}