{"type":"Feature","properties":{"featurecla":"River","scalerank":6,"rivernum":354,"dissolve":"354River","name":"Desaguadero","name_alt":null,"note":null,"min_zoom":5.0,"strokeweig":0.25,"name_en":"Desaguadero","min_label":6.0},
"geometry":{"type": "LineString","coordinates": [[-67.36181640625,-32.39690520625588,490.0664],[-67.36181640625,-32.39690520625588,490.0664],[-67.36181640625,-32.39690520625588,490.0664],[-67.36181640625,-32.39690520625588,490.0664],[-67.36181640625,-32.39690520625588,490.0664],[-67.339208984374991,-32.410479425005889,489.2567],[-67.329150390624989,-32.41961028438088,487.9922],[-67.320849609374989,-32.43108489375588,486.2971],[-67.319384765624989,-32.43865325313088,486.8384],[-67.321044921875,-32.455108331255886,485.8947],[-67.317431640624989,-32.46209075313088,485.6222],[-67.310791015625,-32.46917083125588,485.4548],[-67.305346679687489,-32.47747161250588,484.2482],[-67.3017578125,-32.486358331255886,484.0735],[-67.297119140625,-32.513506768755889,481.3301],[-67.283056640624991,-32.543975518755886,479.486],[-67.279882812499991,-32.55730559688088,479.9789],[-67.278369140624989,-32.57195403438088,479.0378],[-67.258471679687489,-32.653643487505889,475.6198],[-67.25244140625,-32.66716887813088,475.6884],[-67.2451171875,-32.67815520625588,476.1305],[-67.232348632812489,-32.68938567500588,476.4841],[-67.2216796875,-32.69622161250588,474.6545],[-67.21435546875,-32.70501067500588,475.3041],[-67.21162109375,-32.72210051875588,475.2406],[-67.206469726562489,-32.73943450313088,474.7809],[-67.197070312499989,-32.750518487505886,473.3279],[-67.192236328124991,-32.76116301875588,473.0324],[-67.209765624999989,-32.791827081255889,471.78],[-67.214648437499989,-32.81975676875588,470.7939],[-67.21845703125,-32.82830169063088,469.9441],[-67.205908203124991,-32.87004973750588,468.8459],[-67.206298828125,-32.893584893755886,468.4086],[-67.221850585937489,-32.90398528438088,464.7791],[-67.227099609374989,-32.91619231563088,466.8949],[-67.218066406249989,-32.94353606563088,467.2534],[-67.197924804687489,-32.98650481563088,463.5492],[-67.197998046875,-32.99773528438088,464.1911],[-67.203466796874991,-33.016924737505889,459.3112],[-67.204150390624989,-33.02752044063088,459.3251],[-67.201220703124989,-33.038897393755889,460.3925],[-67.1923828125,-33.059112237505886,461.2137],[-67.184326171875,-33.14983489375588,455.7863],[-67.190478515624989,-33.22893645625588,461.0872],[-67.18310546875,-33.25530364375588,458.0989],[-67.177416992187489,-33.26506926875588,461.5405],[-67.177490234375,-33.301299737505886,456.5181],[-67.153247070312489,-33.347198175005886,453.8672],[-67.149511718749991,-33.36638762813088,454.6478],[-67.153491210937489,-33.40984465938088,458.054],[-67.152026367187489,-33.42913176875588,458.084],[-67.142675781249991,-33.45208098750588,457.8252],[-67.047119140625,-33.58928801875588,446.2156],[-67.026708984374991,-33.606768487505889,439.4087],[-67.019824218749989,-33.616534112505889,443.2217],[-67.0072265625,-33.65227630000588,441.4461],[-67.00244140625,-33.66057708125588,440.8411],[-66.988427734375,-33.705401300005889,437.461],[-66.965185546874991,-33.73943450313088,434.7476],[-66.9404296875,-33.80657317500588,430.7101],[-66.937255859375,-33.82537200313088,430.2923],[-66.9296875,-33.837920831255886,428.9026],[-66.911962890624991,-33.85051848750588,428.0572],[-66.875781249999989,-33.870440362505889,426.304],[-66.859790039062489,-33.881866143755886,428.3],[-66.844091796874991,-33.896319268755889,423.6635],[-66.832128906249991,-33.91399505000588,423.8431],[-66.821875,-33.959795831255889,418.0582],[-66.80859375,-33.973663018755886,416.343],[-66.792578124999991,-33.98284270625588,414.952],[-66.778979492187489,-33.99334075313088,414.5382],[-66.771484375,-34.00823333125588,414.5085],[-66.764404296875,-34.03899505000588,411.5369],[-66.747167968749991,-34.064288018755889,410.2374],[-66.745849609375,-34.07952239375588,409.2795],[-66.751708984375,-34.11003997188088,407.9326],[-66.7548828125,-34.162627862505886,405.6662],[-66.759326171874989,-34.184600518755886,403.7885],[-66.772753906249989,-34.198760675005886,404.4352],[-66.780615234374991,-34.199248956255886,403.492],[-66.793701171875,-34.19182708125588,403.7308],[-66.800097656249989,-34.191924737505886,404.2607],[-66.803637695312489,-34.19622161250588,404.6425],[-66.806811523437489,-34.20964934688088,403.2105],[-66.821533203125,-34.229327081255889,402.5406],[-66.82275390625,-34.24236419063088,403.2815],[-66.814379882812489,-34.267608331255886,401.9586],[-66.811279296875,-34.34490325313088,391.0369],[-66.800097656249989,-34.363311456255886,394.9663],[-66.812744140625,-34.38469817500588,396.6172],[-66.8037109375,-34.397002862505886,394.1427],[-66.78759765625,-34.408721612505886,389.5798],[-66.778979492187489,-34.42815520625588,389.9029],[-66.772753906249989,-34.513506768755889,388.9586],[-66.7490234375,-34.57756926875588,386.1107],[-66.745458984374991,-34.59978606563088,385.8739],[-66.738085937499989,-34.615557550005889,386.1469],[-66.690844726562489,-34.65813567500588,380.6865],[-66.572119140624991,-34.85295989375588,376.3929],[-66.546191406249989,-34.92498137813088,373.0705],[-66.543798828124991,-34.945635675005889,372.1432],[-66.553637695312489,-34.99724700313088,370.9398],[-66.550463867187489,-35.010772393755886,371.1452],[-66.536376953125,-35.04851653438088,369.142],[-66.533203125,-35.066241143755889,369.0472],[-66.529101562499989,-35.078448175005889,365.8819],[-66.510498046875,-35.10833098750588,365.7514],[-66.505224609374991,-35.12420012813088,362.4287],[-66.506689453124991,-35.14153411250588,362.496],[-66.525732421874991,-35.19939544063088,361.6145],[-66.514599609375,-35.210967706255886,360.5644],[-66.508349609374989,-35.21941497188088,359.0898],[-66.505224609374991,-35.22722747188088,356.688],[-66.506591796875,-35.23992278438088,356.5487],[-66.511376953125,-35.25066497188088,354.3486],[-66.516455078124991,-35.25872161250588,354.9194],[-66.518896484374991,-35.264190362505886,354.089],[-66.506689453124991,-35.32659270625588,353.0624],[-66.505224609374991,-35.34270598750588,351.0583],[-66.5171875,-35.405108331255889,347.2444],[-66.521240234375,-35.49431731563088,345.0244],[-66.525732421874991,-35.51458098750588,343.8564],[-66.555712890624989,-35.570830987505886,343.0618],[-66.567309570312489,-35.671709893755889,340.9949],[-66.608251953124991,-35.83001067500588,329.7983],[-66.616137695312489,-35.902178643755889,330.9047],[-66.62890625,-35.94915130000588,323.3254],[-66.629321289062489,-35.965362237505886,322.2869],[-66.62255859375,-36.001299737505889,325.7111],[-66.621264648437489,-36.012041925005889,324.8105],[-66.632373046874989,-36.03484465938088,323.2772],[-66.647753906249989,-36.05437590938088,322.4902],[-66.685229492187489,-36.069170831255889,321.6764],[-66.700488281249989,-36.08489348750588,316.4119],[-66.724951171874991,-36.12420012813088,315.0799],[-66.778002929687489,-36.18401458125588,311.6611],[-66.786425781249989,-36.20354583125588,310.787],[-66.793701171875,-36.21648528438088,310.0915],[-66.841650390624991,-36.25505950313088,307.7487],[-66.850341796875,-36.27434661250588,305.9272],[-66.8466796875,-36.287432550005889,307.9192],[-66.838671874999989,-36.30242278438088,306.9576],[-66.834228515625,-36.32683684688088,306.3418],[-66.836376953125,-36.349444268755889,304.2139],[-66.845629882812489,-36.390459893755889,302.4778],[-66.847900390625,-36.41155364375588,301.4734],[-66.845629882812489,-36.432940362505889,300.1795],[-66.838476562499991,-36.451690362505886,298.2425],[-66.826757812499991,-36.468584893755889,298.3921],[-66.810644531249991,-36.484209893755889,297.3427],[-66.802001953125,-36.500030206255886,297.0839],[-66.798681640624991,-36.523760675005889,294.6393],[-66.800097656249989,-36.56975676875588,291.9636],[-66.805102539062489,-36.59441497188088,290.3013],[-66.814379882812489,-36.61760833125588,289.4816],[-66.792626953125,-36.68303801875588,286.7023],[-66.7900390625,-36.698565362505889,285.3945],[-66.779711914062489,-36.732452081255886,284.4485],[-66.778979492187489,-36.755401300005886,283.7363],[-66.786425781249989,-36.84099700313088,277.6188],[-66.79375,-36.863311456255886,276.6491],[-66.810644531249991,-36.88152434688088,277.8966],[-66.829199218749991,-36.897295831255889,275.0141],[-66.841650390624991,-36.91301848750588,274.8376],[-66.84423828125,-36.93303801875588,272.5632],[-66.831225585937489,-36.973955987505889,270.0717],[-66.824023437499989,-37.021026300005886,267.8021],[-66.812353515624991,-37.054034112505889,266.9971],[-66.814379882812489,-37.07634856563088,266.4699],[-66.825732421874989,-37.11321380000588,265.702],[-66.822924804687489,-37.130889581255886,265.6665],[-66.792724609375,-37.141436456255889,264.4248],[-66.782568359374991,-37.14910247188088,263.2965],[-66.777685546874991,-37.15911223750588,264.4905],[-66.78271484375,-37.16936614375588,262.5755],[-66.791601562499991,-37.17034270625588,264.0944],[-66.815966796874989,-37.159698175005886,264.6188],[-66.827392578125,-37.15886809688088,265.8149],[-66.836376953125,-37.164092706255886,264.3854],[-66.84228515625,-37.17229583125588,263.3223],[-66.845947265625,-37.182452081255889,263.7579],[-66.850390624999989,-37.20891692500588,259.6065],[-66.8505859375,-37.214678643755889,260.0597],[-66.84521484375,-37.214873956255886,259.1636],[-66.830810546875,-37.21404387813088,260.4848],[-66.810302734375,-37.217120050005889,260.7932],[-66.790087890624989,-37.22503020625588,260.1385],[-66.715185546874991,-37.274932550005886,257.2004],[-66.705078125,-37.28997161250588,256.2418],[-66.721533203124991,-37.296709893755889,256.5115],[-66.734423828124989,-37.30364348750588,256.2093],[-66.71640625,-37.31926848750588,255.2948],[-66.669726562499989,-37.34441497188088,260.5512],[-66.600024414062489,-37.35515715938088,252.5576],[-66.584399414062489,-37.36150481563088,263.819],[-66.525732421874991,-37.42009856563088,249.9758],[-66.447314453124989,-37.51897551875588,246.0301],[-66.41650390625,-37.542998956255886,243.7864],[-66.398681640625,-37.549834893755886,243.2091],[-66.378173828125,-37.553741143755886,259.2295],[-66.330810546875,-37.55608489375588,251.8835],[-66.309863281249989,-37.55144622188088,241.8608],[-66.272998046874989,-37.534502862505889,243.1532],[-66.252001953124989,-37.53557708125588,241.6962],[-66.233447265624989,-37.547881768755886,241.5253],[-66.220507812499989,-37.567413018755886,240.1892],[-66.212890625,-37.589190362505889,237.1564],[-66.21044921875,-37.60784270625588,239.4345],[-66.2125,-37.64861419063088,237.9584],[-66.207177734375,-37.66057708125588,237.3299],[-66.190600585937489,-37.67962005000588,236.0779],[-66.180908203125,-37.69646575313088,235.6658],[-66.169775390624991,-37.73601653438088,234.3358],[-66.15390625,-37.761260675005886,233.292],[-66.151049804687489,-37.771514581255886,232.337],[-66.145605468749991,-37.779815362505886,232.0247],[-66.132177734374991,-37.783233331255886,230.5482],[-66.121264648437489,-37.782061456255889,230.9332],[-66.10009765625,-37.776690362505889,229.8385],[-66.0875,-37.77581145625588,230.017],[-66.047412109374989,-37.786455987505889,229.9798],[-65.929858398437489,-37.85833098750588,226.6358],[-65.910571289062489,-37.866729425005886,225.6805],[-65.888476562499989,-37.871612237505886,224.2582],[-65.867358398437489,-37.87078215938088,224.3541],[-65.83740234375,-37.852569268755886,224.4648],[-65.83154296875,-37.85735442500588,224.336],[-65.833740234375,-37.86687590938088,223.2257],[-65.84423828125,-37.87200286250588,223.7758],[-65.852148437499991,-37.877276300005889,223.8556],[-65.8505859375,-37.889483331255889,221.3189],[-65.840502929687489,-37.913604425005886,221.3132],[-65.836035156249991,-37.933428643755889,222.772],[-65.834277343749989,-37.99212005000588,221.0758],[-65.829272460937489,-38.01458098750588,220.1969],[-65.817578125,-38.030108331255875,222.5414],[-65.804003906249989,-38.044463800005886,223.5736],[-65.793310546874991,-38.06316497188088,218.3353],[-65.792626953125,-38.08635833125588,217.463],[-65.804785156249991,-38.10100676875588,217.4215],[-65.83740234375,-38.12151458125588,219.9986],[-65.845458984375,-38.12517669063088,218.6162],[-65.856860351562489,-38.125811456255875,218.6586],[-65.878662109375,-38.12468840938088,218.5685],[-65.895190429687489,-38.12737395625588,230.4434],[-65.89990234375,-38.13420989375588,218.1509],[-65.89990234375,-38.143096612505886,228.8873],[-65.902587890625,-38.151885675005886,239.3824],[-65.934423828124991,-38.17937590938088,227.3879],[-65.968188476562489,-38.202471612505875,207.0181],[-65.98427734375,-38.22771575313088,206.7161],[-65.96337890625,-38.261748956255886,204.196],[-65.9474609375,-38.273760675005875,204.3956],[-65.929248046874989,-38.282745050005886,204.3894],[-65.90869140625,-38.288409112505875,203.985],[-65.861328125,-38.294268487505875,201.6782],[-65.843505859375,-38.30413176875588,212.4986],[-65.806982421874991,-38.331377862505875,205.5346],[-65.79453125,-38.33635833125588,221.5915],[-65.77099609375,-38.34075286250588,208.8301],[-65.758544921875,-38.34441497188088,210.0446],[-65.7275390625,-38.372881768755875,204.256],[-65.720141601562489,-38.382842706255886,202.0721],[-65.697119140624991,-38.447295831255886,200.3673],[-65.677905273437489,-38.46282317500588,209.6592],[-65.632177734374991,-38.47429778438088,240.5755],[-65.611425781249991,-38.48552825313088,224.7332],[-65.546240234374991,-38.54363372188088,203.7722],[-65.482763671874991,-38.57097747188088,169.7086],[-65.46748046875,-38.58171965938088,180.1959],[-65.448974609375,-38.59832122188088,162.8645],[-65.426928710937489,-38.61248137813088,161.3556],[-65.214697265624991,-38.70794036250588,173.9633],[-65.170263671874991,-38.74041106563088,164.3162],[-65.11328125,-38.75896575313088,146.4889],[-65.07861328125,-38.77898528438088,138.6176],[-65.032324218749991,-38.783721612505886,130.8686],[-64.9703125,-38.80364348750588,155.3469]]}}