{"type":"Feature","properties":{"featurecla":"River","scalerank":5,"rivernum":192,"dissolve":"192River","name":"Colorado1","name_alt":null,"note":null,"min_zoom":4.7,"strokeweig":0.2,"name_en":"Colorado","min_label":5.7},
"geometry":{"type": "LineString","coordinates": [[-70.072363281249991,-35.81316497188088,1527.9756],[-70.061083984374989,-35.81951262813088,1528.9297],[-70.051440429687489,-35.82000090938088,1523.1622],[-70.031054687499989,-35.81633880000588,1559.4121],[-70.022021484374989,-35.81853606563088,1635.177],[-70.013964843749989,-35.82390715938088,1584.3054],[-70.000341796874991,-35.83611419063088,1491.729],[-69.995898437499989,-35.838213800005889,1490.3386],[-69.984423828124989,-35.84148528438088,1504.3447],[-69.979833984374991,-35.843584893755889,1509.7671],[-69.977343749999989,-35.84685637813088,1528.2107],[-69.974291992187489,-35.855010675005886,1648.7017],[-69.972998046874991,-35.857256768755889,1703.5468],[-69.962329101562489,-35.86248137813088,1508.707],[-69.950732421874989,-35.866729425005886,1480.1311],[-69.93916015625,-35.869463800005889,1468.9622],[-69.928320312499991,-35.87029387813088,1573.5938],[-69.842700195312489,-35.864092706255889,1570.5043],[-69.814013671874989,-35.86760833125588,1499.6084],[-69.796337890625,-35.875811456255889,1575.5321],[-69.764208984374989,-35.908526300005889,1388.8768],[-69.752124023437489,-35.92839934688088,1378.3937],[-69.750244140625,-35.949248956255886,1386.21],[-69.753271484374991,-35.99382903438088,1484.2654],[-69.748144531249991,-36.008135675005889,1384.3713],[-69.72998046875,-36.03728606563088,1331.0223],[-69.726000976562489,-36.05925872188088,1348.3882],[-69.724462890624991,-36.084014581255886,1365.3407],[-69.72021484375,-36.10466887813088,1336.9703],[-69.69189453125,-36.181670831255886,1289.3873],[-69.682958984374991,-36.194659112505889,1266.6725],[-69.668261718749989,-36.210479425005886,1267.3121],[-69.660498046874991,-36.227862237505889,1244.166],[-69.660571289062489,-36.25115325313088,1236.6914],[-69.67138671875,-36.29607512813088,1280.7474],[-69.693945312499991,-36.333038018755886,1224.3173],[-69.702099609375,-36.35564544063088,1314.4641],[-69.6953125,-36.37493255000588,1422.2111],[-69.687548828124989,-36.38933684688088,1371.397],[-69.684423828124991,-36.41008880000588,1340.6842],[-69.68505859375,-36.453155206255886,1481.1604],[-69.687841796874991,-36.472002862505889,1421.2384],[-69.68798828125,-36.481768487505889,1272.7148],[-69.68505859375,-36.494659112505886,1132.8948],[-69.667578124999991,-36.527373956255886,1195.4662],[-69.665136718749991,-36.539092706255886,1251.5022],[-69.667407226562489,-36.559112237505886,1150.9835],[-69.673266601562489,-36.57976653438088,1067.4347],[-69.681811523437489,-36.59783294063088,1108.4265],[-69.69189453125,-36.61077239375588,1112.6256],[-69.698828124999991,-36.61321380000588,1217.7991],[-69.718994140625,-36.615069268755889,1215.2117],[-69.726000976562489,-36.61760833125588,1047.9045],[-69.736865234374989,-36.645538018755886,990.8968],[-69.748339843749989,-36.654327081255886,981.5568],[-69.760351562499991,-36.67424895625588,952.0062],[-69.7744140625,-36.70696380000588,1173.0254],[-69.793554687499991,-36.808916925005889,1036.5542],[-69.794921875,-36.844756768755886,954.3732],[-69.790283203125,-36.863311456255886,895.7634],[-69.787939453124991,-36.90569426875588,958.121],[-69.78125,-36.919268487505889,863.5681],[-69.78583984375,-36.92962005000588,883.9974],[-69.786059570312489,-36.949248956255886,984.7075],[-69.7880859375,-36.960284112505889,981.6245],[-69.794921875,-36.970733331255886,993.8547],[-69.8125,-36.987139581255889,986.8582],[-69.816015624999991,-36.99749114375588,989.6128],[-69.809985351562489,-37.011260675005886,1017.7846],[-69.738330078124989,-37.086455987505886,823.077],[-69.703466796874991,-37.11223723750588,838.3863],[-69.623583984374989,-37.152666925005889,772.5063],[-69.58173828125,-37.165362237505889,778.318],[-69.531103515624991,-37.17376067500588,745.4421],[-69.478759765625,-37.176592706255889,734.2159],[-69.302490234375,-37.14983489375588,688.9213],[-69.260498046875,-37.152666925005889,676.8961],[-69.196142578124991,-37.17644622188088,663.7066],[-69.15478515625,-37.18279387813088,656.2888],[-69.106787109374991,-37.198565362505889,660.5579],[-69.088549804687489,-37.20720794063088,662.3403],[-69.061132812499991,-37.236163018755889,656.3475],[-69.039111328124989,-37.31243255000588,613.2212],[-69.020263671875,-37.34441497188088,615.1097],[-68.985205078124991,-37.36394622188088,601.9221],[-68.93603515625,-37.37615325313088,581.6479],[-68.884375,-37.381182550005889,574.2463],[-68.7568359375,-37.37175872188088,547.3855],[-68.736499023437489,-37.379424737505886,555.0536],[-68.698339843749991,-37.41521575313088,591.2162],[-68.678271484374989,-37.426299737505886,681.3958],[-68.66796875,-37.42742278438088,677.684],[-68.636083984374991,-37.426299737505886,687.5972],[-68.624853515624991,-37.42937590938088,639.8141],[-68.602636718749991,-37.43865325313088,543.1442],[-68.592041015625,-37.44060637813088,597.6217],[-68.526123046875,-37.44133880000588,613.9869],[-68.506933593749991,-37.44744231563088,597.0605],[-68.492724609374989,-37.46038176875588,592.2353],[-68.461962890624989,-37.512041925005889,494.1282],[-68.443530273437489,-37.529620050005889,491.8146],[-68.427661132812489,-37.537920831255889,490.9496],[-67.850439453124991,-37.60027434688088,436.989],[-67.807470703124991,-37.618194268755886,430.362],[-67.778002929687489,-37.639483331255889,426.4618],[-67.748706054687489,-37.66912200313088,407.9678],[-67.724902343749989,-37.702471612505889,380.5199],[-67.7119140625,-37.73479583125588,352.7917],[-67.710620117187489,-37.780108331255889,344.0928],[-67.723803710937489,-37.816924737505886,335.3174],[-67.748046875,-37.84539153438088,331.0008],[-67.816259765624991,-37.883330987505886,314.8843],[-67.848388671875,-37.90789153438088,310.5744],[-67.870214843749991,-37.94182708125588,303.3071],[-67.875732421875,-37.98870208125588,299.1654],[-67.871826171875,-38.007354425005886,296.7322],[-67.864062499999989,-38.029815362505886,304.3804],[-67.854418945312489,-38.04900481563088,290.7128],[-67.845019531249989,-38.056963800005875,290.5715],[-67.839282226562489,-38.059112237505886,288.6638],[-67.821826171874989,-38.06853606563088,288.079],[-67.810888671874991,-38.070635675005875,287.0164],[-67.785009765624991,-38.06365325313088,286.6395],[-67.773291015624991,-38.06316497188088,284.9092],[-67.734619140625,-38.076006768755875,282.1352],[-67.705810546875,-38.100616143755886,310.6543],[-67.651318359375,-38.19158294063088,280.7731],[-67.624853515624991,-38.22234465938088,273.0],[-67.592138671874991,-38.24724700313088,273.0],[-67.55419921875,-38.261748956255886,273.0],[-67.477832031249989,-38.257842706255886,273.0],[-67.451953124999989,-38.247100518755886,273.0],[-67.376074218749991,-38.25554778438088,273.0],[-67.35107421875,-38.25017669063088,273.0],[-67.305419921875,-38.22673919063088,276.9374],[-67.2208984375,-38.21331145625588,273.0],[-67.197924804687489,-38.214678643755875,273.0],[-67.1767578125,-38.222686456255886,269.0562],[-67.16650390625,-38.235674737505875,268.0718],[-67.163330078125,-38.252471612505886,260.3872],[-67.163183593749991,-38.272979425005886,252.0828],[-67.159521484374991,-38.285186456255886,240.7892],[-67.135839843749991,-38.338213800005875,256.1401],[-67.09912109375,-38.38005950313088,249.1208],[-67.085620117187489,-38.390655206255886,238.0129],[-67.069921874999991,-38.40911223750588,234.9412],[-67.063891601562489,-38.41326262813088,240.0537],[-67.053271484374989,-38.414580987505886,232.6737],[-66.953540039062489,-38.457549737505886,233.1336],[-66.9083984375,-38.464873956255886,237.5896],[-66.878027343749991,-38.483233331255875,236.7182],[-66.855322265624991,-38.48894622188088,232.962],[-66.806884765625,-38.495147393755886,232.5186],[-66.771728515625,-38.513506768755875,229.9202],[-66.762548828124991,-38.51628997188088,230.031]]}}