{"type": "Feature","bbox": [-54.6816,-26.1905,-54.1486,-25.548],"geometry": {"type": "MultiPolygon","coordinates": [[[[-54.1486,-26.1393,470.7072],[-54.1487,-26.1161,342.3961],[-54.2005,-26.0973,329.2202],[-54.1898,-25.9417,279.3053],[-54.184,-25.9425,253.8698],[-54.1785,-25.8531,302.6351],[-54.1764,-25.8454,307.0189],[-54.1836,-25.8425,315.382],[-54.1729,-25.6614,273.0616],[-54.1723,-25.5489,234.3676],[-54.1813,-25.5496,233.2796],[-54.1981,-25.548,237.0207],[-54.2062,-25.5497,197.0],[-54.2127,-25.5545,205.278],[-54.2127,-25.5622,216.9486],[-54.2062,-25.5683,224.9947],[-54.1843,-25.5755,248.5224],[-54.1791,-25.5795,206.4201],[-54.1786,-25.5849,195.0],[-54.1833,-25.5883,210.9082],[-54.1888,-25.5882,215.3342],[-54.206,-25.5824,195.0],[-54.2219,-25.5701,197.4791],[-54.2259,-25.5681,223.1269],[-54.2323,-25.568,211.0217],[-54.2381,-25.5707,194.0],[-54.2394,-25.5748,198.4399],[-54.2391,-25.597,194.0],[-54.2508,-25.5996,196.5657],[-54.2594,-25.5949,194.0],[-54.2671,-25.5843,194.0],[-54.2727,-25.5724,193.5],[-54.2804,-25.5637,216.235],[-54.2873,-25.5598,225.7452],[-54.2954,-25.5607,191.875],[-54.3275,-25.574,189.625],[-54.3416,-25.6012,186.5],[-54.3531,-25.6103,191.301],[-54.3592,-25.6095,190.1901],[-54.3709,-25.6033,210.4413],[-54.377,-25.6018,223.5777],[-54.3816,-25.6021,197.1419],[-54.3867,-25.6047,190.1129],[-54.3897,-25.6121,185.0],[-54.3922,-25.6352,185.0],[-54.3958,-25.6438,185.0],[-54.404,-25.6556,193.0146],[-54.4164,-25.6597,221.1847],[-54.4259,-25.671,185.0],[-54.4274,-25.6801,185.0],[-54.4252,-25.6978,173.75],[-54.4295,-25.7031,197.8147],[-54.4361,-25.7021,170.0],[-54.4434,-25.6961,170.0],[-54.4451,-25.693,173.2138],[-54.4466,-25.6739,159.9945],[-54.4521,-25.6632,185.8566],[-54.4898,-25.6268,203.6729],[-54.4986,-25.6233,194.4782],[-54.5057,-25.6245,188.7879],[-54.5214,-25.634,201.5651],[-54.5282,-25.6336,210.5491],[-54.5334,-25.6296,190.7367],[-54.5358,-25.6247,175.137],[-54.5428,-25.6021,193.2056],[-54.5453,-25.5977,170.7583],[-54.5517,-25.5927,175.2878],[-54.5638,-25.5905,108.7033],[-54.5956,-25.5921,112.403],[-54.6004,-25.6177,163.6937],[-54.5988,-25.6337,184.2267],[-54.5892,-25.6589,203.8662],[-54.59,-25.6662,150.3985],[-54.5936,-25.6683,101.0],[-54.6148,-25.6707,181.8625],[-54.6283,-25.6663,173.4446],[-54.645,-25.6661,155.476],[-54.6489,-25.6676,119.3543],[-54.6559,-25.6742,100.5],[-54.6594,-25.6819,100.0],[-54.6546,-25.707,162.7063],[-54.6438,-25.7204,110.4708],[-54.6342,-25.7413,99.5],[-54.6334,-25.7607,99.5],[-54.6304,-25.7717,136.9237],[-54.6128,-25.8028,161.2987],[-54.6004,-25.8157,154.958],[-54.5948,-25.8237,169.9099],[-54.5915,-25.8299,156.1593],[-54.5904,-25.8384,100.7834],[-54.5915,-25.8475,98.5],[-54.5974,-25.864,98.0],[-54.6163,-25.899,97.5],[-54.6227,-25.9179,97.5],[-54.6233,-25.9239,97.5],[-54.6195,-25.9363,160.3917],[-54.6076,-25.9596,97.0],[-54.6085,-25.9661,97.0],[-54.6179,-25.9764,102.7738],[-54.6257,-25.9799,132.352],[-54.6706,-25.9799,96.5],[-54.677,-25.9862,106.8459],[-54.6816,-25.9976,122.4438],[-54.681399999999996,-26.0051,96.5],[-54.6765,-26.0215,99.4443],[-54.6579,-26.0557,114.9423],[-54.6477,-26.0711,96.5],[-54.6425,-26.0903,96.0],[-54.6456,-26.1084,96.0],[-54.6494,-26.1176,95.5],[-54.6708,-26.139,95.0],[-54.6762,-26.1463,104.0245],[-54.6738,-26.1617,148.844],[-54.6655,-26.1789,150.0307],[-54.6578,-26.1849,158.8112],[-54.6469,-26.1905,161.866],[-54.6445,-26.1654,152.2453],[-54.6411,-26.15,132.7621],[-54.6357,-26.1498,119.1581],[-54.6303,-26.1646,211.4855],[-54.6252,-26.1626,166.4305],[-54.6245,-26.1521,182.7889],[-54.6196,-26.1498,161.8208],[-54.6138,-26.1585,176.492],[-54.6076,-26.1637,196.769],[-54.6048,-26.1629,167.3805],[-54.6021,-26.1618,161.6173],[-54.6024,-26.1516,165.5266],[-54.5954,-26.1562,171.3562],[-54.5898,-26.1558,169.8606],[-54.5894,-26.1505,171.6645],[-54.5932,-26.1466,173.5928],[-54.5936,-26.1387,167.4888],[-54.5917,-26.134,167.5686],[-54.5888,-26.1337,171.4964],[-54.5859,-26.134,163.2053],[-54.5862,-26.1389,183.0512],[-54.5848,-26.1413,208.6419],[-54.5769,-26.1489,186.5663],[-54.571,-26.1491,167.3626],[-54.5698,-26.1469,179.8794],[-54.5701,-26.1396,178.8178],[-54.5643,-26.145,191.4781],[-54.5555,-26.1465,195.7301],[-54.5478,-26.1428,180.5704],[-54.5406,-26.1462,199.1016],[-54.5452,-26.1558,178.8647],[-54.5437,-26.1607,183.0847],[-54.5411,-26.1598,183.8403],[-54.538,-26.1553,184.5874],[-54.5293,-26.1541,183.1203],[-54.5272,-26.1554,178.8914],[-54.5321,-26.1614,206.0438],[-54.5238,-26.1634,188.3887],[-54.5232,-26.1711,192.7759],[-54.5181,-26.1735,189.6873],[-54.518,-26.1684,191.1559],[-54.5084,-26.1639,195.0927],[-54.516,-26.1605,186.7569],[-54.5125,-26.1566,191.683],[-54.5043,-26.1545,195.6935],[-54.4999,-26.151,192.7731],[-54.4979,-26.1526,191.7038],[-54.4977,-26.1553,202.2167],[-54.4904,-26.1594,190.4267],[-54.4836,-26.1549,205.007],[-54.482,-26.1527,200.0893],[-54.4896,-26.1498,197.1],[-54.4899,-26.1473,194.8526],[-54.4863,-26.1439,194.9561],[-54.4803,-26.1471,199.6312],[-54.4797,-26.1398,218.0209],[-54.4773,-26.1385,222.8445],[-54.4716,-26.1391,194.6196],[-54.4686,-26.1347,202.3051],[-54.4684,-26.1272,207.9859],[-54.4599,-26.1266,194.427],[-54.4531,-26.1312,202.086],[-54.4561,-26.138,201.495],[-54.4532,-26.1388,200.8803],[-54.4539,-26.1462,202.1302],[-54.4509,-26.1461,220.1306],[-54.4497,-26.1505,204.1587],[-54.4442,-26.1503,205.6284],[-54.4408,-26.146,227.9832],[-54.438,-26.1458,228.6162],[-54.4336,-26.1494,203.9455],[-54.431,-26.1195,226.1683],[-54.319,-26.1401,320.7668],[-54.1486,-26.1393,470.7072]]]]}
,"properties": {"GID_2": "ARG.14.9_1","GID_0": "ARG","country": "Argentina","GID_1": "ARG.14_1","state": "Misiones","NL_NAME_1": "NA","county": "Iguazú","VARNAME_2": "Wanda","NL_NAME_2": "NA","TYPE_2": "Departamento","ENGTYPE_2": "Department","CC_2": "NA","HASC_2": "AR.MN.IG","name": "Iguazú.county","area_km2": 2688.685,"hist_schema_id": "Elevation0-9000","hist_area_km2": {"100": 28.229,"125": 11.535,"150": 31.608,"175": 116.406,"200": 409.678,"225": 543.521,"250": 516.109,"275": 379.224,"300": 280.507,"325": 192.22,"350": 96.642,"375": 28.48,"400": 15.164,"425": 10.457,"450": 11.636,"475": 6.189,"500": 5.56,"525": 5.198,"550": 0.324}}}