{"type":"Feature","properties":{"GID_2":"ARG.3.11_1","GID_0":"ARG","country":"Argentina","GID_1":"ARG.3_1","state":"Chaco","NL_NAME_1":"NA","county":"Libertad","VARNAME_2":"Tirol","NL_NAME_2":"NA","TYPE_2":"Departamento","ENGTYPE_2":"Department","CC_2":"NA","HASC_2":"AR.CC.LI","name":"Libertad.county"},
"geometry":{"type": "MultiPolygon","coordinates": [[[[-59.5865,-27.2991,68.8196],[-59.5896,-27.4634,64.0847],[-59.4086,-27.4645,60.8352],[-59.4084,-27.449,61.024],[-59.2289,-27.4499,55.8988],[-59.178,-27.4111,56.3859],[-59.1226,-27.4557,58.7936],[-58.9867,-27.3311,53.4853],[-59.0125,-27.3094,52.4994],[-59.0206,-27.3141,51.8858],[-59.0305,-27.3133,54.0431],[-59.0336,-27.321,55.7602],[-59.0364,-27.3214,54.8125],[-59.0492,-27.3007,54.8981],[-59.0585,-27.3,60.4289],[-59.0626,-27.2966,61.8578],[-59.0689,-27.2971,53.7339],[-59.0722,-27.2957,53.8111],[-59.0721,-27.2878,54.6204],[-59.0789,-27.2712,57.9396],[-59.0804,-27.2605,58.0164],[-59.0898,-27.2513,58.2175],[-59.0904,-27.2439,59.6641],[-59.1893,-27.1603,58.7507],[-59.2367,-27.2048,59.5726],[-59.2356,-27.2132,59.096],[-59.2787,-27.2458,57.4789],[-59.2942,-27.2349,61.1709],[-59.3401,-27.274,59.5315],[-59.3288,-27.2865,63.2191],[-59.4619,-27.4089,64.7318],[-59.5865,-27.2991,68.8196]]]]}}