{"type":"Feature","properties":{"GID_2":"ARG.11.17_1","GID_0":"ARG","country":"Argentina","GID_1":"ARG.11_1","state":"LaPampa","NL_NAME_1":"NA","county":"QuemúQuemú","VARNAME_2":"NA","NL_NAME_2":"NA","TYPE_2":"Departamento","ENGTYPE_2":"Department","CC_2":"NA","HASC_2":"AR.LP.QQ","name":"QuemúQuemú.county"},
"geometry":{"type": "MultiPolygon","coordinates": [[[[-63.3882,-35.9133,112.4731],[-63.9361,-35.9127,140.847],[-63.9369,-36.3643,153.1862],[-63.3896,-36.3645,123.2677],[-63.389,-36.0619,114.2112],[-63.3871,-35.9992,112.2439],[-63.3882,-35.9133,112.4731]]]]}}