{"type": "Feature","bbox": [-64.497,-36.812,-63.9368,-36.2681],"geometry": {"type": "MultiPolygon","coordinates": [[[[-63.9377,-36.812,144.5229],[-63.9368,-36.2714,153.9095],[-64.4909,-36.2681,180.1364],[-64.497,-36.6249,241.8875],[-64.3526,-36.6258,205.0971],[-64.2795,-36.6943,139.3122],[-64.279,-36.7166,127.8952],[-64.1655,-36.7172,163.9008],[-64.1659,-36.8114,176.8557],[-63.9377,-36.812,144.5229]]]]}
,"properties": {"GID_2": "ARG.11.3_1","GID_0": "ARG","country": "Argentina","GID_1": "ARG.11_1","state": "LaPampa","NL_NAME_1": "NA","county": "Capital","VARNAME_2": "SantaRosa|Capital(SantaRosa)","NL_NAME_2": "NA","TYPE_2": "Departamento","ENGTYPE_2": "Department","CC_2": "NA","HASC_2": "AR.LP.SR","name": "Capital.county","area_km2": 2519.647,"hist_schema_id": "Elevation0-9000","hist_area_km2": {"125": 128.023,"150": 921.487,"175": 829.463,"200": 481.965,"225": 156.527,"250": 2.182}}}