{"type":"Feature","properties":{"ISO3166-1-Alpha-3":"ARG","country":"Argentina","fill":"#FF0","id":"5493","name":"Ciudad de Buenos Aires"},
"geometry":{"type": "Polygon","coordinates": [[[-58.31503,-34.65719,0.0],[-58.33184,-34.63201,0.0],[-58.34499,-34.60785,0.8548],[-58.36335,-34.58611,7.2141],[-58.37877,-34.57251,1.0619],[-58.41275,-34.5552,0.0],[-58.43335,-34.54199,0.0],[-58.45157,-34.53382,2.2785],[-58.47419,-34.52158,10.7811],[-58.53848,-34.56701,23.8776],[-58.56053,-34.65364,27.81],[-58.54163,-34.71035,17.2763],[-58.44397,-34.77493,12.3809],[-58.40617,-34.71507,8.2063],[-58.37939,-34.6946,6.6286],[-58.34316,-34.68987,6.2392],[-58.32269,-34.67097,6.6384],[-58.31503,-34.65719,0.0]]]}}