{"type":"Feature","properties":{"GID_1":"ARG.5_1","GID_0":"ARG","country":"Argentina","state":"CiudaddeBuenosAires","VARNAME_1":"BUENOSAIRESD.F.|CapitalFedera","NL_NAME_1":"NA","TYPE_1":"DistritoFederal","ENGTYPE_1":"FederalDistrict","CC_1":"NA","HASC_1":"AR.DF","ISO_1":"NA","name":"CiudaddeBuenosAires.state"},
"geometry":{"type": "MultiPolygon","coordinates": [[[[-58.3429,-34.6332,3.712],[-58.3496,-34.6354,2.4558],[-58.3518,-34.6349,0.8446],[-58.3524,-34.6326,0.7957],[-58.3476,-34.6329,2.9994],[-58.3457,-34.6315,0.0],[-58.3462,-34.629,2.0253],[-58.3421,-34.6301,0.0],[-58.3351,-34.6276,0.0],[-58.3387,-34.6182,3.5995],[-58.3479,-34.6185,2.6334],[-58.3396,-34.616,1.784],[-58.341,-34.6104,2.8572],[-58.3462,-34.6065,0.8548],[-58.3471,-34.6018,5.2566],[-58.3532,-34.5982,6.4313],[-58.3546,-34.5951,3.5063],[-58.3626,-34.5949,1.9558],[-58.3654,-34.5968,2.5371],[-58.3679,-34.5965,6.1825],[-58.3682,-34.5946,0.0],[-58.3657,-34.5924,3.5696],[-58.3665,-34.5896,0.0],[-58.3596,-34.5885,0.9107],[-58.3587,-34.5846,1.6621],[-58.3615,-34.5812,0.0],[-58.3671,-34.5779,0.0],[-58.3707,-34.5776,0.0],[-58.371,-34.5751,0.0],[-58.3746,-34.5743,0.0],[-58.3749,-34.5724,0.0],[-58.3785,-34.5696,0.0],[-58.3896,-34.5693,0.0],[-58.3913,-34.5699,1.3471],[-58.391,-34.5721,0.0],[-58.3932,-34.5718,3.5827],[-58.3976,-34.5674,0.9437],[-58.3985,-34.5643,0.0],[-58.4051,-34.5632,4.1284],[-58.4082,-34.5607,5.318],[-58.4079,-34.5588,0.0],[-58.4146,-34.5549,5.1018],[-58.4246,-34.5521,4.62],[-58.4243,-34.5485,0.0],[-58.4274,-34.5501,4.8674],[-58.4351,-34.5407,3.1648],[-58.4407,-34.5396,4.277],[-58.4432,-34.5363,9.4636],[-58.449,-34.536,0.0],[-58.4512,-34.5318,0.0],[-58.5005,-34.5541,16.0811],[-58.5313,-34.6195,26.6656],[-58.5289,-34.6595,28.1947],[-58.4617,-34.709,6.1726],[-58.423,-34.6663,6.7915],[-58.4128,-34.6635,6.3641],[-58.4082,-34.6651,6.4431],[-58.403,-34.6647,6.1438],[-58.3946,-34.6677,6.3017],[-58.3849,-34.6628,8.6392],[-58.3746,-34.6623,6.8492],[-58.3683,-34.6557,9.0785],[-58.3561,-34.6498,4.1983],[-58.3574,-34.6446,1.4512],[-58.3507,-34.64,6.3489],[-58.3491,-34.6409,7.6561],[-58.3444,-34.6381,0.0],[-58.3479,-34.6374,4.803],[-58.343,-34.6352,5.9448],[-58.3429,-34.6332,3.712]]]]}}