{"type":"Feature","properties":{"GID_2":"ARG.22.18_1","GID_0":"ARG","country":"Argentina","GID_1":"ARG.22_1","state":"SantiagodelEstero","NL_NAME_1":"NA","county":"OjodeAgua","VARNAME_2":"VillaOjodeAgua","NL_NAME_2":"NA","TYPE_2":"Departamento","ENGTYPE_2":"Department","CC_2":"NA","HASC_2":"AR.SE.OJ","name":"OjodeAgua.county"},
"geometry":{"type": "MultiPolygon","coordinates": [[[[-63.27,-29.7813,78.8685],[-63.2695,-29.7624,79.1124],[-63.2851,-29.7623,79.5829],[-63.2836,-29.7388,80.2266],[-63.2927,-29.7379,80.0649],[-63.2876,-29.7045,82.5149],[-63.2886,-29.6842,83.14],[-63.3042,-29.6841,87.5157],[-63.3041,-29.6744,87.8915],[-63.3291,-29.6738,98.1551],[-63.3297,-29.6637,97.5336],[-63.3466,-29.6632,109.1058],[-63.3449,-29.6341,117.1366],[-63.3231,-29.5738,115.9748],[-63.3676,-29.5648,150.0005],[-63.3967,-29.5619,173.5759],[-63.4181,-29.556,190.0627],[-63.4399,-29.5522,205.0605],[-63.4991,-29.5256,266.305],[-63.5179,-29.5341,282.554],[-63.5229,-29.5301,275.7943],[-63.5348,-29.5271,282.2246],[-63.5332,-29.5061,301.5862],[-63.539,-29.5058,311.8995],[-63.544,-29.4976,304.3882],[-63.557,-29.4841,332.6702],[-63.564,-29.4791,342.4189],[-63.5598,-29.4594,353.6553],[-63.6187,-29.4457,469.7409],[-63.623,-29.4302,488.4684],[-63.6599,-29.4256,479.998],[-63.6556,-29.355,441.9142],[-63.6796,-29.3517,412.7953],[-63.7965,-29.0661,214.0894],[-63.7666,-28.93,110.0778],[-63.7933,-28.9149,110.1414],[-63.8359,-28.9138,109.6397],[-63.9028,-28.9177,109.5205],[-63.9145,-28.9206,109.7955],[-63.9277,-28.9286,110.5193],[-63.9339,-28.9289,110.391],[-63.9558,-28.9107,110.2782],[-63.9783,-28.9021,110.4883],[-63.9949,-28.9077,110.583],[-64.0051,-28.9077,109.6264],[-64.015,-28.9058,110.9573],[-64.0448,-28.8904,111.5245],[-64.0732,-28.8808,111.7165],[-64.1062,-28.8629,112.5604],[-64.127,-28.8556,112.9132],[-64.1491,-28.8399,113.2562],[-64.16,-28.8228,113.6092],[-64.1704,-28.8117,113.8861],[-64.1893,-28.8051,114.1985],[-64.2414,-29.0049,113.692],[-64.5314,-29.002,116.2589],[-64.5572,-29.5325,119.6666],[-64.501,-29.5268,119.0934],[-64.4196,-29.5131,118.1607],[-64.3319,-29.5033,122.794],[-63.9771,-29.546,507.3835],[-63.9623,-29.5781,537.9957],[-63.9625,-29.6172,573.2403],[-63.8926,-29.6177,633.2797],[-63.8653,-29.5698,604.3582],[-63.8508,-29.5664,599.3625],[-63.8072,-29.57,596.1619],[-63.7819,-29.5806,602.941],[-63.7798,-29.5982,598.0062],[-63.8035,-29.604,607.7657],[-63.7729,-29.6411,606.8],[-63.7228,-29.6634,589.4827],[-63.6255,-29.6474,482.6999],[-63.5634,-29.6576,326.9489],[-63.525,-29.6621,284.1893],[-63.5079,-29.6684,262.5669],[-63.4691,-29.6634,212.9691],[-63.4833,-29.7227,202.1023],[-63.4523,-29.7237,172.842],[-63.4506,-29.7492,167.4412],[-63.4519,-29.7759,166.7126],[-63.3383,-29.7765,91.4309],[-63.27,-29.7813,78.8685]]]]}}