{"type": "Feature","bbox": [-58.4424,-35.4216,-57.8909,-34.9729],"geometry": {"type": "MultiPolygon","coordinates": [[[[-58.0428,-35.3509,7.743],[-57.8909,-35.2244,12.6903],[-57.9176,-35.2035,14.127],[-57.9152,-35.2007,13.95],[-57.9384,-35.1841,15.5334],[-57.9412,-35.1866,17.1652],[-57.9744,-35.1606,21.6748],[-58.0529,-35.2288,16.5958],[-58.0721,-35.2152,15.3269],[-58.0165,-35.1653,19.3062],[-58.0981,-35.1021,17.66],[-58.1067,-35.1092,16.4538],[-58.1347,-35.0874,19.3863],[-58.1327,-35.084,19.4675],[-58.1737,-35.0517,19.4215],[-58.1185,-35.0019,29.0251],[-58.162,-34.9729,25.81],[-58.2518,-35.0514,18.99],[-58.2412,-35.0599,19.5323],[-58.3136,-35.1236,15.9095],[-58.3428,-35.1493,15.0549],[-58.3551,-35.1417,13.945],[-58.4424,-35.2196,23.2325],[-58.2489,-35.3699,20.1069],[-58.2593,-35.3799,19.9752],[-58.2183,-35.4113,18.8847],[-58.188,-35.3852,18.8651],[-58.1411,-35.4216,17.0356],[-58.05,-35.3439,8.2871],[-58.0428,-35.3509,7.743]]]]}
,"properties": {"GID_2": "ARG.1.18_1","GID_0": "ARG","country": "Argentina","GID_1": "ARG.1_1","state": "BuenosAires","NL_NAME_1": "NA","county": "Brandsen","VARNAME_2": "NA","NL_NAME_2": "NA","TYPE_2": "Partido","ENGTYPE_2": "Part","CC_2": "NA","HASC_2": "AR.BA.BR","name": "Brandsen.county","area_km2": 1137.5124,"hist_schema_id": "Elevation0-9000","hist_area_km2": {"0": 210.8104,"25": 926.3727,"50": 0.3294}}}