{"type":"Feature","properties":{"GID_2":"ARG.1.24_1","GID_0":"ARG","country":"Argentina","GID_1":"ARG.1_1","state":"BuenosAires","NL_NAME_1":"NA","county":"CarmendeAreco","VARNAME_2":"NA","NL_NAME_2":"NA","TYPE_2":"Partido","ENGTYPE_2":"Part","CC_2":"NA","HASC_2":"AR.BA.CA","name":"CarmendeAreco.county"},
"geometry":{"type": "MultiPolygon","coordinates": [[[[-59.975,-34.2892,51.3836],[-60.0132,-34.3254,56.0414],[-60.0079,-34.3307,54.8338],[-60.0675,-34.3846,50.874],[-60.0865,-34.3711,57.9857],[-60.1139,-34.3963,51.8157],[-60.1172,-34.3939,53.79],[-60.1467,-34.4184,54.9003],[-60.0877,-34.4708,62.985],[-60.1005,-34.4825,63.0011],[-60.0193,-34.5473,53.8445],[-59.9804,-34.5129,50.5846],[-59.9656,-34.5213,50.8171],[-59.914,-34.5588,57.9693],[-59.9337,-34.5779,66.3949],[-59.886,-34.6214,54.8038],[-59.8482,-34.5897,49.4962],[-59.8436,-34.5936,48.9965],[-59.7584,-34.5219,54.7435],[-59.7727,-34.511,55.3248],[-59.7396,-34.4808,56.3538],[-59.7678,-34.4576,55.3871],[-59.766,-34.4554,55.4221],[-59.7708,-34.4526,54.188],[-59.6795,-34.4071,54.6462],[-59.6781,-34.4006,53.9375],[-59.6754,-34.3992,53.3676],[-59.7037,-34.2934,35.6993],[-59.6978,-34.2916,35.5736],[-59.7827,-34.2199,48.0421],[-59.8866,-34.271,52.4583],[-59.8981,-34.2579,50.9989],[-59.8915,-34.2503,51.8638],[-59.9002,-34.2419,52.7071],[-59.9233,-34.2521,53.2119],[-59.975,-34.2892,51.3836]]]]}}