{"type": "Feature","bbox": [-70.5693,-32.6319,-69.1039,-30.2721],"geometry": {"type": "MultiPolygon","coordinates": [[[[-69.1255,-31.9778,4066.7095],[-69.1191,-31.9677,4187.6152],[-69.1192,-31.9556,4105.4019],[-69.1154,-31.9438,4248.9243],[-69.1174,-31.9181,4299.6104],[-69.1154,-31.9078,4263.3623],[-69.108,-31.8872,4157.6567],[-69.1056,-31.8727,4020.3376],[-69.1039,-31.8434,3879.8674],[-69.131,-31.7884,3668.429],[-69.1451,-31.7434,3878.5129],[-69.1572,-31.7185,4218.6611],[-69.1578,-31.7108,4327.7969],[-69.1551,-31.6989,4219.2666],[-69.1564,-31.6937,4297.5938],[-69.1603,-31.6895,4196.1128],[-69.1633,-31.6763,4010.8408],[-69.1598,-31.6327,3827.1758],[-69.1548,-31.6192,3999.3638],[-69.1518,-31.6054,3911.0098],[-69.1519,-31.5789,3663.8391],[-69.1548,-31.5696,3551.969],[-69.1719,-31.5483,3865.509],[-69.1922,-31.5321,3856.7891],[-69.2026,-31.509,3760.0894],[-69.2061,-31.4872,3651.5403],[-69.216,-31.4631,3690.2881],[-69.2138,-31.4541,3668.0469],[-69.2075,-31.4425,3817.8784],[-69.2029,-31.4279,3791.5037],[-69.2012,-31.4022,3501.8975],[-69.2049,-31.38,3834.7],[-69.2101,-31.3648,3790.7671],[-69.216,-31.3523,3844.9573],[-69.2349,-31.3325,3403.8789],[-69.2394,-31.3198,3354.8887],[-69.239,-31.2966,2448.2559],[-69.2349,-31.2708,1856.3499],[-69.2323,-31.2402,1756.8173],[-69.2361,-31.2219,1992.4055],[-69.2473,-31.1875,3226.165],[-69.2486,-31.1753,3104.4697],[-69.2478,-31.1645,3308.6001],[-69.2311,-31.0925,3070.2051],[-69.2139,-31.0596,3195.9253],[-69.1982,-31.0346,3178.4104],[-69.1782,-31.0088,3364.7097],[-69.1732,-30.9984,3513.3794],[-69.1661,-30.9676,3433.3713],[-69.1547,-30.9361,3389.1528],[-69.1493,-30.9258,3612.1592],[-69.1409,-30.9166,3479.3552],[-69.1354,-30.9041,3615.4087],[-69.1262,-30.8521,3520.8296],[-69.1276,-30.8381,3406.2144],[-69.1262,-30.8199,3333.3472],[-69.1156,-30.8002,3133.5435],[-69.1044,-30.7857,3194.1865],[-69.1279,-30.7789,3024.6482],[-69.1818,-30.7707,2628.7688],[-69.2109,-30.7702,2566.7808],[-69.2467,-30.7646,2490.8115],[-69.2758,-30.7652,2491.825],[-69.2903,-30.7637,2497.6628],[-69.3559,-30.7366,2457.9087],[-69.3936,-30.7068,2478.9131],[-69.4044,-30.6942,2508.6343],[-69.4169,-30.6878,2544.0317],[-69.4311,-30.6849,2583.2302],[-69.4529,-30.6847,2647.6709],[-69.5313,-30.6711,3098.5771],[-69.5386,-30.672,3146.8074],[-69.555,-30.6786,3312.0989],[-69.5659,-30.6796,3397.6838],[-69.5731,-30.6784,3448.718],[-69.6003,-30.6696,3817.4141],[-69.6303,-30.6518,4077.2534],[-69.6477,-30.6356,3945.5979],[-69.6535,-30.632,3985.8687],[-69.6779,-30.6254,4156.0156],[-69.7036,-30.6278,4669.0469],[-69.7133,-30.6247,4670.6641],[-69.72,-30.617,4635.6025],[-69.7214,-30.6108,4863.6582],[-69.72,-30.6047,4911.6089],[-69.7382,-30.5635,5155.9023],[-69.7459,-30.5528,4946.4478],[-69.7652,-30.534,5218.1216],[-69.7794,-30.512,5146.9136],[-69.7819,-30.4996,4900.1709],[-69.7801,-30.484,5205.5957],[-69.7812,-30.4588,5537.0127],[-69.7872,-30.4408,5922.0962],[-69.7957,-30.4305,5632.6636],[-69.815,-30.4218,5134.9575],[-69.8345,-30.4077,5282.4473],[-69.8415,-30.3968,5066.4414],[-69.8458,-30.3719,4279.5039],[-69.8571,-30.342,4540.7607],[-69.8475,-30.3183,5102.3516],[-69.8468,-30.3026,5130.6055],[-69.8526,-30.2912,4981.9854],[-69.8624,-30.2834,5057.4092],[-69.8633,-30.2846,5028.9521],[-69.8905,-30.2742,6069.2046],[-69.8921,-30.2721,6068.2095],[-69.8952,-30.2721,6069.7915],[-69.8956,-30.2769,5993.0786],[-69.8982,-30.2813,5999.5098],[-69.8955,-30.2838,5990.2266],[-69.8944,-30.2881,6019.4385],[-69.8979,-30.2933,6051.8154],[-69.9028,-30.2956,6170.5669],[-69.9023,-30.2977,6188.3438],[-69.8994,-30.2994,6195.3672],[-69.8994,-30.3018,6043.0762],[-69.9014,-30.3057,5881.8262],[-69.9009,-30.3081,5795.813],[-69.9061,-30.3104,5852.6631],[-69.9075,-30.3198,5829.4365],[-69.904,-30.3266,5745.251],[-69.9056,-30.3298,5616.0752],[-69.905,-30.3403,5160.3271],[-69.9012,-30.3444,5075.1958],[-69.893,-30.3485,5174.4517],[-69.8919,-30.3509,5204.3066],[-69.898,-30.3552,4952.9814],[-69.9176,-30.3505,4607.5996],[-69.9242,-30.3527,4431.9009],[-69.9351,-30.359,4494.3955],[-69.9457,-30.3779,4823.209],[-69.9551,-30.3857,4981.894],[-69.96,-30.3832,4839.7437],[-69.9693,-30.3848,4965.4961],[-69.985,-30.3793,4845.0889],[-69.9945,-30.3789,4861.1108],[-70.0032,-30.3857,4901.1562],[-70.004,-30.389,4767.9238],[-70.0136,-30.3918,4771.811],[-70.0201,-30.3968,4972.5127],[-70.0245,-30.3965,4867.5459],[-70.0304,-30.3924,4793.917],[-70.0501,-30.3889,5121.2388],[-70.0633,-30.3946,4818.3618],[-70.0727,-30.3882,4422.2173],[-70.0762,-30.3818,4254.8486],[-70.0807,-30.3802,4371.8154],[-70.0815,-30.3772,4447.0068],[-70.0792,-30.3745,4483.0283],[-70.0907,-30.3737,4581.9199],[-70.1024,-30.3679,4952.083],[-70.1039,-30.3548,4896.6157],[-70.1066,-30.352,4715.6846],[-70.1302,-30.3427,4844.5669],[-70.1441,-30.3404,5158.7695],[-70.1482,-30.3415,5182.7378],[-70.1548,-30.3478,5026.2861],[-70.1527,-30.3532,4893.0269],[-70.1554,-30.3622,4716.5156],[-70.1531,-30.3662,4728.3022],[-70.1439,-30.3725,4698.6035],[-70.1411,-30.3851,4536.48],[-70.136,-30.3905,4681.416],[-70.1359,-30.3936,4556.8862],[-70.1327,-30.3991,4513.5679],[-70.1335,-30.4035,4602.2578],[-70.125,-30.4081,4950.814],[-70.1216,-30.4206,4754.9531],[-70.1176,-30.4261,4888.8232],[-70.1172,-30.4318,4971.2153],[-70.1242,-30.4371,4742.5098],[-70.1257,-30.4442,4789.0171],[-70.1299,-30.4484,4973.4194],[-70.1322,-30.4555,4971.894],[-70.136,-30.4595,5002.1387],[-70.1503,-30.4642,4900.2139],[-70.1952,-30.4924,4805.4653],[-70.181,-30.513,4562.1484],[-70.1832,-30.5193,4601.4043],[-70.1923,-30.5273,4580.041],[-70.19,-30.5338,4761.6719],[-70.1971,-30.537,4717.1655],[-70.1909,-30.5492,4708.582],[-70.2078,-30.5587,4331.9028],[-70.2088,-30.5617,4422.749],[-70.2064,-30.5704,4226.3398],[-70.2208,-30.5812,4276.458],[-70.2218,-30.5941,4286.772],[-70.2204,-30.5949,4338.208],[-70.2218,-30.5985,4262.9453],[-70.2263,-30.6027,4460.3154],[-70.2266,-30.6065,4523.0786],[-70.2381,-30.6125,4321.5293],[-70.2399,-30.6154,4413.2051],[-70.2393,-30.6245,4384.583],[-70.2467,-30.6335,4394.4424],[-70.2471,-30.6449,4690.9014],[-70.2503,-30.6465,4662.5015],[-70.2511,-30.6497,4574.251],[-70.2501,-30.6614,4503.854],[-70.2468,-30.6639,4404.2451],[-70.2404,-30.6649,4276.0898],[-70.2393,-30.6686,4429.1748],[-70.2436,-30.6744,4487.166],[-70.2523,-30.6758,4541.3945],[-70.2552,-30.6917,4657.7266],[-70.259,-30.7008,4447.0732],[-70.2562,-30.707,4303.438],[-70.256,-30.7143,4495.23],[-70.2456,-30.7285,4815.1421],[-70.2616,-30.7373,4269.4072],[-70.2647,-30.7428,4235.7241],[-70.2694,-30.746,4266.2876],[-70.2732,-30.755,4016.9326],[-70.2738,-30.7637,4200.9907],[-70.2719,-30.7672,4157.1499],[-70.2727,-30.781,4096.0488],[-70.2782,-30.7849,4196.7627],[-70.2838,-30.7832,4313.3232],[-70.2883,-30.7882,4144.2393],[-70.2911,-30.7996,4217.3887],[-70.2832,-30.8035,4052.0889],[-70.2773,-30.8117,4255.1509],[-70.2813,-30.8181,4162.5303],[-70.2786,-30.823,4168.4932],[-70.2798,-30.8312,4078.501],[-70.2841,-30.8377,4100.1421],[-70.2842,-30.8405,4204.1416],[-70.2872,-30.8426,4187.2803],[-70.2933,-30.8434,4175.0347],[-70.2952,-30.8461,4098.0098],[-70.2959,-30.8573,4246.501],[-70.300299999999993,-30.8609,4109.8613],[-70.3001,-30.8662,4209.1138],[-70.3048,-30.8771,4176.8188],[-70.3039,-30.8829,4076.4807],[-70.3074,-30.888,3893.3472],[-70.3071,-30.8984,4003.739],[-70.3087,-30.9019,4069.0205],[-70.3131,-30.9053,4134.707],[-70.3134,-30.9095,4056.896],[-70.3168,-30.9145,3940.0474],[-70.316,-30.9208,3974.4199],[-70.3216,-30.925,3981.2036],[-70.3231,-30.9297,3948.3086],[-70.3224,-30.9336,4039.832],[-70.3156,-30.9404,3993.3184],[-70.3146,-30.9545,3972.4185],[-70.309,-30.959,3884.9917],[-70.2984,-30.962,3896.2981],[-70.293,-30.9706,3862.2036],[-70.2945,-30.979,3839.7715],[-70.3031,-30.9955,3769.7495],[-70.2982,-30.9965,3701.9434],[-70.297,-31.0045,3691.488],[-70.294,-31.0088,3792.3286],[-70.2977,-31.0209,3895.3174],[-70.2896,-31.0239,3831.4829],[-70.2839,-31.0199,3936.1309],[-70.2772,-31.0211,4073.1504],[-70.2712,-31.0295,4124.6865],[-70.2695,-31.0438,4201.998],[-70.2742,-31.0451,4145.7227],[-70.2754,-31.049,4176.6206],[-70.2846,-31.0437,4083.0703],[-70.2917,-31.0466,3728.4541],[-70.298,-31.0468,3628.0789],[-70.3062,-31.0443,3695.4292],[-70.3218,-31.0432,3923.1802],[-70.325,-31.049,3866.0959],[-70.3252,-31.0527,3874.7473],[-70.3275,-31.0547,3893.0991],[-70.329,-31.0599,3956.2764],[-70.3283,-31.0629,4002.2534],[-70.3409,-31.0689,3958.2205],[-70.3416,-31.0765,4058.2197],[-70.3492,-31.0836,4004.7966],[-70.3516,-31.0893,4028.6926],[-70.357,-31.0926,4005.3721],[-70.359,-31.0987,4040.4827],[-70.3628,-31.1012,3968.3362],[-70.3682,-31.1102,3984.3818],[-70.3685,-31.1155,3999.4106],[-70.3641,-31.1182,3913.2456],[-70.3623,-31.1222,4005.0518],[-70.3652,-31.1313,4052.0369],[-70.3604,-31.1338,4026.2209],[-70.3608,-31.1352,3963.1843],[-70.3634,-31.137,3969.7083],[-70.3639,-31.1397,4027.8625],[-70.3716,-31.146,3934.3513],[-70.3757,-31.1527,4076.3691],[-70.3888,-31.155,3574.1147],[-70.3999,-31.1678,3262.418],[-70.4057,-31.1672,3209.2061],[-70.4138,-31.1569,3249.3538],[-70.4109,-31.1493,3273.5425],[-70.4139,-31.1376,3298.3403],[-70.4161,-31.1334,3336.019],[-70.4239,-31.1268,3305.2856],[-70.4282,-31.119,3327.1746],[-70.4324,-31.1016,3563.804],[-70.438,-31.095,3582.3445],[-70.4462,-31.091,3632.5688],[-70.4519,-31.086,3519.0579],[-70.4566,-31.0845,3590.6982],[-70.4587,-31.0868,3545.054],[-70.4644,-31.1032,3514.4973],[-70.475,-31.1148,3390.3416],[-70.487,-31.1162,3509.738],[-70.497,-31.1225,3688.1572],[-70.4977,-31.1251,3660.7725],[-70.4943,-31.1326,3659.585],[-70.4955,-31.1369,3613.5205],[-70.5006,-31.143,3683.5623],[-70.506,-31.1447,3765.6521],[-70.5094,-31.1487,3780.7568],[-70.5092,-31.155,3640.2109],[-70.5118,-31.1604,3691.6777],[-70.5161,-31.1641,3646.3386],[-70.5153,-31.1732,3649.8486],[-70.5206,-31.1792,3586.0271],[-70.5242,-31.1889,3667.0645],[-70.5235,-31.1902,3618.498],[-70.5183,-31.1904,3557.7144],[-70.5135,-31.1966,3761.1707],[-70.5169,-31.2022,3753.8469],[-70.5165,-31.2063,3695.606],[-70.5202,-31.2169,3705.3345],[-70.5171,-31.2232,3683.1758],[-70.5179,-31.2275,3706.1714],[-70.5153,-31.2319,3748.5144],[-70.5244,-31.2374,3729.6621],[-70.5256,-31.2403,3702.6255],[-70.5318,-31.245,3760.1826],[-70.5309,-31.2479,3791.7888],[-70.525,-31.252,3729.6072],[-70.5246,-31.257,3648.2441],[-70.5268,-31.2621,3668.7559],[-70.5256,-31.2657,3701.7993],[-70.53,-31.2747,3734.6189],[-70.5265,-31.2786,3683.8267],[-70.5304,-31.2825,3657.0291],[-70.5305,-31.2885,3759.8291],[-70.5354,-31.2894,3708.5549],[-70.539,-31.2974,3614.9163],[-70.5388,-31.3008,3679.99],[-70.5434,-31.3043,3641.4434],[-70.547,-31.3143,3683.7859],[-70.5433,-31.3209,3693.7266],[-70.5435,-31.3329,3832.6831],[-70.5399,-31.3376,3982.3616],[-70.5423,-31.3415,3882.676],[-70.542,-31.3448,3826.7246],[-70.5326,-31.351,3974.0947],[-70.5324,-31.362,3857.8691],[-70.527,-31.365,3930.02],[-70.5305,-31.3762,4057.8523],[-70.5359,-31.3846,4171.6479],[-70.5394,-31.3867,4198.4663],[-70.5386,-31.3937,4008.9565],[-70.5367,-31.3989,4011.269],[-70.5333,-31.4029,3994.8247],[-70.5327,-31.4079,4078.207],[-70.5336,-31.4094,4122.1738],[-70.5427,-31.4076,4016.5095],[-70.5499,-31.4083,4157.6963],[-70.5547,-31.4116,4117.1001],[-70.5557,-31.4155,4006.1177],[-70.5599,-31.4203,4070.9194],[-70.5565,-31.4275,4126.6377],[-70.5509,-31.4293,4104.4146],[-70.5501,-31.4333,4020.2661],[-70.5478,-31.4355,4088.4951],[-70.5521,-31.4417,3888.2366],[-70.5482,-31.4479,3829.2202],[-70.5516,-31.4548,3979.1255],[-70.5606,-31.4583,3958.0427],[-70.5687,-31.471,3950.1084],[-70.5693,-31.4745,3934.2642],[-70.5686,-31.4778,3970.7825],[-70.5621,-31.4818,3990.0542],[-70.5648,-31.4878,3843.8042],[-70.567,-31.5014,3726.9902],[-70.5589,-31.5085,3807.2612],[-70.5519,-31.5115,3756.1284],[-70.5579,-31.5199,3772.6379],[-70.5561,-31.5317,3811.7122],[-70.5597,-31.5421,3801.4341],[-70.5585,-31.5497,3804.8687],[-70.5626,-31.5618,3886.71],[-70.5584,-31.5705,4047.6018],[-70.5581,-31.5749,4084.1653],[-70.5666,-31.5833,4231.8071],[-70.5653,-31.5912,4216.8237],[-70.561,-31.5951,4130.6533],[-70.5665,-31.6006,4162.6362],[-70.557,-31.6054,4024.8784],[-70.5474,-31.6063,4167.8389],[-70.5444,-31.6109,4043.6582],[-70.5443,-31.6145,4065.8262],[-70.5403,-31.6234,4007.3364],[-70.5358,-31.6297,4006.7356],[-70.5317,-31.6322,3984.0193],[-70.5313,-31.6383,4039.7007],[-70.5233,-31.6439,3781.175],[-70.5066,-31.6521,4233.6069],[-70.5035,-31.6608,4281.9814],[-70.5094,-31.6635,4012.7998],[-70.512,-31.6738,3955.6472],[-70.5117,-31.6844,3992.4941],[-70.5133,-31.69,4254.6934],[-70.5038,-31.692,3882.1611],[-70.4998,-31.6947,3877.4324],[-70.4875,-31.6894,3671.2114],[-70.4829,-31.6924,3587.4456],[-70.4791,-31.6926,3596.3154],[-70.4786,-31.6943,3598.46],[-70.475,-31.6936,3609.8701],[-70.4667,-31.7012,3970.6191],[-70.4683,-31.7081,4257.7695],[-70.4654,-31.713,4412.686],[-70.4632,-31.7137,4390.5376],[-70.4655,-31.7191,4034.7053],[-70.4622,-31.7279,4172.7012],[-70.4572,-31.7335,4489.5791],[-70.4593,-31.7351,4402.3691],[-70.4615,-31.7446,4360.3037],[-70.4679,-31.7494,4234.8511],[-70.4685,-31.7554,4311.7334],[-70.472,-31.7591,4345.293],[-70.4673,-31.7611,4362.228],[-70.4685,-31.7649,4141.166],[-70.4677,-31.7712,4288.855],[-70.4627,-31.7797,4349.4639],[-70.4643,-31.7839,4398.2842],[-70.4624,-31.7882,4285.8804],[-70.4629,-31.7907,4365.9043],[-70.4562,-31.7962,4549.104],[-70.4581,-31.8028,4408.2603],[-70.4606,-31.8053,4395.0181],[-70.4506,-31.81,4415.4712],[-70.4546,-31.8147,4146.1289],[-70.4541,-31.8171,4076.8545],[-70.459,-31.8292,4218.667],[-70.4583,-31.8339,4255.2158],[-70.4606,-31.8437,4226.3662],[-70.4562,-31.8453,4168.9141],[-70.4545,-31.8492,4208.3853],[-70.4502,-31.8494,4136.7578],[-70.4443,-31.8523,4139.0444],[-70.4387,-31.8505,4044.0757],[-70.4304,-31.8548,3893.2866],[-70.4276,-31.8546,3912.9082],[-70.4223,-31.8604,4124.1006],[-70.4131,-31.8663,4125.5156],[-70.4084,-31.8668,3978.106],[-70.4033,-31.8743,4229.4712],[-70.3919,-31.8795,4438.9756],[-70.3791,-31.8798,4207.4688],[-70.3748,-31.886,4155.0679],[-70.3693,-31.882,3976.1069],[-70.3617,-31.8812,4051.2454],[-70.3563,-31.8844,4115.0049],[-70.3538,-31.888,4299.4819],[-70.3481,-31.8907,4572.6699],[-70.3439,-31.8867,4549.2471],[-70.3135,-31.8809,4996.7061],[-70.3081,-31.8829,4981.3525],[-70.3068,-31.8848,4762.8325],[-70.2934,-31.8846,4440.0664],[-70.2869,-31.8826,4595.9458],[-70.28,-31.8839,4862.3809],[-70.2731,-31.89,4691.5166],[-70.2684,-31.8986,4605.9624],[-70.2693,-31.903199999999998,4621.7827],[-70.2659,-31.906,4674.1035],[-70.2639,-31.9111,4786.8862],[-70.2545,-31.9151,4479.4658],[-70.2405,-31.9179,4094.1448],[-70.2396,-31.9225,4122.3359],[-70.2318,-31.9261,4368.8711],[-70.2318,-31.929,4388.1904],[-70.2287,-31.9329,4418.5972],[-70.2275,-31.9404,4720.3037],[-70.2252,-31.9417,4856.1685],[-70.223,-31.9467,4944.2632],[-70.2142,-31.9516,4740.8838],[-70.2094,-31.9596,4811.7466],[-70.211,-31.9682,4665.9082],[-70.2082,-31.978,4861.981],[-70.2178,-31.982,4446.9897],[-70.2278,-31.9802,4157.4014],[-70.2351,-31.9896,4072.4526],[-70.2397,-31.9915,3949.1245],[-70.244,-31.9908,3901.7544],[-70.2503,-31.9923,3958.7795],[-70.2472,-32.0034,3994.7283],[-70.2497,-32.0093,4007.9336],[-70.25,-32.0197,4193.3584],[-70.2483,-32.0236,4345.1377],[-70.2567,-32.0254,4301.1665],[-70.2596,-32.0275,4445.2217],[-70.262,-32.0329,4237.2139],[-70.2608,-32.0343,4197.124],[-70.2632,-32.0379,4230.5049],[-70.2714,-32.0344,4179.3076],[-70.2835,-32.0381,3870.79],[-70.2843,-32.0443,3772.5659],[-70.2882,-32.0512,3589.0073],[-70.2963,-32.0524,3513.895],[-70.2986,-32.0496,3515.3491],[-70.3082,-32.0474,3484.9382],[-70.3166,-32.047,3528.926],[-70.3222,-32.0494,3673.0913],[-70.329,-32.0487,3910.2581],[-70.3309,-32.0455,3926.5449],[-70.3378,-32.0451,3836.9546],[-70.3442,-32.0422,4023.4197],[-70.3467,-32.0394,4127.4326],[-70.3501,-32.0269,4146.1421],[-70.3612,-32.0252,4122.9282],[-70.3792,-32.0261,4138.0312],[-70.3816,-32.0292,4261.3398],[-70.3793,-32.0332,4247.2202],[-70.3841,-32.0366,4134.0176],[-70.3882,-32.0442,4229.7612],[-70.3876,-32.0458,4199.5269],[-70.3741,-32.0549,3904.7576],[-70.358,-32.0579,3961.783],[-70.3547,-32.0611,4019.5845],[-70.3482,-32.0626,4000.4868],[-70.3416,-32.0677,4026.7058],[-70.3353,-32.07,4021.7603],[-70.3352,-32.0771,3960.823],[-70.342,-32.0847,3677.4741],[-70.3475,-32.0852,3613.3015],[-70.3491,-32.0877,3635.9663],[-70.3474,-32.0938,3778.4048],[-70.3432,-32.0951,3827.6941],[-70.3437,-32.0986,3840.9502],[-70.3383,-32.1026,3944.3477],[-70.3416,-32.1084,3821.3628],[-70.3409,-32.1103,3845.2712],[-70.3292,-32.1223,3886.6475],[-70.3272,-32.1275,3859.3545],[-70.323,-32.1268,3877.7937],[-70.3187,-32.1316,3926.7241],[-70.3126,-32.1305,3970.822],[-70.3041,-32.136,3973.8218],[-70.305,-32.1416,3900.8828],[-70.3144,-32.15,3466.0557],[-70.3167,-32.1592,3353.1858],[-70.3121,-32.1655,3467.2617],[-70.3148,-32.1666,3493.8408],[-70.3139,-32.1738,3569.9805],[-70.3169,-32.1775,3684.2493],[-70.3136,-32.1824,3716.9802],[-70.3091,-32.1834,3817.1245],[-70.3094,-32.1853,3834.7532],[-70.3077,-32.1865,3848.2795],[-70.3096,-32.1907,3911.813],[-70.3087,-32.1952,3827.781],[-70.3101,-32.1987,3844.3225],[-70.3077,-32.1993,3834.7427],[-70.3059,-32.2031,3890.1128],[-70.3016,-32.2044,3972.1826],[-70.3009,-32.2068,4103.2334],[-70.3033,-32.2121,4134.5503],[-70.3081,-32.2157,4029.2612],[-70.3085,-32.2194,4141.1265],[-70.3109,-32.222,4197.1265],[-70.3097,-32.2272,4129.1694],[-70.3049,-32.2325,4247.8701],[-70.3094,-32.2367,4207.146],[-70.3105,-32.2386,4191.2505],[-70.3096,-32.2423,4179.8374],[-70.3219,-32.2585,4190.8467],[-70.3237,-32.2661,4215.5796],[-70.3222,-32.2688,4187.2759],[-70.3193,-32.2699,4203.3208],[-70.3197,-32.2733,4222.3823],[-70.3009,-32.276,4138.4121],[-70.2965,-32.2785,4362.2061],[-70.2952,-32.282,4414.0879],[-70.2936,-32.2826,4414.0879],[-70.293,-32.2873,4235.8428],[-70.2837,-32.2928,4323.5425],[-70.28,-32.2918,4379.3169],[-70.2706,-32.2935,4345.5332],[-70.2649,-32.2911,4524.5464],[-70.2627,-32.2917,4529.5454],[-70.2579,-32.3042,4644.7725],[-70.249,-32.3057,4646.8184],[-70.2409,-32.3166,4403.6401],[-70.2341,-32.318,4278.8721],[-70.2251,-32.3225,4225.4448],[-70.2179,-32.3329,4387.0591],[-70.2209,-32.341,4238.6904],[-70.2196,-32.3454,4025.6277],[-70.223,-32.3475,3919.2383],[-70.2233,-32.3503,3890.9495],[-70.2268,-32.3525,3752.5396],[-70.2285,-32.3561,3615.3303],[-70.2284,-32.3641,3529.417],[-70.2262,-32.3715,3827.531],[-70.2174,-32.3819,4081.7632],[-70.2229,-32.3899,4229.3091],[-70.2311,-32.3908,4376.1626],[-70.2321,-32.3955,4438.6465],[-70.2347,-32.3977,4478.1289],[-70.2348,-32.4002,4450.9521],[-70.2383,-32.4047,4368.7505],[-70.2352,-32.4136,4378.4424],[-70.2375,-32.4179,4445.3525],[-70.2366,-32.4287,4443.0986],[-70.2313,-32.4313,4341.9082],[-70.2183,-32.4292,4543.8359],[-70.2135,-32.439,4543.6123],[-70.2078,-32.4419,4613.9551],[-70.2004,-32.4418,4699.2012],[-70.1932,-32.45,4440.6455],[-70.1836,-32.4498,4232.7754],[-70.1653,-32.4554,3888.5188],[-70.1614,-32.4612,3889.3979],[-70.1531,-32.4628,4065.0959],[-70.1487,-32.4659,4300.9453],[-70.1495,-32.47,4379.1797],[-70.1456,-32.4746,4455.0532],[-70.1441,-32.4806,4457.5547],[-70.1408,-32.4854,4455.126],[-70.135,-32.488,4460.5322],[-70.1351,-32.4906,4525.2607],[-70.1403,-32.4966,4423.3154],[-70.1406,-32.5002,4398.6562],[-70.1335,-32.5112,4375.1426],[-70.1294,-32.5252,4253.916],[-70.1232,-32.5366,4535.3232],[-70.1236,-32.545,4767.145],[-70.1261,-32.5471,4804.0034],[-70.1279,-32.5529,4606.3008],[-70.1254,-32.5563,4792.1484],[-70.1281,-32.5638,4702.1709],[-70.1263,-32.5727,4842.7207],[-70.1131,-32.5796,4638.5576],[-70.0966,-32.5947,4719.9497],[-70.091,-32.6197,5340.1357],[-70.0886,-32.6244,5299.0962],[-70.0796,-32.6309,4889.4204],[-70.0736,-32.6319,4778.3418],[-70.0617,-32.6305,4864.9292],[-70.056,-32.6287,4769.4736],[-70.0517,-32.6252,5198.9595],[-70.0449,-32.6167,4926.4829],[-70.0351,-32.598,4833.3555],[-70.0358,-32.5725,4793.751],[-70.0325,-32.5683,4688.3809],[-70.004,-32.5495,4661.2466],[-69.9829,-32.5396,4589.2832],[-69.9768,-32.5386,4721.2676],[-69.9616,-32.5462,4700.9194],[-69.9446,-32.5411,4279.2285],[-69.9327,-32.5409,4292.2529],[-69.9215,-32.5445,4485.1831],[-69.9032,-32.5577,4432.9316],[-69.8857,-32.5617,4257.7334],[-69.8615,-32.5603,4248.9316],[-69.8558,-32.5614,4324.5503],[-69.8461,-32.5674,4376.8232],[-69.8344,-32.5696,4453.5845],[-69.8227,-32.567,4253.4893],[-69.8186,-32.5523,4193.4102],[-69.8155,-32.5479,4449.9492],[-69.8025,-32.5373,3957.5825],[-69.7907,-32.5355,4411.5747],[-69.7798,-32.5314,4685.8491],[-69.7557,-32.5326,4464.751],[-69.7321,-32.5371,3878.5369],[-69.7207,-32.5337,3866.9253],[-69.7153,-32.5315,3998.0649],[-69.7072,-32.524,4094.5637],[-69.6961,-32.5202,4303.103],[-69.6882,-32.5124,4450.9531],[-69.6864,-32.5076,4419.9243],[-69.6856,-32.4923,4115.5332],[-69.682,-32.4825,4347.5142],[-69.6859,-32.4729,4169.2349],[-69.6969,-32.4547,4531.7725],[-69.6966,-32.4498,4584.7769],[-69.6914,-32.4406,4066.3936],[-69.6908,-32.4356,4027.2598],[-69.6923,-32.4254,3861.4658],[-69.6907,-32.4103,4253.4941],[-69.6914,-32.3949,3839.686],[-69.6952,-32.38,4451.1997],[-69.698,-32.3754,4489.0039],[-69.7069,-32.3687,4309.2041],[-69.7147,-32.3494,4677.7744],[-69.7115,-32.3345,4625.8052],[-69.7063,-32.3253,4704.0317],[-69.6905,-32.3134,5076.4341],[-69.6801,-32.301,5561.1738],[-69.6667,-32.2907,4897.9033],[-69.661,-32.2818,4850.1855],[-69.6463,-32.2656,4752.7144],[-69.6362,-32.26,4737.1006],[-69.6316,-32.2507,4746.0322],[-69.6199,-32.239,5170.1816],[-69.6188,-32.234,5010.3882],[-69.6205,-32.2239,4562.8394],[-69.6197,-32.2189,4670.9009],[-69.6178,-32.2141,4962.4419],[-69.6077,-32.2014,5115.4834],[-69.6071,-32.1864,4746.1768],[-69.6019,-32.1771,4734.7725],[-69.6059,-32.1625,4404.5469],[-69.6059,-32.1574,4631.0825],[-69.5944,-32.1398,4595.8281],[-69.5893,-32.1372,4552.6753],[-69.5776,-32.1384,4583.7139],[-69.5683,-32.1321,4497.2773],[-69.5626,-32.1316,4699.084],[-69.5525,-32.1369,4184.8384],[-69.541,-32.1378,4239.438],[-69.52,-32.1279,4031.3381],[-69.5082,-32.1199,3780.5454],[-69.5003,-32.1123,3595.8457],[-69.4888,-32.1104,3316.1501],[-69.4851,-32.1065,3215.5732],[-69.4814,-32.0968,3091.4229],[-69.4617,-32.0775,2817.2566],[-69.4562,-32.0758,2705.4224],[-69.4382,-32.0752,2622.553],[-69.4232,-32.0665,2509.5942],[-69.4181,-32.067,2582.019],[-69.4137,-32.0706,2599.6636],[-69.4117,-32.0754,2565.0459],[-69.4066,-32.0776,2594.7307],[-69.4005,-32.0778,2479.7729],[-69.3951,-32.0757,2523.9575],[-69.3871,-32.0682,2476.8218],[-69.3828,-32.0664,2436.2129],[-69.3718,-32.0709,2271.6582],[-69.3572,-32.0797,2202.2065],[-69.3407,-32.0858,2218.2593],[-69.3293,-32.0891,2240.3113],[-69.3174,-32.0896,2258.3767],[-69.3128,-32.0867,2263.5781],[-69.3056,-32.0785,2301.8296],[-69.3005,-32.0757,2324.7261],[-69.2839,-32.0709,2379.1511],[-69.2703,-32.0494,2577.4644],[-69.2665,-32.0344,2643.6797],[-69.2637,-32.0298,2678.9521],[-69.2412,-32.0133,2859.043],[-69.2301,-32.0094,2949.2075],[-69.2247,-32.0107,2995.0432],[-69.22,-32.0142,3003.625],[-69.2152,-32.0132,3103.8889],[-69.2111,-32.0091,3253.2798],[-69.2058,-32.0068,3251.927],[-69.178,-32.0038,3599.9348],[-69.1755,-31.9973,3471.4285],[-69.1818,-31.9822,3585.5461],[-69.179,-31.9785,3583.1816],[-69.1627,-31.9702,3448.6362],[-69.1508,-31.9679,3550.4751],[-69.1324,-31.9698,4007.9412],[-69.1268,-31.9718,4085.136],[-69.1255,-31.9778,4066.7095]]]]}
,"properties": {"GID_2": "ARG.18.3_1","GID_0": "ARG","country": "Argentina","GID_1": "ARG.18_1","state": "SanJuan","NL_NAME_1": "NA","county": "Calingasta","VARNAME_2": "Tamberias","NL_NAME_2": "NA","TYPE_2": "Departamento","ENGTYPE_2": "Department","CC_2": "NA","HASC_2": "AR.SJ.CL","name": "Calingasta.county","area_km2": 22512.44,"hist_schema_id": "Elevation0-9000","hist_area_km2": {"1250": 1.65,"1275": 5.13,"1300": 7.9,"1325": 12.87,"1350": 20.26,"1375": 27.32,"1400": 32.37,"1425": 37.08,"1450": 41.77,"1475": 45.59,"1500": 48.56,"1525": 56.36,"1550": 63.39,"1575": 68.08,"1600": 70.84,"1625": 81.48,"1650": 87.13,"1675": 88.77,"1700": 92.17,"1725": 91.25,"1750": 99.3,"1775": 100.2,"1800": 100.1,"1825": 96.54,"1850": 100.74,"1875": 158.68,"1900": 139.05,"1925": 133.37,"1950": 131.5,"1975": 131.57,"2000": 133.44,"2025": 132.2,"2050": 134.93,"2075": 140.78,"2100": 143.27,"2125": 144.95,"2150": 153.81,"2175": 159.57,"2200": 166.62,"2225": 168.26,"2250": 172.11,"2275": 174.84,"2300": 175.26,"2325": 177.79,"2350": 179.12,"2375": 177.62,"2400": 172.99,"2425": 171.32,"2450": 168.33,"2475": 172.61,"2500": 175.76,"2525": 178.35,"2550": 179.55,"2575": 179.97,"2600": 176.63,"2625": 167.85,"2650": 160.85,"2675": 152.55,"2700": 145.16,"2725": 142.91,"2750": 138.8,"2775": 134.25,"2800": 136.15,"2825": 145.27,"2850": 136.38,"2875": 138.2,"2900": 134.35,"2925": 135.76,"2950": 141.42,"2975": 148.02,"3000": 150.73,"3025": 150.61,"3050": 156.7,"3075": 164.33,"3100": 164.9,"3125": 169.7,"3150": 175.3,"3175": 192.72,"3200": 193.75,"3225": 190.97,"3250": 190.07,"3275": 199.73,"3300": 222.07,"3325": 222.83,"3350": 228.65,"3375": 223.72,"3400": 229.57,"3425": 234.47,"3450": 237.17,"3475": 236.06,"3500": 245.9,"3525": 246.02,"3550": 252.03,"3575": 252.58,"3600": 252.42,"3625": 256.11,"3650": 253.99,"3675": 253.7,"3700": 252.07,"3725": 258.45,"3750": 252.36,"3775": 254.01,"3800": 250.54,"3825": 252.83,"3850": 250.62,"3875": 245.47,"3900": 244.41,"3925": 240.62,"3950": 237.87,"3975": 232.24,"4000": 224.61,"4025": 223.83,"4050": 214.45,"4075": 208.62,"4100": 202.57,"4125": 197.3,"4150": 193.64,"4175": 185.09,"4200": 178.74,"4225": 176.45,"4250": 174.14,"4275": 162.17,"4300": 158.26,"4325": 151.96,"4350": 145.33,"4375": 135.46,"4400": 130.16,"4425": 123.46,"4450": 116.26,"4475": 110.42,"4500": 106.21,"4525": 100.06,"4550": 94.23,"4575": 89.84,"4600": 83.42,"4625": 78.66,"4650": 76.39,"4675": 71.95,"4700": 67.08,"4725": 67.52,"4750": 64.18,"4775": 59.17,"4800": 54.08,"4825": 50.19,"4850": 46.26,"4875": 42.77,"4900": 40.06,"4925": 36.75,"4950": 34.12,"4975": 30.35,"5000": 28.36,"5025": 27.67,"5050": 23.6,"5075": 22.91,"5100": 21.46,"5125": 20.45,"5150": 20.29,"5175": 19.92,"5200": 18.77,"5225": 17.77,"5250": 17.32,"5275": 16.78,"5300": 16.73,"5325": 16.98,"5350": 17.94,"5375": 15.57,"5400": 14.36,"5425": 12.28,"5450": 8.56,"5475": 6.66,"5500": 6.71,"5525": 5.65,"5550": 5.03,"5575": 4.46,"5600": 3.44,"5625": 3.53,"5650": 3.68,"5675": 3.64,"5700": 3.12,"5725": 2.79,"5750": 2.7,"5775": 2.65,"5800": 2.81,"5825": 2.22,"5850": 2.47,"5875": 2.15,"5900": 2.43,"5925": 2.36,"5950": 2.51,"5975": 2.02,"6000": 1.86,"6025": 2.0,"6050": 1.57,"6075": 1.49,"6100": 1.3,"6125": 1.04,"6150": 1.13,"6175": 0.97,"6200": 0.97,"6225": 0.72,"6250": 0.83,"6275": 0.68,"6300": 0.49,"6325": 0.36,"6350": 0.4,"6375": 0.36,"6400": 0.27,"6425": 0.23,"6450": 0.29,"6475": 0.22,"6525": 0.29}}}