{"type":"Feature","properties":{"GID_2":"ARG.16.12_1","GID_0":"ARG","country":"Argentina","GID_1":"ARG.16_1","state":"RíoNegro","NL_NAME_1":"NA","county":"Valcheta","VARNAME_2":"NA","NL_NAME_2":"NA","TYPE_2":"Departamento","ENGTYPE_2":"Department","CC_2":"NA","HASC_2":"AR.RN.VA","name":"Valcheta.county"},
"geometry":{"type": "MultiPolygon","coordinates": [[[[-65.7265,-42.0027,305.8809],[-65.7497,-41.244,284.4847],[-65.7896,-41.1709,430.1804],[-65.7763,-39.927,186.5305],[-66.2255,-39.9255,245.8998],[-66.8309,-39.9163,150.9535],[-66.8574,-41.0986,863.3864],[-66.8826,-42.0023,667.0714],[-66.3418,-42.0039,547.9734],[-65.7265,-42.0027,305.8809]]]]}}