{"type":"Feature","properties":{"ISO3166-1-Alpha-3":"ARG","country":"Argentina","fill":"#F0F","id":"1272","name":"Tierra del Fuego"},
"geometry":{"type": "MultiPolygon","coordinates": [[[[-68.65412,-54.88624,151.5558],[-68.58727,-54.88535,294.6296],[-68.56823,-54.87835,167.0406],[-68.57185,-54.86273,204.2695],[-68.58056,-54.85475,9.3067],[-68.59948,-54.8414,143.7953],[-68.60936,-54.83229,390.2737],[-68.63231,-54.80535,0.0],[-68.64199,-54.79917,0.0],[-68.64234,-54.85365,141.2148],[-68.65414,-54.88624,151.5558],[-68.65414,-54.88624,151.5558],[-68.65412,-54.88624,151.5558]]],
[[[-64.34057,-54.716,10.468],[-64.35456,-54.70721,0.0],[-64.36388,-54.70599,0.0],[-64.37548,-54.72137,0.0],[-64.37662,-54.73447,0.0],[-64.37409,-54.74798,0.0],[-64.37442,-54.76474,0.0],[-64.3732,-54.77117,0.0],[-64.37072,-54.7776,0.0],[-64.37263,-54.78265,14.5718],[-64.38439,-54.78444,231.9337],[-64.39135,-54.782,0.0],[-64.3944,-54.77597,115.4631],[-64.39493,-54.76092,190.5648],[-64.39851,-54.74871,0.0],[-64.40705,-54.74383,0.0],[-64.41714,-54.7431,0.0],[-64.42565,-54.74358,0.0],[-64.43383,-54.74554,0.0],[-64.45263,-54.75465,0.0],[-64.46325,-54.75726,0.0],[-64.49791,-54.75042,0.0],[-64.51,-54.74236,0.0],[-64.53433,-54.72031,0.0],[-64.54235,-54.71559,0.0],[-64.56989,-54.7221,0.0],[-64.56017,-54.73748,0.0],[-64.50475,-54.77093,48.6416],[-64.52257,-54.78167,0.0],[-64.58275,-54.79608,0.0],[-64.60375,-54.79811,0.0],[-64.6529,-54.7776,1.3909],[-64.68309,-54.7702,0.0],[-64.6966,-54.78086,0.0],[-64.70788,-54.79217,0.0],[-64.7318,-54.80153,0.0],[-64.75373,-54.81341,0.0],[-64.75866,-54.83229,0.0],[-64.66861,-54.86647,80.599],[-64.67813,-54.87664,0.0],[-64.68908,-54.88445,0.0],[-64.69506,-54.8917,0.0],[-64.68977,-54.90057,0.0],[-64.67626,-54.90325,113.9506],[-64.62442,-54.90374,68.4578],[-64.60717,-54.90057,191.2663],[-64.59838,-54.89365,200.6115],[-64.58406,-54.87477,315.0477],[-64.57242,-54.86647,210.3134],[-64.5244,-54.85296,290.7369],[-64.51228,-54.84596,155.752],[-64.52131,-54.8401,279.4428],[-64.52526,-54.83856,307.7475],[-64.51635,-54.8318,413.3452],[-64.50658,-54.82733,377.4074],[-64.49596,-54.82497,423.2987],[-64.48428,-54.82488,219.2934],[-64.48428,-54.83229,144.4087],[-64.48998,-54.83554,127.5453],[-64.49279,-54.83864,84.6733],[-64.49474,-54.84197,34.0703],[-64.49791,-54.84596,0.0],[-64.46255,-54.84547,254.8044],[-64.44514,-54.84336,86.8439],[-64.42907,-54.83856,337.3963],[-64.41706,-54.83196,372.5153],[-64.39875,-54.81764,255.3717],[-64.38805,-54.81121,399.7812],[-64.33349,-54.7907,236.0],[-64.31111,-54.7776,157.5091],[-64.29931,-54.77663,85.0076],[-64.28506,-54.78444,337.5235],[-64.27709,-54.77972,217.6801],[-64.26976,-54.77752,403.343],[-64.25158,-54.77703,263.2336],[-64.26456,-54.80023,30.1878],[-64.27025,-54.81406,0.0],[-64.27074,-54.82488,0.0],[-64.26016,-54.83538,0.0],[-64.24454,-54.83709,0.0],[-64.23038,-54.83196,211.9503],[-64.22423,-54.82171,205.5378],[-64.13101,-54.81178,371.2993],[-64.10692,-54.80438,287.8552],[-64.10412,-54.80023,551.7307],[-64.10192,-54.79453,202.3593],[-64.09878,-54.78875,186.3893],[-64.09325,-54.78444,530.6057],[-64.08288,-54.78151,394.4218],[-64.07738,-54.782,383.8531],[-64.07299,-54.78379,292.1491],[-64.03694,-54.78484,429.4592],[-64.0218,-54.782,260.6135],[-64.00792,-54.77402,233.5659],[-63.99446,-54.76385,129.0537],[-63.97964,-54.75742,211.5456],[-63.96776,-54.75921,323.5229],[-63.96288,-54.77402,0.0],[-63.96679,-54.77996,0.0],[-63.98497,-54.80185,0.0],[-63.99083,-54.81121,0.0],[-63.97826,-54.81609,0.0],[-63.96679,-54.81504,0.0],[-63.91592,-54.78981,0.0],[-63.90355,-54.7859,297.1353],[-63.88467,-54.78444,0.0],[-63.87035,-54.78167,181.1984],[-63.86266,-54.77451,263.804],[-63.84996,-54.75384,309.511],[-63.84191,-54.74586,215.0716],[-63.83357,-54.73992,183.5915],[-63.81212,-54.72991,189.8369],[-63.82567,-54.71494,0.0],[-63.84581,-54.7221,0.0],[-63.86823,-54.73309,18.3874],[-63.88842,-54.72991,164.7756],[-63.88097,-54.72308,193.1823],[-63.91405,-54.71543,0.0],[-64.02432,-54.73358,0.0],[-64.05358,-54.74863,290.0136],[-64.06599,-54.75042,277.2187],[-64.0758,-54.74375,109.0807],[-64.0878,-54.72137,0.0],[-64.09325,-54.71559,0.0],[-64.10391,-54.71608,0.0],[-64.11205,-54.72129,0.0],[-64.11929,-54.72715,0.0],[-64.12743,-54.72991,14.886],[-64.1372,-54.72772,0.0],[-64.15111,-54.71795,0.0],[-64.15876,-54.71559,0.0],[-64.17447,-54.71893,0.0],[-64.17325,-54.72715,0.0],[-64.16906,-54.73724,0.0],[-64.17585,-54.747,0.0],[-64.18716,-54.747,193.5863],[-64.19921,-54.73968,0.0],[-64.21166,-54.73008,0.0],[-64.22423,-54.72308,0.0],[-64.24136,-54.72177,0.0],[-64.27156,-54.72723,0.0],[-64.28506,-54.72308,0.0],[-64.29137,-54.7221,0.0],[-64.29625,-54.7221,0.0],[-64.30065,-54.7208,0.0],[-64.30553,-54.71559,0.0],[-64.32372,-54.72226,0.0],[-64.34057,-54.716,10.468]]],
[[[-68.26598,-52.98065,0.0],[-68.28588,-52.94354,0.0],[-68.31143,-52.91204,0.0],[-68.34187,-52.88592,0.0],[-68.41031,-52.84857,6.5518],[-68.42813,-52.83465,60.4319],[-68.49275,-52.76287,0.0],[-68.55785,-52.70428,0.0],[-68.56603,-52.69492,0.0],[-68.5858,-52.66277,0.0],[-68.59488,-52.65423,0.0],[-68.62759,-52.63958,0.0],[-68.62762,-52.63957,0.0],[-68.62937,-52.90721,87.9855],[-68.63123,-53.1751,5.0],[-68.63299,-53.44289,191.644],[-68.63475,-53.71088,139.8521],[-68.63656,-53.97877,130.6296],[-68.63831,-54.24656,422.017],[-68.6401,-54.51477,73.2729],[-68.64188,-54.78297,180.3376],[-68.64188,-54.78297,180.3376],[-68.6361,-54.78444,237.4754],[-68.59508,-54.81121,5.6451],[-68.56461,-54.8388,0.0],[-68.54629,-54.84832,62.2319],[-68.52033,-54.85223,170.7293],[-68.32824,-54.84238,0.0],[-68.31469,-54.83261,2.7575],[-68.31151,-54.82415,16.8658],[-68.31517,-54.80136,66.762],[-68.30207,-54.79217,226.8776],[-68.27212,-54.799,0.0],[-68.21898,-54.81862,0.0],[-68.12365,-54.82399,55.0258],[-68.07763,-54.84612,0.0],[-67.93196,-54.86248,0.0],[-67.6678,-54.88063,111.3452],[-67.54076,-54.87461,0.0],[-67.33275,-54.89227,0.0],[-67.031,-54.90521,263.438],[-66.94555,-54.92864,157.9459],[-66.83092,-54.93646,70.2611],[-66.80281,-54.94256,39.952],[-66.71422,-54.9804,29.949],[-66.69762,-54.99188,19.0554],[-66.68057,-55.00701,15.775],[-66.65966,-55.02077,0.0],[-66.63007,-55.0311,0.0],[-66.54051,-55.05105,29.2822],[-66.45067,-55.05202,105.6211],[-66.42504,-55.04632,77.3293],[-66.37162,-55.03776,37.2612],[-66.36832,-55.02256,47.4504],[-66.37163,-55.00548,25.978],[-66.31707,-54.99498,0.0],[-66.19641,-54.99287,47.4069],[-66.11706,-54.99553,0.0],[-66.06098,-54.98397,61.7307],[-65.99336,-54.97237,0.0],[-65.96877,-54.95709,0.0],[-65.95083,-54.93995,0.0],[-65.9725,-54.9258,0.0],[-65.98756,-54.91068,0.0],[-65.96623,-54.90207,48.3771],[-65.9017,-54.91129,0.0],[-65.87712,-54.8998,28.9105],[-65.81089,-54.91559,0.0],[-65.76983,-54.90588,40.9972],[-65.75001,-54.90671,0.0],[-65.73185,-54.90756,78.3886],[-65.71886,-54.90927,252.6181],[-65.71398,-54.91473,377.4001],[-65.71019,-54.92108,214.0558],[-65.7084,-54.92913,255.2431],[-65.7108,-54.94345,93.3755],[-65.71019,-54.94842,0.0],[-65.69913,-54.96136,202.372],[-65.6857,-54.96917,22.0915],[-65.6691,-54.97177,0.1095],[-65.64867,-54.96893,46.2114],[-65.63476,-54.96209,112.7779],[-65.62816,-54.95273,23.9769],[-65.6234,-54.94264,47.9458],[-65.61514,-54.93418,293.6058],[-65.58064,-54.92832,283.688],[-65.49966,-54.93304,0.0],[-65.47741,-54.91424,0.0],[-65.48542,-54.89463,0.0],[-65.46272,-54.88445,55.1334],[-65.42858,-54.88405,5.9551],[-65.40168,-54.89373,250.715],[-65.39542,-54.90618,201.8893],[-65.39672,-54.91741,266.8942],[-65.39293,-54.92547,414.9927],[-65.37125,-54.92848,139.5372],[-65.35896,-54.92669,102.4451],[-65.34439,-54.92156,64.6564],[-65.33226,-54.91383,222.7876],[-65.30606,-54.85223,337.8204],[-65.29735,-54.84539,326.9846],[-65.26545,-54.8283,359.6509],[-65.2434,-54.82098,156.468],[-65.24478,-54.81129,35.2822],[-65.25031,-54.80006,0.0],[-65.25145,-54.7907,226.9922],[-65.24376,-54.78338,133.0606],[-65.20983,-54.76474,50.0089],[-65.21422,-54.75921,97.5669],[-65.21984,-54.74896,23.9078],[-65.22419,-54.74358,8.3577],[-65.19371,-54.6902,66.2965],[-65.18663,-54.68157,30.0691],[-65.16926,-54.67523,44.7793],[-65.15038,-54.66107,64.3183],[-65.14192,-54.64691,0.0],[-65.15559,-54.64056,0.0],[-65.30932,-54.62656,0.0],[-65.37971,-54.64479,36.2543],[-65.40624,-54.64528,34.8765],[-65.4569,-54.64056,0.0],[-65.69811,-54.66237,18.1198],[-65.76793,-54.65049,2.5803],[-65.84423,-54.64739,19.4895],[-65.85481,-54.64471,3.4956],[-65.88891,-54.62689,0.0],[-65.90294,-54.62428,5.2205],[-65.93041,-54.62265,6.8453],[-65.94416,-54.62005,11.4165],[-66.28746,-54.51946,4.2854],[-66.37687,-54.48547,0.0],[-66.41801,-54.47697,0.0],[-66.44824,-54.47341,0.0],[-66.48221,-54.4658,0.0],[-66.49231,-54.44134,0.0],[-66.52823,-54.42965,0.0],[-66.55421,-54.40443,0.0],[-66.65402,-54.34654,5.9708],[-66.70173,-54.28826,21.7048],[-66.76658,-54.24984,71.9068],[-66.9073,-54.2128,0.0],[-66.94306,-54.19992,40.9682],[-66.96136,-54.18168,89.373],[-67.02732,-54.15587,39.2633],[-67.14084,-54.1234,1.2837],[-67.29776,-54.05381,2.0568],[-67.57152,-53.90797,8.3973],[-67.58336,-53.89324,8.3991],[-67.58776,-53.86932,6.6523],[-67.57701,-53.85176,5.7003],[-67.54924,-53.84741,16.2755],[-67.55825,-53.83619,0.0],[-67.63027,-53.81318,6.8482],[-67.66015,-53.80008,7.1917],[-67.68271,-53.80334,0.0],[-67.70878,-53.80457,0.0],[-67.69865,-53.79012,7.8204],[-67.70246,-53.77475,9.0409],[-67.72435,-53.75954,7.6309],[-67.79378,-53.72717,6.6117],[-67.98363,-53.60133,4.5195],[-67.99242,-53.58847,6.713],[-68.04768,-53.52321,6.4228],[-68.05573,-53.50302,7.1639],[-68.06627,-53.4568,5.3955],[-68.07872,-53.43792,4.8414],[-68.08251,-53.42978,4.8779],[-68.07636,-53.3953,0.0],[-68.09191,-53.37562,0.0],[-68.1114,-53.3438,0.0],[-68.18933,-53.31374,7.2293],[-68.29607,-53.32017,5.4988],[-68.36482,-53.30895,0.0],[-68.41065,-53.29993,0.0],[-68.45135,-53.29772,0.0],[-68.50871,-53.26815,4.2182],[-68.55075,-53.23854,2.668],[-68.56358,-53.20204,4.5],[-68.5548,-53.16705,4.8617],[-68.52072,-53.12063,5.5757],[-68.46006,-53.08633,5.3421],[-68.40996,-53.04854,5.2674],[-68.38088,-53.03101,5.4589],[-68.34957,-53.01616,5.2866],[-68.32497,-53.00805,5.2128],[-68.30484,-53.00667,5.2652],[-68.28043,-53.01539,0.0],[-68.25284,-53.08717,0.0],[-68.24132,-53.10833,0.0],[-68.23054,-53.11858,0.0],[-68.22582,-53.10247,0.0],[-68.22924,-53.08733,0.0],[-68.26598,-52.98065,0.0]]]]}}