{"type":"Feature","properties":{"GID_2":"ARG.3.9_1","GID_0":"ARG","country":"Argentina","GID_1":"ARG.3_1","state":"Chaco","NL_NAME_1":"NA","county":"GeneralGüemes","VARNAME_2":"J.J.Castelli","NL_NAME_2":"NA","TYPE_2":"Departamento","ENGTYPE_2":"Department","CC_2":"NA","HASC_2":"AR.CC.GG","name":"GeneralGüemes.county"},
"geometry":{"type": "MultiPolygon","coordinates": [[[[-60.7941,-26.1243,115.5248],[-60.1178,-26.1256,97.1594],[-60.1172,-25.6567,105.3893],[-60.1257,-25.6572,101.6633],[-60.1377,-25.6553,108.1338],[-60.1493,-25.652,106.3979],[-60.1646,-25.6432,107.4414],[-60.1635,-25.6487,100.5],[-60.1694,-25.649,104.4638],[-60.174,-25.6519,108.0382],[-60.1762,-25.6572,105.8084],[-60.1813,-25.6565,105.9049],[-60.185,-25.652,105.4425],[-60.1909,-25.6498,102.1226],[-60.1948,-25.6464,106.2802],[-60.1946,-25.6405,111.0175],[-60.1887,-25.6309,107.4123],[-60.1856,-25.6203,108.4113],[-60.1921,-25.6222,102.0],[-60.1934,-25.6176,110.1687],[-60.1911,-25.6124,108.854],[-60.193,-25.6086,105.9819],[-60.2,-25.6135,106.7707],[-60.2006,-25.6083,106.9215],[-60.196,-25.5956,107.8813],[-60.2013,-25.5986,110.7126],[-60.2089,-25.5951,109.4306],[-60.2127,-25.5995,110.8476],[-60.2183,-25.5974,102.5],[-60.2209,-25.5868,109.6796],[-60.221,-25.5702,107.2427],[-60.2233,-25.5652,107.9326],[-60.2317,-25.5574,112.4873],[-60.2385,-25.548,105.2901],[-60.2326,-25.5387,110.6677],[-60.2331,-25.5337,114.1094],[-60.2374,-25.5295,112.277],[-60.2348,-25.5252,112.8391],[-60.2288,-25.5243,113.1128],[-60.227,-25.5201,113.8657],[-60.2346,-25.511,110.9615],[-60.235,-25.5063,108.1817],[-60.2402,-25.504,109.6742],[-60.2459,-25.5045,106.0],[-60.2449,-25.4996,107.5637],[-60.2351,-25.493,113.1939],[-60.238,-25.4892,113.9017],[-60.261,-25.4813,111.3589],[-60.2728,-25.4837,114.4711],[-60.2774,-25.4876,115.5329],[-60.2826,-25.4889,116.5255],[-60.2854,-25.4848,114.9995],[-60.2808,-25.4741,108.8226],[-60.2842,-25.4706,111.537],[-60.2881,-25.4755,114.3745],[-60.2931,-25.478,114.5296],[-60.2994,-25.4766,114.8244],[-60.3023,-25.4723,113.589],[-60.302,-25.4666,110.368],[-60.2981,-25.4624,116.237],[-60.2925,-25.46,113.7597],[-60.2892,-25.4554,116.7178],[-60.2889,-25.4493,117.0054],[-60.3004,-25.4511,114.4566],[-60.3027,-25.4475,115.6273],[-60.3041,-25.4363,116.0538],[-60.3014,-25.4312,117.0825],[-60.3038,-25.4266,118.1466],[-60.31,-25.426,118.4695],[-60.3244,-25.4356,116.6102],[-60.3305,-25.4362,117.0071],[-60.3383,-25.4279,116.6815],[-60.3488,-25.422,114.5535],[-60.3347,-25.4132,117.7566],[-60.3321,-25.4082,119.2993],[-60.3322,-25.4026,114.2362],[-60.3236,-25.393,114.0521],[-60.3306,-25.3912,110.3101],[-60.3328,-25.3863,115.2917],[-60.3375,-25.3882,119.6065],[-60.3401,-25.3933,117.7467],[-60.3442,-25.3961,116.9691],[-60.3506,-25.3804,118.735],[-60.3519,-25.375,119.819],[-60.3512,-25.3692,118.8145],[-60.3609,-25.3629,119.7203],[-60.3666,-25.3613,120.1893],[-60.3613,-25.3518,119.0668],[-60.3656,-25.349,120.5036],[-60.3779,-25.3499,118.9528],[-60.3834,-25.3478,120.114],[-60.3991,-25.3393,121.8017],[-60.4028,-25.3361,121.3924],[-60.4032,-25.3312,112.4101],[-60.4154,-25.3334,121.6248],[-60.4184,-25.3304,118.8886],[-60.414,-25.3197,119.142],[-60.4072,-25.3103,122.5948],[-60.4083,-25.3048,122.4133],[-60.4127,-25.3065,120.0988],[-60.4147,-25.3117,117.7507],[-60.4188,-25.3157,121.6615],[-60.4246,-25.3171,112.964],[-60.4295,-25.307,116.4309],[-60.4359,-25.2856,117.3143],[-60.4428,-25.2761,123.2763],[-60.4496,-25.278,122.8395],[-60.4551,-25.276,120.563],[-60.4764,-25.2638,125.3366],[-60.4709,-25.2588,124.9846],[-60.4696,-25.2543,117.7467],[-60.4747,-25.2511,125.0758],[-60.4756,-25.2456,125.4624],[-60.4859,-25.2401,122.811],[-60.489,-25.2298,116.8729],[-60.4859,-25.2281,119.5938],[-60.4869,-25.2238,115.5],[-60.4909,-25.2191,123.0317],[-60.4955,-25.2098,116.5379],[-60.4867,-25.2056,125.1046],[-60.4863,-25.2018,125.3898],[-60.4921,-25.2002,126.5224],[-60.498,-25.2021,124.0406],[-60.5194,-25.1929,122.8378],[-60.5289,-25.1791,125.1203],[-60.5347,-25.1809,126.1479],[-60.5437,-25.1955,124.392],[-60.5482,-25.199,125.715],[-60.5542,-25.2008,123.0812],[-60.559,-25.199,126.176],[-60.5589,-25.1929,126.3828],[-60.561,-25.1896,124.1455],[-60.5676,-25.1896,125.5768],[-60.573,-25.1869,122.9964],[-60.5742,-25.1822,126.2968],[-60.5708,-25.1782,118.0252],[-60.5742,-25.1733,125.4431],[-60.5894,-25.1801,120.7537],[-60.5952,-25.1754,118.574],[-60.6019,-25.1819,129.0785],[-60.6295,-25.1707,124.8643],[-60.6336,-25.1625,123.3302],[-60.6392,-25.1646,127.4415],[-60.6454,-25.1647,120.4597],[-60.6487,-25.1607,129.2017],[-60.644,-25.155,121.034],[-60.6457,-25.1512,125.8084],[-60.652,-25.1521,122.8771],[-60.6572,-25.1593,125.4094],[-60.6609,-25.1583,122.0],[-60.6615,-25.1523,122.0275],[-60.6589,-25.1476,126.9079],[-60.6521,-25.1421,123.065],[-60.6496,-25.1367,130.4134],[-60.6525,-25.1335,126.9],[-60.6646,-25.131,129.8579],[-60.6765,-25.1327,126.8549],[-60.6939,-25.1285,127.5476],[-60.7,-25.1299,129.0305],[-60.7052,-25.1281,125.043],[-60.7099,-25.1243,130.7313],[-60.7215,-25.1215,126.6819],[-60.7178,-25.1127,130.6264],[-60.7267,-25.1055,131.8112],[-60.7377,-25.1008,130.5269],[-60.7434,-25.0855,132.9017],[-60.7492,-25.0871,134.1482],[-60.7532,-25.0845,130.7863],[-60.7541,-25.0794,126.5],[-60.7596,-25.0766,131.7932],[-60.7653,-25.0764,131.6468],[-60.7712,-25.0783,134.991],[-60.7827,-25.0749,135.4015],[-60.7945,-25.0749,136.3991],[-60.8156,-25.0646,132.1279],[-60.8193,-25.0548,129.3999],[-60.8271,-25.0465,136.9692],[-60.8316,-25.0437,131.083],[-60.8407,-25.0428,135.6842],[-60.856,-25.0341,134.0407],[-60.8588,-25.0306,138.9486],[-60.856,-25.0264,138.2961],[-60.8617,-25.024,138.9726],[-60.8738,-25.0223,134.312],[-60.8826,-25.0177,130.0],[-60.8877,-25.0212,136.2764],[-60.8935,-25.0203,136.8849],[-60.9017,-25.0135,132.5598],[-60.9017,-24.9967,138.0054],[-60.9054,-24.9923,138.5955],[-60.9106,-24.9896,134.593],[-60.9289,-24.9879,131.7558],[-60.9331,-24.9853,140.9928],[-60.9183,-24.9756,140.1905],[-60.9206,-24.9704,139.6908],[-60.9368,-24.9628,132.0066],[-60.9484,-24.9502,140.4486],[-60.9656,-24.9449,143.7652],[-60.9694,-24.9406,142.9306],[-60.9751,-24.9386,142.7968],[-60.9831,-24.931,136.5463],[-60.9891,-24.9295,142.9982],[-60.9915,-24.9248,143.0065],[-60.992,-24.9193,139.701],[-60.9958,-24.9156,136.0881],[-61.008,-24.9146,142.5563],[-61.0115,-24.9107,142.9307],[-61.0058,-24.9091,135.7619],[-61.003,-24.8994,135.8209],[-61.0144,-24.895,136.398],[-61.0206,-24.8946,138.715],[-61.0228,-24.8896,135.5441],[-61.0278,-24.8885,133.4865],[-61.0338,-24.8898,141.9616],[-61.0397,-24.8885,146.2219],[-61.0442,-24.8852,143.5213],[-61.0474,-24.8742,143.5102],[-61.0707,-24.8619,142.3566],[-61.0742,-24.8577,143.5382],[-61.0733,-24.8521,144.4237],[-61.0761,-24.8473,144.8397],[-61.0808,-24.8436,145.0196],[-61.086,-24.8449,147.4172],[-61.0887,-24.8398,141.0119],[-61.0884,-24.8343,144.9777],[-61.0934,-24.8247,144.7224],[-61.0979,-24.8219,145.0682],[-61.1061,-24.8301,144.6796],[-61.124,-24.818,146.6884],[-61.1247,-24.8125,146.0802],[-61.1279,-24.8078,145.4076],[-61.1291,-24.798,144.3991],[-61.1354,-24.7985,148.0849],[-61.1396,-24.7955,148.8591],[-61.14,-24.7732,146.6051],[-61.1419,-24.768,145.9769],[-61.1489,-24.7591,147.0675],[-61.1514,-24.7491,143.8677],[-61.1436,-24.7407,148.0143],[-61.1555,-24.7421,148.5727],[-61.1586,-24.7378,141.2332],[-61.1627,-24.719,142.4235],[-61.1598,-24.7085,144.8393],[-61.1703,-24.7059,148.2107],[-61.1758,-24.7149,147.4624],[-61.1747,-24.7204,150.0407],[-61.1793,-24.7234,144.9126],[-61.1845,-24.7208,142.149],[-61.1899,-24.7121,142.0209],[-61.1952,-24.7143,150.8689],[-61.1976,-24.7093,149.6906],[-61.1958,-24.6992,149.6951],[-61.2002,-24.6964,150.5058],[-61.2009,-24.6854,141.8496],[-61.1991,-24.6804,143.9102],[-61.2042,-24.6774,142.6804],[-61.2111,-24.6683,144.2888],[-61.223,-24.6681,152.274],[-61.2249,-24.663,158.3231],[-61.2216,-24.6584,147.9916],[-61.2208,-24.6529,151.6216],[-61.2256,-24.65,145.6792],[-61.2436,-24.6483,149.9672],[-61.2551,-24.6452,151.3791],[-61.2573,-24.6402,152.5297],[-61.2673,-24.6355,150.2567],[-61.2725,-24.6359,145.3224],[-61.2813,-24.6439,153.2294],[-61.3053,-24.6427,149.0825],[-61.3112,-24.6441,151.5977],[-61.3155,-24.6478,153.684],[-61.3197,-24.658,153.4184],[-61.325,-24.6585,154.2267],[-61.3249,-24.6531,153.3959],[-61.3217,-24.6483,153.0661],[-61.324,-24.6438,152.5446],[-61.3416,-24.6402,146.6577],[-61.3531,-24.6422,155.0062],[-61.3587,-24.6399,155.5483],[-61.3705,-24.6391,157.2547],[-61.3841,-24.6281,156.5699],[-61.389,-24.6263,155.7496],[-61.4068,-24.6285,156.2027],[-61.4162,-24.6217,156.3457],[-61.4396,-24.6166,157.2678],[-61.4509,-24.6197,156.8906],[-61.4595,-24.6262,159.3734],[-61.4671,-24.6176,159.4944],[-61.4664,-24.6122,158.7301],[-61.4678,-24.6069,156.4977],[-61.4796,-24.5818,161.095],[-61.4839,-24.5773,158.906],[-61.4887,-24.5751,157.3817],[-61.4943,-24.5783,161.7583],[-61.4982,-24.5762,159.4649],[-61.5009,-24.5722,160.5038],[-61.5108,-24.5658,159.939],[-61.5148,-24.5615,162.5339],[-61.5171,-24.5502,154.0771],[-61.5215,-24.5482,160.8304],[-61.5278,-24.5503,159.9687],[-61.532,-24.5466,160.6006],[-61.5328,-24.541,161.461],[-61.5401,-24.5319,159.8733],[-61.5571,-24.5249,162.3631],[-61.5615,-24.5207,161.1278],[-61.5687,-24.5114,161.1375],[-61.5707,-24.5058,165.4486],[-61.5725,-24.489,163.4606],[-61.5748,-24.4838,163.9216],[-61.583,-24.4752,164.5725],[-61.5934,-24.469,163.9238],[-61.6014,-24.4602,164.7178],[-61.6061,-24.4594,169.0784],[-61.6092,-24.4647,162.9979],[-61.6164,-24.4693,164.5125],[-61.6228,-24.4689,164.1645],[-61.6339,-24.4646,167.0827],[-61.6434,-24.4638,168.1265],[-61.6469,-24.4537,167.3839],[-61.6529,-24.4535,169.2327],[-61.6626,-24.4605,165.9229],[-61.6685,-24.46,166.1705],[-61.6784,-24.4531,167.0683],[-61.6953,-24.4364,170.537],[-61.7012,-24.4263,170.9723],[-61.7087,-24.4177,172.7431],[-61.7091,-24.412,172.2132],[-61.7162,-24.3961,172.8551],[-61.7129,-24.3854,160.8561],[-61.7143,-24.3798,162.8135],[-61.7179,-24.3753,171.5376],[-61.7283,-24.3689,171.2716],[-61.7633,-24.3567,171.52],[-61.7689,-24.3504,171.1902],[-61.7748,-24.3341,174.4219],[-61.7864,-24.3139,177.1601],[-61.7902,-24.3139,178.3853],[-61.7846,-24.3309,175.8553],[-61.7846,-24.3367,173.694],[-61.7879,-24.3406,175.2657],[-61.7938,-24.3384,173.3268],[-61.8023,-24.3302,168.9766],[-61.813,-24.3242,175.2393],[-61.8193,-24.3143,171.224],[-61.8247,-24.3134,172.3832],[-61.8213,-24.3245,178.3039],[-61.8276,-24.3257,181.4161],[-61.8338,-24.3159,166.3698],[-61.8392,-24.3134,172.9777],[-61.8515,-24.3115,175.7422],[-61.8614,-24.3045,177.652],[-61.8669,-24.3038,178.9195],[-61.8677,-24.3095,173.1375],[-61.8704,-24.3138,172.367],[-61.8763,-24.3123,176.3696],[-61.8806,-24.3044,170.2339],[-61.8829,-24.2937,170.0299],[-61.8871,-24.2895,180.8832],[-61.8986,-24.2854,179.6344],[-61.9035,-24.2818,178.8432],[-61.9078,-24.2776,173.3955],[-61.9117,-24.2667,179.5568],[-61.9582,-24.2514,178.8704],[-61.9679,-24.2443,179.869],[-61.9698,-24.2391,183.9676],[-61.9696,-24.2331,172.9892],[-61.9734,-24.2299,179.3412],[-61.9797,-24.2306,176.5956],[-61.989,-24.2377,179.7837],[-62.0074,-24.2355,181.9938],[-62.0187,-24.2313,181.6331],[-62.0282,-24.2388,177.9505],[-62.0339,-24.241,175.0497],[-62.0389,-24.2385,181.1106],[-62.0409,-24.2271,180.9876],[-62.0459,-24.2239,184.7529],[-62.0769,-24.2253,180.2434],[-62.1002,-24.2179,186.2739],[-62.1054,-24.2147,182.8269],[-62.1045,-24.21,186.8137],[-62.0912,-24.1963,182.2039],[-62.0959,-24.1906,183.3323],[-62.1043,-24.1988,187.1791],[-62.1307,-24.214,180.8949],[-62.1368,-24.2136,187.8148],[-62.1399,-24.209,181.3226],[-62.1413,-24.2034,186.1832],[-62.1498,-24.1973,181.6229],[-62.1461,-24.1926,186.6473],[-62.1469,-24.1875,186.1392],[-62.153,-24.1888,189.0246],[-62.1579,-24.1922,189.9444],[-62.1675,-24.2068,184.3409],[-62.1718,-24.2105,188.8054],[-62.1779,-24.2084,189.8347],[-62.1763,-24.1919,184.1297],[-62.1725,-24.1872,186.7457],[-62.1743,-24.1769,180.2223],[-62.1719,-24.1713,185.7111],[-62.1766,-24.167,182.157],[-62.1829,-24.168,187.1452],[-62.1881,-24.1713,186.3522],[-62.1944,-24.1717,187.8941],[-62.1964,-24.1668,192.2706],[-62.1875,-24.159,187.9255],[-62.1929,-24.1539,181.193],[-62.2048,-24.1505,188.8416],[-62.2099,-24.1473,186.8367],[-62.2282,-24.1452,186.8439],[-62.2352,-24.1357,186.4978],[-62.2433,-24.1358,191.3467],[-62.2552,-24.1391,187.696],[-62.2673,-24.1367,187.199],[-62.2703,-24.1321,184.3266],[-62.2762,-24.1339,189.8581],[-62.2884,-24.1323,195.8365],[-62.29,-24.1271,183.1016],[-62.2949,-24.1244,182.5],[-62.2984,-24.1198,188.5788],[-62.2998,-24.114,195.1714],[-62.3119,-24.1126,186.2763],[-62.3215,-24.1134,188.6817],[-62.3216,-24.109,192.0684],[-62.3163,-24.1058,190.3866],[-62.3082,-24.0974,196.0956],[-62.3118,-24.0931,188.1353],[-62.3476,-24.1102,192.2305],[-62.3463,-24.318,190.3596],[-62.3478,-24.3944,188.4149],[-62.737,-24.8526,219.5586],[-62.2195,-24.8586,185.088],[-62.2151,-25.4945,188.5069],[-61.4295,-25.4921,147.1957],[-61.4298,-25.5827,146.4424],[-61.2532,-25.5847,139.9431],[-61.2559,-26.1216,135.2158],[-60.7941,-26.1243,115.5248]]]]}}