{"type":"Feature","properties":{"GID_2":"ARG.11.1_1","GID_0":"ARG","country":"Argentina","GID_1":"ARG.11_1","state":"LaPampa","NL_NAME_1":"NA","county":"Atreucó","VARNAME_2":"Macachin","NL_NAME_2":"NA","TYPE_2":"Departamento","ENGTYPE_2":"Department","CC_2":"NA","HASC_2":"AR.LP.AT","name":"Atreucó.county"},
"geometry":{"type": "MultiPolygon","coordinates": [[[[-63.3906,-36.8136,130.0013],[-64.1659,-36.8114,176.8557],[-64.1674,-37.2661,170.5025],[-63.3915,-37.2697,127.1801],[-63.3906,-36.8136,130.0013]]]]}}