{"type": "Feature","bbox": [-67.0437,-28.7161,-66.0229,-27.7212],"geometry": {"type": "MultiPolygon","coordinates": [[[[-66.025,-27.7749,2768.9292],[-66.0442,-27.7567,2761.4492],[-66.0653,-27.7436,2427.0828],[-66.0697,-27.7393,2199.2896],[-66.0758,-27.7292,2134.0215],[-66.0805,-27.7252,2158.4128],[-66.0863,-27.7227,1856.1038],[-66.0992,-27.7212,1578.0383],[-66.1243,-27.7261,1208.6825],[-66.1364,-27.7301,1100.4083],[-66.1476,-27.7358,1114.9525],[-66.1549,-27.7452,939.3006],[-66.1562,-27.751,977.6502],[-66.1555,-27.7574,913.7602],[-66.1594,-27.7604,903.746],[-66.1851,-27.7653,817.9612],[-66.2036,-27.7708,768.17],[-66.2435,-27.7895,740.2945],[-66.2684,-27.8077,734.2349],[-66.2912,-27.8357,734.4424],[-66.3357,-27.8588,742.1027],[-66.3567,-27.8722,744.7215],[-66.3855,-27.8953,748.0266],[-66.4023,-27.9127,752.304],[-66.4229,-27.9419,755.8509],[-66.4333,-27.9691,753.5774],[-66.4382,-27.9916,750.1962],[-66.4359,-28.0195,744.8181],[-66.79,-28.0162,865.2156],[-66.7983,-28.0249,868.9121],[-66.813,-28.0331,870.5138],[-66.8504,-28.0468,889.1334],[-66.8704,-28.0571,895.481],[-66.8918,-28.0813,883.4977],[-66.9034,-28.1047,870.9839],[-66.913,-28.1176,858.9578],[-66.9212,-28.1247,860.8893],[-66.9606,-28.1463,892.0953],[-67.0084,-28.1647,937.1816],[-67.0219,-28.1742,952.3041],[-67.0335,-28.1859,970.0347],[-67.0394,-28.1946,980.644],[-67.0403,-28.2152,999.7874],[-67.0437,-28.2407,1039.272],[-67.0397,-28.2594,905.1449],[-66.9964,-28.2427,910.9586],[-66.5795,-28.3202,734.7021],[-66.5178,-28.4529,713.3508],[-66.5162,-28.4635,711.356],[-66.516,-28.4847,708.0701],[-66.5205,-28.4946,706.4534],[-66.5199,-28.5049,706.8285],[-66.526,-28.5128,704.1617],[-66.5249,-28.5226,703.5338],[-66.5277,-28.5301,704.3698],[-66.5235,-28.537,708.554],[-66.5227,-28.5412,708.0268],[-66.4893,-28.5445,754.2319],[-66.4876,-28.5795,805.3894],[-66.4896,-28.6407,743.0667],[-66.4101,-28.6931,862.9664],[-66.3778,-28.7128,1032.6349],[-66.3699,-28.7161,1054.9417],[-66.365,-28.7073,1092.9912],[-66.3601,-28.7037,1284.6993],[-66.3206,-28.6835,1467.8011],[-66.29,-28.6737,2341.1064],[-66.2644,-28.6699,2452.1436],[-66.2584,-28.6677,2489.6355],[-66.2426,-28.6575,2632.8298],[-66.2399,-28.6525,2675.6528],[-66.2374,-28.6352,2703.6597],[-66.2324,-28.6245,2735.5176],[-66.2284,-28.62,2743.2588],[-66.223,-28.6162,2633.8433],[-66.2173,-28.6152,2613.3892],[-66.2115,-28.6186,2806.2476],[-66.205,-28.6191,2916.3013],[-66.1994,-28.6161,2921.981],[-66.1954,-28.6117,2906.1345],[-66.1871,-28.5961,2812.2236],[-66.1827,-28.5793,2904.281],[-66.1821,-28.5679,2830.1226],[-66.1792,-28.5627,2690.5154],[-66.1717,-28.5533,2816.8757],[-66.1664,-28.55,2825.8931],[-66.1543,-28.5459,2825.5879],[-66.1441,-28.5389,2811.6545],[-66.1358,-28.5233,2923.2131],[-66.1259,-28.4901,2840.0186],[-66.1203,-28.4871,2840.998],[-66.1011,-28.4886,3516.1443],[-66.0888,-28.4847,3525.6384],[-66.0838,-28.4812,3629.1055],[-66.076,-28.4718,3447.0122],[-66.074,-28.4665,3481.3186],[-66.0746,-28.4606,3483.8872],[-66.0504,-28.442,3879.3599],[-66.0442,-28.4319,4110.7192],[-66.0428,-28.4263,4117.4473],[-66.0436,-28.4092,4138.7295],[-66.0523,-28.3873,4295.9126],[-66.0467,-28.3774,4176.0146],[-66.0452,-28.3717,4005.2759],[-66.0461,-28.3545,4126.3613],[-66.039,-28.3386,4075.5789],[-66.0367,-28.2812,3753.355],[-66.0229,-28.2488,3927.9087],[-66.0234,-28.2436,4081.7805],[-66.0409,-28.2256,3692.1335],[-66.0316,-28.212,3751.4294],[-66.0277,-28.1952,3976.5977],[-66.0287,-28.1837,4010.3376],[-66.0337,-28.1611,3996.8789],[-66.0339,-28.1554,3866.0095],[-66.0307,-28.1443,3754.7241],[-66.0311,-28.1329,3645.6111],[-66.0387,-28.1049,3347.4937],[-66.0454,-28.0888,3638.791],[-66.0734,-28.0435,3161.4062],[-66.0753,-28.038,3055.3596],[-66.0755,-28.0207,3424.7576],[-66.0771,-28.0152,3449.7109],[-66.0852,-28.0063,3406.5896],[-66.0981,-27.9862,2104.5586],[-66.1006,-27.9751,2990.0903],[-66.0983,-27.9638,2928.4692],[-66.0956,-27.9586,2857.583],[-66.0874,-27.9497,2983.604],[-66.0777,-27.9283,2767.9016],[-66.0743,-27.9236,2803.6851],[-66.0636,-27.9171,2950.0481],[-66.0557,-27.908,2894.2783],[-66.0513,-27.8913,2876.4277],[-66.0522,-27.8798,2741.9722],[-66.0542,-27.8744,2705.5122],[-66.0738,-27.8381,2443.0449],[-66.0804,-27.8218,2689.856],[-66.0829,-27.8105,2726.2036],[-66.0814,-27.7992,2595.6482],[-66.0761,-27.7886,2485.8779],[-66.0665,-27.7808,2397.2358],[-66.0541,-27.7777,2414.4502],[-66.025,-27.7749,2768.9292]]]]}
,"properties": {"GID_2": "ARG.2.12_1","GID_0": "ARG","country": "Argentina","GID_1": "ARG.2_1","state": "Catamarca","NL_NAME_1": "NA","county": "Pomán","VARNAME_2": "Saujil","NL_NAME_2": "NA","TYPE_2": "Departamento","ENGTYPE_2": "Department","CC_2": "NA","HASC_2": "AR.CT.PO","name": "Pomán.county","area_km2": 5215.812,"hist_schema_id": "Elevation0-9000","hist_area_km2": {"675": 0.26,"700": 17.102,"725": 964.96,"750": 826.014,"775": 533.45,"800": 360.959,"825": 373.177,"850": 279.617,"875": 169.067,"900": 94.703,"925": 79.538,"950": 64.864,"975": 54.994,"1000": 45.137,"1025": 37.311,"1050": 35.217,"1075": 30.087,"1100": 28.127,"1125": 26.463,"1150": 25.215,"1175": 23.142,"1200": 21.932,"1225": 20.306,"1250": 19.843,"1275": 19.822,"1300": 19.58,"1325": 20.399,"1350": 18.587,"1375": 18.698,"1400": 18.419,"1425": 17.785,"1450": 17.876,"1475": 16.435,"1500": 17.351,"1525": 16.25,"1550": 17.126,"1575": 16.362,"1600": 15.837,"1625": 15.931,"1650": 16.567,"1675": 15.894,"1700": 15.632,"1725": 15.37,"1750": 14.922,"1775": 15.205,"1800": 15.073,"1825": 13.374,"1850": 14.158,"1875": 14.213,"1900": 14.233,"1925": 12.815,"1950": 13.093,"1975": 13.822,"2000": 13.951,"2025": 13.111,"2050": 13.3,"2075": 13.505,"2100": 13.654,"2125": 13.17,"2150": 13.992,"2175": 12.704,"2200": 14.123,"2225": 14.198,"2250": 13.884,"2275": 12.665,"2300": 12.609,"2325": 12.026,"2350": 11.97,"2375": 11.862,"2400": 11.974,"2425": 12.121,"2450": 13.314,"2475": 14.116,"2500": 14.246,"2525": 13.387,"2550": 12.973,"2575": 12.765,"2600": 12.223,"2625": 12.168,"2650": 12.84,"2675": 11.383,"2700": 11.161,"2725": 10.174,"2750": 9.914,"2775": 9.391,"2800": 9.988,"2825": 9.485,"2850": 8.792,"2875": 8.1,"2900": 7.485,"2925": 6.758,"2950": 5.938,"2975": 5.135,"3000": 4.893,"3025": 4.407,"3050": 4.202,"3075": 4.332,"3100": 4.37,"3125": 4.015,"3150": 4.444,"3175": 4.09,"3200": 3.921,"3225": 3.716,"3250": 3.174,"3275": 3.94,"3300": 3.343,"3325": 3.903,"3350": 3.904,"3375": 3.493,"3400": 3.791,"3425": 2.913,"3450": 3.791,"3475": 3.23,"3500": 3.006,"3525": 3.566,"3550": 3.118,"3575": 3.285,"3600": 2.315,"3625": 2.464,"3650": 2.109,"3675": 2.652,"3700": 2.633,"3725": 2.446,"3750": 2.072,"3775": 2.054,"3800": 1.736,"3825": 1.549,"3850": 1.997,"3875": 1.568,"3900": 1.419,"3925": 1.456,"3950": 1.045,"3975": 1.512,"4000": 1.475,"4025": 1.83,"4050": 1.867,"4075": 2.408,"4100": 3.136,"4125": 2.725,"4150": 2.09,"4175": 1.717,"4200": 1.362,"4225": 0.709,"4250": 0.84,"4275": 0.896,"4300": 0.746,"4325": 0.709,"4350": 0.672,"4375": 0.952,"4400": 0.392,"4425": 0.261,"4450": 0.168,"4475": 0.075}}}