{"type":"Feature","properties":{"GID_2":"ARG.6.25_1","GID_0":"ARG","country":"Argentina","GID_1":"ARG.6_1","state":"Córdoba","NL_NAME_1":"NA","county":"Tulumba","VARNAME_2":"VillaTulumba","NL_NAME_2":"NA","TYPE_2":"Departamento","ENGTYPE_2":"Department","CC_2":"NA","HASC_2":"AR.CB.TU","name":"Tulumba.county"},
"geometry":{"type": "MultiPolygon","coordinates": [[[[-65.009,-29.9856,179.9683],[-65.0085,-30.01,180.0158],[-64.317,-30.0913,744.7151],[-64.3201,-30.1163,670.0303],[-64.2993,-30.1215,689.3557],[-64.31,-30.2213,735.4963],[-64.3792,-30.2097,556.2422],[-64.3871,-30.2945,571.0836],[-64.3992,-30.2952,555.3168],[-64.4006,-30.3571,587.1221],[-64.386,-30.3687,606.7557],[-64.3168,-30.3705,694.2449],[-64.3094,-30.469,758.7755],[-64.2022,-30.4687,790.9885],[-64.1916,-30.4744,765.3569],[-64.1853,-30.4752,778.6774],[-64.1535,-30.4753,697.7168],[-64.1348,-30.472,665.8543],[-64.1158,-30.4732,630.1932],[-64.0683,-30.489,583.7161],[-64.0368,-30.4926,526.6053],[-64.0241,-30.4922,510.4915],[-64.006,-30.4873,498.9749],[-63.9904,-30.4778,486.6937],[-63.9876,-30.4728,480.6418],[-63.9798,-30.4215,521.551],[-63.8434,-30.4198,347.507],[-63.8398,-30.4938,352.525],[-63.8053,-30.4961,324.2954],[-63.8066,-30.5362,317.3745],[-63.7463,-30.5271,275.3788],[-63.7272,-30.5331,260.8618],[-63.6241,-30.5404,193.501],[-63.6212,-30.5204,195.5073],[-63.6174,-30.5172,195.0697],[-63.6087,-30.523,187.6104],[-63.6056,-30.5183,186.1898],[-63.6002,-30.516,186.1791],[-63.5749,-30.5197,169.0969],[-63.573,-30.5091,172.7219],[-63.3823,-30.5368,79.0922],[-63.3877,-30.604,81.8944],[-63.2168,-30.6318,76.6366],[-63.2205,-30.6497,79.0001],[-63.0288,-30.6791,69.5887],[-63.0163,-30.6705,68.6892],[-62.9981,-30.6669,67.5],[-63.0024,-30.6632,68.0089],[-62.9976,-30.6595,67.5],[-62.9914,-30.6585,67.5],[-62.967,-30.6639,67.5],[-62.9611,-30.662,67.5],[-62.9547,-30.6623,67.5],[-62.9438,-30.6674,67.5],[-62.9379,-30.665,67.5],[-62.9254,-30.6638,67.5],[-62.9253,-30.6587,67.5],[-62.9288,-30.6544,67.5],[-62.9193,-30.6469,67.5],[-62.918,-30.6418,67.5],[-62.9133,-30.6387,67.5],[-62.9105,-30.643,67.5],[-62.909,-30.6525,67.5],[-62.9113,-30.6576,67.5],[-62.9062,-30.6589,67.5],[-62.8936,-30.6565,67.5],[-62.8875,-30.657,67.5],[-62.8755,-30.6609,67.5],[-62.8716,-30.658,67.5],[-62.8798,-30.6498,67.5],[-62.8821,-30.6451,67.5],[-62.8873,-30.6418,67.912],[-62.8892,-30.637,69.8302],[-62.8836,-30.6342,67.5],[-62.8524,-30.6295,68.8035],[-62.8414,-30.6243,74.7221],[-62.8229,-30.6202,70.9003],[-62.8127,-30.6136,67.5],[-62.7881,-30.6082,67.5],[-62.7712,-30.601,67.5],[-62.7586,-30.6026,67.5],[-62.7213,-30.5957,69.2217],[-62.6958,-30.5957,67.5],[-62.6897,-30.5942,67.5],[-62.6842,-30.5914,67.5],[-62.6769,-30.5824,67.5],[-62.6766,-30.5714,67.5],[-62.6785,-30.5661,67.5],[-62.6831,-30.5628,67.7002],[-62.6955,-30.5605,67.5],[-62.7012,-30.5578,67.5],[-62.7041,-30.5532,67.5],[-62.7033,-30.5477,67.5],[-62.6962,-30.5386,67.5],[-62.682,-30.5276,67.5],[-62.6562,-30.5116,67.5],[-62.6501,-30.5105,67.5],[-62.6452,-30.5133,69.2614],[-62.643,-30.5184,69.2143],[-62.639,-30.5227,67.5],[-62.6328,-30.5234,67.5],[-62.6282,-30.5261,67.5],[-62.628,-30.5314,67.5],[-62.6095,-30.5331,67.5],[-62.5906,-30.5326,68.5896],[-62.5735,-30.5259,67.5],[-62.5554,-30.5246,67.5],[-62.5531,-30.5299,67.5],[-62.5445,-30.5378,67.5],[-62.5439,-30.5429,67.5],[-62.556399999999996,-30.5425,67.5],[-62.5524,-30.5468,67.5],[-62.5481,-30.5507,67.5],[-62.5238,-30.5569,67.5],[-62.5132,-30.5629,67.5],[-62.507,-30.564,67.5],[-62.4816,-30.5632,68.1495],[-62.4437,-30.5673,67.5],[-62.4394,-30.5636,67.5],[-62.438,-30.5582,67.5],[-62.4343,-30.554,67.5],[-62.4279,-30.5531,67.5],[-62.3722,-30.5633,67.5],[-62.3701,-30.3252,69.5807],[-62.522,-30.3263,68.0699],[-63.3775,-30.2175,83.6156],[-63.381,-30.2881,76.8057],[-63.4142,-30.291,88.3455],[-63.4149,-30.2564,92.1636],[-63.5109,-30.2562,151.6958],[-63.5138,-30.1658,163.7845],[-63.8296,-30.1156,428.1044],[-63.8351,-30.1128,430.2563],[-63.8485,-30.1013,467.7257],[-63.8766,-30.0887,545.1223],[-63.8922,-30.0793,552.8046],[-63.9044,-30.0764,583.2709],[-63.9168,-30.0776,560.7427],[-63.9348,-30.083,579.4056],[-63.96,-30.0849,655.6171],[-64.0077,-30.0989,710.5604],[-64.0255,-30.0935,745.7801],[-64.1629,-30.0781,841.2219],[-64.161,-30.0301,885.4412],[-64.2029,-29.9435,788.384],[-64.4177,-29.8964,270.0153],[-64.4026,-29.8695,241.7172],[-64.4076,-29.8027,208.9552],[-64.4774,-29.7916,181.5331],[-64.4732,-29.5222,119.1433],[-64.501,-29.5268,119.0934],[-64.6574,-29.544,151.1424],[-64.7368,-29.555,221.001],[-64.8506,-29.565,178.3107],[-64.9697,-29.5856,180.775],[-64.9238,-29.827,178.607],[-64.9073,-29.9066,178.0933],[-65.009,-29.9856,179.9683]]]]}}