{"type":"Feature","properties":{"GID_2":"ARG.15.16_1","GID_0":"ARG","country":"Argentina","GID_1":"ARG.15_1","state":"Neuquén","NL_NAME_1":"NA","county":"Zapala","VARNAME_2":"NA","NL_NAME_2":"NA","TYPE_2":"Departamento","ENGTYPE_2":"Department","CC_2":"NA","HASC_2":"AR.NQ.ZA","name":"Zapala.county"},
"geometry":{"type": "MultiPolygon","coordinates": [[[[-69.5541,-38.4815,521.9175],[-69.564,-38.4836,560.1485],[-69.6087,-38.4833,568.4855],[-69.6459,-38.4907,616.6777],[-69.6574,-38.4949,590.1876],[-69.6798,-38.5129,559.7486],[-69.6853,-38.5133,563.8596],[-69.7042,-38.5079,574.6658],[-69.7169,-38.5072,584.0662],[-69.7477,-38.5131,599.4697],[-69.7769,-38.5325,601.265],[-69.7817,-38.542,626.8226],[-69.7782,-38.5566,614.215],[-69.779,-38.5615,616.7882],[-69.7893,-38.5854,669.2503],[-69.7965,-38.5935,650.2068],[-69.8154,-38.6071,636.4579],[-69.8356,-38.6196,645.2802],[-69.8466,-38.6244,649.0272],[-69.8713,-38.6294,679.6935],[-69.8868,-38.6383,670.4609],[-69.8927,-38.64,670.3325],[-69.9424,-38.6491,734.9326],[-69.9588,-38.6569,776.8854],[-69.9716,-38.6681,775.1404],[-69.9827,-38.6861,793.088],[-69.9935,-38.6986,796.9513],[-70.0249,-38.7158,796.5685],[-70.0381,-38.7267,808.8853],[-70.0485,-38.7392,818.7335],[-70.0557,-38.7532,815.3177],[-70.0653,-38.7662,856.6616],[-70.0821,-38.7816,809.6733],[-70.0919,-38.7879,845.8877],[-70.1164,-38.7932,854.744],[-70.1333,-38.8004,867.9386],[-70.1653,-38.7988,910.5982],[-70.184,-38.8017,909.5181],[-70.2396,-38.8265,1116.0769],[-70.5324,-39.0442,1850.0793],[-70.4135,-39.1386,1311.9966],[-70.3786,-39.1258,1198.8705],[-70.3659,-39.1269,1340.0343],[-70.3478,-39.1321,1228.9663],[-70.3391,-39.1394,1225.4044],[-70.3286,-39.1521,1250.6711],[-70.3109,-39.1666,1083.8314],[-70.2829,-39.1943,999.1487],[-70.2731,-39.2004,926.7795],[-70.2669,-39.2019,928.5489],[-70.2089,-39.2048,945.4019],[-70.2025,-39.2045,933.0957],[-70.191,-39.2,867.6204],[-70.1727,-39.2036,895.7853],[-70.1405,-39.2038,848.7735],[-70.1212,-39.2055,831.2249],[-70.1156,-39.2077,825.9926],[-70.1015,-39.2181,881.1606],[-70.0861,-39.227,906.621],[-70.0758,-39.2397,810.9399],[-70.0717,-39.2491,860.639],[-70.0592,-39.2526,822.08],[-70.055,-39.2555,825.3759],[-70.0518,-39.2654,815.8591],[-70.0378,-39.2758,794.3917],[-70.0046,-39.2912,747.1417],[-69.9853,-39.2914,732.6447],[-69.9794,-39.2932,726.9422],[-69.9695,-39.2997,693.1676],[-69.9615,-39.3076,678.6364],[-69.9279,-39.3225,676.8206],[-69.9135,-39.3324,667.9583],[-69.9005,-39.3375,660.3416],[-69.724,-39.2048,738.0922],[-69.6577,-39.2599,671.362],[-69.3294,-39.0063,765.2023],[-69.5938,-38.7877,702.586],[-69.3571,-38.6086,600.654],[-69.3901,-38.6036,626.0885],[-69.3937,-38.5904,626.5713],[-69.4002,-38.5851,625.4183],[-69.4074,-38.5845,644.9537],[-69.4134,-38.5785,643.3617],[-69.4223,-38.5654,642.7607],[-69.4244,-38.5453,550.6146],[-69.431,-38.5259,623.6709],[-69.4406,-38.5127,604.2087],[-69.449,-38.505,553.6541],[-69.4593,-38.4996,527.8604],[-69.472,-38.4972,504.2141],[-69.5229,-38.4993,516.7955],[-69.5396,-38.4922,514.0663],[-69.5541,-38.4815,521.9175]]]]}}