{"type": "Feature","bbox": [-62.8892,-34.3843,-61.1257,-33.3935],"geometry": {"type": "MultiPolygon","coordinates": [[[[-61.1257,-33.8281,88.6921],[-61.1634,-33.7893,88.5168],[-61.1581,-33.784,87.3368],[-61.413,-33.4428,94.0776],[-61.4589,-33.468,98.6839],[-61.5107,-33.3935,105.3267],[-61.975,-33.3962,103.3055],[-62.1178,-33.3947,113.4997],[-62.497,-33.8941,120.8663],[-62.5761,-33.9948,121.0175],[-62.6184,-34.0436,119.8725],[-62.7406,-34.2026,119.0633],[-62.855,-34.3548,121.5745],[-62.8676,-34.3688,122.658],[-62.8867,-34.3809,122.5462],[-62.8892,-34.3843,123.0575],[-62.4777,-34.3824,107.7734],[-62.0021,-34.3827,102.8801],[-61.7177,-34.3788,88.742],[-61.6188,-34.2884,88.5],[-61.569,-34.2487,92.7607],[-61.5304,-34.2121,87.6637],[-61.5017,-34.1822,81.5],[-61.3099,-33.9993,97.9174],[-61.1257,-33.8281,88.6921]]]]}
,"properties": {"GID_2": "ARG.21.6_1","GID_0": "ARG","country": "Argentina","GID_1": "ARG.21_1","state": "SantaFe","NL_NAME_1": "NA","county": "GeneralLópez","VARNAME_2": "Melincue","NL_NAME_2": "NA","TYPE_2": "Departamento","ENGTYPE_2": "Department","CC_2": "NA","HASC_2": "AR.SF.GL","name": "GeneralLópez.county","area_km2": 11446.458,"hist_schema_id": "Elevation0-9000","hist_area_km2": {"75": 359.819,"100": 7632.646,"125": 3453.818,"150": 0.176}}}