{"type":"Feature","properties":{"GID_2":"ARG.6.7_1","GID_0":"ARG","country":"Argentina","GID_1":"ARG.6_1","state":"Córdoba","NL_NAME_1":"NA","county":"Ischilín","VARNAME_2":"DeanFunes","NL_NAME_2":"NA","TYPE_2":"Departamento","ENGTYPE_2":"Department","CC_2":"NA","HASC_2":"AR.CB.IS","name":"Ischilín.county"},
"geometry":{"type": "MultiPolygon","coordinates": [[[[-64.6537,-30.6905,650.7057],[-64.5519,-30.6887,1065.8196],[-64.5499,-30.7002,1014.6535],[-64.5282,-30.6974,1214.9785],[-64.5264,-30.7993,875.6364],[-64.4638,-30.8024,1371.7354],[-64.4586,-30.7949,1424.4697],[-64.4378,-30.7821,1448.9456],[-64.4318,-30.7806,1395.0654],[-64.4191,-30.7822,1292.8774],[-64.3591,-30.8005,1269.7177],[-64.3465,-30.8022,1194.8619],[-64.2958,-30.7988,1005.0992],[-64.2453,-30.8037,834.7806],[-64.2093,-30.7931,746.7466],[-64.1909,-30.7974,728.988],[-64.1847,-30.7973,726.2355],[-64.16,-30.7917,692.3031],[-64.1285,-30.7951,641.7636],[-64.1225,-30.7901,637.5638],[-64.1204,-30.781,638.3817],[-64.1249,-30.7691,646.2733],[-64.121,-30.7518,634.7244],[-64.1208,-30.7367,622.309],[-64.1323,-30.7164,617.2546],[-64.1386,-30.7009,621.9594],[-64.184,-30.6477,689.5582],[-64.1938,-30.6336,696.3723],[-64.2055,-30.5851,698.952],[-64.2235,-30.5499,717.4821],[-64.2408,-30.5269,735.1445],[-64.2861,-30.4885,804.4518],[-64.3011,-30.4783,783.5096],[-64.3094,-30.469,758.7755],[-64.3168,-30.3705,694.2449],[-64.386,-30.3687,606.7557],[-64.4006,-30.3571,587.1221],[-64.3992,-30.2952,555.3168],[-64.3871,-30.2945,571.0836],[-64.3792,-30.2097,556.2422],[-64.31,-30.2213,735.4963],[-64.2993,-30.1215,689.3557],[-64.3201,-30.1163,670.0303],[-64.317,-30.0913,744.7151],[-65.0085,-30.01,180.0158],[-65.0014,-30.4223,286.1665],[-65.0485,-30.4263,278.4796],[-65.0189,-30.4626,300.9692],[-64.9885,-30.5045,325.4604],[-64.9668,-30.5382,348.6819],[-64.9311,-30.5837,375.4315],[-64.9117,-30.6181,397.1179],[-64.8977,-30.6293,409.7417],[-64.8855,-30.642,417.2133],[-64.72,-30.6406,546.2378],[-64.7188,-30.6916,572.4218],[-64.6537,-30.6905,650.7057]]]]}}