{"type": "Feature","bbox": [-55.1005,-27.3823,-54.4897,-26.9313],"geometry": {"type": "MultiPolygon","coordinates": [[[[-54.6073,-26.9313,276.7406],[-54.6605,-26.9492,431.7215],[-54.6554,-26.9606,497.5551],[-54.6963,-26.9767,487.4758],[-54.6996,-26.9664,501.0573],[-54.6992,-26.9612,380.8481],[-54.7084,-26.9511,415.9232],[-54.7117,-26.934,377.3164],[-54.7499,-26.9437,245.7168],[-54.7234,-27.0412,520.2897],[-54.738,-27.0442,485.7427],[-54.7488,-27.0485,500.0981],[-54.7549,-27.0491,506.9663],[-54.7609,-27.0441,497.436],[-54.7629,-27.0394,512.5585],[-54.7724,-27.0331,535.1992],[-54.7747,-27.0284,512.8824],[-54.7833,-27.0281,515.4051],[-54.7872,-27.0087,299.1046],[-54.7997,-27.0097,463.9908],[-54.7971,-27.004,295.9215],[-54.8134,-27.0043,392.2734],[-54.8166,-27.0014,440.5829],[-54.813,-26.9971,489.1523],[-54.8164,-26.9863,496.7474],[-54.83,-26.9855,332.2922],[-54.8466,-26.9908,371.693],[-54.8548,-26.9875,424.1542],[-54.8735,-26.9865,504.2107],[-54.8812,-26.9781,333.359],[-54.8872,-26.979,401.7073],[-54.8931,-26.9844,509.9516],[-54.8966,-26.983,492.9391],[-54.9,-27.0011,507.2237],[-54.8879,-27.0017,471.0272],[-54.8876,-27.0058,435.5486],[-54.8846,-27.0055,462.4641],[-54.886,-27.0404,291.0049],[-54.8894,-27.0548,259.3035],[-54.8942,-27.0577,310.949],[-54.8969,-27.0627,256.9155],[-54.9046,-27.0633,253.0299],[-54.9025,-27.0583,235.7144],[-54.9039,-27.0559,246.8861],[-54.9068,-27.0551,256.0222],[-54.9084,-27.0598,271.1701],[-54.9136,-27.0625,298.2428],[-54.9161,-27.067,276.7399],[-54.9265,-27.0644,385.6172],[-54.9268,-27.0698,276.6287],[-54.9288,-27.0715,245.7344],[-54.9333,-27.0682,331.7894],[-54.9361,-27.0684,337.0266],[-54.9388,-27.076,227.0272],[-54.9412,-27.0774,224.3175],[-54.9524,-27.0757,324.1794],[-54.9529,-27.0862,201.356],[-54.9558,-27.0855,238.8718],[-54.9581,-27.087,248.6385],[-54.9607,-27.0858,290.5993],[-54.9634,-27.0895,290.9637],[-54.9641,-27.0947,189.7384],[-54.9689,-27.0972,232.79],[-54.9717,-27.0971,191.9623],[-54.9761,-27.094,198.2059],[-54.9789,-27.0942,181.7198],[-54.9783,-27.084,195.0404],[-54.9837,-27.0818,181.3242],[-54.9851,-27.0794,177.9102],[-54.9907,-27.0781,171.6703],[-54.9926,-27.0703,189.6524],[-54.9996,-27.0617,201.5742],[-55.0023,-27.0605,188.0614],[-55.0106,-27.0619,176.1286],[-55.0085,-27.0571,175.0287],[-55.0108,-27.0536,164.4966],[-55.0972,-27.053,233.1519],[-55.1005,-27.1803,373.1826],[-55.0865,-27.1888,463.2095],[-55.0732,-27.1885,472.2338],[-54.9378,-27.3688,411.8152],[-54.9187,-27.3571,255.0023],[-54.9224,-27.3546,230.8379],[-54.9229,-27.3494,254.8659],[-54.8334,-27.3823,195.1111],[-54.8248,-27.3793,133.526],[-54.8235,-27.3774,135.2858],[-54.8319,-27.3663,148.2924],[-54.8361,-27.3507,183.1707],[-54.8307,-27.35,248.1519],[-54.8228,-27.3536,171.0413],[-54.8171,-27.3524,151.0466],[-54.8171,-27.3498,144.9665],[-54.8227,-27.3474,143.2766],[-54.8241,-27.3425,182.9117],[-54.821,-27.3379,147.1648],[-54.8125,-27.3353,155.9282],[-54.8131,-27.3329,156.9716],[-54.8208,-27.3295,144.9319],[-54.8238,-27.325,154.0623],[-54.8231,-27.3224,154.7211],[-54.8206,-27.3226,154.3303],[-54.8134,-27.3266,148.8297],[-54.8126,-27.3239,158.0636],[-54.8141,-27.3187,240.0784],[-54.8163,-27.3171,269.6025],[-54.8218,-27.3176,216.8576],[-54.8233,-27.3152,225.9372],[-54.8291,-27.3138,163.6845],[-54.8302,-27.3116,218.4133],[-54.8278,-27.3069,228.5927],[-54.816,-27.3081,181.54],[-54.8138,-27.3067,186.7755],[-54.8225,-27.2995,162.1178],[-54.8231,-27.2969,178.3373],[-54.8198,-27.2898,225.4892],[-54.8247,-27.2872,184.4192],[-54.8298,-27.2805,170.903],[-54.8302,-27.2781,173.7698],[-54.8279,-27.2766,173.5972],[-54.833,-27.2747,170.8276],[-54.8331,-27.2718,211.7613],[-54.8309,-27.2705,262.7017],[-54.8257,-27.2681,211.0514],[-54.8197,-27.2676,166.348],[-54.8186,-27.2599,224.0363],[-54.8214,-27.2552,219.8521],[-54.8241,-27.254,195.7173],[-54.8317,-27.2556,174.8529],[-54.837,-27.2434,243.1649],[-54.8288,-27.2417,179.8032],[-54.8266,-27.2404,218.1615],[-54.8262,-27.2377,240.4537],[-54.7021,-27.2105,299.0281],[-54.7007,-27.2044,308.6296],[-54.706,-27.2021,315.4529],[-54.7053,-27.1996,322.4418],[-54.7009,-27.1965,344.1329],[-54.705,-27.1926,326.4078],[-54.7062,-27.1881,361.4281],[-54.7104,-27.1845,320.4333],[-54.71,-27.1804,382.7684],[-54.7143,-27.177,345.9151],[-54.7111,-27.173,412.1308],[-54.7154,-27.1708,402.5772],[-54.7174,-27.1634,382.4164],[-54.6129,-27.1622,294.2332],[-54.6109,-27.1669,262.3897],[-54.6052,-27.1676,375.1183],[-54.6025,-27.1724,280.6523],[-54.6035,-27.1748,261.7081],[-54.6145,-27.1783,301.3316],[-54.6163,-27.1806,299.5178],[-54.6156,-27.1852,230.5919],[-54.6216,-27.1912,284.3494],[-54.614,-27.1937,278.4348],[-54.6134,-27.1989,238.9559],[-54.6151,-27.201,238.5763],[-54.6237,-27.1989,304.1202],[-54.6261,-27.2004,269.0891],[-54.6261,-27.2032,284.5289],[-54.6243,-27.2083,225.9989],[-54.6222,-27.2099,260.1659],[-54.6075,-27.2089,296.8224],[-54.6057,-27.2107,254.0421],[-54.6124,-27.2159,248.4963],[-54.6131,-27.2181,222.7236],[-54.6043,-27.2194,283.7396],[-54.5984,-27.2137,311.6971],[-54.5924,-27.2143,237.8337],[-54.5939,-27.2219,216.9939],[-54.6056,-27.2339,211.2125],[-54.605,-27.2365,193.0244],[-54.5957,-27.2424,246.7497],[-54.5868,-27.2512,190.6223],[-54.588,-27.2538,236.709],[-54.5929,-27.2551,210.8224],[-54.5926,-27.2581,230.8073],[-54.6005,-27.2561,234.5086],[-54.6008,-27.2583,273.5848],[-54.5974,-27.2621,177.9603],[-54.5896,-27.2651,246.0327],[-54.5862,-27.2723,201.2072],[-54.5134,-27.258,212.3336],[-54.5148,-27.2537,248.3271],[-54.5138,-27.2512,241.3808],[-54.509,-27.2481,205.8732],[-54.5085,-27.246,268.9795],[-54.5233,-27.2465,281.8391],[-54.5252,-27.2367,238.6687],[-54.5136,-27.2294,250.4012],[-54.5128,-27.2269,236.353],[-54.514,-27.2247,237.7351],[-54.5259,-27.2251,241.7677],[-54.5277,-27.223,238.2729],[-54.5274,-27.2205,237.08],[-54.5216,-27.2215,241.9896],[-54.5216,-27.219,244.0526],[-54.5265,-27.2122,248.9402],[-54.529,-27.2046,252.7453],[-54.5247,-27.2013,276.2674],[-54.5219,-27.2023,273.2793],[-54.5196,-27.2011,301.8024],[-54.5197,-27.1958,270.6366],[-54.513,-27.1908,394.9898],[-54.5071,-27.1906,312.4248],[-54.507,-27.1882,301.1397],[-54.5169,-27.1827,298.7005],[-54.5184,-27.1804,305.2784],[-54.5185,-27.175,318.4308],[-54.5135,-27.1733,385.1334],[-54.5106,-27.1776,297.0493],[-54.507,-27.1738,387.8649],[-54.5019,-27.1764,336.0794],[-54.499,-27.1765,336.7043],[-54.4977,-27.1747,315.4858],[-54.501,-27.1677,362.9248],[-54.4964,-27.1656,328.1534],[-54.4966,-27.1603,324.7104],[-54.498,-27.1582,328.8755],[-54.5037,-27.1565,339.1245],[-54.5051,-27.1541,406.9732],[-54.5039,-27.1518,373.1506],[-54.4934,-27.1509,339.4206],[-54.4948,-27.1459,387.3057],[-54.4897,-27.143,347.7802],[-54.4907,-27.1378,356.1225],[-54.4931,-27.1373,382.0608],[-54.4952,-27.1322,351.5901],[-54.4949,-27.1296,362.0585],[-54.4902,-27.1271,390.6725],[-54.4901,-27.1221,382.7311],[-54.4927,-27.1217,385.7191],[-54.493899999999996,-27.1193,382.1153],[-54.49,-27.1169,386.3253],[-54.4911,-27.1068,387.9045],[-54.496,-27.1043,395.8511],[-54.497,-27.097,398.756],[-54.5002,-27.0973,387.1093],[-54.4969,-27.0858,421.7338],[-54.541,-27.0854,498.6262],[-54.6073,-26.9313,276.7406]]]]}
,"properties": {"GID_2": "ARG.14.2_1","GID_0": "ARG","country": "Argentina","GID_1": "ARG.14_1","state": "Misiones","NL_NAME_1": "NA","county": "Cainguás","VARNAME_2": "CampoGrande","NL_NAME_2": "NA","TYPE_2": "Departamento","ENGTYPE_2": "Department","CC_2": "NA","HASC_2": "AR.MN.CG","name": "Cainguás.county","area_km2": 1555.654,"hist_schema_id": "Elevation0-9000","hist_area_km2": {"125": 0.282,"150": 4.841,"175": 23.254,"200": 47.483,"225": 60.519,"250": 68.352,"275": 67.237,"300": 76.417,"325": 80.202,"350": 105.35,"375": 135.73,"400": 140.78,"425": 171.37,"450": 185.133,"475": 159.106,"500": 128.418,"525": 69.563,"550": 25.157,"575": 6.46}}}