{"type":"Feature","properties":{"GID_2":"ARG.1.1_1","GID_0":"ARG","country":"Argentina","GID_1":"ARG.1_1","state":"BuenosAires","NL_NAME_1":"NA","county":"AdolfoAlsina","VARNAME_2":"Carhue","NL_NAME_2":"NA","TYPE_2":"Partido","ENGTYPE_2":"Part","CC_2":"NA","HASC_2":"AR.BA.AA","name":"AdolfoAlsina.county"},
"geometry":{"type": "MultiPolygon","coordinates": [[[[-63.3899,-36.5134,122.7394],[-63.3927,-37.7971,172.7565],[-63.3705,-37.8149,163.6354],[-62.8104,-37.3741,188.1725],[-62.6435,-37.5221,247.141],[-62.4233,-37.3515,208.9633],[-62.5373,-37.2586,173.4697],[-62.5071,-37.2348,156.4481],[-62.5139,-37.1988,142.1621],[-62.5231,-37.1854,137.6498],[-62.537,-37.1696,132.9033],[-62.5578,-37.1521,124.2366],[-62.57,-37.1281,120.1715],[-62.5799,-37.1216,118.5955],[-62.5923,-37.1059,113.3833],[-62.6064,-37.109,120.1991],[-62.6272,-37.1228,127.8542],[-62.6423,-37.1255,127.0108],[-62.6533,-37.1182,125.5036],[-62.6675,-37.1029,118.9613],[-63.0109,-36.8356,131.1388],[-63.3442,-36.5601,122.1452],[-63.3392,-36.5553,120.6502],[-63.3899,-36.5134,122.7394]]]]}}