{"type":"Feature","properties":{"GID_2":"ARG.1.119_1","GID_0":"ARG","country":"Argentina","GID_1":"ARG.1_1","state":"BuenosAires","NL_NAME_1":"NA","county":"Tornquist","VARNAME_2":"NA","NL_NAME_2":"NA","TYPE_2":"Partido","ENGTYPE_2":"Part","CC_2":"NA","HASC_2":"AR.BA.TQ","name":"Tornquist.county"},
"geometry":{"type": "MultiPolygon","coordinates": [[[[-61.7851,-38.4528,128.4648],[-61.7862,-38.4504,128.7792],[-61.7824,-38.4431,131.5999],[-61.7809,-38.4363,133.4312],[-61.7559,-38.4195,155.5],[-61.7471,-38.408,155.5],[-61.7471,-38.4021,155.5],[-61.7565,-38.386,155.5],[-61.7564,-38.3807,155.5],[-61.7508,-38.3619,155.5],[-61.7452,-38.3572,155.5],[-61.7421,-38.347,158.3549],[-61.7419,-38.3403,160.2163],[-61.7287,-38.3222,165.5459],[-61.7239,-38.311,165.4881],[-61.7238,-38.3042,170.5804],[-61.7186,-38.3011,169.0977],[-61.7155,-38.2917,176.1605],[-61.7173,-38.2805,186.5584],[-61.7006,-38.2764,190.7062],[-61.7034,-38.2657,196.045],[-61.7089,-38.2635,188.6164],[-61.7218,-38.2468,195.0178],[-61.7392,-38.2137,207.3773],[-61.7392,-38.2103,220.8705],[-61.7485,-38.2038,216.8182],[-61.7581,-38.1943,216.3393],[-61.7696,-38.1889,220.1411],[-61.7667,-38.1857,221.9944],[-61.7624,-38.1861,216.4665],[-61.7656,-38.1693,254.3532],[-61.7748,-38.1549,250.2899],[-61.7852,-38.1321,246.761],[-61.7959,-38.1229,248.4578],[-61.7972,-38.1165,251.4468],[-61.7962,-38.1059,273.401],[-61.8167,-38.0878,266.9568],[-61.8201,-38.0672,291.3693],[-61.8231,-38.0634,287.4106],[-61.8276,-38.0596,288.4067],[-61.8334,-38.0599,284.1471],[-61.84,-38.0541,294.0113],[-61.8543,-38.0503,302.7179],[-61.856,-38.0434,317.0623],[-61.8638,-38.0312,308.9451],[-61.8826,-38.0234,316.8548],[-61.8986,-38.0083,461.023],[-61.9082,-38.004,476.951],[-61.9246,-38.0033,346.2467],[-61.938,-38.0057,411.8314],[-61.949,-38.0055,392.9771],[-61.9598,-38.0014,491.6142],[-61.9761,-38.0072,423.4883],[-61.9983,-38.0046,503.799],[-62.0122,-38.0004,475.9955],[-62.0997,-37.9313,404.0966],[-62.1508,-37.9641,349.3246],[-62.1552,-37.9679,346.8049],[-62.1631,-37.98,333.541],[-62.1728,-37.9871,329.6584],[-62.1755,-37.9921,323.2548],[-62.1929,-37.9981,326.4599],[-62.2185,-38.023,291.6553],[-62.2276,-38.0256,291.2946],[-62.2339,-38.0341,294.5961],[-62.2572,-38.0444,287.1536],[-62.259,-38.0518,281.5365],[-62.2655,-38.0537,285.9561],[-62.2687,-38.0576,283.6184],[-62.2686,-38.0619,283.1623],[-62.2771,-38.0696,279.9326],[-62.283,-38.0777,269.6177],[-62.2998,-38.0844,256.9688],[-62.3096,-38.0842,267.1907],[-62.3287,-38.0976,262.5554],[-62.3341,-38.0991,255.4703],[-62.3382,-38.1041,244.142],[-62.3378,-38.1087,248.4263],[-62.3421,-38.1127,258.1897],[-62.3426,-38.1185,257.7737],[-62.3505,-38.1246,254.2424],[-62.4457,-38.0418,232.6638],[-62.4578,-38.0533,255.7227],[-62.4551,-38.0428,231.8396],[-62.4674,-38.0271,230.0],[-62.4739,-38.0269,230.0],[-62.4912,-38.005,277.826],[-62.5807,-38.0737,241.7943],[-62.7344,-37.9504,250.2656],[-62.8059,-38.0084,240.5897],[-62.7867,-38.0218,239.0074],[-62.7932,-38.0265,239.6773],[-62.6576,-38.1358,204.5132],[-62.6862,-38.1574,198.1945],[-62.6996,-38.1746,188.69],[-62.7341,-38.2004,174.9578],[-62.653,-38.2672,183.2824],[-62.8977,-38.4561,85.9301],[-62.7349,-38.5866,56.7695],[-62.6469,-38.5196,76.1847],[-62.6232,-38.5648,63.7315],[-62.6136,-38.5907,58.8924],[-62.3874,-38.4065,205.4698],[-62.3461,-38.4376,178.2195],[-62.24,-38.353,233.3243],[-62.221,-38.3732,243.6629],[-62.227,-38.3772,240.1924],[-62.2076,-38.3921,234.6019],[-62.2274,-38.408,212.4153],[-62.2078,-38.4232,202.4759],[-62.2224,-38.4354,195.2139],[-62.2009,-38.4496,176.0467],[-62.0856,-38.3595,204.4837],[-62.0403,-38.3924,201.0869],[-62.0168,-38.406,199.5479],[-62.0205,-38.4078,200.4716],[-61.9992,-38.4235,191.5031],[-62.0093,-38.4323,188.6908],[-61.987,-38.4514,179.5625],[-61.9359,-38.4117,188.0197],[-61.9321,-38.4182,182.048],[-61.931,-38.4308,182.3579],[-61.9227,-38.4498,173.1881],[-61.8905,-38.4228,178.5425],[-61.8246,-38.4727,158.4952],[-61.7936,-38.4468,160.1779],[-61.7851,-38.4528,128.4648]]]]}}