{"type":"Feature","properties":{"featurecla":"Lake","scalerank":9,"name":"Laguna Iber","name_abb":"Lag. Iber","name_alt":null,"note":null,"delta":null,"dam_name":null,"year":-99,"admin":null,"min_zoom":7.0,"min_label":8.0},
"geometry":{"type": "Polygon","coordinates": [[[-56.879976273775711,-28.153460069055086,67.571],[-56.883361461237726,-28.14963333540237,67.2863],[-56.8877769231447,-28.146984058258198,67.2691],[-56.89366420568733,-28.144923509368255,66.8773],[-56.900434580611361,-28.143451688732597,66.6209],[-56.928693536816,-28.143451688732597,65.9196],[-56.940615283964831,-28.145806601749655,65.4888],[-56.951801120795835,-28.149338971275228,65.728],[-56.971523517313656,-28.158758623343459,65.3568],[-57.032604073693477,-28.200263965269016,64.6984],[-57.03613644321905,-28.204679427175989,62.8696],[-57.039374448617508,-28.209977981464363,64.7896],[-57.042023725761695,-28.217925812896908,64.4744],[-57.043054000206652,-28.224990551948082,64.4177],[-57.043054000206652,-28.231760926872113,64.4517],[-57.041140633380294,-28.242946763703117,64.4504],[-57.029954796549291,-28.273560632924813,64.9478],[-57.021859783053173,-28.288573203408504,64.8411],[-57.009643671777212,-28.299464676112393,63.9411],[-56.979618530809773,-28.311533605324797,64.3663],[-56.972553791758614,-28.309473056434854,64.5123],[-56.9691686042966,-28.307412507544939,64.5202],[-56.965341870643883,-28.303585773892223,64.5853],[-56.96269259349971,-28.298875947858136,64.5353],[-56.956069400639237,-28.275915545941842,64.905],[-56.95342012349505,-28.270911355780612,65.0544],[-56.950182118096606,-28.266790258000782,65.1517],[-56.918096428239252,-28.240297486558916,65.9286],[-56.896313482831516,-28.217631448769794,66.5078],[-56.890426200288886,-28.208800524955848,66.7135],[-56.878504453140053,-28.176126106844208,67.5935],[-56.877474178695081,-28.170238824301578,67.7226],[-56.877032632504395,-28.164057177631832,64.0],[-56.877915724885781,-28.158464259216316,67.7436],[-56.879976273775711,-28.153460069055086,67.571]]]}}