{"type":"Feature","properties":{"featurecla":"Lake","scalerank":9,"name":"Laguna Iber","name_abb":"Lag. Iber","name_alt":null,"note":null,"delta":null,"dam_name":null,"year":-99,"admin":null,"min_zoom":7.0,"min_label":8.0},
"geometry":{"type": "Polygon","coordinates": [[[-56.9747615227121,-28.362458599318558,64.2266],[-56.978735438428387,-28.359514958047242,64.1552],[-56.984181174780318,-28.357160045030184,63.9894],[-56.995808557802022,-28.35598258852167,63.729],[-57.08544243451361,-28.365990968844159,62.7409],[-57.0997190946795,-28.364813512335616,62.7207],[-57.109433110874846,-28.362164235191443,62.7121],[-57.130774510091882,-28.353038947250354,62.6463],[-57.149025085974046,-28.347740392961981,62.7168],[-57.155795460898076,-28.347740392961981,62.7279],[-57.161682743440707,-28.349506577724782,62.5442],[-57.166834115665523,-28.352744583123211,62.4575],[-57.232182951888745,-28.419270875854977,61.9269],[-57.237775870304247,-28.42869052792318,61.822],[-57.241602603956963,-28.439876364754184,61.6164],[-57.244104699037578,-28.453711478729389,61.9332],[-57.244987791418978,-28.477554973027054,61.516],[-57.241161057766263,-28.500221010816176,61.5869],[-57.184937509484115,-28.530834880037872,63.8391],[-57.179344591068613,-28.5290686952751,63.3128],[-57.170660849318224,-28.519649043206869,60.0],[-57.162565835822107,-28.513467396537123,60.0],[-57.152704637563204,-28.508757570503008,60.0],[-57.12562313786708,-28.500515374943319,60.0],[-57.12518159167638,-28.500221010816176,60.0],[-57.125034409612823,-28.500221010816176,60.0],[-57.124740045485694,-28.500221010816176,60.0],[-57.124592863422123,-28.500221010816176,60.0],[-57.124592863422123,-28.499926646689062,60.0],[-57.124445681358551,-28.499926646689062,60.0],[-57.124445681358551,-28.499926646689062,60.0],[-57.124298499294994,-28.499926646689062,60.0],[-57.124151317231423,-28.499926646689062,60.0],[-57.123856953104294,-28.499632282561919,60.0],[-57.123121042786465,-28.499337918434804,60.0],[-57.119883037388021,-28.496983005417746,60.0],[-57.092065627374069,-28.466663500323165,62.7437],[-57.087797347530667,-28.463719859051849,62.8288],[-57.0621876684702,-28.452828386347988,62.9236],[-57.026275244960146,-28.430162348558838,63.2754],[-56.981531897636131,-28.393955560921654,63.9059],[-56.974614340648543,-28.386596457743366,63.8657],[-56.971670699377214,-28.382180995836393,64.1175],[-56.970051696678,-28.377176805675163,64.1059],[-56.970051696678,-28.371583887259646,64.1639],[-56.971670699377214,-28.366579697098416,64.1825],[-56.9747615227121,-28.362458599318558,64.2266]]]}}