{"type":"Feature","properties":{"GID_2":"ARG.2.5_1","GID_0":"ARG","country":"Argentina","GID_1":"ARG.2_1","state":"Catamarca","NL_NAME_1":"NA","county":"Belén","VARNAME_2":"NA","NL_NAME_2":"NA","TYPE_2":"Departamento","ENGTYPE_2":"Department","CC_2":"NA","HASC_2":"AR.CT.BE","name":"Belén.county"},
"geometry":{"type": "MultiPolygon","coordinates": [[[[-66.5275,-27.2549,3411.6611],[-66.5274,-27.2359,3235.6025],[-66.5303,-27.2207,3094.4629],[-66.5332,-27.2108,3050.9512],[-66.5409,-27.1969,2906.6992],[-66.5487,-27.1896,2795.8003],[-66.5634,-27.1814,2699.604],[-66.5743,-27.1782,2560.2241],[-66.5914,-27.1766,2480.7976],[-66.6341,-27.1143,2229.2295],[-66.6267,-27.1062,2261.9233],[-66.6193,-27.0814,2303.5825],[-66.6166,-27.0662,2488.272],[-66.5986,-27.0536,2619.8318],[-66.5734,-27.0327,2487.8906],[-66.5698,-27.0287,2481.4995],[-66.56,-27.0101,2641.416],[-66.5577,-27.0002,2778.9885],[-66.5604,-26.9695,2965.6777],[-66.5603,-26.9336,2969.3127],[-66.556,-26.9135,2885.4395],[-66.5574,-26.9031,3359.0789],[-66.5601,-26.8991,3563.8645],[-66.5656,-26.8974,3622.5852],[-66.5768,-26.8857,3511.7437],[-66.5866,-26.8731,3278.3035],[-66.5915,-26.8638,3418.4688],[-66.5932,-26.8537,3442.3481],[-66.5866,-26.8343,3570.0764],[-66.5941,-26.8263,4046.3052],[-66.6139,-26.8161,4017.7007],[-66.6257,-26.8051,4294.1353],[-66.6482,-26.7634,4497.8623],[-66.6498,-26.748,4606.2686],[-66.6473,-26.7382,4860.0278],[-66.6444,-26.7337,4708.8188],[-66.6369,-26.7258,4571.5454],[-66.6237,-26.716,4754.1299],[-66.6134,-26.6976,4563.2773],[-66.606,-26.6898,4562.0312],[-66.5911,-26.6822,4617.8442],[-66.5742,-26.6803,4586.4092],[-66.5699,-26.6775,4436.71],[-66.5719,-26.6726,4409.9858],[-66.5794,-26.6649,4575.5352],[-66.5835,-26.65,4457.2222],[-66.584,-26.6295,4429.7046],[-66.5754,-26.5892,4071.9604],[-66.5607,-26.5504,4149.9932],[-66.5521,-26.5206,4074.1719],[-66.5486,-26.5002,4105.666],[-66.5335,-26.4854,4086.8262],[-66.5215,-26.4621,4068.7737],[-66.5093,-26.4333,4072.063],[-66.5032,-26.4246,4093.7693],[-66.495,-26.4176,4119.6685],[-66.4724,-26.4019,4295.144],[-66.4287,-26.3759,4509.5156],[-66.4583,-26.3576,4297.7065],[-66.4787,-26.3351,4493.1343],[-66.4857,-26.3232,4224.7446],[-66.4881,-26.3147,4279.3662],[-66.5126,-26.2996,4538.2124],[-66.5361,-26.268,5011.189],[-66.5553,-26.2316,4686.6045],[-66.5775,-26.1993,4887.8389],[-66.5842,-26.1825,4731.5073],[-66.5942,-26.1697,4610.2559],[-66.6053,-26.1608,4574.8955],[-66.6102,-26.153,4648.9712],[-66.617,-26.1291,4709.2744],[-66.6189,-26.1091,4776.8228],[-66.6237,-26.0988,4657.2988],[-66.6312,-26.0931,4611.1362],[-66.6435,-26.0908,4753.9966],[-66.6491,-26.087,4749.8999],[-66.6598,-26.0667,4839.5093],[-66.6782,-26.0456,4657.0601],[-66.6917,-26.0242,4476.3662],[-66.7191,-25.9984,4411.2261],[-66.7224,-25.9883,4402.4585],[-66.7369,-25.9738,4451.5132],[-66.7604,-25.9443,4569.3857],[-66.7736,-25.9327,4673.3994],[-66.7963,-25.9027,4760.2295],[-66.8014,-25.8914,4792.3232],[-66.8422,-25.8916,4745.2002],[-66.8525,-25.8982,4900.7993],[-66.8855,-25.9457,5082.7866],[-66.8862,-25.956,5246.8447],[-66.8845,-25.9608,5105.6108],[-66.8702,-25.9831,4928.1626],[-66.8414,-26.0151,4729.8193],[-66.8398,-26.0196,4776.2324],[-66.863,-26.0666,4875.6934],[-66.8704,-26.0743,4845.3662],[-66.88,-26.0799,4933.0928],[-66.8957,-26.0857,4937.2676],[-66.9181,-26.0897,4731.0469],[-66.9509,-26.1098,4675.6016],[-66.9791,-26.142,4790.0596],[-66.9866,-26.1559,4699.0347],[-66.9919,-26.1705,4592.0479],[-66.9943,-26.1858,4481.5811],[-66.9939,-26.2063,4388.3823],[-66.9909,-26.2214,4365.6426],[-66.9847,-26.2357,4313.0942],[-66.9817,-26.2613,4399.7944],[-66.9822,-26.2715,4381.8511],[-66.9962,-26.3318,4729.7588],[-67.0288,-26.3858,5710.5181],[-67.0341,-26.4004,5583.3994],[-67.0378,-26.4207,5329.479],[-67.0371,-26.436,5294.3091],[-67.027,-26.476,5078.9165],[-67.023,-26.5272,4919.6704],[-67.0261,-26.5681,4526.6816],[-67.0297,-26.5832,4703.2949],[-67.0355,-26.5977,4858.8247],[-67.0467,-26.6156,4917.1484],[-67.0624,-26.6305,4481.3643],[-67.1423,-26.6886,3878.865],[-67.1571,-26.6962,3766.7568],[-67.1781,-26.7044,3731.8877],[-67.2606,-26.7247,3778.3264],[-67.2603,-26.7303,3797.4119],[-67.2566,-26.7413,3745.7847],[-67.2413,-26.7729,3780.937],[-67.2089,-26.8222,3920.3469],[-67.1944,-26.8603,4216.7549],[-67.1911,-26.883,4502.5215],[-67.1939,-26.9,4533.6523],[-67.1981,-26.9109,4612.7104],[-67.22,-26.946,4210.4766],[-67.2432,-26.9655,4277.7046],[-67.251,-26.9746,4419.0469],[-67.2601,-27.0021,3969.1626],[-67.2617,-27.0423,4099.564],[-67.2664,-27.0649,4106.4302],[-67.2766,-27.0795,4123.8789],[-67.2788,-27.085,4118.1982],[-67.2779,-27.0962,3994.0742],[-67.2635,-27.1343,3794.7644],[-67.2639,-27.1802,3898.7554],[-67.2625,-27.1916,3887.8267],[-67.2567,-27.2081,3895.9229],[-67.2402,-27.2327,3912.3464],[-67.2411,-27.2381,3922.2124],[-67.2473,-27.2485,3880.7009],[-67.2678,-27.2623,4232.7129],[-67.2706,-27.2672,4143.478],[-67.2768,-27.2897,4079.4241],[-67.2942,-27.339,4324.0112],[-67.2942,-27.3446,4342.4175],[-67.2908,-27.3558,4621.791],[-67.2769,-27.3678,4567.0996],[-67.2751,-27.373,4699.9048],[-67.2768,-27.3845,4573.5044],[-67.287,-27.4055,4548.084],[-67.2862,-27.4169,4313.4731],[-67.2831,-27.422,4142.4746],[-67.2509,-27.4499,4074.196],[-67.2397,-27.4555,4417.0078],[-67.2212,-27.4593,4144.8853],[-67.2427,-27.4724,4516.6089],[-67.2636,-27.4941,4361.0967],[-67.2973,-27.5561,3725.3271],[-67.3037,-27.5782,3091.6152],[-67.3177,-27.6041,3180.7949],[-67.3245,-27.632,3426.1045],[-67.339,-27.6577,3491.1523],[-67.3482,-27.6668,3711.6616],[-67.3477,-27.6704,3466.0576],[-67.3361,-27.6771,2811.0786],[-67.3087,-27.7013,2422.583],[-67.2932,-27.7197,2827.9673],[-67.285,-27.7355,2593.1316],[-67.2864,-27.7404,2489.6174],[-67.315,-27.7791,2440.2471],[-67.3368,-27.8002,2403.2393],[-67.3444,-27.8095,1954.123],[-67.3573,-27.8295,2215.8301],[-67.3605,-27.8405,2481.6372],[-67.361,-27.852,2490.6431],[-67.356,-27.8687,2077.6116],[-67.3348,-27.9043,2056.7466],[-67.3316,-27.9152,2337.2329],[-67.3347,-27.9381,2344.9177],[-67.3439,-27.9832,2239.397],[-67.3403,-28.0177,2189.2139],[-67.3385,-28.0231,2089.7998],[-67.3348,-28.0277,2061.1079],[-67.3243,-28.0345,1964.6896],[-67.3114,-28.0365,1892.376],[-67.2984,-28.036,1767.9849],[-67.2353,-28.0238,1638.655],[-67.1923,-28.0113,1091.9905],[-66.6726,-28.0174,803.8109],[-66.6708,-27.9747,822.0979],[-66.6723,-27.944,833.902],[-66.6707,-27.9132,850.4572],[-66.6744,-27.8723,870.7625],[-66.6752,-27.8364,877.9095],[-66.6844,-27.7548,863.7079],[-66.6957,-27.6993,1137.6565],[-66.6953,-27.6737,1354.5706],[-66.6918,-27.664,1394.6239],[-66.6794,-27.6407,1327.8022],[-66.6734,-27.632,1228.9185],[-66.6549,-27.6121,1572.3948],[-66.6532,-27.6074,1544.7734],[-66.6536,-27.5971,1600.5671],[-66.6284,-27.5695,1903.5081],[-66.6266,-27.5489,2246.6899],[-66.6208,-27.529,1998.9556],[-66.6128,-27.5098,2436.9048],[-66.6454,-27.4805,2362.4104],[-66.6338,-27.4364,2251.3467],[-66.6154,-27.4223,2733.6272],[-66.6094,-27.4137,2760.2014],[-66.6126,-27.4037,3005.2024],[-66.6218,-27.3978,2890.532],[-66.6236,-27.3929,2852.3735],[-66.615,-27.3582,2906.7512],[-66.5322,-27.3129,2462.24],[-66.5233,-27.2958,2628.7898],[-66.5195,-27.2809,2856.4058],[-66.5213,-27.2707,2964.293],[-66.5263,-27.2615,3368.2],[-66.5275,-27.2549,3411.6611]]]]}}