{"type": "Feature","bbox": [-59.8741,-27.0152,-59.1758,-26.5253],"geometry": {"type": "MultiPolygon","coordinates": [[[[-59.1941,-26.8844,64.5355],[-59.192,-26.8563,67.1824],[-59.1758,-26.8564,67.9732],[-59.1796,-26.8093,68.9366],[-59.2292,-26.8064,65.7258],[-59.2292,-26.7954,67.3358],[-59.4658,-26.7915,80.5198],[-59.465,-26.7018,73.8264],[-59.5165,-26.6984,71.674],[-59.5187,-26.6142,77.4967],[-59.7202,-26.6111,80.203],[-59.7202,-26.5253,79.29],[-59.8708,-26.5254,87.2983],[-59.8741,-26.6961,80.7573],[-59.7232,-26.696,78.0891],[-59.7235,-26.788,75.434],[-59.6222,-26.7864,79.4373],[-59.6182,-26.9654,70.8226],[-59.5684,-26.9674,74.3111],[-59.5684,-26.9929,71.4672],[-59.4181,-26.9962,66.28],[-59.4181,-27.0142,67.5939],[-59.3706,-27.0152,68.2684],[-59.3676,-26.9673,65.1429],[-59.3199,-26.9688,68.7961],[-59.3192,-26.9968,68.3805],[-59.1944,-26.8887,66.8042],[-59.1941,-26.8844,64.5355]]]]}
,"properties": {"GID_2": "ARG.3.22_1","GID_0": "ARG","country": "Argentina","GID_1": "ARG.3_1","state": "Chaco","NL_NAME_1": "NA","county": "SargentoCabral","VARNAME_2": "ColoniaElisa","NL_NAME_2": "NA","TYPE_2": "Departamento","ENGTYPE_2": "Department","CC_2": "NA","HASC_2": "AR.CC.SC","name": "SargentoCabral.county","area_km2": 1597.781,"hist_schema_id": "Elevation0-9000","hist_area_km2": {"75": 1584.128,"100": 13.653}}}