{"type": "Feature","bbox": [-71.464,-39.551,-70.6408,-38.7268],"geometry": {"type": "MultiPolygon","coordinates": [[[[-70.6461,-39.0711,1832.2214],[-70.6408,-39.0214,1821.6083],[-70.6493,-38.987,1862.3081],[-70.6563,-38.9676,1967.1028],[-70.6614,-38.9585,1891.0027],[-70.6753,-38.9417,1766.838],[-70.6882,-38.9302,1878.1572],[-70.6921,-38.9208,1807.7495],[-70.691,-38.9108,1732.99],[-70.6711,-38.8911,1847.2743],[-70.669,-38.8811,1907.0686],[-70.6706,-38.8764,1932.4291],[-70.6958,-38.8473,1912.6604],[-70.7048,-38.834,1989.6616],[-70.7225,-38.8195,2263.2307],[-70.7177,-38.8101,2370.1431],[-70.7193,-38.8053,2189.3428],[-70.7245,-38.8026,2101.5022],[-70.7496,-38.7987,1919.8031],[-70.7901,-38.7837,2082.4902],[-70.803,-38.7725,1882.8337],[-70.8071,-38.7629,1961.3793],[-70.8105,-38.7588,1822.7924],[-70.8256,-38.7494,2033.3379],[-70.8497,-38.7426,1910.8661],[-70.8687,-38.7459,1753.4722],[-70.8806,-38.7441,1625.7021],[-70.8915,-38.7382,1678.6169],[-70.9031,-38.7268,1905.2092],[-70.9066,-38.7301,1879.8801],[-70.9134,-38.748,1862.072],[-70.9181,-38.7559,1825.6206],[-70.9268,-38.764,1793.7372],[-70.9521,-38.7612,1789.272],[-70.9566,-38.7631,1815.5613],[-70.9678,-38.7632,1805.0498],[-70.9742,-38.7595,1755.0963],[-70.987,-38.7637,1764.3944],[-70.9943,-38.7636,1783.5186],[-71.0024,-38.7693,1753.7767],[-71.0229,-38.7598,1676.8527],[-71.0512,-38.7578,1585.8284],[-71.0587,-38.7596,1415.4878],[-71.0615,-38.7636,1348.2285],[-71.069,-38.769,1387.7153],[-71.0719,-38.767,1390.8521],[-71.0772,-38.7665,1394.3621],[-71.084,-38.7599,1382.9215],[-71.0945,-38.7547,1409.884],[-71.0982,-38.7575,1433.6138],[-71.0969,-38.7613,1422.3416],[-71.0978,-38.7635,1418.1733],[-71.105,-38.7683,1420.4749],[-71.1074,-38.7714,1440.7656],[-71.1077,-38.7745,1434.7793],[-71.116,-38.7746,1435.2891],[-71.1186,-38.7769,1448.2155],[-71.1163,-38.7794,1463.9819],[-71.1184,-38.7811,1468.2102],[-71.1238,-38.7772,1453.915],[-71.1346,-38.7815,1484.3855],[-71.1421,-38.7947,1552.1965],[-71.1504,-38.7998,1585.293],[-71.1742,-38.8002,1728.5691],[-71.1812,-38.8028,1892.0378],[-71.1839,-38.8063,1910.1448],[-71.1859,-38.8145,1947.6934],[-71.2118,-38.8164,1710.7244],[-71.2315,-38.8094,1460.2169],[-71.2345,-38.8072,1439.9204],[-71.2358,-38.803,1468.5311],[-71.2385,-38.8022,1483.709],[-71.2412,-38.8093,1397.2228],[-71.2513,-38.8158,1547.0397],[-71.2586,-38.815,1665.3984],[-71.2604,-38.8235,1440.0739],[-71.266,-38.826,1354.9285],[-71.2693,-38.8357,1316.2812],[-71.2685,-38.8408,1341.4902],[-71.2645,-38.8473,1395.476],[-71.2669,-38.8492,1349.8328],[-71.2681,-38.853,1498.3157],[-71.2747,-38.8545,1591.3392],[-71.2782,-38.8588,1500.7461],[-71.2845,-38.8571,1411.8983],[-71.2854,-38.8638,1420.4468],[-71.297,-38.8725,1611.4246],[-71.3076,-38.8747,1776.1697],[-71.3144,-38.8796,1818.1215],[-71.3217,-38.8801,1884.4929],[-71.3287,-38.8744,1940.7565],[-71.3389,-38.8771,1984.5276],[-71.3497,-38.8847,2061.9851],[-71.3629,-38.8913,2002.4495],[-71.3744,-38.9063,1930.3792],[-71.3799,-38.9053,1844.7028],[-71.3811,-38.9081,1844.1405],[-71.3837,-38.9089,1837.804],[-71.3907,-38.9072,1798.401],[-71.3943,-38.9096,1819.6438],[-71.3931,-38.911,1819.6438],[-71.398,-38.9153,1840.7095],[-71.4047,-38.9171,1575.4517],[-71.4068,-38.9194,1667.5803],[-71.4105,-38.9197,1724.5193],[-71.4132,-38.9229,1892.7086],[-71.4247,-38.9214,1950.7382],[-71.4335,-38.9291,1758.2484],[-71.4329,-38.934,1659.0515],[-71.4387,-38.9422,1800.3274],[-71.4354,-38.9458,1776.3856],[-71.4355,-38.9496,1675.704],[-71.4376,-38.9531,1671.5341],[-71.4363,-38.9582,1646.3254],[-71.4323,-38.9618,1596.4729],[-71.4335,-38.9653,1500.2175],[-71.4317,-38.967,1485.2925],[-71.433,-38.969,1473.9326],[-71.4329,-38.9773,1722.1147],[-71.4405,-38.9779,1868.8997],[-71.4354,-38.9865,1700.1122],[-71.4273,-38.9928,1510.2526],[-71.4279,-38.9984,1416.6522],[-71.4262,-39.0023,1391.5613],[-71.4138,-39.0085,1691.9436],[-71.416,-39.0146,1735.6371],[-71.4211,-39.0195,1823.2849],[-71.4215,-39.0256,1956.2596],[-71.4015,-39.0371,1773.8867],[-71.3972,-39.046,1907.3672],[-71.4075,-39.0522,1414.1472],[-71.4096,-39.0557,1318.4135],[-71.409,-39.0584,1357.9364],[-71.4147,-39.0633,1553.3528],[-71.4181,-39.0702,1827.1388],[-71.4136,-39.0769,1821.2477],[-71.4124,-39.087,1830.7014],[-71.4073,-39.0971,1674.1997],[-71.4178,-39.1151,1198.2683],[-71.4146,-39.1195,1130.2528],[-71.4197,-39.1255,1264.7982],[-71.4183,-39.1294,1219.8302],[-71.4116,-39.1377,1488.3381],[-71.4114,-39.1411,1598.6355],[-71.4212,-39.1512,1765.0447],[-71.4117,-39.1639,1779.9778],[-71.401,-39.1664,1969.777],[-71.3999,-39.1729,1930.2205],[-71.3964,-39.1753,1974.9615],[-71.3986,-39.1861,1848.9917],[-71.3941,-39.1882,1887.6809],[-71.395,-39.1937,1798.869],[-71.3862,-39.2014,1664.0858],[-71.3822,-39.2099,1454.7111],[-71.3811,-39.215,1470.3163],[-71.3822,-39.2166,1498.2631],[-71.3908,-39.2155,1736.6318],[-71.3918,-39.2166,1726.2896],[-71.39,-39.2251,1658.8965],[-71.3858,-39.2301,1717.0215],[-71.387,-39.2327,1771.9271],[-71.3819,-39.2372,1852.0159],[-71.3856,-39.2451,1467.9781],[-71.3897,-39.2467,1508.5691],[-71.3919,-39.2499,1740.6008],[-71.3905,-39.2549,1792.6877],[-71.3913,-39.2588,1839.8645],[-71.3884,-39.2657,1848.7456],[-71.3752,-39.2689,1839.2645],[-71.3737,-39.2824,1748.5198],[-71.375,-39.2854,1789.571],[-71.3818,-39.284,1613.6221],[-71.3889,-39.2889,1732.1899],[-71.3952,-39.3026,1580.8369],[-71.3854,-39.3185,1343.955],[-71.3946,-39.3229,1151.5475],[-71.3961,-39.3332,1236.0421],[-71.3945,-39.3395,1276.7661],[-71.3994,-39.3497,1454.678],[-71.4047,-39.3523,1474.3494],[-71.4096,-39.3516,1542.6594],[-71.4149,-39.3591,1515.0708],[-71.4222,-39.3652,1488.0835],[-71.4281,-39.3648,1524.5845],[-71.4317,-39.3681,1423.7273],[-71.4331,-39.3722,1454.3147],[-71.4415,-39.3685,1451.1298],[-71.4486,-39.3717,1525.8805],[-71.4541,-39.3697,1645.9525],[-71.4575,-39.3716,1643.9652],[-71.4549,-39.39,1458.8521],[-71.4502,-39.3948,1265.7256],[-71.4461,-39.3961,1290.5919],[-71.4439,-39.4027,1255.4885],[-71.446,-39.4095,1259.1533],[-71.4528,-39.4095,1142.4607],[-71.4554,-39.4128,1134.6526],[-71.4584,-39.4127,1210.2576],[-71.464,-39.4167,1445.5598],[-71.4613,-39.4232,1454.0181],[-71.4512,-39.4243,1541.2836],[-71.4497,-39.4312,1308.4427],[-71.4522,-39.438,1170.0392],[-71.4492,-39.4437,1375.9286],[-71.4498,-39.4477,1520.7866],[-71.4477,-39.4507,1637.1483],[-71.4554,-39.4511,1402.1313],[-71.4627,-39.4557,1393.3771],[-71.4511,-39.4579,1363.213],[-71.441,-39.4702,1311.5908],[-71.4344,-39.4708,1412.5288],[-71.4156,-39.4665,1214.964],[-71.4091,-39.4669,1443.0957],[-71.402,-39.4749,1195.9617],[-71.3962,-39.4773,1161.666],[-71.3773,-39.4788,1602.9628],[-71.3647,-39.4902,1209.7985],[-71.3592,-39.493,1206.4337],[-71.3463,-39.4953,1476.2823],[-71.3407,-39.4937,1645.7334],[-71.3306,-39.4871,1571.4685],[-71.3184,-39.4836,1435.6174],[-71.2931,-39.4889,1666.4111],[-71.2872,-39.488,1760.1859],[-71.2652,-39.4693,1749.2953],[-71.2528,-39.4649,1666.2458],[-71.2486,-39.4669,1448.4305],[-71.2447,-39.4771,1371.1619],[-71.24,-39.4804,1326.0529],[-71.2337,-39.4823,1358.9027],[-71.221,-39.4809,1547.7053],[-71.2158,-39.4835,1594.0237],[-71.2026,-39.495,1562.8879],[-71.1993,-39.4992,1631.022],[-71.1959,-39.5089,1564.8832],[-71.1889,-39.5173,1559.4656],[-71.1766,-39.529,1612.1768],[-71.1662,-39.5351,1640.577],[-71.16,-39.5357,1679.325],[-71.1537,-39.5341,1686.4451],[-71.1439,-39.5273,1716.0873],[-71.1314,-39.5278,1590.8259],[-71.1126,-39.532,1484.5289],[-71.0815,-39.5254,1501.7748],[-71.0505,-39.5328,1504.9019],[-71.033,-39.5392,1574.4304],[-70.9947,-39.5432,1065.1115],[-70.9754,-39.5422,1094.3796],[-70.9456,-39.551,1069.3],[-70.9131,-39.5487,1327.0038],[-70.8957,-39.5425,1528.3086],[-70.8807,-39.5328,1300.6387],[-70.8726,-39.525,1660.3286],[-70.866,-39.5163,1528.9265],[-70.8569,-39.4972,1556.8918],[-70.8505,-39.4886,1750.8424],[-70.8398,-39.4839,1949.5986],[-70.8147,-39.4776,1731.9421],[-70.8029,-39.4718,1686.7635],[-70.7992,-39.4682,1729.0781],[-70.7987,-39.4589,1541.4263],[-70.8031,-39.4486,1550.3821],[-70.8095,-39.4401,1527.5447],[-70.8219,-39.4283,1336.3997],[-70.8317,-39.4151,1282.6233],[-70.836,-39.4057,1298.5916],[-70.8364,-39.3958,1155.6304],[-70.8335,-39.3858,1139.072],[-70.8285,-39.3767,1452.2429],[-70.804,-39.3469,1688.2493],[-70.8013,-39.3373,1616.8513],[-70.8012,-39.3221,1629.7823],[-70.7971,-39.3128,1588.5276],[-70.7861,-39.3002,1759.6621],[-70.7653,-39.2876,2034.8496],[-70.759,-39.2797,1994.0793],[-70.7581,-39.2694,1876.679],[-70.7603,-39.2594,1757.3246],[-70.7714,-39.2412,1860.8149],[-70.7762,-39.2262,1744.1874],[-70.7757,-39.2215,1780.0613],[-70.7731,-39.2172,1675.7305],[-70.7607,-39.2051,1928.9396],[-70.7564,-39.1958,1826.5354],[-70.7567,-39.1807,1750.8304],[-70.7631,-39.1715,1826.6581],[-70.7632,-39.167,1875.1201],[-70.7539,-39.1535,1936.1055],[-70.7514,-39.1439,1681.6685],[-70.7536,-39.0686,2000.7184],[-70.7501,-39.0485,2084.2288],[-70.7417,-39.0408,2004.6753],[-70.7355,-39.0386,2140.7925],[-70.7299,-39.0389,2124.9531],[-70.7193,-39.0448,1922.9727],[-70.6936,-39.0677,1720.7976],[-70.683,-39.0737,2100.8677],[-70.6771,-39.0756,2331.5732],[-70.671,-39.0753,2209.4895],[-70.6461,-39.0711,1832.2214]]]]}
,"properties": {"GID_2": "ARG.15.1_1","GID_0": "ARG","country": "Argentina","GID_1": "ARG.15_1","state": "Neuquén","NL_NAME_1": "NA","county": "Aluminé","VARNAME_2": "NA","NL_NAME_2": "NA","TYPE_2": "Departamento","ENGTYPE_2": "Department","CC_2": "NA","HASC_2": "AR.NQ.AL","name": "Aluminé.county","area_km2": 4593.754,"hist_schema_id": "Elevation0-9000","hist_area_km2": {"775": 0.638,"800": 3.73,"825": 5.73,"850": 8.501,"875": 13.705,"900": 18.221,"925": 22.471,"950": 32.726,"975": 79.082,"1000": 58.739,"1025": 77.164,"1050": 106.919,"1075": 110.213,"1100": 108.308,"1125": 100.914,"1150": 195.365,"1175": 128.091,"1200": 128.009,"1225": 154.943,"1250": 137.121,"1275": 130.812,"1300": 135.123,"1325": 131.222,"1350": 133.632,"1375": 133.463,"1400": 129.271,"1425": 121.946,"1450": 134.957,"1475": 141.709,"1500": 190.077,"1525": 162.553,"1550": 127.952,"1575": 125.384,"1600": 114.842,"1625": 106.712,"1650": 103.785,"1675": 94.66,"1700": 92.557,"1725": 84.979,"1750": 82.856,"1775": 75.253,"1800": 69.638,"1825": 64.047,"1850": 56.571,"1875": 51.258,"1900": 45.973,"1925": 41.679,"1950": 36.95,"1975": 32.558,"2000": 29.847,"2025": 22.882,"2050": 19.529,"2075": 16.6,"2100": 13.62,"2125": 11.615,"2150": 10.499,"2175": 6.794,"2200": 5.361,"2225": 3.578,"2250": 2.852,"2275": 2.176,"2300": 1.697,"2325": 1.384,"2350": 0.824,"2375": 0.659,"2400": 0.297,"2425": 0.132,"2450": 0.132,"2475": 0.132,"2500": 0.049,"2525": 0.049}}}