{"type": "Feature","bbox": [-58.4472,-34.7493,-58.3341,-34.6636],"geometry": {"type": "MultiPolygon","coordinates": [[[[-58.4038,-34.6647,6.1438],[-58.414,-34.6636,6.3641],[-58.423,-34.6663,6.7915],[-58.4472,-34.6932,6.2487],[-58.4143,-34.7365,9.9477],[-58.382,-34.742,12.8031],[-58.3758,-34.7467,16.7421],[-58.3729,-34.7452,13.2509],[-58.3677,-34.7493,12.2038],[-58.3571,-34.7439,10.9776],[-58.3487,-34.7438,14.3811],[-58.3341,-34.7306,7.4218],[-58.3789,-34.6925,7.0311],[-58.3805,-34.6938,6.8368],[-58.3913,-34.6855,7.001],[-58.398,-34.6789,6.7845],[-58.3956,-34.6769,6.9863],[-58.4073,-34.668,6.9465],[-58.4038,-34.6647,6.1438]]]]}
,"properties": {"GID_2": "ARG.1.64_1","GID_0": "ARG","country": "Argentina","GID_1": "ARG.1_1","state": "BuenosAires","NL_NAME_1": "NA","county": "Lanús","VARNAME_2": "NA","NL_NAME_2": "NA","TYPE_2": "Partido","ENGTYPE_2": "Part","CC_2": "NA","HASC_2": "AR.BA.LS","name": "Lanús.county","area_km2": 49.42908,"hist_schema_id": "Elevation0-9000","hist_area_km2": {"0": 47.28595,"25": 2.14314}}}