{"type":"Feature","properties":{"GID_2":"ARG.12.7_1","GID_0":"ARG","country":"Argentina","GID_1":"ARG.12_1","state":"LaRioja","NL_NAME_1":"NA","county":"Famatina","VARNAME_2":"NA","NL_NAME_2":"NA","TYPE_2":"Departamento","ENGTYPE_2":"Department","CC_2":"NA","HASC_2":"AR.LR.FA","name":"Famatina.county"},
"geometry":{"type": "MultiPolygon","coordinates": [[[[-67.8613,-28.307,3481.1191],[-67.8706,-28.3185,3362.1106],[-67.8737,-28.3265,3204.3784],[-67.8763,-28.3648,3085.4702],[-67.8669,-28.3979,3177.5801],[-67.8617,-28.4098,3424.8613],[-67.8298,-28.5355,4056.9341],[-67.8771,-28.7611,3938.6582],[-67.8247,-28.8813,4978.6855],[-67.8282,-28.9132,5132.0195],[-67.8273,-28.9474,5683.0376],[-67.8326,-28.9768,5648.9619],[-67.8352,-29.0146,6039.2061],[-67.2161,-29.0145,3194.9099],[-67.2091,-28.971,3472.5894],[-67.1985,-28.9472,3662.6814],[-67.1748,-28.9055,3864.5032],[-67.2057,-28.8789,3651.0989],[-67.2139,-28.8696,3450.0459],[-67.2255,-28.8502,3302.9612],[-67.2303,-28.8291,3161.1165],[-67.257,-28.7423,2354.2002],[-67.263,-28.713,2177.3958],[-67.2649,-28.6873,1860.338],[-67.2629,-28.6605,1789.4346],[-67.2547,-28.6015,1665.228],[-67.2536,-28.5715,1580.6899],[-67.2557,-28.5555,1717.313],[-67.2591,-28.5443,1586.3625],[-67.2641,-28.5337,1516.5955],[-67.2737,-28.5208,1630.8074],[-67.2892,-28.5062,1364.6821],[-67.3079,-28.493,1257.7086],[-67.3996,-28.4434,1204.6567],[-67.4341,-28.4199,1221.3896],[-67.4434,-28.4111,1219.6842],[-67.4485,-28.4003,1216.5267],[-67.449,-28.3875,1204.568],[-67.4453,-28.3587,1239.7518],[-67.5005,-28.3321,1204.0022],[-67.5718,-28.32,1243.4977],[-67.6235,-28.3173,1627.8845],[-67.6427,-28.3129,1483.4624],[-67.6699,-28.3138,1546.3456],[-67.6841,-28.318,1601.3208],[-67.7388,-28.3401,2441.1914],[-67.7665,-28.3453,2505.9951],[-67.8095,-28.3504,3327.7466],[-67.8176,-28.3865,3874.8047],[-67.8286,-28.3757,3089.7188],[-67.8361,-28.3555,3492.0537],[-67.8464,-28.3425,3655.7847],[-67.8475,-28.3345,3701.1621],[-67.8433,-28.3245,3798.5544],[-67.8433,-28.3163,3770.2505],[-67.847,-28.3128,3584.1953],[-67.8613,-28.307,3481.1191]]]]}}