{"type": "Feature","bbox": [-63.525,-25.2933,-62.3298,-22.0022],"geometry": {"type": "MultiPolygon","coordinates": [[[[-62.737,-24.8526,219.5586],[-62.3478,-24.3944,188.4149],[-62.3463,-24.318,190.3596],[-62.3476,-24.1396,190.5532],[-62.3459,-23.9962,194.6983],[-62.3446,-22.4616,241.7106],[-62.3314,-22.4658,242.9881],[-62.3306,-22.4676,242.4606],[-62.3298,-22.4655,242.1394],[-62.3308,-22.463,243.3789],[-62.3675,-22.4521,240.9899],[-62.3757,-22.4663,247.7629],[-62.3784,-22.467,246.9279],[-62.3837,-22.4552,248.3793],[-62.3895,-22.4499,248.117],[-62.4121,-22.4383,247.4574],[-62.4207,-22.4321,246.2594],[-62.425,-22.4221,244.1862],[-62.4309,-22.4138,249.4682],[-62.4378,-22.4135,248.6486],[-62.4456,-22.4165,246.0372],[-62.4524,-22.4157,243.75],[-62.4436,-22.4075,248.6865],[-62.4447,-22.4062,249.2194],[-62.4431,-22.4038,247.3553],[-62.4617,-22.4011,247.3603],[-62.4629,-22.389,249.0395],[-62.4569,-22.3759,251.7929],[-62.4575,-22.3665,248.6932],[-62.4626,-22.3639,253.5938],[-62.4718,-22.3676,254.2154],[-62.4853,-22.3781,250.8885],[-62.5173,-22.3736,253.5858],[-62.5308,-22.3669,252.5089],[-62.5348,-22.3488,253.2016],[-62.5451,-22.3439,251.4133],[-62.54,-22.3249,257.5508],[-62.5615,-22.3323,252.5592],[-62.5662,-22.3301,253.0004],[-62.5707,-22.3192,253.6971],[-62.5712,-22.3135,254.9074],[-62.575,-22.309,254.9596],[-62.5797,-22.3084,253.4645],[-62.5908,-22.3174,254.5838],[-62.5953,-22.316,255.2081],[-62.6052,-22.305,254.0792],[-62.6172,-22.3,256.259],[-62.6257,-22.3039,256.2693],[-62.6357,-22.3014,258.0325],[-62.6358,-22.2973,257.8244],[-62.6218,-22.2824,261.4038],[-62.6213,-22.2797,261.3207],[-62.6216,-22.2753,260.9726],[-62.6355,-22.2667,261.8719],[-62.6355,-22.2648,261.7949],[-62.6295,-22.2576,257.0051],[-62.6289,-22.2461,260.4426],[-62.6379,-22.2429,260.4498],[-62.6424,-22.2429,261.8493],[-62.6439,-22.2466,260.0768],[-62.6514,-22.2524,260.6885],[-62.6576,-22.2502,260.7908],[-62.6655,-22.2447,260.9922],[-62.6794,-22.2269,263.1779],[-62.6838,-22.2169,262.9353],[-62.6878,-22.2044,262.8614],[-62.6897,-22.1922,260.7158],[-62.691,-22.1911,261.6718],[-62.6969,-22.1954,262.7851],[-62.7094,-22.2112,261.5],[-62.7204,-22.2108,263.2643],[-62.7229,-22.2069,262.0],[-62.7272,-22.1861,266.4487],[-62.7363,-22.17,266.205],[-62.7555,-22.1527,268.4274],[-62.7594,-22.1519,267.3996],[-62.7628,-22.1528,268.3503],[-62.7678,-22.1575,269.1417],[-62.7761,-22.173,268.4984],[-62.7803,-22.1748,269.0144],[-62.7841,-22.1732,268.1012],[-62.7903,-22.1593,268.0911],[-62.8003,-22.1462,270.3621],[-62.8071,-22.1402,271.3072],[-62.8136,-22.1299,271.8847],[-62.8107,-22.1155,273.7874],[-62.8065,-22.1095,273.5707],[-62.8116,-22.0988,272.0],[-62.8109,-22.0908,274.0781],[-62.7998,-22.0707,275.8094],[-62.7931,-22.064,273.7668],[-62.7963,-22.059,275.3994],[-62.8126,-22.0531,274.5],[-62.8147,-22.0471,276.8506],[-62.8142,-22.0415,276.9565],[-62.817,-22.0335,278.4385],[-62.8087,-22.0275,277.4777],[-62.8012,-22.0161,282.5931],[-62.8015,-22.0068,279.1924],[-62.8048,-22.0022,279.587],[-62.8077,-22.0039,278.0],[-63.1336,-22.0037,332.7719],[-63.1319,-22.4811,297.8061],[-63.1187,-22.4818,294.8859],[-63.119,-22.9197,237.394],[-63.1952,-22.9195,237.6988],[-63.2706,-23.4518,239.1205],[-63.2944,-23.4505,240.2189],[-63.3195,-23.5878,237.2306],[-63.3451,-23.5772,240.2003],[-63.3696,-23.5631,238.9306],[-63.3919,-23.5402,241.0355],[-63.4269,-23.6883,240.218],[-63.4398,-23.6857,241.0964],[-63.4936,-23.9369,229.5968],[-63.4853,-23.943,226.7519],[-63.525,-24.115,240.5673],[-63.4398,-24.1281,235.082],[-63.4418,-24.172,237.6071],[-63.4168,-24.1717,234.3831],[-63.4077,-24.1565,233.4213],[-63.4029,-24.1531,232.1202],[-63.3908,-24.1498,231.2966],[-63.3723,-24.1472,231.0169],[-63.3598,-24.1485,230.2612],[-63.3523,-24.1509,229.3927],[-63.3691,-24.3026,235.2416],[-63.2934,-24.28,228.8733],[-63.2938,-24.3129,229.2517],[-63.2257,-24.3105,226.509],[-63.2049,-24.2028,221.7206],[-63.1622,-24.2033,218.6237],[-63.1616,-24.2939,222.8921],[-63.0432,-24.3687,221.5596],[-63.0172,-24.2149,212.1894],[-62.944,-24.2462,214.385],[-62.9435,-24.6976,230.1794],[-63.2328,-24.7029,251.2662],[-63.2364,-24.8641,255.6006],[-63.1121,-24.8672,248.7464],[-63.1147,-25.2933,253.9342],[-62.737,-24.8526,219.5586]]]]}
,"properties": {"GID_2": "ARG.17.19_1","GID_0": "ARG","country": "Argentina","GID_1": "ARG.17_1","state": "Salta","NL_NAME_1": "NA","county": "Rivadavia","VARNAME_2": "NA","NL_NAME_2": "NA","TYPE_2": "Departamento","ENGTYPE_2": "Department","CC_2": "NA","HASC_2": "AR.SA.RI","name": "Rivadavia.county","area_km2": 26352.65,"hist_schema_id": "Elevation0-9000","hist_area_km2": {"175": 11.9,"200": 6524.53,"225": 13440.86,"250": 4234.17,"275": 1393.16,"300": 576.15,"325": 171.87}}}