{"type":"Feature","properties":{"GID_2":"ARG.13.1_1","GID_0":"ARG","country":"Argentina","GID_1":"ARG.13_1","state":"Mendoza","NL_NAME_1":"NA","county":"Capital","VARNAME_2":"Mendoza|Capital(Mendoza)","NL_NAME_2":"NA","TYPE_2":"Departamento","ENGTYPE_2":"Department","CC_2":"NA","HASC_2":"AR.MZ.MZ","name":"Capital.county"},
"geometry":{"type": "MultiPolygon","coordinates": [[[[-68.8264,-32.9076,766.2072],[-68.8217,-32.8951,743.5188],[-68.8158,-32.8668,714.4655],[-68.8264,-32.8649,725.2034],[-68.8262,-32.861,718.7935],[-68.9639,-32.859,1361.0144],[-68.9653,-32.9106,1262.8651],[-68.8887,-32.9095,934.3551],[-68.8769,-32.9051,846.4158],[-68.8614,-32.908,811.7512],[-68.8264,-32.9076,766.2072]]]]}}