{"type":"Feature","properties":{"GID_2":"ARG.8.1_1","GID_0":"ARG","country":"Argentina","GID_1":"ARG.8_1","state":"EntreRíos","NL_NAME_1":"NA","county":"Colón","VARNAME_2":"NA","NL_NAME_2":"NA","TYPE_2":"Departamento","ENGTYPE_2":"Department","CC_2":"NA","HASC_2":"AR.ER.CO","name":"Colón.county"},
"geometry":{"type": "MultiPolygon","coordinates": [[[[-58.0311,-31.7093,3.5],[-58.0464,-31.7076,28.9795],[-58.0644,-31.7088,37.9884],[-58.081,-31.7025,43.0167],[-58.1025,-31.7083,20.403],[-58.1159,-31.7074,29.0171],[-58.1242,-31.7052,29.9746],[-58.1639,-31.7239,37.3418],[-58.1819,-31.7245,45.0601],[-58.1947,-31.7208,56.3485],[-58.2175,-31.7219,39.1418],[-58.2295,-31.7166,41.4664],[-58.2403,-31.7095,40.2135],[-58.2453,-31.7031,43.2206],[-58.2501,-31.6922,55.0728],[-58.2726,-31.6732,48.2238],[-58.2896,-31.6503,42.2293],[-58.313,-31.6386,39.9318],[-58.3451,-31.617,44.4094],[-58.3503,-31.6106,47.2818],[-58.3532,-31.6032,48.5171],[-58.3625,-31.5948,52.0665],[-58.3655,-31.5874,54.5313],[-58.3793,-31.5776,52.4298],[-58.3959,-31.5716,43.8808],[-58.4095,-31.5717,50.2565],[-58.4185,-31.57,57.7319],[-58.4262,-31.5662,56.303],[-58.4325,-31.5605,50.2099],[-58.4524,-31.5514,48.3194],[-58.5064,-31.5547,65.0429],[-58.5194,-31.5578,65.474],[-58.5329,-31.5585,64.6176],[-58.5412,-31.5619,66.2652],[-58.5438,-31.5647,64.6627],[-58.5473,-31.576,67.8973],[-58.5492,-31.5913,69.0566],[-58.5607,-31.6207,60.9618],[-58.5626,-31.6321,64.9601],[-58.5384,-31.6428,65.4944],[-58.5317,-31.648,60.5909],[-58.5079,-31.6591,66.3737],[-58.4989,-31.6677,67.855],[-58.5005,-31.6753,63.8623],[-58.5056,-31.6817,62.5312],[-58.5127,-31.6864,63.8247],[-58.529,-31.6934,63.7324],[-58.551,-31.6977,68.5779],[-58.5631,-31.7029,69.5732],[-58.5739,-31.7101,62.0502],[-58.5793,-31.7163,68.5083],[-58.5872,-31.7385,68.3797],[-58.601,-31.7538,71.0777],[-58.6127,-31.7871,69.6568],[-58.6409,-31.8124,69.2162],[-58.6449,-31.814,67.1653],[-58.6857,-31.8113,68.0872],[-58.7027,-31.8065,65.6048],[-58.706,-31.809,67.5195],[-58.7079,-31.8126,68.8118],[-58.7071,-31.8166,69.2565],[-58.7132,-31.8353,62.2805],[-58.7179,-31.8581,67.1174],[-58.7199,-31.8775,60.9042],[-58.7188,-31.8929,63.4758],[-58.7225,-31.9199,64.2282],[-58.7217,-31.9277,64.3278],[-58.72,-31.9311,63.4347],[-58.7104,-31.9396,55.051],[-58.709,-31.9432,55.1619],[-58.706,-31.9586,59.0284],[-58.7067,-31.974,52.5868],[-58.7017,-31.9805,51.2009],[-58.6935,-31.9848,52.9855],[-58.6914,-31.9878,53.9712],[-58.6919,-32.0073,52.6801],[-58.6896,-32.0147,50.2803],[-58.6704,-32.0499,47.1168],[-58.6626,-32.0682,46.3252],[-58.6504,-32.0797,51.5188],[-58.6467,-32.0867,48.6657],[-58.6457,-32.0944,50.7668],[-58.6467,-32.1216,42.5467],[-58.644,-32.1408,41.7183],[-58.6398,-32.1638,43.8699],[-58.6337,-32.1743,52.5741],[-58.6173,-32.1809,48.5529],[-58.5865,-32.1872,46.7213],[-58.5752,-32.1938,38.7645],[-58.5695,-32.2042,35.608],[-58.5654,-32.2274,35.2879],[-58.5572,-32.2307,38.5687],[-58.5536,-32.2289,35.0345],[-58.5487,-32.222,34.5513],[-58.5473,-32.2143,35.991],[-58.5479,-32.1945,34.129],[-58.5419,-32.1897,33.6762],[-58.5329,-32.1873,34.8043],[-58.5237,-32.1871,35.4178],[-58.5081,-32.1949,42.2669],[-58.4971,-32.1884,36.9502],[-58.4885,-32.1858,40.6362],[-58.4666,-32.1897,38.9633],[-58.4484,-32.1887,40.1391],[-58.4266,-32.1838,42.4666],[-58.4176,-32.1841,45.539],[-58.4102,-32.1889,48.7965],[-58.4095,-32.1921,46.5032],[-58.4148,-32.2106,52.1689],[-58.4156,-32.23,56.1982],[-58.4146,-32.238,54.4505],[-58.4128,-32.2412,51.6123],[-58.4042,-32.2441,53.8315],[-58.3813,-32.2443,47.6982],[-58.3723,-32.2461,32.6285],[-58.3687,-32.2532,30.2156],[-58.3709,-32.2604,32.6953],[-58.3699,-32.2643,37.1834],[-58.3606,-32.2729,37.8038],[-58.3564,-32.2737,41.3741],[-58.3474,-32.2714,30.2907],[-58.3442,-32.2687,25.6787],[-58.3421,-32.2611,26.8221],[-58.3389,-32.2577,34.3131],[-58.3351,-32.2567,39.5999],[-58.3315,-32.2585,33.2765],[-58.3158,-32.2734,33.1842],[-58.3045,-32.2946,19.8258],[-58.2963,-32.304,18.9679],[-58.2884,-32.3076,26.2495],[-58.2704,-32.3089,36.5536],[-58.2525,-32.3211,22.0035],[-58.2491,-32.3281,23.7553],[-58.2266,-32.3314,8.5039],[-58.2246,-32.3346,8.5001],[-58.2199,-32.3537,25.929],[-58.2113,-32.3627,5.7275],[-58.2028,-32.3634,10.444],[-58.1961,-32.3585,4.3522],[-58.1915,-32.3576,4.9474],[-58.1759,-32.3651,2.0],[-58.168,-32.3576,2.0],[-58.1432,-32.3495,2.0],[-58.1264,-32.3406,2.0],[-58.1234,-32.3383,2.0],[-58.104,-32.3084,2.0],[-58.1003,-32.2984,2.0],[-58.0985,-32.2859,2.0],[-58.1016,-32.249,2.0],[-58.1064,-32.24,2.0],[-58.1246,-32.2236,2.0],[-58.1482,-32.195,2.0],[-58.176,-32.1674,2.0],[-58.1815,-32.1601,2.0],[-58.1839,-32.1526,2.0],[-58.1673,-32.0883,2.5],[-58.164,-32.0839,2.5],[-58.1533,-32.0767,3.0],[-58.1499,-32.0724,3.0],[-58.1428,-32.0565,3.0],[-58.1378,-32.0244,3.5],[-58.1398,-32.0104,3.5],[-58.1385,-32.001,3.5],[-58.1512,-31.9818,3.5],[-58.1568,-31.9539,3.5],[-58.1665,-31.9332,3.5],[-58.1707,-31.9275,3.5],[-58.1941,-31.9105,3.5],[-58.2068,-31.8688,21.1107],[-58.1969,-31.855,3.5],[-58.1878,-31.8495,3.5],[-58.1445,-31.8338,3.5],[-58.0927,-31.8218,3.5],[-58.083,-31.8173,3.5],[-58.0676,-31.7995,3.5],[-58.0509,-31.7715,3.5],[-58.0388,-31.7576,3.5],[-58.0371,-31.7519,3.5],[-58.0392,-31.7343,3.5],[-58.0352,-31.7168,3.5],[-58.0311,-31.7093,3.5]]]]}}