{"type": "Feature","bbox": [-60.3841,-30.7108,-59.5631,-29.3715],"geometry": {"type": "MultiPolygon","coordinates": [[[[-59.5631,-30.0211,22.0],[-59.5661,-30.0051,22.0],[-59.5861,-30.0021,22.0],[-59.5883,-30.0,22.0],[-59.593,-29.9852,22.0],[-59.5938,-29.9746,22.0],[-59.5996,-29.9623,22.0],[-59.6134,-29.916,23.7418],[-59.6157,-29.9029,27.681],[-59.6239,-29.8828,22.5],[-59.6296,-29.8766,22.5],[-59.6721,-29.8507,22.5],[-59.6801,-29.8307,29.9626],[-59.6785,-29.8201,28.3636],[-59.6723,-29.811,28.3342],[-59.6333,-29.7774,24.5],[-59.6248,-29.7664,24.5],[-59.6182,-29.7543,24.5],[-59.6181,-29.7518,24.5],[-59.6272,-29.7348,25.0],[-59.6293,-29.7243,25.0],[-59.6363,-29.7067,28.5508],[-59.6373,-29.6988,30.6483],[-59.6345,-29.6885,25.5],[-59.6264,-29.6772,28.3261],[-59.6101,-29.6614,29.2778],[-59.6054,-29.6545,26.1971],[-59.603,-29.6469,26.5],[-59.6089,-29.6127,25.5],[-59.6154,-29.5978,27.5908],[-59.6158,-29.5925,29.2024],[-59.6147,-29.5873,30.9029],[-59.6086,-29.578,25.5],[-59.606,-29.5703,25.5],[-59.6086,-29.5465,29.6896],[-59.6084,-29.5066,30.5835],[-59.5996,-29.459,30.5073],[-59.6225,-29.4532,30.7499],[-59.6421,-29.4453,32.1316],[-59.6561,-29.4436,29.4655],[-59.6632,-29.4447,31.8775],[-59.6694,-29.4483,30.9836],[-59.6901,-29.4663,29.2266],[-59.7024,-29.473,29.1267],[-59.7315,-29.4759,28.5617],[-59.7377,-29.4733,28.8326],[-59.7409,-29.4673,29.2502],[-59.741,-29.4546,29.4965],[-59.7542,-29.4524,32.0702],[-59.7581,-29.4467,30.2621],[-59.7594,-29.441,30.6588],[-59.7875,-29.4339,35.3524],[-59.7921,-29.4289,39.2874],[-59.7979,-29.4171,43.4953],[-59.7981,-29.4043,43.1321],[-59.9637,-29.3896,53.7938],[-60.0782,-29.3715,50.3429],[-60.0845,-29.3834,49.7889],[-60.0816,-29.3938,49.5835],[-60.082,-29.4013,48.9393],[-60.084,-29.4051,48.2668],[-60.0972,-29.4181,47.9408],[-60.1048,-29.4333,54.5826],[-60.1083,-29.4418,51.8527],[-60.109,-29.4551,55.0853],[-60.1047,-29.4735,45.9683],[-60.095,-29.4951,45.2063],[-60.0934,-29.5067,46.8618],[-60.0948,-29.519,46.5039],[-60.087,-29.5342,44.759],[-60.0848,-29.5423,43.9438],[-60.0868,-29.5655,47.0377],[-60.0855,-29.582,42.9386],[-60.0831,-29.5883,42.7554],[-60.0818,-29.5999,41.9329],[-60.0826,-29.6115,41.6963],[-60.0807,-29.6213,41.0956],[-60.0736,-29.6358,41.7249],[-60.0619,-29.6455,51.4685],[-60.0417,-29.6503,45.4762],[-60.0346,-29.6541,39.4343],[-60.0203,-29.6495,44.7642],[-60.0061,-29.6503,47.085],[-59.9947,-29.6586,38.645],[-59.994,-29.6634,38.3075],[-59.9966,-29.6732,38.5424],[-59.9913,-29.6865,36.8667],[-59.9911,-29.6932,36.8771],[-59.9931,-29.7028,40.8915],[-60.0024,-29.7068,36.5234],[-60.0046,-29.7105,35.9609],[-60.0054,-29.717,35.9815],[-60.0031,-29.7214,36.1267],[-59.9984,-29.7219,36.779],[-59.9962,-29.7246,36.3595],[-59.9951,-29.7411,41.0417],[-59.9799,-29.7661,39.632],[-59.9786,-29.7784,34.2569],[-59.9738,-29.7846,38.1637],[-59.97,-29.7949,36.268],[-59.965,-29.7999,38.7339],[-59.9588,-29.7945,37.9411],[-59.9369,-29.7956,31.4518],[-59.9157,-29.8004,30.9599],[-59.9108,-29.8125,30.8663],[-59.9059,-29.8174,30.8519],[-59.8989,-29.8169,30.7527],[-59.8935,-29.8217,30.6474],[-59.8944,-29.8277,30.5366],[-59.8988,-29.8327,30.502],[-59.9062,-29.8331,30.7563],[-59.9107,-29.8382,30.4807],[-59.9224,-29.8617,30.7935],[-59.9323,-29.871,30.541],[-59.9359,-29.8899,30.43],[-59.9453,-29.8998,29.9515],[-59.9586,-29.9052,29.4851],[-59.9638,-29.9097,29.8089],[-59.9712,-29.9209,29.6609],[-59.9809,-29.9304,29.0],[-59.9875,-29.9335,29.4026],[-60.0018,-29.935,28.3817],[-60.0084,-29.9379,29.6554],[-60.013,-29.9429,29.3515],[-60.0387,-29.9562,29.3621],[-60.0351,-29.9682,28.8584],[-60.0453,-29.9852,28.4779],[-60.0471,-29.9914,28.3629],[-60.0452,-30.0042,28.5548],[-60.0465,-30.0103,28.1834],[-60.0499,-30.0162,28.1567],[-60.056,-30.0193,28.0495],[-60.0842,-30.027,26.0],[-60.1071,-30.0432,26.0],[-60.1098,-30.049,32.0962],[-60.1108,-30.0618,27.812],[-60.1142,-30.0676,27.7109],[-60.1253,-30.0756,27.8548],[-60.1278,-30.0816,27.4817],[-60.128,-30.1008,27.276],[-60.1308,-30.1135,26.7034],[-60.1283,-30.1258,26.8229],[-60.1296,-30.132,27.0727],[-60.1539,-30.1645,27.0071],[-60.1613,-30.1824,27.2233],[-60.1608,-30.1889,27.0391],[-60.1635,-30.2015,28.4019],[-60.167,-30.2071,26.1345],[-60.1725,-30.2112,25.6092],[-60.177,-30.2231,27.8745],[-60.1808,-30.2284,30.7493],[-60.1908,-30.2378,25.9619],[-60.1897,-30.2504,24.0],[-60.1863,-30.2555,27.4978],[-60.1906,-30.261,28.8691],[-60.1965,-30.2648,28.5459],[-60.2162,-30.2738,27.6164],[-60.2229,-30.2852,32.7135],[-60.2211,-30.2979,23.9302],[-60.2227,-30.3042,25.2423],[-60.2197,-30.3098,26.1891],[-60.2143,-30.3143,25.1814],[-60.2179,-30.3328,24.7913],[-60.2174,-30.3391,23.0],[-60.2135,-30.3446,25.2486],[-60.2146,-30.3509,25.3154],[-60.2189,-30.356,25.2798],[-60.232,-30.3621,25.1209],[-60.237,-30.3669,25.1989],[-60.2511,-30.3964,24.8963],[-60.263,-30.4124,24.9938],[-60.2743,-30.4208,23.6612],[-60.2889,-30.4225,24.8498],[-60.2954,-30.425,24.993],[-60.2975,-30.4312,28.1674],[-60.3023,-30.4361,23.249],[-60.3204,-30.4473,22.9637],[-60.3351,-30.4763,22.4798],[-60.3486,-30.4818,22.6868],[-60.3508,-30.4874,24.4803],[-60.3472,-30.4928,24.1163],[-60.3557,-30.5024,23.8472],[-60.3592,-30.5149,23.6936],[-60.3575,-30.5275,24.13],[-60.3603,-30.5401,24.4582],[-60.3594,-30.5657,22.5622],[-60.3631,-30.5713,23.4647],[-60.3801,-30.5837,22.5136],[-60.3841,-30.6026,21.7237],[-60.3743,-30.611,20.0],[-60.3677,-30.614,20.0],[-60.3577,-30.6308,21.7776],[-60.3556,-30.6435,22.0836],[-60.3564,-30.67,21.9795],[-60.2379,-30.692,24.4926],[-60.2277,-30.6821,21.78],[-60.2252,-30.676,21.1304],[-60.2214,-30.6639,22.8327],[-60.2216,-30.6511,22.6254],[-59.9638,-30.6701,19.2007],[-59.7119,-30.6986,20.3811],[-59.6343,-30.7108,18.0],[-59.6278,-30.7024,18.0],[-59.625,-30.6952,18.0],[-59.6252,-30.6871,20.224],[-59.6275,-30.6795,18.0],[-59.6326,-30.6731,20.5109],[-59.6611,-30.6537,24.1331],[-59.6655,-30.6469,24.4019],[-59.6727,-30.6297,18.5],[-59.6669,-30.6094,19.6682],[-59.6573,-30.5962,18.5],[-59.6462,-30.5748,19.0],[-59.6464,-30.5591,19.0],[-59.6508,-30.5201,19.5],[-59.658,-30.5002,22.3851],[-59.6633,-30.4772,20.0],[-59.6717,-30.4576,20.4956],[-59.6743,-30.4367,24.3088],[-59.6915,-30.4266,25.5958],[-59.7039,-30.415,20.5],[-59.7073,-30.4107,22.7008],[-59.7081,-30.403,23.3839],[-59.7063,-30.3926,26.5317],[-59.7022,-30.3857,22.7679],[-59.681,-30.3711,21.0],[-59.6618,-30.351,21.0],[-59.655,-30.3253,23.3724],[-59.6564,-30.318,23.0208],[-59.6722,-30.3057,21.0],[-59.6867,-30.2889,23.2923],[-59.6892,-30.2814,26.3447],[-59.688,-30.2764,24.3934],[-59.6785,-30.2663,26.7217],[-59.648,-30.2451,21.9373],[-59.6296,-30.2359,26.3312],[-59.6224,-30.228,24.534],[-59.6182,-30.2098,23.7605],[-59.623,-30.1949,23.0498],[-59.6249,-30.1688,21.5],[-59.624,-30.161,25.4022],[-59.6194,-30.1432,22.4649],[-59.6011,-30.1162,21.5],[-59.5927,-30.0967,26.0418],[-59.5942,-30.0837,24.0329],[-59.6,-30.066,22.0],[-59.5995,-30.061,23.0087],[-59.5915,-30.0469,24.5871],[-59.5741,-30.0431,22.0],[-59.5675,-30.0379,22.0],[-59.5633,-30.0311,22.0],[-59.5631,-30.0211,22.0]]]]}
,"properties": {"GID_2": "ARG.21.14_1","GID_0": "ARG","country": "Argentina","GID_1": "ARG.21_1","state": "SantaFe","NL_NAME_1": "NA","county": "SanJavier","VARNAME_2": "NA","NL_NAME_2": "NA","TYPE_2": "Departamento","ENGTYPE_2": "Department","CC_2": "NA","HASC_2": "AR.SF.SV","name": "SanJavier.county","area_km2": 6821.175,"hist_schema_id": "Elevation0-9000","hist_area_km2": {"25": 5860.544,"50": 960.594}}}