{"type":"Feature","properties":{"GID_2":"ARG.22.22_1","GID_0":"ARG","country":"Argentina","GID_1":"ARG.22_1","state":"SantiagodelEstero","NL_NAME_1":"NA","county":"Rivadavia","VARNAME_2":"Selva","NL_NAME_2":"NA","TYPE_2":"Departamento","ENGTYPE_2":"Department","CC_2":"NA","HASC_2":"AR.SE.RI","name":"Rivadavia.county"},
"geometry":{"type": "MultiPolygon","coordinates": [[[[-62.522,-30.3263,68.0699],[-62.1891,-30.326,69.4399],[-62.1773,-30.3304,71.5522],[-62.1626,-30.3791,88.2076],[-62.1261,-30.479,94.0286],[-62.107,-30.3697,92.3876],[-61.9976,-29.6789,82.34],[-62.451,-29.6834,76.0763],[-62.4539,-30.0334,72.4641],[-62.6583,-30.0346,73.6666],[-62.6464,-30.0441,73.4586],[-62.6378,-30.0459,73.2732],[-62.6367,-30.0512,73.4715],[-62.628,-30.0531,73.1073],[-62.6181,-30.059,73.0826],[-62.6097,-30.0575,73.1285],[-62.6011,-30.0598,72.8582],[-62.5866,-30.0587,72.6353],[-62.5814,-30.061,72.3681],[-62.5723,-30.0609,71.5],[-62.5657,-30.072,71.5],[-62.5661,-30.0767,72.3507],[-62.5599,-30.0823,72.4736],[-62.561,-30.0927,72.414],[-62.5554,-30.1035,71.7763],[-62.5581,-30.1083,72.2001],[-62.5627,-30.1111,71.9536],[-62.57,-30.1252,71.9254],[-62.5714,-30.1329,72.1116],[-62.5764,-30.1424,72.0767],[-62.5865,-30.1457,72.1455],[-62.58,-30.1548,71.6699],[-62.5815,-30.157,71.8411],[-62.5848,-30.1569,71.873],[-62.586,-30.1588,71.8887],[-62.5873,-30.1641,71.896],[-62.5906,-30.1684,70.0],[-62.5893,-30.1736,71.3148],[-62.5925,-30.1769,71.4811],[-62.5825,-30.1837,71.2512],[-62.5788,-30.1801,71.0424],[-62.5748,-30.1866,70.772],[-62.5784,-30.1909,71.9315],[-62.575,-30.1947,71.7829],[-62.5789,-30.1988,71.7735],[-62.5788,-30.204,71.6294],[-62.5862,-30.2081,70.5],[-62.5874,-30.2104,70.5],[-62.584,-30.2145,71.8663],[-62.5853,-30.2197,71.7979],[-62.5845,-30.2224,70.9293],[-62.5847,-30.2245,70.0],[-62.5895,-30.2272,71.8021],[-62.5837,-30.2332,71.9017],[-62.5815,-30.238,71.7962],[-62.588,-30.2435,69.9918],[-62.5828,-30.2496,70.9314],[-62.583,-30.2575,70.8964],[-62.5801,-30.2729,70.0],[-62.5778,-30.2746,70.3544],[-62.5689,-30.2761,68.0478],[-62.565,-30.2884,67.5],[-62.5437,-30.3027,67.5],[-62.5353,-30.3134,67.5],[-62.5274,-30.3169,67.5],[-62.522,-30.3263,68.0699]]]]}}