{"type": "Feature","bbox": [-61.1162,-34.5093,-60.4724,-33.8871],"geometry": {"type": "MultiPolygon","coordinates": [[[[-60.5614,-34.4074,63.0362],[-60.5799,-34.3937,56.3876],[-60.5791,-34.3866,57.1506],[-60.5652,-34.378,55.5286],[-60.5617,-34.3703,55.247],[-60.5473,-34.3624,54.1317],[-60.5425,-34.3564,54.0174],[-60.5414,-34.348,53.7922],[-60.5423,-34.3183,56.5482],[-60.555,-34.2714,51.6761],[-60.5462,-34.2655,52.754],[-60.5427,-34.2566,52.7501],[-60.5272,-34.2493,50.6114],[-60.5222,-34.2451,50.7781],[-60.5124,-34.2433,49.9465],[-60.4963,-34.2301,49.4452],[-60.4907,-34.2204,49.2936],[-60.4724,-34.2004,48.7644],[-60.4731,-34.1968,49.4151],[-60.4754,-34.1941,49.719],[-60.4833,-34.1923,50.7687],[-60.4876,-34.1894,50.7897],[-60.4916,-34.1848,51.1245],[-60.4984,-34.1676,54.287],[-60.5163,-34.147,55.4542],[-60.5459,-34.1374,56.5888],[-60.5765,-34.1185,59.538],[-60.6061,-34.1165,62.0162],[-60.6271,-34.1132,65.5967],[-60.6363,-34.0985,64.2853],[-60.6544,-34.0942,65.6582],[-60.6759,-34.0703,70.5894],[-60.701,-34.0533,70.088],[-60.7068,-34.0434,72.1299],[-60.6985,-34.0346,74.6526],[-60.8015,-33.9537,80.4861],[-60.8101,-33.9612,80.7633],[-60.9051,-33.8871,84.7448],[-60.9462,-33.9213,81.8535],[-60.9414,-33.9258,82.2754],[-61.021,-33.9931,73.0435],[-61.0355,-34.0089,76.3176],[-61.0523,-34.0311,69.906],[-61.0586,-34.0334,70.0883],[-61.0646,-34.0387,70.7672],[-61.0764,-34.0443,71.7383],[-61.0854,-34.0519,72.7176],[-61.0901,-34.0525,73.7594],[-61.0978,-34.0578,73.8946],[-61.1066,-34.0594,76.1874],[-61.1162,-34.0689,75.5127],[-60.9205,-34.2407,80.6494],[-60.9605,-34.2741,79.8144],[-61.0119,-34.2328,85.6236],[-61.0541,-34.2668,86.1694],[-61.0412,-34.2788,85.2131],[-61.0438,-34.2811,84.9589],[-60.9665,-34.3434,68.2722],[-60.9603,-34.3383,67.6982],[-60.9507,-34.3348,66.8879],[-60.9419,-34.3392,66.8005],[-60.924,-34.337,65.5081],[-60.9191,-34.3355,65.5465],[-60.9021,-34.3241,65.8041],[-60.7514,-34.4406,72.9104],[-60.7575,-34.4464,72.6436],[-60.6772,-34.5093,69.4696],[-60.5614,-34.4074,63.0362]]]]}
,"properties": {"GID_2": "ARG.1.99_1","GID_0": "ARG","country": "Argentina","GID_1": "ARG.1_1","state": "BuenosAires","NL_NAME_1": "NA","county": "Rojas","VARNAME_2": "NA","NL_NAME_2": "NA","TYPE_2": "Partido","ENGTYPE_2": "Part","CC_2": "NA","HASC_2": "AR.BA.RO","name": "Rojas.county","area_km2": 2022.147,"hist_schema_id": "Elevation0-9000","hist_area_km2": {"50": 213.792,"75": 1806.951,"100": 1.404}}}