{"type":"Feature","properties":{"GID_2":"ARG.1.32_1","GID_0":"ARG","country":"Argentina","GID_1":"ARG.1_1","state":"BuenosAires","NL_NAME_1":"NA","county":"CoronelPringles","VARNAME_2":"NA","NL_NAME_2":"NA","TYPE_2":"Partido","ENGTYPE_2":"Part","CC_2":"NA","HASC_2":"AR.BA.CP","name":"CoronelPringles.county"},
"geometry":{"type": "MultiPolygon","coordinates": [[[[-60.8492,-37.9322,184.3552],[-60.8562,-37.9377,184.4841],[-61.1764,-37.681,214.8681],[-61.4032,-37.857,260.2123],[-61.5088,-37.9363,279.1148],[-61.5057,-37.939,278.7446],[-61.6779,-38.0768,325.2773],[-61.6615,-38.0903,395.0271],[-61.766,-38.1686,254.3532],[-61.7622,-38.182,216.4116],[-61.7624,-38.1861,216.4665],[-61.7667,-38.1857,221.9944],[-61.7696,-38.1889,220.1411],[-61.7581,-38.1943,216.3393],[-61.7485,-38.2038,216.8182],[-61.7392,-38.2103,220.8705],[-61.7392,-38.2137,207.3773],[-61.7218,-38.2468,195.0178],[-61.7089,-38.2635,188.6164],[-61.7034,-38.2657,196.045],[-61.7006,-38.2764,190.7062],[-61.7173,-38.2805,186.5584],[-61.7155,-38.2917,176.1605],[-61.7186,-38.3011,169.0977],[-61.7238,-38.3042,170.5804],[-61.7239,-38.311,165.4881],[-61.7287,-38.3222,165.5459],[-61.7419,-38.3403,160.2163],[-61.7421,-38.347,158.3549],[-61.7452,-38.3572,155.5],[-61.7508,-38.3619,155.5],[-61.7564,-38.3807,155.5],[-61.7565,-38.386,155.5],[-61.7471,-38.4021,155.5],[-61.7471,-38.408,155.5],[-61.7559,-38.4195,155.5],[-61.7809,-38.4363,133.4312],[-61.7824,-38.4431,131.5999],[-61.7862,-38.4504,128.7792],[-61.7834,-38.4563,129.0044],[-61.7865,-38.4617,125.2122],[-61.7858,-38.4684,123.4604],[-61.7907,-38.5055,114.9421],[-61.7876,-38.5124,113.2114],[-61.7935,-38.5256,109.6763],[-61.7836,-38.5452,105.3478],[-61.7843,-38.5527,104.5654],[-61.7775,-38.5731,100.0847],[-61.7631,-38.5881,97.0823],[-61.752,-38.5892,95.6134],[-61.7511,-38.5925,94.4311],[-61.7559,-38.6107,90.8742],[-61.7508,-38.6203,88.6488],[-61.7416,-38.6284,86.5796],[-61.7365,-38.638,83.8934],[-61.7335,-38.6502,84.0854],[-61.7254,-38.6665,78.0938],[-61.6539,-38.6128,138.5486],[-61.6562,-38.6092,139.614],[-61.6393,-38.5942,154.1203],[-61.6474,-38.588,156.6887],[-61.5906,-38.5418,202.9218],[-61.5872,-38.5441,203.7692],[-61.5261,-38.4956,217.6579],[-61.5149,-38.505,214.3876],[-61.4761,-38.4746,170.6298],[-61.465,-38.4839,164.8593],[-61.3294,-38.3755,219.5915],[-61.3221,-38.3912,212.4844],[-61.2818,-38.3591,261.7553],[-61.2763,-38.3608,263.6746],[-61.2151,-38.3123,240.7103],[-61.2183,-38.3092,240.0318],[-61.1972,-38.2909,220.0354],[-61.1474,-38.3032,198.922],[-61.1332,-38.3039,192.2426],[-61.1182,-38.2979,192.0926],[-61.1059,-38.2962,183.1499],[-61.1007,-38.2934,183.0767],[-61.0803,-38.2911,178.9702],[-61.0731,-38.2932,175.9202],[-61.0427,-38.2934,168.312],[-61.0362,-38.2971,165.5294],[-61.009,-38.306,159.8028],[-60.995,-38.3075,157.7398],[-60.9881,-38.3099,158.9492],[-60.9834,-38.3155,153.7025],[-60.9793,-38.3172,152.7827],[-60.9736,-38.3227,151.079],[-60.9627,-38.3261,148.4374],[-60.932,-38.3496,140.4647],[-60.8822,-38.3679,133.4093],[-60.8666,-38.3786,130.1817],[-60.8441,-38.4009,125.5074],[-60.8377,-38.4026,125.1886],[-60.8105,-38.3806,124.8084],[-60.8049,-38.3834,123.7629],[-60.74,-38.3332,125.8892],[-60.7445,-38.3257,128.0599],[-60.7403,-38.3185,129.5545],[-60.7388,-38.2889,132.3944],[-60.7491,-38.2687,137.8847],[-60.7458,-38.2479,140.9543],[-60.7501,-38.2355,143.556],[-60.7491,-38.2268,144.6601],[-60.741,-38.2208,146.3343],[-60.7312,-38.2202,145.2315],[-60.7228,-38.2219,145.3645],[-60.7172,-38.2191,145.6719],[-60.7206,-38.2036,147.466],[-60.7271,-38.1964,148.7182],[-60.7305,-38.1895,150.1111],[-60.7251,-38.1719,152.1766],[-60.7244,-38.1534,153.9735],[-60.7293,-38.1503,155.0502],[-60.7326,-38.1436,156.0396],[-60.7333,-38.1388,157.4173],[-60.7318,-38.1317,158.2494],[-60.7294,-38.1224,159.6936],[-60.7221,-38.115,160.1932],[-60.7084,-38.1138,160.4166],[-60.7013,-38.1113,160.4929],[-60.6834,-38.0953,162.7893],[-60.7624,-38.0329,170.8483],[-60.7436,-38.0185,171.6477],[-60.8492,-37.9322,184.3552]]]]}}