{"type":"Feature","properties":{"featurecla":"River","scalerank":8,"rivernum":663,"dissolve":"663River","name":"Chico5","name_alt":null,"note":null,"min_zoom":7.0,"strokeweig":0.25,"name_en":"Chico","min_label":8.0},
"geometry":{"type": "LineString","coordinates": [[-68.543017578124989,-45.59343840938088,252.0691],[-68.495458984374991,-45.59636809688088,327.291],[-68.397021484374989,-45.62127044063088,304.4559],[-68.34619140625,-45.617217706255886,465.1765],[-68.305761718749991,-45.600420831255875,263.8221],[-68.040942382812489,-45.43572356563088,301.3196],[-67.967871093749991,-45.406084893755875,296.9456],[-67.862719726562489,-45.341338800005886,286.043],[-67.844531249999989,-45.33318450313088,256.8695],[-67.794042968749991,-45.32244231563088,279.4383],[-67.769873046874991,-45.320830987505886,243.8438],[-67.752880859375,-45.316436456255886,242.1214],[-67.735278320312489,-45.30559661250588,240.8171],[-67.704394531249989,-45.27996184688088,251.4348],[-67.672460937499991,-45.24504973750588,237.9315],[-67.649267578124991,-45.209502862505886,246.509],[-67.622900390624991,-45.178252862505886,268.888],[-67.58154296875,-45.15642669063088,265.0406],[-67.536669921874989,-45.146026300005886,256.6457],[-67.51513671875,-45.138506768755875,251.1789],[-67.495898437499989,-45.12566497188088,249.2175],[-67.484130859375,-45.11199309688088,228.5891],[-67.458740234375,-45.06511809688088,226.1979],[-67.377050781249991,-44.96013762813088,220.4769],[-67.283984374999989,-44.86419036250588,212.9994],[-67.260180664062489,-44.846026300005875,269.239],[-67.183764648437489,-44.81536223750588,208.0158],[-67.120214843749991,-44.77434661250588,204.9657],[-67.092382812499991,-44.749541925005886,211.6892],[-67.068701171874991,-44.719268487505886,203.3879],[-67.059619140624989,-44.69915130000588,198.3592],[-67.0478515625,-44.654815362505886,194.6842],[-67.039160156249991,-44.63396575313088,192.7137],[-66.963305664062489,-44.50652434688088,224.1037],[-66.945849609374989,-44.486163018755875,228.6027],[-66.925634765624991,-44.468584893755875,199.36],[-66.8837890625,-44.440752862505875,175.4413],[-66.868359375,-44.427276300005886,174.4703],[-66.857519531249991,-44.41057708125588,173.6344],[-66.8388671875,-44.33123137813088,166.8057],[-66.808398437499989,-44.289873956255875,176.3406],[-66.723876953125,-44.21599700313088,233.1985],[-66.709521484374989,-44.18670012813088,190.7012],[-66.706787109375,-44.11956145625588,149.3117],[-66.690234374999989,-44.089678643755875,231.652],[-66.650683593749989,-44.040557550005886,139.9389],[-66.635595703124991,-44.026202081255875,234.4158],[-66.488378906249991,-43.948077081255875,242.9384],[-66.446704101562489,-43.90715911250588,238.4444],[-66.430712890624989,-43.879424737505886,257.166],[-66.427539062499989,-43.858233331255875,238.0399],[-66.43916015625,-43.80462005000588,196.1503],[-66.439746093749989,-43.766143487505886,237.7827],[-66.44501953125,-43.750323175005875,232.0919],[-66.461962890624989,-43.73821380000588,239.6272]]}}