{"type":"Feature","properties":{"featurecla":"River","scalerank":8,"rivernum":663,"dissolve":"663River","name":"Chico4","name_alt":null,"note":null,"min_zoom":7.0,"strokeweig":0.2,"name_en":"Chico","min_label":8.0},
"geometry":{"type": "LineString","coordinates": [[-71.364013671875,-44.96404387813088,970.7706],[-71.250341796874991,-44.97551848750588,876.5424],[-71.088623046875,-45.015948175005875,825.7868],[-71.0484375,-45.021319268755875,823.1882],[-70.991381835937489,-45.02092864375588,764.5823],[-70.925146484374991,-45.033526300005875,736.0424],[-70.900146484375,-45.034014581255875,725.6617],[-70.80419921875,-45.024932550005886,687.2748],[-70.629003906249991,-45.02776458125588,631.0364],[-70.61328125,-45.02288176875588,626.1283],[-70.569677734374991,-45.001006768755886,613.92],[-70.530371093749991,-44.98699309688088,603.8712],[-70.483203124999989,-44.96160247188088,591.9158],[-70.457763671875,-44.953643487505886,585.7823],[-70.380859375,-44.954620050005886,571.3105],[-70.355566406249991,-44.949737237505886,562.4196],[-70.316088867187489,-44.93425872188088,559.5475],[-70.299487304687489,-44.932452081255875,556.4872],[-70.178759765624989,-44.934112237505886,537.1386],[-70.152758789062489,-44.93987395625588,534.9204],[-70.129638671875,-44.95208098750588,511.128],[-70.110400390624989,-44.972002862505875,506.869],[-70.0966796875,-44.99846770625588,498.7769],[-70.0783203125,-45.05462005000588,511.4533],[-70.065722656249989,-45.08049895625588,512.5699],[-70.03857421875,-45.12151458125588,474.1933],[-70.02978515625,-45.143389581255875,467.4773],[-70.028417968749991,-45.168291925005875,462.1345],[-70.039160156249991,-45.203936456255875,454.7298],[-70.040332031249989,-45.21575286250588,452.9949],[-70.0328125,-45.23552825313088,449.7646],[-70.017138671874989,-45.250518487505886,447.6686],[-69.979833984374991,-45.27385833125588,441.0917],[-69.965917968749991,-45.291827081255875,437.7021],[-69.961840820312489,-45.312823175005875,432.5934],[-69.960058593749991,-45.334795831255875,430.2603],[-69.952978515624991,-45.35564544063088,426.4938],[-69.947119140624991,-45.36272551875588,424.357],[-69.925878906249991,-45.37957122188088,421.3514],[-69.887060546874991,-45.42766692500588,413.1432],[-69.851904296874991,-45.456377862505875,416.1221],[-69.837817382812489,-45.472491143755875,414.0534],[-69.828466796874991,-45.494463800005875,414.6448],[-69.81396484375,-45.548663018755875,463.1888],[-69.802978515625,-45.572295831255886,395.1873],[-69.720141601562489,-45.69426848750588,401.3513],[-69.712207031249989,-45.713213800005875,449.2234],[-69.711840820312489,-45.73284270625588,441.2423],[-69.721777343749991,-45.75286223750588,369.8328],[-69.75751953125,-45.792022393755886,437.315],[-69.769677734375,-45.813799737505875,361.9185],[-69.770849609374991,-45.839873956255886,462.4942],[-69.759814453124989,-45.86443450313088,458.819],[-69.741455078125,-45.88128020625588,455.96],[-69.698583984374991,-45.910674737505886,360.1491],[-69.678271484374989,-45.931670831255886,438.2121],[-69.667285156249989,-45.94085051875588,435.5164],[-69.631201171874991,-45.958819268755875,427.8717],[-69.590429687499991,-45.98577239375588,399.1164],[-69.567626953125,-45.99382903438088,335.1939],[-69.553076171874991,-45.994952081255875,348.4824],[-69.456958007812489,-45.97942473750588,328.7814],[-69.430468749999989,-45.969268487505886,326.4127],[-69.411230468749991,-45.951006768755875,323.9303],[-69.403564453125,-45.93084075313088,322.662],[-69.399462890624989,-45.91033294063088,320.1817],[-69.393017578125,-45.890655206255886,317.017],[-69.378100585937489,-45.872881768755875,317.286],[-69.173095703125,-45.75188567500588,333.0694],[-69.135351562499991,-45.740069268755875,288.1869],[-69.095996093749989,-45.73235442500588,282.1001],[-69.072119140624991,-45.73088958125588,279.1389],[-69.004931640624989,-45.73967864375588,269.9526],[-68.975146484374989,-45.735870050005886,267.4675],[-68.962084960937489,-45.732745050005875,265.6633],[-68.959082031249991,-45.731475518755886,265.7379],[-68.951904296875,-45.726397393755875,265.2069],[-68.94970703125,-45.725420831255875,264.8022],[-68.927050781249989,-45.722686456255886,263.7184],[-68.889257812499991,-45.72698333125588,261.5374],[-68.879003906249991,-45.72625090938088,261.213],[-68.865478515625,-45.72087981563088,260.6327],[-68.770190429687489,-45.660186456255886,253.5571]]}}