{"type":"Feature","properties":{"featurecla":"River","scalerank":6,"rivernum":285,"dissolve":"285River","name":"Chubut3","name_alt":null,"note":null,"min_zoom":5.0,"strokeweig":0.3,"name_en":"Chubut","min_label":6.0},
"geometry":{"type": "LineString","coordinates": [[-66.457446289062489,-43.744952081255875,239.793],[-66.495361328125,-43.718291925005886,245.0114],[-66.505908203124989,-43.70281340938088,124.0],[-66.487890624999991,-43.69597747188088,155.3042],[-66.466162109374991,-43.693194268755875,184.8354],[-66.388598632812489,-43.66253020625588,204.1576],[-66.370532226562489,-43.650909112505886,136.3786],[-66.359179687499989,-43.63567473750588,130.3588],[-66.365283203124989,-43.61809661250588,179.0377],[-66.3625,-43.60491301875588,105.5762],[-66.334887695312489,-43.59612395625588,98.7773],[-66.279345703124989,-43.58733489375588,60.1804],[-66.2203125,-43.55681731563088,54.0445],[-66.200488281249989,-43.552569268755875,53.8911],[-66.191455078124989,-43.551592706255875,55.0109],[-66.17236328125,-43.54729583125588,65.4546],[-66.159521484374991,-43.54631926875588,53.4791],[-66.14609375,-43.543975518755886,57.3922],[-66.136767578124989,-43.538116143755886,54.5007],[-66.121679687499991,-43.525225518755875,85.5251],[-66.05517578125,-43.501299737505875,82.4723],[-66.035986328124991,-43.498565362505886,59.2399],[-66.022265624999989,-43.49309661250588,93.2449],[-65.941748046874991,-43.44402434688088,41.9283],[-65.92626953125,-43.43206145625588,75.4364],[-65.899169921875,-43.40471770625588,43.2379],[-65.893408203124991,-43.397295831255875,47.2509],[-65.887939453125,-43.38738372188088,35.062],[-65.883740234375,-43.37761809688088,48.3298],[-65.882080078125,-43.369952081255875,36.9218],[-65.876025390624989,-43.36248137813088,34.7082],[-65.861987304687489,-43.35784270625588,34.473],[-65.783544921874991,-43.347686456255886,28.1156],[-65.754809570312489,-43.349151300005886,27.1601],[-65.734375,-43.35662200313088,26.5368],[-65.716723632812489,-43.358916925005886,25.3506],[-65.642504882812489,-43.339190362505875,19.7701],[-65.600830078125,-43.340362237505886,21.3084],[-65.587255859374991,-43.339190362505875,18.7281],[-65.554248046874989,-43.327178643755886,16.9893],[-65.542529296874989,-43.325518487505875,17.4314],[-65.526123046875,-43.320147393755875,15.4545],[-65.46435546875,-43.28337981563088,16.0056],[-65.456396484374991,-43.275225518755875,32.3074],[-65.450366210937489,-43.27068450313088,37.3529],[-65.443212890624991,-43.270342706255875,42.303],[-65.434814453125,-43.27507903438088,18.8335],[-65.432666015624989,-43.28045012813088,13.8219],[-65.432299804687489,-43.285967706255875,12.4587],[-65.425927734375,-43.29607512813088,11.584],[-65.425,-43.30120208125588,11.8019],[-65.422705078124991,-43.30657317500588,11.5707],[-65.415942382812489,-43.311846612505875,11.4325],[-65.410571289062489,-43.311846612505875,10.7883],[-65.395263671875,-43.30632903438088,12.0844],[-65.388037109374991,-43.30510833125588,11.0345],[-65.341796875,-43.306963800005875,8.5466],[-65.327197265624989,-43.30510833125588,8.0362],[-65.281542968749989,-43.286455987505875,7.2989],[-65.26513671875,-43.28337981563088,7.4896],[-65.14208984375,-43.289580987505886,4.7571],[-65.084570312499991,-43.305010675005875,2.3139],[-65.046630859375,-43.33342864375588,0.0]]}}