{"type":"Feature","properties":{"featurecla":"River","scalerank":6,"rivernum":285,"dissolve":"285River","name":"Chubut","name_alt":null,"note":null,"min_zoom":5.0,"strokeweig":0.2,"name_en":"Chubut","min_label":6.0},
"geometry":{"type": "LineString","coordinates": [[-71.219970703125,-43.581573175005886,856.1259],[-71.187548828124989,-43.589190362505875,775.8519],[-71.130957031249991,-43.621612237505886,781.8887],[-71.099414062499989,-43.627764581255875,786.27],[-71.04931640625,-43.61687590938088,727.9019],[-71.027270507812489,-43.603057550005886,810.563],[-71.018725585937489,-43.585284112505875,853.4832],[-71.01611328125,-43.53997161250588,1014.3992],[-71.009082031249989,-43.51726653438088,982.2852],[-70.99560546875,-43.49944426875588,859.8819],[-70.960253906249989,-43.46917083125588,858.477],[-70.945654296874991,-43.451006768755875,793.1124],[-70.922900390624989,-43.410186456255886,739.4901],[-70.905810546874989,-43.39617278438088,718.4541]]}}