{"type":"Feature","properties":{"featurecla":"River","scalerank":6,"rivernum":285,"dissolve":"285River","name":"Chubut1","name_alt":null,"note":null,"min_zoom":5.0,"strokeweig":0.2,"name_en":"Chubut","min_label":6.0},
"geometry":{"type": "LineString","coordinates": [[-70.899096679687489,-43.39275481563088,702.475],[-70.882421874999991,-43.377471612505886,648.8209],[-70.87890625,-43.360870050005886,643.7926],[-70.882421874999991,-43.319366143755886,629.854],[-70.878271484374991,-43.296905206255886,625.9175],[-70.83642578125,-43.16619231563088,607.8994],[-70.8341796875,-43.145830987505875,601.1112],[-70.829345703125,-43.13250090938088,598.2718],[-70.806811523437489,-43.09441497188088,621.7321],[-70.800048828125,-43.07390715938088,596.3322],[-70.793066406249991,-43.01873137813088,609.3086],[-70.781665039062489,-42.99700286250588,572.2941],[-70.757177734374991,-42.978838800005875,566.9064],[-70.725537109375,-42.97185637813088,561.0968],[-70.687109374999991,-42.96917083125588,556.3615],[-70.65234375,-42.960967706255886,547.3592],[-70.631689453124991,-42.93816497188088,573.1594],[-70.628271484374991,-42.914580987505886,558.7976],[-70.630175781249989,-42.867705987505886,583.3337],[-70.626025390624989,-42.84368255000588,581.7253],[-70.609130859375,-42.800127862505875,639.3448],[-70.597900390625,-42.77898528438088,568.2889],[-70.584326171874991,-42.76067473750588,549.3757],[-70.572851562499991,-42.75115325313088,546.4409],[-70.546630859375,-42.737139581255875,533.3132],[-70.534350585937489,-42.72869231563088,503.486],[-70.521582031249991,-42.713213800005875,531.6564],[-70.501757812499989,-42.67839934688088,514.5905],[-70.487963867187489,-42.664092706255886,507.0133],[-70.447021484375,-42.63762786250588,488.2787],[-70.403564453125,-42.616534112505875,466.2065],[-70.381103515625,-42.61223723750588,462.5636],[-70.317626953125,-42.62078215938088,457.0543],[-70.2490234375,-42.61467864375588,549.9906],[-70.156005859375,-42.631377862505886,689.7613],[-70.102636718749991,-42.653155206255875,445.4025],[-70.069091796875,-42.66033294063088,695.0647],[-70.035083007812489,-42.66033294063088,540.3372],[-70.002685546875,-42.650909112505886,426.1234],[-69.975146484374989,-42.630694268755875,428.0007],[-69.965185546874991,-42.62712981563088,614.6345],[-69.955078125,-42.628741143755875,471.2335],[-69.924243164062489,-42.64421965938088,460.6232],[-69.900976562499991,-42.64592864375588,423.7861],[-69.833300781249989,-42.63274505000588,461.5419],[-69.812109374999991,-42.63591887813088,498.0163],[-69.77109375,-42.65056731563088,650.4948],[-69.750097656249991,-42.654815362505886,528.2509],[-69.691699218749989,-42.65715911250588,422.5282],[-69.663256835937489,-42.66204192500588,408.3477],[-69.636523437499989,-42.67400481563088,485.8129],[-69.608203124999989,-42.699541925005875,487.2482],[-69.581884765624991,-42.73479583125588,446.7815],[-69.518725585937489,-42.84710051875588,378.304],[-69.383471679687489,-42.99700286250588,362.8827],[-69.361572265625,-43.008623956255875,363.4981],[-69.330371093749989,-43.020342706255875,463.7181],[-69.320483398437489,-43.02922942500588,457.0211],[-69.297949218749991,-43.07390715938088,403.3512],[-69.290087890624989,-43.085772393755875,387.7174],[-69.227099609374989,-43.15471770625588,460.963],[-69.217211914062489,-43.17034270625588,472.8859],[-69.205126953124989,-43.202178643755886,439.6474],[-69.196875,-43.21819426875588,343.4311],[-69.1806640625,-43.233233331255875,440.168],[-69.140380859375,-43.24895598750588,568.4534],[-69.123291015625,-43.261260675005886,527.8807],[-69.115039062499989,-43.276397393755886,478.6242],[-69.116137695312489,-43.29021575313088,358.2794],[-69.141040039062489,-43.332354425005875,333.0914],[-69.146826171874991,-43.34514739375588,332.1813],[-69.154345703124989,-43.37615325313088,335.9063],[-69.154223632812489,-43.386553643755875,330.1591],[-69.148876953125,-43.40715911250588,383.7088],[-69.148193359375,-43.418975518755886,327.3061],[-69.165136718749991,-43.43450286250588,323.8582],[-69.153417968749991,-43.45378997188088,447.9345],[-69.116943359375,-43.48577239375588,511.7139]]}}