{"type":"Feature","properties":{"featurecla":"River","scalerank":8,"rivernum":799,"dissolve":"799River","name":"Chico7","name_alt":null,"note":null,"min_zoom":7.0,"strokeweig":0.2,"name_en":"Chico","min_label":8.0},
"geometry":{"type": "LineString","coordinates": [[-71.139257812499991,-41.96599700313088,721.5744],[-71.168627929687489,-42.070635675005875,700.3989],[-71.1701171875,-42.123565362505886,688.1056],[-71.154467773437489,-42.177764581255886,675.2355],[-71.140478515624991,-42.197295831255886,670.3198],[-71.136767578124989,-42.204620050005886,667.1296],[-71.128100585937489,-42.235674737505875,659.2509],[-71.1265625,-42.25090911250588,703.9086],[-71.128173828125,-42.29680755000588,647.8557],[-71.12353515625,-42.30925872188088,651.759],[-71.111669921874991,-42.31902434688088,653.2101],[-71.066162109375,-42.337432550005886,634.689],[-71.047119140625,-42.34050872188088,641.4486],[-70.987353515624989,-42.341143487505875,615.787],[-70.968359374999991,-42.33782317500588,611.4303],[-70.933032226562489,-42.323565362505875,598.6335],[-70.914160156249991,-42.32097747188088,596.9203],[-70.898242187499989,-42.323565362505875,591.9683],[-70.886083984374991,-42.32903411250588,588.8019],[-70.862231445312489,-42.34612395625588,581.4957],[-70.848681640624989,-42.35320403438088,578.5919],[-70.803881835937489,-42.36712005000588,597.2709],[-70.75634765625,-42.37615325313088,559.0942],[-70.657641601562489,-42.37395598750588,538.8361],[-70.612109374999989,-42.39055755000588,530.4483],[-70.597998046874991,-42.404620050005875,525.9069],[-70.592138671874991,-42.408038018755875,524.8406],[-70.584716796875,-42.409014581255875,524.1298],[-70.577734374999991,-42.40715911250588,526.4809],[-70.570898437499991,-42.40447356563088,522.2061],[-70.563769531249989,-42.40252044063088,522.4823],[-70.541113281249991,-42.406280206255886,525.1006],[-70.524707031249989,-42.42009856563088,519.1736],[-70.517504882812489,-42.439776300005875,515.9326],[-70.522265624999989,-42.46160247188088,616.9332],[-70.557373046875,-42.513702081255886,496.8593],[-70.563647460937489,-42.54070403438088,491.7952],[-70.547656249999989,-42.56878020625588,489.5103],[-70.532519531249989,-42.57708098750588,486.3982],[-70.499267578125,-42.58318450313088,481.0791],[-70.484057617187489,-42.59197356563088,478.4686],[-70.47998046875,-42.59734465938088,479.8774],[-70.473437499999989,-42.61003997188088,480.9138],[-70.469091796874991,-42.61565520625588,489.5419],[-70.460742187499989,-42.622100518755886,523.7115],[-70.434912109374991,-42.63274505000588,480.7539]]}}