{"type":"Feature","properties":{"featurecla":"River","scalerank":6,"rivernum":285,"dissolve":"285River","name":"Chubut2","name_alt":null,"note":null,"min_zoom":5.0,"strokeweig":0.25,"name_en":"Chubut","min_label":6.0},
"geometry":{"type": "LineString","coordinates": [[-69.116943359375,-43.48577239375588,511.7139],[-69.10009765625,-43.49407317500588,578.4584],[-69.091113281249989,-43.50628020625588,534.6795],[-69.085009765624989,-43.520830987505875,412.8045],[-69.076586914062489,-43.535674737505886,339.592],[-69.064208984375,-43.54705169063088,400.6049],[-69.047705078124991,-43.55681731563088,452.1453],[-68.98095703125,-43.58098723750588,386.7327],[-68.952563476562489,-43.59490325313088,319.6384],[-68.928955078125,-43.614580987505875,303.5061],[-68.910327148437489,-43.64348723750588,298.6104],[-68.9078125,-43.652178643755875,297.6795],[-68.905810546874989,-43.67058684688088,295.3041],[-68.902880859374989,-43.679522393755875,294.3127],[-68.8984375,-43.68572356563088,293.6572],[-68.887158203125,-43.696612237505875,292.5605],[-68.882617187499989,-43.70281340938088,291.8298],[-68.869384765625,-43.73088958125588,288.432],[-68.860156249999989,-43.76043059688088,361.0394],[-68.858740234374991,-43.79192473750588,286.2658],[-68.855029296874989,-43.80632903438088,354.1022],[-68.842578124999989,-43.819854425005886,334.3865],[-68.815478515624989,-43.82732512813088,272.7969],[-68.786425781249989,-43.81975676875588,269.5498],[-68.729833984374991,-43.797198175005875,264.3362],[-68.654296875,-43.788116143755886,258.5628],[-68.615087890624991,-43.78801848750588,357.1469],[-68.579199218749991,-43.793780206255875,295.1998],[-68.533935546875,-43.811553643755886,276.98],[-68.515869140625,-43.813995050005886,280.9633],[-68.460620117187489,-43.81511809688088,312.175],[-68.4423828125,-43.819854425005886,333.9749],[-68.385424804687489,-43.854815362505875,303.646],[-68.364990234375,-43.861846612505886,240.0745],[-68.342041015625,-43.860674737505875,239.0616],[-68.275,-43.83416106563088,354.7408],[-68.205737304687489,-43.823272393755886,243.5981],[-68.191650390625,-43.81682708125588,233.932],[-68.163671874999991,-43.800127862505875,230.2638],[-68.148193359375,-43.794756768755875,250.9403],[-68.129150390625,-43.79387786250588,270.4191],[-68.112646484374991,-43.797686456255875,267.0613],[-68.080615234374989,-43.809893487505875,255.5458],[-68.044238281249989,-43.817901300005886,311.955],[-67.962890625,-43.822100518755875,265.578],[-67.905322265624989,-43.818389581255886,256.3715],[-67.854101562499991,-43.804034112505875,385.5085],[-67.833740234375,-43.801299737505886,353.4731],[-67.755297851562489,-43.80266692500588,256.964],[-67.696948242187489,-43.79387786250588,200.3388],[-67.679858398437489,-43.78801848750588,195.7423],[-67.633398437499991,-43.76311614375588,225.9647],[-67.614794921874989,-43.75725676875588,217.6117],[-67.556567382812489,-43.75383880000588,189.2075],[-67.5126953125,-43.746416925005875,181.3355],[-67.427587890624991,-43.719561456255875,174.9558],[-67.382739257812489,-43.713702081255875,166.5914],[-67.283056640624991,-43.71428801875588,195.1487],[-67.235644531249989,-43.79534270625588,241.65],[-67.205517578125,-43.824248956255886,249.7617],[-67.155688476562489,-43.837432550005886,212.8187],[-67.095947265625,-43.83416106563088,335.7903],[-67.075610351562489,-43.835772393755875,355.6098],[-67.034960937499989,-43.85173919063088,413.8447],[-67.022509765624989,-43.85344817500588,443.2579],[-67.016455078124991,-43.85076262813088,413.1445],[-67.005078125,-43.840166925005875,396.0855],[-66.999267578125,-43.836455987505886,394.9187],[-66.981787109374991,-43.832842706255875,442.6932],[-66.929003906249989,-43.83318450313088,430.5288],[-66.902441406249991,-43.82781340938088,395.6619],[-66.892138671874989,-43.828155206255886,409.9124],[-66.885546874999989,-43.830889581255875,416.1907],[-66.871923828124991,-43.839678643755875,384.0275],[-66.864697265625,-43.84099700313088,393.4551],[-66.848876953125,-43.83538176875588,367.2705],[-66.840380859374989,-43.82756926875588,351.5527],[-66.830419921874991,-43.822784112505886,346.4654],[-66.810546875,-43.826495050005875,346.3132],[-66.759521484375,-43.84685637813088,281.057],[-66.740283203124989,-43.848174737505886,289.8647],[-66.687255859375,-43.83635833125588,269.3574],[-66.609057617187489,-43.831084893755886,272.5133],[-66.48046875,-43.79461028438088,230.219],[-66.440600585937489,-43.791534112505886,193.4054],[-66.440283203124991,-43.791045831255886,180.8161],[-66.446826171874989,-43.790557550005886,135.5913]]}}