{"type": "Feature","bbox": [-65.0795,-24.6127,-64.4904,-24.009],"geometry": {"type": "MultiPolygon","coordinates": [[[[-64.8321,-24.4777,534.1755],[-64.8286,-24.4815,541.1534],[-64.7467,-24.5262,625.9225],[-64.7372,-24.5329,644.4207],[-64.7185,-24.5508,702.6151],[-64.7105,-24.5685,793.5423],[-64.6979,-24.576,791.5184],[-64.6921,-24.5774,866.2003],[-64.6817,-24.5873,879.4453],[-64.6691,-24.6057,1081.6863],[-64.6622,-24.6114,1252.8428],[-64.6601,-24.6127,1376.0225],[-64.6438,-24.6055,1642.4613],[-64.6358,-24.6093,1616.3578],[-64.6297,-24.6087,1792.5637],[-64.6194,-24.6031,1703.6659],[-64.6118,-24.5912,1439.7699],[-64.5939,-24.5691,1640.083],[-64.5762,-24.5504,1444.2299],[-64.5657,-24.5454,1748.9771],[-64.5613,-24.5415,1575.0848],[-64.5548,-24.5291,1897.0286],[-64.5344,-24.5035,2077.9534],[-64.4904,-24.4008,1429.8267],[-64.5016,-24.3953,1289.9077],[-64.51,-24.3846,1250.6318],[-64.5118,-24.3683,1188.4446],[-64.519,-24.3532,1251.3784],[-64.5224,-24.3403,1157.9114],[-64.5248,-24.3388,1238.6268],[-64.543,-24.3401,1107.3345],[-64.5558,-24.3343,889.5576],[-64.5665,-24.3333,828.4574],[-64.5843,-24.3358,781.6187],[-64.6155,-24.3434,684.3337],[-64.6443,-24.3439,634.1713],[-64.6691,-24.3475,574.1671],[-64.6795,-24.345,552.5524],[-64.6974,-24.3445,529.1624],[-64.7115,-24.3421,512.793],[-64.7351,-24.3339,490.3668],[-64.743,-24.3275,482.7202],[-64.743,-24.321,481.3344],[-64.7386,-24.3052,470.2697],[-64.7319,-24.2974,471.3807],[-64.7144,-24.2687,461.9547],[-64.6996,-24.2388,460.2408],[-64.7043,-24.2128,439.3675],[-64.7049,-24.1833,438.5216],[-64.7136,-24.1582,432.4886],[-64.7143,-24.1517,429.1288],[-64.709,-24.1092,410.2892],[-64.7003,-24.082,401.4472],[-64.723,-24.0736,398.9391],[-64.7507,-24.088,408.4942],[-64.8003,-24.0942,425.8292],[-64.8087,-24.088,432.065],[-64.8248,-24.0623,478.5363],[-64.8368,-24.0552,550.8313],[-64.8431,-24.0436,587.438],[-64.8459,-24.0414,602.1948],[-64.8587,-24.0357,631.9415],[-64.872,-24.0201,614.3128],[-64.881,-24.0148,719.6609],[-64.9054,-24.009,698.4032],[-64.933,-24.0157,644.4252],[-64.9687,-24.019,707.6325],[-65.0069,-24.0281,753.7155],[-65.0555,-24.0473,872.6313],[-65.0595,-24.0796,1173.5007],[-65.0711,-24.1143,1770.192],[-65.0781,-24.1295,1833.7241],[-65.0795,-24.1424,1812.2908],[-65.07,-24.2077,1939.7894],[-65.0666,-24.217,1899.1793],[-65.0568,-24.2346,1882.7565],[-65.0539,-24.2475,1706.3716],[-65.0479,-24.263,1367.9994],[-65.0464,-24.2695,1335.1202],[-65.0467,-24.2826,1189.6177],[-65.0436,-24.2955,1010.0128],[-64.9946,-24.3652,878.4858],[-64.8886,-24.3719,652.4502],[-64.9186,-24.4424,819.9015],[-64.8476,-24.466,532.8696],[-64.8321,-24.4777,534.1755]]]]}
,"properties": {"GID_2": "ARG.10.9_1","GID_0": "ARG","country": "Argentina","GID_1": "ARG.10_1","state": "Jujuy","NL_NAME_1": "NA","county": "SanPedro","VARNAME_2": "NA","NL_NAME_2": "NA","TYPE_2": "Departamento","ENGTYPE_2": "Department","CC_2": "NA","HASC_2": "AR.JY.SP","name": "SanPedro.county","area_km2": 2016.877,"hist_schema_id": "Elevation0-9000","hist_area_km2": {"400": 20.671,"425": 57.296,"450": 91.531,"475": 93.132,"500": 118.323,"525": 137.119,"550": 114.812,"575": 99.556,"600": 87.24,"625": 75.88,"650": 74.873,"675": 71.592,"700": 76.499,"725": 78.794,"750": 61.254,"775": 55.669,"800": 52.539,"825": 48.962,"850": 43.3,"875": 33.507,"900": 30.859,"925": 25.878,"950": 24.254,"975": 23.187,"1000": 20.387,"1025": 18.168,"1050": 16.599,"1075": 16.192,"1100": 15.014,"1125": 14.63,"1150": 14.029,"1175": 13.257,"1200": 13.355,"1225": 12.775,"1250": 12.367,"1275": 11.749,"1300": 11.556,"1325": 11.209,"1350": 11.305,"1375": 10.899,"1400": 10.317,"1425": 8.464,"1450": 9.873,"1475": 9.892,"1500": 9.544,"1525": 9.911,"1550": 8.596,"1575": 8.499,"1600": 9.194,"1625": 8.421,"1650": 7.783,"1675": 7.34,"1700": 7.494,"1725": 7.532,"1750": 6.277,"1775": 7.165,"1800": 7.223,"1825": 6.781,"1850": 6.664,"1875": 5.311,"1900": 4.655,"1925": 3.978,"1950": 3.997,"1975": 4.287,"2000": 3.167,"2025": 2.685,"2050": 2.491,"2075": 2.356,"2100": 2.047,"2125": 1.545,"2150": 1.139,"2175": 1.043,"2200": 0.463,"2225": 0.232,"2250": 0.097,"2275": 0.116,"2300": 0.077}}}