{"type":"Feature","properties":{"GID_2":"ARG.14.16_1","GID_0":"ARG","country":"Argentina","GID_1":"ARG.14_1","state":"Misiones","NL_NAME_1":"NA","county":"SanPedro","VARNAME_2":"NA","NL_NAME_2":"NA","TYPE_2":"Departamento","ENGTYPE_2":"Department","CC_2":"NA","HASC_2":"AR.MN.SP","name":"SanPedro.county"},
"geometry":{"type": "MultiPolygon","coordinates": [[[[-54.2685,-26.4838,237.8378],[-54.2679,-26.6406,429.261],[-54.2703,-26.64,403.3215],[-54.1947,-26.6648,568.6667],[-54.2031,-26.6716,571.4044],[-54.2117,-26.6824,524.0096],[-54.2166,-26.6941,540.0012],[-54.2453,-26.6992,476.541],[-54.2457,-26.7205,557.128],[-54.2502,-26.7273,600.5367],[-54.257,-26.7325,502.1517],[-54.2587,-26.7374,593.2855],[-54.2417,-26.7832,571.9006],[-54.2443,-26.7869,512.7581],[-54.2414,-26.7915,520.2952],[-54.2456,-26.801,498.8022],[-54.1434,-26.7437,388.9802],[-54.1398,-26.7462,372.423],[-54.1382,-26.7483,370.9513],[-54.1461,-26.7507,432.5753],[-54.1462,-26.756,437.0816],[-54.1434,-26.7567,422.6152],[-54.139,-26.7548,355.1702],[-54.1357,-26.7583,423.3396],[-54.1381,-26.7624,355.3779],[-54.1363,-26.7647,416.4135],[-54.1286,-26.7679,415.2509],[-54.1294,-26.7701,349.2009],[-54.1353,-26.7707,419.4686],[-54.1373,-26.7725,455.5986],[-54.1354,-26.7776,376.8545],[-54.1392,-26.7805,374.1723],[-54.1355,-26.7848,304.3677],[-54.1353,-26.7875,310.9198],[-54.1329,-26.7888,313.3266],[-54.1324,-26.7936,376.1935],[-54.1265,-26.7938,307.1065],[-54.125,-26.7961,297.6568],[-54.1317,-26.7998,403.6396],[-54.1304,-26.8051,330.046],[-54.1217,-26.8052,401.6005],[-54.1134,-26.8082,417.9802],[-54.1076,-26.8076,317.6319],[-54.1021,-26.8095,446.3967],[-54.1023,-26.812,360.3395],[-54.1102,-26.8131,292.4471],[-54.1074,-26.8176,366.751],[-54.1089,-26.8282,399.0703],[-54.1081,-26.8336,395.2769],[-54.1055,-26.8341,358.1868],[-54.1021,-26.8382,286.3587],[-54.0992,-26.8392,348.0785],[-54.0955,-26.8352,410.8806],[-54.0897,-26.8344,332.616],[-54.0882,-26.8389,290.5478],[-54.0855,-26.8401,298.5021],[-54.0855,-26.8422,290.2253],[-54.1028,-26.8465,403.0913],[-54.1014,-26.854,282.5553],[-54.0971,-26.8577,263.8698],[-54.0827,-26.8581,395.0427],[-54.0814,-26.8631,344.7792],[-54.0847,-26.8676,277.6488],[-54.0805,-26.8803,264.2014],[-54.0779,-26.8809,258.9025],[-54.0754,-26.8794,294.2056],[-54.068,-26.8679,333.6858],[-54.0583,-26.8733,344.638],[-54.0523,-26.8738,382.9075],[-54.0507,-26.8753,384.2004],[-54.0513,-26.8778,363.4323],[-54.0554,-26.8818,252.8664],[-54.0538,-26.8868,364.0108],[-54.0547,-26.892,312.9108],[-54.0529,-26.8942,365.1571],[-54.0437,-26.8886,328.0424],[-54.0407,-26.8883,297.0086],[-54.0382,-26.8927,248.6593],[-54.0413,-26.9002,247.5358],[-54.0399,-26.9022,252.5154],[-54.0372,-26.9013,321.6324],[-54.0316,-26.8951,344.3846],[-54.0289,-26.8953,358.2964],[-54.0211,-26.9151,253.103],[-54.0128,-26.925,239.653],[-54.0141,-26.9273,245.587],[-54.0221,-26.9303,254.0246],[-54.025,-26.9305,352.7862],[-54.0293,-26.9269,338.7197],[-54.0322,-26.9273,355.5931],[-54.034,-26.9294,376.9142],[-54.0346,-26.9371,334.434],[-54.0307,-26.941,280.1339],[-54.0254,-26.943,270.7729],[-54.0246,-26.9483,235.2678],[-54.0197,-26.9547,237.6979],[-54.0239,-26.9672,333.6585],[-54.0325,-26.9697,347.3158],[-54.0343,-26.9718,355.5293],[-54.0318,-26.9762,354.171],[-54.0289,-26.9771,327.2122],[-54.0257,-26.984,214.5564],[-54.0227,-26.9842,312.4152],[-54.0147,-26.9768,322.4688],[-54.006,-26.9758,253.2883],[-53.9988,-26.9714,346.7902],[-53.9967,-26.973,348.6621],[-53.9954,-26.9781,313.6587],[-54.005,-26.9838,261.4443],[-54.0045,-26.9862,222.9174],[-53.9985,-26.9923,269.8325],[-53.9975,-26.9946,254.6888],[-53.9985,-26.9972,226.169],[-54.005,-27.0023,375.7953],[-54.0188,-26.9979,299.0401],[-54.0214,-26.9987,224.9035],[-54.02,-27.0039,301.2602],[-54.0106,-27.01,251.9537],[-54.0082,-27.0149,248.0269],[-54.0031,-27.0173,312.3144],[-53.9954,-27.0135,282.2024],[-53.9871,-27.006,238.8358],[-53.9816,-27.0071,260.6185],[-53.9798,-27.0092,256.6848],[-53.9822,-27.0192,237.5835],[-53.9801,-27.0209,272.1131],[-53.9715,-27.0203,337.8137],[-53.9695,-27.022,305.5185],[-53.9721,-27.0379,273.7817],[-53.971,-27.0402,217.401],[-53.9681,-27.0409,205.5378],[-53.9594,-27.0404,254.7298],[-53.9596,-27.0354,259.8396],[-53.9503,-27.0291,264.1287],[-53.9454,-27.0224,374.547],[-53.943,-27.0208,357.4791],[-53.9401,-27.0214,356.1211],[-53.9381,-27.0262,340.2401],[-53.9408,-27.0338,261.4059],[-53.9396,-27.0415,271.2032],[-53.9466,-27.0462,285.3738],[-53.9481,-27.0485,233.7547],[-53.9473,-27.051,222.9347],[-53.9446,-27.0518,235.7599],[-53.9393,-27.0498,200.4207],[-53.9273,-27.049,255.6353],[-53.9273,-27.0414,330.6959],[-53.9233,-27.0315,254.214],[-53.9209,-27.0308,226.4806],[-53.9168,-27.0377,206.2622],[-53.9173,-27.0478,180.328],[-53.9131,-27.0512,257.7862],[-53.91,-27.0587,221.6172],[-53.9051,-27.0565,259.2653],[-53.9056,-27.0514,310.8597],[-53.9042,-27.0491,300.2234],[-53.897,-27.0443,209.9248],[-53.8886,-27.0459,249.5619],[-53.8876,-27.0485,189.5402],[-53.8939,-27.0537,218.0139],[-53.8935,-27.059,207.9887],[-53.8991,-27.0609,186.7557],[-53.905,-27.0668,217.1314],[-53.9042,-27.0722,229.2134],[-53.8938,-27.0766,238.4967],[-53.8924,-27.079,215.7788],[-53.8934,-27.0814,222.0592],[-53.9048,-27.0846,240.5928],[-53.9073,-27.086,246.0717],[-53.9074,-27.0886,267.4771],[-53.8846,-27.0944,303.7183],[-53.8798,-27.0975,206.4023],[-53.8797,-27.0998,211.5674],[-53.8878,-27.1033,183.2146],[-53.8971,-27.1098,316.9938],[-53.9033,-27.1047,256.6165],[-53.9063,-27.1042,227.4261],[-53.909,-27.1046,214.3737],[-53.9123,-27.1121,308.9018],[-53.918,-27.1133,229.2225],[-53.9263,-27.1126,219.6579],[-53.9268,-27.1152,283.5337],[-53.9222,-27.1185,207.7029],[-53.9013,-27.1194,206.1063],[-53.8993,-27.1213,229.4266],[-53.8993,-27.1238,263.1861],[-53.9022,-27.1285,194.4948],[-53.9115,-27.1352,244.2613],[-53.9204,-27.1342,243.0031],[-53.9284,-27.1308,197.1608],[-53.9344,-27.1308,199.2769],[-53.9356,-27.1331,260.9666],[-53.9336,-27.1409,194.5058],[-53.9343,-27.1549,128.0],[-53.9168,-27.1713,184.4495],[-53.9111,-27.1742,156.0391],[-53.9012,-27.1741,133.125],[-53.8927,-27.1663,158.9784],[-53.8872,-27.1538,137.5],[-53.8824,-27.1371,193.1701],[-53.8745,-27.1312,187.7595],[-53.863,-27.1309,162.2173],[-53.8573,-27.1327,144.0],[-53.8548,-27.1359,153.3447],[-53.8525,-27.1454,146.375],[-53.8449,-27.1598,149.0],[-53.8332,-27.1674,169.6801],[-53.8338,-27.1695,151.0],[-53.8303,-27.1709,151.125],[-53.8307,-27.1564,195.9677],[-53.8288,-27.1511,202.5591],[-53.8215,-27.1457,174.0185],[-53.7979,-27.1446,159.9597],[-53.796,-27.1414,181.3617],[-53.7984,-27.1367,184.0114],[-53.8054,-27.1391,183.5114],[-53.8159,-27.1385,178.1598],[-53.8189,-27.1354,206.6664],[-53.8198,-27.1314,212.0423],[-53.8085,-27.131,237.3887],[-53.8034,-27.1192,160.6434],[-53.8049,-27.1137,167.0328],[-53.8129,-27.1071,176.2404],[-53.813,-27.1038,218.2406],[-53.8087,-27.1041,177.144],[-53.7983,-27.1123,249.5175],[-53.7927,-27.1126,228.4773],[-53.7795,-27.1085,296.5434],[-53.7753,-27.1049,300.2377],[-53.7769,-27.1041,187.5152],[-53.7746,-27.102,193.0902],[-53.7943,-27.0913,181.1372],[-53.7981,-27.0874,185.3391],[-53.7995,-27.0812,217.9092],[-53.7962,-27.0745,257.3125],[-53.7936,-27.0747,248.992],[-53.7833,-27.0825,303.9633],[-53.7766,-27.0819,233.8556],[-53.774,-27.0799,260.3699],[-53.7724,-27.0734,193.0192],[-53.7798,-27.0723,193.8634],[-53.7919,-27.0631,187.2604],[-53.7962,-27.049,227.4946],[-53.7943,-27.0449,221.8152],[-53.7897,-27.0464,193.4342],[-53.7687,-27.0668,188.8848],[-53.7646,-27.068,240.9812],[-53.7602,-27.0653,186.6074],[-53.7598,-27.061,200.1994],[-53.7657,-27.0597,233.5724],[-53.7682,-27.0576,211.5295],[-53.7769,-27.0351,240.8455],[-53.7648,-27.0482,269.1188],[-53.7625,-27.0489,268.8831],[-53.7599,-27.0475,263.1771],[-53.758,-27.0409,228.518],[-53.7487,-27.0386,296.4222],[-53.7469,-27.0368,242.6804],[-53.7455,-27.0293,231.7513],[-53.7531,-27.0239,241.6459],[-53.7571,-27.0166,203.7996],[-53.7556,-27.0143,246.6007],[-53.7507,-27.0135,291.4919],[-53.7393,-27.0188,296.9857],[-53.7328,-27.0154,362.2785],[-53.73,-27.0084,271.1143],[-53.7316,-27.0048,207.7245],[-53.7409,-26.9981,251.1444],[-53.7401,-26.9969,205.507],[-53.7274,-26.9997,326.9097],[-53.7204,-26.9975,311.2754],[-53.7175,-26.9908,208.9148],[-53.7195,-26.9877,226.7546],[-53.7306,-26.9816,277.8954],[-53.7336,-26.9769,212.0225],[-53.7287,-26.9726,271.0922],[-53.7264,-26.9651,266.1729],[-53.7226,-26.9643,299.7831],[-53.7101,-26.9665,288.2727],[-53.7052,-26.9646,301.8543],[-53.7019,-26.9573,221.6263],[-53.705,-26.943,251.657],[-53.7039,-26.9402,321.9554],[-53.699,-26.9408,344.9772],[-53.6881,-26.9465,397.0369],[-53.6772,-26.949,351.1519],[-53.6743,-26.9474,280.4796],[-53.6725,-26.9448,217.5625],[-53.69,-26.938,217.5873],[-53.6925,-26.9354,289.0576],[-53.6913,-26.9321,254.1905],[-53.6776,-26.9241,335.902],[-53.6749,-26.9191,382.5947],[-53.6742,-26.9162,289.3289],[-53.6766,-26.9094,253.4415],[-53.6718,-26.893,239.2465],[-53.6842,-26.8952,355.9515],[-53.6873,-26.8948,363.0985],[-53.6905,-26.8918,332.7317],[-53.6905,-26.8884,246.4103],[-53.6838,-26.8749,332.3296],[-53.69,-26.8672,306.3388],[-53.6884,-26.865,240.8694],[-53.6642,-26.8681,265.9632],[-53.6616,-26.8657,313.6229],[-53.6766,-26.8486,280.4838],[-53.6821,-26.8469,366.7222],[-53.6612,-26.8419,256.646],[-53.6938,-26.8465,245.4371],[-53.692,-26.8403,254.0956],[-53.701,-26.8193,257.3466],[-53.6968,-26.8183,428.3455],[-53.6967,-26.8115,294.2173],[-53.7012,-26.8032,292.5819],[-53.711,-26.7961,269.8786],[-53.7113,-26.7878,296.2444],[-53.7097,-26.7842,376.3193],[-53.703,-26.7804,399.7905],[-53.7011,-26.777,460.6715],[-53.7031,-26.7735,358.1002],[-53.7069,-26.773,269.1757],[-53.7154,-26.78,300.6751],[-53.7223,-26.7803,483.5446],[-53.731,-26.7774,450.3618],[-53.7352,-26.7733,423.183],[-53.7342,-26.7719,312.8458],[-53.7208,-26.771,381.2203],[-53.7169,-26.7677,392.7097],[-53.7158,-26.7577,361.6272],[-53.7168,-26.7565,308.371],[-53.7144,-26.7492,320.2941],[-53.7207,-26.7518,452.1703],[-53.7233,-26.7488,379.0039],[-53.7248,-26.7396,303.035],[-53.7271,-26.7363,328.8347],[-53.7299,-26.7354,286.0267],[-53.7334,-26.7461,446.0775],[-53.7383,-26.7469,442.7516],[-53.7489,-26.7437,411.8583],[-53.7458,-26.7417,296.1891],[-53.7442,-26.7356,347.5188],[-53.7519,-26.7249,351.027],[-53.7536,-26.7176,413.3524],[-53.7531,-26.7163,434.9361],[-53.7498,-26.717,311.8092],[-53.7426,-26.7261,476.9909],[-53.7383,-26.7262,497.0267],[-53.7357,-26.7237,435.4231],[-53.7332,-26.713,316.3032],[-53.7348,-26.7043,353.8107],[-53.7395,-26.6935,356.9377],[-53.7383,-26.6915,344.9422],[-53.7334,-26.6907,385.2304],[-53.7249,-26.7,460.9134],[-53.7198,-26.6999,536.2692],[-53.7157,-26.6927,432.9986],[-53.7183,-26.6874,393.6263],[-53.7237,-26.6863,375.5527],[-53.7254,-26.684,483.2959],[-53.7183,-26.676,446.4743],[-53.7147,-26.6664,374.7065],[-53.7148,-26.6553,432.4237],[-53.7178,-26.6527,344.6024],[-53.7208,-26.6591,387.7665],[-53.7259,-26.6585,345.827],[-53.7301,-26.6515,407.6309],[-53.7408,-26.6523,422.8491],[-53.7457,-26.651,474.3688],[-53.7494,-26.6489,448.1693],[-53.7521,-26.6433,361.4174],[-53.751,-26.6404,404.8926],[-53.7411,-26.6417,377.2786],[-53.738,-26.6404,395.0933],[-53.7358,-26.6338,411.2292],[-53.7291,-26.6277,391.1989],[-53.7277,-26.6233,432.4155],[-53.733,-26.6112,355.6169],[-53.7272,-26.606,369.4672],[-53.7261,-26.6021,369.58],[-53.7254,-26.5993,425.8505],[-53.7274,-26.5905,396.5993],[-53.7207,-26.5892,407.4128],[-53.7177,-26.569,417.3989],[-53.7082,-26.565,515.144],[-53.7061,-26.5597,374.5295],[-53.7076,-26.5566,424.8441],[-53.7117,-26.5573,395.0044],[-53.7259,-26.5657,468.9135],[-53.7298,-26.5659,394.9159],[-53.7314,-26.5635,414.4843],[-53.7257,-26.5613,395.6995],[-53.7239,-26.555,481.938],[-53.7261,-26.5513,396.7362],[-53.7357,-26.5483,409.8374],[-53.7372,-26.5455,416.0501],[-53.7205,-26.5435,464.4947],[-53.7171,-26.5396,407.4924],[-53.7164,-26.5367,411.8886],[-53.7221,-26.5206,445.7233],[-53.7239,-26.5097,481.4455],[-53.7234,-26.5018,413.101],[-53.7209,-26.5019,427.1229],[-53.7153,-26.5057,433.9411],[-53.712,-26.503,426.9477],[-53.7067,-26.5074,423.6945],[-53.7036,-26.5072,444.4638],[-53.7016,-26.5016,476.0019],[-53.7034,-26.496,459.2802],[-53.6946,-26.4886,441.7196],[-53.6952,-26.4869,456.2165],[-53.6938,-26.4857,482.4585],[-53.6987,-26.473,437.0784],[-53.7009,-26.4725,479.4982],[-53.7046,-26.4766,443.279],[-53.7069,-26.4761,456.8884],[-53.708,-26.4707,527.1454],[-53.7113,-26.4663,446.334],[-53.7097,-26.4634,485.3953],[-53.7056,-26.463,446.6993],[-53.699,-26.4654,461.2312],[-53.6985,-26.4629,465.7954],[-53.7308,-26.4609,493.1104],[-53.7776,-26.3807,640.0024],[-53.7691,-26.3731,668.0454],[-53.7673,-26.3546,756.0554],[-53.7654,-26.3495,643.1571],[-53.7556,-26.3396,701.3768],[-53.7517,-26.3295,701.5198],[-53.7522,-26.3257,670.8561],[-54.1793,-26.3304,516.9055],[-54.178,-26.4485,505.8549],[-54.2687,-26.4483,455.5274],[-54.2685,-26.4838,237.8378]]]]}}