{"type":"Feature","properties":{"GID_2":"ARG.18.8_1","GID_0":"ARG","country":"Argentina","GID_1":"ARG.18_1","state":"SanJuan","NL_NAME_1":"NA","county":"Jáchal","VARNAME_2":"SanJosedeJachal","NL_NAME_2":"NA","TYPE_2":"Departamento","ENGTYPE_2":"Department","CC_2":"NA","HASC_2":"AR.SJ.JA","name":"Jáchal.county"},
"geometry":{"type": "MultiPolygon","coordinates": [[[[-69.0039,-29.6139,4021.3853],[-69.0162,-29.6381,4697.7363],[-69.0207,-29.6629,4566.7837],[-69.0249,-29.675,4469.9243],[-69.0249,-29.7348,4043.4944],[-69.031,-29.7659,3995.6482],[-69.0369,-29.816,3441.0908],[-69.0433,-29.8307,3038.9617],[-69.0455,-29.8431,3038.5991],[-69.0413,-29.8933,3010.1846],[-69.0407,-29.9184,2851.604],[-69.0346,-29.959,2537.9604],[-69.0339,-29.9748,2439.3232],[-69.0381,-29.9932,2224.8867],[-69.045,-30.0078,2260.8479],[-69.0517,-30.0151,2217.9165],[-69.053,-30.0213,2145.3247],[-69.0521,-30.0402,2117.7666],[-69.04,-30.0699,2074.6626],[-69.0383,-30.0792,2046.7074],[-69.039,-30.1233,1777.0197],[-69.0516,-30.1853,1748.8438],[-69.0545,-30.2198,1820.3484],[-69.0515,-30.2732,2204.7104],[-69.0473,-30.2853,2236.4043],[-69.0381,-30.2988,2349.9985],[-69.0329,-30.3171,2356.7681],[-69.0338,-30.3234,2463.3345],[-69.0378,-30.3322,2497.2932],[-69.0473,-30.3417,2516.4268],[-69.0514,-30.3503,2412.7979],[-69.0503,-30.3566,2561.3105],[-69.0383,-30.3682,2473.8296],[-69.0353,-30.3771,2468.8193],[-69.039,-30.3925,2619.3855],[-69.0462,-30.4034,2587.8667],[-69.0473,-30.4127,2676.2144],[-69.0248,-30.4485,2695.4082],[-69.0161,-30.4791,3095.832],[-69.0133,-30.4979,3254.2832],[-68.9952,-30.5393,3121.7922],[-68.9473,-30.5458,2392.2009],[-68.9148,-30.548,2283.6895],[-68.8806,-30.5585,1823.5164],[-68.8717,-30.564,1789.9125],[-68.8703,-30.5702,1841.1389],[-68.8757,-30.5981,2147.6636],[-68.8761,-30.6139,2139.6638],[-68.8432,-30.6514,1990.1388],[-68.8225,-30.6845,2145.9858],[-68.821,-30.6939,2048.8801],[-68.8213,-30.7253,1950.8547],[-68.8186,-30.7473,1959.1897],[-68.8135,-30.7656,2380.9131],[-68.8012,-30.7812,2185.8357],[-68.7986,-30.7871,1992.2739],[-68.7977,-30.7965,2515.6077],[-68.8008,-30.8056,2422.5635],[-68.7995,-30.8117,2693.1333],[-68.7932,-30.8231,2030.2034],[-68.7811,-30.8349,1738.0962],[-68.7593,-30.8642,2258.7412],[-68.7551,-30.8727,2091.874],[-68.7516,-30.901,1800.7152],[-68.7537,-30.926,1984.3125],[-68.7534,-30.9418,2219.1975],[-68.7454,-30.9821,1293.0507],[-68.7426,-31.0166,1273.1418],[-68.5061,-31.0162,840.0657],[-68.5038,-31.0146,840.4708],[-68.506,-31.0147,840.0657],[-68.5032,-31.0089,841.27],[-68.4985,-30.9904,841.8802],[-68.4949,-30.985,848.3857],[-68.4508,-30.957,846.1951],[-68.4441,-30.9545,837.3732],[-68.4391,-30.9498,839.8915],[-68.4355,-30.941,856.3424],[-68.4339,-30.9223,831.8063],[-67.5006,-30.9174,1932.566],[-67.5068,-30.9085,1791.4857],[-67.5222,-30.8951,1742.4667],[-67.5331,-30.8787,1679.9996],[-67.5572,-30.8509,1720.9956],[-67.5621,-30.8464,1692.1904],[-67.5753,-30.8414,1655.3649],[-67.6013,-30.8082,1495.5068],[-67.6131,-30.7962,1603.7256],[-67.6266,-30.7775,1873.7325],[-67.6369,-30.7686,1597.3824],[-67.6656,-30.7492,1734.3245],[-67.6878,-30.7204,1852.0834],[-67.7101,-30.6956,1797.1533],[-67.7372,-30.6475,1905.9016],[-67.7436,-30.6262,1614.9836],[-67.745,-30.5884,1576.8082],[-67.7489,-30.5731,1687.6512],[-67.7502,-30.5133,1769.7476],[-67.7515,-30.5072,1983.8884],[-67.7563,-30.4987,2153.4282],[-67.7737,-30.4786,2119.0129],[-67.791,-30.4474,2180.3384],[-67.8007,-30.4203,2241.2495],[-67.7993,-30.3796,2098.8523],[-67.8036,-30.3579,2104.6077],[-67.8121,-30.352,2096.854],[-67.8284,-30.3453,1925.8478],[-67.8497,-30.3281,1888.0098],[-67.8651,-30.3068,1924.9971],[-67.8796,-30.2814,1794.9188],[-67.9151,-30.2378,1540.6635],[-67.9207,-30.2262,1490.6158],[-67.9373,-30.2056,1435.2461],[-67.946,-30.2,1471.0271],[-67.9529,-30.198,1489.4055],[-67.9921,-30.1917,1604.9021],[-67.9982,-30.1885,1645.9475],[-68.0057,-30.1816,1676.9071],[-68.0167,-30.1619,1308.6735],[-68.026,-30.1058,1577.0337],[-68.0321,-30.0877,1474.7455],[-68.0474,-30.0628,1623.6224],[-68.0675,-30.019,1592.1038],[-68.0746,-30.012,1597.9871],[-68.0865,-29.9925,1766.4641],[-68.1046,-29.9771,1297.1307],[-68.111,-29.9659,1436.903],[-68.1297,-29.9467,1207.051],[-68.1502,-29.9175,962.1703],[-68.1592,-29.9279,936.6464],[-68.1725,-29.957,893.0215],[-68.2026,-29.9884,843.5471],[-68.2128,-30.005,825.3405],[-68.2198,-30.013,816.5139],[-68.2251,-30.0166,817.1322],[-68.2361,-30.0042,822.4937],[-68.2507,-29.9621,835.6176],[-68.2771,-29.907,851.2207],[-68.2909,-29.8647,862.2422],[-68.3118,-29.8352,876.3884],[-68.3335,-29.8101,890.119],[-68.3383,-29.8054,892.9451],[-68.3531,-29.7959,894.0366],[-68.3492,-29.792,896.9345],[-68.3266,-29.7805,905.2696],[-68.2905,-29.7544,1339.4023],[-68.2724,-29.7441,1323.2699],[-68.2691,-29.7402,1287.4127],[-68.2839,-29.723,1059.1633],[-68.2892,-29.7206,1032.3774],[-68.3013,-29.7186,953.6033],[-68.3135,-29.7185,948.8752],[-68.3188,-29.716,951.162],[-68.3227,-29.7119,970.312],[-68.3278,-29.7022,1042.8488],[-68.3326,-29.6868,1385.614],[-68.334,-29.6762,1257.8628],[-68.3692,-29.6652,1038.5603],[-68.4049,-29.6605,1001.0541],[-68.4389,-29.6536,939.8587],[-68.4667,-29.6429,962.2399],[-68.491,-29.6413,981.0293],[-68.5085,-29.6368,1001.8426],[-68.5326,-29.6385,1053.9364],[-68.5689,-29.6334,1160.8678],[-68.5749,-29.6336,1180.2483],[-68.5861,-29.6378,1222.7854],[-68.6022,-29.641,1279.0414],[-68.6142,-29.6403,1344.8154],[-68.6311,-29.6289,1517.2239],[-68.6729,-29.6068,1498.3131],[-68.6838,-29.6024,1522.1941],[-68.6929,-29.6011,1543.7932],[-68.705,-29.6015,1622.1335],[-68.7433,-29.6188,2252.7075],[-68.7489,-29.6197,2146.7173],[-68.769,-29.6132,2427.3787],[-68.7933,-29.6152,2864.771],[-68.8176,-29.6144,2650.5154],[-68.8297,-29.6164,2973.5005],[-68.8413,-29.614,2870.3496],[-68.8647,-29.6015,3103.3677],[-68.8753,-29.5939,3404.5073],[-68.8798,-29.5934,3639.0483],[-68.8887,-29.6078,3873.2798],[-68.8924,-29.6121,3642.2878],[-68.8974,-29.6144,3534.0703],[-68.9132,-29.6158,3212.6289],[-68.9307,-29.6109,3323.3752],[-68.9336,-29.6222,3911.5344],[-68.9399,-29.6316,3648.3352],[-68.9448,-29.6343,3511.8701],[-68.9509,-29.635,3562.0334],[-68.9571,-29.6347,3546.4736],[-68.9739,-29.6283,3561.2419],[-68.9859,-29.6263,3768.3496],[-68.9965,-29.6209,3844.4697],[-69.0039,-29.6139,4021.3853]]]]}}