{"type":"Feature","properties":{"GID_2":"ARG.4.5_1","GID_0":"ARG","country":"Argentina","GID_1":"ARG.4_1","state":"Chubut","NL_NAME_1":"NA","county":"Futaleufú","VARNAME_2":"Esquel","NL_NAME_2":"NA","TYPE_2":"Departamento","ENGTYPE_2":"Department","CC_2":"NA","HASC_2":"AR.CH.FU","name":"Futaleufú.county"},
"geometry":{"type": "MultiPolygon","coordinates": [[[[-72.0211,-42.4787,2124.2288],[-72.0113,-42.4867,2252.1504],[-72.0106,-42.49,2065.4302],[-72.012,-42.4914,2045.0342],[-72.0126,-42.4981,1945.4938],[-72.0159,-42.5001,2086.0735],[-72.0228,-42.5,1720.7981],[-72.0276,-42.5036,1484.2086],[-72.0286,-42.5152,1647.4523],[-72.0254,-42.5215,1726.8208],[-72.0261,-42.523,1580.5701],[-72.0325,-42.5246,1585.4967],[-72.0434,-42.5394,1914.8467],[-72.0539,-42.5457,1455.6948],[-72.0536,-42.5558,1484.6182],[-72.055,-42.5591,1496.2343],[-72.0524,-42.5655,1475.1497],[-72.0531,-42.567,1404.7345],[-72.0569,-42.5712,1416.776],[-72.0634,-42.5729,1290.2827],[-72.0657,-42.5728,1272.4581],[-72.0736,-42.5666,1192.0492],[-72.0778,-42.5676,1189.7041],[-72.0844,-42.5765,1602.1261],[-72.0933,-42.5843,1865.7404],[-72.096,-42.5924,1678.2357],[-72.1013,-42.5954,1454.3416],[-72.1038,-42.6004,1319.3744],[-72.1168,-42.6026,1797.6791],[-72.1136,-42.6156,1794.3988],[-72.1184,-42.6289,1828.542],[-72.1142,-42.6313,1647.4806],[-72.1065,-42.6294,1496.3629],[-72.103,-42.6303,1375.9008],[-72.097,-42.642,1313.0693],[-72.1018,-42.6463,1198.269],[-72.1081,-42.6484,1193.8146],[-72.1097,-42.6531,1252.8226],[-72.1139,-42.658,1541.1992],[-72.117,-42.6582,1522.7983],[-72.1215,-42.6663,1254.0796],[-72.1222,-42.6718,1216.083],[-72.1305,-42.6725,1362.4834],[-72.1342,-42.6757,1619.9767],[-72.1361,-42.6803,1756.9839],[-72.1498,-42.6811,1416.1472],[-72.1534,-42.6781,1333.8811],[-72.1609,-42.6781,1334.4265],[-72.1714,-42.6712,1776.9175],[-72.1745,-42.6795,1397.9304],[-72.1738,-42.6837,1079.7344],[-72.1777,-42.6889,1412.5959],[-72.1763,-42.6936,1746.9968],[-72.1787,-42.6956,1781.8842],[-72.1736,-42.7016,1291.7615],[-72.1705,-42.7017,1264.806],[-72.1682,-42.704,1301.2073],[-72.1532,-42.7059,1334.1885],[-72.1493,-42.7089,1137.9912],[-72.1377,-42.7117,1065.0912],[-72.1402,-42.7182,1277.1249],[-72.139,-42.7233,1403.8986],[-72.1352,-42.7281,1528.0583],[-72.1287,-42.7314,1686.7601],[-72.1461,-42.7414,1582.0193],[-72.1451,-42.7467,1622.7289],[-72.135,-42.754,1210.5857],[-72.1344,-42.7651,1464.5643],[-72.1326,-42.7691,1431.3143],[-72.1334,-42.7725,1250.6168],[-72.131,-42.7768,1454.3737],[-72.1392,-42.782,1258.0078],[-72.1385,-42.7884,1184.8337],[-72.1411,-42.7938,1212.1503],[-72.1484,-42.7982,1491.4648],[-72.16,-42.7971,1404.9298],[-72.1651,-42.7987,1537.0239],[-72.1623,-42.8033,1489.2783],[-72.1621,-42.807,1468.5786],[-72.1562,-42.8143,1104.717],[-72.1559,-42.8179,1081.985],[-72.1599,-42.8233,1458.4526],[-72.158,-42.8275,1437.6776],[-72.1513,-42.8303,1283.598],[-72.1471,-42.8505,1546.0249],[-72.1351,-42.8517,1407.5557],[-72.1334,-42.855,1444.1073],[-72.1347,-42.8671,1419.5731],[-72.1194,-42.8757,1259.8738],[-72.12,-42.8822,1382.7729],[-72.1311,-42.8839,1385.2178],[-72.1357,-42.8865,1536.2799],[-72.1365,-42.8912,1722.9827],[-72.1415,-42.8935,1591.6888],[-72.1383,-42.8934,1732.4583],[-72.1422,-42.8973,1784.774],[-72.1421,-42.901,1813.921],[-72.1336,-42.9069,1646.613],[-72.1296,-42.9134,1671.1018],[-72.1144,-42.9228,1408.2073],[-72.1169,-42.9282,1202.6497],[-72.1169,-42.9367,1412.1738],[-72.107,-42.9377,1534.8033],[-72.1037,-42.9424,1447.1494],[-72.0998,-42.9415,1341.1827],[-72.0973,-42.9427,1342.3059],[-72.0944,-42.9457,1310.1782],[-72.0944,-42.9493,1293.9951],[-72.0889,-42.9529,1499.5404],[-72.0862,-42.9525,1517.7471],[-72.0839,-42.9479,1338.6072],[-72.0728,-42.9502,1517.4875],[-72.0719,-42.9555,1521.8066],[-72.0661,-42.9595,1823.835],[-72.0638,-42.9652,1813.8607],[-72.0603,-42.9678,1850.8719],[-72.0603,-42.9725,1874.8696],[-72.0558,-42.976,1982.2413],[-72.058,-42.9788,1930.4071],[-72.0572,-42.983,1905.6075],[-72.0505,-42.9849,1859.29],[-72.0455,-42.9888,1787.4288],[-72.039,-42.9912,1638.0833],[-72.0381,-43.0,1471.978],[-72.0412,-43.0027,1560.0905],[-72.0378,-43.0101,1603.1539],[-72.0326,-43.011,1464.3273],[-72.03,-43.0138,1352.8126],[-72.0208,-43.018,1479.8099],[-72.013,-43.0306,1681.2499],[-72.0075,-43.0324,1506.918],[-72.0033,-43.0371,1617.8566],[-71.9997,-43.0387,1664.8246],[-71.9908,-43.0351,1518.6157],[-71.9804,-43.0367,1487.4568],[-71.9802,-43.0419,1584.9296],[-71.9775,-43.0456,1874.095],[-71.9732,-43.046,1832.6387],[-71.9692,-43.0417,1801.9349],[-71.9635,-43.039,1687.7073],[-71.9563,-43.041,1655.1415],[-71.9436,-43.0471,1893.0688],[-71.9408,-43.0525,1518.5331],[-71.9353,-43.054,1476.2018],[-71.9344,-43.0636,1318.1221],[-71.9376,-43.0709,1197.8843],[-71.9341,-43.0747,1477.6692],[-71.9354,-43.0781,1648.8821],[-71.9342,-43.0802,1669.8436],[-71.943,-43.0925,1760.8596],[-71.9335,-43.098,1734.7959],[-71.933,-43.102,1789.3589],[-71.924,-43.1005,1687.2645],[-71.8926,-43.107,1695.5676],[-71.891,-43.1161,1488.6509],[-71.8891,-43.1182,1428.1693],[-71.8888,-43.1252,1120.8564],[-71.8873,-43.1264,1021.1833],[-71.8706,-43.1291,976.1597],[-71.8571,-43.1292,1655.5424],[-71.8538,-43.1274,1679.9819],[-71.8538,-43.1342,1642.765],[-71.8609,-43.14,1896.3435],[-71.8585,-43.1423,1818.3254],[-71.8466,-43.1416,1938.8955],[-71.8419,-43.1436,1967.4336],[-71.836,-43.1433,1809.0685],[-71.8333,-43.1467,1765.9915],[-71.8298,-43.1468,1833.2405],[-71.824,-43.1507,1847.4097],[-71.8161,-43.145,1713.3608],[-71.8116,-43.1473,1699.073],[-71.8061,-43.1536,1838.2946],[-71.7921,-43.1574,1365.6421],[-71.7885,-43.1605,1091.3522],[-71.7849,-43.169,962.66],[-71.777,-43.1649,752.8522],[-71.7712,-43.1682,651.4309],[-71.7635,-43.1639,559.3355],[-71.7604,-43.1648,371.1293],[-71.7545,-43.1766,332.9559],[-71.7449,-43.1783,567.1888],[-71.7393,-43.1826,721.088],[-71.7294,-43.2,1745.4846],[-71.7299,-43.2022,1835.694],[-71.7325,-43.2038,1924.8296],[-71.7349,-43.2128,1812.1163],[-71.7402,-43.2206,1853.8351],[-71.745,-43.2238,1763.8083],[-71.7552,-43.2259,1916.9657],[-71.7571,-43.2282,1994.1145],[-71.7567,-43.2337,1880.4292],[-71.7548,-43.2358,1928.6099],[-71.7551,-43.2402,1803.1323],[-71.7512,-43.2424,1935.1505],[-71.7472,-43.2502,1973.517],[-71.748,-43.2569,1954.0854],[-71.7466,-43.2633,2020.7954],[-71.7478,-43.2651,2065.4045],[-71.7399,-43.2695,1875.8],[-71.7313,-43.2812,1733.3684],[-71.7312,-43.2831,1853.4885],[-71.7365,-43.2882,1662.4922],[-71.7331,-43.2973,1620.6635],[-71.7335,-43.3051,1548.335],[-71.7319,-43.3087,1765.3435],[-71.7343,-43.3126,1734.8411],[-71.7454,-43.3194,1523.1127],[-71.7536,-43.3183,1140.998],[-71.7617,-43.3136,1235.4362],[-71.7612,-43.3069,1352.0381],[-71.7661,-43.3009,1611.6921],[-71.7693,-43.2999,1577.657],[-71.7733,-43.301,1646.173],[-71.7756,-43.2983,1633.9459],[-71.7871,-43.2966,1598.9283],[-71.7988,-43.3015,1703.8706],[-71.8028,-43.3053,1891.5913],[-71.8014,-43.3118,1937.1913],[-71.8087,-43.3146,1611.6173],[-71.8103,-43.3196,1430.0928],[-71.8238,-43.3241,1080.8741],[-71.8393,-43.3342,1810.0579],[-71.85,-43.335,1799.9628],[-71.8529,-43.332,1634.0485],[-71.865,-43.3325,1197.7643],[-71.8721,-43.3277,1452.3181],[-71.878,-43.3281,1669.8457],[-71.8909,-43.3244,1581.9618],[-71.8959,-43.3196,1790.0051],[-71.9033,-43.3211,1865.9106],[-71.9061,-43.3226,1897.3438],[-71.9061,-43.3255,1968.7079],[-71.8958,-43.3386,1243.9299],[-71.9024,-43.3417,1294.6486],[-71.9028,-43.3438,1357.4127],[-71.8943,-43.3497,1659.6282],[-71.8938,-43.3528,1732.572],[-71.8901,-43.3571,1915.1615],[-71.8904,-43.3601,1844.4351],[-71.8958,-43.3649,1499.2856],[-71.8975,-43.3685,1373.6479],[-71.8909,-43.3815,1281.5322],[-71.8982,-43.3801,1218.2312],[-71.9038,-43.3808,1129.4736],[-71.908,-43.3857,1059.0483],[-71.9108,-43.3867,1076.9559],[-71.9215,-43.3842,1322.2291],[-71.9331,-43.3863,1460.1764],[-71.9302,-43.3893,1377.9808],[-71.931,-43.3957,1640.7552],[-71.9294,-43.3998,1691.0028],[-71.9234,-43.4077,1699.0984],[-71.9137,-43.4137,1946.8013],[-71.9133,-43.4167,1908.7133],[-71.918,-43.4195,1851.3309],[-71.9163,-43.4243,1674.4114],[-71.9215,-43.4269,1771.4609],[-71.9234,-43.4337,1378.2817],[-71.9286,-43.4381,1715.7386],[-71.9283,-43.4426,1741.6771],[-71.9341,-43.4477,1828.7866],[-71.9304,-43.4535,1795.6145],[-71.9307,-43.4566,1889.4746],[-71.9248,-43.4591,1965.5762],[-71.9229,-43.4562,1788.4429],[-71.9197,-43.4556,1700.0204],[-71.9031,-43.456,1827.0857],[-71.8966,-43.4515,1538.4734],[-71.8907,-43.4501,1544.1436],[-71.8807,-43.4513,1764.7617],[-71.8783,-43.4636,1767.9636],[-71.8713,-43.4627,1720.6594],[-71.8663,-43.4648,1672.332],[-71.8637,-43.4696,1640.0305],[-71.8534,-43.4765,1547.1749],[-71.848,-43.4835,1138.5693],[-71.8514,-43.4882,970.5555],[-71.852,-43.4928,916.9034],[-71.8546,-43.4944,905.9908],[-71.8547,-43.5,904.2166],[-71.8723,-43.5,799.4155],[-71.8798,-43.5053,839.5642],[-71.8896,-43.508,861.8406],[-71.8913,-43.5104,865.8926],[-71.8902,-43.5129,931.3835],[-71.8814,-43.5129,1009.5515],[-71.8797,-43.5166,964.3956],[-71.8698,-43.5191,1093.0745],[-71.8684,-43.5223,1074.7687],[-71.8698,-43.5238,1073.9958],[-71.8764,-43.5248,1090.2263],[-71.8789,-43.5318,1062.5054],[-71.8739,-43.5432,1467.2211],[-71.8771,-43.5483,1683.4097],[-71.8749,-43.5512,1680.6931],[-71.8717,-43.5537,1726.542],[-71.8669,-43.5512,1732.1335],[-71.8531,-43.5508,1550.052],[-71.8456,-43.5481,1476.0724],[-71.8283,-43.5513,1568.1338],[-71.8187,-43.5464,1535.3805],[-71.809,-43.5452,1473.2045],[-71.8052,-43.5422,1366.3391],[-71.7943,-43.54,1354.0369],[-71.7887,-43.5405,1377.0784],[-71.7855,-43.5429,1407.733],[-71.7766,-43.5387,1383.9264],[-71.7708,-43.5513,674.5057],[-71.764,-43.5559,633.1561],[-71.7661,-43.5632,592.2984],[-71.7614,-43.5655,490.8117],[-71.7602,-43.5694,486.6415],[-71.7649,-43.575,394.2326],[-71.7648,-43.5769,373.2545],[-71.7629,-43.5812,511.3143],[-71.7594,-43.5841,658.3612],[-71.7555,-43.5836,486.1353],[-71.7543,-43.5766,337.1772],[-71.749,-43.5685,298.4453],[-71.7427,-43.5637,292.7388],[-71.7305,-43.5493,348.5991],[-71.7135,-43.5415,518.8539],[-71.7044,-43.5425,511.6803],[-71.6913,-43.548,406.6171],[-71.689,-43.5474,423.9915],[-71.6766,-43.538,439.2186],[-71.6734,-43.533,350.4055],[-71.6734,-43.5255,354.0624],[-71.6679,-43.5219,439.3914],[-71.6579,-43.5207,436.853],[-71.6329,-43.5241,438.756],[-71.619,-43.5202,430.877],[-71.6001,-43.5249,361.6986],[-71.5832,-43.5207,427.0239],[-71.5704,-43.5201,336.7439],[-71.5496,-43.5303,349.8837],[-71.5395,-43.53,406.629],[-71.5223,-43.5264,478.033],[-71.5176,-43.5269,397.6918],[-71.4965,-43.5375,426.019],[-71.4844,-43.5401,417.6948],[-71.4735,-43.5478,409.9842],[-71.4685,-43.5543,387.4715],[-71.4586,-43.5601,391.1147],[-71.4528,-43.5682,396.0998],[-71.4481,-43.5694,397.1409],[-71.4378,-43.5697,403.0651],[-71.363,-43.5586,1505.8961],[-71.3339,-43.5521,1484.9971],[-71.3163,-43.5529,1422.1868],[-71.3071,-43.5561,1246.9504],[-71.2965,-43.5641,1131.5554],[-71.2855,-43.5686,1046.6746],[-71.2614,-43.5745,931.6385],[-71.2385,-43.5764,914.539],[-71.2249,-43.5845,883.765],[-71.2134,-43.5885,824.0894],[-71.1832,-43.59,775.8296],[-71.1625,-43.6063,764.1877],[-71.1505,-43.6182,756.6574],[-71.1415,-43.6216,792.6326],[-71.1325,-43.628,803.6385],[-71.1081,-43.6337,788.1085],[-71.0416,-43.6153,724.7612],[-71.0193,-43.6064,789.6226],[-71.0122,-43.6012,787.5626],[-70.9911,-43.5781,714.6654],[-70.9808,-43.5699,704.1828],[-70.9627,-43.5597,712.3527],[-70.9366,-43.5525,778.9052],[-70.9169,-43.5439,694.3575],[-70.9114,-43.5401,682.7772],[-70.8965,-43.5251,676.8466],[-70.8861,-43.5103,670.1552],[-70.8735,-43.4841,669.1202],[-70.8634,-43.4713,659.7335],[-70.8486,-43.4586,658.5993],[-70.845,-43.4514,688.6405],[-70.8451,-43.448,744.3669],[-70.8508,-43.4417,712.8264],[-70.8544,-43.4328,673.0233],[-70.8619,-43.4212,651.9484],[-70.862,-43.4138,651.045],[-70.8584,-43.4069,649.7261],[-70.8644,-43.3928,651.1924],[-70.8654,-43.3743,653.424],[-70.8627,-43.3615,640.4598],[-70.8662,-43.3394,699.8142],[-70.8699,-43.3326,681.5629],[-70.8799,-43.3263,631.8809],[-70.8856,-43.3139,628.9147],[-70.886,-43.3085,627.5408],[-70.8769,-43.2912,625.5338],[-70.8576,-43.2695,653.2479],[-70.8539,-43.2568,636.9173],[-70.8498,-43.25,629.4988],[-70.8294,-43.2312,662.1277],[-70.8254,-43.2244,796.2985],[-70.8238,-43.206,638.466],[-70.8272,-43.1952,610.7947],[-70.8279,-43.173,642.5134],[-70.8236,-43.1567,653.0726],[-70.8217,-43.1364,598.7588],[-70.8143,-43.1227,595.8159],[-70.7992,-43.1102,592.3774],[-70.7942,-43.1036,591.1063],[-70.7924,-43.0983,589.9431],[-70.7943,-43.0873,588.2438],[-70.7938,-43.0762,592.4237],[-70.7867,-43.0566,614.3268],[-70.7855,-43.0492,588.5186],[-70.7921,-43.0258,581.3327],[-70.7854,-43.0201,582.7249],[-70.7748,-43.0151,754.6676],[-70.7437,-43.0082,661.9081],[-70.7342,-43.0023,654.6913],[-70.7176,-42.9979,644.8989],[-70.7083,-42.9892,639.6063],[-70.6982,-42.9703,571.0016],[-70.6633,-42.9673,548.2715],[-70.6281,-42.9671,542.9915],[-70.603,-42.9549,537.873],[-70.589,-42.9507,535.3553],[-70.5806,-42.9465,534.1638],[-70.5769,-42.9418,535.5438],[-70.5741,-42.9326,545.7866],[-70.5658,-42.9259,585.2983],[-70.5641,-42.9222,584.5122],[-70.5809,-42.9062,568.3593],[-70.5793,-42.899,567.0745],[-70.5744,-42.8904,558.4858],[-70.5734,-42.8811,552.105],[-70.5746,-42.8777,546.4101],[-70.5847,-42.8665,517.8115],[-70.7583,-42.8611,929.5498],[-70.8849,-42.8641,899.4621],[-70.9364,-42.8636,960.0748],[-71.0466,-42.9468,1004.2512],[-71.1671,-42.8619,938.3439],[-71.2916,-42.8582,815.1453],[-71.328,-42.8312,1118.1882],[-71.3228,-42.8233,1370.5107],[-71.3562,-42.794,992.053],[-71.3484,-42.7829,1112.4949],[-71.3741,-42.7589,968.8898],[-71.3891,-42.7585,869.4119],[-71.3933,-42.744,917.4234],[-71.3974,-42.7383,914.6371],[-71.4038,-42.7322,932.3351],[-71.438,-42.7085,953.6122],[-71.4426,-42.6878,967.7012],[-71.4875,-42.661,1158.4266],[-71.4802,-42.6132,1078.6675],[-71.5986,-42.6052,1439.6803],[-71.6272,-42.4853,1552.6908],[-72.0211,-42.4787,2124.2288]]]]}}