{"type": "Feature","bbox": [-60.7985,-26.6362,-60.1174,-26.1243],"geometry": {"type": "MultiPolygon","coordinates": [[[[-60.7985,-26.4287,111.3397],[-60.2187,-26.6362,92.4407],[-60.2157,-26.3072,94.6127],[-60.1174,-26.3073,93.31],[-60.1178,-26.1256,97.1594],[-60.7941,-26.1243,115.5248],[-60.7985,-26.4287,111.3397]]]]}
,"properties": {"GID_2": "ARG.3.13_1","GID_0": "ARG","country": "Argentina","GID_1": "ARG.3_1","state": "Chaco","NL_NAME_1": "NA","county": "Maipú","VARNAME_2": "TresIsletas","NL_NAME_2": "NA","TYPE_2": "Departamento","ENGTYPE_2": "Department","CC_2": "NA","HASC_2": "AR.CC.MA","name": "Maipú.county","area_km2": 2819.106,"hist_schema_id": "Elevation0-9000","hist_area_km2": {"75": 1.156,"100": 2687.417,"125": 130.533}}}