{"type":"Feature","properties":{"GID_2":"ARG.8.4_1","GID_0":"ARG","country":"Argentina","GID_1":"ARG.8_1","state":"EntreRíos","NL_NAME_1":"NA","county":"Federación","VARNAME_2":"NA","NL_NAME_2":"NA","TYPE_2":"Departamento","ENGTYPE_2":"Department","CC_2":"NA","HASC_2":"AR.ER.FC","name":"Federación.county"},
"geometry":{"type": "MultiPolygon","coordinates": [[[[-58.2602,-30.255,71.5536],[-58.2621,-30.2639,74.839],[-58.2659,-30.2709,75.3299],[-58.2851,-30.2869,77.2335],[-58.2944,-30.308,76.6291],[-58.2987,-30.3094,75.8698],[-58.3076,-30.3088,75.6397],[-58.3239,-30.3021,75.8893],[-58.3279,-30.3028,73.8871],[-58.3306,-30.3058,70.2419],[-58.3352,-30.306,70.6205],[-58.3521,-30.3014,75.2755],[-58.3562,-30.3022,75.7161],[-58.3593,-30.305,72.688],[-58.3729,-30.3065,74.4673],[-58.3739,-30.3096,75.443],[-58.3726,-30.3137,75.5813],[-58.3279,-30.3319,76.1122],[-58.3248,-30.3344,73.8532],[-58.3231,-30.3385,77.3468],[-58.3241,-30.3417,77.3492],[-58.3326,-30.345,76.239],[-58.3388,-30.3506,76.7996],[-58.3539,-30.3588,77.0306],[-58.3727,-30.3807,76.7949],[-58.3892,-30.4082,76.7223],[-58.4022,-30.4187,76.4655],[-58.4064,-30.4374,75.4957],[-58.4141,-30.4555,76.3576],[-58.429,-30.4794,76.4961],[-58.4296,-30.4871,76.2438],[-58.4369,-30.4969,71.3745],[-58.4443,-30.5109,74.5537],[-58.4454,-30.5186,76.0355],[-58.4418,-30.5257,76.1021],[-58.4409,-30.5333,76.1074],[-58.4456,-30.5442,73.0865],[-58.4546,-30.5577,75.954],[-58.4692,-30.5723,76.1333],[-58.4842,-30.5807,75.9608],[-58.5005,-30.5871,75.8445],[-58.5264,-30.5934,75.0893],[-58.5544,-30.6057,71.0882],[-58.5649,-30.6182,74.3568],[-58.5718,-30.6335,74.6984],[-58.5626,-30.6414,74.7839],[-58.5494,-30.6572,72.3808],[-58.5463,-30.6644,70.5411],[-58.5438,-30.6798,72.3381],[-58.5367,-30.6896,71.9272],[-58.5191,-30.7016,67.9913],[-58.5061,-30.7042,70.8221],[-58.4961,-30.7118,66.7717],[-58.4861,-30.7292,67.1724],[-58.4839,-30.7404,63.8444],[-58.4657,-30.7669,65.0808],[-58.4531,-30.7917,63.782],[-58.4413,-30.8034,68.8668],[-58.4223,-30.8136,62.0138],[-58.4102,-30.8181,61.7788],[-58.3978,-30.8346,58.9352],[-58.3845,-30.8261,60.3286],[-58.3756,-30.825,59.3193],[-58.3405,-30.8313,66.8309],[-58.3249,-30.8384,64.0941],[-58.3113,-30.8383,64.7012],[-58.2982,-30.8409,67.5384],[-58.2813,-30.8461,67.3889],[-58.2751,-30.8518,64.6482],[-58.2733,-30.8552,64.0664],[-58.2715,-30.8746,70.5841],[-58.266,-30.8893,69.9803],[-58.2497,-30.9024,60.6326],[-58.2276,-30.9316,63.1133],[-58.2209,-30.958,58.8358],[-58.222,-30.989,68.3537],[-58.2195,-31.02,67.8809],[-58.2141,-31.0306,66.2897],[-58.2034,-31.0375,55.9026],[-58.1668,-31.0524,61.0981],[-58.1062,-31.0672,60.0976],[-58.0695,-31.0821,79.6004],[-58.0504,-31.0924,41.7903],[-58.0371,-31.1027,48.7411],[-58.0143,-31.1153,48.8097],[-57.9694,-31.1477,35.4188],[-57.9616,-31.1573,46.7354],[-57.9339,-31.2017,43.4077],[-57.9278,-31.2073,34.7476],[-57.9093,-31.2162,33.5],[-57.9071,-31.2045,33.5],[-57.9117,-31.1784,33.5],[-57.9131,-31.1461,33.5],[-57.9083,-31.1185,33.5],[-57.903,-31.1088,33.5],[-57.8881,-31.0977,33.5],[-57.8792,-31.0882,33.5],[-57.8677,-31.0564,33.5],[-57.8647,-31.0312,33.5],[-57.8663,-31.0193,33.5],[-57.8755,-30.9932,33.5],[-57.8813,-30.9843,33.5],[-57.8877,-30.9772,33.5],[-57.8953,-30.9719,33.5],[-57.9031,-30.9623,33.5],[-57.9071,-30.9532,33.5],[-57.9071,-30.9452,33.5],[-57.9011,-30.9321,33.5],[-57.8886,-30.9235,33.5],[-57.8742,-30.9208,33.5],[-57.8227,-30.9255,33.5],[-57.8155,-30.9221,33.5],[-57.8096,-30.9133,33.5],[-57.8067,-30.8969,33.5],[-57.8014,-30.8006,33.5],[-57.8013,-30.7784,33.5],[-57.8079,-30.7554,33.5],[-57.8162,-30.7471,33.5],[-57.8227,-30.719,33.5],[-57.8278,-30.7094,40.0193],[-57.8336,-30.7036,68.4356],[-57.8571,-30.687,37.2765],[-57.8773,-30.6823,33.5],[-57.9053,-30.6585,33.5],[-57.9445,-30.6448,42.0549],[-57.9632,-30.6362,43.9077],[-57.9823,-30.6195,53.6286],[-58.0034,-30.6092,37.1081],[-58.0161,-30.598,37.5067],[-58.0224,-30.5891,37.8807],[-58.0265,-30.5739,38.9844],[-58.0479,-30.5594,39.4741],[-58.0582,-30.5435,40.3319],[-58.0587,-30.5304,40.5229],[-58.0517,-30.5105,53.7931],[-58.0712,-30.4667,42.5022],[-58.0669,-30.4222,47.5153],[-58.0707,-30.4195,44.3432],[-58.0835,-30.4172,45.5908],[-58.1031,-30.4105,48.7891],[-58.1366,-30.3924,57.4679],[-58.1655,-30.3595,59.9886],[-58.1722,-30.3421,63.0456],[-58.1764,-30.3352,63.1682],[-58.1867,-30.3298,57.9815],[-58.1925,-30.3238,58.2204],[-58.196,-30.3166,58.2721],[-58.1975,-30.3036,59.8286],[-58.2016,-30.2964,61.2598],[-58.2083,-30.2915,61.0364],[-58.222,-30.2859,66.1016],[-58.2328,-30.2769,65.9144],[-58.2443,-30.2734,70.5424],[-58.2518,-30.269,68.8647],[-58.2577,-30.2631,70.2572],[-58.2602,-30.255,71.5536]]]]}}