{"type": "Feature","bbox": [-63.1212,-28.8786,-61.7784,-28.3356],"geometry": {"type": "MultiPolygon","coordinates": [[[[-61.7784,-28.3665,81.1977],[-61.8807,-28.3666,81.9458],[-61.8765,-28.3356,81.2563],[-62.6724,-28.342,111.8311],[-63.1212,-28.3396,115.5831],[-63.1124,-28.3457,117.496],[-63.098,-28.3524,114.2688],[-63.084,-28.3668,114.8924],[-63.0835,-28.4004,113.4609],[-63.0807,-28.4148,112.4584],[-63.0776,-28.4184,112.0982],[-63.0571,-28.4255,112.5423],[-63.0531,-28.4288,110.4235],[-63.0431,-28.4325,111.5421],[-63.0305,-28.4418,111.1984],[-63.0149,-28.4457,112.4391],[-63.008,-28.4529,109.8097],[-62.9989,-28.4583,111.3277],[-62.9888,-28.462,110.3794],[-62.9728,-28.4648,109.7378],[-62.963,-28.4689,110.4176],[-62.9563,-28.4821,110.5144],[-62.9396,-28.4945,109.7728],[-62.9207,-28.5037,108.5586],[-62.9197,-28.5132,108.6634],[-62.9176,-28.5176,108.8196],[-62.9093,-28.5238,106.1607],[-62.9049,-28.5322,105.912],[-62.9085,-28.536,106.3617],[-62.9146,-28.5642,105.1272],[-62.9078,-28.5823,106.0568],[-62.8957,-28.5921,105.5201],[-62.8765,-28.6006,104.3845],[-62.8605,-28.6136,104.4471],[-62.8502,-28.616,104.116],[-62.8392,-28.6163,104.2209],[-62.8347,-28.619,103.5119],[-62.8263,-28.6253,102.776],[-62.8218,-28.6338,102.8428],[-62.8077,-28.6412,102.1537],[-62.7955,-28.6507,102.0029],[-62.7804,-28.6563,101.2531],[-62.7641,-28.6584,102.103],[-62.7602,-28.6616,100.8841],[-62.7568,-28.6708,102.2901],[-62.7561,-28.6853,102.0523],[-62.7483,-28.7031,100.1818],[-62.7492,-28.7176,99.3682],[-62.7543,-28.7258,98.7374],[-62.7549,-28.7306,99.6145],[-62.7632,-28.7432,99.8455],[-62.7625,-28.7478,99.6923],[-62.7547,-28.7607,100.0943],[-62.7496,-28.7624,99.039],[-62.7442,-28.762,98.6801],[-62.73,-28.7694,97.01],[-62.7273,-28.7736,97.1543],[-62.7274,-28.7782,97.0922],[-62.7298,-28.7825,96.519],[-62.7161,-28.7891,97.0395],[-62.715,-28.7937,96.4971],[-62.7179,-28.8033,95.6525],[-62.7174,-28.8076,96.0136],[-62.6982,-28.8173,96.8449],[-62.6943,-28.8207,96.4648],[-62.694,-28.8304,97.3566],[-62.6985,-28.839,96.716],[-62.6815,-28.8639,96.0215],[-62.6765,-28.8786,95.8204],[-61.8613,-28.871,80.1494],[-61.7784,-28.3665,81.1977]]]]}
,"properties": {"GID_2": "ARG.22.11_1","GID_0": "ARG","country": "Argentina","GID_1": "ARG.22_1","state": "SantiagodelEstero","NL_NAME_1": "NA","county": "GeneralTaboada","VARNAME_2": "Anatuya","NL_NAME_2": "NA","TYPE_2": "Departamento","ENGTYPE_2": "Department","CC_2": "NA","HASC_2": "AR.SE.GT","name": "GeneralTaboada.county","area_km2": 6068.006,"hist_schema_id": "Elevation0-9000","hist_area_km2": {"75": 1314.119,"100": 4606.169,"125": 147.718}}}