{"type": "Feature","bbox": [-58.5496,-28.825,-57.6073,-27.9423],"geometry": {"type": "MultiPolygon","coordinates": [[[[-57.655,-28.3874,57.7538],[-57.6572,-28.3754,58.7199],[-57.6541,-28.3651,58.7168],[-57.6545,-28.3615,58.9409],[-57.6651,-28.3511,59.7669],[-57.6659,-28.3476,58.6607],[-57.6627,-28.3336,59.243],[-57.6645,-28.3307,59.4567],[-57.6712,-28.3265,59.4793],[-57.6791,-28.3255,59.4916],[-57.6904,-28.3143,61.2249],[-57.645,-28.2747,61.3215],[-57.6073,-28.2358,62.1207],[-57.6714,-28.1413,73.7916],[-57.6466,-28.1225,73.5035],[-57.6952,-28.049,75.9092],[-57.7061,-28.0263,65.814],[-57.7329,-27.9968,65.6274],[-57.7771,-27.9423,65.1258],[-57.7996,-27.9533,65.1494],[-57.8401,-27.9689,65.1721],[-57.8854,-27.9832,65.1119],[-57.92,-27.9923,66.8835],[-57.956,-28.0077,67.216],[-57.9899,-28.0187,62.6794],[-58.014,-28.0315,62.3075],[-58.0302,-28.0471,61.0],[-58.0488,-28.0607,61.7996],[-58.0606,-28.087,62.6411],[-58.0633,-28.0896,61.9627],[-58.0852,-28.0984,61.9584],[-58.1004,-28.1099,61.0],[-58.1196,-28.1152,61.5915],[-58.1411,-28.1247,60.5],[-58.1655,-28.1432,60.5],[-58.2273,-28.1686,62.1987],[-58.2624,-28.1857,59.4468],[-58.2895,-28.1922,59.3131],[-58.3002,-28.1971,58.6581],[-58.3099,-28.2034,58.0177],[-58.3234,-28.2211,59.2363],[-58.3395,-28.2318,57.5],[-58.3633,-28.2507,59.42],[-58.3668,-28.2645,59.0528],[-58.3798,-28.2725,59.1262],[-58.3876,-28.2806,58.6602],[-58.3912,-28.2822,58.4773],[-58.3922,-28.2788,58.6084],[-58.3957,-28.2776,58.5683],[-58.4065,-28.2823,57.1802],[-58.4267,-28.2992,55.7564],[-58.3086,-28.4339,60.6112],[-58.3378,-28.4584,60.5425],[-58.3518,-28.4757,60.5195],[-58.3661,-28.4883,60.5905],[-58.3935,-28.519,60.2681],[-58.4049,-28.529,60.2977],[-58.411,-28.5336,60.2512],[-58.4466,-28.5504,59.8405],[-58.4563,-28.5567,60.0018],[-58.4803,-28.5977,59.3198],[-58.484,-28.6078,62.1272],[-58.4868,-28.6254,60.1951],[-58.486,-28.6574,58.341],[-58.4883,-28.6642,57.9298],[-58.4981,-28.6754,57.5016],[-58.5349,-28.6973,56.997],[-58.547,-28.7068,56.0554],[-58.5489,-28.7098,56.489],[-58.5496,-28.7169,56.5321],[-58.5465,-28.7309,56.4031],[-58.5187,-28.77,55.7463],[-58.5059,-28.7786,59.22],[-58.5019,-28.7787,56.3716],[-58.4869,-28.7734,56.549],[-58.4605,-28.757,56.6862],[-58.4441,-28.7414,56.8802],[-58.4344,-28.7349,56.6998],[-58.4271,-28.7318,56.7289],[-58.419,-28.7312,56.7638],[-58.3084,-28.825,46.8307],[-58.3072,-28.8146,47.8818],[-58.3137,-28.8016,47.5233],[-58.3148,-28.7981,47.2737],[-58.3136,-28.7948,47.6393],[-58.3013,-28.7807,49.9969],[-58.2798,-28.7646,48.5227],[-58.2614,-28.7574,48.7044],[-58.2534,-28.7569,48.8464],[-58.2496,-28.7581,48.5077],[-58.2418,-28.7568,48.7753],[-58.2216,-28.7453,48.889],[-58.1977,-28.7478,49.5658],[-58.1826,-28.7432,49.4637],[-58.1708,-28.7425,49.9716],[-58.1645,-28.7385,49.963],[-58.1525,-28.7404,50.1216],[-58.1488,-28.7393,50.1419],[-58.1349,-28.7264,50.2782],[-58.1234,-28.7079,50.2939],[-58.0963,-28.7006,50.2623],[-58.0825,-28.6932,50.8828],[-58.0815,-28.6791,51.7583],[-58.0729,-28.6717,51.5924],[-58.0691,-28.6704,51.6201],[-58.0617,-28.6701,51.8959],[-58.056399999999996,-28.6756,52.0833],[-58.0456,-28.6803,51.8545],[-58.0417,-28.6803,52.4725],[-58.0279,-28.6729,52.9161],[-58.0159,-28.6727,52.9396],[-58.0128,-28.6744,52.8761],[-58.0127,-28.6781,52.8729],[-58.0104,-28.681,52.7849],[-58.0066,-28.682,52.8299],[-57.9786,-28.6788,53.2409],[-57.9222,-28.68,54.2718],[-57.8942,-28.6764,54.9391],[-57.8825,-28.6739,55.2429],[-57.8374,-28.6584,53.0],[-57.7988,-28.6482,55.2167],[-57.7849,-28.6412,55.391],[-57.7653,-28.6367,55.3174],[-57.7521,-28.6286,55.9755],[-57.7412,-28.6241,56.3927],[-57.655,-28.6063,58.1433],[-57.6239,-28.5966,58.2946],[-57.6594,-28.5409,54.0],[-57.684,-28.4973,55.3254],[-57.6938,-28.476,56.7869],[-57.6741,-28.465,56.6795],[-57.6589,-28.4534,56.6359],[-57.6479,-28.4432,56.6337],[-57.6419,-28.434,56.4684],[-57.6444,-28.4163,56.0519],[-57.655,-28.3874,57.7538]]]]}
,"properties": {"GID_2": "ARG.7.4_1","GID_0": "ARG","country": "Argentina","GID_1": "ARG.7_1","state": "Corrientes","NL_NAME_1": "NA","county": "Concepción","VARNAME_2": "NA","NL_NAME_2": "NA","TYPE_2": "Departamento","ENGTYPE_2": "Department","CC_2": "NA","HASC_2": "AR.CN.CO","name": "Concepción.county","area_km2": 5144.159,"hist_schema_id": "Elevation0-9000","hist_area_km2": {"50": 2717.953,"75": 2412.908,"100": 13.298}}}