{"type": "Feature","bbox": [-61.9959,-29.8449,-60.6516,-27.9939],"geometry": {"type": "MultiPolygon","coordinates": [[[[-61.7172,-27.9939,82.8649],[-61.8559,-28.8394,79.9748],[-61.9231,-29.2308,75.2459],[-61.9959,-29.6689,81.6229],[-61.9285,-29.6753,81.5798],[-61.9427,-29.7472,82.9994],[-61.9071,-29.7805,84.0222],[-61.817,-29.7834,79.9049],[-61.8157,-29.791,79.8491],[-61.7548,-29.7916,77.81],[-61.7519,-29.7804,77.8436],[-61.746,-29.781,77.9118],[-61.4524,-29.8327,66.6282],[-61.3678,-29.8449,64.645],[-61.3593,-29.8441,64.5857],[-61.3177,-29.6396,61.2693],[-61.2902,-29.5168,61.6917],[-61.2847,-29.5151,61.6632],[-61.2718,-29.516,61.3085],[-61.2556,-29.5271,61.4748],[-61.2512,-29.5318,61.3698],[-61.2303,-29.5359,60.6163],[-61.2234,-29.5349,60.6362],[-61.2177,-29.5388,60.5225],[-61.2107,-29.5384,60.6316],[-61.1565,-29.5524,59.5568],[-61.1597,-29.5649,59.5506],[-61.1541,-29.5687,59.5331],[-61.1397,-29.5669,59.7031],[-61.1336,-29.5701,59.1669],[-61.1289,-29.5749,59.0266],[-61.1197,-29.5919,58.7592],[-61.1188,-29.6108,58.686],[-61.1169,-29.617,58.5485],[-61.113,-29.6222,58.4725],[-61.1064,-29.6252,58.3298],[-61.0918,-29.6251,58.141],[-61.0879,-29.6278,58.3843],[-61.0864,-29.6194,58.0168],[-61.0915,-29.6108,58.1938],[-61.0891,-29.5703,58.7864],[-61.0739,-29.522,59.4601],[-61.0574,-29.4331,59.9544],[-61.0319,-29.3254,59.9306],[-60.9942,-29.1289,61.1212],[-60.9654,-28.9647,60.876],[-60.9514,-28.9166,60.7171],[-60.951,-28.8965,60.8091],[-60.9133,-28.6678,60.2126],[-60.8389,-28.2527,61.3811],[-60.7359,-28.2143,61.2573],[-60.742,-28.0889,63.1432],[-60.6516,-28.086,62.4303],[-60.6531,-27.9994,63.852],[-61.4189,-27.9988,68.2202],[-61.5833,-27.9973,71.2012],[-61.6646,-27.9984,73.062],[-61.7172,-27.9939,82.8649]]]]}
,"properties": {"GID_2": "ARG.21.11_1","GID_0": "ARG","country": "Argentina","GID_1": "ARG.21_1","state": "SantaFe","NL_NAME_1": "NA","county": "NuevedeJulio","VARNAME_2": "Tostado|9deJulio","NL_NAME_2": "NA","TYPE_2": "Departamento","ENGTYPE_2": "Department","CC_2": "NA","HASC_2": "AR.SF.NJ","name": "NuevedeJulio.county","area_km2": 17384.69,"hist_schema_id": "Elevation0-9000","hist_area_km2": {"50": 2453.75,"75": 14930.92}}}