{"type": "Feature","bbox": [-68.568,-31.797,-68.3407,-31.4969],"geometry": {"type": "MultiPolygon","coordinates": [[[[-68.3813,-31.5574,582.0156],[-68.3888,-31.5463,583.8577],[-68.3917,-31.5366,591.7873],[-68.4077,-31.5275,595.3459],[-68.4153,-31.5409,591.764],[-68.4292,-31.5406,595.8502],[-68.4335,-31.5442,594.147],[-68.4404,-31.5559,598.5131],[-68.444,-31.5701,598.0337],[-68.4429,-31.593,588.0958],[-68.429,-31.6237,581.7003],[-68.4259,-31.641,580.7791],[-68.415,-31.6735,577.1885],[-68.4142,-31.6873,571.4052],[-68.4092,-31.7116,569.7831],[-68.4027,-31.7211,570.3457],[-68.3954,-31.7374,567.67],[-68.3892,-31.747,566.1929],[-68.388,-31.7533,565.3378],[-68.3832,-31.7605,564.1768],[-68.3829,-31.7788,564.0899],[-68.3802,-31.7905,561.614],[-68.3769,-31.797,560.3291],[-68.3749,-31.7865,562.1519],[-68.3671,-31.7675,563.7988],[-68.369,-31.744,567.9281],[-68.3602,-31.7251,567.0773],[-68.3508,-31.7179,568.4778],[-68.3482,-31.6992,568.5585],[-68.3434,-31.6842,570.6765],[-68.3407,-31.6604,572.694],[-68.3486,-31.6415,573.6871],[-68.3498,-31.6149,576.4849],[-68.354,-31.6026,576.6307],[-68.3559,-31.588,580.6599],[-68.3594,-31.5824,577.8705],[-68.3602,-31.5705,582.3181],[-68.3639,-31.5661,583.667],[-68.3755,-31.5614,584.6823],[-68.3813,-31.5574,582.0156]]],
[[[-68.5053,-31.5426,623.7901],[-68.5011,-31.5287,620.8862],[-68.5041,-31.518,624.5718],[-68.5038,-31.5088,625.6629],[-68.5082,-31.5063,627.3503],[-68.5109,-31.4969,627.4915],[-68.5394,-31.4983,645.5773],[-68.5556,-31.5016,658.1611],[-68.5551,-31.5105,657.0573],[-68.5637,-31.5112,661.9227],[-68.5637,-31.516,661.9854],[-68.568,-31.5162,664.4812],[-68.5647,-31.5361,663.0148],[-68.5499,-31.538,651.7809],[-68.549,-31.5415,650.1572],[-68.5454,-31.5449,647.0429],[-68.5249,-31.5497,631.4966],[-68.5142,-31.5455,626.8031],[-68.5094,-31.5473,622.3993],[-68.5053,-31.5426,623.7901]]]]}
,"properties": {"GID_2": "ARG.18.4_1","GID_0": "ARG","country": "Argentina","GID_1": "ARG.18_1","state": "SanJuan","NL_NAME_1": "NA","county": "Capital","VARNAME_2": "SanJuan|Capital(SanJuan)","NL_NAME_2": "NA","TYPE_2": "Departamento","ENGTYPE_2": "Department","CC_2": "NA","HASC_2": "AR.SJ.SJ","name": "Capital.county","area_km2": 184.7303,"hist_schema_id": "Elevation0-9000","hist_area_km2": {"550": 0.8291,"575": 125.5582,"600": 30.2026,"625": 11.2235,"650": 15.8687,"675": 1.0482}}}