{"type": "Feature","bbox": [-59.3423,-31.4388,-58.3978,-30.5717],"geometry": {"type": "MultiPolygon","coordinates": [[[[-58.3978,-30.8346,58.9352],[-58.4102,-30.8181,61.7788],[-58.4378,-30.8058,68.2089],[-58.4505,-30.7949,68.3208],[-58.4657,-30.7669,65.0808],[-58.4839,-30.7404,63.8444],[-58.4861,-30.7292,67.1724],[-58.4961,-30.7118,66.7717],[-58.5061,-30.7042,70.8221],[-58.5191,-30.7016,67.9913],[-58.5302,-30.6949,67.6232],[-58.5395,-30.6866,72.7876],[-58.5438,-30.6798,72.3381],[-58.5463,-30.6644,70.5411],[-58.5494,-30.6572,72.3808],[-58.5626,-30.6414,74.7839],[-58.5721,-30.6332,74.6984],[-58.5792,-30.623,73.4916],[-58.5848,-30.6413,73.9009],[-58.5886,-30.6482,74.2416],[-58.6114,-30.667,71.6544],[-58.6451,-30.6766,72.5675],[-58.6719,-30.6766,65.4778],[-58.7027,-30.671,69.1418],[-58.7154,-30.6671,68.5004],[-58.7467,-30.6676,65.3194],[-58.7707,-30.657,61.8262],[-58.7796,-30.6481,66.2351],[-58.7874,-30.6451,61.9517],[-58.81,-30.6441,60.855],[-58.8498,-30.639,61.1477],[-58.8569,-30.6344,62.6784],[-58.8652,-30.6252,56.9416],[-58.8772,-30.62,61.7655],[-58.8873,-30.6122,61.9826],[-58.8995,-30.6081,62.799],[-58.9214,-30.5885,56.8564],[-58.9348,-30.5867,50.6723],[-58.9512,-30.5739,48.5503],[-58.9599,-30.5717,48.0507],[-58.9777,-30.5778,54.6105],[-58.9879,-30.5857,47.7311],[-58.9932,-30.5919,47.1315],[-58.9965,-30.6149,46.4209],[-59.0043,-30.6245,45.0977],[-59.0126,-30.6425,45.1141],[-59.0213,-30.6513,45.0104],[-59.032,-30.6585,45.1492],[-59.0615,-30.6678,44.9596],[-59.1018,-30.685,47.9593],[-59.1193,-30.6971,43.4987],[-59.136,-30.7026,57.5791],[-59.1529,-30.7154,43.4829],[-59.1703,-30.719,54.8073],[-59.1838,-30.7189,51.1377],[-59.2006,-30.7246,51.7654],[-59.207,-30.7299,53.716],[-59.2103,-30.737,45.8977],[-59.2142,-30.7389,50.5769],[-59.2276,-30.7406,54.3703],[-59.2726,-30.7417,56.5689],[-59.2768,-30.7433,59.9328],[-59.2849,-30.7525,46.2465],[-59.292,-30.7572,52.7076],[-59.3118,-30.7663,52.1449],[-59.3414,-30.7754,48.7958],[-59.3423,-30.7789,51.5514],[-59.3402,-30.7825,47.1522],[-59.3255,-30.7914,36.9919],[-59.3095,-30.805,38.4544],[-59.2881,-30.8302,52.3203],[-59.2862,-30.8373,55.7009],[-59.2895,-30.8446,44.6725],[-59.2803,-30.8578,47.4097],[-59.277,-30.8731,44.2507],[-59.277,-30.8809,45.2565],[-59.2786,-30.8846,46.7281],[-59.3013,-30.9084,57.5175],[-59.3007,-30.9122,60.2749],[-59.293,-30.9262,54.8326],[-59.2924,-30.934,60.6902],[-59.2939,-30.9376,61.8791],[-59.3002,-30.9431,62.4616],[-59.3191,-30.9537,53.1625],[-59.327,-30.9631,58.8119],[-59.3281,-30.9707,60.9137],[-59.3142,-31.0074,61.5275],[-59.3074,-31.0173,59.7904],[-59.2992,-31.021,65.4319],[-59.2948,-31.0275,65.7959],[-59.2937,-31.0352,64.9786],[-59.2957,-31.0427,64.8248],[-59.2941,-31.0503,64.1804],[-59.2953,-31.058,68.2658],[-59.2936,-31.0657,66.1973],[-59.29,-31.0678,63.4997],[-59.2809,-31.0679,68.0771],[-59.2782,-31.0695,67.5624],[-59.2784,-31.0891,63.9437],[-59.2737,-31.1,63.2948],[-59.2652,-31.1088,64.4789],[-59.2638,-31.1165,54.3591],[-59.2663,-31.1397,54.1336],[-59.266,-31.1552,55.6478],[-59.2718,-31.1819,60.4809],[-59.275,-31.1891,66.5442],[-59.2756,-31.1968,66.0399],[-59.2711,-31.212,62.231],[-59.2635,-31.2213,70.051],[-59.2549,-31.2393,65.0499],[-59.2495,-31.2541,66.9991],[-59.2477,-31.266,68.9846],[-59.2444,-31.267,71.2268],[-59.2123,-31.2655,71.1029],[-59.2091,-31.2684,69.9554],[-59.1842,-31.3141,64.6817],[-59.1807,-31.3252,61.5299],[-59.1666,-31.3349,62.9838],[-59.1576,-31.3435,63.0005],[-59.1531,-31.3503,64.6871],[-59.1477,-31.365,61.5268],[-59.1369,-31.3774,55.6752],[-59.1324,-31.3883,57.3818],[-59.1222,-31.4012,58.2495],[-59.1162,-31.4158,56.2481],[-59.099,-31.4338,44.1441],[-59.0724,-31.4388,41.8652],[-59.0695,-31.4369,42.1894],[-59.0582,-31.4148,44.2408],[-59.0489,-31.4016,43.2498],[-59.0372,-31.3682,43.461],[-59.0275,-31.3506,44.6505],[-58.9895,-31.3025,51.6933],[-58.9851,-31.2876,45.6765],[-58.981,-31.2807,45.4516],[-58.977,-31.2655,45.3108],[-58.9711,-31.255,45.468],[-58.9683,-31.2519,45.5344],[-58.9553,-31.249,45.2092],[-58.9313,-31.2383,45.9784],[-58.9036,-31.2184,46.6812],[-58.8811,-31.2054,47.0334],[-58.8724,-31.2043,47.1873],[-58.8331,-31.2229,61.9675],[-58.8242,-31.2239,62.2334],[-58.8123,-31.2293,63.051],[-58.7993,-31.2317,61.1811],[-58.7856,-31.2474,63.887],[-58.7726,-31.249,58.975],[-58.7545,-31.2486,66.1043],[-58.7459,-31.251,65.9258],[-58.7306,-31.2649,66.8696],[-58.7136,-31.27,64.6612],[-58.7,-31.2693,63.1418],[-58.6876,-31.2651,66.6331],[-58.6696,-31.2634,65.774],[-58.6564,-31.2659,67.5659],[-58.6487,-31.2694,62.8639],[-58.635,-31.269,67.1061],[-58.6184,-31.2633,67.1728],[-58.6049,-31.2637,67.3741],[-58.5969,-31.2602,69.3703],[-58.5865,-31.2527,69.3871],[-58.5743,-31.2414,70.0089],[-58.5626,-31.2362,67.3841],[-58.5535,-31.2373,68.6091],[-58.5416,-31.2425,68.895],[-58.5054,-31.2437,67.0589],[-58.4698,-31.2387,66.3982],[-58.4612,-31.2401,65.0356],[-58.4528,-31.2371,67.5138],[-58.4376,-31.2134,67.8242],[-58.416,-31.1885,64.5551],[-58.4136,-31.1848,66.9013],[-58.4141,-31.1818,67.1353],[-58.4588,-31.1748,58.1413],[-58.4714,-31.1704,57.1277],[-58.4874,-31.1568,59.8471],[-58.502,-31.1478,63.5995],[-58.5236,-31.128,58.7701],[-58.5404,-31.105,59.7835],[-58.5557,-31.0909,57.4731],[-58.5657,-31.0781,55.6078],[-58.5721,-31.0637,53.1596],[-58.572,-31.0598,53.3729],[-58.5677,-31.0488,53.4852],[-58.5592,-31.0397,53.7725],[-58.5508,-31.037,60.4977],[-58.5105,-31.0347,55.9428],[-58.5062,-31.0334,54.433],[-58.4959,-31.0261,53.8916],[-58.4914,-31.0253,56.3017],[-58.4856,-31.0194,54.9453],[-58.479,-31.0091,56.351],[-58.4793,-31.0055,53.5842],[-58.4823,-30.9981,55.7025],[-58.4815,-30.9904,55.7352],[-58.4897,-30.9811,56.1574],[-58.4913,-30.9774,55.8704],[-58.4902,-30.9739,56.4501],[-58.4679,-30.9313,57.5873],[-58.4567,-30.9247,56.7827],[-58.4559,-30.9174,56.8894],[-58.4493,-30.9029,55.5948],[-58.4467,-30.8998,55.2826],[-58.4312,-30.8919,57.6868],[-58.4259,-30.8775,58.5005],[-58.4282,-30.8741,58.7043],[-58.4283,-30.8703,58.1646],[-58.4211,-30.8606,58.5488],[-58.4212,-30.8528,59.0914],[-58.4195,-30.8492,58.5774],[-58.4032,-30.8359,57.3016],[-58.3978,-30.8346,58.9352]]]]}
,"properties": {"GID_2": "ARG.8.5_1","GID_0": "ARG","country": "Argentina","GID_1": "ARG.8_1","state": "EntreRíos","NL_NAME_1": "NA","county": "Federal","VARNAME_2": "NA","NL_NAME_2": "NA","TYPE_2": "Departamento","ENGTYPE_2": "Department","CC_2": "NA","HASC_2": "AR.ER.FE","name": "Federal.county","area_km2": 5293.739,"hist_schema_id": "Elevation0-9000","hist_area_km2": {"25": 3.297,"50": 2570.128,"75": 2720.296}}}