{"type": "Feature","bbox": [-67.1202,-36.8007,-65.9823,-35.9978],"geometry": {"type": "MultiPolygon","coordinates": [[[[-65.9823,-36.7806,291.5401],[-66.0034,-35.999,343.7941],[-67.1202,-35.9978,335.3333],[-67.111,-36.8007,292.3663],[-65.9823,-36.7806,291.5401]]]]}
,"properties": {"GID_2": "ARG.11.5_1","GID_0": "ARG","country": "Argentina","GID_1": "ARG.11_1","state": "LaPampa","NL_NAME_1": "NA","county": "Chalileo","VARNAME_2": "SantaIsabel","NL_NAME_2": "NA","TYPE_2": "Departamento","ENGTYPE_2": "Department","CC_2": "NA","HASC_2": "AR.LP.CH","name": "Chalileo.county","area_km2": 8854.609,"hist_schema_id": "Elevation0-9000","hist_area_km2": {"275": 893.085,"300": 3746.398,"325": 3759.881,"350": 455.245}}}