{"type": "Feature","bbox": [-65.1874,-28.2698,-64.5589,-27.6689],"geometry": {"type": "MultiPolygon","coordinates": [[[[-65.1145,-28.2415,495.0679],[-64.9746,-28.2698,451.4178],[-64.9621,-28.2327,472.4559],[-64.876,-28.2534,519.0012],[-64.8418,-28.1632,643.6883],[-64.7953,-28.1738,452.7061],[-64.7927,-28.1664,446.8347],[-64.7719,-28.1708,413.3015],[-64.7691,-28.1632,414.325],[-64.6426,-28.1883,317.0539],[-64.6221,-28.1086,336.9518],[-64.6027,-28.1121,326.246],[-64.5589,-27.9504,328.1024],[-64.5765,-27.947,339.9893],[-64.5639,-27.9049,344.7885],[-64.6198,-27.8922,383.585],[-64.624,-27.9064,386.6252],[-64.6706,-27.8955,430.8802],[-64.6584,-27.8549,397.7075],[-64.7169,-27.8428,425.9818],[-64.7054,-27.7998,392.8902],[-64.7225,-27.7966,416.517],[-64.7089,-27.7173,318.3029],[-64.7006,-27.6775,349.9883],[-64.7508,-27.6689,365.5995],[-64.7669,-27.7198,369.0452],[-64.8169,-27.7112,456.063],[-64.8099,-27.6726,421.6988],[-64.8939,-27.7268,338.5289],[-64.904,-27.727,337.692],[-64.9067,-27.7175,334.3589],[-64.9596,-27.7354,350.8362],[-64.959,-27.7446,355.417],[-64.9659,-27.7467,350.1317],[-64.9596,-27.7596,367.0687],[-65.0144,-27.7712,337.7921],[-65.0494,-27.8722,368.8861],[-65.0872,-27.891,352.0813],[-65.0935,-27.8908,348.9262],[-65.1265,-27.8787,339.5616],[-65.1274,-27.8684,338.2724],[-65.1546,-27.8661,344.0924],[-65.1587,-27.8815,348.7343],[-65.1675,-27.9021,359.4288],[-65.1791,-27.9123,363.3548],[-65.1874,-27.9152,365.3827],[-65.1834,-27.9355,372.8937],[-65.1703,-27.9739,387.0199],[-65.1502,-28.0602,436.7302],[-65.1169,-28.1916,488.1035],[-65.1145,-28.2415,495.0679]]]]}
,"properties": {"GID_2": "ARG.22.12_1","GID_0": "ARG","country": "Argentina","GID_1": "ARG.22_1","state": "SantiagodelEstero","NL_NAME_1": "NA","county": "Guasayán","VARNAME_2": "SanPedro","NL_NAME_2": "NA","TYPE_2": "Departamento","ENGTYPE_2": "Department","CC_2": "NA","HASC_2": "AR.SE.GU","name": "Guasayán.county","area_km2": 2592.611,"hist_schema_id": "Elevation0-9000","hist_area_km2": {"325": 41.37,"350": 231.192,"375": 302.454,"400": 335.148,"425": 380.417,"450": 427.417,"475": 377.317,"500": 192.556,"525": 101.563,"550": 65.523,"575": 51.938,"600": 31.848,"625": 27.793,"650": 21.039,"675": 4.699,"700": 0.337}}}