{"type":"Feature","properties":{"GID_2":"ARG.1.4_1","GID_0":"ARG","country":"Argentina","GID_1":"ARG.1_1","state":"BuenosAires","NL_NAME_1":"NA","county":"AlmiranteBrown","VARNAME_2":"NA","NL_NAME_2":"NA","TYPE_2":"Partido","ENGTYPE_2":"Part","CC_2":"NA","HASC_2":"AR.BA.AB","name":"AlmiranteBrown.county"},
"geometry":{"type": "MultiPolygon","coordinates": [[[[-58.3974,-34.9121,28.2059],[-58.3473,-34.8876,26.9774],[-58.3433,-34.8931,29.6464],[-58.3136,-34.8775,25.9927],[-58.3182,-34.871,25.8673],[-58.2933,-34.8578,25.792],[-58.3337,-34.8092,17.65],[-58.3108,-34.7969,11.5578],[-58.3373,-34.7586,12.0538],[-58.3628,-34.7711,15.8017],[-58.3596,-34.775,18.6539],[-58.4114,-34.8018,23.5089],[-58.406,-34.808,25.3142],[-58.4485,-34.8291,20.1982],[-58.4095,-34.8822,26.8878],[-58.4167,-34.8858,26.8207],[-58.3974,-34.9121,28.2059]]]]}}