{"type":"Feature","properties":{"GID_2":"ARG.17.15_1","GID_0":"ARG","country":"Argentina","GID_1":"ARG.17_1","state":"Salta","NL_NAME_1":"NA","county":"LosAndes","VARNAME_2":"SanAntoniodelosCobres","NL_NAME_2":"NA","TYPE_2":"Departamento","ENGTYPE_2":"Department","CC_2":"NA","HASC_2":"AR.SA.LA","name":"LosAndes.county"},
"geometry":{"type": "MultiPolygon","coordinates": [[[[-66.5544,-25.2914,4559.2515],[-66.5499,-25.2791,4405.0615],[-66.5441,-25.2688,3941.3237],[-66.5174,-25.2446,3951.0557],[-66.5335,-25.221,4393.0967],[-66.533,-25.205,4921.645],[-66.5386,-25.195,5016.1592],[-66.5486,-25.1882,4786.6011],[-66.5667,-25.183,4774.2856],[-66.5827,-25.174,5008.8496],[-66.5954,-25.1612,5204.6709],[-66.5999,-25.1505,5539.4824],[-66.6005,-25.1333,5745.3989],[-66.5963,-25.0933,5332.5771],[-66.5918,-25.0826,5201.7715],[-66.5746,-25.0586,4939.5049],[-66.5719,-25.0474,4775.8589],[-66.5749,-25.0304,4582.7891],[-66.5896,-25.0051,5050.8433],[-66.5855,-24.9883,5319.5737],[-66.5874,-24.9654,5501.54],[-66.597,-24.9445,5363.582],[-66.5902,-24.9284,5199.4209],[-66.5834,-24.9188,4984.7788],[-66.5695,-24.9071,4661.23],[-66.5475,-24.8959,4569.8735],[-66.5302,-24.8793,4910.4614],[-66.5157,-24.8682,4595.6562],[-66.5037,-24.8651,4427.8018],[-66.4911,-24.8656,4273.1509],[-66.4787,-24.8641,4377.2529],[-66.4676,-24.8586,4484.6006],[-66.4641,-24.8539,4497.166],[-66.4597,-24.8372,4593.3008],[-66.4514,-24.8286,4702.3545],[-66.4064,-24.8147,5888.1572],[-66.4088,-24.8012,5722.415],[-66.4082,-24.784,5833.4375],[-66.4106,-24.7668,6045.9082],[-66.416,-24.7565,5966.8198],[-66.4179,-24.7452,5844.6421],[-66.4181,-24.7336,5801.771],[-66.4152,-24.7166,5735.8589],[-66.4135,-24.688,5447.6265],[-66.4098,-24.6711,5183.1548],[-66.3949,-24.6461,5047.772],[-66.3947,-24.6287,5208.2402],[-66.3899,-24.612,5199.8848],[-66.3787,-24.5983,5321.9893],[-66.3679,-24.5923,5098.7871],[-66.3587,-24.5845,5028.8281],[-66.3552,-24.5735,5146.3613],[-66.3596,-24.545,5127.5674],[-66.3686,-24.5236,4873.4902],[-66.3986,-24.4797,4556.1704],[-66.404,-24.4693,4571.3379],[-66.4051,-24.458,4600.5708],[-66.4185,-24.4321,4690.2773],[-66.4213,-24.4035,4621.0972],[-66.4291,-24.3946,4725.8076],[-66.4393,-24.3878,4671.5547],[-66.4451,-24.3858,4822.5107],[-66.4513,-24.3864,4930.3838],[-66.4624,-24.3919,4747.0425],[-66.4685,-24.3931,4691.2422],[-66.4748,-24.3929,4675.0073],[-66.4861,-24.388,4927.0229],[-66.4894,-24.377,5113.0947],[-66.4867,-24.3599,4735.0254],[-66.4873,-24.3541,4787.5737],[-66.5184,-24.3254,4862.3462],[-66.5177,-24.3206,5076.4609],[-66.5104,-24.3107,4949.5039],[-66.5022,-24.289,4981.4785],[-66.5016,-24.2833,4961.7568],[-66.5041,-24.2604,5125.6357],[-66.5023,-24.2491,4986.8315],[-66.5002,-24.2436,4850.5],[-66.2319,-24.4457,4883.6309],[-66.1539,-24.0139,3851.3784],[-66.3445,-23.915,3965.7986],[-66.3442,-23.9471,3889.0259],[-66.3416,-23.9631,4134.5449],[-66.3449,-23.9733,4254.2285],[-66.3422,-23.9903,4408.2363],[-66.3518,-24.0129,4622.0454],[-66.3682,-24.0329,4518.8955],[-66.3775,-24.0534,4487.0879],[-66.378,-24.0618,4531.3252],[-66.3757,-24.0728,4461.0674],[-66.3737,-24.0781,4530.5342],[-66.3674,-24.0847,4698.416],[-66.3672,-24.0867,4795.7539],[-66.3737,-24.0929,4654.6553],[-66.3861,-24.1212,4512.8496],[-66.3948,-24.1232,4477.9927],[-66.4102,-24.1211,4432.7051],[-66.4111,-24.126,4504.4038],[-66.4084,-24.1429,4331.0835],[-66.4109,-24.151,4323.9189],[-66.4288,-24.1615,4458.6489],[-66.4335,-24.1687,4541.5952],[-66.4424,-24.1689,4672.3721],[-66.4559,-24.175,4698.8174],[-66.4651,-24.1823,4641.3687],[-66.4704,-24.1891,4752.3262],[-66.4746,-24.2053,4588.854],[-66.4791,-24.2087,4530.6162],[-66.4844,-24.206,4501.4219],[-66.4883,-24.1985,4521.7163],[-66.5123,-24.1945,4430.9746],[-66.5178,-24.196,4431.8516],[-66.5257,-24.2041,4404.5674],[-66.538,-24.2053,4446.0137],[-66.5469,-24.2042,4351.8555],[-66.557,-24.1979,4488.626],[-66.5629,-24.1962,4488.7651],[-66.5839,-24.199,4364.4775],[-66.5928,-24.1973,4320.9873],[-66.6525,-24.1768,4116.5884],[-66.6654,-24.1694,4095.2642],[-66.6842,-24.1477,4115.2559],[-66.7193,-24.1384,4047.6709],[-66.7254,-24.132,4053.8696],[-66.7326,-24.1166,4006.0776],[-66.7332,-24.1058,3988.0906],[-66.7409,-24.0936,3982.3472],[-66.7476,-24.0879,3967.2783],[-66.7565,-24.0869,3957.7437],[-66.7714,-24.0898,3945.8298],[-66.8073,-24.0925,3956.2556],[-66.824,-24.0759,3935.771],[-66.8399,-24.0629,4111.9395],[-66.8507,-24.0494,3922.0908],[-66.8702,-24.0178,3989.7786],[-66.8802,-24.0116,4035.2173],[-66.8842,-24.0074,4058.7354],[-66.8863,-24.0022,4060.1633],[-66.8865,-23.9966,4054.2866],[-66.8925,-23.9961,4110.1919],[-66.8942,-23.9931,4122.2852],[-66.9332,-23.9853,4322.4492],[-66.9364,-23.9805,4271.1987],[-66.9348,-23.9556,4358.4922],[-66.9757,-23.9527,4332.4224],[-66.9912,-23.9601,4374.2539],[-67.0029,-23.9594,4097.4556],[-67.0094,-23.9507,4151.8423],[-67.0103,-23.9427,4236.2764],[-67.0045,-23.918,4309.5361],[-67.0,-23.8793,3976.854],[-67.0004,-23.8739,3989.2954],[-67.0056,-23.8643,4011.4202],[-67.1136,-23.7821,4231.166],[-67.2154,-23.7011,4356.8457],[-67.3226,-24.0342,5587.0811],[-68.065,-24.3264,5946.7168],[-68.2458,-24.3959,5999.3506],[-68.2459,-24.3991,5891.0527],[-68.2493,-24.4014,5662.6021],[-68.2585,-24.4017,5392.1807],[-68.2624,-24.4054,5188.3672],[-68.2622,-24.4198,4629.9458],[-68.2657,-24.4257,4519.3164],[-68.2678,-24.4354,4318.1753],[-68.2854,-24.4454,3924.2246],[-68.2902,-24.4521,3878.7847],[-68.2963,-24.454,3935.4023],[-68.3,-24.4615,4165.5752],[-68.2998,-24.4679,4381.7183],[-68.3048,-24.4758,4834.9326],[-68.3057,-24.4815,4973.7354],[-68.3101,-24.4841,5056.2559],[-68.3106,-24.4906,5110.376],[-68.3215,-24.4894,4697.3555],[-68.3427,-24.4918,5190.6104],[-68.3604,-24.4894,5057.0107],[-68.3659,-24.4924,5097.1709],[-68.3682,-24.4911,5071.6729],[-68.3754,-24.4925,4896.1533],[-68.3851,-24.4853,5238.9902],[-68.3902,-24.4887,5257.5234],[-68.3934,-24.4982,5135.3154],[-68.3935,-24.5044,4886.4805],[-68.4026,-24.511,4956.0708],[-68.4051,-24.5178,4918.166],[-68.4022,-24.5236,4890.4517],[-68.4032,-24.5275,4957.2324],[-68.413,-24.5418,4950.5547],[-68.4199,-24.5643,4809.6504],[-68.4306,-24.5771,4944.2812],[-68.4328,-24.5828,4957.3975],[-68.4315,-24.5923,4824.1851],[-68.433,-24.5979,5054.5527],[-68.4363,-24.6015,5107.2515],[-68.4333,-24.6057,5121.1162],[-68.447,-24.6018,4755.6631],[-68.4506,-24.6025,4764.4272],[-68.4542,-24.6103,4840.9419],[-68.4553,-24.6177,4855.1499],[-68.4606,-24.6221,5020.8379],[-68.4677,-24.6228,4892.2773],[-68.4749,-24.6211,4772.5898],[-68.4873,-24.6001,5464.8306],[-68.4951,-24.6,5580.6226],[-68.4942,-24.6061,5368.6987],[-68.5017,-24.6167,5093.8604],[-68.4971,-24.626,5003.0215],[-68.498,-24.6284,5042.2656],[-68.4951,-24.6314,5077.48],[-68.4949,-24.6346,5073.6758],[-68.4933,-24.6367,5055.6904],[-68.4866,-24.639,5124.3247],[-68.4868,-24.6454,4865.1357],[-68.4933,-24.6549,5069.3472],[-68.4918,-24.6643,4999.1914],[-68.4957,-24.6696,4845.2852],[-68.4968,-24.6753,4911.4336],[-68.5024,-24.6766,5027.3008],[-68.5036,-24.6782,4969.8008],[-68.5046,-24.6843,4984.1543],[-68.5145,-24.6985,5341.1123],[-68.5155,-24.703,5424.8462],[-68.5234,-24.7096,5743.4482],[-68.5332,-24.7117,6238.9468],[-68.5362,-24.7165,6562.9131],[-68.5366,-24.7206,6662.5352],[-68.5406,-24.7214,6571.4106],[-68.5429,-24.7251,6440.0713],[-68.5456,-24.7542,5343.2749],[-68.5615,-24.763,4998.2168],[-68.561,-24.7797,4940.106],[-68.5646,-24.7893,5281.7612],[-68.5677,-24.7917,5271.458],[-68.5681,-24.7955,5246.9761],[-68.5626,-24.7979,5127.4492],[-68.5622,-24.802,5239.0454],[-68.5604,-24.8035,5198.2529],[-68.5536,-24.8038,4944.3882],[-68.5481,-24.8066,4951.2153],[-68.5464,-24.8104,4948.3115],[-68.5393,-24.8165,5028.8345],[-68.5377,-24.8249,5200.8159],[-68.5344,-24.8271,5226.7446],[-68.5363,-24.833,5293.6099],[-68.5341,-24.8347,5330.5586],[-68.533,-24.8396,5208.667],[-68.5353,-24.8459,5266.4214],[-68.5322,-24.852,5323.7207],[-68.5332,-24.8558,5329.0117],[-68.5295,-24.8569,5347.6411],[-68.5248,-24.861,5156.8164],[-68.5196,-24.8733,5039.0952],[-68.5076,-24.8755,4830.8545],[-68.5028,-24.8746,4780.7578],[-68.4973,-24.8765,4708.8027],[-68.4926,-24.8752,4691.6699],[-68.4903,-24.881,4698.874],[-68.4864,-24.8837,4698.2046],[-68.4879,-24.8871,4691.6865],[-68.4861,-24.8898,4742.7632],[-68.486,-24.8953,4808.3042],[-68.4837,-24.897,4820.8936],[-68.481,-24.8964,4818.8701],[-68.4713,-24.9005,4733.6362],[-68.4625,-24.9007,4725.1582],[-68.46,-24.902,4748.2041],[-68.4459,-24.902,4925.7563],[-68.4443,-24.9047,4946.7373],[-68.4409,-24.9061,4986.4365],[-68.4334,-24.9048,5122.8735],[-68.4314,-24.906,5138.5078],[-68.4322,-24.9085,5095.5762],[-68.4307,-24.9136,5080.4302],[-68.439,-24.9183,5033.4053],[-68.43,-24.9306,4832.7847],[-68.4275,-24.9433,4609.6562],[-68.4284,-24.9558,4875.2471],[-68.4268,-24.9614,5004.7686],[-68.4202,-24.9619,5047.187],[-68.4081,-24.9719,5077.4736],[-68.4122,-24.982,4880.1289],[-68.4134,-24.9898,5052.6826],[-68.4161,-24.9935,5109.2261],[-68.4131,-24.9999,5134.957],[-68.4151,-25.0033,5107.1396],[-68.4137,-25.0083,5050.5186],[-68.4123,-25.0088,5100.981],[-68.4127,-25.0195,5004.959],[-68.403,-25.0315,5272.2729],[-68.3974,-25.0327,5305.1367],[-68.388,-25.0379,5340.1606],[-68.382,-25.0371,5342.5977],[-68.378,-25.0337,5481.4453],[-68.3744,-25.0358,5470.0474],[-68.3738,-25.0408,5351.7236],[-68.3699,-25.0448,5113.2646],[-68.3672,-25.0453,5110.813],[-68.3643,-25.0492,5129.1821],[-68.3663,-25.0568,5222.1387],[-68.3706,-25.0601,5274.7417],[-68.3715,-25.0642,5247.7637],[-68.3659,-25.0765,5382.2515],[-68.3661,-25.0808,5432.4873],[-68.361,-25.0816,5294.7969],[-68.3582,-25.0842,5245.6294],[-68.3588,-25.0882,5286.022],[-68.3559,-25.0942,5229.104],[-68.3566,-25.098,5384.3311],[-68.3546,-25.1029,5267.2866],[-68.3503,-25.1051,5223.876],[-68.3474,-25.11,5183.2026],[-68.3433,-25.1106,5210.8652],[-68.4085,-25.1445,4730.6729],[-68.4185,-25.1388,4649.251],[-68.4235,-25.134,4583.3159],[-68.4235,-25.1311,4573.7002],[-68.4333,-25.1312,4600.9556],[-68.4368,-25.1253,4616.8018],[-68.4367,-25.1225,4614.8613],[-68.4398,-25.1228,4592.8403],[-68.4401,-25.1273,4585.9736],[-68.4434,-25.1292,4572.6367],[-68.4418,-25.1317,4538.3652],[-68.444,-25.1337,4575.0518],[-68.4485,-25.1299,4542.707],[-68.4558,-25.1287,4516.7959],[-68.4578,-25.1257,4522.9019],[-68.465,-25.1308,4503.7642],[-68.4696,-25.1481,4794.4858],[-68.4741,-25.1524,4916.5225],[-68.4827,-25.1539,5107.7803],[-68.4833,-25.1563,5149.6479],[-68.158,-25.2124,3910.8428],[-67.9854,-25.2397,4338.873],[-67.5716,-25.2599,4211.5542],[-67.4983,-25.2596,3382.0532],[-67.3683,-25.2655,4407.1943],[-66.9373,-25.279,4025.7244],[-66.6336,-25.2779,4545.6216],[-66.5571,-25.2746,4331.4795],[-66.5544,-25.2914,4559.2515]]]]}}