{"type":"Feature","properties":{"ISO3166-1-Alpha-3":"ARG","country":"Argentina","fill":"#00F","id":"1303","name":"Salta"},
"geometry":{"type": "Polygon","coordinates": [[[-62.65036,-22.23446,267.204],[-62.65899,-22.23167,267.9666],[-62.66183,-22.22453,268.2425],[-62.66322,-22.21554,267.1989],[-62.66746,-22.20655,268.0816],[-62.6793,-22.19477,269.3937],[-62.72203,-22.16624,268.1385],[-62.76937,-22.14475,268.1699],[-62.78348,-22.1309,274.8559],[-62.79092,-22.11322,276.4435],[-62.79107,-22.0816,276.6151],[-62.79779,-22.0694,274.6311],[-62.79505,-22.06113,275.2437],[-62.795,-22.05121,281.4154],[-62.80136,-22.01349,278.6417],[-62.80435,-22.00408,279.284],[-62.81856,-22.00088,284.8221],[-62.86202,-21.99323,286.4076],[-63.00992,-22.00067,301.2155],[-63.01044,-22.00077,301.2155],[-63.32492,-21.99912,398.9268],[-63.63939,-21.99747,782.9756],[-63.67784,-22.00367,634.2953],[-63.69391,-22.01204,681.7339],[-63.74042,-22.05059,1006.841],[-63.75179,-22.04573,969.1608],[-63.79303,-22.01152,763.2232],[-63.81313,-22.00305,681.2036],[-63.9064,-21.99716,1048.8704],[-63.93317,-22.00181,674.1663],[-63.94759,-22.0076,778.054],[-63.95095,-22.0108,779.7048],[-63.95147,-22.01669,685.0176],[-63.96103,-22.03912,787.1763],[-63.96464,-22.05855,707.1337],[-63.96811,-22.06651,733.3278],[-63.97581,-22.07385,665.9006],[-63.98345,-22.07736,613.8604],[-63.99038,-22.07932,702.7158],[-63.99565,-22.08294,654.0426],[-64.00438,-22.09927,694.4688],[-64.01978,-22.15539,670.0001],[-64.05102,-22.22918,580.4956],[-64.0588,-22.24035,508.6966],[-64.07887,-22.25058,541.7453],[-64.08624,-22.25792,593.7711],[-64.16055,-22.43847,450.0993],[-64.18471,-22.47124,446.0068],[-64.23633,-22.51671,440.8381],[-64.25083,-22.54069,635.1616],[-64.29398,-22.69086,406.9818],[-64.2946,-22.7629,377.2379],[-64.30349,-22.78233,375.1865],[-64.32695,-22.85922,353.7575],[-64.32529,-22.87194,351.3604],[-64.3439,-22.86367,346.667],[-64.34772,-22.81695,384.8853],[-64.35999,-22.803,394.2401],[-64.35232,-22.77913,408.6159],[-64.35573,-22.75194,475.6498],[-64.36899,-22.72972,575.6824],[-64.39077,-22.72052,441.4415],[-64.40172,-22.71236,514.8975],[-64.42828,-22.65903,512.1252],[-64.43823,-22.6519,519.2562],[-64.44722,-22.64869,515.4474],[-64.45371,-22.64291,562.0835],[-64.45624,-22.62802,774.9462],[-64.45521,-22.61665,697.4748],[-64.45045,-22.59712,585.5522],[-64.44942,-22.5871,677.6931],[-64.44554,-22.57624,620.8202],[-64.43725,-22.56736,762.9861],[-64.42984,-22.55712,709.972],[-64.42828,-22.54234,687.9245],[-64.48373,-22.49118,783.3938],[-64.49813,-22.47279,665.1632],[-64.50404,-22.44995,780.1245],[-64.50781,-22.44395,628.3553],[-64.52575,-22.433,672.8312],[-64.53133,-22.42566,843.0886],[-64.53107,-22.41553,823.7865],[-64.52329,-22.3962,775.6072],[-64.52456,-22.38535,756.3159],[-64.53789,-22.37429,757.1483],[-64.55887,-22.36065,806.043],[-64.57202,-22.34318,828.8098],[-64.56208,-22.31983,774.0767],[-64.54916,-22.30536,865.1107],[-64.54226,-22.29151,831.4056],[-64.54277,-22.27549,851.3182],[-64.55184,-22.25502,965.7699],[-64.56021,-22.24314,1065.6743],[-64.58688,-22.21275,1423.0239],[-64.59621,-22.20655,1597.743],[-64.61628,-22.20221,1347.9241],[-64.63871,-22.19167,1167.0946],[-64.65778,-22.17844,1361.9049],[-64.67904,-22.17544,1387.6755],[-64.68744,-22.17286,1705.7465],[-64.69525,-22.1742,1753.5947],[-64.71369,-22.18175,1575.782],[-64.72289,-22.1833,1688.9658],[-64.76232,-22.17441,1959.3982],[-64.83247,-22.13751,2191.0835],[-65.02037,-22.09658,3374.2314],[-65.19048,-22.09847,4421.5938],[-65.19217,-22.1201,4661.7422],[-65.19695,-22.13183,4609.7441],[-65.20968,-22.15017,4677.8613],[-65.21984,-22.16857,4721.6694],[-65.22578,-22.18412,4594.2578],[-65.23544,-22.22314,4507.6074],[-65.23839,-22.25378,4524.2441],[-65.23816,-22.31125,4554.5371],[-65.23966,-22.31972,4740.2349],[-65.24188,-22.32618,4898.2534],[-65.25996,-22.3513,4651.4512],[-65.2633,-22.35512,4736.5273],[-65.2734,-22.37078,4762.8833],[-65.30154,-22.43289,4619.8447],[-65.30526,-22.44804,4531.8018],[-65.3112,-22.46302,4502.3086],[-65.33433,-22.50235,4914.6357],[-65.33784,-22.51191,4749.8047],[-65.33939,-22.52028,4603.5479],[-65.33815,-22.54338,4477.7266],[-65.34549,-22.58823,4588.3027],[-65.34094,-22.59655,4585.6772],[-65.3382,-22.59779,4509.7471],[-65.32745,-22.59826,4543.0615],[-65.31252,-22.59505,4575.2275],[-65.30353,-22.5994,4628.3789],[-65.26872,-22.62978,4657.6621],[-65.26524,-22.6382,4849.25],[-65.28113,-22.66714,4656.9741],[-65.28591,-22.68265,4582.6479],[-65.28704,-22.69789,4244.7275],[-65.28663,-22.7228,4375.2397],[-65.2856,-22.73179,4370.0225],[-65.2826,-22.74414,4284.3208],[-65.28074,-22.7491,4208.855],[-65.26841,-22.84372,3989.3184],[-65.26642,-22.84853,3920.7178],[-65.25836,-22.86134,3914.6367],[-65.25418,-22.87096,3769.3906],[-65.23475,-22.93751,4181.1719],[-65.23103,-22.94506,4200.4116],[-65.22718,-22.95064,4192.5488],[-65.21304,-22.9649,4492.0088],[-65.19248,-22.98051,4666.1445],[-65.18198,-22.98495,4706.9834],[-65.16909,-22.98733,4550.5166],[-65.08491,-22.98857,3861.9438],[-65.05719,-22.99183,3629.9265],[-65.04869,-22.99565,3502.9185],[-65.03931,-23.00226,4034.4092],[-65.02409,-23.01782,4623.8447],[-65.01742,-23.02671,4117.4966],[-65.013,-23.03399,3897.4819],[-65.00944,-23.04407,3938.1729],[-65.0082,-23.04955,3615.312],[-65.00716,-23.07461,3172.0425],[-65.02039,-23.16262,3914.885],[-65.03892,-23.22416,4677.3867],[-65.04186,-23.24003,4400.0156],[-65.0429,-23.25145,4458.9663],[-65.04135,-23.25667,4425.958],[-65.03938,-23.26137,4585.1792],[-65.03688,-23.26581,4383.0947],[-65.03388,-23.26985,4195.8291],[-65.03029,-23.27341,4287.4888],[-65.02592,-23.27631,4478.2109],[-65.00419,-23.28302,4334.5459],[-64.99636,-23.28468,4086.3018],[-64.96419,-23.29853,3520.2275],[-64.95254,-23.3084,3256.4736],[-64.93621,-23.3364,3199.8918],[-64.92464,-23.36736,2743.4973],[-64.88947,-23.42973,2507.1006],[-64.88536,-23.43976,2556.7793],[-64.88441,-23.44534,2556.0925],[-64.88187,-23.47903,2141.4463],[-64.87895,-23.48911,2606.6846],[-64.87474,-23.49407,2562.6531],[-64.86895,-23.49629,2396.2559],[-64.85702,-23.49598,2627.2847],[-64.84412,-23.49795,2835.7292],[-64.81593,-23.50461,2046.1199],[-64.79568,-23.50244,2088.9783],[-64.79134,-23.50084,2015.9331],[-64.78433,-23.49655,1761.4982],[-64.78082,-23.49345,1651.2559],[-64.77666,-23.4904,1641.0378],[-64.75891,-23.47381,1438.1686],[-64.74847,-23.46704,1842.7659],[-64.74013,-23.46456,1470.9656],[-64.69718,-23.46007,954.6947],[-64.67747,-23.45397,902.8511],[-64.66685,-23.45356,964.2467],[-64.6601,-23.45464,905.0482],[-64.65217,-23.46125,1000.5241],[-64.64186,-23.47211,987.7268],[-64.63786,-23.47536,920.2545],[-64.63349,-23.47831,818.9492],[-64.62615,-23.48125,830.1912],[-64.58781,-23.4904,710.8884],[-64.55577,-23.50565,669.9106],[-64.5413,-23.51872,533.8857],[-64.52068,-23.53402,544.2156],[-64.51714,-23.53758,531.5244],[-64.49965,-23.56094,406.4325],[-64.47815,-23.58337,374.3503],[-64.47559,-23.58709,370.7062],[-64.47242,-23.59329,366.3376],[-64.46423,-23.60275,356.0855],[-64.43828,-23.61959,359.8561],[-64.41593,-23.60321,345.9838],[-64.40867,-23.59153,349.7145],[-64.3987,-23.54766,349.5969],[-64.39451,-23.54084,349.0064],[-64.3748,-23.52027,350.8469],[-64.36749,-23.50957,333.4862],[-64.35573,-23.50627,343.7108],[-64.347,-23.50461,313.6692],[-64.22137,-23.50663,309.7953],[-64.20401,-23.50875,307.2241],[-64.18884,-23.51329,305.4739],[-64.18342,-23.52595,308.2825],[-64.18106,-23.54156,312.5852],[-64.15877,-24.18364,814.0087],[-64.16132,-24.19651,655.0701],[-64.17708,-24.24069,690.4396],[-64.21199,-24.29877,830.4849],[-64.27103,-24.37515,824.5712],[-64.29803,-24.40161,803.0386],[-64.31049,-24.41127,892.449],[-64.31488,-24.41401,918.1951],[-64.32465,-24.41794,1085.3322],[-64.33031,-24.41913,1094.8037],[-64.33661,-24.41944,1094.0778],[-64.35715,-24.41825,1269.4583],[-64.36849,-24.42042,1266.3368],[-64.37384,-24.42197,1574.9175],[-64.37963,-24.42285,1433.241],[-64.3994,-24.42399,1778.2736],[-64.40694,-24.42559,1704.0225],[-64.41676,-24.42931,1909.931],[-64.42237,-24.43319,2092.688],[-64.42645,-24.43773,2188.6245],[-64.44156,-24.46135,2083.4141],[-64.44759,-24.46631,2066.7979],[-64.45355,-24.46931,2261.6848],[-64.50298,-24.48073,1639.1895],[-64.55649,-24.52579,2043.9106],[-64.57205,-24.54186,1594.2556],[-64.58375,-24.56062,1314.5562],[-64.59174,-24.58393,1196.2469],[-64.59915,-24.59829,1386.9478],[-64.60427,-24.60563,1654.7341],[-64.60936,-24.61054,1932.552],[-64.61401,-24.61271,2048.9082],[-64.61801,-24.61395,1955.5508],[-64.62548,-24.61323,1831.9717],[-64.81658,-24.45887,536.1982],[-64.82818,-24.45546,523.1081],[-64.84141,-24.47132,528.3559],[-64.85635,-24.49354,538.5968],[-64.90174,-24.59256,587.6129],[-64.90572,-24.59581,585.9767],[-64.9105,-24.59798,589.1179],[-64.91601,-24.59912,590.728],[-64.92231,-24.59953,594.0371],[-64.93588,-24.59767,602.9442],[-65.0315,-24.56486,685.9362],[-65.06427,-24.54646,737.1057],[-65.14948,-24.48259,908.6138],[-65.15253,-24.47871,915.9129],[-65.15478,-24.47437,924.3517],[-65.15824,-24.46404,939.3271],[-65.16059,-24.45908,950.5632],[-65.16488,-24.45427,960.6395],[-65.16979,-24.4536,968.3193],[-65.17465,-24.45468,971.6158],[-65.21547,-24.48042,1199.6244],[-65.23919,-24.49142,1125.9922],[-65.25172,-24.49577,1129.2535],[-65.27686,-24.50181,1328.375],[-65.3166,-24.49153,1392.3379],[-65.36203,-24.47174,1634.0276],[-65.37298,-24.46895,1557.2435],[-65.37978,-24.46802,1568.7903],[-65.40437,-24.46714,1918.5645],[-65.42796,-24.46057,2247.4812],[-65.43954,-24.45117,2124.7466],[-65.46091,-24.43055,2829.4622],[-65.47029,-24.42461,2872.8518],[-65.47874,-24.42099,2888.3196],[-65.48561,-24.42006,3163.1941],[-65.49181,-24.4199,3121.0071],[-65.49659,-24.42042,3119.1028],[-65.49923,-24.4213,3087.7166],[-65.50085,-24.42213,3087.7166],[-65.51178,-24.42946,3276.7307],[-65.51809,-24.432,3279.6235],[-65.52811,-24.4337,3389.7485],[-65.53809,-24.43086,3245.0034],[-65.57049,-24.41422,3405.3777],[-65.58036,-24.40797,3879.8818],[-65.5871,-24.40259,4291.6274],[-65.59834,-24.38637,4192.4062],[-65.61689,-24.35133,4470.2686],[-65.71797,-24.22793,4536.7383],[-65.75154,-24.17511,3960.7251],[-65.75929,-24.15579,3961.1868],[-65.7557,-24.11372,4533.6709],[-65.75911,-24.07682,5520.3135],[-65.78001,-24.06194,4763.3223],[-65.82714,-24.04122,4087.7737],[-65.83404,-24.03693,4199.625],[-65.84417,-24.02582,4180.8125],[-65.88073,-23.99249,3887.4373],[-65.89202,-23.98479,4018.4902],[-65.90194,-23.9804,4189.8994],[-65.90897,-23.97936,4333.4092],[-65.91548,-23.97936,4539.5347],[-65.92116,-23.98029,4538.4414],[-65.9254,-23.98308,4644.876],[-65.9291,-23.98665,4659.8242],[-65.93222,-23.99084,4603.7744],[-65.93713,-23.99409,4637.1846],[-65.94333,-23.99605,4727.5498],[-65.95349,-23.99564,4744.8325],[-65.95941,-23.99316,4549.7646],[-65.96406,-23.9897,4443.9312],[-65.97207,-23.97657,4586.3618],[-65.98134,-23.96572,4328.8774],[-66.0002,-23.94133,3967.8464],[-66.00237,-23.92732,3908.707],[-66.00002,-23.92097,3882.7412],[-65.99473,-23.91017,3751.7537],[-65.99287,-23.90278,3694.8755],[-65.99423,-23.89808,3680.3877],[-65.99695,-23.89487,3741.1831],[-65.99982,-23.89265,3749.6614],[-66.00199,-23.88981,3766.4688],[-66.00578,-23.88324,3711.5466],[-66.00638,-23.86883,3656.0496],[-66.00834,-23.86495,3641.374],[-66.01281,-23.86371,3604.5452],[-66.0178,-23.86314,3583.7937],[-66.02366,-23.85911,3547.9653],[-66.0255,-23.85374,3525.1597],[-66.02596,-23.84764,3500.8052],[-66.02255,-23.77746,3414.0825],[-66.02093,-23.76925,3409.678],[-66.01886,-23.76361,3406.187],[-66.00788,-23.74444,3406.5859],[-66.00493,-23.74046,3406.1597],[-65.98984,-23.72506,3406.3677],[-65.98685,-23.71922,3406.135],[-65.98697,-23.71416,3406.1824],[-65.99798,-23.69251,3405.9385],[-65.99925,-23.6878,3405.811],[-65.99945,-23.68486,3405.7551],[-65.98829,-23.66352,3407.8452],[-65.99338,-23.61572,3415.5388],[-65.9933,-23.59639,3417.9248],[-65.98643,-23.56001,3421.2966],[-65.98592,-23.55045,3423.21],[-65.98682,-23.54332,3423.9568],[-65.99209,-23.53386,3426.583],[-65.99883,-23.52626,3428.8879],[-66.02824,-23.49981,3439.8796],[-66.17019,-23.42069,3494.5276],[-66.17567,-23.41867,3496.1626],[-66.18172,-23.41743,3498.3611],[-66.1875,-23.41733,3500.3447],[-66.19882,-23.41898,3527.3948],[-66.21107,-23.41945,3536.5505],[-66.22709,-23.41304,3560.7976],[-66.25716,-23.39129,3675.8025],[-66.28378,-23.39144,3654.978],[-66.32995,-23.3717,3735.7012],[-66.34212,-23.3687,3733.6008],[-66.3522,-23.36782,3723.8149],[-66.35982,-23.3701,3727.7141],[-66.36481,-23.37325,3658.4827],[-66.36889,-23.37692,3636.647],[-66.37501,-23.3856,3637.4441],[-66.37757,-23.39072,3647.7178],[-66.4038,-23.49314,3667.3013],[-66.40666,-23.51882,3686.2019],[-66.40548,-23.54683,3711.0796],[-66.40287,-23.55691,3740.7373],[-66.38093,-23.61303,3810.1333],[-66.37718,-23.62776,3878.2229],[-66.34576,-23.69674,3877.4839],[-66.33793,-23.72382,3735.6538],[-66.33385,-23.78093,3646.8579],[-66.33863,-23.86965,3949.0962],[-66.35023,-23.97394,4177.6074],[-66.34917,-24.01357,4573.2607],[-66.35199,-24.04137,4269.8364],[-66.35574,-24.0546,4499.5605],[-66.36246,-24.06385,4440.4185],[-66.36951,-24.07822,4632.2656],[-66.37716,-24.09806,4815.1572],[-66.38103,-24.12809,4668.8154],[-66.38801,-24.14096,4591.0425],[-66.39496,-24.14767,4519.7319],[-66.41121,-24.15098,4323.9189],[-66.41832,-24.1547,4459.0469],[-66.471,-24.2208,4406.5981],[-66.50449,-24.23712,4719.2197],[-66.5679,-24.23976,4636.9883],[-66.60402,-24.23253,4577.1587],[-66.64342,-24.21625,4224.4844],[-66.67533,-24.19914,4398.8511],[-66.6974,-24.18054,4396.4951],[-66.73362,-24.1332,4131.4736],[-66.7685,-24.09837,3946.6167],[-66.77667,-24.09305,3940.6206],[-66.85744,-24.06024,3927.1499],[-66.87356,-24.05006,3971.8125],[-66.88025,-24.04267,4040.7173],[-66.89787,-24.01879,4168.5732],[-66.93193,-23.98768,4328.9927],[-66.9348,-23.9837,4297.9282],[-66.93702,-23.97936,4296.6577],[-66.94188,-23.96184,4365.6592],[-66.94699,-23.95409,4418.4673],[-66.95247,-23.95099,4281.5967],[-66.95983,-23.9496,4165.4248],[-66.96725,-23.94975,4225.437],[-66.97803,-23.94836,4291.4307],[-66.98405,-23.94551,4256.8931],[-66.98839,-23.94164,4275.0293],[-66.99268,-23.93275,4278.7344],[-66.99846,-23.91472,4245.4883],[-66.99963,-23.91255,4251.4048],[-67.04396,-23.87193,3971.7058],[-67.0719,-23.84035,4012.4309],[-67.07978,-23.83358,4032.1118],[-67.08683,-23.82883,4042.5088],[-67.09215,-23.8263,4041.0493],[-67.10455,-23.82289,4032.8481],[-67.12523,-23.82118,4007.0659],[-67.13355,-23.81968,4030.3433],[-67.14468,-23.81591,4039.4448],[-67.15065,-23.81193,4067.6096],[-67.15504,-23.80769,4078.5942],[-67.17388,-23.78439,4162.5195],[-67.18044,-23.7787,4186.6318],[-67.18672,-23.77467,4202.7471],[-67.21346,-23.76646,4244.207],[-67.22,-23.76289,4248.502],[-67.22692,-23.75757,4256.0996],[-67.25077,-23.73328,4307.1997],[-67.25133,-23.73309,4307.1997],[-67.28473,-23.83414,4121.6523],[-67.31813,-23.93518,4243.9282],[-67.33979,-24.0006,4698.8008],[-67.36237,-24.03037,4643.1255],[-67.41229,-24.05558,4399.2979],[-67.45218,-24.06964,4444.9692],[-67.46123,-24.07295,4514.5664],[-67.48123,-24.08008,4531.0469],[-67.50117,-24.08711,4215.5557],[-67.51027,-24.09041,4012.1355],[-67.63522,-24.14147,3571.344],[-67.76023,-24.19273,4249.833],[-67.88523,-24.24389,3728.8223],[-68.01024,-24.29505,4085.4329],[-68.06047,-24.31438,5273.3037],[-68.11064,-24.33381,4689.4233],[-68.16082,-24.35314,4374.5293],[-68.21105,-24.37246,4642.1748],[-68.24449,-24.38538,5608.0586],[-68.26242,-24.39675,5282.2417],[-68.26712,-24.40419,5115.606],[-68.27684,-24.43231,4149.1035],[-68.31404,-24.48729,4855.6812],[-68.32681,-24.49825,4485.3965],[-68.34489,-24.4998,4657.0049],[-68.36241,-24.49421,4972.4536],[-68.37983,-24.49111,4990.3926],[-68.39765,-24.50052,4840.0181],[-68.4377,-24.57969,4759.6211],[-68.44437,-24.61018,4727.522],[-68.4515,-24.6293,4998.4966],[-68.46282,-24.6233,4946.7021],[-68.48184,-24.59881,5359.9067],[-68.49553,-24.6018,5518.3892],[-68.5037,-24.61235,5003.3208],[-68.50804,-24.62682,4796.5288],[-68.51021,-24.64129,4564.5938],[-68.52132,-24.67529,5177.9893],[-68.57237,-24.76986,4810.9448],[-68.57857,-24.79166,4775.9888],[-68.57801,-24.80872,4563.7266],[-68.55516,-24.86215,4814.5435],[-68.55103,-24.86877,4847.667],[-68.54157,-24.87745,4765.5337],[-68.5176,-24.89006,4589.9111],[-68.51021,-24.89553,4638.5156],[-68.48995,-24.89584,4727.0952],[-68.4793,-24.89956,4782.6665],[-68.47305,-24.90794,4726.584],[-68.46571,-24.9221,4780.7983],[-68.46685,-24.92313,4804.8403],[-68.46861,-24.92695,4862.4966],[-68.46964,-24.93202,4733.04],[-68.46907,-24.93677,4609.7734],[-68.46514,-24.94142,4578.7827],[-68.45388,-24.94928,4540.082],[-68.45,-24.95393,4542.7578],[-68.44494,-24.96158,4574.4297],[-68.43982,-24.96757,4598.6011],[-68.43739,-24.97408,4643.0537],[-68.44013,-24.98369,4623.7368],[-68.44354,-25.02111,4767.3887],[-68.4205,-25.05118,4849.1143],[-68.38897,-25.07754,5011.0063],[-68.36737,-25.10338,5057.3652],[-68.36665,-25.12343,4850.0645],[-68.37921,-25.13676,4652.8496],[-68.39921,-25.14482,4607.3955],[-68.42075,-25.14875,4593.9707],[-68.44194,-25.14813,4413.4053],[-68.45837,-25.14492,4566.8252],[-68.47403,-25.14544,4722.6108],[-68.49305,-25.15588,5136.2158],[-68.49647,-25.16,5263.5493],[-68.48579,-25.16239,5139.2192],[-67.80686,-25.28321,4454.5801],[-66.60102,-25.2691,4280.7349],[-66.56836,-25.27003,4199.4902],[-66.56035,-25.27236,4275.3032],[-66.55511,-25.27546,4363.7017],[-66.55157,-25.27903,4442.23],[-66.54598,-25.28724,4431.6948],[-66.53746,-25.30533,4179.7993],[-66.53454,-25.31525,4155.2959],[-66.52464,-25.39121,4253.8066],[-66.52332,-25.39633,4252.2134],[-66.51984,-25.40584,4235.8828],[-66.51759,-25.41039,4232.5454],[-66.50322,-25.42966,4393.7231],[-66.48578,-25.44899,4392.1406],[-66.47459,-25.46553,4074.5571],[-66.47041,-25.47462,3661.988],[-66.46924,-25.47979,3508.7993],[-66.46945,-25.4878,3430.6621],[-66.471,-25.49813,3576.2573],[-66.49485,-25.57673,2799.9312],[-66.49565,-25.58572,2727.3445],[-66.49358,-25.59616,2788.2021],[-66.49338,-25.60174,2731.8105],[-66.49503,-25.60851,2709.8428],[-66.49873,-25.6159,2781.2585],[-66.5125,-25.63089,3136.8347],[-66.56128,-25.66308,3972.7832],[-66.57128,-25.66712,4165.437],[-66.57668,-25.66841,4067.1895],[-66.58826,-25.67011,3999.0833],[-66.62916,-25.6682,4849.833],[-66.67019,-25.67399,4368.0996],[-66.73538,-25.67399,4356.2588],[-66.74068,-25.67549,4362.1152],[-66.74571,-25.6774,4382.4863],[-66.75016,-25.68029,4312.1084],[-66.76923,-25.6975,4234.9351],[-66.78584,-25.70985,4306.6211],[-66.79057,-25.71233,4334.0083],[-66.79925,-25.71791,4374.2759],[-66.80682,-25.72504,4451.1016],[-66.80997,-25.73016,4503.1753],[-66.81253,-25.73646,4541.4424],[-66.81462,-25.74577,4563.2173],[-66.81695,-25.77191,4624.98],[-66.81584,-25.81248,4608.3872],[-66.80287,-25.8592,4745.3115],[-66.78173,-25.8949,4657.3203],[-66.69995,-26.00492,4410.9219],[-66.61936,-26.09686,4712.0889],[-66.6049,-26.14068,4569.3403],[-66.59665,-26.15262,4634.9497],[-66.57159,-26.17737,4851.2568],[-66.53327,-26.26,5013.5117],[-66.51482,-26.28268,4963.6621],[-66.44997,-26.34847,4219.0605],[-66.41979,-26.37668,4593.6924],[-66.41059,-26.38273,4621.1572],[-66.40519,-26.38531,4488.5693],[-66.39935,-26.38733,4406.6328],[-66.39302,-26.38857,4401.9414],[-66.38574,-26.38764,4508.0845],[-66.37804,-26.385,4544.626],[-66.36775,-26.37777,4640.0854],[-66.3623,-26.37203,4640.127],[-66.35845,-26.36614,4673.9478],[-66.31329,-26.26429,4667.2388],[-66.30158,-26.24563,4905.9189],[-66.29417,-26.23819,4943.957],[-66.28982,-26.23535,4773.1235],[-66.26241,-26.22191,4500.9507],[-66.24401,-26.18786,4829.1294],[-66.23536,-26.17814,4776.9385],[-66.22482,-26.17096,4755.4619],[-66.20905,-26.16574,4639.5781],[-66.19187,-26.16388,4395.0498],[-66.17384,-26.16553,4362.9199],[-66.15704,-26.16988,4354.8613],[-66.14384,-26.17809,4223.7148],[-66.12162,-26.20796,4269.5732],[-66.09632,-26.23323,4188.9775],[-66.05382,-26.25349,3505.0464],[-65.75911,-26.29958,2643.9902],[-65.72479,-26.30113,3194.9131],[-65.71901,-26.29901,3313.0278],[-65.71182,-26.2954,3469.8193],[-65.7079,-26.29064,3528.1194],[-65.70335,-26.28413,3263.4409],[-65.70033,-26.27834,2967.3364],[-65.69813,-26.27204,3067.9944],[-65.69699,-26.26584,3236.5012],[-65.69645,-26.25969,3249.1641],[-65.6996,-26.22625,3592.1724],[-65.69893,-26.21277,3349.79],[-65.69384,-26.19039,3480.4358],[-65.68578,-26.17034,3549.9861],[-65.68389,-26.15241,3447.915],[-65.68374,-26.11034,3579.4858],[-65.68221,-26.0966,3460.2454],[-65.67996,-26.08699,3178.5017],[-65.67655,-26.08228,3316.499],[-65.67214,-26.07815,3606.7327],[-65.66534,-26.07479,3368.5149],[-65.6587,-26.07458,3137.5107],[-65.65281,-26.07613,2901.5503],[-65.63222,-26.08668,2405.6672],[-65.62643,-26.089,2216.4177],[-65.57669,-26.1014,1435.8505],[-65.55346,-26.09949,1456.9562],[-65.5401,-26.0997,1240.9768],[-65.44207,-26.12006,969.603],[-65.42962,-26.11996,953.6313],[-65.42194,-26.11866,977.4366],[-65.4159,-26.11639,967.7177],[-65.36647,-26.0904,947.2457],[-65.33815,-26.07918,890.5541],[-65.32428,-26.07603,842.8618],[-65.31438,-26.07603,865.286],[-65.31012,-26.07918,859.572],[-65.30671,-26.08296,832.502],[-65.30371,-26.08699,828.2578],[-65.28973,-26.11189,809.7012],[-65.28136,-26.13773,804.2122],[-65.27531,-26.15138,796.0138],[-65.26728,-26.16357,793.1138],[-65.25281,-26.17236,808.3571],[-65.06194,-26.24207,1804.3451],[-65.04571,-26.23943,2032.8859],[-65.03608,-26.2368,1901.6042],[-65.01714,-26.24098,1510.4235],[-64.99995,-26.25318,1390.8398],[-64.96644,-26.26884,1419.7263],[-64.94572,-26.27411,1728.2614],[-64.9327,-26.27457,1367.3112],[-64.92443,-26.27405,1226.3986],[-64.91192,-26.27173,1130.0151],[-64.90136,-26.26832,1109.9525],[-64.89637,-26.26599,1082.2367],[-64.87906,-26.25483,1007.288],[-64.85929,-26.23721,908.2961],[-64.84924,-26.23215,865.6744],[-64.79777,-26.21618,796.0937],[-64.76736,-26.21137,711.2084],[-64.71336,-26.22357,590.5884],[-64.697,-26.22486,559.9696],[-64.48634,-26.22021,409.4381],[-64.47916,-26.18636,405.9914],[-64.47712,-26.18073,405.5733],[-64.441,-26.11779,467.3516],[-64.43358,-26.09779,518.7629],[-64.43221,-26.08848,520.7116],[-64.43219,-26.05712,576.3923],[-64.43066,-26.04456,546.6763],[-64.425,-26.02756,547.5087],[-64.2116,-25.60366,404.5138],[-64.19176,-25.57989,398.8802],[-64.15337,-25.58469,377.3302],[-63.96077,-25.6421,301.7244],[-63.95922,-25.64252,302.0105],[-63.92439,-25.65234,296.1427],[-63.39858,-25.65936,266.43],[-63.09188,-25.3013,253.4653],[-62.33438,-24.4029,188.8336],[-62.33921,-24.12065,195.3045],[-62.33883,-23.55624,203.593],[-62.34136,-22.47226,245.2861],[-62.34872,-22.47134,245.8611],[-62.36826,-22.46442,243.2464],[-62.43807,-22.41966,244.1275],[-62.45497,-22.40385,247.6768],[-62.46194,-22.38876,249.0395],[-62.47057,-22.38184,248.717],[-62.51073,-22.37016,253.5612],[-62.52339,-22.36489,252.3684],[-62.54762,-22.33533,255.2539],[-62.56468,-22.322,252.4477],[-62.58829,-22.31641,254.619],[-62.59961,-22.31517,255.827],[-62.61315,-22.31145,258.7696],[-62.62529,-22.30505,255.8048],[-62.63268,-22.29595,255.4987],[-62.63082,-22.28768,256.1029],[-62.62421,-22.2789,257.4335],[-62.62028,-22.26846,263.4036],[-62.62643,-22.25502,258.3179],[-62.61961,-22.25502,260.2313],[-62.62483,-22.24727,257.0137],[-62.63181,-22.24076,262.253],[-62.64038,-22.23621,260.4149],[-62.65036,-22.23446,267.204]]]}}