{"type": "Feature","bbox": [-68.5682,-26.3983,-62.3298,-21.9993],"geometry": {"type": "MultiPolygon","coordinates": [[[[-66.0854,-26.2111,4118.8994],[-66.0816,-26.2194,3859.1345],[-66.0724,-26.2247,3213.7629],[-66.0629,-26.2282,3060.7375],[-66.0448,-26.2309,2887.6987],[-66.041,-26.2347,3201.6382],[-66.0337,-26.2316,3117.917],[-65.9237,-26.2759,1642.4597],[-65.8339,-26.3081,1821.6704],[-65.7109,-26.3565,3558.4358],[-65.7041,-26.3397,3433.1155],[-65.7053,-26.3337,3469.8276],[-65.7145,-26.3214,3460.7671],[-65.7115,-26.3129,2959.239],[-65.7038,-26.303,3075.6057],[-65.7032,-26.2987,3391.1604],[-65.7126,-26.2852,3497.4312],[-65.7016,-26.2759,2971.686],[-65.7,-26.2694,3174.9265],[-65.701,-26.2578,3167.4961],[-65.6994,-26.2534,3034.6887],[-65.6911,-26.2463,3166.2678],[-65.6907,-26.2401,3159.2129],[-65.6985,-26.2276,3569.5935],[-65.6971,-26.2092,3117.7849],[-65.6887,-26.1955,3192.1497],[-65.6846,-26.1825,3469.3684],[-65.6831,-26.1682,3660.5413],[-65.6858,-26.1543,3529.4004],[-65.6845,-26.1429,3858.0215],[-65.6797,-26.1348,3510.175],[-65.6735,-26.1183,3065.9346],[-65.6259,-26.1184,1984.5593],[-65.617,-26.1229,1954.6296],[-65.6035,-26.1255,1868.1357],[-65.5957,-26.1242,1620.1909],[-65.5865,-26.1219,1624.7864],[-65.5896,-26.1151,1561.4495],[-65.5722,-26.1053,1424.6012],[-65.5643,-26.0975,1357.7736],[-65.5395,-26.0889,1207.7432],[-65.5205,-26.0921,1198.8757],[-65.5015,-26.0905,1059.2502],[-65.4905,-26.0932,1039.6855],[-65.4708,-26.1052,992.0931],[-65.4575,-26.1081,944.4891],[-65.4288,-26.1103,914.1443],[-65.4189,-26.1053,905.5941],[-65.4119,-26.0995,896.5706],[-65.3932,-26.0968,903.941],[-65.3849,-26.0922,904.6937],[-65.3747,-26.0894,941.4355],[-65.3589,-26.0799,911.1105],[-65.3441,-26.0735,892.0248],[-65.3199,-26.0739,850.626],[-65.2984,-26.0827,824.9874],[-65.2916,-26.0887,821.9026],[-65.2874,-26.1259,805.2136],[-65.2782,-26.147,802.2532],[-65.2744,-26.1674,788.5942],[-65.2706,-26.1779,778.2951],[-65.2624,-26.1931,779.7645],[-65.0419,-26.2417,2123.0725],[-65.0306,-26.2393,1741.1664],[-65.0118,-26.2444,1476.6934],[-64.983,-26.2354,1284.4915],[-64.9624,-26.2409,1346.4758],[-64.9569,-26.2488,1489.8446],[-64.9598,-26.2578,1465.5977],[-64.9603,-26.2672,1467.3511],[-64.954,-26.2814,1511.395],[-64.9448,-26.2829,1717.8253],[-64.9068,-26.2703,1096.8517],[-64.8994,-26.2657,1094.6321],[-64.8836,-26.2613,1019.1061],[-64.8717,-26.255,976.8245],[-64.8659,-26.2488,916.6788],[-64.8643,-26.2392,960.1133],[-64.8602,-26.2311,925.2],[-64.852,-26.2256,872.6042],[-64.8475,-26.2168,911.6167],[-64.8427,-26.2113,888.9069],[-64.8349,-26.2115,879.7126],[-64.8294,-26.2156,809.2313],[-64.8185,-26.2155,838.2342],[-64.7866,-26.2038,817.7883],[-64.7665,-26.2056,791.3345],[-64.7514,-26.2139,715.0829],[-64.7232,-26.224,592.4539],[-64.6569,-26.2265,516.6299],[-64.5895,-26.2142,470.2221],[-64.574,-26.2225,456.7761],[-64.5645,-26.2232,451.575],[-64.5537,-26.2232,440.8745],[-64.5328,-26.2193,442.1968],[-64.5044,-26.2201,418.9749],[-64.4981,-26.2243,415.1895],[-64.4935,-26.2335,408.1919],[-64.4728,-26.1844,409.5289],[-64.4291,-26.1048,513.3732],[-64.4536,-26.0739,671.8126],[-64.4108,-25.9976,444.6272],[-64.2873,-25.7202,453.0634],[-64.2134,-25.7315,384.6985],[-64.2063,-25.7488,379.8253],[-64.0444,-25.7623,307.6122],[-64.0427,-25.7435,309.3081],[-64.0344,-25.7144,304.1448],[-64.0323,-25.7014,304.3582],[-64.0292,-25.696,304.1174],[-64.0087,-25.7005,297.7626],[-63.9704,-25.7058,292.4158],[-63.9318,-25.7073,291.5323],[-63.8695,-25.7037,285.8663],[-63.8123,-25.7027,284.9214],[-63.7705,-25.698,282.5378],[-63.7353,-25.6975,283.2481],[-63.6693,-25.6888,279.5218],[-63.6451,-25.6927,276.9377],[-63.6017,-25.7058,273.7849],[-63.5914,-25.7076,271.0677],[-63.5281,-25.7092,268.4659],[-63.5,-25.7082,266.8383],[-63.4754,-25.7097,266.3467],[-63.4213,-25.6443,268.3863],[-63.0253,-25.1904,246.4442],[-62.3478,-24.3944,188.4149],[-62.3463,-24.318,190.3596],[-62.3476,-24.1396,190.5532],[-62.3459,-23.9962,194.6983],[-62.3446,-22.4616,241.7106],[-62.3314,-22.4658,242.9881],[-62.3306,-22.4676,242.4606],[-62.3298,-22.4655,242.1394],[-62.3308,-22.463,243.3789],[-62.3675,-22.4521,240.9899],[-62.3757,-22.4663,247.7629],[-62.3784,-22.467,246.9279],[-62.3837,-22.4552,248.3793],[-62.3895,-22.4499,248.117],[-62.4121,-22.4383,247.4574],[-62.4207,-22.4321,246.2594],[-62.425,-22.4221,244.1862],[-62.4309,-22.4138,249.4682],[-62.4378,-22.4135,248.6486],[-62.4456,-22.4165,246.0372],[-62.4524,-22.4157,243.75],[-62.4436,-22.4075,248.6865],[-62.4447,-22.4062,249.2194],[-62.4431,-22.4038,247.3553],[-62.4617,-22.4011,247.3603],[-62.4629,-22.389,249.0395],[-62.4569,-22.3759,251.7929],[-62.4575,-22.3665,248.6932],[-62.4626,-22.3639,253.5938],[-62.4718,-22.3676,254.2154],[-62.4853,-22.3781,250.8885],[-62.5173,-22.3736,253.5858],[-62.5308,-22.3669,252.5089],[-62.5348,-22.3488,253.2016],[-62.5451,-22.3439,251.4133],[-62.54,-22.3249,257.5508],[-62.5615,-22.3323,252.5592],[-62.5662,-22.3301,253.0004],[-62.5707,-22.3192,253.6971],[-62.5712,-22.3135,254.9074],[-62.575,-22.309,254.9596],[-62.5797,-22.3084,253.4645],[-62.5908,-22.3174,254.5838],[-62.5953,-22.316,255.2081],[-62.6052,-22.305,254.0792],[-62.6172,-22.3,256.259],[-62.6257,-22.3039,256.2693],[-62.6357,-22.3014,258.0325],[-62.6358,-22.2973,257.8244],[-62.6218,-22.2824,261.4038],[-62.6213,-22.2797,261.3207],[-62.6216,-22.2753,260.9726],[-62.6355,-22.2667,261.8719],[-62.6355,-22.2648,261.7949],[-62.6295,-22.2576,257.0051],[-62.6289,-22.2461,260.4426],[-62.6379,-22.2429,260.4498],[-62.6424,-22.2429,261.8493],[-62.6439,-22.2466,260.0768],[-62.6514,-22.2524,260.6885],[-62.6576,-22.2502,260.7908],[-62.6655,-22.2447,260.9922],[-62.6794,-22.2269,263.1779],[-62.6838,-22.2169,262.9353],[-62.6878,-22.2044,262.8614],[-62.6897,-22.1922,260.7158],[-62.691,-22.1911,261.6718],[-62.6969,-22.1954,262.7851],[-62.7094,-22.2112,261.5],[-62.7204,-22.2108,263.2643],[-62.7229,-22.2069,262.0],[-62.7272,-22.1861,266.4487],[-62.7363,-22.17,266.205],[-62.7555,-22.1527,268.4274],[-62.7594,-22.1519,267.3996],[-62.7628,-22.1528,268.3503],[-62.7678,-22.1575,269.1417],[-62.7761,-22.173,268.4984],[-62.7803,-22.1748,269.0144],[-62.7841,-22.1732,268.1012],[-62.7903,-22.1593,268.0911],[-62.8003,-22.1462,270.3621],[-62.8071,-22.1402,271.3072],[-62.8136,-22.1299,271.8847],[-62.8107,-22.1155,273.7874],[-62.8065,-22.1095,273.5707],[-62.8116,-22.0988,272.0],[-62.8109,-22.0908,274.0781],[-62.7998,-22.0707,275.8094],[-62.7931,-22.064,273.7668],[-62.7963,-22.059,275.3994],[-62.8126,-22.0531,274.5],[-62.8147,-22.0471,276.8506],[-62.8142,-22.0415,276.9565],[-62.817,-22.0335,278.4385],[-62.8087,-22.0275,277.4777],[-62.8012,-22.0161,282.5931],[-62.8015,-22.0068,279.1924],[-62.8048,-22.0022,279.587],[-62.8077,-22.0039,278.0],[-63.6671,-22.0035,625.0364],[-63.6703,-22.0132,615.6295],[-63.6674,-22.0151,614.3433],[-63.6678,-22.0185,607.0214],[-63.6712,-22.0229,608.7008],[-63.6698,-22.0277,606.4329],[-63.6735,-22.0304,597.0306],[-63.675,-22.0364,586.8213],[-63.6763,-22.0367,593.103],[-63.6741,-22.0386,585.8844],[-63.6744,-22.0405,582.906],[-63.6786,-22.0429,589.4739],[-63.6766,-22.0453,580.4681],[-63.68,-22.0485,581.2416],[-63.6784,-22.0511,571.0468],[-63.6836,-22.0548,568.9359],[-63.6837,-22.0471,581.2946],[-63.6866,-22.0404,596.0856],[-63.6847,-22.0408,590.5634],[-63.6868,-22.0394,598.3128],[-63.6846,-22.033,599.7562],[-63.6817,-22.0315,604.0434],[-63.6831,-22.0307,605.6281],[-63.6824,-22.0293,606.9736],[-63.6877,-22.0259,618.8316],[-63.6889,-22.0117,663.0178],[-63.6968,-22.0152,733.6952],[-63.6982,-22.0135,693.2148],[-63.7025,-22.0159,710.3632],[-63.707,-22.0122,797.3784],[-63.7063,-22.0095,771.4573],[-63.7099,-22.0037,874.2163],[-63.7177,-21.9995,1132.3225],[-63.9308,-21.9993,699.3626],[-63.9384,-22.0069,651.6658],[-63.9379,-22.0114,663.3607],[-63.9408,-22.0088,653.9998],[-63.9445,-22.0099,660.8517],[-63.9436,-22.0121,678.3005],[-63.9378,-22.0156,658.1116],[-63.9452,-22.0248,641.2002],[-63.9416,-22.0303,637.8129],[-63.9467,-22.0363,639.3014],[-63.9535,-22.0368,634.6781],[-63.9496,-22.0431,631.9402],[-63.9555,-22.0461,634.1703],[-63.95,-22.0501,627.9865],[-63.9551,-22.0527,639.22],[-63.9566,-22.0574,628.1249],[-63.954,-22.0577,624.8099],[-63.9511,-22.0556,624.5549],[-63.9497,-22.0572,625.983],[-63.9516,-22.0594,632.3908],[-63.9606,-22.0631,626.5564],[-63.9624,-22.0656,632.861],[-63.9573,-22.0677,644.0947],[-63.9602,-22.0772,633.4669],[-63.9575,-22.081,652.5531],[-63.9619,-22.0837,615.4273],[-63.9613,-22.0848,622.6735],[-63.9581,-22.0841,613.528],[-63.9582,-22.0861,614.7752],[-63.9607,-22.0871,619.0403],[-63.9632,-22.0923,618.3173],[-63.9663,-22.0926,607.7744],[-63.9703,-22.0885,611.0977],[-63.9745,-22.0872,620.7207],[-63.975,-22.0803,609.6896],[-63.9798,-22.0809,608.3521],[-63.9828,-22.0863,617.4458],[-63.9773,-22.0859,598.9671],[-63.9768,-22.092,597.422],[-63.9781,-22.0931,609.2407],[-63.9801,-22.0912,604.2712],[-63.9865,-22.0936,599.9097],[-63.9909,-22.104,590.4044],[-63.9901,-22.1051,588.3459],[-63.9862,-22.1044,625.0729],[-63.9859,-22.109,592.53],[-63.9888,-22.1097,607.3851],[-63.9898,-22.1066,585.0522],[-63.9928,-22.1051,583.9707],[-64.0001,-22.1076,620.3629],[-63.9976,-22.1107,581.5693],[-63.9927,-22.1083,594.1879],[-63.9932,-22.1139,587.5748],[-63.9894,-22.1143,595.4918],[-63.99,-22.1178,577.1819],[-63.9956,-22.1205,575.3231],[-63.9985,-22.1247,568.7243],[-63.9975,-22.129,565.2124],[-63.9937,-22.1302,563.8083],[-63.9925,-22.133,603.6857],[-63.996,-22.1333,563.9189],[-63.9995,-22.1382,579.0281],[-63.9969,-22.142,561.3599],[-64.005,-22.1533,574.8272],[-64.0004,-22.1564,551.5361],[-64.0006,-22.158,551.8603],[-64.0037,-22.1607,554.5325],[-64.0069,-22.1606,550.5213],[-64.0094,-22.166,550.9056],[-64.0168,-22.1679,546.3604],[-64.0238,-22.1766,542.791],[-64.0166,-22.1873,558.9156],[-64.0257,-22.1882,532.9331],[-64.0331,-22.1965,529.6372],[-64.0323,-22.2027,527.6267],[-64.0258,-22.21,534.9969],[-64.0312,-22.2182,526.2221],[-64.039,-22.2214,534.1648],[-64.0383,-22.2259,548.5474],[-64.032,-22.2274,516.1213],[-64.0322,-22.2346,516.6975],[-64.0398,-22.235,518.1932],[-64.0391,-22.238,519.1082],[-64.0334,-22.2393,521.4926],[-64.0333,-22.2424,530.9507],[-64.0357,-22.2435,527.2072],[-64.0422,-22.2418,513.6128],[-64.0429,-22.244,509.4817],[-64.0395,-22.245,509.4486],[-64.0426,-22.2474,508.2742],[-64.0511,-22.2446,506.4043],[-64.0563,-22.2457,506.1539],[-64.058,-22.2379,518.0421],[-64.0618,-22.2379,527.0859],[-64.0738,-22.2592,499.8748],[-64.0733,-22.2672,492.6438],[-64.0765,-22.2746,489.1668],[-64.0734,-22.2767,487.8157],[-64.0739,-22.2807,487.0538],[-64.075,-22.2829,485.1433],[-64.0775,-22.2836,484.6057],[-64.0796,-22.2775,492.1279],[-64.082,-22.2783,498.9763],[-64.0806,-22.282,488.7429],[-64.0813,-22.285,484.4182],[-64.0915,-22.3004,482.205],[-64.0909,-22.3035,476.2602],[-64.086,-22.3046,476.9941],[-64.0859,-22.3097,481.2534],[-64.0947,-22.3135,475.5736],[-64.0985,-22.317,472.0463],[-64.0974,-22.3187,473.1577],[-64.0927,-22.3174,477.9321],[-64.0903,-22.3189,474.9579],[-64.0922,-22.324,476.372],[-64.0998,-22.3262,494.2189],[-64.1018,-22.329,478.2257],[-64.0993,-22.3352,464.3455],[-64.1035,-22.3368,471.5666],[-64.0991,-22.3381,466.2953],[-64.0981,-22.343,480.3108],[-64.1041,-22.3554,459.6843],[-64.1171,-22.3643,456.7492],[-64.1166,-22.3677,486.701],[-64.1086,-22.3818,454.7171],[-64.1121,-22.3842,451.8789],[-64.1172,-22.3818,452.4519],[-64.1199,-22.3821,451.7244],[-64.1208,-22.3843,456.4492],[-64.1195,-22.3941,449.4528],[-64.1161,-22.4035,470.0555],[-64.1167,-22.4071,447.7099],[-64.1214,-22.4084,447.0162],[-64.1334,-22.4067,447.6342],[-64.1426,-22.4117,442.7494],[-64.1446,-22.4162,441.2408],[-64.1384,-22.4271,438.4012],[-64.1387,-22.4306,435.4993],[-64.1421,-22.4333,436.4564],[-64.1506,-22.4361,434.6465],[-64.1544,-22.4525,434.4944],[-64.1609,-22.4546,427.2943],[-64.1618,-22.4673,435.7054],[-64.1664,-22.47,431.4587],[-64.1738,-22.4664,431.1343],[-64.1832,-22.4732,422.2575],[-64.1868,-22.4798,438.9802],[-64.1876,-22.4887,419.4741],[-64.1901,-22.4916,424.3367],[-64.1977,-22.4896,422.0266],[-64.2074,-22.5057,414.561],[-64.214,-22.5259,412.1694],[-64.2163,-22.5435,411.9217],[-64.2274,-22.5432,408.4283],[-64.2308,-22.5574,408.6781],[-64.2398,-22.5554,418.8927],[-64.2428,-22.5639,402.8911],[-64.2441,-22.58,397.2812],[-64.2432,-22.5986,397.623],[-64.2379,-22.6087,398.3444],[-64.2389,-22.6206,399.4574],[-64.2412,-22.6274,393.6682],[-64.2476,-22.6329,393.2673],[-64.2561,-22.6283,391.8358],[-64.2645,-22.65,385.6001],[-64.2422,-22.6653,387.4886],[-64.2444,-22.6706,387.3701],[-64.2572,-22.6721,384.2061],[-64.2612,-22.6763,385.2197],[-64.2616,-22.6872,379.7489],[-64.2648,-22.696,378.1831],[-64.2639,-22.7009,381.1051],[-64.2711,-22.7083,376.1447],[-64.2717,-22.7164,377.7274],[-64.2673,-22.728,374.5618],[-64.2707,-22.7343,373.6471],[-64.2701,-22.737,370.4395],[-64.269,-22.7395,370.7561],[-64.2641,-22.7408,369.8874],[-64.2679,-22.7444,374.5557],[-64.2752,-22.7446,373.3162],[-64.2814,-22.7475,372.5847],[-64.2835,-22.752,372.4193],[-64.2788,-22.7552,371.885],[-64.2674,-22.7577,372.9308],[-64.2651,-22.7641,372.0898],[-64.2676,-22.7701,369.8532],[-64.2776,-22.7784,366.3362],[-64.2785,-22.7838,372.9415],[-64.2757,-22.7888,370.7252],[-64.2769,-22.7912,367.8749],[-64.2851,-22.7953,363.3676],[-64.2863,-22.808,363.5394],[-64.2845,-22.8298,356.3975],[-64.2878,-22.8361,354.6922],[-64.305,-22.8378,359.4747],[-64.3066,-22.840699999999998,356.8782],[-64.2981,-22.8529,354.144],[-64.2981,-22.8622,347.9853],[-64.3073,-22.8619,352.3175],[-64.3095,-22.8645,350.8915],[-64.3116,-22.882,348.2487],[-64.3157,-22.8828,345.1407],[-64.3172,-22.8813,344.6183],[-64.3128,-22.8721,346.7145],[-64.3148,-22.8671,351.7639],[-64.3205,-22.8684,351.5749],[-64.3245,-22.8742,351.7994],[-64.3281,-22.8722,352.1595],[-64.3344,-22.8741,353.588],[-64.3388,-22.8682,349.5157],[-64.3398,-22.8639,350.1255],[-64.3407,-22.8583,349.0911],[-64.3377,-22.8557,350.1795],[-64.3314,-22.8631,353.407],[-64.3286,-22.8625,353.5481],[-64.3268,-22.8365,359.1232],[-64.3287,-22.8312,358.3521],[-64.3306,-22.8121,364.014],[-64.3343,-22.808,365.0307],[-64.3422,-22.8066,373.6837],[-64.3442,-22.7935,376.8156],[-64.3397,-22.7851,379.1969],[-64.3383,-22.778,380.4268],[-64.3393,-22.7684,387.1897],[-64.3422,-22.7641,387.342],[-64.3407,-22.7524,392.8689],[-64.3417,-22.7493,390.97],[-64.3491,-22.7388,398.4213],[-64.3525,-22.7309,403.2152],[-64.3612,-22.7243,403.0618],[-64.3651,-22.7238,402.0403],[-64.3724,-22.7274,405.73],[-64.374,-22.7212,409.9909],[-64.3812,-22.7174,421.0115],[-64.3848,-22.7177,416.7362],[-64.3892,-22.7225,419.5572],[-64.3917,-22.7222,415.0111],[-64.3948,-22.7186,418.7153],[-64.3982,-22.7202,421.9849],[-64.403,-22.7194,421.9812],[-64.4016,-22.7153,433.2638],[-64.3914,-22.7126,431.5994],[-64.3922,-22.7102,427.9497],[-64.3974,-22.7101,428.6315],[-64.3974,-22.7063,445.1318],[-64.4009,-22.6974,435.7499],[-64.3946,-22.6902,438.3513],[-64.3944,-22.6881,437.5513],[-64.3981,-22.6833,440.5326],[-64.4155,-22.679,457.8339],[-64.4186,-22.6708,463.7103],[-64.4145,-22.657,480.5152],[-64.4312,-22.651,464.5828],[-64.4338,-22.6484,474.3618],[-64.4352,-22.6424,467.4217],[-64.4423,-22.638,479.3884],[-64.4402,-22.6355,470.6937],[-64.4351,-22.6346,475.7277],[-64.4272,-22.639,482.0131],[-64.4239,-22.6353,477.5329],[-64.4251,-22.6296,481.3663],[-64.4322,-22.6328,486.3081],[-64.4339,-22.6311,495.1177],[-64.4329,-22.6281,508.1837],[-64.4348,-22.6232,483.0129],[-64.4289,-22.6171,497.5271],[-64.4289,-22.6079,490.7198],[-64.426,-22.6039,498.9913],[-64.4297,-22.5985,493.9569],[-64.425,-22.5886,512.7415],[-64.425,-22.5871,505.0472],[-64.429,-22.5862,501.7271],[-64.4318,-22.5814,503.3112],[-64.4302,-22.5787,505.3653],[-64.4233,-22.5782,507.485],[-64.4171,-22.5748,510.7104],[-64.4101,-22.5631,514.3673],[-64.4099,-22.558,516.3456],[-64.4152,-22.5561,523.3702],[-64.4173,-22.5528,521.1896],[-64.4164,-22.5494,524.3126],[-64.4121,-22.544,527.0804],[-64.4129,-22.5382,530.0759],[-64.4168,-22.5349,531.2834],[-64.4226,-22.5338,532.9059],[-64.4311,-22.5217,539.8771],[-64.4446,-22.5219,546.3231],[-64.4508,-22.5188,548.9215],[-64.4514,-22.5139,552.1844],[-64.4456,-22.5087,563.8027],[-64.446,-22.5049,557.3448],[-64.4489,-22.5035,561.2485],[-64.4552,-22.5042,634.0541],[-64.4588,-22.5021,570.5184],[-64.4586,-22.4953,577.7532],[-64.4609,-22.491,632.5157],[-64.4687,-22.4924,591.2371],[-64.4691,-22.4875,606.3395],[-64.4754,-22.4888,579.1587],[-64.4771,-22.4823,589.3182],[-64.483,-22.4805,598.5924],[-64.4841,-22.476,592.6238],[-64.4821,-22.472,590.8073],[-64.4748,-22.469,594.175],[-64.4791,-22.4619,597.1156],[-64.4887,-22.4575,600.6431],[-64.4899,-22.4418,611.7961],[-64.4921,-22.4366,616.8567],[-64.4951,-22.4351,615.694],[-64.4995,-22.4397,643.1738],[-64.5146,-22.4459,628.5948],[-64.521,-22.4449,630.9717],[-64.5251,-22.4412,640.3484],[-64.5219,-22.4326,642.7007],[-64.5172,-22.4284,646.8827],[-64.5132,-22.4218,650.3182],[-64.5129,-22.4156,654.9388],[-64.533,-22.3977,677.944],[-64.55,-22.3888,695.3315],[-64.5586,-22.3821,704.3301],[-64.5638,-22.3763,712.2408],[-64.5668,-22.368,720.64],[-64.5634,-22.3608,730.5426],[-64.5646,-22.3561,741.7762],[-64.5613,-22.3521,737.6144],[-64.5617,-22.3502,739.2942],[-64.5649,-22.3483,754.1381],[-64.5647,-22.343,779.7538],[-64.5666,-22.3389,753.8111],[-64.5636,-22.3259,769.2399],[-64.5592,-22.3194,776.3308],[-64.5476,-22.3168,789.813],[-64.5376,-22.2967,847.1818],[-64.5359,-22.29,827.8573],[-64.5366,-22.2856,833.9466],[-64.5376,-22.2832,837.6824],[-64.5807,-22.25,922.5332],[-64.5925,-22.2473,992.7169],[-64.595,-22.2422,983.6383],[-64.5973,-22.2428,966.7332],[-64.602,-22.227,1026.8574],[-64.608,-22.2204,1084.6362],[-64.6138,-22.2174,1053.2888],[-64.6138,-22.2151,1080.948],[-64.617,-22.2126,1114.8295],[-64.6166,-22.2056,1109.4852],[-64.6194,-22.2049,1081.2622],[-64.6236,-22.2086,1158.4033],[-64.6267,-22.203,1133.8022],[-64.6358,-22.2002,1137.9243],[-64.6382,-22.1945,1131.173],[-64.6509,-22.1897,1149.0752],[-64.6599,-22.1955,1149.5212],[-64.6751,-22.1885,1171.7505],[-64.6867,-22.1871,1201.5613],[-64.6973,-22.1889,1224.2698],[-64.6998,-22.1907,1220.4641],[-64.7099,-22.1891,1250.5201],[-64.7132,-22.1924,1261.3335],[-64.7219,-22.1966,1358.0181],[-64.7234,-22.195,1344.1389],[-64.7369,-22.1942,1399.4824],[-64.7452,-22.1888,1451.6873],[-64.746,-22.1826,1549.4146],[-64.7495,-22.182,1598.9982],[-64.7526,-22.1791,1571.8828],[-64.7565,-22.1794,1658.4625],[-64.758,-22.1812,1594.1921],[-64.7645,-22.1773,1646.0017],[-64.7664,-22.1789,1684.1212],[-64.7698,-22.1776,1704.4359],[-64.7744,-22.1783,1817.5776],[-64.7768,-22.1764,1769.9255],[-64.7779,-22.1779,1769.9255],[-64.7823,-22.175,1828.5642],[-64.7868,-22.1685,1910.2373],[-64.789,-22.1684,2008.0581],[-64.7905,-22.1644,2017.6223],[-64.7936,-22.1649,2058.687],[-64.7949,-22.1629,1948.1731],[-64.7934,-22.1612,2011.3075],[-64.7959,-22.1609,2001.4861],[-64.7968,-22.1624,1991.3752],[-64.7978,-22.1602,1972.3101],[-64.8043,-22.158,2081.9321],[-64.8049,-22.156,2060.0208],[-64.8077,-22.1561,2054.8208],[-64.8105,-22.1527,2072.9236],[-64.8127,-22.1533,2101.1086],[-64.8123,-22.1512,2095.7183],[-64.8178,-22.1484,2072.4595],[-64.819,-22.1448,2183.4336],[-64.8201,-22.1457,2245.5647],[-64.8304,-22.1415,2128.6372],[-64.8323,-22.1442,2136.7649],[-64.8358,-22.1393,2246.7429],[-64.8403,-22.1393,2156.6794],[-64.8449,-22.1342,2200.113],[-64.8488,-22.1333,2276.533],[-64.8494,-22.1316,2201.8396],[-64.8618,-22.1249,2318.5708],[-64.8618,-22.1224,2244.3628],[-64.8679,-22.1233,2268.3145],[-64.8674,-22.1221,2243.853],[-64.869,-22.1225,2243.853],[-64.8744,-22.1174,2270.7217],[-64.8787,-22.1174,2267.9634],[-64.8807,-22.1212,2348.6418],[-64.8798,-22.1225,2302.6831],[-64.8816,-22.1225,2302.6831],[-64.8867,-22.1294,2322.1912],[-64.893,-22.1238,2357.9241],[-64.8966,-22.124,2371.0591],[-64.9028,-22.1196,2411.4707],[-64.924,-22.1211,2534.0366],[-64.9266,-22.1184,2544.0488],[-64.9353,-22.1163,2676.8765],[-64.9383,-22.1098,2656.5649],[-64.9452,-22.11,2769.75],[-64.9478,-22.1077,2802.6499],[-64.9534,-22.1072,2868.823],[-64.9532,-22.1054,2890.2485],[-64.9571,-22.1027,2938.5752],[-64.9598,-22.1025,2936.1577],[-64.9615,-22.1045,2954.2988],[-64.9639,-22.103,2986.2192],[-64.9687,-22.1041,3061.4128],[-64.971,-22.1001,3081.5027],[-64.9814,-22.0979,3341.0352],[-64.9844,-22.0944,3521.0369],[-64.9872,-22.0941,3602.3723],[-64.9887,-22.089,3847.4568],[-64.9926,-22.087,3958.7507],[-64.9943,-22.084,4123.7476],[-65.0525,-22.0833,4429.0518],[-65.1853,-22.0854,4383.5742],[-65.1976,-22.1082,4535.9932],[-65.1952,-22.1242,4568.0488],[-65.1955,-22.1404,4958.4795],[-65.1982,-22.1451,4856.9102],[-65.203,-22.1482,4684.6665],[-65.2139,-22.1523,4734.5581],[-65.2176,-22.1562,4710.2378],[-65.2252,-22.171,4678.1348],[-65.2268,-22.191,4695.8779],[-65.2436,-22.2809,4671.6816],[-65.243,-22.2916,4753.5225],[-65.2377,-22.3126,4545.5811],[-65.239,-22.3179,4626.2915],[-65.2475,-22.3321,4770.4209],[-65.2691,-22.3498,4643.0542],[-65.2684,-22.3555,4792.436],[-65.2714,-22.3592,4695.3203],[-65.2812,-22.3652,4550.5117],[-65.2887,-22.3734,4438.4482],[-65.2927,-22.3834,4298.4229],[-65.2926,-22.3888,4345.9956],[-65.2893,-22.3927,4436.4854],[-65.2928,-22.413,4523.8687],[-65.3057,-22.4215,4432.79],[-65.308,-22.4376,4374.7432],[-65.316,-22.4636,4515.8965],[-65.3338,-22.485,4418.9888],[-65.3388,-22.4948,4509.8594],[-65.3406,-22.5109,4807.7646],[-65.3325,-22.5369,4471.959],[-65.3325,-22.5422,4486.7803],[-65.3335,-22.5585,4004.7979],[-65.3396,-22.5903,4456.9409],[-65.3368,-22.5952,4500.4941],[-65.3321,-22.5982,4583.5674],[-65.3092,-22.6011,4677.6611],[-65.302,-22.6096,4461.7388],[-65.3001,-22.6202,4541.7046],[-65.2973,-22.6251,4617.8574],[-65.269,-22.6303,4657.6621],[-65.2664,-22.6348,4810.4985],[-65.2671,-22.651,4717.543],[-65.2819,-22.6743,4593.4199],[-65.2895,-22.6948,4350.1846],[-65.2899,-22.7327,4378.3906],[-65.2853,-22.7483,4222.0825],[-65.2664,-22.7884,4142.0576],[-65.2652,-22.8096,3899.0408],[-65.2683,-22.831,4009.6782],[-65.2666,-22.8363,3983.186],[-65.2606,-22.8453,3931.6116],[-65.2499,-22.8499,3745.9202],[-65.2467,-22.8545,3828.8809],[-65.25,-22.8644,3657.345],[-65.2499,-22.8699,3681.948],[-65.244,-22.8793,3786.4993],[-65.2425,-22.8888,3772.7231],[-65.2398,-22.8881,3735.6763],[-65.2418,-22.8975,3798.5315],[-65.2428,-22.9301,4031.374],[-65.2401,-22.9347,4134.8496],[-65.2225,-22.9564,4432.3877],[-65.1786,-22.9834,4621.4307],[-65.1554,-22.9836,4443.168],[-65.1382,-22.9866,4366.209],[-65.1033,-22.9862,3650.4351],[-65.0697,-22.9952,3869.75],[-65.0403,-22.9928,3532.8208],[-65.0349,-22.9939,3822.1628],[-65.0199,-23.0107,4532.2397],[-65.0078,-23.0292,3960.5222],[-65.0054,-23.0397,4012.917],[-65.0079,-23.0559,3527.585],[-65.0054,-23.0774,3213.063],[-65.007,-23.1044,3485.1526],[-65.0131,-23.1308,3507.731],[-65.0116,-23.1524,3786.5449],[-65.0188,-23.1672,4058.657],[-65.0198,-23.1725,4294.106],[-65.0181,-23.1886,3847.7319],[-65.0186,-23.1995,3739.5691],[-65.0311,-23.2239,4367.8467],[-65.0362,-23.2395,4503.2339],[-65.029,-23.2769,4387.7271],[-65.0262,-23.2817,4382.6182],[-65.0095,-23.2863,4499.5361],[-64.984,-23.2997,3541.0674],[-64.9574,-23.321,3681.7507],[-64.9496,-23.3291,3405.4949],[-64.9466,-23.3338,3209.3716],[-64.9388,-23.3598,3235.3599],[-64.9231,-23.3759,2774.3076],[-64.9179,-23.3855,2301.5225],[-64.9121,-23.401,2778.5071],[-64.9093,-23.4221,2608.583],[-64.902,-23.4308,3108.6467],[-64.8857,-23.4372,2462.0146],[-64.8823,-23.4412,2604.5093],[-64.8812,-23.4521,2408.7881],[-64.888,-23.4672,2193.2629],[-64.8881,-23.4724,2153.7515],[-64.8738,-23.4964,2549.3142],[-64.8704,-23.5011,2221.9377],[-64.866,-23.5026,2380.998],[-64.8544,-23.4983,2542.7051],[-64.8488,-23.498,2746.2285],[-64.8283,-23.5088,2397.8447],[-64.8228,-23.5104,2106.0684],[-64.811,-23.5103,2051.5234],[-64.8005,-23.506,2051.208],[-64.7794,-23.4873,1676.0103],[-64.7674,-23.4868,1647.9839],[-64.7623,-23.4846,1837.8823],[-64.7541,-23.4767,1374.3085],[-64.7489,-23.4741,1529.5111],[-64.7261,-23.4692,1351.0159],[-64.7087,-23.4683,1158.4155],[-64.6979,-23.4639,1054.499],[-64.6807,-23.462,995.2359],[-64.6758,-23.459,867.1626],[-64.67,-23.4581,883.0674],[-64.6611,-23.465,863.4397],[-64.6453,-23.481,862.4615],[-64.6352,-23.4862,706.2288],[-64.6024,-23.4981,628.9633],[-64.5822,-23.5093,591.9661],[-64.5538,-23.516,517.1714],[-64.5493,-23.5189,504.1387],[-64.516,-23.549,451.5572],[-64.4999,-23.5719,401.3816],[-64.4942,-23.5751,390.688],[-64.4888,-23.5848,376.7888],[-64.4844,-23.5877,376.1997],[-64.4832,-23.5826,378.8426],[-64.4777,-23.5843,374.3503],[-64.4747,-23.5887,368.3084],[-64.4639,-23.5931,364.3529],[-64.4622,-23.5978,360.3192],[-64.4644,-23.6028,356.0855],[-64.4622,-23.6187,349.9376],[-64.4593,-23.623,346.0361],[-64.4499,-23.6292,344.7227],[-64.4487,-23.6345,340.4324],[-64.4438,-23.6349,341.6194],[-64.4405,-23.63,343.7693],[-64.4226,-23.616,350.4427],[-64.4155,-23.6074,351.8063],[-64.4065,-23.5873,343.7755],[-64.4001,-23.5555,351.1438],[-64.3975,-23.5506,345.0342],[-64.3943,-23.5461,345.4911],[-64.3815,-23.535,325.4847],[-64.3702,-23.5162,350.5731],[-64.356,-23.5066,343.7108],[-64.2384,-23.5055,316.7037],[-64.1735,-23.507,307.5836],[-64.1728,-23.9991,577.9801],[-64.1758,-24.0569,858.6053],[-64.1749,-24.0911,859.3607],[-64.1761,-24.1168,750.0931],[-64.174,-24.128,764.443],[-64.1666,-24.1437,773.3264],[-64.1663,-24.1779,892.2802],[-64.1554,-24.1985,648.8392],[-64.1557,-24.2069,837.9099],[-64.1592,-24.218,773.8927],[-64.1732,-24.2368,624.4199],[-64.1754,-24.2451,837.5887],[-64.1762,-24.2593,868.0019],[-64.1926,-24.2933,806.4598],[-64.1999,-24.3024,722.4561],[-64.2292,-24.3237,772.0325],[-64.2416,-24.3365,901.0577],[-64.2476,-24.3465,870.8691],[-64.2508,-24.3576,1020.9648],[-64.2594,-24.376,762.199],[-64.2754,-24.3934,934.1835],[-64.2767,-24.4076,806.0963],[-64.2796,-24.4128,819.9467],[-64.3035,-24.4183,940.326],[-64.3178,-24.4242,913.0604],[-64.3251,-24.4296,1043.7256],[-64.3339,-24.4324,1088.0769],[-64.3708,-24.4271,1456.204],[-64.4014,-24.4318,1473.4961],[-64.4151,-24.4388,1881.5433],[-64.4313,-24.4515,2260.0581],[-64.4399,-24.4603,2044.3715],[-64.4527,-24.4799,2049.3455],[-64.4734,-24.4924,1658.9709],[-64.4797,-24.4937,1496.2428],[-64.491,-24.4913,1782.4753],[-64.513,-24.4949,2016.9106],[-64.5278,-24.4927,2033.8228],[-64.5368,-24.507,2079.8359],[-64.5548,-24.5291,1897.0286],[-64.5613,-24.5415,1575.0848],[-64.5657,-24.5454,1748.9771],[-64.5762,-24.5504,1444.2299],[-64.5939,-24.5691,1640.083],[-64.6118,-24.5912,1439.7699],[-64.6194,-24.6031,1703.6659],[-64.6241,-24.6066,1895.5896],[-64.6358,-24.6093,1616.3578],[-64.6438,-24.6055,1642.4613],[-64.6601,-24.6127,1376.0225],[-64.6622,-24.6114,1252.8428],[-64.6691,-24.6057,1081.6863],[-64.6817,-24.5873,879.4453],[-64.6921,-24.5774,866.2003],[-64.6979,-24.576,791.5184],[-64.7105,-24.5685,793.5423],[-64.7185,-24.5508,702.6151],[-64.7372,-24.5329,644.4207],[-64.7467,-24.5262,625.9225],[-64.8286,-24.4815,541.1534],[-64.8321,-24.4777,534.1755],[-64.836,-24.4831,539.035],[-64.8373,-24.4883,541.2365],[-64.8429,-24.4903,541.049],[-64.8464,-24.497,544.8637],[-64.8595,-24.5036,548.124],[-64.8693,-24.5232,570.3657],[-64.8731,-24.5421,562.9559],[-64.8812,-24.563,575.324],[-64.8765,-24.5698,579.6968],[-64.8776,-24.5807,592.7],[-64.8934,-24.601,599.1124],[-64.8984,-24.6035,593.0804],[-64.9105,-24.6044,598.5549],[-64.9314,-24.6013,599.5732],[-64.9918,-24.5842,649.2758],[-65.0128,-24.5831,663.283],[-65.0392,-24.5775,687.9716],[-65.079,-24.5649,737.5597],[-65.0867,-24.5602,747.1257],[-65.0854,-24.547,761.2559],[-65.0919,-24.5316,783.5632],[-65.0995,-24.523,800.2901],[-65.1232,-24.506,852.2299],[-65.1346,-24.5026,865.5212],[-65.1545,-24.4785,917.5983],[-65.1854,-24.461,980.5151],[-65.188,-24.4603,981.1786],[-65.2197,-24.4763,1186.7418],[-65.2297,-24.4862,1344.3],[-65.2388,-24.4862,1293.3108],[-65.2503,-24.4892,1249.3187],[-65.2635,-24.4959,1129.6311],[-65.2753,-24.5043,1386.73],[-65.2903,-24.505,1337.2611],[-65.3131,-24.4981,1449.6432],[-65.3251,-24.4989,1593.9785],[-65.3336,-24.5018,1542.3914],[-65.3418,-24.4987,1805.0527],[-65.3571,-24.4854,1722.1344],[-65.3484,-24.4749,1845.7688],[-65.3493,-24.4695,1865.8635],[-65.3514,-24.4675,1780.963],[-65.3568,-24.4649,1743.5669],[-65.3774,-24.4681,1554.6521],[-65.3922,-24.4658,1687.7377],[-65.4011,-24.4674,1795.4436],[-65.4088,-24.4714,1993.62],[-65.4267,-24.4704,2332.1182],[-65.4471,-24.4545,2461.636],[-65.4485,-24.4521,2520.4722],[-65.4498,-24.4357,2554.4961],[-65.454,-24.4318,2661.1887],[-65.4689,-24.4323,2965.8235],[-65.4803,-24.4289,3307.2163],[-65.4832,-24.4293,3373.3418],[-65.4962,-24.4361,3282.7092],[-65.4994,-24.4409,3290.7874],[-65.5005,-24.4489,3246.7805],[-65.5032,-24.4539,3578.6013],[-65.5069,-24.4581,3576.0576],[-65.5099,-24.4586,3526.062],[-65.5244,-24.4489,3526.6006],[-65.5338,-24.435,3514.7886],[-65.5411,-24.4301,3227.7705],[-65.5523,-24.4283,3307.4968],[-65.5674,-24.4296,3648.7078],[-65.5726,-24.4271,3787.5376],[-65.5731,-24.4188,3857.4539],[-65.5768,-24.4114,3612.791],[-65.5893,-24.4037,4367.7788],[-65.6003,-24.3943,4372.1455],[-65.6075,-24.3855,4294.6396],[-65.6151,-24.3811,4442.6064],[-65.6237,-24.3788,4588.7085],[-65.6281,-24.3749,4602.9805],[-65.6286,-24.367,4670.2354],[-65.6205,-24.3492,4531.2847],[-65.6206,-24.3409,4492.8481],[-65.6227,-24.3358,4731.6655],[-65.6284,-24.3294,4832.0581],[-65.6623,-24.3068,5112.4111],[-65.6678,-24.2911,5129.5996],[-65.6658,-24.2776,5111.9731],[-65.6664,-24.2694,5208.3442],[-65.6702,-24.2651,5128.7773],[-65.6831,-24.2581,4814.5498],[-65.6852,-24.2473,4805.8643],[-65.6885,-24.2427,4848.3584],[-65.7025,-24.238,5094.3398],[-65.7068,-24.2346,5232.5317],[-65.7036,-24.2239,4853.6411],[-65.7048,-24.2103,4769.2227],[-65.7164,-24.1977,4693.9517],[-65.7255,-24.1904,4497.0322],[-65.7274,-24.1852,4604.144],[-65.7278,-24.1715,4205.1064],[-65.7375,-24.1612,4083.8206],[-65.7448,-24.1493,4015.0437],[-65.7423,-24.1357,4069.6321],[-65.7373,-24.1292,4193.7158],[-65.7373,-24.1237,4311.2734],[-65.7415,-24.1163,4405.8306],[-65.7518,-24.1064,4419.3594],[-65.7573,-24.1043,4573.7197],[-65.7665,-24.1044,4327.1548],[-65.7712,-24.1011,4286.0137],[-65.7723,-24.0958,4472.7788],[-65.7688,-24.0853,4741.7236],[-65.7698,-24.0743,5254.0596],[-65.8294,-23.9994,3971.8308],[-65.8473,-23.9893,3770.1694],[-65.8756,-23.9777,3834.0811],[-65.8961,-23.9859,4059.3696],[-65.9205,-23.9844,4413.0869],[-65.9259,-23.9824,4688.6406],[-65.9396,-23.9724,4940.1304],[-65.9454,-23.9726,4848.7422],[-65.9559,-23.9778,4621.6924],[-65.9735,-23.9788,4552.7886],[-65.9789,-23.9769,4386.8965],[-65.9811,-23.9666,4334.6562],[-65.999,-23.9526,4185.6177],[-66.0004,-23.9245,3869.0352],[-65.9974,-23.9182,3783.1748],[-65.9972,-23.9101,3762.7725],[-66.0031,-23.8891,3708.0811],[-66.0242,-23.8297,3470.8665],[-66.0253,-23.8199,3459.321],[-66.0219,-23.8095,3444.1541],[-66.0085,-23.7855,3416.8286],[-66.0072,-23.7787,3412.447],[-66.0037,-23.7078,3406.1519],[-65.9982,-23.6654,3408.8169],[-65.9987,-23.646,3411.6758],[-65.9901,-23.5154,3430.082],[-66.037,-23.4984,3442.2834],[-66.0613,-23.4834,3450.7146],[-66.0772,-23.4764,3456.9319],[-66.1278,-23.4396,3477.5454],[-66.1477,-23.428,3485.4512],[-66.159,-23.4253,3489.0105],[-66.1882,-23.4232,3521.1506],[-66.2045,-23.4287,3548.5225],[-66.216,-23.4275,3548.209],[-66.2212,-23.4251,3533.2205],[-66.2287,-23.4167,3568.1768],[-66.237799999999993,-23.4098,3526.9658],[-66.2399,-23.405,3558.2314],[-66.2532,-23.3942,3675.7725],[-66.2632,-23.3885,3743.4548],[-66.2795,-23.3929,3597.6416],[-66.2913,-23.3931,3552.5215],[-66.2969,-23.3916,3684.4617],[-66.3066,-23.3856,3734.1301],[-66.3207,-23.3722,3738.3167],[-66.336,-23.3679,3734.6108],[-66.3461,-23.3784,3716.7224],[-66.3627,-23.3855,3713.3843],[-66.3947,-23.5393,3743.2393],[-66.3694,-23.6186,3904.5967],[-66.349,-23.6758,3916.0095],[-66.341,-23.7054,3673.1653],[-66.3327,-23.7207,3673.7251],[-66.3281,-23.7243,3611.384],[-66.3307,-23.7399,3608.4819],[-66.3375,-23.7487,3694.8933],[-66.335,-23.7593,3766.8621],[-66.3334,-23.7809,3646.8579],[-66.3366,-23.8186,3710.1824],[-66.3351,-23.8294,3714.4722],[-66.3409,-23.8502,3706.8301],[-66.3394,-23.8772,3874.1711],[-66.3462,-23.8923,4021.4895],[-66.3444,-23.9119,3896.126],[-66.3442,-23.9471,3889.0259],[-66.3416,-23.9631,4134.5449],[-66.3449,-23.9733,4254.2285],[-66.3422,-23.9903,4408.2363],[-66.3532,-24.0153,4655.2515],[-66.3682,-24.0329,4518.8955],[-66.377,-24.0507,4499.4194],[-66.3781,-24.059,4494.6733],[-66.3765,-24.0701,4450.5776],[-66.3737,-24.0781,4530.5342],[-66.3674,-24.0847,4698.416],[-66.3672,-24.0867,4795.7539],[-66.3723,-24.0904,4653.4683],[-66.3778,-24.1004,4721.0645],[-66.3843,-24.119,4539.0801],[-66.3887,-24.1227,4481.3203],[-66.3917,-24.1232,4472.6416],[-66.4102,-24.1211,4432.7051],[-66.4111,-24.126,4504.4038],[-66.4084,-24.1429,4331.0835],[-66.4109,-24.151,4323.9189],[-66.4288,-24.1615,4458.6489],[-66.4335,-24.1687,4541.5952],[-66.4424,-24.1689,4672.3721],[-66.4559,-24.175,4698.8174],[-66.4651,-24.1823,4641.3687],[-66.4704,-24.1891,4752.3262],[-66.4763,-24.2077,4574.1787],[-66.4791,-24.2087,4530.6162],[-66.4844,-24.206,4501.4219],[-66.4883,-24.1985,4521.7163],[-66.5123,-24.1945,4430.9746],[-66.5178,-24.196,4431.8516],[-66.5257,-24.2041,4404.5674],[-66.5349,-24.2052,4447.25],[-66.5469,-24.2042,4351.8555],[-66.557,-24.1979,4488.626],[-66.5629,-24.1962,4488.7651],[-66.5869,-24.1986,4357.3975],[-66.6187,-24.1894,4172.2041],[-66.6525,-24.1768,4116.5884],[-66.6654,-24.1694,4095.2642],[-66.6842,-24.1477,4115.2559],[-66.7193,-24.1384,4047.6709],[-66.7254,-24.132,4053.8696],[-66.7326,-24.1166,4006.0776],[-66.7332,-24.1058,3988.0906],[-66.7409,-24.0936,3982.3472],[-66.7476,-24.0879,3967.2783],[-66.7565,-24.0869,3957.7437],[-66.7714,-24.0898,3945.8298],[-66.8073,-24.0925,3956.2556],[-66.824,-24.0759,3935.771],[-66.8399,-24.0629,4111.9395],[-66.8507,-24.0494,3922.0908],[-66.8702,-24.0178,3989.7786],[-66.8802,-24.0116,4035.2173],[-66.8842,-24.0074,4058.7354],[-66.8863,-24.0022,4060.1633],[-66.8865,-23.9966,4054.2866],[-66.8925,-23.9961,4110.1919],[-66.8942,-23.9931,4122.2852],[-66.9332,-23.9853,4322.4492],[-66.9364,-23.9805,4271.1987],[-66.9348,-23.9556,4358.4922],[-66.9757,-23.9527,4332.4224],[-66.9912,-23.9601,4374.2539],[-67.0029,-23.9594,4097.4556],[-67.0094,-23.9507,4151.8423],[-67.0103,-23.9427,4236.2764],[-67.0045,-23.918,4309.5361],[-67.0,-23.8793,3976.854],[-67.0004,-23.8739,3989.2954],[-67.0056,-23.8643,4011.4202],[-67.1136,-23.7821,4231.166],[-67.2154,-23.7011,4356.8457],[-67.3226,-24.0342,5587.0811],[-68.065,-24.3264,5946.7168],[-68.2458,-24.3959,5999.3506],[-68.2459,-24.3991,5891.0527],[-68.2493,-24.4014,5662.6021],[-68.2585,-24.4017,5392.1807],[-68.2624,-24.4054,5188.3672],[-68.2622,-24.4198,4629.9458],[-68.2657,-24.4257,4519.3164],[-68.2678,-24.4354,4318.1753],[-68.2854,-24.4454,3924.2246],[-68.2902,-24.4521,3878.7847],[-68.2963,-24.454,3935.4023],[-68.3,-24.4615,4165.5752],[-68.2998,-24.4679,4381.7183],[-68.3048,-24.4758,4834.9326],[-68.3057,-24.4815,4973.7354],[-68.3101,-24.4841,5056.2559],[-68.3106,-24.4906,5110.376],[-68.3215,-24.4894,4697.3555],[-68.3427,-24.4918,5190.6104],[-68.3604,-24.4894,5057.0107],[-68.3659,-24.4924,5097.1709],[-68.3682,-24.4911,5071.6729],[-68.3754,-24.4925,4896.1533],[-68.3851,-24.4853,5238.9902],[-68.3902,-24.4887,5257.5234],[-68.3934,-24.4982,5135.3154],[-68.3935,-24.5044,4886.4805],[-68.4026,-24.511,4956.0708],[-68.4051,-24.5178,4918.166],[-68.4022,-24.5236,4890.4517],[-68.4032,-24.5275,4957.2324],[-68.413,-24.5418,4950.5547],[-68.4199,-24.5643,4809.6504],[-68.4306,-24.5771,4944.2812],[-68.4328,-24.5828,4957.3975],[-68.4315,-24.5923,4824.1851],[-68.433,-24.5979,5054.5527],[-68.4363,-24.6015,5107.2515],[-68.4333,-24.6057,5121.1162],[-68.447,-24.6018,4755.6631],[-68.4506,-24.6025,4764.4272],[-68.4542,-24.6103,4840.9419],[-68.4553,-24.6177,4855.1499],[-68.4606,-24.6221,5020.8379],[-68.4677,-24.6228,4892.2773],[-68.4749,-24.6211,4772.5898],[-68.4873,-24.6001,5464.8306],[-68.4951,-24.6,5580.6226],[-68.4942,-24.6061,5368.6987],[-68.5017,-24.6167,5093.8604],[-68.4971,-24.626,5003.0215],[-68.498,-24.6284,5042.2656],[-68.4951,-24.6314,5077.48],[-68.4949,-24.6346,5073.6758],[-68.4933,-24.6367,5055.6904],[-68.4866,-24.639,5124.3247],[-68.4868,-24.6454,4865.1357],[-68.4933,-24.6549,5069.3472],[-68.4918,-24.6643,4999.1914],[-68.4957,-24.6696,4845.2852],[-68.4968,-24.6753,4911.4336],[-68.5024,-24.6766,5027.3008],[-68.5036,-24.6782,4969.8008],[-68.5046,-24.6843,4984.1543],[-68.5145,-24.6985,5341.1123],[-68.5155,-24.703,5424.8462],[-68.5234,-24.7096,5743.4482],[-68.5332,-24.7117,6238.9468],[-68.5362,-24.7165,6562.9131],[-68.5366,-24.7206,6662.5352],[-68.5406,-24.7214,6571.4106],[-68.5429,-24.7251,6440.0713],[-68.5456,-24.7542,5343.2749],[-68.5615,-24.763,4998.2168],[-68.561,-24.7797,4940.106],[-68.5682,-24.795,5246.9761],[-68.5626,-24.7979,5127.4492],[-68.5622,-24.802,5239.0454],[-68.5604,-24.8035,5198.2529],[-68.5536,-24.8038,4944.3882],[-68.5481,-24.8066,4951.2153],[-68.5464,-24.8104,4948.3115],[-68.5393,-24.8165,5028.8345],[-68.5377,-24.8249,5200.8159],[-68.5344,-24.8271,5226.7446],[-68.5363,-24.833,5293.6099],[-68.5341,-24.8347,5330.5586],[-68.533,-24.8396,5208.667],[-68.5353,-24.8459,5266.4214],[-68.5322,-24.852,5323.7207],[-68.5332,-24.8558,5329.0117],[-68.5295,-24.8569,5347.6411],[-68.5248,-24.861,5156.8164],[-68.5193,-24.8737,5039.0952],[-68.5076,-24.8755,4830.8545],[-68.5028,-24.8746,4780.7578],[-68.4973,-24.8765,4708.8027],[-68.4926,-24.8752,4691.6699],[-68.4903,-24.881,4698.874],[-68.4864,-24.8837,4698.2046],[-68.4879,-24.8871,4691.6865],[-68.4861,-24.8898,4742.7632],[-68.486,-24.8953,4808.3042],[-68.4837,-24.897,4820.8936],[-68.481,-24.8964,4818.8701],[-68.4713,-24.9005,4733.6362],[-68.4625,-24.9007,4725.1582],[-68.46,-24.902,4748.2041],[-68.4459,-24.902,4925.7563],[-68.4443,-24.9047,4946.7373],[-68.4409,-24.9061,4986.4365],[-68.4318,-24.9055,5138.5078],[-68.4307,-24.9136,5080.4302],[-68.439,-24.9183,5033.4053],[-68.43,-24.9306,4832.7847],[-68.4275,-24.9433,4609.6562],[-68.4284,-24.9558,4875.2471],[-68.4268,-24.9614,5004.7686],[-68.4202,-24.9619,5047.187],[-68.4081,-24.9719,5077.4736],[-68.4122,-24.982,4880.1289],[-68.4134,-24.9898,5052.6826],[-68.4161,-24.9935,5109.2261],[-68.4131,-24.9999,5134.957],[-68.4151,-25.0033,5107.1396],[-68.4137,-25.0083,5050.5186],[-68.4123,-25.0088,5100.981],[-68.4127,-25.0195,5004.959],[-68.403,-25.0315,5272.2729],[-68.3974,-25.0327,5305.1367],[-68.388,-25.0379,5340.1606],[-68.382,-25.0371,5342.5977],[-68.378,-25.0337,5481.4453],[-68.3744,-25.0358,5470.0474],[-68.3738,-25.0408,5351.7236],[-68.3699,-25.0448,5113.2646],[-68.3672,-25.0453,5110.813],[-68.3643,-25.0492,5129.1821],[-68.3663,-25.0568,5222.1387],[-68.3706,-25.0601,5274.7417],[-68.3715,-25.0642,5247.7637],[-68.3659,-25.0765,5382.2515],[-68.3661,-25.0808,5432.4873],[-68.361,-25.0816,5294.7969],[-68.3582,-25.0842,5245.6294],[-68.3588,-25.0882,5286.022],[-68.3559,-25.0942,5229.104],[-68.3566,-25.098,5384.3311],[-68.3546,-25.1029,5267.2866],[-68.3503,-25.1051,5223.876],[-68.3474,-25.11,5183.2026],[-68.3433,-25.1106,5210.8652],[-68.4085,-25.1445,4730.6729],[-68.4185,-25.1388,4649.251],[-68.4235,-25.134,4583.3159],[-68.4235,-25.1311,4573.7002],[-68.4333,-25.1312,4600.9556],[-68.4368,-25.1253,4616.8018],[-68.4367,-25.1225,4614.8613],[-68.4398,-25.1228,4592.8403],[-68.4401,-25.1273,4585.9736],[-68.4434,-25.1292,4572.6367],[-68.4418,-25.1317,4538.3652],[-68.444,-25.1337,4575.0518],[-68.4485,-25.1299,4542.707],[-68.4558,-25.1287,4516.7959],[-68.4578,-25.1257,4522.9019],[-68.465,-25.1308,4503.7642],[-68.4696,-25.1481,4794.4858],[-68.4741,-25.1524,4916.5225],[-68.4827,-25.1539,5107.7803],[-68.4833,-25.1563,5149.6479],[-68.158,-25.2124,3910.8428],[-67.9854,-25.2397,4338.873],[-67.5716,-25.2599,4211.5542],[-67.4983,-25.2596,3382.0532],[-67.3683,-25.2655,4407.1943],[-66.9373,-25.279,4025.7244],[-66.6336,-25.2779,4545.6216],[-66.5571,-25.2746,4331.4795],[-66.548,-25.3294,4273.6938],[-66.5465,-25.3741,4264.6567],[-66.5321,-25.4341,4315.1265],[-66.5294,-25.4591,4432.0718],[-66.5309,-25.4927,4516.9546],[-66.5339,-25.5149,4250.9639],[-66.5439,-25.5615,3291.9729],[-66.5584,-25.6129,3914.9773],[-66.5764,-25.6484,4217.0444],[-66.5871,-25.6757,3839.0884],[-66.5906,-25.6795,3894.5034],[-66.5958,-25.6807,4074.1965],[-66.6152,-25.6786,4378.2119],[-66.6275,-25.6796,4592.1772],[-66.6747,-25.6901,4377.2344],[-66.7183,-25.6871,4338.9922],[-66.7408,-25.6961,4370.7305],[-66.7685,-25.6976,4243.3906],[-66.7739,-25.7,4212.7407],[-66.7855,-25.7093,4302.2505],[-66.7922,-25.7186,4368.9946],[-66.8157,-25.7423,4561.3599],[-66.8171,-25.7789,4621.4111],[-66.814,-25.8095,4609.0547],[-66.8056,-25.8535,4672.9365],[-66.8024,-25.8869,4775.6465],[-66.7977,-25.9002,4756.3359],[-66.7736,-25.9327,4673.3994],[-66.7604,-25.9443,4569.3857],[-66.7369,-25.9738,4451.5132],[-66.7224,-25.9883,4402.4585],[-66.7191,-25.9984,4411.2261],[-66.6917,-26.0242,4476.3662],[-66.6782,-26.0456,4657.0601],[-66.6598,-26.0667,4839.5093],[-66.6491,-26.087,4749.8999],[-66.6435,-26.0908,4753.9966],[-66.6312,-26.0931,4611.1362],[-66.6237,-26.0988,4657.2988],[-66.6189,-26.1091,4776.8228],[-66.6165,-26.1313,4641.3521],[-66.6091,-26.155,4663.7344],[-66.6053,-26.1608,4574.8955],[-66.5942,-26.1697,4610.2559],[-66.5854,-26.1806,4699.6167],[-66.5775,-26.1993,4887.8389],[-66.5553,-26.2316,4686.6045],[-66.5374,-26.2661,5003.4927],[-66.5141,-26.2977,4601.5352],[-66.509,-26.3025,4472.481],[-66.4958,-26.309,4373.4292],[-66.4881,-26.3147,4279.3662],[-66.4857,-26.3232,4224.7446],[-66.4787,-26.3351,4493.1343],[-66.4566,-26.3592,4392.9033],[-66.4276,-26.3764,4536.6196],[-66.4109,-26.3803,4639.9595],[-66.3875,-26.3931,4492.6353],[-66.3756,-26.3978,4664.7437],[-66.3734,-26.3983,4679.751],[-66.3701,-26.3959,4640.5117],[-66.357,-26.3764,4548.2783],[-66.345,-26.3285,4869.7632],[-66.334,-26.306,4993.8374],[-66.3299,-26.2908,5209.5293],[-66.3231,-26.2788,5183.0547],[-66.2973,-26.2487,4931.4629],[-66.2806,-26.2355,4721.6377],[-66.2688,-26.2159,4625.4448],[-66.259,-26.1953,4549.7646],[-66.2465,-26.1814,4959.2109],[-66.2348,-26.1643,5038.3604],[-66.2237,-26.1553,5047.0977],[-66.2132,-26.1493,5272.6353],[-66.2039,-26.1467,4805.5352],[-66.1917,-26.1497,4556.4551],[-66.1811,-26.1375,4898.0474],[-66.1769,-26.1356,4893.1865],[-66.1522,-26.1372,4539.292],[-66.1475,-26.1387,4485.3818],[-66.1339,-26.1483,4285.7119],[-66.132,-26.1548,4196.9194],[-66.1341,-26.1635,4266.6631],[-66.1333,-26.168,4259.3652],[-66.1161,-26.187,4234.4033],[-66.1046,-26.2092,4334.6201],[-66.1025,-26.2103,4365.9829],[-66.0959,-26.2071,4331.6304],[-66.0911,-26.2068,4230.3613],[-66.0854,-26.2111,4118.8994]]]]}
,"properties": {"GID_1": "ARG.17_1","GID_0": "ARG","country": "Argentina","state": "Salta","VARNAME_1": "NA","NL_NAME_1": "NA","TYPE_1": "Provincia","ENGTYPE_1": "Province","CC_1": "NA","HASC_1": "AR.SA","ISO_1": "AR-A","name": "Salta.state","area_km2": 155543.92,"hist_schema_id": "Elevation0-9000","hist_area_km2": {"175": 11.9,"200": 6526.76,"225": 15190.22,"250": 11189.41,"275": 8449.44,"300": 6339.11,"325": 4707.55,"350": 3714.41,"375": 2916.49,"400": 2317.76,"425": 1872.01,"450": 1654.97,"475": 1556.27,"500": 1517.04,"525": 1434.03,"550": 1351.85,"575": 1339.33,"600": 1288.96,"625": 1216.77,"650": 1081.42,"675": 993.56,"700": 905.56,"725": 848.95,"750": 791.53,"775": 770.27,"800": 774.11,"825": 756.79,"850": 739.81,"875": 723.51,"900": 703.46,"925": 701.15,"950": 676.63,"975": 654.83,"1000": 584.13,"1025": 642.17,"1050": 583.58,"1075": 548.2,"1100": 521.87,"1125": 520.53,"1150": 533.88,"1175": 558.57,"1200": 507.36,"1225": 481.28,"1250": 458.81,"1275": 440.18,"1300": 411.2,"1325": 382.54,"1350": 368.7,"1375": 356.45,"1400": 348.5,"1425": 333.13,"1450": 322.96,"1475": 311.23,"1500": 311.01,"1525": 308.8,"1550": 356.97,"1575": 399.43,"1600": 408.07,"1625": 408.21,"1650": 378.31,"1675": 361.04,"1700": 352.49,"1725": 357.42,"1750": 351.77,"1775": 327.68,"1800": 316.33,"1825": 301.26,"1850": 289.45,"1875": 284.1,"1900": 275.84,"1925": 266.91,"1950": 267.91,"1975": 258.4,"2000": 258.56,"2025": 258.56,"2050": 256.09,"2075": 248.56,"2100": 249.76,"2125": 244.02,"2150": 239.33,"2175": 245.94,"2200": 254.3,"2225": 253.53,"2250": 250.33,"2275": 251.41,"2300": 248.24,"2325": 256.25,"2350": 261.82,"2375": 265.42,"2400": 270.66,"2425": 279.05,"2450": 288.44,"2475": 289.23,"2500": 295.2,"2525": 294.49,"2550": 290.83,"2575": 285.93,"2600": 286.78,"2625": 281.13,"2650": 290.08,"2675": 295.62,"2700": 292.23,"2725": 293.65,"2750": 290.13,"2775": 279.09,"2800": 269.65,"2825": 257.19,"2850": 255.61,"2875": 245.65,"2900": 243.21,"2925": 243.52,"2950": 236.23,"2975": 234.99,"3000": 235.34,"3025": 230.2,"3050": 229.51,"3075": 224.21,"3100": 224.51,"3125": 232.78,"3150": 245.41,"3175": 245.43,"3200": 252.85,"3225": 243.05,"3250": 231.16,"3275": 231.27,"3300": 221.75,"3325": 229.34,"3350": 275.12,"3375": 257.81,"3400": 558.87,"3425": 819.31,"3450": 483.41,"3475": 3025.38,"3500": 716.74,"3525": 625.69,"3550": 598.5,"3575": 609.28,"3600": 593.23,"3625": 611.07,"3650": 988.04,"3675": 828.35,"3700": 655.81,"3725": 1106.88,"3750": 939.03,"3775": 821.69,"3800": 827.74,"3825": 979.44,"3850": 884.15,"3875": 841.42,"3900": 817.12,"3925": 792.35,"3950": 783.22,"3975": 841.01,"4000": 750.4,"4025": 754.6,"4050": 709.29,"4075": 677.78,"4100": 662.01,"4125": 657.19,"4150": 659.08,"4175": 645.28,"4200": 634.82,"4225": 618.58,"4250": 595.13,"4275": 582.32,"4300": 557.12,"4325": 549.89,"4350": 550.31,"4375": 544.49,"4400": 518.92,"4425": 507.21,"4450": 484.1,"4475": 474.65,"4500": 454.33,"4525": 430.51,"4550": 414.77,"4575": 383.72,"4600": 360.62,"4625": 335.52,"4650": 311.29,"4675": 300.13,"4700": 284.52,"4725": 261.38,"4750": 239.8,"4775": 226.6,"4800": 208.79,"4825": 193.74,"4850": 179.05,"4875": 167.61,"4900": 154.2,"4925": 143.41,"4950": 134.1,"4975": 125.69,"5000": 117.34,"5025": 108.43,"5050": 103.25,"5075": 93.9,"5100": 90.25,"5125": 80.32,"5150": 76.56,"5175": 73.79,"5200": 71.37,"5225": 63.94,"5250": 54.35,"5275": 50.37,"5300": 45.27,"5325": 41.86,"5350": 35.49,"5375": 31.75,"5400": 28.69,"5425": 24.86,"5450": 23.41,"5475": 20.11,"5500": 15.74,"5525": 15.62,"5550": 12.75,"5575": 12.09,"5600": 10.05,"5625": 9.84,"5650": 8.53,"5675": 8.57,"5700": 7.74,"5725": 7.76,"5750": 6.41,"5775": 6.18,"5800": 5.72,"5825": 5.37,"5850": 5.08,"5875": 4.77,"5900": 3.54,"5925": 2.91,"5950": 2.37,"5975": 2.16,"6000": 2.04,"6025": 1.69}}}