{"type":"Feature","properties":{"GID_2":"ARG.13.14_1","GID_0":"ARG","country":"Argentina","GID_1":"ARG.13_1","state":"Mendoza","NL_NAME_1":"NA","county":"SanMartín","VARNAME_2":"NA","NL_NAME_2":"NA","TYPE_2":"Departamento","ENGTYPE_2":"Department","CC_2":"NA","HASC_2":"AR.MZ.SM","name":"SanMartín.county"},
"geometry":{"type": "MultiPolygon","coordinates": [[[[-68.2864,-33.1912,628.9144],[-68.2865,-33.0567,629.0339],[-68.1907,-32.9994,614.8469],[-68.1235,-32.9995,608.5406],[-68.1144,-32.8358,590.9896],[-67.9585,-32.8378,574.0163],[-67.9613,-32.7373,576.2637],[-68.3182,-32.7216,596.6871],[-68.321,-32.7259,596.2639],[-68.332,-32.7302,597.1501],[-68.3332,-32.7379,598.6182],[-68.3358,-32.7425,599.439],[-68.3444,-32.7449,598.5944],[-68.3575,-32.7561,601.7773],[-68.3768,-32.7691,603.9454],[-68.4051,-32.7798,608.4657],[-68.4069,-32.7816,608.8251],[-68.4064,-32.787,608.2455],[-68.4213,-32.7903,610.7266],[-68.428,-32.7955,612.3739],[-68.4338,-32.7933,611.6256],[-68.4396,-32.7942,612.5276],[-68.4473,-32.8155,614.1373],[-68.4622,-32.8291,616.4384],[-68.4674,-32.8366,618.2447],[-68.4641,-32.8442,619.1094],[-68.4697,-32.8572,620.6726],[-68.4635,-32.8659,622.4205],[-68.463,-32.8692,622.3945],[-68.4671,-32.88,623.8185],[-68.4645,-32.8903,625.559],[-68.4694,-32.8946,626.8594],[-68.4684,-32.9027,626.882],[-68.4754,-32.9117,629.684],[-68.4782,-32.921,630.3316],[-68.4818,-32.9207,630.8098],[-68.4868,-32.9169,629.949],[-68.4919,-32.9189,630.398],[-68.4912,-32.9224,630.924],[-68.4841,-32.9309,631.9371],[-68.4945,-32.9385,633.2272],[-68.4931,-32.9447,633.8501],[-68.5014,-32.9464,634.9243],[-68.5018,-32.9509,636.8275],[-68.4995,-32.9563,636.5522],[-68.5008,-32.9598,636.6238],[-68.5113,-32.9651,638.1364],[-68.5141,-32.9717,638.6346],[-68.5279,-32.9719,638.1208],[-68.5287,-32.9765,639.3403],[-68.5264,-32.9816,641.8853],[-68.5281,-32.9829,641.4556],[-68.5301,-32.9814,641.9794],[-68.5329,-32.9826,642.5138],[-68.5362,-32.9864,641.7683],[-68.5367,-32.9925,642.0669],[-68.5441,-32.9951,642.2287],[-68.5359,-32.9986,643.8859],[-68.5431,-33.0012,642.9301],[-68.545,-33.0035,645.4886],[-68.5411,-33.0065,645.1165],[-68.5432,-33.0127,646.2371],[-68.5456,-33.0134,645.9649],[-68.5473,-33.0088,644.5684],[-68.5504,-33.0095,645.0582],[-68.5532,-33.012,645.5255],[-68.5528,-33.0167,654.8699],[-68.5602,-33.0232,648.6972],[-68.561,-33.0295,659.7094],[-68.567,-33.0374,651.897],[-68.5636,-33.0406,661.2656],[-68.565,-33.0445,661.048],[-68.5815,-33.0727,664.4614],[-68.5762,-33.0848,669.7441],[-68.5625,-33.0703,665.6117],[-68.5562,-33.0751,665.499],[-68.5568,-33.0759,664.485],[-68.5248,-33.0925,665.1581],[-68.5272,-33.0947,665.9659],[-68.5122,-33.1018,665.8359],[-68.4945,-33.0799,660.3019],[-68.4446,-33.0927,654.1024],[-68.4472,-33.0998,652.8083],[-68.4354,-33.1,652.853],[-68.366,-33.14,644.0302],[-68.371,-33.146,643.9382],[-68.2864,-33.1912,628.9144]]]]}}