{"type":"Feature","properties":{"GID_2":"ARG.1.80_1","GID_0":"ARG","country":"Argentina","GID_1":"ARG.1_1","state":"BuenosAires","NL_NAME_1":"NA","county":"MonteHermoso","VARNAME_2":"NN","NL_NAME_2":"NA","TYPE_2":"Partido","ENGTYPE_2":"Part","CC_2":"NA","HASC_2":"AR.BA.MH","name":"MonteHermoso.county"},
"geometry":{"type": "MultiPolygon","coordinates": [[[[-61.4576,-38.9957,1.9303],[-61.4062,-38.9901,0.0],[-61.3601,-38.9888,0.9839],[-61.274,-38.9901,3.3042],[-61.2562,-38.9932,0.0],[-61.2368,-38.9935,1.2508],[-61.1804,-38.9993,2.2541],[-61.1185,-38.9985,0.0],[-61.0852,-38.9904,2.4398],[-61.0849,-38.9474,12.4812],[-61.3167,-38.9476,13.9517],[-61.3383,-38.9193,13.389099999999999],[-61.4575,-38.9186,14.0891],[-61.4576,-38.9957,1.9303]]]]}}