{"type": "Feature","bbox": [-66.6841,-23.6895,-65.3369,-22.4426],"geometry": {"type": "MultiPolygon","coordinates": [[[[-65.3369,-22.5951,4500.4941],[-65.3396,-22.5903,4456.9409],[-65.3384,-22.5834,4392.1592],[-65.3515,-22.5846,4462.3838],[-65.3691,-22.5829,4299.5864],[-65.4239,-22.569,3847.9749],[-65.4344,-22.5674,3824.8154],[-65.4556,-22.5674,3792.875],[-65.4658,-22.5646,3777.1736],[-65.5112,-22.5389,3652.9978],[-65.5343,-22.5306,3673.1079],[-65.5555,-22.5131,3741.3774],[-65.5721,-22.5073,4000.9932],[-65.583,-22.499,3742.2568],[-65.5983,-22.4935,3633.3552],[-65.7507,-22.4775,3533.5103],[-65.7837,-22.4526,3630.3599],[-65.7995,-22.4426,3747.8745],[-65.8008,-22.4533,3770.8665],[-65.8154,-22.5007,3811.5552],[-65.8174,-22.517,3698.2585],[-65.835,-22.5493,3726.0625],[-65.838,-22.5622,3715.3472],[-65.8483,-22.5917,3711.5688],[-65.8839,-22.5714,4008.1699],[-65.9014,-22.6073,4276.1094],[-65.9041,-22.6236,4344.6382],[-65.9081,-22.6327,4310.9146],[-65.9252,-22.6537,3926.8645],[-65.9473,-22.6702,3673.9084],[-65.9608,-22.674,3599.9473],[-66.0278,-22.6808,3796.5447],[-66.0393,-22.6887,3750.178],[-66.0553,-22.6956,3733.5754],[-66.0825,-22.7025,3767.1587],[-66.1021,-22.7165,3944.655],[-66.107,-22.7289,4135.0083],[-66.1158,-22.7676,3772.7874],[-66.1203,-22.7765,3913.7747],[-66.1301,-22.7861,4056.1179],[-66.1582,-22.8003,4097.6396],[-66.1734,-22.814,4030.9524],[-66.2063,-22.8334,4308.9453],[-66.2288,-22.8433,4471.5391],[-66.2791,-22.8594,4438.5933],[-66.3187,-22.8742,4411.9604],[-66.3527,-22.8836,4346.4136],[-66.3909,-22.891,4642.0264],[-66.4192,-22.8929,4562.3633],[-66.4534,-22.8841,4436.3862],[-66.4799,-22.8675,4626.8394],[-66.5091,-22.8558,4645.856],[-66.5407,-22.8511,4692.79],[-66.5584,-22.8528,4943.2388],[-66.5717,-22.8574,5149.522],[-66.5794,-22.863,5173.3306],[-66.6698,-22.9738,4516.1055],[-66.681,-22.9906,4321.1387],[-66.6841,-23.0075,4210.4868],[-66.2961,-23.0054,4631.7412],[-66.284,-23.0585,3944.865],[-66.282,-23.0815,3880.6831],[-66.2819,-23.1079,3818.6433],[-66.2737,-23.1399,3854.1982],[-66.2642,-23.1612,3741.8616],[-66.2561,-23.1899,3852.3784],[-66.2532,-23.2094,3848.0498],[-66.2549,-23.239,3840.3647],[-66.2749,-23.326,3687.303],[-66.284,-23.3931,3693.9792],[-66.2632,-23.3885,3743.4548],[-66.2532,-23.3942,3675.7725],[-66.2399,-23.405,3558.2314],[-66.237799999999993,-23.4098,3526.9658],[-66.2287,-23.4167,3568.1768],[-66.2212,-23.4251,3533.2205],[-66.216,-23.4275,3548.209],[-66.2045,-23.4287,3548.5225],[-66.1882,-23.4232,3521.1506],[-66.159,-23.4253,3489.0105],[-66.1477,-23.428,3485.4512],[-66.1278,-23.4396,3477.5454],[-66.0772,-23.4764,3456.9319],[-66.0613,-23.4834,3450.7146],[-66.037,-23.4984,3442.2834],[-65.9901,-23.5154,3430.082],[-65.9987,-23.646,3411.6758],[-65.9982,-23.6654,3408.8169],[-66.0013,-23.6895,3405.9233],[-65.9796,-23.6741,3406.7188],[-65.9581,-23.6723,3406.1804],[-65.9516,-23.6697,3406.0715],[-65.9302,-23.6476,3407.5847],[-65.922,-23.6413,3409.2734],[-65.91,-23.634,3409.4426],[-65.8925,-23.6312,3406.0288],[-65.8865,-23.6274,3406.0337],[-65.8761,-23.6066,3405.999],[-65.8672,-23.5816,3405.999],[-65.8585,-23.5711,3405.8525],[-65.8489,-23.5677,3406.3174],[-65.8459,-23.538,3407.415],[-65.8431,-23.5285,3409.5576],[-65.8372,-23.5166,3413.9116],[-65.8402,-23.497,3412.0461],[-65.8398,-23.4805,3409.7859],[-65.8419,-23.4641,3410.4404],[-65.8374,-23.4382,3416.5483],[-65.7075,-23.4182,3569.6724],[-65.6976,-23.1973,4361.604],[-65.7011,-23.139,4137.647],[-65.6941,-23.1068,4539.9663],[-65.6851,-23.0269,4201.1953],[-65.6058,-22.9725,3800.6433],[-65.6015,-22.9672,3779.9758],[-65.6019,-22.9476,3775.5974],[-65.6006,-22.9412,3752.5061],[-65.5875,-22.9036,3806.8342],[-65.5795,-22.8928,3845.5046],[-65.5578,-22.8816,3875.0859],[-65.5201,-22.872,3828.6113],[-65.5142,-22.8683,3964.5127],[-65.5111,-22.8624,4072.7373],[-65.508,-22.8462,4144.0757],[-65.5043,-22.8069,3897.9893],[-65.4954,-22.7854,3982.3135],[-65.4933,-22.7691,3937.1729],[-65.4908,-22.7629,3843.0535],[-65.4857,-22.7584,3870.7144],[-65.4755,-22.7559,3929.1116],[-65.4435,-22.7579,4068.4832],[-65.4366,-22.7569,4086.2358],[-65.4273,-22.7521,4200.0576],[-65.4174,-22.7426,4233.4048],[-65.4068,-22.7294,4487.2534],[-65.395,-22.7091,4270.1528],[-65.3928,-22.6928,4488.0801],[-65.3857,-22.6814,4230.0669],[-65.38,-22.6557,4539.251],[-65.3761,-22.6502,4602.4556],[-65.3644,-22.6427,4565.1606],[-65.3605,-22.6233,4628.6289],[-65.3369,-22.5951,4500.4941]]]]}
,"properties": {"GID_2": "ARG.10.2_1","GID_0": "ARG","country": "Argentina","GID_1": "ARG.10_1","state": "Jujuy","NL_NAME_1": "NA","county": "Cochinoca","VARNAME_2": "AbraPampa","NL_NAME_2": "NA","TYPE_2": "Departamento","ENGTYPE_2": "Department","CC_2": "NA","HASC_2": "AR.JY.CO","name": "Cochinoca.county","area_km2": 7249.329,"hist_schema_id": "Elevation0-9000","hist_area_km2": {"3400": 656.847,"3425": 537.484,"3450": 378.119,"3475": 367.966,"3500": 431.987,"3525": 332.663,"3550": 276.993,"3575": 224.376,"3600": 197.606,"3625": 173.703,"3650": 154.655,"3675": 142.351,"3700": 144.596,"3725": 162.253,"3750": 159.56,"3775": 146.131,"3800": 155.038,"3825": 195.804,"3850": 191.715,"3875": 162.384,"3900": 139.398,"3925": 122.358,"3950": 107.015,"3975": 96.019,"4000": 91.841,"4025": 87.663,"4050": 80.872,"4075": 66.177,"4100": 61.336,"4125": 63.74,"4150": 63.234,"4175": 64.407,"4200": 55.585,"4225": 50.513,"4250": 48.933,"4275": 47.491,"4300": 45.681,"4325": 44.122,"4350": 46.502,"4375": 50.059,"4400": 55.293,"4425": 53.555,"4450": 51.308,"4475": 46.915,"4500": 45.044,"4525": 43.072,"4550": 39.127,"4575": 37.878,"4600": 36.453,"4625": 31.142,"4650": 28.172,"4675": 21.514,"4700": 15.695,"4725": 14.465,"4750": 10.854,"4775": 11.36,"4800": 9.741,"4825": 7.965,"4850": 7.183,"4875": 6.909,"4900": 6.714,"4925": 6.011,"4950": 5.622,"4975": 4.666,"5000": 4.177,"5025": 3.533,"5050": 3.475,"5075": 2.968,"5100": 2.343,"5125": 2.148,"5150": 1.289,"5175": 1.074,"5200": 1.152,"5225": 0.625,"5250": 0.586,"5275": 0.566,"5300": 0.352,"5325": 0.312,"5350": 0.371,"5375": 0.234,"5400": 0.293,"5425": 0.234,"5450": 0.254,"5475": 0.273,"5500": 0.137,"5525": 0.156,"5550": 0.215,"5575": 0.234,"5600": 0.137,"5625": 0.234,"5650": 0.098}}}