{"type":"Feature","properties":{"GID_2":"ARG.1.17_1","GID_0":"ARG","country":"Argentina","GID_1":"ARG.1_1","state":"BuenosAires","NL_NAME_1":"NA","county":"Bragado","VARNAME_2":"NA","NL_NAME_2":"NA","TYPE_2":"Partido","ENGTYPE_2":"Part","CC_2":"NA","HASC_2":"AR.BA.BG","name":"Bragado.county"},
"geometry":{"type": "MultiPolygon","coordinates": [[[[-60.4637,-34.8632,53.4646],[-60.475,-34.858,53.3452],[-60.4811,-34.8516,53.4211],[-60.4874,-34.8494,54.0125],[-60.4944,-34.843,53.431399999999996],[-60.5019,-34.8412,53.8838],[-60.5201,-34.8481,55.2915],[-60.5271,-34.8467,54.743],[-60.5301,-34.8411,54.9128],[-60.5272,-34.8353,54.2392],[-60.5277,-34.83,54.3591],[-60.5382,-34.8233,54.8555],[-60.5536,-34.8285,55.2329],[-60.5545,-34.8322,55.795],[-60.5717,-34.8266,55.66],[-60.573,-34.8222,56.0049],[-60.5883,-34.8199,56.5266],[-60.5985,-34.8005,56.8964],[-60.5985,-34.7951,56.8831],[-60.6127,-34.7703,57.7411],[-60.626,-34.7577,59.0765],[-60.626,-34.747,60.0631],[-60.6335,-34.7418,59.8035],[-60.6409,-34.73,59.4752],[-60.6498,-34.7268,59.5887],[-60.653,-34.7185,62.1407],[-60.6657,-34.7056,60.5695],[-60.6788,-34.7044,60.2863],[-60.6824,-34.6901,60.0546],[-60.6811,-34.673,61.4934],[-60.6841,-34.6683,61.6805],[-60.6824,-34.6633,61.8822],[-60.6845,-34.6573,62.1063],[-60.7034,-34.6529,62.232],[-60.7174,-34.6456,62.958],[-60.7745,-34.6941,68.8842],[-60.772,-34.6973,71.3606],[-60.7957,-34.7182,72.6034],[-60.7669,-34.7433,74.5287],[-60.8168,-34.7882,78.6038],[-60.7273,-34.8605,70.4705],[-60.8482,-34.969,64.2215],[-60.7552,-35.0406,62.6822],[-60.875,-35.1437,61.9088],[-60.5282,-35.4105,57.6898],[-60.3209,-35.2259,60.5905],[-60.3585,-35.197,58.8503],[-60.3413,-35.1813,59.0455],[-60.3695,-35.1592,56.0716],[-60.3327,-35.1269,51.731],[-60.3595,-35.107,50.5391],[-60.3636,-35.1096,49.2109],[-60.3899,-35.0897,55.9534],[-60.393,-35.0848,55.6517],[-60.4107,-35.069,54.009],[-60.4161,-35.0615,52.1677],[-60.4432,-35.038,50.2622],[-60.4427,-35.0267,50.9228],[-60.4449,-35.0152,50.6475],[-60.4515,-35.0124,50.7218],[-60.4613,-35.0116,51.1188],[-60.4725,-35.0055,51.8389],[-60.485,-34.9846,51.27],[-60.4872,-34.9739,51.4323],[-60.4853,-34.9653,51.7552],[-60.4781,-34.9553,52.2632],[-60.4726,-34.9412,51.9327],[-60.4574,-34.9269,52.0893],[-60.4528,-34.9189,53.4657],[-60.4498,-34.8956,52.3507],[-60.451,-34.8834,52.622],[-60.4552,-34.8776,52.8904],[-60.4539,-34.8705,52.7198],[-60.4637,-34.8632,53.4646]]]]}}