{"type":"Feature","properties":{"ISO3166-1-Alpha-3":"ARG","country":"Argentina","fill":"#FF0","id":"1305","name":"Tucumán"},
"geometry":{"type": "Polygon","coordinates": [[[-65.57669,-26.1014,1435.8505],[-65.62643,-26.089,2216.4177],[-65.63222,-26.08668,2405.6672],[-65.65281,-26.07613,2901.5503],[-65.6587,-26.07458,3137.5107],[-65.66534,-26.07479,3368.5149],[-65.67214,-26.07815,3606.7327],[-65.67655,-26.08228,3316.499],[-65.67996,-26.08699,3178.5017],[-65.68221,-26.0966,3460.2454],[-65.68374,-26.11034,3579.4858],[-65.68389,-26.15241,3447.915],[-65.68578,-26.17034,3549.9861],[-65.69384,-26.19039,3480.4358],[-65.69893,-26.21277,3349.79],[-65.6996,-26.22625,3592.1724],[-65.69645,-26.25969,3249.1641],[-65.69699,-26.26584,3236.5012],[-65.69813,-26.27204,3067.9944],[-65.70033,-26.27834,2967.3364],[-65.70335,-26.28413,3263.4409],[-65.7079,-26.29064,3528.1194],[-65.71182,-26.2954,3469.8193],[-65.71901,-26.29901,3313.0278],[-65.72479,-26.30113,3194.9131],[-65.75911,-26.29958,2643.9902],[-66.05382,-26.25349,3505.0464],[-66.06196,-26.27571,3452.2158],[-66.06855,-26.28258,3334.2041],[-66.0795,-26.29235,3177.533],[-66.09389,-26.30764,3475.386],[-66.10017,-26.32155,3953.4976],[-66.10208,-26.34134,4139.1499],[-66.10198,-26.35751,4026.2205],[-66.10627,-26.37849,4043.1863],[-66.11565,-26.40624,3988.7395],[-66.1387,-26.44893,3985.9807],[-66.15552,-26.49719,3737.9834],[-66.15784,-26.51316,3757.0122],[-66.15655,-26.52463,3731.2004],[-66.15203,-26.53786,3621.8184],[-66.13606,-26.55812,3036.7212],[-66.12058,-26.56809,2537.4912],[-66.09885,-26.57285,2279.4612],[-66.07836,-26.57507,1940.4761],[-66.05297,-26.5823,1835.0908],[-66.03093,-26.59186,1818.042],[-66.01584,-26.60075,1821.8495],[-65.98157,-26.63197,1959.7089],[-65.91688,-26.67992,2202.5217],[-65.87256,-26.69915,2933.9929],[-65.8682,-26.70235,2991.6536],[-65.86419,-26.70576,3079.8616],[-65.85802,-26.71367,3425.2068],[-65.85566,-26.71806,3372.1914],[-65.85352,-26.72317,3403.3657],[-65.85202,-26.73036,3298.1072],[-65.85083,-26.74033,3530.1733],[-65.85096,-26.75279,3699.9094],[-65.85205,-26.76167,3832.8438],[-65.86698,-26.81878,4005.3423],[-65.86853,-26.8319,4038.425],[-65.86719,-26.88931,4211.7231],[-65.8683,-26.90079,4334.3701],[-65.87233,-26.91644,4401.3223],[-65.88378,-26.94027,4309.0322],[-65.91078,-26.98063,4862.7734],[-65.98049,-27.04347,4488.1123],[-66.01421,-27.07607,4338.7925],[-66.03821,-27.10382,4443.5723],[-66.05715,-27.13292,4809.1499],[-66.06069,-27.14584,4697.2046],[-66.06482,-27.157,5000.7275],[-66.06762,-27.1618,4945.1401],[-66.07426,-27.17095,4876.249],[-66.09475,-27.19012,4603.9155],[-66.11593,-27.20588,4706.9492],[-66.148,-27.23767,4636.2681],[-66.16546,-27.2743,4870.231],[-66.19115,-27.30903,4850.5703],[-66.19347,-27.31404,5172.9248],[-66.19464,-27.31937,5253.3584],[-66.19055,-27.32521,5285.9932],[-66.18218,-27.33063,5175.8271],[-66.16236,-27.33781,4897.1201],[-66.14053,-27.34272,4132.7427],[-66.10645,-27.34551,3709.5383],[-66.09547,-27.34996,3038.8594],[-66.02382,-27.38763,1731.7756],[-65.99418,-27.39037,1606.3711],[-65.98829,-27.39151,1500.1798],[-65.98188,-27.39383,1412.7991],[-65.97778,-27.40076,1367.2487],[-65.977,-27.40618,1386.5543],[-65.98685,-27.42995,1636.173],[-65.95217,-27.57759,2227.5291],[-65.93969,-27.60157,2413.5403],[-65.93238,-27.64431,2352.0],[-65.92933,-27.65433,2140.2251],[-65.9253,-27.66053,2154.6165],[-65.91915,-27.66766,2333.04],[-65.90605,-27.6794,2149.4553],[-65.89739,-27.68487,2008.5967],[-65.88375,-27.69107,1770.9995],[-65.87786,-27.69722,1740.5737],[-65.87225,-27.70678,1646.302],[-65.85908,-27.74663,1495.6887],[-65.85497,-27.76781,1459.0226],[-65.85083,-27.78016,1472.2224],[-65.84476,-27.78947,1580.9028],[-65.84045,-27.79458,1685.3744],[-65.82107,-27.80569,1480.5519],[-65.79538,-27.79954,1006.689],[-65.78327,-27.79407,1130.804],[-65.77443,-27.78838,1443.3312],[-65.75828,-27.78838,1450.0374],[-65.71324,-27.80957,1163.9204],[-65.70304,-27.81789,1492.8584],[-65.69916,-27.82424,1495.3523],[-65.68893,-27.85365,1399.1957],[-65.67927,-27.90693,1295.8408],[-65.66457,-27.94517,1312.5916],[-65.65508,-27.95767,1166.1951],[-65.57069,-28.05023,535.6144],[-65.55801,-28.05436,538.5803],[-65.55142,-28.04568,545.4009],[-65.52941,-28.0002,503.7565],[-65.52778,-27.99762,499.9206],[-65.50256,-27.96646,446.5254],[-65.49695,-27.96124,442.3143],[-65.46385,-27.93742,415.305],[-65.43267,-27.90941,390.959],[-65.34895,-27.86326,359.3651],[-65.34213,-27.86223,357.3947],[-65.33342,-27.86357,356.3454],[-65.31802,-27.87122,366.5498],[-65.30353,-27.88078,371.5266],[-65.28322,-27.89768,375.6955],[-65.26415,-27.90951,371.5333],[-65.24258,-27.91948,378.0312],[-65.22759,-27.92351,377.8462],[-65.21542,-27.92445,375.9449],[-65.19684,-27.92119,371.8524],[-65.16909,-27.90967,361.6067],[-65.15509,-27.9015,355.9416],[-65.14333,-27.89825,351.2101],[-65.13728,-27.89768,349.2968],[-65.13023,-27.8983,348.4048],[-65.11385,-27.90129,345.9529],[-65.10297,-27.90135,346.8013],[-65.0915,-27.89907,353.1778],[-65.08124,-27.89489,357.2364],[-65.07261,-27.88972,365.9334],[-65.06918,-27.88651,364.3587],[-65.06005,-27.87008,368.4832],[-65.0313,-27.7904,333.5324],[-65.02393,-27.78171,335.0099],[-65.01626,-27.77784,338.1923],[-65.00422,-27.77913,349.2274],[-65.00096,-27.77877,354.7133],[-64.99915,-27.77815,353.2193],[-65.00104,-27.76409,344.6469],[-65.02827,-27.71159,297.8594],[-65.06827,-27.62374,272.0],[-65.06941,-27.60069,272.0],[-65.05835,-27.57299,272.0],[-65.05326,-27.57015,272.0],[-65.04644,-27.56757,272.0],[-65.02502,-27.56943,272.0],[-65.01866,-27.56891,272.0],[-65.013,-27.56757,272.0],[-65.00791,-27.56571,272.0],[-65.00386,-27.56359,272.0],[-64.99435,-27.55708,272.0],[-64.99073,-27.55377,272.0],[-64.9837,-27.54576,272.0],[-64.97171,-27.52736,272.0],[-64.96954,-27.52209,272.0],[-64.96882,-27.51977,272.0],[-64.96959,-27.51372,272.0],[-64.97257,-27.51134,272.0],[-64.9914,-27.50039,272.0],[-65.01101,-27.49264,273.4816],[-65.02882,-27.48969,274.2135],[-65.04411,-27.48535,273.2789],[-65.06036,-27.476,277.7688],[-65.06359,-27.47238,279.5183],[-65.00213,-27.40789,284.6008],[-64.98763,-27.39781,283.812],[-64.94029,-27.34536,326.1473],[-64.92719,-27.3342,317.6261],[-64.91717,-27.32805,305.9951],[-64.89324,-27.32443,305.7209],[-64.88665,-27.3189,307.1366],[-64.87983,-27.30919,311.6834],[-64.85787,-27.25157,368.5315],[-64.85353,-27.24511,375.5122],[-64.83539,-27.22294,403.1573],[-64.80521,-27.15379,373.384],[-64.79327,-27.11095,395.9733],[-64.77899,-27.0538,378.9774],[-64.77563,-27.04595,370.7371],[-64.77018,-27.03613,363.1797],[-64.76134,-27.02553,357.077],[-64.75475,-27.02011,352.5497],[-64.74857,-27.01701,347.6637],[-64.74325,-27.01525,348.5714],[-64.72811,-26.98755,359.6313],[-64.6938,-26.86487,320.0785],[-64.68039,-26.81841,332.469],[-64.67437,-26.80482,334.2117],[-64.66649,-26.80131,334.4626],[-64.65889,-26.80064,332.4008],[-64.64486,-26.801,332.2014],[-64.6329,-26.79914,329.9197],[-64.62776,-26.79743,329.0521],[-64.62207,-26.79185,329.7977],[-64.61639,-26.78157,332.4535],[-64.58848,-26.68803,349.9423],[-64.58145,-26.67651,353.1707],[-64.56897,-26.67419,347.2726],[-64.50554,-26.68349,315.1022],[-64.50063,-26.6776,314.2129],[-64.49859,-26.65982,322.8346],[-64.49911,-26.62282,330.0078],[-64.50745,-26.54903,350.7803],[-64.52404,-26.44655,387.5872],[-64.52327,-26.43746,389.5728],[-64.52125,-26.42583,393.8759],[-64.48502,-26.31974,394.7719],[-64.48278,-26.29126,385.9114],[-64.48634,-26.22021,409.4381],[-64.697,-26.22486,559.9696],[-64.71336,-26.22357,590.5884],[-64.76736,-26.21137,711.2084],[-64.79777,-26.21618,796.0937],[-64.84924,-26.23215,865.6744],[-64.85929,-26.23721,908.2961],[-64.87906,-26.25483,1007.288],[-64.89637,-26.26599,1082.2367],[-64.90136,-26.26832,1109.9525],[-64.91192,-26.27173,1130.0151],[-64.92443,-26.27405,1226.3986],[-64.9327,-26.27457,1367.3112],[-64.94572,-26.27411,1728.2614],[-64.96644,-26.26884,1419.7263],[-64.99995,-26.25318,1390.8398],[-65.01714,-26.24098,1510.4235],[-65.03608,-26.2368,1901.6042],[-65.04571,-26.23943,2032.8859],[-65.06194,-26.24207,1804.3451],[-65.25281,-26.17236,808.3571],[-65.26728,-26.16357,793.1138],[-65.27531,-26.15138,796.0138],[-65.28136,-26.13773,804.2122],[-65.28973,-26.11189,809.7012],[-65.30371,-26.08699,828.2578],[-65.30671,-26.08296,832.502],[-65.31012,-26.07918,859.572],[-65.31438,-26.07603,865.286],[-65.32428,-26.07603,842.8618],[-65.33815,-26.07918,890.5541],[-65.36647,-26.0904,947.2457],[-65.4159,-26.11639,967.7177],[-65.42194,-26.11866,977.4366],[-65.42962,-26.11996,953.6313],[-65.44207,-26.12006,969.603],[-65.5401,-26.0997,1240.9768],[-65.55346,-26.09949,1456.9562],[-65.57669,-26.1014,1435.8505]]]}}