{"type":"Feature","properties":{"featurecla":"River","scalerank":8,"rivernum":767,"dissolve":"767River","name":"Dulce","name_alt":null,"note":null,"min_zoom":7.0,"strokeweig":0.15,"name_en":"Dulce","min_label":8.0},
"geometry":{"type": "LineString","coordinates": [[-65.662353515625,-26.22918059688088,2885.8379],[-65.636083984374991,-26.235186456255889,2802.3325],[-65.610693359374991,-26.223955987505889,2093.1868],[-65.585546874999991,-26.20671965938088,1537.9042],[-65.559912109374991,-26.19500090938088,1453.3224],[-65.54443359375,-26.19402434688088,1355.0831],[-65.518603515624989,-26.200030206255889,1219.2212],[-65.501953125,-26.20183684688088,1209.3866],[-65.443212890624991,-26.222979425005889,979.2718],[-65.423779296875,-26.21795012813088,934.3928],[-65.403417968749991,-26.223467706255889,924.3787],[-65.38330078125,-26.23211028438088,883.7203],[-65.309326171875,-26.25188567500588,816.1101],[-65.266406249999989,-26.291045831255886,744.3481],[-65.236425781249991,-26.34392669063088,712.1282],[-65.2203125,-26.40032317500588,703.0486],[-65.212939453124989,-26.479034112505886,644.9522],[-65.220751953124989,-26.51873137813088,621.5052],[-65.245849609375,-26.540557550005886,640.7195]]}}