{"type":"Feature","properties":{"GID_1":"ARG.24_1","GID_0":"ARG","country":"Argentina","state":"Tucumán","VARNAME_1":"Tucumão","NL_NAME_1":"NA","TYPE_1":"Provincia","ENGTYPE_1":"Province","CC_1":"NA","HASC_1":"AR.TM","ISO_1":"NA","name":"Tucumán.state"},
"geometry":{"type": "MultiPolygon","coordinates": [[[[-65.2507,-27.9004,367.1034],[-65.1834,-27.9355,372.8937],[-65.1874,-27.9152,365.3827],[-65.1791,-27.9123,363.3548],[-65.1675,-27.9021,359.4288],[-65.1587,-27.8815,348.7343],[-65.1546,-27.8661,344.0924],[-65.1274,-27.8684,338.2724],[-65.1265,-27.8787,339.5616],[-65.0935,-27.8908,348.9262],[-65.0872,-27.891,352.0813],[-65.0494,-27.8722,368.8861],[-65.0144,-27.7712,337.7921],[-64.9596,-27.7596,367.0687],[-65.0426,-27.5895,272.0],[-65.0302,-27.5739,272.0],[-65.0168,-27.5766,272.0],[-65.0133,-27.5728,272.0],[-65.0188,-27.5634,272.0],[-65.0118,-27.5611,272.0],[-65.0009,-27.5643,272.0],[-64.9926,-27.5712,272.0],[-64.9855,-27.5741,272.0],[-64.9778,-27.5707,272.0],[-64.9669,-27.5532,272.0],[-64.9743,-27.5201,272.0],[-65.002,-27.5013,272.0],[-65.0138,-27.5065,272.0],[-65.0234,-27.5044,272.9868],[-65.031,-27.4951,273.3211],[-65.0408,-27.4874,274.4802],[-65.0165,-27.4192,281.9129],[-65.0054,-27.3724,288.6203],[-64.9944,-27.3363,296.0408],[-64.9467,-27.3479,320.6119],[-64.9402,-27.3319,327.4712],[-64.8758,-27.3112,313.9286],[-64.8463,-27.2257,387.0942],[-64.84,-27.2266,394.9721],[-64.8131,-27.1507,386.5497],[-64.8072,-27.1463,373.8491],[-64.8016,-27.1483,370.4949],[-64.7821,-27.0763,400.9334],[-64.7603,-27.0078,367.6933],[-64.7558,-26.9666,380.2814],[-64.7446,-26.9258,347.2469],[-64.7259,-26.8299,338.3857],[-64.7063,-26.8304,330.1388],[-64.688,-26.8351,324.0793],[-64.6772,-26.7905,341.7327],[-64.6229,-26.7981,327.1342],[-64.5948,-26.6645,361.7711],[-64.5014,-26.6837,312.9633],[-64.5146,-26.6233,336.2111],[-64.5076,-26.603,338.6],[-64.5144,-26.5889,343.4631],[-64.5105,-26.5853,341.3593],[-64.5197,-26.5634,353.6205],[-64.5115,-26.5621,349.4559],[-64.5179,-26.4882,373.0215],[-64.528,-26.4571,390.6311],[-64.5301,-26.4215,396.6546],[-64.5233,-26.3928,404.9193],[-64.5229,-26.3744,417.1815],[-64.5203,-26.3573,423.8792],[-64.4975,-26.3393,408.0991],[-64.4783,-26.3198,391.6151],[-64.4803,-26.3106,388.1106],[-64.4787,-26.3001,386.1194],[-64.4828,-26.272,390.8788],[-64.494,-26.232,409.4136],[-64.4981,-26.2243,415.1895],[-64.5044,-26.2201,418.9749],[-64.5328,-26.2193,442.1968],[-64.5537,-26.2232,440.8745],[-64.5645,-26.2232,451.575],[-64.574,-26.2225,456.7761],[-64.5895,-26.2142,470.2221],[-64.6569,-26.2265,516.6299],[-64.7232,-26.224,592.4539],[-64.7514,-26.2139,715.0829],[-64.7665,-26.2056,791.3345],[-64.7866,-26.2038,817.7883],[-64.8185,-26.2155,838.2342],[-64.8294,-26.2156,809.2313],[-64.8349,-26.2115,879.7126],[-64.8427,-26.2113,888.9069],[-64.8475,-26.2168,911.6167],[-64.852,-26.2256,872.6042],[-64.8602,-26.2311,925.2],[-64.8643,-26.2392,960.1133],[-64.8659,-26.2488,916.6788],[-64.8717,-26.255,976.8245],[-64.8836,-26.2613,1019.1061],[-64.8994,-26.2657,1094.6321],[-64.9068,-26.2703,1096.8517],[-64.9448,-26.2829,1717.8253],[-64.954,-26.2814,1511.395],[-64.9603,-26.2672,1467.3511],[-64.9598,-26.2578,1465.5977],[-64.9569,-26.2488,1489.8446],[-64.9624,-26.2409,1346.4758],[-64.983,-26.2354,1284.4915],[-65.0118,-26.2444,1476.6934],[-65.0306,-26.2393,1741.1664],[-65.0419,-26.2417,2123.0725],[-65.2624,-26.1931,779.7645],[-65.2706,-26.1779,778.2951],[-65.2744,-26.1674,788.5942],[-65.2782,-26.147,802.2532],[-65.2874,-26.1259,805.2136],[-65.2916,-26.0887,821.9026],[-65.2984,-26.0827,824.9874],[-65.3199,-26.0739,850.626],[-65.3441,-26.0735,892.0248],[-65.3589,-26.0799,911.1105],[-65.3747,-26.0894,941.4355],[-65.3849,-26.0922,904.6937],[-65.3932,-26.0968,903.941],[-65.4119,-26.0995,896.5706],[-65.4189,-26.1053,905.5941],[-65.4288,-26.1103,914.1443],[-65.4575,-26.1081,944.4891],[-65.4708,-26.1052,992.0931],[-65.4905,-26.0932,1039.6855],[-65.5015,-26.0905,1059.2502],[-65.5205,-26.0921,1198.8757],[-65.5395,-26.0889,1207.7432],[-65.5643,-26.0975,1357.7736],[-65.5722,-26.1053,1424.6012],[-65.5896,-26.1151,1561.4495],[-65.5865,-26.1219,1624.7864],[-65.5957,-26.1242,1620.1909],[-65.6035,-26.1255,1868.1357],[-65.617,-26.1229,1954.6296],[-65.6259,-26.1184,1984.5593],[-65.6735,-26.1183,3065.9346],[-65.6797,-26.1348,3510.175],[-65.6845,-26.1429,3858.0215],[-65.6858,-26.1543,3529.4004],[-65.6831,-26.1682,3660.5413],[-65.6846,-26.1825,3469.3684],[-65.6887,-26.1955,3192.1497],[-65.6971,-26.2092,3117.7849],[-65.6985,-26.2276,3569.5935],[-65.6907,-26.2401,3159.2129],[-65.6911,-26.2463,3166.2678],[-65.6994,-26.2534,3034.6887],[-65.701,-26.2578,3167.4961],[-65.7,-26.2694,3174.9265],[-65.7016,-26.2759,2971.686],[-65.7126,-26.2852,3497.4312],[-65.7032,-26.2987,3391.1604],[-65.7038,-26.303,3075.6057],[-65.7115,-26.3129,2959.239],[-65.7145,-26.3214,3460.7671],[-65.7053,-26.3337,3469.8276],[-65.7041,-26.3397,3433.1155],[-65.7109,-26.3565,3558.4358],[-65.8339,-26.3081,1821.6704],[-65.9237,-26.2759,1642.4597],[-66.0337,-26.2316,3117.917],[-66.041,-26.2347,3201.6382],[-66.0448,-26.2309,2887.6987],[-66.0629,-26.2282,3060.7375],[-66.0838,-26.2181,3949.23],[-66.0854,-26.2351,3606.3262],[-66.0797,-26.2444,3860.3098],[-66.0784,-26.255,4093.6704],[-66.0811,-26.2626,3886.5986],[-66.0936,-26.2688,3630.0811],[-66.1037,-26.2769,3613.4248],[-66.1012,-26.3238,3974.4463],[-66.099,-26.3386,3975.999],[-66.1014,-26.3508,3934.5042],[-66.1136,-26.3754,4202.8354],[-66.1111,-26.3871,4128.6807],[-66.1033,-26.3955,3843.249],[-66.1389,-26.3996,4071.2593],[-66.1488,-26.4043,4474.3906],[-66.1408,-26.441,3861.2148],[-66.1475,-26.444,4168.2441],[-66.153,-26.4492,4218.4307],[-66.1572,-26.4573,4113.9624],[-66.16,-26.4685,3985.8135],[-66.1555,-26.4758,3828.2065],[-66.1538,-26.4849,3231.7903],[-66.1504,-26.492,3433.0522],[-66.1505,-26.4972,3704.4065],[-66.1576,-26.5181,3837.2129],[-66.1556,-26.5283,3717.4983],[-66.1567,-26.5724,3223.8523],[-66.1623,-26.5875,3159.2932],[-66.1597,-26.5951,3167.5042],[-66.1531,-26.6046,3386.9368],[-66.1458,-26.6102,3038.21],[-66.1184,-26.6131,2311.7539],[-66.0607,-26.6147,1963.3281],[-66.0545,-26.6201,1836.7178],[-66.0003,-26.649,1899.838],[-65.9851,-26.66,1922.5914],[-65.9553,-26.6895,2129.7173],[-65.9223,-26.7113,2514.2222],[-65.8872,-26.7273,3283.4443],[-65.8735,-26.7359,3354.293],[-65.8608,-26.7486,3582.646],[-65.854,-26.7617,3901.2192],[-65.8535,-26.7712,3927.605],[-65.8577,-26.7823,4010.7532],[-65.8646,-26.7914,4082.6875],[-65.8745,-26.8225,4141.0713],[-65.8938,-26.829,4080.28],[-65.898,-26.8355,4079.897],[-65.8983,-26.8413,4063.8774],[-65.8934,-26.8454,4077.7693],[-65.8922,-26.8516,4059.0713],[-65.8971,-26.8681,4055.2988],[-65.8824,-26.8742,4078.9124],[-65.8758,-26.8816,4195.0176],[-65.8701,-26.8941,4324.7588],[-65.8576,-26.905,4458.311],[-65.8587,-26.9287,4553.0312],[-65.8694,-26.9311,4418.9268],[-65.8749,-26.9433,4213.6216],[-65.884,-26.9497,4405.77],[-65.8882,-26.956,4462.5566],[-65.8896,-26.9632,4596.7974],[-65.894,-26.9707,4685.9727],[-65.9093,-26.9893,4743.9399],[-65.9059,-26.995,4614.7798],[-65.9061,-26.9999,4522.6064],[-65.9153,-27.0082,4771.2178],[-65.9673,-27.0375,4558.0503],[-65.9841,-27.0711,4611.2764],[-65.9994,-27.0966,4652.0171],[-66.0052,-27.1027,4884.6714],[-66.0134,-27.1057,4730.1416],[-66.0352,-27.1093,4653.1499],[-66.0432,-27.1166,4634.2266],[-66.0646,-27.1458,4569.8604],[-66.0665,-27.155,4911.4771],[-66.0766,-27.1552,4776.8203],[-66.083,-27.1864,4969.5439],[-66.0959,-27.2038,4926.0908],[-66.1017,-27.2106,5258.2515],[-66.1216,-27.22,5014.9092],[-66.1364,-27.2298,4811.8672],[-66.1467,-27.2432,4866.9878],[-66.1334,-27.248,5332.624],[-66.1273,-27.2524,5183.875],[-66.1178,-27.2563,4809.6875],[-66.1033,-27.2663,4103.8716],[-66.0912,-27.2787,3561.2959],[-66.0705,-27.2809,3393.6558],[-66.0533,-27.2865,2823.1372],[-66.0303,-27.2909,2585.2864],[-66.0134,-27.2972,2119.0586],[-66.0027,-27.3041,2068.6116],[-65.9955,-27.3048,1864.6692],[-65.9895,-27.3127,1858.5544],[-65.9844,-27.3333,1616.3322],[-65.9729,-27.3645,1664.4006],[-65.9673,-27.3987,1321.2469],[-65.9696,-27.4151,1674.2415],[-65.9752,-27.4308,2033.3789],[-65.9769,-27.444,2118.1111],[-65.9724,-27.4567,2144.0117],[-65.9758,-27.4859,2362.5293],[-65.9664,-27.5141,2285.377],[-65.9688,-27.5462,2279.8921],[-65.9597,-27.5604,2234.3638],[-65.954,-27.5753,2215.7314],[-65.9361,-27.5946,2280.9292],[-65.9314,-27.6149,2350.0215],[-65.9245,-27.6259,2278.5422],[-65.9238,-27.6575,2292.6765],[-65.9202,-27.6678,2333.04],[-65.9056,-27.6856,2128.3325],[-65.8742,-27.6805,1774.301],[-65.8659,-27.6826,1696.3091],[-65.857,-27.7085,1725.2902],[-65.843,-27.7407,1563.7371],[-65.8372,-27.7608,1629.8372],[-65.8367,-27.792,1679.3],[-65.832,-27.8334,1254.7896],[-65.8307,-27.8431,1232.2134],[-65.8247,-27.8536,1271.9637],[-65.8155,-27.8588,1496.6904],[-65.8077,-27.8561,1781.6111],[-65.8027,-27.8508,1819.0148],[-65.7953,-27.8235,1420.302],[-65.7888,-27.8169,1216.6965],[-65.7848,-27.8099,1232.9347],[-65.7826,-27.7966,1126.9902],[-65.7837,-27.7863,1178.1558],[-65.7502,-27.7756,1732.156],[-65.7282,-27.7948,1654.3713],[-65.7132,-27.8108,1061.0104],[-65.7012,-27.8303,1468.2589],[-65.6961,-27.85,1519.3647],[-65.6884,-27.8918,1446.7031],[-65.6601,-27.9596,1260.5198],[-65.6514,-27.9678,1202.6801],[-65.6188,-27.9692,727.9407],[-65.6022,-27.9908,721.0714],[-65.5931,-27.9976,578.5696],[-65.5722,-28.0023,503.2],[-65.5495,-28.0034,493.591],[-65.5364,-27.9985,490.0865],[-65.5224,-27.9854,481.8205],[-65.5098,-27.9451,441.3184],[-65.5011,-27.9234,430.6086],[-65.4723,-27.8996,408.6862],[-65.414,-27.8598,364.3004],[-65.3941,-27.8488,356.6021],[-65.3676,-27.8411,346.5242],[-65.2507,-27.9004,367.1034]]]]}}