{"type":"Feature","properties":{"GID_2":"ARG.3.8_1","GID_0":"ARG","country":"Argentina","GID_1":"ARG.3_1","state":"Chaco","NL_NAME_1":"NA","county":"GeneralDonovan","VARNAME_2":"Makalle","NL_NAME_2":"NA","TYPE_2":"Departamento","ENGTYPE_2":"Department","CC_2":"NA","HASC_2":"AR.CC.GD","name":"GeneralDonovan.county"},
"geometry":{"type": "MultiPolygon","coordinates": [[[[-59.1893,-27.1603,58.7507],[-59.0282,-27.0083,59.3942],[-59.1941,-26.8844,64.5355],[-59.1944,-26.8887,66.8042],[-59.3192,-26.9968,68.3805],[-59.3199,-26.9688,68.7961],[-59.3676,-26.9673,65.1429],[-59.3706,-27.0152,68.2684],[-59.4181,-27.0142,67.5939],[-59.4181,-26.9962,66.28],[-59.5684,-26.9929,71.4672],[-59.568,-27.2402,65.2534],[-59.6105,-27.2829,67.1171],[-59.6048,-27.2829,67.727],[-59.4619,-27.4089,64.7318],[-59.3288,-27.2865,63.2191],[-59.3401,-27.274,59.5315],[-59.2942,-27.2349,61.1709],[-59.2787,-27.2458,57.4789],[-59.2356,-27.2132,59.096],[-59.2367,-27.2048,59.5726],[-59.1893,-27.1603,58.7507]]]]}}