{"type":"Feature","properties":{"GID_2":"ARG.4.13_1","GID_0":"ARG","country":"Argentina","GID_1":"ARG.4_1","state":"Chubut","NL_NAME_1":"NA","county":"Sarmiento","VARNAME_2":"NA","NL_NAME_2":"NA","TYPE_2":"Departamento","ENGTYPE_2":"Department","CC_2":"NA","HASC_2":"AR.CH.SA","name":"Sarmiento.county"},
"geometry":{"type": "MultiPolygon","coordinates": [[[[-68.3712,-44.6872,419.365],[-68.9134,-44.6864,345.9085],[-69.6268,-44.681399999999996,918.9977],[-69.6481,-46.0052,444.3191],[-69.0349,-46.0069,384.1123],[-68.3631,-46.005,703.7116],[-68.3712,-44.6872,419.365]]]]}}