{"type":"Feature","properties":{"GID_2":"ARG.1.42_1","GID_0":"ARG","country":"Argentina","GID_1":"ARG.1_1","state":"BuenosAires","NL_NAME_1":"NA","county":"GeneralAlvear","VARNAME_2":"NA","NL_NAME_2":"NA","TYPE_2":"Partido","ENGTYPE_2":"Part","CC_2":"NA","HASC_2":"AR.BA.GA","name":"GeneralAlvear.county"},
"geometry":{"type": "MultiPolygon","coordinates": [[[[-60.6951,-36.137,77.2938],[-60.5704,-36.2354,79.8938],[-60.5268,-36.214,78.5679],[-60.3615,-36.3246,88.7263],[-60.2971,-36.2674,79.7473],[-60.2501,-36.3004,81.9978],[-60.0918,-36.1651,65.7628],[-60.0592,-36.1908,68.2928],[-59.9696,-36.2542,73.8217],[-59.9671,-36.2502,73.4804],[-59.9597,-36.2201,70.0321],[-59.953,-36.2071,68.6032],[-59.8398,-36.1142,58.1957],[-59.8601,-36.0975,57.5462],[-59.7982,-36.0465,52.9041],[-59.7215,-36.1077,56.2874],[-59.6754,-36.0715,52.0358],[-59.6709,-36.073,52.2492],[-59.6185,-36.0293,49.167],[-59.5982,-36.0446,49.9744],[-59.5229,-35.9801,41.8866],[-59.7065,-35.8377,39.5825],[-59.7432,-35.839,40.212],[-59.7663,-35.8475,41.5287],[-59.7711,-35.8474,41.6771],[-59.7786,-35.8526,41.2571],[-59.7937,-35.8492,41.8205],[-59.8048,-35.8504,41.8339],[-59.8196,-35.8595,42.5025],[-59.8232,-35.8571,42.4179],[-59.8434,-35.8559,43.7165],[-59.8511,-35.8618,43.8076],[-59.8568,-35.8721,45.3691],[-59.8613,-35.8759,45.9092],[-59.8701,-35.8792,45.735],[-59.8729,-35.9012,46.7365],[-59.8764,-35.9057,46.7136],[-59.881,-35.9069,46.5542],[-59.8847,-35.9116,46.5249],[-59.8986,-35.9004,46.8148],[-59.9133,-35.8938,47.3536],[-59.9198,-35.8982,47.9503],[-59.9601,-35.8592,50.4995],[-60.0637,-35.7794,49.6724],[-60.1224,-35.8319,54.128],[-60.2211,-35.755,55.9426],[-60.305,-35.8277,58.447],[-60.3235,-35.8385,60.274],[-60.3299,-35.8449,61.0355],[-60.3297,-35.8519,59.3859],[-60.3453,-35.8637,59.978],[-60.3532,-35.86,64.6433],[-60.3561,-35.8629,64.3489],[-60.37,-35.8687,62.4921],[-60.3674,-35.8826,60.945],[-60.3896,-35.8913,61.3523],[-60.3939,-35.8992,64.4254],[-60.4069,-35.9118,64.3661],[-60.4632,-35.9483,66.1134],[-60.466,-35.9521,66.5306],[-60.4658,-35.961,65.592],[-60.4608,-35.9651,65.4292],[-60.4679,-35.9729,65.89],[-60.4839,-35.984,66.6081],[-60.5026,-35.9923,68.5239],[-60.5241,-35.985,69.001],[-60.5292,-35.9901,68.786],[-60.5347,-36.0021,68.4841],[-60.5445,-36.0088,68.5971],[-60.544,-36.0125,69.1333],[-60.5474,-36.0161,70.2383],[-60.5527,-36.0174,68.678],[-60.5559,-36.0242,69.7575],[-60.5642,-36.025,69.7977],[-60.5722,-36.0287,70.1609],[-60.5765,-36.0458,70.8659],[-60.5847,-36.0505,72.9182],[-60.5928,-36.0638,73.6541],[-60.6119,-36.0796,72.3069],[-60.6126,-36.0875,73.2543],[-60.6164,-36.0923,73.4172],[-60.6262,-36.0964,73.8736],[-60.6338,-36.1071,73.9899],[-60.6454,-36.1138,75.1764],[-60.6528,-36.1161,75.254],[-60.6621,-36.1162,76.0536],[-60.6766,-36.1239,76.4258],[-60.6951,-36.137,77.2938]]]]}}