{"type":"Feature","properties":{"GID_2":"ARG.16.6_1","GID_0":"ARG","country":"Argentina","GID_1":"ARG.16_1","state":"RíoNegro","NL_NAME_1":"NA","county":"GeneralRoca","VARNAME_2":"NA","NL_NAME_2":"NA","TYPE_2":"Departamento","ENGTYPE_2":"Department","CC_2":"NA","HASC_2":"AR.RN.GR","name":"GeneralRoca.county"},
"geometry":{"type": "MultiPolygon","coordinates": [[[[-67.0886,-38.3838,250.8095],[-67.1243,-38.3683,237.3115],[-67.1296,-38.3574,239.0239],[-67.1456,-38.3582,238.2192],[-67.1517,-38.3555,237.7758],[-67.1549,-38.3386,240.8931],[-67.1539,-38.3267,241.1242],[-67.1577,-38.3128,239.654],[-67.1566,-38.2962,242.6662],[-67.1635,-38.278,246.7904],[-67.1616,-38.2705,263.2274],[-67.1626,-38.2652,250.2332],[-67.1817,-38.2617,241.9203],[-67.1867,-38.257,245.4691],[-67.1835,-38.2232,256.2374],[-67.1854,-38.2141,256.6906],[-67.1914,-38.2134,270.6268],[-67.2215,-38.2165,273.0],[-67.2576,-38.2151,273.0],[-67.2672,-38.2206,273.0],[-67.2761,-38.222,273.0],[-67.286,-38.2309,273.0],[-67.2969,-38.2339,273.0],[-67.3147,-38.2467,273.0],[-67.3684,-38.2527,273.0],[-67.389,-38.2496,273.0],[-67.404,-38.2497,273.0],[-67.4331,-38.2435,273.0],[-67.469,-38.2466,273.0],[-67.4809,-38.2463,273.0],[-67.4898,-38.245,273.0],[-67.4955,-38.2384,273.0],[-67.4982,-38.2377,273.0],[-67.5013,-38.2379,273.0],[-67.5066,-38.2421,273.0],[-67.5222,-38.2486,273.0],[-67.5342,-38.2517,273.0],[-67.5444,-38.2515,273.0],[-67.5491,-38.2503,273.0],[-67.5549,-38.2464,273.0],[-67.5623,-38.2449,273.0],[-67.5746,-38.2466,273.0],[-67.5845,-38.2447,273.0],[-67.5912,-38.2417,273.0],[-67.5933,-38.2364,273.0],[-67.5942,-38.2266,273.0],[-67.6224,-38.2179,273.0],[-67.6345,-38.2156,273.0],[-67.6422,-38.2104,273.0],[-67.6512,-38.1986,277.4857],[-67.6594,-38.1938,277.8937],[-67.6622,-38.1906,278.4586],[-67.6656,-38.1789,278.6315],[-67.6781,-38.1528,279.1039],[-67.6914,-38.1384,278.064],[-67.6979,-38.1363,277.5],[-67.7052,-38.138,278.5032],[-67.7101,-38.1372,278.9419],[-67.7146,-38.1354,279.623],[-67.7211,-38.1293,280.7316],[-67.7255,-38.1221,281.2161],[-67.7323,-38.0987,281.7863],[-67.7372,-38.0949,283.6242],[-67.7398,-38.0948,284.5544],[-67.7506,-38.0686,282.7143],[-67.7547,-38.0674,284.1276],[-67.7652,-38.0718,285.7401],[-67.7758,-38.061,284.5644],[-67.7811,-38.0606,285.1911],[-67.7981,-38.0681,286.507],[-67.8126,-38.0715,287.2615],[-67.8252,-38.0713,288.934],[-67.8437,-38.0653,288.1933],[-67.8552,-38.0547,290.6412],[-67.8628,-38.0443,291.4592],[-67.8738,-38.0336,293.7899],[-67.8879,-38.0227,297.1136],[-67.8991,-38.0007,297.7846],[-67.9003,-37.9913,296.6079],[-67.8965,-37.9822,298.5269],[-67.8889,-37.9744,299.8177],[-67.8817,-37.961,301.4155],[-67.8673,-37.9422,304.1604],[-67.8484,-37.9263,305.3513],[-67.818,-37.9098,312.2032],[-67.8002,-37.906,315.2982],[-67.7874,-37.9073,316.4737],[-67.7822,-37.9064,316.1002],[-67.7786,-37.9025,317.7934],[-67.7612,-37.8707,323.4739],[-67.7547,-37.8658,324.2706],[-67.7408,-37.8603,325.0406],[-67.7371,-37.8566,327.1629],[-67.7149,-37.8111,337.4727],[-67.7396,-37.7773,344.2699],[-67.7472,-37.764,346.1817],[-67.7645,-37.7147,360.1418],[-67.7677,-37.6832,363.6315],[-67.784,-37.6594,368.7017],[-67.7895,-37.6539,371.0275],[-67.8224,-37.6406,376.3927],[-67.8431,-37.6229,380.9717],[-67.8811,-37.6131,386.8524],[-67.9911,-37.6075,406.1293],[-68.0455,-37.6004,415.9022],[-68.0915,-37.5996,425.4615],[-68.1232,-37.591,429.0028],[-68.1441,-37.5871,435.0919],[-68.1654,-37.5855,438.654],[-68.2051,-37.5873,445.0033],[-68.223,-37.5841,455.0809],[-68.2428,-37.5779,468.0504],[-68.2453,-38.6876,312.7395],[-68.233,-38.6972,309.5706],[-68.1883,-38.7129,303.1953],[-68.1641,-38.7287,300.322],[-68.1455,-38.7363,296.7691],[-68.1346,-38.743,295.0966],[-68.1254,-38.7512,293.6362],[-68.1177,-38.7862,290.0065],[-68.1004,-38.8223,285.8832],[-68.0893,-38.8328,280.732],[-68.0896,-38.8464,283.8983],[-68.0848,-38.8567,278.7225],[-68.0794,-38.8636,275.5048],[-68.0789,-38.8801,274.4755],[-68.0719,-38.886,270.6604],[-68.0711,-38.8887,274.9713],[-68.073,-38.8995,273.188],[-68.0721,-38.9049,280.9398],[-68.0533,-38.9119,269.4115],[-68.0523,-38.9228,268.2642],[-68.0479,-38.9302,268.378],[-68.0397,-38.9391,262.939],[-68.029,-38.9461,263.2128],[-68.0153,-38.9582,262.0216],[-68.0127,-38.9662,261.9153],[-68.0142,-38.9771,258.5384],[-68.0163,-38.9793,254.0037],[-68.0218,-38.9811,254.7141],[-68.0028,-38.9912,260.374],[-67.9927,-38.9926,256.9303],[-67.9699,-38.9908,255.7031],[-67.9481,-39.0013,254.0965],[-67.9211,-38.9955,252.2714],[-67.9046,-38.9959,251.6097],[-67.8915,-39.0067,251.4117],[-67.8474,-39.0326,242.203],[-67.8376,-39.0346,245.1842],[-67.8198,-39.0326,246.0016],[-67.8099,-39.0343,245.1038],[-67.783,-39.0461,243.6736],[-67.774,-39.0571,239.9657],[-67.7647,-39.0639,239.3967],[-67.7461,-39.0706,238.9451],[-67.7319,-39.0698,233.705],[-67.7257,-39.0709,241.7578],[-67.7186,-39.0751,238.8026],[-67.7064,-39.0866,233.513],[-67.656,-39.1016,237.354],[-67.6401,-39.1079,236.7787],[-67.626,-39.1085,243.5309],[-67.6151,-39.1114,229.5047],[-67.5947,-39.1092,231.8443],[-67.5667,-39.1119,254.8123],[-67.5617,-39.1088,245.4013],[-67.5547,-39.1004,224.0],[-67.559,-39.0913,228.9769],[-67.5452,-39.0838,227.0905],[-67.5429,-39.0884,228.8595],[-67.5439,-39.0935,227.9859],[-67.5394,-39.0949,232.3647],[-67.5331,-39.0939,229.5415],[-67.5249,-39.0859,228.6734],[-67.5109,-39.0867,226.0257],[-67.5027,-39.0845,220.5],[-67.4721,-39.0883,226.2995],[-67.4561,-39.0884,219.9894],[-67.4408,-39.0856,222.3629],[-67.4257,-39.09,224.6287],[-67.4068,-39.0912,215.9831],[-67.3979,-39.0936,236.8766],[-67.3791,-39.0927,216.582],[-67.3741,-39.0953,231.2068],[-67.3717,-39.1001,213.0],[-67.3633,-39.1036,216.2959],[-67.3377,-39.1029,216.6837],[-67.3225,-39.1066,216.9433],[-67.3035,-39.1045,217.9016],[-67.2949,-39.1075,233.0056],[-67.2855,-39.1067,212.2034],[-67.2725,-39.1141,211.1398],[-67.2565,-39.1148,206.749],[-67.2478,-39.1177,210.9515],[-67.2413,-39.118,218.946],[-67.2355,-39.1161,207.5811],[-67.2229,-39.1182,209.4014],[-67.2068,-39.1183,208.1748],[-67.204,-39.1191,207.8697],[-67.2001,-39.1233,211.2483],[-67.1891,-39.1281,206.1711],[-67.1812,-39.1359,223.4886],[-67.1723,-39.1386,223.6022],[-67.1687,-39.1456,231.5229],[-67.1645,-39.1493,230.7532],[-67.1262,-39.1671,231.2363],[-67.0629,-39.1741,220.9548],[-67.0323,-39.181399999999996,220.6057],[-67.0136,-39.1782,197.9213],[-66.9775,-39.1678,192.72559999999999],[-66.9577,-39.1556,193.4507],[-66.9463,-39.1509,194.5527],[-66.9252,-39.145,190.1343],[-66.9062,-39.1437,190.4103],[-66.8791,-39.1361,189.3979],[-66.8662,-39.1354,188.1542],[-66.8475,-39.1381,186.8543],[-66.7584,-39.1306,178.8808],[-66.679,-39.1113,178.6974],[-66.6407,-39.1059,176.4126],[-66.6446,-38.531,242.8313],[-66.6674,-38.5294,227.6867],[-66.684,-38.5237,234.6451],[-66.7021,-38.5229,236.4674],[-66.7177,-38.5157,230.5],[-66.7355,-38.5122,222.3009],[-66.7427,-38.5083,222.5294],[-66.7564,-38.4955,231.4961],[-66.7893,-38.4832,222.9752],[-66.8103,-38.483,221.4021],[-66.8328,-38.4763,221.1446],[-66.8538,-38.4756,222.8986],[-66.8661,-38.4686,225.7922],[-66.8853,-38.4614,224.0005],[-66.8891,-38.4578,227.1331],[-66.8941,-38.4486,232.3967],[-66.8986,-38.4464,226.9519],[-66.9077,-38.4453,224.8314],[-66.9202,-38.4463,227.7003],[-66.9315,-38.4542,228.275],[-66.9402,-38.4546,228.8085],[-66.9583,-38.4514,229.8447],[-66.9707,-38.4445,230.7115],[-66.9917,-38.4426,235.485],[-67.012,-38.4251,233.4962],[-67.0481,-38.4133,231.9092],[-67.0627,-38.4013,249.1757],[-67.0755,-38.3951,244.1242],[-67.0886,-38.3838,250.8095]]]]}}