{"type": "Feature","bbox": [-65.3571,-24.6046,-64.8321,-24.3281],"geometry": {"type": "MultiPolygon","coordinates": [[[[-65.3535,-24.4663,1795.3064],[-65.3493,-24.4695,1865.8635],[-65.3484,-24.4749,1845.7688],[-65.3571,-24.4854,1722.1344],[-65.3394,-24.5003,1728.75],[-65.3336,-24.5018,1542.3914],[-65.3251,-24.4989,1593.9785],[-65.3131,-24.4981,1449.6432],[-65.2932,-24.5044,1362.3119],[-65.2843,-24.5053,1273.4906],[-65.2726,-24.5031,1339.1152],[-65.2635,-24.4959,1129.6311],[-65.2476,-24.4882,1170.3538],[-65.2388,-24.4862,1293.3108],[-65.2297,-24.4862,1344.3],[-65.2197,-24.4763,1186.7418],[-65.188,-24.4603,981.1786],[-65.1854,-24.461,980.5151],[-65.1545,-24.4785,917.5983],[-65.1346,-24.5026,865.5212],[-65.1232,-24.506,852.2299],[-65.0995,-24.523,800.2901],[-65.0919,-24.5316,783.5632],[-65.0854,-24.547,761.2559],[-65.0867,-24.5602,747.1257],[-65.079,-24.5649,737.5597],[-65.0392,-24.5775,687.9716],[-65.0128,-24.5831,663.283],[-64.9918,-24.5842,649.2758],[-64.9314,-24.6013,599.5732],[-64.9076,-24.6046,590.6712],[-64.8984,-24.6035,593.0804],[-64.8934,-24.601,599.1124],[-64.8776,-24.5807,592.7],[-64.8765,-24.5698,579.6968],[-64.8812,-24.563,575.324],[-64.8731,-24.5421,562.9559],[-64.8693,-24.5232,570.3657],[-64.8595,-24.5036,548.124],[-64.8464,-24.497,544.8637],[-64.8429,-24.4903,541.049],[-64.8373,-24.4883,541.2365],[-64.836,-24.4831,539.035],[-64.8321,-24.4777,534.1755],[-64.8476,-24.466,532.8696],[-64.9186,-24.4424,819.9015],[-64.8886,-24.3719,652.4502],[-64.9946,-24.3652,878.4858],[-65.0099,-24.3729,871.0936],[-65.0242,-24.373,878.148],[-65.038,-24.3692,857.892],[-65.0768,-24.3455,889.9283],[-65.1042,-24.3375,940.374],[-65.1174,-24.3349,969.6939],[-65.1561,-24.3336,1018.3317],[-65.2168,-24.3281,1124.2439],[-65.2403,-24.3477,1150.0264],[-65.2437,-24.3602,1147.9526],[-65.2426,-24.3702,1144.9976],[-65.2493,-24.3705,1158.2052],[-65.261,-24.3644,1186.2444],[-65.2736,-24.3642,1205.3826],[-65.2841,-24.3699,1224.4563],[-65.3114,-24.3763,1278.4167],[-65.3131,-24.3823,1401.6063],[-65.3177,-24.3873,1459.0948],[-65.3403,-24.3895,1427.8076],[-65.3492,-24.396,1457.5756],[-65.3542,-24.4111,1636.5928],[-65.3467,-24.4276,1639.1842],[-65.3534,-24.4456,1764.8435],[-65.3535,-24.4663,1795.3064]]]]}
,"properties": {"GID_2": "ARG.10.3_1","GID_0": "ARG","country": "Argentina","GID_1": "ARG.10_1","state": "Jujuy","NL_NAME_1": "NA","county": "ElCarmen","VARNAME_2": "NA","NL_NAME_2": "NA","TYPE_2": "Departamento","ENGTYPE_2": "Department","CC_2": "NA","HASC_2": "AR.JY.EC","name": "ElCarmen.county","area_km2": 936.6227,"hist_schema_id": "Elevation0-9000","hist_area_km2": {"525": 4.361,"550": 15.1448,"575": 20.1744,"600": 26.9214,"625": 28.2333,"650": 33.597,"675": 33.9677,"700": 39.6636,"725": 41.2706,"750": 40.6572,"775": 40.9914,"800": 43.9299,"825": 50.9223,"850": 53.6661,"875": 49.7489,"900": 41.061,"925": 33.7257,"950": 31.6426,"975": 25.9113,"1000": 23.8844,"1025": 22.3404,"1050": 21.7229,"1075": 20.3718,"1100": 17.7853,"1125": 16.916,"1150": 10.9866,"1175": 23.4723,"1200": 19.7872,"1225": 14.3612,"1250": 11.6004,"1275": 9.5927,"1300": 7.0838,"1325": 6.8137,"1350": 5.9642,"1375": 4.6904,"1400": 4.1885,"1425": 3.899,"1450": 3.5323,"1475": 3.5902,"1500": 3.5901,"1525": 3.5322,"1550": 2.9532,"1575": 3.5515,"1600": 2.4127,"1625": 2.6828,"1650": 2.2967,"1675": 2.0845,"1700": 1.6404,"1725": 1.0422,"1750": 0.8298,"1775": 0.5404,"1800": 0.4824,"1825": 0.4052,"1850": 0.1351,"1875": 0.1351,"1900": 0.0772,"1950": 0.0579}}}