{"type": "Feature","bbox": [-58.6067,-29.7529,-57.1765,-28.4971],"geometry": {"type": "MultiPolygon","coordinates": [[[[-58.3084,-28.825,46.8307],[-58.3098,-28.832,47.6525],[-58.3132,-28.8385,47.5831],[-58.322,-28.8457,47.0674],[-58.3287,-28.8546,47.1524],[-58.3467,-28.8687,47.3537],[-58.3517,-28.8784,46.4883],[-58.3595,-28.8866,46.4074],[-58.36,-28.8934,46.5882],[-58.3755,-28.8974,46.4667],[-58.3822,-28.9013,45.0],[-58.3879,-28.9179,45.1903],[-58.3958,-28.9199,45.0473],[-58.4085,-28.9283,44.4453],[-58.4205,-28.9289,45.4092],[-58.428,-28.9316,46.3961],[-58.4423,-28.9261,45.1647],[-58.4566,-28.933,46.149],[-58.4604,-28.9325,46.1071],[-58.464,-28.9307,46.1366],[-58.4668,-28.9244,45.9454],[-58.4848,-28.9326,46.691],[-58.496,-28.9295,46.5773],[-58.5,-28.9303,46.731],[-58.5023,-28.933,43.6953],[-58.5013,-28.9401,43.5163],[-58.5023,-28.9434,46.6011],[-58.51,-28.9517,43.0],[-58.5124,-28.9621,46.263],[-58.5182,-28.9671,46.6452],[-58.5287,-28.9723,46.5006],[-58.5436,-28.989,45.2057],[-58.5473,-28.9879,44.4725],[-58.5492,-28.9847,45.0777],[-58.5523,-28.9831,44.099],[-58.5561,-28.9845,43.0],[-58.563,-28.9973,45.8306],[-58.5653,-29.0113,43.3533],[-58.5741,-29.0185,44.9161],[-58.5791,-29.0281,46.0914],[-58.5864,-29.0366,44.2208],[-58.6067,-29.0538,45.3508],[-58.605,-29.0595,45.3517],[-58.5919,-29.0675,45.6563],[-58.5762,-29.0707,46.1392],[-58.5636,-29.0795,46.9146],[-58.5599,-29.0857,46.9517],[-58.5596,-29.0965,47.0584],[-58.5534,-29.1055,47.2518],[-58.5431,-29.1111,47.4988],[-58.5318,-29.1149,47.8719],[-58.5125,-29.1278,49.0815],[-58.4871,-29.1385,50.1471],[-58.4815,-29.1437,50.8883],[-58.4776,-29.1499,58.2378],[-58.47,-29.1664,63.3608],[-58.4619,-29.1743,57.7699],[-58.4279,-29.1935,56.7537],[-58.4082,-29.1973,58.1403],[-58.3806,-29.2363,64.5851],[-58.3695,-29.2466,67.0941],[-58.3591,-29.2522,64.2142],[-58.3477,-29.2558,65.1576],[-58.3317,-29.2582,69.0452],[-58.3155,-29.2583,66.8836],[-58.3085,-29.2615,71.1748],[-58.3057,-29.2642,71.3159],[-58.3025,-29.2745,73.9441],[-58.294,-29.2905,71.6655],[-58.2865,-29.2986,78.7525],[-58.2712,-29.3094,82.2503],[-58.2498,-29.3307,81.5546],[-58.2201,-29.3688,108.3177],[-58.2113,-29.3847,115.3356],[-58.1796,-29.4166,94.0319],[-58.1657,-29.4382,93.8756],[-58.1602,-29.4434,88.8377],[-58.1523,-29.4446,84.0021],[-58.1362,-29.4433,77.8167],[-58.1284,-29.4452,77.0243],[-58.1229,-29.4504,79.8639],[-58.1187,-29.4604,84.0797],[-58.1111,-29.4687,76.9484],[-58.0924,-29.4753,76.0461],[-58.0791,-29.4835,81.3626],[-58.0633,-29.4866,71.2593],[-58.0228,-29.489,68.6073],[-58.0198,-29.4914,69.8964],[-58.0105,-29.5071,76.8131],[-57.9963,-29.5136,69.9291],[-57.9848,-29.5236,74.6712],[-57.979,-29.533,74.64],[-57.9602,-29.5465,72.0046],[-57.9489,-29.5503,63.7323],[-57.9206,-29.5513,69.3925],[-57.9173,-29.5532,65.5076],[-57.918,-29.5603,64.7847],[-57.9164,-29.5636,67.2793],[-57.9074,-29.5708,62.9232],[-57.8973,-29.5819,61.0043],[-57.887,-29.6011,60.2588],[-57.8852,-29.6438,61.3924],[-57.8827,-29.6542,67.2351],[-57.8711,-29.6728,62.822],[-57.8631,-29.6808,61.193],[-57.8547,-29.6929,62.4786],[-57.85,-29.7027,63.8028],[-57.8422,-29.7109,60.5988],[-57.8282,-29.7179,60.4724],[-57.8201,-29.719,61.432],[-57.8039,-29.7181,55.7258],[-57.7806,-29.7244,54.5748],[-57.7773,-29.7263,59.5365],[-57.7724,-29.7361,55.5571],[-57.7696,-29.7387,61.9181],[-57.7465,-29.7529,53.3944],[-57.7425,-29.7528,53.8577],[-57.7337,-29.7458,51.5815],[-57.7261,-29.7442,50.3932],[-57.7177,-29.7365,50.1401],[-57.7072,-29.7317,51.6773],[-57.699,-29.7318,51.9533],[-57.6915,-29.7347,54.7444],[-57.6794,-29.7358,51.5977],[-57.6597,-29.732,49.053],[-57.6569,-29.7333,51.3266],[-57.6559,-29.7395,54.819],[-57.6268,-29.7394,47.5495],[-57.6201,-29.7178,57.7455],[-57.6131,-29.7093,63.0504],[-57.6083,-29.6922,50.4282],[-57.6016,-29.6883,48.27],[-57.5825,-29.6822,48.322],[-57.5719,-29.6769,48.761],[-57.5638,-29.6689,48.7232],[-57.5523,-29.6501,49.4903],[-57.5503,-29.6396,49.8635],[-57.5464,-29.6338,51.784],[-57.5433,-29.6198,48.6366],[-57.5472,-29.5847,50.5683],[-57.5426,-29.5787,50.5781],[-57.5262,-29.5682,51.0255],[-57.5232,-29.5543,55.7903],[-57.5195,-29.5479,53.4455],[-57.5218,-29.5089,51.5152],[-57.5331,-29.4786,65.4909],[-57.5339,-29.4647,83.0467],[-57.5328,-29.4614,81.0019],[-57.5234,-29.4497,53.001],[-57.5218,-29.4465,51.8684],[-57.5224,-29.443,51.4535],[-57.5285,-29.4383,52.6812],[-57.5431,-29.432,53.9055],[-57.5483,-29.4266,64.2741],[-57.5496,-29.4232,61.2164],[-57.5488,-29.4126,59.7371],[-57.5444,-29.4027,57.966],[-57.5499,-29.3932,58.7275],[-57.5512,-29.3862,60.0274],[-57.5501,-29.3829,56.1387],[-57.5471,-29.3806,53.7298],[-57.5475,-29.37,54.1357],[-57.5551,-29.3535,54.8704],[-57.5729,-29.3461,54.1824],[-57.5736,-29.3428,54.5282],[-57.5692,-29.337,54.6415],[-57.57,-29.3335,54.6258],[-57.5808,-29.3232,58.1695],[-57.5754,-29.3099,55.2541],[-57.5783,-29.2994,59.2388],[-57.5759,-29.2928,55.8683],[-57.5751,-29.2822,58.6438],[-57.5623,-29.2685,55.339],[-57.5568,-29.2591,55.5574],[-57.5522,-29.2454,55.2339],[-57.5514,-29.2383,55.324],[-57.5547,-29.2172,56.5821],[-57.553,-29.2103,59.9039],[-57.5431,-29.1991,57.1383],[-57.5156,-29.1598,61.7786],[-57.5033,-29.1456,59.5964],[-57.5005,-29.143,62.1952],[-57.486,-29.1369,57.241],[-57.4779,-29.129,57.1191],[-57.468,-29.123,57.3213],[-57.4567,-29.1128,57.5458],[-57.4446,-29.0943,57.284],[-57.4252,-29.0718,58.5234],[-57.4054,-29.0597,59.1477],[-57.3813,-29.0408,59.594],[-57.3742,-29.0374,59.9381],[-57.3525,-29.0166,61.0184],[-57.323,-28.9923,63.0874],[-57.3116,-28.9754,63.7306],[-57.2979,-28.9626,63.6781],[-57.2783,-28.9236,63.2473],[-57.2648,-28.9162,67.1315],[-57.2466,-28.897,67.9476],[-57.2427,-28.8871,65.8868],[-57.2265,-28.8712,64.3688],[-57.2108,-28.8422,66.849],[-57.1993,-28.84,64.4564],[-57.1934,-28.8354,64.3608],[-57.1918,-28.8285,64.3833],[-57.1968,-28.8112,64.709],[-57.1879,-28.7878,64.849],[-57.183,-28.7821,64.5003],[-57.1807,-28.7754,64.6993],[-57.1765,-28.7294,65.1277],[-57.1807,-28.6798,64.9978],[-57.1796,-28.6549,63.0],[-57.1811,-28.6372,63.96],[-57.1849,-28.6234,64.1924],[-57.1833,-28.6128,64.0136],[-57.1867,-28.5917,63.5437],[-57.1922,-28.5709,62.6408],[-57.2019,-28.5513,64.8409],[-57.2253,-28.514,62.0349],[-57.241,-28.4971,61.5485],[-57.3083,-28.5284,60.7485],[-57.3422,-28.5397,60.2083],[-57.4367,-28.5575,58.7302],[-57.5071,-28.5729,57.0],[-57.5667,-28.5817,58.2069],[-57.6364,-28.5996,58.4502],[-57.655,-28.6063,58.1433],[-57.7374,-28.623,56.3275],[-57.7521,-28.6286,55.9755],[-57.7653,-28.6367,55.3174],[-57.7849,-28.6412,55.391],[-57.7988,-28.6482,55.2167],[-57.8412,-28.6595,53.0],[-57.8863,-28.6749,55.1694],[-57.9222,-28.68,54.2718],[-57.9786,-28.6788,53.2409],[-58.0066,-28.682,52.8299],[-58.0104,-28.681,52.7849],[-58.0127,-28.6781,52.8729],[-58.0128,-28.6744,52.8761],[-58.0159,-28.6727,52.9396],[-58.0279,-28.6729,52.9161],[-58.0417,-28.6803,52.4725],[-58.0456,-28.6803,51.8545],[-58.056399999999996,-28.6756,52.0833],[-58.0617,-28.6701,51.8959],[-58.0691,-28.6704,51.6201],[-58.0729,-28.6717,51.5924],[-58.0815,-28.6791,51.7583],[-58.0825,-28.6932,50.8828],[-58.0963,-28.7006,50.2623],[-58.1234,-28.7079,50.2939],[-58.1349,-28.7264,50.2782],[-58.1488,-28.7393,50.1419],[-58.1525,-28.7404,50.1216],[-58.1645,-28.7385,49.963],[-58.1708,-28.7425,49.9716],[-58.1826,-28.7432,49.4637],[-58.1977,-28.7478,49.5658],[-58.2216,-28.7453,48.889],[-58.2418,-28.7568,48.7753],[-58.2496,-28.7581,48.5077],[-58.2534,-28.7569,48.8464],[-58.2614,-28.7574,48.7044],[-58.2798,-28.7646,48.5227],[-58.3013,-28.7807,49.9969],[-58.3136,-28.7948,47.6393],[-58.3148,-28.7981,47.2737],[-58.3137,-28.8016,47.5233],[-58.3072,-28.8146,47.8818],[-58.3084,-28.825,46.8307]]]]}
,"properties": {"GID_2": "ARG.7.15_1","GID_0": "ARG","country": "Argentina","GID_1": "ARG.7_1","state": "Corrientes","NL_NAME_1": "NA","county": "Mercedes","VARNAME_2": "NA","NL_NAME_2": "NA","TYPE_2": "Departamento","ENGTYPE_2": "Department","CC_2": "NA","HASC_2": "AR.CN.ME","name": "Mercedes.county","area_km2": 9991.29,"hist_schema_id": "Elevation0-9000","hist_area_km2": {"50": 2236.578,"75": 6443.069,"100": 1169.91,"125": 141.64}}}