{"type":"Feature","properties":{"GID_2":"ARG.1.102_1","GID_0":"ARG","country":"Argentina","GID_1":"ARG.1_1","state":"BuenosAires","NL_NAME_1":"NA","county":"Saladillo","VARNAME_2":"NA","NL_NAME_2":"NA","TYPE_2":"Partido","ENGTYPE_2":"Part","CC_2":"NA","HASC_2":"AR.BA.SL","name":"Saladillo.county"},
"geometry":{"type": "MultiPolygon","coordinates": [[[[-59.7065,-35.8377,39.5825],[-59.6965,-35.8347,38.1893],[-59.6831,-35.84,37.3706],[-59.679,-35.8472,37.4768],[-59.6719,-35.8537,37.6201],[-59.6519,-35.866,36.4728],[-59.6245,-35.859,36.0937],[-59.6097,-35.8613,36.8511],[-59.5983,-35.8573,34.9346],[-59.5941,-35.8609,35.0514],[-59.5672,-35.8564,33.5914],[-59.5665,-35.8512,33.0789],[-59.5568,-35.849,33.7225],[-59.5519,-35.845,33.4099],[-59.5473,-35.8443,33.1366],[-59.5451,-35.841,33.0832],[-59.5408,-35.8398,33.1218],[-59.5357,-35.8342,33.6821],[-59.523,-35.8332,32.7682],[-59.5172,-35.8306,31.8806],[-59.5126,-35.8264,32.3536],[-59.5035,-35.8231,31.6754],[-59.4844,-35.8227,31.0334],[-59.4813,-35.8206,31.6461],[-59.4803,-35.8158,32.1315],[-59.466,-35.8112,30.6215],[-59.465,-35.8158,30.2155],[-59.4582,-35.8161,30.4481],[-59.4455,-35.8095,29.6687],[-59.4295,-35.8088,29.8341],[-59.4205,-35.8068,29.4264],[-59.4122,-35.8108,30.5456],[-59.407,-35.808,29.7606],[-59.3976,-35.81,28.7849],[-59.3937,-35.8141,28.6826],[-59.3818,-35.8205,28.1748],[-59.358,-35.8116,27.8374],[-59.3512,-35.811,28.5557],[-59.3475,-35.807,27.8107],[-59.3399,-35.8031,27.6681],[-59.325,-35.811,26.8987],[-59.3187,-35.8118,26.7495],[-59.3172,-35.8085,26.9123],[-59.3071,-35.801,26.7475],[-59.2935,-35.8006,26.1158],[-59.2836,-35.7964,25.879],[-59.2635,-35.797,25.4784],[-59.2599,-35.795,25.7764],[-59.2528,-35.7961,24.9777],[-59.2382,-35.7905,25.1116],[-59.2362,-35.7862,25.2565],[-59.2309,-35.7823,25.2322],[-59.2051,-35.7737,24.927],[-59.1894,-35.7666,24.5043],[-59.1845,-35.7596,24.3551],[-59.3326,-35.6466,27.1478],[-59.3368,-35.6516,26.5294],[-59.3737,-35.6237,27.7605],[-59.3783,-35.6265,27.6223],[-59.4231,-35.5919,27.2159],[-59.3609,-35.5363,26.5514],[-59.3645,-35.5352,25.7567],[-59.3722,-35.5409,26.3665],[-59.3854,-35.5406,26.4842],[-59.3885,-35.5357,26.6345],[-59.4037,-35.533,27.7353],[-59.4133,-35.5257,27.5331],[-59.4299,-35.5225,28.0205],[-59.4406,-35.5187,30.2713],[-59.4698,-35.5007,29.7208],[-59.4776,-35.4985,30.4524],[-59.4896,-35.4991,33.9112],[-59.5006,-35.4959,31.5412],[-59.516,-35.4824,32.2968],[-59.5275,-35.4634,32.5747],[-59.5456,-35.4618,32.7311],[-59.5576,-35.4683,33.1862],[-59.5744,-35.4718,33.7889],[-59.5812,-35.4632,35.8089],[-59.5855,-35.4622,34.4166],[-59.5971,-35.4634,34.9961],[-59.6038,-35.4676,35.1658],[-59.6098,-35.4677,35.0161],[-59.6249,-35.46,34.5215],[-59.6297,-35.4591,34.5994],[-59.6332,-35.4683,34.8751],[-59.6502,-35.4703,35.1891],[-59.654,-35.4687,35.2165],[-59.6539,-35.4582,34.4594],[-59.6595,-35.4607,34.0],[-59.6639,-35.4582,34.0],[-59.6668,-35.4601,34.0],[-59.6771,-35.4573,34.0],[-59.6901,-35.4584,35.129],[-59.6926,-35.4615,35.2404],[-59.6924,-35.4686,35.1091],[-59.6955,-35.474,35.2124],[-59.7019,-35.4794,35.4163],[-59.7134,-35.4815,35.5594],[-59.7212,-35.4762,35.1228],[-59.7382,-35.4768,35.0896],[-59.7502,-35.4709,35.2726],[-59.7538,-35.4749,35.0],[-59.7539,-35.4784,35.1936],[-59.7605,-35.4774,35.3738],[-59.7696,-35.4838,35.8137],[-59.7739,-35.4846,36.1794],[-59.7814,-35.4825,35.7798],[-59.7892,-35.4843,36.0431],[-59.7955,-35.4877,36.2094],[-59.8035,-35.4967,36.8643],[-59.8189,-35.4993,37.1052],[-59.8283,-35.5033,37.5754],[-59.8465,-35.502,38.5445],[-59.8544,-35.4965,38.1559],[-59.8656,-35.4962,38.31],[-59.8701,-35.4929,38.4322],[-59.8825,-35.49,38.9409],[-59.8862,-35.4839,38.4227],[-59.893,-35.4827,37.6711],[-59.9052,-35.4837,37.5121],[-59.9154,-35.4925,38.8204],[-59.9344,-35.495,39.9534],[-60.0032,-35.5365,41.3604],[-60.0078,-35.5363,41.7567],[-60.0114,-35.5401,42.3335],[-60.0128,-35.5446,42.2777],[-60.0259,-35.553,42.8425],[-60.0281,-35.5596,42.8459],[-60.0265,-35.5672,42.7206],[-60.0199,-35.5706,43.1682],[-60.0185,-35.5752,43.1538],[-60.0101,-35.5827,42.6701],[-60.0142,-35.5987,43.2339],[-60.0131,-35.6028,42.9154],[-60.0233,-35.6139,43.2917],[-60.0333,-35.6195,44.1448],[-60.04,-35.6304,44.2562],[-60.0387,-35.6351,45.8676],[-60.0332,-35.6412,45.6841],[-60.0324,-35.6454,46.0712],[-60.0344,-35.6505,45.8443],[-60.0346,-35.6614,44.8214],[-60.0294,-35.6618,45.3892],[-60.0166,-35.6574,45.807],[-60.0198,-35.6643,44.5793],[-60.0302,-35.6752,43.9449],[-60.0427,-35.6844,45.0278],[-60.0357,-35.6894,45.1609],[-60.0372,-35.6932,45.4706],[-60.0369,-35.6983,45.6507],[-60.0395,-35.7023,45.6581],[-60.0521,-35.7025,45.8248],[-60.063,-35.7042,45.898],[-60.0676,-35.7068,45.6755],[-60.1232,-35.6648,48.0277],[-60.2244,-35.7525,54.176],[-60.1224,-35.8319,54.128],[-60.0637,-35.7794,49.6724],[-59.9601,-35.8592,50.4995],[-59.9198,-35.8982,47.9503],[-59.9133,-35.8938,47.3536],[-59.8986,-35.9004,46.8148],[-59.8847,-35.9116,46.5249],[-59.881,-35.9069,46.5542],[-59.8764,-35.9057,46.7136],[-59.8729,-35.9012,46.7365],[-59.8701,-35.8792,45.735],[-59.8613,-35.8759,45.9092],[-59.8568,-35.8721,45.3691],[-59.8511,-35.8618,43.8076],[-59.8434,-35.8559,43.7165],[-59.8232,-35.8571,42.4179],[-59.8196,-35.8595,42.5025],[-59.8048,-35.8504,41.8339],[-59.7937,-35.8492,41.8205],[-59.7786,-35.8526,41.2571],[-59.7711,-35.8474,41.6771],[-59.7663,-35.8475,41.5287],[-59.7432,-35.839,40.212],[-59.7065,-35.8377,39.5825]]]]}}