{"type":"Feature","properties":{"GID_2":"ARG.24.17_1","GID_0":"ARG","country":"Argentina","GID_1":"ARG.24_1","state":"Tucumán","NL_NAME_1":"NA","county":"YerbaBuena","VARNAME_2":"NA","NL_NAME_2":"NA","TYPE_2":"Departamento","ENGTYPE_2":"Department","CC_2":"NA","HASC_2":"AR.TM.YB","name":"YerbaBuena.county"},
"geometry":{"type": "MultiPolygon","coordinates": [[[[-65.2569,-26.7929,490.8944],[-65.2666,-26.7863,506.768],[-65.2733,-26.7789,532.407],[-65.2719,-26.7693,561.3046],[-65.2671,-26.7567,587.7211],[-65.3578,-26.7386,1560.1218],[-65.359,-26.7438,1432.9874],[-65.3559,-26.755,1302.2273],[-65.357,-26.7626,1252.9462],[-65.3528,-26.7693,1186.2468],[-65.3525,-26.773,1158.1145],[-65.3563,-26.7746,1190.0366],[-65.3605,-26.774,1192.7405],[-65.363,-26.7651,1212.064],[-65.367,-26.7643,1184.8137],[-65.3736,-26.7598,1013.8195],[-65.3793,-26.7626,988.7384],[-65.3832,-26.7671,951.7226],[-65.3893,-26.7689,926.8711],[-65.3921,-26.7739,1001.5134],[-65.399,-26.778199999999998,932.6326],[-65.4012,-26.7817,997.4914],[-65.4112,-26.7697,989.681],[-65.4113,-26.7659,1004.3187],[-65.415,-26.7611,1021.9697],[-65.4199,-26.7425,1094.822],[-65.4236,-26.7377,1140.1306],[-65.4358,-26.8329,736.642],[-65.4319,-26.8377,741.4693],[-65.4072,-26.8449,1122.5906],[-65.3847,-26.8489,1457.0217],[-65.3744,-26.8345,1350.8801],[-65.3802,-26.836,1397.5145],[-65.381,-26.8342,1444.8008],[-65.3792,-26.8286,1368.5988],[-65.3748,-26.8238,1400.5452],[-65.3093,-26.8383,466.9003],[-65.2769,-26.8471,417.4247],[-65.2724,-26.8302,435.616],[-65.2569,-26.7929,490.8944]]]]}}