{"type": "Feature","bbox": [-58.9391,-35.424,-58.4726,-34.8931],"geometry": {"type": "MultiPolygon","coordinates": [[[[-58.6512,-34.8931,11.007],[-58.6693,-34.905,12.5298],[-58.6802,-34.9087,12.403],[-58.6868,-34.9135,12.761],[-58.6939,-34.9141,13.5336],[-58.7261,-34.9279,15.4995],[-58.7394,-34.9377,16.7153],[-58.7418,-34.9413,17.0328],[-58.7547,-34.9493,18.2583],[-58.7646,-34.9638,18.3428],[-58.7819,-34.9632,19.606],[-58.7922,-34.9605,20.0231],[-58.7829,-34.967,20.7952],[-58.8677,-35.0443,32.018],[-58.8817,-35.0525,31.3336],[-58.9391,-35.1036,31.1576],[-58.8731,-35.1549,31.1032],[-58.8979,-35.1775,30.0184],[-58.812,-35.2424,29.7265],[-58.8161,-35.2461,29.3454],[-58.7768,-35.2754,28.2105],[-58.7524,-35.2558,28.0132],[-58.6859,-35.3078,27.3129],[-58.7145,-35.3353,27.2248],[-58.6761,-35.3652,25.7486],[-58.6665,-35.3597,25.1068],[-58.5877,-35.424,22.1983],[-58.527,-35.3689,23.462],[-58.5733,-35.3321,25.5293],[-58.4726,-35.2457,22.3962],[-58.5391,-35.1909,24.5299],[-58.5415,-35.193,24.4018],[-58.571,-35.1678,24.3259],[-58.5665,-35.1636,23.8034],[-58.5826,-35.1505,25.0841],[-58.5841,-35.0674,26.3887],[-58.6017,-35.0524,25.8454],[-58.5551,-35.0097,23.9527],[-58.6208,-34.9626,19.3671],[-58.6065,-34.9509,18.0857],[-58.6512,-34.8931,11.007]]]]}
,"properties": {"GID_2": "ARG.1.20_1","GID_0": "ARG","country": "Argentina","GID_1": "ARG.1_1","state": "BuenosAires","NL_NAME_1": "NA","county": "Cañuelas","VARNAME_2": "NA","NL_NAME_2": "NA","TYPE_2": "Partido","ENGTYPE_2": "Part","CC_2": "NA","HASC_2": "AR.BA.CL","name": "Cañuelas.county","area_km2": 1195.1543,"hist_schema_id": "Elevation0-9000","hist_area_km2": {"0": 2.3995,"25": 1187.9337,"50": 4.8212}}}