{"type": "Feature","bbox": [-63.3899,-36.6123,-62.9398,-35.8839],"geometry": {"type": "MultiPolygon","coordinates": [[[[-63.2813,-36.6123,122.076],[-63.1241,-36.4829,118.5327],[-63.1272,-36.4794,116.5809],[-63.0478,-36.4165,113.1547],[-63.067,-36.4031,113.0528],[-63.0293,-36.3717,112.0766],[-63.0423,-36.3601,112.6325],[-63.0037,-36.3282,108.6853],[-63.0005,-36.3296,107.9823],[-62.9582,-36.2959,106.5196],[-62.9797,-36.2791,110.7607],[-62.9398,-36.246,107.4581],[-63.1967,-36.0318,107.8298],[-63.2031,-36.037,106.4409],[-63.3885,-35.8839,111.1322],[-63.3871,-35.9992,112.2439],[-63.389,-36.0619,114.2112],[-63.3899,-36.5134,122.7394],[-63.3392,-36.5553,120.6502],[-63.3442,-36.5601,122.1452],[-63.2813,-36.6123,122.076]]]]}
,"properties": {"GID_2": "ARG.1.89_1","GID_0": "ARG","country": "Argentina","GID_1": "ARG.1_1","state": "BuenosAires","NL_NAME_1": "NA","county": "Pellegrini","VARNAME_2": "NA","NL_NAME_2": "NA","TYPE_2": "Partido","ENGTYPE_2": "Part","CC_2": "NA","HASC_2": "AR.BA.PE","name": "Pellegrini.county","area_km2": 1857.817,"hist_schema_id": "Elevation0-9000","hist_area_km2": {"100": 900.884,"125": 956.796,"150": 0.137}}}