{"type":"Feature","properties":{"GID_2":"ARG.13.6_1","GID_0":"ARG","country":"Argentina","GID_1":"ARG.13_1","state":"Mendoza","NL_NAME_1":"NA","county":"LaPaz","VARNAME_2":"NA","NL_NAME_2":"NA","TYPE_2":"Departamento","ENGTYPE_2":"Department","CC_2":"NA","HASC_2":"AR.MZ.LP","name":"LaPaz.county"},
"geometry":{"type": "MultiPolygon","coordinates": [[[[-67.6006,-33.0446,521.2357],[-67.6753,-33.348,522.7806],[-67.6834,-33.3478,525.0359],[-67.7052,-33.4413,526.6353],[-67.6975,-33.4442,523.286],[-67.71,-33.7828,512.265],[-67.5291,-33.7869,483.7975],[-67.53,-33.9988,472.5942],[-67.5266,-34.0505,470.9409],[-67.5253,-34.1198,469.7965],[-67.1509,-34.0939,426.1258],[-67.1405,-34.2615,424.0585],[-66.805,-34.2626,401.7108],[-66.8036,-34.252,400.7798],[-66.8067,-34.245,402.0172],[-66.8067,-34.2401,402.2954],[-66.8011,-34.217,402.3863],[-66.7982,-34.2109,402.4734],[-66.7813,-34.217,402.8093],[-66.7791,-34.216,402.3831],[-66.7765,-34.2111,402.749],[-66.7782,-34.2036,401.3197],[-66.7754,-34.199,405.1296],[-66.7729,-34.1977,403.9929],[-66.7695,-34.1983,402.8356],[-66.7565,-34.2048,402.4437],[-66.7515,-34.2055,402.9622],[-66.7436,-34.1944,403.5374],[-66.7467,-34.1874,403.7361],[-66.7477,-34.175,405.0529],[-66.7559,-34.1591,405.8255],[-66.7535,-34.1517,406.456],[-66.7382,-34.1397,405.9967],[-66.7352,-34.1326,404.1875],[-66.7365,-34.1227,407.1343],[-66.7446,-34.1153,407.4469],[-66.7489,-34.1085,407.8172],[-66.739,-34.0962,408.4951],[-66.7375,-34.0914,408.215],[-66.737,-34.064,410.1442],[-66.7373,-34.0612,410.0234],[-66.7409,-34.0571,409.9821],[-66.731,-34.0233,411.5896],[-66.7267,-34.0024,412.5251],[-66.7411,-33.9671,415.2977],[-66.7393,-33.9598,415.3256],[-66.7399,-33.9496,417.0244],[-66.7428,-33.9452,417.1964],[-66.7592,-33.9336,417.1387],[-66.7683,-33.9336,415.4684],[-66.782,-33.9285,418.7493],[-66.7853,-33.9239,419.2545],[-66.7876,-33.9167,419.4778],[-66.79,-33.915,419.9778],[-66.8086,-33.9064,421.383],[-66.8145,-33.9054,423.0192],[-66.8238,-33.8988,422.741],[-66.8433,-33.8699,424.5088],[-66.8445,-33.8572,424.7289],[-66.8483,-33.8476,425.5225],[-66.8602,-33.8327,426.3745],[-66.8887,-33.8027,429.4988],[-66.8899,-33.7824,432.5173],[-66.8928,-33.7698,433.1204],[-66.9,-33.7587,430.9011],[-66.9308,-33.7339,444.5722],[-66.9764,-33.7131,438.3446],[-67.0001,-33.6934,438.2101],[-67.003,-33.6889,438.7573],[-67.0031,-33.6736,440.4745],[-67.0082,-33.643,441.8299],[-67.0059,-33.6254,441.6912],[-67.0112,-33.6166,439.5198],[-67.0114,-33.6038,449.1685],[-67.0188,-33.5958,448.3175],[-67.0476,-33.5875,446.6575],[-67.0628,-33.575,448.3394],[-67.0708,-33.5641,444.8062],[-67.0776,-33.5418,451.4025],[-67.0874,-33.536,451.4446],[-67.0961,-33.5333,448.7568],[-67.1033,-33.5252,452.7986],[-67.1079,-33.5157,453.092],[-67.119,-33.4811,454.0392],[-67.1354,-33.4664,455.2523],[-67.1407,-33.4546,456.7338],[-67.1563,-33.4326,457.2227],[-67.1567,-33.402,459.7624],[-67.1608,-33.3951,460.1704],[-67.1552,-33.3861,456.344],[-67.1531,-33.376,452.1092],[-67.1592,-33.3618,452.7571],[-67.1597,-33.3388,455.3996],[-67.1564,-33.3321,454.0349],[-67.1553,-33.3219,452.9236],[-67.1666,-33.3068,455.6713],[-67.1798,-33.2962,456.8619],[-67.1831,-33.2864,460.6275],[-67.182,-33.2584,457.7633],[-67.1837,-33.2483,457.7827],[-67.1865,-33.2437,457.6797],[-67.1888,-33.2029,455.8952],[-67.1809,-33.1628,455.9341],[-67.183,-33.1528,455.9045],[-67.1896,-33.1442,456.0891],[-67.1942,-33.1348,456.6529],[-67.1963,-33.1127,457.1227],[-67.6006,-33.0446,521.2357]]]]}}