{"type":"Feature","properties":{"GID_2":"ARG.7.10_1","GID_0":"ARG","country":"Argentina","GID_1":"ARG.7_1","state":"Corrientes","NL_NAME_1":"NA","county":"Goya","VARNAME_2":"NA","NL_NAME_2":"NA","TYPE_2":"Departamento","ENGTYPE_2":"Department","CC_2":"NA","HASC_2":"AR.CN.GO","name":"Goya.county"},
"geometry":{"type": "MultiPolygon","coordinates": [[[[-58.7926,-29.2585,40.7603],[-58.7974,-29.2516,41.4454],[-58.8037,-29.2471,40.9615],[-58.8156,-29.2449,46.0376],[-58.8275,-29.2462,45.6493],[-58.8456,-29.254,42.076],[-58.849,-29.2521,42.925],[-58.852,-29.2456,45.7765],[-58.8514,-29.2314,48.5526],[-58.8546,-29.221,44.8091],[-58.845,-29.2055,48.9164],[-58.8428,-29.1915,45.5636],[-58.83,-29.1781,46.3974],[-58.826,-29.1681,49.2019],[-58.8198,-29.1635,49.7666],[-58.8148,-29.1538,46.6631],[-58.8062,-29.1463,47.0593],[-58.802,-29.1402,46.4822],[-58.7999,-29.1332,46.6168],[-58.801,-29.1301,47.1778],[-58.8044,-29.1279,47.2554],[-58.852,-29.1084,58.0595],[-58.8912,-29.0994,58.2658],[-58.9251,-29.0887,56.1443],[-58.9974,-29.0738,61.0662],[-59.0023,-29.0875,61.3328],[-59.1007,-29.0836,60.469],[-59.1027,-29.0724,55.7986],[-59.1166,-29.0736,58.2448],[-59.1233,-29.0588,48.3283],[-59.1626,-29.0745,48.7284],[-59.18,-29.0939,39.4168],[-59.1931,-29.1019,37.2433],[-59.2052,-29.1019,38.9113],[-59.2127,-29.0936,32.2759],[-59.2162,-29.0923,36.736],[-59.2283,-29.0929,36.9501],[-59.2364,-29.096,36.9877],[-59.2345,-29.087,37.1492],[-59.2365,-29.0845,37.2357],[-59.2773,-29.0912,29.5],[-59.3076,-29.0916,35.7149],[-59.3195,-29.0936,35.3746],[-59.3293,-29.0999,34.2312],[-59.3324,-29.1044,36.2421],[-59.3353,-29.1228,30.0093],[-59.3395,-29.1328,35.5266],[-59.3547,-29.1457,29.0],[-59.3696,-29.1657,29.0],[-59.3713,-29.1788,34.2025],[-59.3761,-29.1887,33.5139],[-59.3991,-29.2099,33.816],[-59.44,-29.2192,28.9031],[-59.4793,-29.2195,32.9937],[-59.488,-29.2218,27.5],[-59.4929,-29.2251,28.4275],[-59.5025,-29.2416,27.0],[-59.5089,-29.2838,28.3472],[-59.5254,-29.3181,33.7697],[-59.5355,-29.3314,33.2259],[-59.5462,-29.3408,30.445],[-59.5688,-29.3543,31.7034],[-59.5901,-29.3644,32.6264],[-59.5971,-29.3763,26.5],[-59.6091,-29.4037,26.5],[-59.6091,-29.4089,26.5],[-59.6063,-29.4166,26.5],[-59.5951,-29.4412,26.5],[-59.6059,-29.4881,26.5],[-59.6084,-29.5066,30.5835],[-59.6086,-29.5465,29.6896],[-59.606,-29.5703,25.5],[-59.6086,-29.578,25.5],[-59.6147,-29.5873,30.9029],[-59.6158,-29.5925,29.2024],[-59.6154,-29.5978,27.5908],[-59.6089,-29.6127,25.5],[-59.603,-29.6469,26.5],[-59.6054,-29.6545,26.1971],[-59.6101,-29.6614,29.2778],[-59.6264,-29.6772,28.3261],[-59.6345,-29.6885,25.5],[-59.6373,-29.6988,30.6483],[-59.6363,-29.7067,28.5508],[-59.6293,-29.7243,25.0],[-59.6272,-29.7348,25.0],[-59.6181,-29.7518,24.5],[-59.6182,-29.7543,24.5],[-59.6314,-29.7754,24.5],[-59.6435,-29.7874,24.5],[-59.6703,-29.809,28.0734],[-59.6773,-29.8177,27.2366],[-59.6799,-29.8253,27.2234],[-59.6788,-29.8359,25.2009],[-59.6721,-29.8507,22.5],[-59.6296,-29.8766,22.5],[-59.6226,-29.8852,22.5],[-59.6157,-29.9029,27.681],[-59.6134,-29.916,23.7418],[-59.5996,-29.9623,22.0],[-59.5938,-29.9746,22.0],[-59.593,-29.9852,22.0],[-59.5883,-30.0,22.0],[-59.5861,-30.0021,22.0],[-59.5661,-30.0051,22.0],[-59.5631,-30.0211,22.0],[-59.537,-30.0006,24.8811],[-59.53,-29.9879,23.0],[-59.5073,-29.9584,25.3607],[-59.5026,-29.9486,24.7494],[-59.4998,-29.9274,24.6288],[-59.493,-29.9106,25.96],[-59.4859,-29.8586,26.2297],[-59.4792,-29.8547,26.9052],[-59.476,-29.8481,26.8386],[-59.4734,-29.8461,27.4128],[-59.4653,-29.8456,27.087],[-59.458,-29.8425,27.6621],[-59.4494,-29.8305,28.7704],[-59.4418,-29.8284,26.992],[-59.4318,-29.8174,39.0878],[-59.4219,-29.8114,35.7859],[-59.4106,-29.8072,36.4079],[-59.3985,-29.8082,32.683],[-59.383,-29.8039,33.5323],[-59.3749,-29.8035,30.9832],[-59.319,-29.7831,34.9492],[-59.2786,-29.7789,30.4524],[-59.2712,-29.7759,30.757],[-59.255,-29.7654,37.7839],[-59.2388,-29.7641,31.7324],[-59.2243,-29.7575,31.2719],[-59.1861,-29.7464,37.7461],[-59.1773,-29.739,37.9456],[-59.1695,-29.7228,32.7115],[-59.1663,-29.7206,32.3586],[-59.1543,-29.7193,33.8313],[-59.1477,-29.7154,32.5893],[-59.1446,-29.7088,32.3113],[-59.1485,-29.6988,33.5131],[-59.1478,-29.6953,35.8488],[-59.1386,-29.6836,33.1744],[-59.1202,-29.6763,33.0853],[-59.0998,-29.6648,32.8393],[-59.093,-29.6561,34.1472],[-59.0842,-29.6488,35.1537],[-59.0827,-29.6455,31.9207],[-59.0818,-29.6279,38.4706],[-59.0761,-29.6145,37.5095],[-59.0654,-29.5996,31.8419],[-59.0641,-29.589,40.7655],[-59.0597,-29.583,41.3406],[-59.0484,-29.5827,35.2143],[-59.037,-29.579,37.3411],[-59.027,-29.5729,41.917],[-59.0228,-29.5669,37.5775],[-59.0194,-29.5651,36.6039],[-59.0005,-29.5587,37.3453],[-58.9806,-29.5465,35.7244],[-58.9581,-29.5383,38.7522],[-58.9545,-29.5321,40.419],[-58.9532,-29.5215,37.1833],[-58.9497,-29.5152,36.9009],[-58.9416,-29.5073,36.9229],[-58.9283,-29.4894,39.3854],[-58.9119,-29.4789,41.7805],[-58.9039,-29.471,41.8217],[-58.9021,-29.4678,39.7615],[-58.9002,-29.4537,36.0737],[-58.8902,-29.4383,39.3217],[-58.8893,-29.4313,39.944],[-58.8873,-29.4283,38.0387],[-58.8803,-29.4251,39.4047],[-58.8752,-29.4155,40.0471],[-58.8678,-29.413,37.838],[-58.8678,-29.4059,38.4328],[-58.8712,-29.3994,40.9894],[-58.8707,-29.3959,41.194],[-58.8643,-29.392,41.8417],[-58.8599,-29.3858,39.0173],[-58.8636,-29.376,36.0],[-58.8628,-29.3726,39.1206],[-58.8548,-29.3713,39.8264],[-58.8522,-29.3686,41.2851],[-58.8541,-29.3581,38.6597],[-58.8422,-29.3489,41.2518],[-58.8416,-29.3459,44.3207],[-58.8555,-29.3383,40.3458],[-58.8571,-29.335,38.802],[-58.8575,-29.3314,39.5216],[-58.8516,-29.3221,39.7704],[-58.8515,-29.3185,40.3801],[-58.8454,-29.3142,39.6066],[-58.8373,-29.314,42.44],[-58.8299,-29.3111,35.5395],[-58.8181,-29.3013,37.4509],[-58.8103,-29.2853,37.7496],[-58.7972,-29.2769,42.0693],[-58.7923,-29.2713,43.7076],[-58.791,-29.268,45.1454],[-58.7926,-29.2585,40.7603]]]]}}