{"type": "Feature","bbox": [-66.8573,-32.0025,-65.7731,-31.2032],"geometry": {"type": "MultiPolygon","coordinates": [[[[-65.7731,-31.3676,256.5927],[-66.2653,-31.2032,582.4485],[-66.3357,-31.2468,624.6801],[-66.3411,-31.2581,626.995],[-66.3568,-31.4312,627.6891],[-66.3436,-31.4634,622.8469],[-66.3207,-31.4914,632.7547],[-66.3026,-31.5168,661.8034],[-66.2931,-31.5366,752.0317],[-66.2867,-31.5745,836.7637],[-66.2847,-31.6256,878.3015],[-66.2785,-31.6418,912.7101],[-66.2663,-31.6603,929.4805],[-66.2608,-31.6855,867.2885],[-66.261,-31.694,861.7911],[-66.275,-31.7116,832.5494],[-66.2848,-31.7313,757.3541],[-66.291,-31.7563,762.7913],[-66.291,-31.7819,706.4895],[-66.2931,-31.7945,686.4136],[-66.2975,-31.8067,654.6458],[-66.3112,-31.8269,612.7195],[-66.5053,-31.7671,419.6301],[-66.8573,-31.7612,387.2139],[-66.8551,-31.7729,388.5318],[-66.8451,-31.789,383.1533],[-66.8292,-31.8007,377.3026],[-66.8028,-31.8102,373.2062],[-66.7818,-31.8136,371.4611],[-66.7647,-31.8185,370.4371],[-66.7549,-31.8265,369.3471],[-66.7474,-31.8438,368.632],[-66.7443,-31.8558,368.0125],[-66.7383,-31.8665,367.1259],[-66.7154,-31.8871,366.0609],[-66.7131,-31.8872,366.069],[-66.6994,-31.8976,366.1519],[-66.6833,-31.9176,366.2416],[-66.6407,-31.9449,366.5504],[-66.6277,-31.9495,367.0657],[-66.6103,-31.9529,367.4162],[-66.5601,-31.9561,403.1924],[-66.5579,-31.9573,403.1992],[-66.5575,-31.9601,405.1284],[-66.5596,-31.9769,415.1264],[-66.3885,-32.0008,507.2206],[-66.3426,-32.0025,486.2364],[-66.3432,-31.9732,520.282],[-66.3348,-31.9597,543.0942],[-66.3279,-31.9529,568.8229],[-66.3161,-31.9457,587.821],[-66.3064,-31.9426,608.037],[-66.2813,-31.9427,485.3522],[-66.2532,-31.9465,454.6548],[-66.1532,-31.9705,391.3212],[-66.1475,-31.9698,389.3387],[-66.1409,-31.9547,384.4999],[-66.1372,-31.9498,382.7601],[-66.1308,-31.9467,379.651],[-66.1239,-31.9459,377.7657],[-66.1107,-31.9507,375.4474],[-66.0857,-31.9678,378.0077],[-66.0753,-31.9728,378.4258],[-66.0729,-31.9725,377.858],[-66.0722,-31.9704,376.7934],[-66.0723,-31.9554,371.4391],[-66.0682,-31.9494,367.5498],[-66.0604,-31.9429,362.728],[-66.0176,-31.9212,352.9722],[-65.9553,-31.886,341.6793],[-65.9487,-31.8866,342.3908],[-65.9187,-31.8969,344.0037],[-65.9048,-31.8984,343.7866],[-65.8729,-31.8961,342.5944],[-65.8063,-31.8872,337.5761],[-65.7783,-31.8852,339.4717],[-65.7731,-31.3676,256.5927]]]]}
,"properties": {"GID_2": "ARG.12.13_1","GID_0": "ARG","country": "Argentina","GID_1": "ARG.12_1","state": "LaRioja","NL_NAME_1": "NA","county": "GeneralSanMartín","VARNAME_2": "Ulapes","NL_NAME_2": "NA","TYPE_2": "Departamento","ENGTYPE_2": "Department","CC_2": "NA","HASC_2": "AR.LR.GM","name": "GeneralSanMartín.county","area_km2": 4533.768,"hist_schema_id": "Elevation0-9000","hist_area_km2": {"250": 64.001,"275": 630.738,"300": 598.397,"325": 504.096,"350": 351.448,"375": 611.832,"400": 332.189,"425": 263.497,"450": 213.503,"475": 184.679,"500": 174.956,"525": 158.229,"550": 109.398,"575": 87.923,"600": 81.388,"625": 51.935,"650": 17.4,"675": 12.437,"700": 12.096,"725": 16.367,"750": 12.495,"775": 7.864,"800": 6.998,"825": 7.216,"850": 5.809,"875": 4.548,"900": 4.35,"925": 4.495,"950": 2.997,"975": 0.487}}}