{"type":"Feature","properties":{"ISO3166-1-Alpha-3":"ARG","country":"Argentina","fill":"#F0F","id":"1274","name":"Chubut"},
"geometry":{"type": "MultiPolygon","coordinates": [[[[-65.99225,-45.09039,10.6886],[-66.0205,-45.08518,0.23],[-66.0116,-45.0966,10.2891],[-65.99016,-45.11058,0.0],[-65.968,-45.11115,6.2565],[-65.94936,-45.11835,8.2308],[-65.94414,-45.10953,0.4619],[-65.96126,-45.1035,3.7656],[-65.96887,-45.09771,0.0],[-65.98476,-45.09842,0.0],[-65.99225,-45.09039,10.6886]]],
[[[-65.58201,-45.05348,0.0],[-65.60062,-45.04523,30.2581],[-65.61326,-45.04494,37.8018],[-65.62632,-45.05358,2.1356],[-65.61414,-45.06392,0.0],[-65.60133,-45.06086,0.0],[-65.58241,-45.06241,6.9131],[-65.5666,-45.06278,0.0],[-65.58201,-45.05348,0.0]]],
[[[-69.39969,-41.99961,1459.0299],[-71.23273,-41.99904,881.8997],[-71.7597,-41.99961,1461.8866],[-71.76926,-41.99961,1778.7874],[-71.76251,-42.00741,1593.938],[-71.74386,-42.02436,1423.5737],[-71.73957,-42.0319,1678.6389],[-71.73626,-42.08389,1242.4342],[-71.74944,-42.10435,187.5],[-71.77311,-42.11996,1311.7195],[-71.80132,-42.1303,984.6246],[-71.87181,-42.1397,1687.4404],[-71.88426,-42.14425,1483.611],[-71.89372,-42.15262,1265.7214],[-71.9008,-42.16306,1237.4839],[-71.90948,-42.17226,979.2233],[-71.9238,-42.17691,593.4598],[-71.94803,-42.1673,1585.499],[-71.96137,-42.14487,1816.1713],[-71.97749,-42.12533,900.9152],[-72.00984,-42.12471,1741.2133],[-72.03991,-42.14466,1954.8595],[-72.05139,-42.1705,1300.2454],[-72.05893,-42.19758,1290.926],[-72.07717,-42.22125,1298.7859],[-72.10301,-42.24088,1670.6234],[-72.12471,-42.26331,1741.5975],[-72.13371,-42.2876,1388.7963],[-72.12156,-42.31302,1794.5437],[-72.06989,-42.34997,824.2275],[-72.06069,-42.36889,1732.4897],[-72.07666,-42.42335,1604.1062],[-72.07521,-42.43379,1811.5715],[-72.04575,-42.46986,1318.2147],[-72.03919,-42.48123,1143.5439],[-72.04193,-42.49105,1263.7095],[-72.09283,-42.51079,1123.6029],[-72.12265,-42.52991,417.8676],[-72.14321,-42.55709,897.8735],[-72.14843,-42.59264,1566.979],[-72.14544,-42.6005,1581.2706],[-72.13464,-42.61476,1131.9398],[-72.13159,-42.62406,1312.8792],[-72.13247,-42.63171,1202.9153],[-72.14146,-42.65569,1566.5897],[-72.13986,-42.66985,1100.9567],[-72.12564,-42.70385,734.1431],[-72.12125,-42.71967,1059.073],[-72.11267,-42.86384,1202.1132],[-72.11949,-42.89857,1549.7378],[-72.14213,-42.96368,785.3133],[-72.14854,-42.99872,1139.7798],[-72.12931,-43.04223,1262.1581],[-72.09609,-43.07851,576.8228],[-72.05443,-43.10538,443.3997],[-72.00984,-43.12036,793.5096],[-71.86189,-43.13318,1437.0575],[-71.77016,-43.1614,619.673],[-71.75016,-43.17245,324.772],[-71.74298,-43.19013,909.4666],[-71.74567,-43.19922,1152.0552],[-71.75512,-43.21638,1761.507],[-71.75766,-43.22537,1893.0129],[-71.75698,-43.23529,1785.647],[-71.7514,-43.251,1801.554],[-71.74954,-43.25917,1990.1827],[-71.74841,-43.27705,1426.2305],[-71.75068,-43.29534,912.1754],[-71.76086,-43.30692,1352.0381],[-71.8051,-43.29999,1510.2101],[-71.82437,-43.3034,1332.0887],[-71.86401,-43.31756,944.3812],[-71.88943,-43.31922,1381.3392],[-71.90173,-43.32201,1817.6157],[-71.90736,-43.32965,1402.0609],[-71.90917,-43.35973,866.5455],[-71.91232,-43.36779,838.8708],[-71.91956,-43.3743,1300.3226],[-71.92741,-43.37813,1221.1855],[-71.93486,-43.38278,1367.7266],[-71.94095,-43.39177,1314.1392],[-71.94106,-43.39838,1180.2747],[-71.93677,-43.4267,1194.4591],[-71.94209,-43.43425,1345.1428],[-71.95077,-43.43859,1076.894],[-71.95511,-43.44355,978.8309],[-71.94741,-43.45316,1405.7195],[-71.93734,-43.45688,1676.3933],[-71.92695,-43.45481,1768.0734],[-71.91651,-43.45089,1553.1909],[-71.90623,-43.44923,1283.2946],[-71.88612,-43.45337,1597.7148],[-71.86881,-43.46257,1677.309],[-71.85832,-43.47745,1567.0587],[-71.85863,-43.49864,857.887],[-71.85879,-43.49926,857.887],[-71.87827,-43.5192,943.5429],[-71.88153,-43.52447,969.05],[-71.87383,-43.53894,1208.2058],[-71.85114,-43.54256,1305.0547],[-71.82344,-43.54215,1357.2959],[-71.8007,-43.54421,1351.9122],[-71.7898,-43.54938,1172.4175],[-71.78349,-43.55538,870.0377],[-71.77884,-43.56147,520.7866],[-71.77275,-43.56747,513.3186],[-71.76618,-43.57202,423.9572],[-71.72376,-43.59475,560.6426],[-71.7143,-43.6022,438.4352],[-71.71068,-43.61408,447.9566],[-71.70365,-43.67165,588.6049],[-71.70918,-43.68436,704.3915],[-71.72572,-43.69738,659.5717],[-71.74432,-43.70524,633.5308],[-71.78639,-43.71723,844.3382],[-71.80324,-43.72601,644.232],[-71.81342,-43.73945,378.7822],[-71.8192,-43.75805,390.7386],[-71.81548,-43.77438,675.2477],[-71.79714,-43.78079,644.504],[-71.77554,-43.77562,1182.8009],[-71.76205,-43.7689,1184.0671],[-71.75502,-43.77138,1025.1049],[-71.75295,-43.7936,1545.866],[-71.75564,-43.8027,1429.1255],[-71.76081,-43.80962,1323.9546],[-71.76427,-43.81727,1304.6971],[-71.76184,-43.82843,1521.8132],[-71.7558,-43.83453,1504.8136],[-71.73688,-43.84177,1117.8674],[-71.72872,-43.84621,1374.7689],[-71.7158,-43.85872,1165.4167],[-71.65988,-43.92631,1006.2922],[-71.65926,-43.93975,922.5],[-71.6696,-43.9598,1308.1548],[-71.74526,-44.045,1485.723],[-71.7622,-44.06408,1386.129],[-71.79569,-44.08599,1516.6541],[-71.83522,-44.09436,906.3265],[-71.85874,-44.1078,1076.2877],[-71.84406,-44.14531,1574.4897],[-71.81249,-44.18779,733.6403],[-71.8051,-44.20516,383.4307],[-71.80628,-44.22252,497.4068],[-71.82794,-44.25208,496.4897],[-71.83181,-44.27016,552.9677],[-71.82396,-44.2868,899.4824],[-71.81166,-44.30055,1200.9143],[-71.80401,-44.31481,1146.4116],[-71.81042,-44.33362,1396.3787],[-71.82499,-44.34065,1190.853],[-71.84757,-44.34809,1487.6266],[-71.86416,-44.35915,1204.4598],[-71.8606,-44.37714,1170.4418],[-71.82205,-44.40318,1398.6954],[-71.7807,-44.40266,1488.5088],[-71.73781,-44.39336,1639.3593],[-71.69435,-44.39336,1576.9878],[-71.64319,-44.40256,1980.3424],[-71.43783,-44.40153,1004.1959],[-71.28683,-44.42333,1140.264],[-71.235,-44.42385,1045.145],[-71.20978,-44.42757,999.1385],[-71.18632,-44.43801,965.8663],[-71.17134,-44.45217,933.3799],[-71.16565,-44.46633,900.4971],[-71.16265,-44.48142,975.8934],[-71.15542,-44.49857,1072.7437],[-71.14266,-44.51232,967.4417],[-71.13061,-44.52038,939.9792],[-71.12266,-44.5303,921.5484],[-71.1224,-44.54942,861.6341],[-71.13165,-44.57061,859.3782],[-71.14736,-44.58084,896.3551],[-71.16725,-44.58415,915.1618],[-71.1888,-44.58477,932.1945],[-71.1994,-44.5917,1055.3015],[-71.2134,-44.6071,1004.0078],[-71.2349,-44.63882,1062.8398],[-71.24063,-44.65815,1040.5931],[-71.23929,-44.67438,1184.8083],[-71.23102,-44.70952,1548.9106],[-71.23815,-44.74786,1671.3611],[-71.2628,-44.77711,1628.5355],[-71.29784,-44.79561,1483.3917],[-71.33598,-44.80161,1739.5964],[-71.37887,-44.79189,1972.8925],[-71.45711,-44.7522,1716.7192],[-71.4971,-44.7429,1634.2053],[-71.54041,-44.75045,1608.0966],[-71.6312,-44.78,1433.5568],[-71.67265,-44.77856,1392.9709],[-71.73998,-44.75768,1342.7666],[-71.76267,-44.75437,1479.9561],[-71.78691,-44.75727,1597.827],[-71.80101,-44.76678,1158.4476],[-71.81321,-44.77856,1227.2463],[-71.8314,-44.78817,1474.7841],[-71.85455,-44.79096,1341.705],[-71.98762,-44.77246,1015.2615],[-72.00984,-44.76554,1293.6588],[-72.04782,-44.75479,1350.8591],[-72.07624,-44.76078,1286.2524],[-72.08875,-44.7828,1416.6862],[-72.07412,-44.83706,1181.1788],[-72.07485,-44.85318,1075.541],[-72.08094,-44.88656,1529.96],[-72.0735,-44.90217,1522.8397],[-72.0533,-44.90682,1142.7689],[-72.00984,-44.90454,1378.4192],[-71.96969,-44.91529,1628.2163],[-71.92948,-44.93379,1819.4551],[-71.88943,-44.94723,1080.3785],[-71.84974,-44.94341,1347.9436],[-71.82845,-44.93524,1699.2401],[-71.80566,-44.92925,1331.6945],[-71.78246,-44.92739,1372.1428],[-71.75988,-44.93183,1668.1184],[-71.74484,-44.94061,1599.5499],[-71.71864,-44.96439,1433.4111],[-71.70236,-44.97369,1458.2271],[-71.66169,-44.97917,1506.7903],[-71.62397,-44.97493,1515.3149],[-71.58873,-44.97813,1466.5007],[-71.55519,-45.00583,1598.3422],[-71.51514,-45.06578,1286.2681],[-71.49705,-45.11166,1209.5764],[-71.48718,-45.12334,1117.6234],[-71.44894,-45.159,938.3372],[-71.3954,-45.18597,906.201],[-71.36326,-45.20882,866.2681],[-71.33861,-45.23424,856.1432],[-71.31717,-45.26721,828.8716],[-71.31153,-45.29946,834.343],[-71.33432,-45.32281,841.0045],[-71.35076,-45.33284,846.951],[-71.37432,-45.35919,907.8179],[-71.38936,-45.37077,962.5704],[-71.40791,-45.37873,992.9774],[-71.50832,-45.40839,935.2592],[-71.51033,-45.41842,959.4949],[-71.5016,-45.43878,946.6938],[-71.48134,-45.46792,883.3417],[-71.47814,-45.4827,839.5704],[-71.48909,-45.49851,952.9636],[-71.52584,-45.51898,833.5588],[-71.5617,-45.52394,796.8612],[-71.63921,-45.52001,798.995],[-71.67208,-45.52363,788.5185],[-71.71373,-45.53324,783.4205],[-71.7496,-45.54926,941.5162],[-71.7651,-45.57241,812.2197],[-71.76174,-45.57624,800.4076],[-71.74655,-45.58729,741.3682],[-71.74283,-45.59432,776.7233],[-71.74525,-45.60094,932.5587],[-71.75151,-45.60662,906.576],[-71.75885,-45.61169,899.7263],[-71.76458,-45.61654,906.8386],[-71.78241,-45.64176,755.7997],[-71.78587,-45.65303,802.5087],[-71.78794,-45.66946,792.1163],[-71.78639,-45.6769,812.774],[-71.78272,-45.6829,825.9967],[-71.7805,-45.68941,852.0169],[-71.78365,-45.6985,978.6675],[-71.79951,-45.71711,1249.0574],[-71.80179,-45.72403,1221.4479],[-71.79853,-45.73995,1169.1569],[-71.78908,-45.7509,1116.2954],[-71.76288,-45.76868,781.2237],[-71.74903,-45.78676,632.689],[-71.75146,-45.80185,572.11],[-71.76009,-45.81591,535.2216],[-71.76489,-45.831,504.8835],[-71.75848,-45.84816,486.3963],[-71.74319,-45.85756,487.2389],[-71.70086,-45.86852,492.0976],[-71.66588,-45.88402,494.5368],[-71.64133,-45.90572,498.8185],[-71.62438,-45.93415,508.2921],[-71.61229,-45.97053,563.0532],[-71.64916,-45.99941,680.0159],[-71.64495,-45.99941,687.6342],[-69.63329,-45.99962,443.3678],[-68.36688,-45.99941,700.5516],[-67.58416,-45.99993,0.0],[-67.58166,-46.00003,0.0],[-67.58165,-46.00001,0.0],[-67.57848,-45.99285,0.0],[-67.55757,-45.96752,0.0],[-67.53311,-45.95827,67.3406],[-67.54773,-45.93345,0.0],[-67.53624,-45.91614,0.0],[-67.5151,-45.89735,0.0],[-67.50474,-45.87835,10.1035],[-67.47402,-45.86221,8.0376],[-67.45587,-45.825,0.0],[-67.44242,-45.81774,1.5307],[-67.42767,-45.808,10.1097],[-67.39709,-45.79103,0.0],[-67.37706,-45.79412,0.5012],[-67.3646,-45.78661,0.1643],[-67.36064,-45.77666,-0.3487],[-67.36873,-45.769,0.0],[-67.36968,-45.7623,0.3626],[-67.36443,-45.74987,0.1302],[-67.3639,-45.73568,0.0],[-67.34626,-45.73398,0.0],[-67.33983,-45.72869,0.0],[-67.33511,-45.71885,0.0],[-67.35443,-45.7058,0.0],[-67.35623,-45.68988,0.0],[-67.35629,-45.65896,0.0],[-67.34459,-45.63328,0.0],[-67.33192,-45.61349,0.0],[-67.30777,-45.6015,0.0],[-67.29369,-45.58994,0.0],[-67.26981,-45.56083,0.0],[-67.22333,-45.52868,0.083],[-67.20133,-45.50175,0.0],[-67.16735,-45.46144,0.0],[-67.13398,-45.42578,0.0],[-67.09638,-45.3918,0.0],[-67.0648,-45.34995,0.0],[-67.00927,-45.30389,5.9304],[-66.96121,-45.27689,0.0],[-66.92927,-45.25653,50.5026],[-66.86892,-45.2356,4.9085],[-66.78577,-45.22918,7.7296],[-66.66952,-45.21459,0.0],[-66.56086,-45.21496,0.0],[-66.524,-45.2161,19.184],[-66.52257,-45.19318,11.117],[-66.5431,-45.17419,-0.0719],[-66.58821,-45.16666,0.0],[-66.5878,-45.13934,2.2038],[-66.57142,-45.14117,7.3469],[-66.4733,-45.16867,0.0],[-66.45476,-45.14934,0.0],[-66.47605,-45.14257,0.0],[-66.5253,-45.13188,0.0],[-66.52387,-45.10897,0.0],[-66.49659,-45.08838,5.6797],[-66.46772,-45.07702,9.7997],[-66.40407,-45.06363,0.0],[-66.39335,-45.0526,5.2123],[-66.37255,-45.05496,0.0],[-66.36717,-45.04729,0.0],[-66.34971,-45.04345,0.0],[-66.33619,-45.04385,0.0],[-66.31529,-45.04445,10.9011],[-66.30069,-45.04749,1.7332],[-66.28158,-45.0576,0.9243],[-66.25959,-45.0391,0.0],[-66.22134,-45.01582,0.0],[-66.20037,-44.99292,0.0],[-66.16857,-44.9964,0.0],[-66.11031,-44.98841,0.0],[-66.04471,-45.00409,0.0],[-66.01636,-45.00311,7.1641],[-65.98535,-45.02219,0.0625],[-65.96422,-45.04188,0.0],[-65.93624,-45.04868,3.2403],[-65.9086,-45.03893,0.0],[-65.88766,-45.03944,1.8238],[-65.89069,-45.02631,5.4223],[-65.88981,-45.00809,0.0],[-65.87237,-45.00332,0.0],[-65.85642,-45.00458,0.0],[-65.84159,-45.00322,5.7441],[-65.82857,-45.01653,0.0],[-65.83069,-45.03474,2.0037],[-65.8174,-45.04029,-0.0018],[-65.80319,-45.02757,1.1386],[-65.78595,-45.02713,7.6388],[-65.75138,-45.02365,8.4757],[-65.73461,-45.03534,20.1976],[-65.69062,-45.06272,7.9776],[-65.68506,-45.04454,0.0],[-65.66441,-45.04268,27.2306],[-65.64338,-45.04739,0.0],[-65.60264,-45.02769,3.4895],[-65.61722,-45.01328,2.4856],[-65.62223,-45.00707,0.0],[-65.61191,-44.99887,12.1328],[-65.6009,-45.00427,8.2119],[-65.58381,-45.00747,2.937],[-65.58783,-44.99378,0.0],[-65.60001,-44.98459,0.0],[-65.60544,-44.97274,6.1785],[-65.59519,-44.96593,2.0346],[-65.58688,-44.95814,1.9557],[-65.57378,-44.96171,1.3396],[-65.56494,-44.95675,0.5802],[-65.56001,-44.95029,0.3981],[-65.54786,-44.94539,0.0],[-65.53409,-44.93397,11.8054],[-65.5214,-44.9319,0.0],[-65.53526,-44.91563,0.0],[-65.55295,-44.91102,1.8927],[-65.57292,-44.89583,0.2632],[-65.59813,-44.89922,0.0],[-65.61752,-44.88843,11.0096],[-65.63401,-44.88456,1.012],[-65.64816,-44.88985,19.7297],[-65.64814,-44.88938,6.0534],[-65.66473,-44.88993,2.4422],[-65.66972,-44.88326,0.5887],[-65.67413,-44.87846,0.5317],[-65.68205,-44.87781,0.0],[-65.68583,-44.8735,0.0],[-65.69778,-44.87415,0.0],[-65.71544,-44.86996,4.86],[-65.72825,-44.84758,0.0],[-65.72453,-44.83876,0.9774],[-65.71845,-44.83564,0.0],[-65.72678,-44.83027,6.1164],[-65.7271,-44.8096,0.0],[-65.7176,-44.80421,4.0993],[-65.70426,-44.80125,0.7199],[-65.69988,-44.79244,0.0],[-65.69523,-44.778,0.0],[-65.69317,-44.76256,0.0],[-65.69583,-44.73481,6.1959],[-65.68554,-44.71253,0.0],[-65.67925,-44.70517,0.9598],[-65.67097,-44.69739,7.5569],[-65.66047,-44.68304,5.8372],[-65.64321,-44.668,7.1581],[-65.59852,-44.64274,6.7748],[-65.5783,-44.64788,6.3746],[-65.54274,-44.61959,4.6454],[-65.49995,-44.60436,4.6932],[-65.47957,-44.60528,0.0],[-65.47538,-44.60021,0.8168],[-65.46091,-44.60099,0.0],[-65.46574,-44.59102,0.7203],[-65.46537,-44.58258,0.0],[-65.46181,-44.57656,0.0],[-65.44993,-44.57588,3.8615],[-65.43797,-44.57332,0.0],[-65.42926,-44.56976,0.0],[-65.42416,-44.57362,3.5652],[-65.42093,-44.5751,0.0],[-65.4169,-44.57331,0.1886],[-65.41044,-44.57627,15.9822],[-65.4082,-44.5857,1.535],[-65.40044,-44.58915,0.0],[-65.39471,-44.59396,0.3205],[-65.39176,-44.58652,0.9314],[-65.38821,-44.58049,4.2681],[-65.38277,-44.57638,0.5223],[-65.37551,-44.57606,8.1949],[-65.37393,-44.58548,0.2889],[-65.36868,-44.58606,1.877],[-65.35855,-44.58017,0.0],[-65.35633,-44.57412,0.0],[-65.3655,-44.57299,11.434],[-65.3717,-44.56744,0.4085],[-65.38027,-44.56726,0.4184],[-65.39056,-44.56094,0.0],[-65.39331,-44.55192,0.0],[-65.38832,-44.54544,6.036],[-65.38089,-44.54137,0.0],[-65.36991,-44.5435,0.0],[-65.36122,-44.54039,4.6211],[-65.36148,-44.53387,13.7503],[-65.3695,-44.52955,0.0],[-65.3746,-44.52131,11.0975],[-65.3731,-44.51618,18.234],[-65.36515,-44.51307,0.0],[-65.35869,-44.51509,6.2172],[-65.3528,-44.51474,0.0],[-65.34867,-44.5092,6.9913],[-65.33747,-44.50709,0.8486],[-65.32571,-44.50828,8.5205],[-65.32078,-44.51636,0.0],[-65.32384,-44.52663,6.9734],[-65.32014,-44.5328,0.0],[-65.31477,-44.53057,0.2406],[-65.31251,-44.52357,3.3879],[-65.30903,-44.51895,0.0],[-65.30297,-44.51578,3.4702],[-65.2899,-44.5184,0.0],[-65.27928,-44.51626,6.8339],[-65.28006,-44.5114,2.8229],[-65.28718,-44.50844,0.9463],[-65.28829,-44.50325,0.0],[-65.28282,-44.4982,0.0],[-65.2826,-44.49258,0.0],[-65.29629,-44.48948,0.105],[-65.30099,-44.49173,2.0916],[-65.3076,-44.49254,4.8785],[-65.31359,-44.49429,0.4564],[-65.32191,-44.4885,0.8357],[-65.31903,-44.48246,6.7991],[-65.31419,-44.47646,0.1103],[-65.31169,-44.47102,8.33],[-65.31541,-44.46578,0.4575],[-65.3265,-44.46415,-0.0631],[-65.33159,-44.46076,0.0],[-65.32866,-44.45379,0.0529],[-65.3207,-44.4516,0.0],[-65.31592,-44.44701,2.0094],[-65.30927,-44.44479,0.0],[-65.30578,-44.4397,0.1611],[-65.31145,-44.43396,6.8101],[-65.30991,-44.42836,0.0],[-65.30457,-44.42612,0.0984],[-65.29692,-44.43143,0.0],[-65.28581,-44.43259,0.0],[-65.2824,-44.42937,0.0995],[-65.2895,-44.42642,3.7698],[-65.28744,-44.42411,0.0],[-65.27882,-44.42193,-0.0175],[-65.27927,-44.41676,0.0905],[-65.28566,-44.41242,10.8962],[-65.27952,-44.40694,14.0327],[-65.27028,-44.40572,0.412],[-65.26591,-44.39501,0.0025],[-65.25974,-44.38857,0.0],[-65.2479,-44.38787,0.3679],[-65.23538,-44.3867,0.4],[-65.23444,-44.37921,9.5117],[-65.22885,-44.3704,0.5599],[-65.21688,-44.36641,0.6932],[-65.22108,-44.356,0.0],[-65.22141,-44.33845,0.4844],[-65.22912,-44.33407,2.2947],[-65.24619,-44.33467,0.0],[-65.2582,-44.32316,0.0],[-65.25656,-44.31474,0.0],[-65.25234,-44.30732,0.0209],[-65.26587,-44.30141,0.0],[-65.26871,-44.29102,0.0],[-65.27196,-44.2824,0.0],[-65.26799,-44.27227,0.0],[-65.27652,-44.26556,0.0],[-65.28461,-44.26208,0.0],[-65.29153,-44.2549,2.9718],[-65.30472,-44.24009,10.5295],[-65.30683,-44.22471,0.0],[-65.30871,-44.20008,0.0],[-65.29877,-44.16648,1.5607],[-65.28257,-44.15452,0.0],[-65.26232,-44.14776,0.0],[-65.23075,-44.14326,0.6311],[-65.21482,-44.13743,0.0],[-65.22124,-44.11887,0.0],[-65.23387,-44.1135,13.6393],[-65.23617,-44.09911,7.7961],[-65.23786,-44.08416,0.0],[-65.23208,-44.06744,1.8424],[-65.21149,-44.05043,0.0],[-65.18671,-44.03554,1.547],[-65.22237,-44.0369,0.0],[-65.24198,-44.02727,0.0],[-65.24279,-44.01085,0.0],[-65.25186,-43.98813,0.0],[-65.22861,-43.97525,0.0],[-65.23933,-43.96331,0.0],[-65.25813,-43.96754,0.0],[-65.27196,-43.96404,0.0],[-65.27554,-43.9511,0.0],[-65.27099,-43.91277,0.0],[-65.27538,-43.89861,0.0],[-65.28238,-43.88454,0.0],[-65.2884,-43.86517,0.0],[-65.2965,-43.84808,0.0],[-65.3098,-43.84059,0.0],[-65.31823,-43.83221,0.0],[-65.31737,-43.81308,0.0],[-65.31188,-43.79225,8.3532],[-65.30606,-43.77907,0.0],[-65.32726,-43.74627,0.0],[-65.33239,-43.73073,0.0],[-65.33406,-43.67262,0.0],[-65.3308,-43.66334,0.0],[-65.31676,-43.64837,0.0],[-65.31355,-43.63828,0.0],[-65.27538,-43.58733,59.6712],[-65.26354,-43.5818,8.1168],[-65.20983,-43.54632,20.433],[-65.1927,-43.52972,20.9287],[-65.15526,-43.47812,29.1031],[-65.07413,-43.4157,20.8627],[-65.05504,-43.40683,0.0],[-65.03905,-43.3956,0.0],[-65.03234,-43.37811,0.0],[-65.03604,-43.3567,0.0],[-65.04214,-43.33945,0.0],[-65.04337,-43.32155,0.0],[-65.03234,-43.29941,3.4594],[-65.01529,-43.29412,0.0],[-64.99498,-43.28338,0.0],[-64.97541,-43.26946,0.0],[-64.94392,-43.23943,0.0],[-64.76525,-43.14739,10.7912],[-64.5653,-43.1041,0.0],[-64.44758,-43.06862,0.0],[-64.3282,-43.00986,0.0],[-64.30671,-42.99358,0.0],[-64.30211,-42.98089,0.0],[-64.31505,-42.95485,0.0],[-64.31579,-42.95045,0.0],[-64.32828,-42.95184,84.8172],[-64.40811,-42.97617,71.1368],[-64.43346,-42.97633,72.5564],[-64.45324,-42.96722,73.3957],[-64.46158,-42.9612,73.7087],[-64.4794,-42.95338,8.1114],[-64.49486,-42.94036,0.0],[-64.50316,-42.93727,0.0],[-64.51305,-42.93629,72.77],[-64.53869,-42.93743,76.9444],[-64.56481,-42.9428,78.8716],[-64.5799,-42.94305,79.0183],[-64.59069,-42.94052,80.3864],[-64.61376,-42.93133,81.5205],[-64.6455,-42.92539,81.2462],[-64.66539,-42.91522,60.825],[-64.70401,-42.88844,78.1103],[-64.7379,-42.87103,5.0217],[-64.86046,-42.82635,0.0],[-64.92447,-42.81129,12.1945],[-64.95678,-42.79258,35.1417],[-64.99714,-42.78484,7.2802],[-65.01187,-42.77109,0.0],[-65.01891,-42.74684,0.0],[-65.0122,-42.73187,0.0],[-64.98082,-42.70623,0.0],[-64.96727,-42.68678,0.0],[-64.95836,-42.66937,0.0],[-64.94603,-42.65423,0.0],[-64.92247,-42.64137,0.0],[-64.87312,-42.63095,0.0],[-64.82315,-42.62713,0.0],[-64.80403,-42.62151,0.0],[-64.78624,-42.60833,0.0],[-64.7423,-42.56308,0.0],[-64.73473,-42.55788,0.0],[-64.72326,-42.55267,0.0],[-64.68834,-42.54713,0.0],[-64.66295,-42.53069,0.0],[-64.63964,-42.52174,0.0],[-64.61486,-42.51531,0.0],[-64.54223,-42.50628,0.0],[-64.43773,-42.50693,54.8455],[-64.38805,-42.51727,31.6973],[-64.34594,-42.53094,47.7795],[-64.32262,-42.54241,5.4865],[-64.31237,-42.55576,0.0],[-64.30736,-42.5744,30.6065],[-64.29442,-42.58571,0.0],[-64.25772,-42.60036,59.7972],[-64.25353,-42.60312,47.046],[-64.24909,-42.6098,64.2091],[-64.24405,-42.61346,23.2067],[-64.22899,-42.61858,0.0],[-64.22423,-42.62086,0.0],[-64.20238,-42.63543,12.2496],[-64.19567,-42.64422,89.8555],[-64.20686,-42.64821,53.593],[-64.21862,-42.65594,78.4856],[-64.23729,-42.71649,11.2722],[-64.24291,-42.72861,5.5793],[-64.25097,-42.75213,26.3291],[-64.25133,-42.77508,0.0],[-64.23388,-42.78541,67.7569],[-64.21398,-42.79217,46.7359],[-64.19542,-42.80836,83.7842],[-64.16218,-42.84686,82.8094],[-64.13854,-42.86696,83.2755],[-64.1079,-42.88372,0.0],[-64.07,-42.8786,0.0],[-64.02562,-42.86224,68.4666],[-64.00487,-42.85963,0.0],[-63.94197,-42.85963,0.0],[-63.73664,-42.8248,0.0],[-63.6715,-42.80218,0.0],[-63.62027,-42.75123,0.0],[-63.63329,-42.71461,0.0],[-63.61701,-42.67474,0.0],[-63.59211,-42.63348,0.0],[-63.57934,-42.59295,0.0],[-63.59751,-42.44163,0.0],[-63.59048,-42.34124,0.0],[-63.59797,-42.29998,0.0],[-63.62027,-42.26393,0.0],[-63.65274,-42.24188,0.0],[-63.66832,-42.22861,5.8407],[-63.67492,-42.21282,0.0],[-63.67894,-42.19459,0.0],[-63.70962,-42.13437,0.0],[-63.73225,-42.10524,0.0],[-63.76865,-42.07772,43.417],[-63.80996,-42.07017,0.0],[-63.87091,-42.08371,5.5813],[-63.95787,-42.11349,0.0],[-64.03899,-42.15754,0.0],[-64.16218,-42.20941,58.394],[-64.30655,-42.22422,61.3541],[-64.33971,-42.2374,59.3005],[-64.29662,-42.25758,0.0],[-64.24291,-42.2623,0.0],[-64.13427,-42.2584,0.0],[-64.08902,-42.26279,0.0],[-64.06843,-42.26963,0.8472],[-64.05972,-42.28167,0.0],[-64.05753,-42.29127,0.0],[-64.04772,-42.3108,0.0],[-64.04548,-42.32269,23.8408],[-64.04772,-42.32879,44.3246],[-64.0526,-42.3318,29.8254],[-64.05753,-42.33375,17.8055],[-64.05972,-42.3366,0.0],[-64.0585,-42.34344,0.0],[-64.05321,-42.34873,0.0],[-64.05232,-42.3541,0.0],[-64.05158,-42.37225,10.8866],[-64.05321,-42.37859,10.047],[-64.05972,-42.38812,30.2459],[-64.08829,-42.40936,21.1438],[-64.09325,-42.41172,24.894],[-64.10359,-42.42783,39.8092],[-64.12755,-42.43271,7.8044],[-64.31554,-42.42303,9.6408],[-64.33141,-42.42702,19.0724],[-64.35391,-42.43597,37.1968],[-64.37609,-42.44158,45.307],[-64.41063,-42.44622,32.6763],[-64.44506,-42.44671,13.4251],[-64.48575,-42.43125,4.4971],[-64.56627,-42.43597,8.1047],[-64.59553,-42.4306,18.7301],[-64.60228,-42.42205,0.0],[-64.59415,-42.39153,0.0],[-64.58747,-42.38128,0.0],[-64.51089,-42.29876,0.0],[-64.49112,-42.28427,0.0],[-64.46422,-42.27532,0.0],[-64.46666,-42.26849,0.0],[-64.48087,-42.25465,0.0],[-64.49063,-42.24863,26.612],[-64.50398,-42.24554,56.6992],[-64.53148,-42.24424,74.6608],[-64.55529,-42.24847,74.2815],[-64.57946,-42.25595,75.4721],[-64.60289,-42.25823,76.7491],[-64.62426,-42.24749,77.0937],[-64.64415,-42.23463,76.7766],[-64.66674,-42.23016,76.614],[-64.71703,-42.22991,80.1294],[-64.73729,-42.22666,80.0548],[-64.7626,-42.21941,88.7981],[-64.78661,-42.20965,73.7673],[-64.80305,-42.19915,48.8923],[-64.81115,-42.19541,0.0],[-64.82234,-42.19459,0.0],[-64.84398,-42.19573,21.0831],[-64.85729,-42.19362,19.3898],[-64.93545,-42.1539,17.5627],[-64.9724,-42.12689,1.6191],[-65.00499,-42.09319,0.0],[-65.05458,-42.0107,0.0],[-65.0622,-42.00984,0.0],[-65.12721,-42.00023,19.2828],[-65.73353,-41.99992,306.4595],[-66.03325,-41.99935,444.6078],[-66.88384,-41.99919,673.599],[-68.08062,-41.99935,1243.9302],[-68.43272,-41.99961,1219.0515],[-69.28711,-41.99976,1422.5103],[-69.39969,-41.99961,1459.0299]]]]}}