{"type":"Feature","properties":{"GID_2":"ARG.6.26_1","GID_0":"ARG","country":"Argentina","GID_1":"ARG.6_1","state":"Córdoba","NL_NAME_1":"NA","county":"Unión","VARNAME_2":"BellVille","NL_NAME_2":"NA","TYPE_2":"Departamento","ENGTYPE_2":"Department","CC_2":"NA","HASC_2":"AR.CB.UN","name":"Unión.county"},
"geometry":{"type": "MultiPolygon","coordinates": [[[[-63.2042,-33.1221,140.052],[-63.2339,-33.2278,143.2207],[-63.0864,-33.2551,125.6487],[-63.2337,-33.8067,123.8162],[-63.1448,-33.8302,127.4179],[-63.1394,-33.8179,127.659],[-63.0964,-33.827,128.9801],[-63.0962,-33.8331,128.7639],[-62.8086,-33.8878,126.014],[-62.7822,-33.7857,119.1969],[-62.7566,-33.7866,120.2041],[-62.6502,-33.3337,108.1897],[-62.6122,-33.2923,113.1458],[-62.6858,-33.2771,112.8256],[-62.58,-33.2021,112.3457],[-62.5335,-33.1253,117.525],[-62.6264,-33.1109,101.4995],[-62.6316,-33.1046,103.9464],[-62.6282,-33.1006,104.6335],[-62.5797,-33.0726,106.5131],[-62.5675,-33.0599,104.3782],[-62.5561,-33.0544,106.1556],[-62.5466,-33.0469,104.1555],[-62.5235,-32.9487,112.986],[-62.5513,-32.9441,111.5924],[-62.5254,-32.836,112.5828],[-62.474,-32.8425,111.1443],[-62.4963,-32.7861,112.0858],[-62.505,-32.8052,114.7046],[-62.5214,-32.7985,115.0206],[-62.4934,-32.6958,110.5517],[-62.497,-32.6873,111.8006],[-62.4957,-32.6822,112.9948],[-62.4658,-32.6844,111.391],[-62.3998,-32.4389,115.0478],[-62.3745,-32.439,111.8338],[-62.3587,-32.3759,112.2043],[-62.302,-32.3821,109.418],[-62.2872,-32.3084,103.921],[-62.3808,-32.2917,110.9675],[-62.3476,-32.1468,105.6708],[-62.3163,-32.1481,103.2896],[-62.2919,-32.0529,104.1069],[-62.336,-32.0453,105.2463],[-62.3313,-32.0073,105.8744],[-62.4559,-31.9835,113.307],[-62.524,-31.9822,116.3742],[-62.5314,-32.0058,117.8757],[-62.6274,-32.003,124.1808],[-62.6442,-32.0546,125.6144],[-62.7948,-32.0248,140.2624],[-62.8423,-32.0206,146.1174],[-62.8787,-32.1559,149.9432],[-62.8715,-32.1648,148.834],[-62.9279,-32.3926,155.6848],[-63.0388,-32.3727,167.3003],[-63.043,-32.387,168.493],[-63.0604,-32.3823,169.3737],[-63.074,-32.4205,173.0108],[-63.0988,-32.4074,177.9769],[-63.1044,-32.4172,180.7528],[-63.1038,-32.4286,178.9995],[-63.1084,-32.43,180.3144],[-63.1259,-32.4229,181.7738],[-63.1377,-32.4207,181.8634],[-63.1653,-32.4607,186.2219],[-63.1691,-32.4684,186.0932],[-63.147,-32.5056,180.4898],[-63.1397,-32.5041,179.0778],[-63.1275,-32.5121,178.1783],[-63.098,-32.5159,173.6636],[-63.1117,-32.5346,175.0567],[-63.1246,-32.5716,172.5897],[-63.1289,-32.5933,173.4151],[-63.1287,-32.6099,171.9469],[-63.1245,-32.6138,170.7194],[-63.1078,-32.6222,168.5535],[-63.0758,-32.6273,165.2671],[-63.0715,-32.6312,164.0613],[-63.0694,-32.6363,162.7809],[-63.074,-32.6441,162.6317],[-63.1121,-32.8024,154.1911],[-63.0615,-32.814,150.3863],[-63.0688,-32.8424,148.8286],[-63.0954,-32.8387,150.3191],[-63.1165,-32.9156,147.2169],[-63.1339,-32.9145,152.1422],[-63.1916,-33.1246,139.0774],[-63.2042,-33.1221,140.052]]]]}}