{"type":"Feature","properties":{"GID_2":"ARG.24.8_1","GID_0":"ARG","country":"Argentina","GID_1":"ARG.24_1","state":"Tucumán","NL_NAME_1":"NA","county":"LaCocha","VARNAME_2":"NA","NL_NAME_2":"NA","TYPE_2":"Departamento","ENGTYPE_2":"Department","CC_2":"NA","HASC_2":"AR.TM.LC","name":"LaCocha.county"},
"geometry":{"type": "MultiPolygon","coordinates": [[[[-65.5438,-28.0013,488.4247],[-65.5364,-27.9985,490.0865],[-65.5224,-27.9854,481.8205],[-65.5098,-27.9451,441.3184],[-65.5011,-27.9234,430.6086],[-65.4723,-27.8996,408.6862],[-65.4462,-27.8817,387.0981],[-65.427,-27.7876,343.177],[-65.4818,-27.778199999999998,361.494],[-65.472,-27.7349,343.5251],[-65.5214,-27.7255,378.8538],[-65.5075,-27.6565,350.1889],[-65.5307,-27.6523,365.3045],[-65.5217,-27.6172,342.8333],[-65.5259,-27.6162,349.5118],[-65.5282,-27.6131,354.7606],[-65.5199,-27.6071,347.4956],[-65.5188,-27.6056,346.1412],[-65.5197,-27.604,347.5634],[-65.5283,-27.6037,350.0779],[-65.545,-27.612,351.4192],[-65.5512,-27.6103,350.618],[-65.5574,-27.6052,359.9252],[-65.579,-27.6059,363.8401],[-65.5891,-27.6091,366.8582],[-65.6074,-27.6041,375.3638],[-65.6117,-27.6104,376.4716],[-65.6199,-27.6128,378.6696],[-65.6263,-27.618,380.4086],[-65.6343,-27.6211,385.2514],[-65.6363,-27.6178,384.8518],[-65.6384,-27.6172,385.1502],[-65.6685,-27.6197,428.5168],[-65.683,-27.6231,417.9082],[-65.6893,-27.6219,431.8662],[-65.6968,-27.6181,429.1919],[-65.7121,-27.602,459.1682],[-65.7186,-27.6015,468.324],[-65.7301,-27.5967,478.995],[-65.7343,-27.5977,481.8196],[-65.7485,-27.6096,524.1851],[-65.752,-27.6207,666.2894],[-65.7592,-27.6276,721.6311],[-65.7612,-27.641,970.9615],[-65.7592,-27.6463,991.3594],[-65.7504,-27.6517,547.9619],[-65.7465,-27.6745,853.7642],[-65.7472,-27.6841,1050.4054],[-65.7521,-27.6947,1255.083],[-65.7522,-27.7044,1344.962],[-65.7584,-27.7165,1438.6213],[-65.7543,-27.7354,1635.5992],[-65.7567,-27.7622,1708.9855],[-65.7519,-27.7761,1732.156],[-65.7502,-27.7756,1732.156],[-65.7282,-27.7948,1654.3713],[-65.7132,-27.8108,1061.0104],[-65.7012,-27.8303,1468.2589],[-65.6961,-27.85,1519.3647],[-65.6884,-27.8918,1446.7031],[-65.6601,-27.9596,1260.5198],[-65.6514,-27.9678,1202.6801],[-65.6188,-27.9692,727.9407],[-65.6022,-27.9908,721.0714],[-65.5931,-27.9976,578.5696],[-65.5722,-28.0023,503.2],[-65.5495,-28.0034,493.591],[-65.5438,-28.0013,488.4247]]]]}}