{"type": "Feature","bbox": [-65.9769,-27.8588,-65.5244,-27.4198],"geometry": {"type": "MultiPolygon","coordinates": [[[[-65.7814,-27.7855,1292.8352],[-65.7519,-27.7761,1732.156],[-65.7567,-27.7622,1708.9855],[-65.7543,-27.7354,1635.5992],[-65.7584,-27.7165,1438.6213],[-65.7522,-27.7044,1344.962],[-65.7521,-27.6947,1255.083],[-65.7472,-27.6841,1050.4054],[-65.7465,-27.6745,853.7642],[-65.7504,-27.6517,547.9619],[-65.7592,-27.6463,991.3594],[-65.7612,-27.641,970.9615],[-65.7592,-27.6276,721.6311],[-65.752,-27.6207,666.2894],[-65.7471,-27.6082,485.7657],[-65.7343,-27.5977,481.8196],[-65.7281,-27.5972,476.4361],[-65.7186,-27.6015,468.324],[-65.7121,-27.602,459.1682],[-65.6968,-27.6181,429.1919],[-65.6893,-27.6219,431.8662],[-65.683,-27.6231,417.9082],[-65.6685,-27.6197,428.5168],[-65.6384,-27.6172,385.1502],[-65.6363,-27.6178,384.8518],[-65.6343,-27.6211,385.2514],[-65.6263,-27.618,380.4086],[-65.6199,-27.6128,378.6696],[-65.6117,-27.6104,376.4716],[-65.6074,-27.6041,375.3638],[-65.5891,-27.6091,366.8582],[-65.579,-27.6059,363.8401],[-65.5574,-27.6052,359.9252],[-65.5512,-27.6103,350.618],[-65.5429,-27.6117,351.2654],[-65.5372,-27.5914,352.0413],[-65.5414,-27.5896,353.2449],[-65.5244,-27.5349,336.6468],[-65.5371,-27.5362,340.9294],[-65.5426,-27.5332,343.1824],[-65.5504,-27.5361,345.7056],[-65.559,-27.535,348.6524],[-65.5672,-27.5261,350.5999],[-65.5875,-27.5119,356.6409],[-65.5997,-27.5079,359.2676],[-65.6103,-27.5063,363.1931],[-65.6292,-27.51,375.0982],[-65.6417,-27.5075,381.28],[-65.646,-27.5081,382.7629],[-65.6563,-27.5111,391.5316],[-65.6574,-27.5143,393.1745],[-65.6551,-27.5169,392.0606],[-65.6572,-27.5172,393.8293],[-65.6654,-27.5147,400.1816],[-65.6674,-27.5114,399.3187],[-65.6713,-27.5098,406.3055],[-65.6886,-27.521,437.9471],[-65.7031,-27.5248,465.6127],[-65.7393,-27.5201,579.4968],[-65.7446,-27.5169,656.9878],[-65.7495,-27.5107,653.3118],[-65.7876,-27.5164,663.7648],[-65.8069,-27.5152,936.0807],[-65.821,-27.5241,869.3469],[-65.8295,-27.5328,1131.3281],[-65.8308,-27.5366,1229.723],[-65.8324,-27.5364,1252.4591],[-65.8369,-27.5298,1316.6039],[-65.8517,-27.5157,1453.6221],[-65.8757,-27.5027,1681.6978],[-65.8799,-27.4939,1570.6627],[-65.8889,-27.4887,1760.3848],[-65.8946,-27.4806,1759.0991],[-65.9085,-27.4684,1520.0667],[-65.9119,-27.4613,1768.6628],[-65.9316,-27.4384,1719.3467],[-65.9713,-27.4198,1730.1395],[-65.9752,-27.4308,2033.3789],[-65.9769,-27.444,2118.1111],[-65.9724,-27.4567,2144.0117],[-65.9758,-27.4859,2362.5293],[-65.9664,-27.5141,2285.377],[-65.9688,-27.5462,2279.8921],[-65.9597,-27.5604,2234.3638],[-65.954,-27.5753,2215.7314],[-65.9361,-27.5946,2280.9292],[-65.9314,-27.6149,2350.0215],[-65.9245,-27.6259,2278.5422],[-65.9238,-27.6575,2292.6765],[-65.9202,-27.6678,2333.04],[-65.9056,-27.6856,2128.3325],[-65.8742,-27.6805,1774.301],[-65.8659,-27.6826,1696.3091],[-65.857,-27.7085,1725.2902],[-65.843,-27.7407,1563.7371],[-65.8372,-27.7608,1629.8372],[-65.8367,-27.792,1679.3],[-65.8307,-27.8431,1232.2134],[-65.8247,-27.8536,1271.9637],[-65.8155,-27.8588,1496.6904],[-65.8077,-27.8561,1781.6111],[-65.8027,-27.8508,1819.0148],[-65.7953,-27.8235,1420.302],[-65.7888,-27.8169,1216.6965],[-65.7848,-27.8099,1232.9347],[-65.7826,-27.7966,1126.9902],[-65.7837,-27.7863,1178.1558],[-65.7814,-27.7855,1292.8352]]]]}
,"properties": {"GID_2": "ARG.24.7_1","GID_0": "ARG","country": "Argentina","GID_1": "ARG.24_1","state": "Tucumán","NL_NAME_1": "NA","county": "JuanB.Alberdi","VARNAME_2": "JuanB.Alberdi|Alberdi","NL_NAME_2": "NA","TYPE_2": "Departamento","ENGTYPE_2": "Department","CC_2": "NA","HASC_2": "AR.TM.JA","name": "JuanB.Alberdi.county","area_km2": 767.8468,"hist_schema_id": "Elevation0-9000","hist_area_km2": {"325": 0.0752,"350": 56.5396,"375": 52.0441,"400": 27.217,"425": 19.0769,"450": 14.9606,"475": 12.498,"500": 10.5623,"525": 10.4688,"550": 10.3001,"575": 10.3004,"600": 9.6614,"625": 12.8332,"650": 10.8042,"675": 13.1323,"700": 12.9239,"725": 11.8335,"750": 10.8375,"775": 11.0813,"800": 10.1987,"825": 10.2744,"850": 9.204,"875": 10.3684,"900": 8.921,"925": 9.5585,"950": 8.9955,"975": 9.6904,"1000": 9.0893,"1025": 9.5773,"1050": 9.1068,"1075": 9.6143,"1100": 8.7504,"1125": 8.9571,"1150": 8.6753,"1175": 9.7093,"1200": 9.802,"1225": 10.3476,"1250": 10.4412,"1275": 9.108,"1300": 9.3529,"1325": 8.4513,"1350": 8.7706,"1375": 7.9822,"1400": 8.3015,"1425": 7.5127,"1450": 7.3444,"1475": 7.6637,"1500": 7.9642,"1525": 6.7621,"1550": 7.9452,"1575": 7.0073,"1600": 7.1389,"1625": 6.9703,"1650": 7.5526,"1675": 7.5152,"1700": 7.2526,"1725": 7.3473,"1750": 7.5914,"1775": 7.0278,"1800": 6.6157,"1825": 6.3157,"1850": 6.1094,"1875": 5.3953,"1900": 5.3204,"1925": 4.5128,"1950": 4.6439,"1975": 3.9108,"2000": 4.3056,"2025": 3.7792,"2050": 4.9634,"2075": 4.7944,"2100": 4.8691,"2125": 5.1323,"2150": 5.3769,"2175": 4.5492,"2200": 4.9811,"2225": 4.8682,"2250": 4.0415,"2275": 3.1765,"2300": 2.8944,"2325": 2.4997,"2350": 1.7855,"2375": 0.8835,"2400": 0.6203,"2425": 0.1881,"2450": 0.2069,"2475": 0.0753,"2500": 0.0188,"2525": 0.0188}}}