{"type": "Feature","bbox": [-72.1882,-42.9468,-69.4284,-41.9964],"geometry": {"type": "MultiPolygon","coordinates": [[[[-69.4284,-42.0066,1264.9578],[-70.1147,-42.0022,929.6296],[-70.4043,-41.9991,764.9333],[-70.5001,-41.9964,951.3522],[-71.0952,-41.9994,925.519],[-71.7641,-41.9995,1743.8085],[-71.7622,-42.0105,1464.3818],[-71.7569,-42.0233,1768.7594],[-71.7523,-42.0248,1621.2615],[-71.751,-42.0271,1543.661],[-71.7567,-42.0369,1752.1145],[-71.7443,-42.0377,1843.7615],[-71.7328,-42.0444,1809.248],[-71.7286,-42.044,1834.3268],[-71.7261,-42.0484,1615.9554],[-71.7245,-42.0591,1829.6165],[-71.7292,-42.0622,1825.5314],[-71.7328,-42.0625,1876.4385],[-71.7331,-42.0667,1773.2852],[-71.7387,-42.0736,1548.7],[-71.7389,-42.0761,1567.3518],[-71.7375,-42.077,1427.4369],[-71.74,-42.0841,1257.6067],[-71.7323,-42.0911,874.3837],[-71.7258,-42.1016,252.7856],[-71.7273,-42.1065,260.2886],[-71.7252,-42.1102,416.9276],[-71.7304,-42.1219,1026.6111],[-71.7333,-42.1243,1172.8535],[-71.7474,-42.1294,1486.6146],[-71.7678,-42.1287,1523.1805],[-71.7768,-42.1301,1682.3943],[-71.7746,-42.1322,1685.1301],[-71.7744,-42.1368,1626.259],[-71.7787,-42.1388,1722.0338],[-71.7759,-42.1412,1710.9752],[-71.7763,-42.1439,1647.6932],[-71.7817,-42.1481,1561.6925],[-71.7902,-42.1493,1755.8915],[-71.8023,-42.1453,1740.465],[-71.8069,-42.147,1658.046],[-71.8092,-42.1513,1566.6047],[-71.8159,-42.1561,1651.5621],[-71.8273,-42.1592,2025.901],[-71.8327,-42.1624,2153.6345],[-71.8399,-42.1611,1963.201],[-71.8452,-42.1544,1993.7048],[-71.8489,-42.1545,1951.1445],[-71.8582,-42.1594,1865.6973],[-71.8654,-42.1561,1982.7104],[-71.8743,-42.1549,2116.1616],[-71.8802,-42.1619,1946.068],[-71.8794,-42.1666,2065.457],[-71.8912,-42.1767,1712.2727],[-71.8937,-42.1806,1714.5227],[-71.9042,-42.1824,1594.8027],[-71.9141,-42.1892,1035.845],[-71.9256,-42.1895,674.6396],[-71.9358,-42.1822,921.8058],[-71.9406,-42.1758,1244.4073],[-71.9412,-42.1726,1462.1865],[-71.9464,-42.1676,1563.8824],[-71.9528,-42.1652,1700.7574],[-71.9535,-42.1626,1711.4778],[-71.9504,-42.1583,1833.6519],[-71.9559,-42.1545,1784.23],[-71.9556,-42.1429,1913.832],[-71.9572,-42.1411,1949.8802],[-71.964,-42.1393,1965.011],[-71.9678,-42.1442,1806.2295],[-71.9713,-42.145,1842.6619],[-71.986,-42.1392,1857.8662],[-71.9925,-42.1412,1901.1061],[-72.0054,-42.1404,1899.8224],[-72.0097,-42.139,1907.3489],[-72.0139,-42.1326,2042.7346],[-72.0223,-42.1283,2037.2469],[-72.0274,-42.1227,2112.3062],[-72.034,-42.1222,2069.498],[-72.0392,-42.1264,2041.8823],[-72.0412,-42.1262,1911.9893],[-72.0518,-42.1147,2171.6436],[-72.0551,-42.1139,2205.8838],[-72.0669,-42.1169,2414.7397],[-72.065,-42.1215,2400.3823],[-72.0689,-42.1245,2257.0876],[-72.0776,-42.1272,2193.3516],[-72.0804,-42.1306,2200.2141],[-72.0805,-42.1327,2209.4204],[-72.0656,-42.1373,2114.4175],[-72.0646,-42.139,2204.2144],[-72.0669,-42.1419,2221.6792],[-72.0673,-42.1474,2160.8972],[-72.0766,-42.146,2016.0266],[-72.0827,-42.143,1841.5479],[-72.0914,-42.1483,1895.9617],[-72.1011,-42.1471,1669.5491],[-72.1048,-42.1451,1708.6813],[-72.1136,-42.1476,2031.7993],[-72.1153,-42.1456,2045.011],[-72.122,-42.1547,2223.1099],[-72.1252,-42.1546,2109.9883],[-72.1404,-42.1474,1957.1951],[-72.1588,-42.1441,2203.7402],[-72.1622,-42.1406,2123.3086],[-72.1724,-42.1389,2055.6306],[-72.1756,-42.1427,2026.3162],[-72.1774,-42.1532,2070.5039],[-72.1793,-42.1559,2166.6167],[-72.1876,-42.1579,2126.1895],[-72.1882,-42.1601,2021.259],[-72.1857,-42.1634,1842.7617],[-72.1854,-42.1736,1670.5781],[-72.1829,-42.1784,1738.978],[-72.1569,-42.1939,1863.1729],[-72.1561,-42.2053,1864.1538],[-72.1632,-42.2095,1761.2764],[-72.1661,-42.2146,1776.6243],[-72.1655,-42.2195,1929.946],[-72.1584,-42.2279,2091.1636],[-72.1535,-42.2427,1597.0583],[-72.1684,-42.25,1789.0292],[-72.1677,-42.2608,1864.3174],[-72.162,-42.2685,1852.7947],[-72.1547,-42.2723,1985.0319],[-72.154,-42.2779,1959.182],[-72.1487,-42.2808,1766.7039],[-72.1404,-42.2899,1967.9167],[-72.1394,-42.2951,2028.7017],[-72.1331,-42.3029,2075.9692],[-72.1351,-42.3048,1990.3904],[-72.1264,-42.3105,1760.7537],[-72.1214,-42.3233,2106.0139],[-72.1249,-42.3264,1798.7672],[-72.1354,-42.327,1791.152],[-72.137,-42.3287,1814.3027],[-72.1355,-42.3405,1946.5243],[-72.1365,-42.3472,1833.4585],[-72.1308,-42.3582,1929.3971],[-72.1336,-42.3627,1861.4883],[-72.1345,-42.3694,1843.4067],[-72.1281,-42.376,1896.2793],[-72.131,-42.3841,1724.8679],[-72.122,-42.389,1607.7084],[-72.1126,-42.3987,1934.5568],[-72.1028,-42.395,1750.7413],[-72.0885,-42.3955,1997.1072],[-72.0841,-42.3924,1699.1884],[-72.0795,-42.3843,2004.2312],[-72.0759,-42.3828,2017.5785],[-72.0645,-42.3937,1871.666],[-72.054,-42.3975,2198.9209],[-72.0409,-42.3989,2155.4692],[-72.0275,-42.408,2218.1216],[-72.0258,-42.411,2212.1909],[-72.0323,-42.4156,2072.8926],[-72.0346,-42.4204,2105.5598],[-72.0348,-42.4238,2014.397],[-72.0319,-42.4318,1890.2738],[-72.0401,-42.4456,2003.5922],[-72.0471,-42.4524,2006.5549],[-72.0329,-42.4566,1725.5854],[-72.0313,-42.4598,1800.1821],[-72.0313,-42.4666,1864.115],[-72.0211,-42.4787,2124.2288],[-71.6272,-42.4853,1552.6908],[-71.5986,-42.6052,1439.6803],[-71.4802,-42.6132,1078.6675],[-71.4875,-42.661,1158.4266],[-71.4426,-42.6878,967.7012],[-71.438,-42.7085,953.6122],[-71.4038,-42.7322,932.3351],[-71.3974,-42.7383,914.6371],[-71.3933,-42.744,917.4234],[-71.3891,-42.7585,869.4119],[-71.3741,-42.7589,968.8898],[-71.3484,-42.7829,1112.4949],[-71.3562,-42.794,992.053],[-71.3228,-42.8233,1370.5107],[-71.328,-42.8312,1118.1882],[-71.2916,-42.8582,815.1453],[-71.1671,-42.8619,938.3439],[-71.0466,-42.9468,1004.2512],[-70.9364,-42.8636,960.0748],[-70.8849,-42.8641,899.4621],[-70.7583,-42.8611,929.5498],[-70.5847,-42.8665,517.8115],[-70.5883,-42.8579,515.4437],[-70.5885,-42.8506,513.8661],[-70.5851,-42.8456,512.4604],[-70.5726,-42.834,509.4745],[-70.5583,-42.8144,505.7726],[-70.5367,-42.7633,497.2748],[-70.5153,-42.7361,497.78],[-70.4705,-42.6917,483.5485],[-70.4573,-42.6806,481.0661],[-70.4367,-42.649,474.4324],[-70.3992,-42.6303,468.8549],[-70.3959,-42.6276,467.5953],[-70.3886,-42.6158,464.4478],[-70.3724,-42.6072,462.4521],[-70.3682,-42.6015,462.4786],[-70.3514,-42.5962,472.6318],[-70.348,-42.5968,467.5724],[-70.3475,-42.6012,460.8528],[-70.3459,-42.6017,459.0947],[-70.3267,-42.5963,548.3586],[-70.3201,-42.5989,592.5458],[-70.3186,-42.6024,601.8639],[-70.3164,-42.6034,624.0665],[-70.3086,-42.6036,617.2808],[-70.308,-42.6104,538.284],[-70.306,-42.6116,532.0723],[-70.3054,-42.617,509.7759],[-70.2968,-42.6206,516.2094],[-70.2933,-42.6255,493.6064],[-70.2937,-42.6325,456.0887],[-70.2663,-42.6413,450.7081],[-70.2563,-42.6414,448.7834],[-70.2444,-42.6348,448.5282],[-70.2278,-42.6307,446.0275],[-70.2198,-42.6261,579.394],[-70.2103,-42.624,604.3488],[-70.1927,-42.6239,608.4154],[-70.1733,-42.6274,643.7664],[-70.1483,-42.6293,674.1727],[-70.1072,-42.6376,658.1919],[-70.0934,-42.6419,598.6401],[-70.072,-42.6547,920.2964],[-70.0535,-42.6698,543.6205],[-70.0393,-42.6733,502.8736],[-70.017,-42.6725,428.8139],[-70.0009,-42.6516,426.6335],[-69.9916,-42.6454,425.0704],[-69.9887,-42.6407,424.6662],[-69.9665,-42.6372,425.3232],[-69.9594,-42.632,535.3226],[-69.9228,-42.637,577.34],[-69.8903,-42.6359,419.7124],[-69.8833,-42.6342,418.5612],[-69.8739,-42.628,426.5259],[-69.8649,-42.6244,437.9986],[-69.8551,-42.6236,454.9829],[-69.8451,-42.6249,495.7291],[-69.8372,-42.6295,464.5258],[-69.8206,-42.6337,514.8177],[-69.8159,-42.6402,434.4591],[-69.8102,-42.644,427.5387],[-69.7933,-42.6459,752.8846],[-69.776,-42.6536,706.9331],[-69.7487,-42.675,405.3873],[-69.7364,-42.681399999999996,494.2307],[-69.7192,-42.6839,463.709],[-69.6966,-42.6841,416.7152],[-69.6815,-42.6834,478.6159],[-69.6702,-42.6797,428.743],[-69.6627,-42.6797,398.9649],[-69.6311,-42.6857,403.1743],[-69.6136,-42.6866,516.7013],[-69.598,-42.6926,822.9683],[-69.5662,-42.7135,872.3158],[-69.5415,-42.7478,837.4537],[-69.538,-42.7624,578.1488],[-69.535,-42.7675,743.0426],[-69.5257,-42.7785,560.7658],[-69.5053,-42.7968,800.8283],[-69.4284,-42.0066,1264.9578]]]]}
,"properties": {"GID_2": "ARG.4.2_1","GID_0": "ARG","country": "Argentina","GID_1": "ARG.4_1","state": "Chubut","NL_NAME_1": "NA","county": "Cushamen","VARNAME_2": "Leleque","NL_NAME_2": "NA","TYPE_2": "Departamento","ENGTYPE_2": "Department","CC_2": "NA","HASC_2": "AR.CH.CU","name": "Cushamen.county","area_km2": 16250.93,"hist_schema_id": "Elevation0-9000","hist_area_km2": {"200": 69.71,"225": 48.21,"250": 33.84,"275": 26.54,"300": 20.81,"325": 46.63,"350": 28.34,"375": 26.69,"400": 40.47,"425": 39.11,"450": 38.66,"475": 115.31,"500": 158.71,"525": 230.6,"550": 318.78,"575": 278.11,"600": 304.56,"625": 309.14,"650": 363.14,"675": 421.5,"700": 536.09,"725": 513.52,"750": 535.7,"775": 575.85,"800": 576.7,"825": 539.91,"850": 713.89,"875": 912.14,"900": 868.38,"925": 749.9,"950": 694.92,"975": 608.25,"1000": 513.68,"1025": 466.33,"1050": 417.12,"1075": 381.8,"1100": 356.08,"1125": 312.84,"1150": 270.54,"1175": 236.94,"1200": 205.01,"1225": 183.3,"1250": 166.28,"1275": 150.34,"1300": 141.42,"1325": 131.48,"1350": 123.74,"1375": 112.88,"1400": 101.48,"1425": 94.0,"1450": 87.18,"1475": 80.76,"1500": 78.43,"1525": 72.57,"1550": 67.57,"1575": 66.24,"1600": 63.29,"1625": 61.05,"1650": 55.67,"1675": 51.45,"1700": 48.59,"1725": 46.42,"1750": 44.62,"1775": 39.81,"1800": 36.32,"1825": 33.34,"1850": 30.12,"1875": 28.52,"1900": 25.05,"1925": 21.8,"1950": 19.38,"1975": 16.27,"2000": 14.34,"2025": 11.64,"2050": 10.02,"2075": 7.7,"2100": 5.73,"2125": 4.56,"2150": 3.65,"2175": 2.55,"2200": 1.96,"2225": 1.71,"2250": 1.02,"2275": 0.77,"2300": 0.47,"2325": 0.25,"2350": 0.25,"2375": 0.14,"2400": 0.22}}}