{"type": "Feature","bbox": [-55.3664,-27.78,-54.846,-27.1795],"geometry": {"type": "MultiPolygon","coordinates": [[[[-55.1004,-27.1795,349.2995],[-55.1358,-27.18,240.9645],[-55.1354,-27.2715,265.3597],[-55.1434,-27.27,293.3897],[-55.1446,-27.2725,279.2313],[-55.1429,-27.2802,231.8158],[-55.1487,-27.2809,245.652],[-55.1507,-27.2824,272.4259],[-55.1511,-27.2876,225.4327],[-55.1541,-27.2881,224.394],[-55.1578,-27.284,298.3712],[-55.1634,-27.2837,262.2354],[-55.1644,-27.2886,220.2593],[-55.1633,-27.2911,219.1045],[-55.1649,-27.2932,222.6566],[-55.1678,-27.2927,223.2028],[-55.1722,-27.289,217.3858],[-55.1775,-27.291,266.1876],[-55.1857,-27.2883,237.1696],[-55.1911,-27.29,263.2283],[-55.1934,-27.2949,228.874],[-55.1907,-27.3022,204.7221],[-55.1924,-27.3044,200.2758],[-55.1916,-27.3066,209.541],[-55.1858,-27.3068,204.5284],[-55.1844,-27.3089,205.9689],[-55.1856,-27.3113,255.5687],[-55.1906,-27.3143,197.907],[-55.2018,-27.311,234.4715],[-55.2046,-27.3117,284.7737],[-55.2081,-27.3161,243.0039],[-55.2107,-27.3166,193.7465],[-55.2122,-27.3097,255.5764],[-55.218,-27.3187,181.2741],[-55.2174,-27.321,183.6526],[-55.2119,-27.322,188.649],[-55.2152,-27.3262,186.4933],[-55.2326,-27.3291,188.3795],[-55.2353,-27.3278,175.2342],[-55.237,-27.3233,196.316],[-55.2409,-27.3304,170.6546],[-55.2511,-27.336,183.1177],[-55.2596,-27.3374,183.6479],[-55.2701,-27.3331,160.3976],[-55.2726,-27.3344,165.9756],[-55.2786,-27.3522,153.0684],[-55.2896,-27.354,168.8981],[-55.289,-27.3591,151.9756],[-55.2802,-27.3654,173.9049],[-55.2838,-27.3691,151.9666],[-55.2838,-27.3769,151.7607],[-55.2894,-27.3783,152.151],[-55.2947,-27.3758,164.4493],[-55.2958,-27.3781,145.07],[-55.2937,-27.3828,145.7288],[-55.2835,-27.3859,148.2198],[-55.2828,-27.3886,162.6891],[-55.2874,-27.3907,145.6038],[-55.2806,-27.3943,156.913],[-55.2817,-27.3967,161.1188],[-55.2876,-27.3973,139.3758],[-55.2889,-27.3992,146.8919],[-55.2814,-27.4016,152.4841],[-55.2818,-27.406,152.7834],[-55.3664,-27.4565,164.2613],[-55.3619,-27.4609,164.8458],[-55.3565,-27.4585,160.4346],[-55.3542,-27.4537,193.4862],[-55.3482,-27.4537,192.9535],[-55.3454,-27.4582,158.583],[-55.332,-27.4616,174.2979],[-55.3307,-27.4631,166.8197],[-55.3327,-27.4709,159.3912],[-55.3301,-27.472,174.488],[-55.3272,-27.4714,168.9252],[-55.3213,-27.4656,192.1104],[-55.3166,-27.4688,179.8248],[-55.3089,-27.4689,182.0905],[-55.3123,-27.4585,205.5258],[-55.3011,-27.4578,200.1385],[-55.2906,-27.4671,183.211],[-55.2849,-27.4687,187.5691],[-55.2828,-27.4763,192.6112],[-55.284,-27.4841,180.8197],[-55.2727,-27.4964,215.6355],[-55.265,-27.5002,237.9451],[-55.2614,-27.5044,212.0108],[-55.2242,-27.51,291.7235],[-55.2218,-27.5126,274.6151],[-55.2507,-27.5191,250.708],[-55.2465,-27.5244,236.6522],[-55.2489,-27.5286,260.8501],[-55.2321,-27.5422,306.2387],[-55.2501,-27.5571,296.5974],[-55.1866,-27.6063,266.2896],[-55.1884,-27.6114,280.6817],[-55.1875,-27.6139,235.7405],[-55.1825,-27.6161,260.9265],[-55.1751,-27.6116,298.2669],[-55.1721,-27.6137,305.935],[-55.1716,-27.6203,267.3235],[-55.0766,-27.6153,279.8183],[-55.0606,-27.6336,208.4874],[-55.0541,-27.6303,263.1779],[-55.0524,-27.6345,248.1923],[-55.0474,-27.6375,276.4125],[-55.0442,-27.6417,252.4441],[-55.0457,-27.6441,207.0057],[-55.0441,-27.6459,203.584],[-55.0383,-27.6474,225.6855],[-55.0376,-27.6603,154.7361],[-55.0331,-27.6635,158.3108],[-55.0328,-27.6687,148.3356],[-55.0293,-27.676,168.9125],[-55.0214,-27.6838,175.0546],[-55.0212,-27.6891,144.8237],[-55.0181,-27.6965,141.1594],[-55.0191,-27.6989,135.4529],[-54.9987,-27.7343,118.3392],[-54.9918,-27.7393,242.8457],[-54.9873,-27.7456,213.9294],[-54.9841,-27.7457,219.9738],[-54.974,-27.7512,144.196],[-54.978,-27.7768,130.3449],[-54.9472,-27.78,92.0],[-54.9405,-27.7751,92.5],[-54.9351,-27.7607,93.5],[-54.9323,-27.757,94.0],[-54.9158,-27.7439,114.0427],[-54.9069,-27.7306,95.5],[-54.9032,-27.7186,95.5],[-54.9025,-27.7085,96.0],[-54.9032,-27.653199999999998,99.8049],[-54.903,-27.6465,103.0982],[-54.9003,-27.6409,102.9944],[-54.8956,-27.6363,122.3784],[-54.8844,-27.6322,157.223],[-54.8599,-27.6291,96.5],[-54.8526,-27.6266,96.625],[-54.846,-27.6215,102.8826],[-54.8483,-27.6077,118.1147],[-54.8509,-27.6065,127.5252],[-54.8624,-27.6097,125.5181],[-54.8674,-27.6079,107.5022],[-54.8656,-27.6029,107.6812],[-54.8605,-27.6,103.6421],[-54.8579,-27.5953,126.4633],[-54.8588,-27.5928,153.6032],[-54.8684,-27.5865,115.9306],[-54.8685,-27.5786,109.6293],[-54.8584,-27.5687,122.7065],[-54.8534,-27.5662,113.9922],[-54.8522,-27.5638,188.0007],[-54.854,-27.5587,209.0743],[-54.8581,-27.5549,172.1246],[-54.8611,-27.5545,144.9617],[-54.8757,-27.5564,147.9077],[-54.8813,-27.5503,128.847],[-54.8799,-27.548,119.2453],[-54.8682,-27.5489,148.3526],[-54.8607,-27.546,130.3817],[-54.8616,-27.5434,147.9541],[-54.8662,-27.54,121.0887],[-54.8658,-27.5377,122.6842],[-54.8601,-27.5317,150.6246],[-54.8607,-27.5264,154.8033],[-54.8639,-27.5218,182.7628],[-54.8738,-27.5157,117.6093],[-54.8748,-27.5135,121.8984],[-54.8682,-27.5082,115.501],[-54.8665,-27.5032,203.906],[-54.8682,-27.501,215.8249],[-54.8768,-27.4991,124.794],[-54.8828,-27.4901,151.2865],[-54.8911,-27.4876,228.9619],[-54.8954,-27.4838,189.1813],[-54.9101,-27.4848,123.7653],[-54.9125,-27.4834,133.3841],[-54.9101,-27.4784,236.4204],[-54.9025,-27.4743,136.6049],[-54.902,-27.4692,231.1151],[-54.9059,-27.4655,162.3741],[-54.9178,-27.465,152.7304],[-54.9187,-27.4634,159.5223],[-54.9154,-27.4558,320.2772],[-54.9166,-27.4534,313.4398],[-54.9196,-27.4527,261.9107],[-54.9246,-27.4546,184.3654],[-54.9272,-27.4531,143.5898],[-54.9295,-27.4482,148.8414],[-54.9294,-27.4429,169.3106],[-54.9256,-27.4391,153.8192],[-54.924,-27.4312,173.2427],[-54.9213,-27.4301,155.987],[-54.9165,-27.4327,155.028],[-54.9121,-27.426,245.4705],[-54.9178,-27.4246,172.5094],[-54.9191,-27.4223,172.7042],[-54.9152,-27.4184,187.7647],[-54.9159,-27.416,242.8613],[-54.9204,-27.4131,177.6017],[-54.9209,-27.4078,188.7716],[-54.9236,-27.4064,175.2136],[-54.9241,-27.404,211.7808],[-54.923,-27.4015,227.3794],[-54.9148,-27.4019,170.4235],[-54.9136,-27.3968,263.1012],[-54.9146,-27.3942,188.3889],[-54.9174,-27.3933,175.8413],[-54.9173,-27.3887,282.6016],[-54.9157,-27.3864,281.6022],[-54.9102,-27.3862,188.6026],[-54.9078,-27.3813,258.8028],[-54.9085,-27.3789,267.4226],[-54.9145,-27.3776,192.0992],[-54.9121,-27.3711,247.0498],[-54.9167,-27.3677,193.7807],[-54.9157,-27.3598,287.0121],[-54.9187,-27.3571,255.0023],[-54.9378,-27.3688,411.8152],[-55.0732,-27.1885,472.2338],[-55.0865,-27.1888,463.2095],[-55.1004,-27.1795,349.2995]]]]}
,"properties": {"GID_2": "ARG.14.13_1","GID_0": "ARG","country": "Argentina","GID_1": "ARG.14_1","state": "Misiones","NL_NAME_1": "NA","county": "Oberá","VARNAME_2": "NA","NL_NAME_2": "NA","TYPE_2": "Departamento","ENGTYPE_2": "Department","CC_2": "NA","HASC_2": "AR.MN.OB","name": "Oberá.county","area_km2": 1582.199,"hist_schema_id": "Elevation0-9000","hist_area_km2": {"100": 32.972,"125": 43.357,"150": 62.392,"175": 73.112,"200": 85.397,"225": 98.186,"250": 132.573,"275": 189.967,"300": 214.437,"325": 246.4,"350": 224.829,"375": 124.179,"400": 31.96,"425": 12.613,"450": 8.033,"475": 1.792}}}