{"type": "Feature","bbox": [-65.5306,-25.1651,-65.2353,-24.8545],"geometry": {"type": "MultiPolygon","coordinates": [[[[-65.5215,-24.8559,1288.6718],[-65.5114,-24.8618,1276.3336],[-65.5125,-24.8792,1277.5732],[-65.5207,-24.9008,1296.4742],[-65.5211,-24.9067,1299.0339],[-65.5192,-24.9117,1296.3447],[-65.5097,-24.9188,1285.8929],[-65.5066,-24.9237,1282.3673],[-65.4974,-24.9313,1269.2698],[-65.5048,-24.9406,1275.0142],[-65.5139,-24.9484,1283.0724],[-65.5306,-24.9797,1278.0505],[-65.514,-24.9858,1253.6708],[-65.5051,-24.9937,1236.4077],[-65.5073,-25.0281,1203.8652],[-65.5043,-25.0498,1179.6853],[-65.4988,-25.0509,1174.1589],[-65.4869,-25.0471,1166.4779],[-65.4745,-25.0471,1161.895],[-65.442,-25.0647,1116.8248],[-65.4242,-25.0705,1116.7449],[-65.4089,-25.0807,1097.8413],[-65.4029,-25.0813,1090.4878],[-65.3985,-25.0773,1072.8318],[-65.3925,-25.067,1089.2721],[-65.3867,-25.0688,1096.7946],[-65.3818,-25.0724,1127.0654],[-65.3706,-25.0863,1197.0598],[-65.3561,-25.0973,1186.3179],[-65.3449,-25.1112,1383.5376],[-65.3396,-25.1144,1583.6772],[-65.3322,-25.1236,1595.0435],[-65.3171,-25.1339,1806.6582],[-65.2996,-25.1504,1817.2456],[-65.2838,-25.16,1825.0625],[-65.2656,-25.1646,1921.5859],[-65.253,-25.1651,2155.4597],[-65.247,-25.1632,1910.6766],[-65.2423,-25.1595,1828.6461],[-65.2358,-25.1495,1428.842],[-65.2353,-25.1439,1706.9182],[-65.2417,-25.1276,2015.5117],[-65.2576,-25.1097,2290.2327],[-65.275,-25.0865,1880.2563],[-65.2918,-25.0788,1710.7419],[-65.3009,-25.0709,1739.5084],[-65.3036,-25.0597,2161.3132],[-65.3039,-25.0368,1859.6359],[-65.3167,-25.0171,1864.0698],[-65.3177,-24.9941,1806.6389],[-65.315,-24.9714,1632.3806],[-65.3179,-24.9601,1798.3094],[-65.314,-24.9497,1760.8927],[-65.3282,-24.9385,1640.8835],[-65.3375,-24.9172,1745.3462],[-65.3424,-24.9138,1781.1487],[-65.3549,-24.9125,1649.6129],[-65.3662,-24.9077,1255.3623],[-65.3673,-24.902,1180.686],[-65.3649,-24.8908,1203.8264],[-65.3641,-24.8736,1189.8428],[-65.3654,-24.868,1175.5459],[-65.3755,-24.8611,1159.3715],[-65.3813,-24.859,1162.1907],[-65.3875,-24.8595,1163.2314],[-65.3989,-24.8645,1167.6814],[-65.4114,-24.8659,1175.0548],[-65.43,-24.8631,1187.1682],[-65.4417,-24.8589,1197.5657],[-65.4456,-24.8595,1198.0267],[-65.4535,-24.856,1204.1123],[-65.4668,-24.8565,1216.9935],[-65.4751,-24.8545,1220.0961],[-65.4856,-24.857,1236.1271],[-65.4979,-24.8548,1253.2286],[-65.5215,-24.8559,1288.6718]]]]}
,"properties": {"GID_2": "ARG.17.5_1","GID_0": "ARG","country": "Argentina","GID_1": "ARG.17_1","state": "Salta","NL_NAME_1": "NA","county": "Cerrillos","VARNAME_2": "NA","NL_NAME_2": "NA","TYPE_2": "Departamento","ENGTYPE_2": "Department","CC_2": "NA","HASC_2": "AR.SA.CE","name": "Cerrillos.county","area_km2": 503.483,"hist_schema_id": "Elevation0-9000","hist_area_km2": {"1075": 0.7874,"1100": 8.7975,"1125": 32.9319,"1150": 73.4429,"1175": 71.2186,"1200": 46.0576,"1225": 34.8905,"1250": 39.1217,"1275": 29.6824,"1300": 9.8782,"1325": 7.5324,"1350": 7.0517,"1375": 6.3979,"1400": 6.5515,"1425": 6.4165,"1450": 5.859,"1475": 5.4556,"1500": 5.4554,"1525": 4.6488,"1550": 5.1095,"1575": 5.8203,"1600": 5.2246,"1625": 5.34,"1650": 5.743,"1675": 5.4936,"1700": 5.8199,"1725": 5.7432,"1750": 5.8582,"1775": 5.4161,"1800": 5.4545,"1825": 5.3003,"1850": 5.5113,"1875": 4.9732,"1900": 4.4165,"1925": 3.3411,"1950": 3.2258,"1975": 2.2273,"2000": 1.9006,"2025": 1.67,"2050": 1.3629,"2075": 1.1135,"2100": 0.979,"2125": 0.6334,"2150": 0.7871,"2175": 0.5375,"2200": 0.7102,"2225": 0.4607,"2250": 0.4607,"2275": 0.3263,"2300": 0.1152,"2325": 0.1152,"2350": 0.0768,"2375": 0.0384}}}