{"type": "Feature","bbox": [-67.8725,-39.9269,-65.2205,-38.531],"geometry": {"type": "MultiPolygon","coordinates": [[[[-66.6446,-38.531,242.8313],[-66.6407,-39.1059,176.4126],[-66.6193,-39.1032,174.4542],[-66.5636,-39.1016,173.2693],[-66.5695,-39.2634,290.8531],[-67.5407,-39.5306,419.9444],[-67.7714,-39.727,454.0927],[-67.8725,-39.811,560.3998],[-66.8299,-39.9164,149.9754],[-66.2255,-39.9255,245.8998],[-66.0015,-39.9269,218.021],[-65.284,-39.9264,130.0262],[-65.2205,-39.8789,90.9799],[-65.222,-39.8756,91.4089],[-65.2221,-39.8681,95.4934],[-65.2278,-39.866,92.0743],[-65.2373,-39.867,96.5134],[-65.2463,-39.8642,90.1124],[-65.2386,-38.8275,135.3442],[-65.2509,-38.828,134.8536],[-65.2593,-38.821,153.9423],[-65.271,-38.8176,146.4941],[-65.2763,-38.8191,137.4606],[-65.2937,-38.8291,139.455],[-65.3147,-38.831,139.8334],[-65.3221,-38.8428,162.71],[-65.3279,-38.8476,152.0649],[-65.3364,-38.8495,148.7132],[-65.3679,-38.8514,147.9014],[-65.373,-38.85,149.0889],[-65.3836,-38.8381,152.5334],[-65.3911,-38.8341,149.5462],[-65.426,-38.826,155.1773],[-65.4365,-38.8213,164.0138],[-65.4458,-38.8151,156.7911],[-65.457,-38.8035,175.8428],[-65.4639,-38.7996,167.0549],[-65.4978,-38.7987,160.562],[-65.5116,-38.7869,156.0765],[-65.5267,-38.7845,159.7776],[-65.542,-38.7847,160.9687],[-65.5523,-38.7759,172.7332],[-65.5668,-38.7786,166.5312],[-65.5749,-38.7741,176.4117],[-65.5785,-38.775,162.1238],[-65.5833,-38.7844,163.9915],[-65.5957,-38.7868,164.8565],[-65.6,-38.7892,161.2929],[-65.602,-38.8011,165.6309],[-65.615,-38.8064,161.5],[-65.6134,-38.8117,181.7571],[-65.6146,-38.8164,194.8197],[-65.6216,-38.8147,175.4255],[-65.6266,-38.8156,165.3494],[-65.6304,-38.8275,199.5066],[-65.6574,-38.8306,168.6424],[-65.6849,-38.8285,167.8354],[-65.6927,-38.8258,169.3347],[-65.6962,-38.8186,171.387],[-65.7005,-38.8166,167.4647],[-65.7132,-38.8177,170.4562],[-65.7322,-38.8108,172.5067],[-65.7566,-38.8118,171.6539],[-65.7656,-38.8057,173.4085],[-65.7866,-38.8077,172.4398],[-65.7976,-38.8133,183.0668],[-65.8013,-38.8125,178.6724],[-65.804,-38.8046,172.3906],[-65.8076,-38.8016,174.0382],[-65.8232,-38.8027,176.2691],[-65.8331,-38.7927,175.0081],[-65.837,-38.7918,175.3543],[-65.8441,-38.7986,176.564],[-65.8473,-38.7984,177.4459],[-65.854,-38.7926,177.8395],[-65.864,-38.7931,176.494],[-65.866,-38.7903,176.5936],[-65.8642,-38.7848,178.8414],[-65.8658,-38.7791,178.5767],[-65.8818,-38.7785,178.2595],[-65.8952,-38.7814,177.8263],[-65.8983,-38.7801,176.4394],[-65.9038,-38.7663,178.583],[-65.9128,-38.7731,178.3356],[-65.9202,-38.7685,179.5965],[-65.9328,-38.771,180.3591],[-65.9354,-38.7689,178.0],[-65.9347,-38.7609,181.3233],[-65.9361,-38.7565,181.8114],[-65.9441,-38.7528,178.5],[-65.9471,-38.7456,182.9216],[-65.9518,-38.7437,184.511],[-65.9826,-38.7442,182.948],[-65.9995,-38.7494,183.6286],[-66.0128,-38.7422,185.2723],[-66.0169,-38.742,183.1117],[-66.0203,-38.7502,183.6232],[-66.0233,-38.7507,182.7184],[-66.0289,-38.7432,184.4636],[-66.0325,-38.7427,183.0724],[-66.0359,-38.7479,183.4458],[-66.0402,-38.7496,185.0757],[-66.0485,-38.7456,183.4793],[-66.0559,-38.7495,184.1645],[-66.0588,-38.7491,185.3575],[-66.0662,-38.7449,185.0616],[-66.0704,-38.73,193.2237],[-66.0744,-38.7259,201.6739],[-66.0891,-38.731,187.1267],[-66.1037,-38.7313,186.227],[-66.1048,-38.7367,186.7331],[-66.1088,-38.7407,188.3954],[-66.1321,-38.7328,188.2881],[-66.1594,-38.7331,190.4295],[-66.1663,-38.7399,190.6764],[-66.176,-38.7338,190.7666],[-66.1973,-38.7346,192.3329],[-66.2146,-38.7303,193.9135],[-66.2547,-38.7471,194.4849],[-66.2867,-38.7542,194.3251],[-66.3051,-38.7472,196.0581],[-66.3108,-38.7537,194.1875],[-66.3152,-38.7552,197.0744],[-66.3256,-38.7495,196.285],[-66.3324,-38.7538,195.5],[-66.3417,-38.7535,199.277],[-66.3474,-38.752,198.8111],[-66.3593,-38.7446,197.5157],[-66.3767,-38.7404,203.663],[-66.3846,-38.7363,216.1464],[-66.3873,-38.7361,226.4903],[-66.3981,-38.7408,198.7645],[-66.4098,-38.7344,201.345],[-66.4133,-38.7417,201.7132],[-66.417,-38.7444,198.5],[-66.426,-38.742,201.8143],[-66.4311,-38.7455,200.3306],[-66.4374,-38.7462,199.8918],[-66.4425,-38.7394,204.5806],[-66.4541,-38.7371,201.795],[-66.4618,-38.733,202.16309999999999],[-66.4748,-38.7354,204.4658],[-66.4777,-38.734,202.8027],[-66.4795,-38.7262,206.6542],[-66.4963,-38.7126,229.4843],[-66.5082,-38.7125,208.1121],[-66.5193,-38.7089,217.8047],[-66.5319,-38.7112,208.7785],[-66.5368,-38.7101,206.9581],[-66.5459,-38.6973,229.355],[-66.5724,-38.694,211.0853],[-66.5775,-38.6852,210.3883],[-66.5972,-38.6725,210.7034],[-66.5967,-38.6695,212.5385],[-66.5871,-38.666,231.9037],[-66.5849,-38.6627,247.4483],[-66.5897,-38.6534,231.6682],[-66.5774,-38.6287,223.2356],[-66.577,-38.6197,217.3146],[-66.5931,-38.594,215.984],[-66.5996,-38.5605,226.2884],[-66.6022,-38.5541,237.7028],[-66.6061,-38.5513,234.4665],[-66.621,-38.5471,223.5289],[-66.6356,-38.5347,231.8306],[-66.6446,-38.531,242.8313]]]]}
,"properties": {"GID_2": "ARG.16.2_1","GID_0": "ARG","country": "Argentina","GID_1": "ARG.16_1","state": "RíoNegro","NL_NAME_1": "NA","county": "Avellaneda","VARNAME_2": "ChoeleChoel","NL_NAME_2": "NA","TYPE_2": "Departamento","ENGTYPE_2": "Department","CC_2": "NA","HASC_2": "AR.RN.AV","name": "Avellaneda.county","area_km2": 20016.82,"hist_schema_id": "Elevation0-9000","hist_area_km2": {"50": 56.69,"75": 248.56,"100": 971.68,"125": 1469.46,"150": 1603.52,"175": 2545.55,"200": 3873.16,"225": 2806.97,"250": 2593.15,"275": 1937.76,"300": 1034.08,"325": 429.92,"350": 156.45,"375": 102.03,"400": 78.53,"425": 38.07,"450": 24.04,"475": 25.91,"500": 14.16,"525": 3.6,"550": 2.85,"575": 0.68}}}