{"type":"Feature","properties":{"GID_2":"ARG.11.15_1","GID_0":"ARG","country":"Argentina","GID_1":"ARG.11_1","state":"LaPampa","NL_NAME_1":"NA","county":"Maracó","VARNAME_2":"GeneralPico","NL_NAME_2":"NA","TYPE_2":"Departamento","ENGTYPE_2":"Department","CC_2":"NA","HASC_2":"AR.LP.MA","name":"Maracó.county"},
"geometry":{"type": "MultiPolygon","coordinates": [[[[-63.3885,-35.8839,111.1322],[-63.3894,-35.4591,116.6635],[-63.937,-35.4602,145.2011],[-63.9361,-35.9127,140.847],[-63.3882,-35.9133,112.4731],[-63.3885,-35.8839,111.1322]]]]}}