{"type": "Feature","bbox": [-61.4333,-37.3699,-60.0039,-36.3407],"geometry": {"type": "MultiPolygon","coordinates": [[[[-60.1644,-36.7149,129.4308],[-60.2807,-36.6212,128.5253],[-60.3229,-36.6517,137.637],[-60.4764,-36.5289,117.7234],[-60.4392,-36.498,112.1715],[-60.5431,-36.4173,97.9208],[-60.5387,-36.4113,97.0808],[-60.568,-36.3901,93.7771],[-60.5731,-36.3956,94.2398],[-60.6529,-36.3407,87.1637],[-60.7268,-36.3936,91.049],[-60.7571,-36.3694,92.5483],[-60.8704,-36.46,99.6992],[-60.8907,-36.4435,99.7364],[-61.4333,-36.8713,126.3889],[-61.0131,-37.2054,181.6555],[-60.8143,-37.0589,179.5453],[-60.7206,-37.1275,189.2433],[-60.7336,-37.1388,189.1216],[-60.6261,-37.2272,209.0035],[-60.6286,-37.23,208.797],[-60.5743,-37.274,215.654],[-60.5696,-37.27,215.5002],[-60.4478,-37.3617,224.8373],[-60.4423,-37.3569,225.6537],[-60.4254,-37.3699,226.2899],[-60.2756,-37.2467,224.22],[-60.2786,-37.2431,223.4726],[-60.1553,-37.14,226.9114],[-60.1588,-37.1373,227.1122],[-60.1356,-37.1136,232.0585],[-60.1414,-37.1095,234.7229],[-60.1237,-37.0965,241.6963],[-60.1439,-37.0794,242.4212],[-60.1239,-37.0625,213.8068],[-60.1321,-37.0559,223.4405],[-60.1117,-37.0397,222.0814],[-60.1203,-37.0316,233.6858],[-60.0986,-37.0125,213.4694],[-60.1166,-36.9984,209.4416],[-60.1031,-36.987,205.9259],[-60.1112,-36.9784,205.2781],[-60.0977,-36.9646,211.8982],[-60.0602,-36.9365,187.041],[-60.0502,-36.9439,187.3482],[-60.0235,-36.9122,171.0135],[-60.0377,-36.9009,170.5975],[-60.0209,-36.8874,166.7529],[-60.0328,-36.8773,165.9665],[-60.0127,-36.8592,160.7094],[-60.0239,-36.8513,159.3352],[-60.0039,-36.8321,154.1047],[-60.0935,-36.7622,135.7217],[-60.1015,-36.7654,136.1412],[-60.1644,-36.7149,129.4308]]]]}
,"properties": {"GID_2": "ARG.1.86_1","GID_0": "ARG","country": "Argentina","GID_1": "ARG.1_1","state": "BuenosAires","NL_NAME_1": "NA","county": "Olavarría","VARNAME_2": "NA","NL_NAME_2": "NA","TYPE_2": "Partido","ENGTYPE_2": "Part","CC_2": "NA","HASC_2": "AR.BA.OL","name": "Olavarría.county","area_km2": 7754.251,"hist_schema_id": "Elevation0-9000","hist_area_km2": {"75": 0.102,"100": 777.051,"125": 1561.24,"150": 1886.862,"175": 1907.987,"200": 944.454,"225": 590.227,"250": 60.469,"275": 20.896,"300": 4.895,"325": 0.068}}}