{"type": "Feature","bbox": [-66.1613,-26.3565,-65.6126,-25.8738],"geometry": {"type": "MultiPolygon","coordinates": [[[[-66.0816,-26.2194,3859.1345],[-66.0629,-26.2282,3060.7375],[-66.0448,-26.2309,2887.6987],[-66.041,-26.2347,3201.6382],[-66.0337,-26.2316,3117.917],[-65.9237,-26.2759,1642.4597],[-65.8339,-26.3081,1821.6704],[-65.7109,-26.3565,3558.4358],[-65.7041,-26.3397,3433.1155],[-65.7053,-26.3337,3469.8276],[-65.7145,-26.3214,3460.7671],[-65.7115,-26.3129,2959.239],[-65.7038,-26.303,3075.6057],[-65.7032,-26.2987,3391.1604],[-65.7126,-26.2852,3497.4312],[-65.7016,-26.2759,2971.686],[-65.7,-26.2694,3174.9265],[-65.701,-26.2578,3167.4961],[-65.6994,-26.2534,3034.6887],[-65.6911,-26.2463,3166.2678],[-65.6907,-26.2401,3159.2129],[-65.6985,-26.2276,3569.5935],[-65.6987,-26.2221,3422.1509],[-65.6971,-26.2092,3117.7849],[-65.6887,-26.1955,3192.1497],[-65.6846,-26.1825,3469.3684],[-65.6831,-26.1682,3660.5413],[-65.6858,-26.1543,3529.4004],[-65.6845,-26.1429,3858.0215],[-65.6797,-26.1348,3510.175],[-65.6735,-26.1183,3065.9346],[-65.6599,-26.1184,2617.062],[-65.649,-26.0944,2854.4331],[-65.6447,-26.0777,2905.6348],[-65.6399,-26.067,3192.5503],[-65.6332,-26.0573,2575.5249],[-65.6193,-26.0458,2380.3875],[-65.6161,-26.0407,2532.7793],[-65.6137,-26.0353,2547.7048],[-65.6146,-26.0127,2321.4968],[-65.6126,-26.0011,2436.1248],[-65.614,-25.9962,2374.8647],[-65.6256,-25.9909,2563.9158],[-65.6381,-25.9887,2678.6631],[-65.6762,-25.9872,1954.8219],[-65.7013,-25.9835,1861.677],[-65.713,-25.9791,2139.7031],[-65.723,-25.9731,1928.3999],[-65.7349,-25.9779,1659.7001],[-65.7412,-25.9783,1616.8162],[-65.747,-25.9759,1511.9546],[-65.7523,-25.9723,1480.7896],[-65.7556,-25.9677,1569.8735],[-65.755,-25.9561,1479.9897],[-65.7479,-25.9466,1502.9513],[-65.7316,-25.9377,1587.9924],[-65.7244,-25.9281,1436.8152],[-65.7227,-25.9227,1444.5253],[-65.7226,-25.9112,1471.7281],[-65.7161,-25.8822,1461.1744],[-65.7373,-25.8772,1621.2686],[-65.7478,-25.8828,1596.4407],[-65.7526,-25.8786,1747.6223],[-65.7584,-25.8771,1841.3208],[-65.7643,-25.8792,1902.0797],[-65.7796,-25.8892,2139.1118],[-65.7945,-25.8789,2547.9185],[-65.7995,-25.8738,2818.0312],[-65.7948,-25.9283,3099.0957],[-65.7931,-25.9341,3088.762],[-65.7947,-25.9392,3022.0464],[-65.8151,-25.9615,1798.9309],[-65.8287,-25.9735,1646.1246],[-65.8516,-26.0079,1541.6631],[-65.8647,-26.0203,1539.066],[-65.8859,-26.0329,1549.3953],[-65.9108,-26.0369,1581.9939],[-65.9209,-26.0438,1601.2045],[-65.9323,-26.0488,1587.4907],[-65.9565,-26.056,1610.0299],[-65.969,-26.0581,1629.7461],[-66.0007,-26.0577,1746.6844],[-66.0256,-26.0626,1979.0273],[-66.0426,-26.0699,2270.2446],[-66.0553,-26.0696,2242.7939],[-66.0676,-26.0727,2552.3579],[-66.1116,-26.079,3486.0044],[-66.1169,-26.0818,3701.9233],[-66.1254,-26.0906,4005.729],[-66.1313,-26.1008,4192.7334],[-66.1449,-26.115,4348.9878],[-66.1613,-26.1374,4701.916],[-66.1497,-26.1377,4498.9517],[-66.1354,-26.1466,4304.3594],[-66.1321,-26.1525,4189.7095],[-66.1341,-26.1635,4266.6631],[-66.1333,-26.168,4259.3652],[-66.1161,-26.187,4234.4033],[-66.1046,-26.2092,4334.6201],[-66.1025,-26.2103,4365.9829],[-66.0959,-26.2071,4331.6304],[-66.0911,-26.2068,4230.3613],[-66.0854,-26.2111,4118.8994],[-66.0816,-26.2194,3859.1345]]]]}
,"properties": {"GID_2": "ARG.17.3_1","GID_0": "ARG","country": "Argentina","GID_1": "ARG.17_1","state": "Salta","NL_NAME_1": "NA","county": "Cafayate","VARNAME_2": "NA","NL_NAME_2": "NA","TYPE_2": "Departamento","ENGTYPE_2": "Department","CC_2": "NA","HASC_2": "AR.SA.CF","name": "Cafayate.county","area_km2": 1379.82,"hist_schema_id": "Elevation0-9000","hist_area_km2": {"1400": 0.496,"1425": 0.935,"1450": 0.763,"1475": 1.487,"1500": 5.414,"1525": 12.597,"1550": 33.303,"1575": 68.081,"1600": 63.439,"1625": 65.376,"1650": 58.647,"1675": 40.08,"1700": 29.352,"1725": 25.126,"1750": 22.156,"1775": 21.091,"1800": 20.765,"1825": 23.465,"1850": 22.21,"1875": 19.413,"1900": 17.682,"1925": 15.703,"1950": 15.189,"1975": 14.523,"2000": 14.79,"2025": 14.904,"2050": 16.445,"2075": 15.855,"2100": 14.238,"2125": 14.391,"2150": 14.086,"2175": 15.113,"2200": 14.41,"2225": 14.619,"2250": 14.561,"2275": 14.277,"2300": 15.077,"2325": 14.563,"2350": 15.001,"2375": 14.735,"2400": 13.839,"2425": 14.297,"2450": 13.117,"2475": 13.059,"2500": 13.003,"2525": 13.174,"2550": 13.211,"2575": 12.411,"2600": 12.564,"2625": 11.879,"2650": 11.669,"2675": 11.422,"2700": 10.374,"2725": 11.135,"2750": 9.974,"2775": 10.164,"2800": 9.022,"2825": 10.164,"2850": 9.441,"2875": 8.717,"2900": 9.497,"2925": 10.011,"2950": 9.021,"2975": 8.793,"3000": 9.154,"3025": 8.259,"3050": 9.364,"3075": 8.697,"3100": 8.792,"3125": 7.554,"3150": 7.935,"3175": 7.764,"3200": 7.707,"3225": 7.668,"3250": 7.649,"3275": 8.334,"3300": 6.907,"3325": 7.744,"3350": 7.002,"3375": 7.211,"3400": 7.401,"3425": 7.173,"3450": 7.248,"3475": 7.628,"3500": 8.256,"3525": 5.898,"3550": 5.481,"3575": 5.633,"3600": 4.187,"3625": 4.377,"3650": 3.464,"3675": 3.692,"3700": 3.54,"3725": 4.492,"3750": 5.424,"3775": 4.13,"3800": 3.825,"3825": 3.692,"3850": 3.064,"3875": 3.369,"3900": 3.102,"3925": 2.912,"3950": 2.531,"3975": 2.531,"4000": 2.436,"4025": 2.379,"4050": 2.113,"4075": 2.284,"4100": 1.808,"4125": 1.979,"4150": 1.789,"4175": 2.189,"4200": 2.455,"4225": 3.273,"4250": 3.425,"4275": 1.865,"4300": 0.856,"4325": 0.685,"4350": 0.59,"4375": 0.381,"4400": 0.381,"4425": 0.362,"4450": 0.476,"4475": 0.362,"4500": 0.457,"4525": 0.228,"4550": 0.266,"4575": 0.266,"4600": 0.266,"4625": 0.171,"4650": 0.171,"4675": 0.247,"4700": 0.171,"4725": 0.114,"4750": 0.114,"4775": 0.076,"4800": 0.038,"4825": 0.019,"4850": 0.019}}}