{"type": "Feature","bbox": [-59.0136,-28.5145,-58.3039,-27.9676],"geometry": {"type": "MultiPolygon","coordinates": [[[[-58.6637,-28.5145,52.8146],[-58.6576,-28.5106,53.6666],[-58.6458,-28.5073,54.7826],[-58.6415,-28.4975,54.4938],[-58.633,-28.4899,54.3881],[-58.6253,-28.4747,53.1799],[-58.6039,-28.4535,54.0274],[-58.577,-28.4141,53.7774],[-58.5588,-28.3952,54.2192],[-58.5572,-28.3919,54.217],[-58.5356,-28.3709,54.66],[-58.5108,-28.3594,54.6697],[-58.5036,-28.3509,56.3692],[-58.4903,-28.343,56.0946],[-58.4757,-28.326,62.1914],[-58.4722,-28.3244,60.5522],[-58.4603,-28.3248,55.453],[-58.4535,-28.321,55.3181],[-58.4065,-28.2823,57.1802],[-58.3957,-28.2776,58.5683],[-58.3922,-28.2788,58.6084],[-58.3912,-28.2822,58.4773],[-58.3844,-28.2785,58.9386],[-58.3798,-28.2725,59.1262],[-58.3668,-28.2645,59.0528],[-58.3633,-28.2507,59.42],[-58.3395,-28.2318,57.5],[-58.3234,-28.2211,59.2363],[-58.3099,-28.2034,58.0177],[-58.3039,-28.1993,57.7636],[-58.3129,-28.1817,61.787],[-58.3652,-28.1354,72.8748],[-58.3325,-28.0995,66.9779],[-58.4023,-28.0191,63.752],[-58.4129,-27.9939,62.1945],[-58.435,-27.9865,65.2311],[-58.4594,-27.9682,64.8065],[-58.4753,-27.9676,63.8782],[-58.4947,-27.9718,65.7847],[-58.5183,-27.9683,65.4959],[-58.5303,-27.9692,67.1177],[-58.5479,-27.9776,62.9175],[-58.5641,-27.988,63.2721],[-58.5799,-27.99,65.6277],[-58.5828,-27.9966,59.4721],[-58.5861,-27.9988,59.7113],[-58.6163,-28.0079,64.8724],[-58.6332,-28.0276,58.1253],[-58.6426,-28.0342,65.1326],[-58.6536,-28.0386,66.4006],[-58.6591,-28.0478,62.3054],[-58.684,-28.0592,59.5305],[-58.6986,-28.0759,55.3627],[-58.7178,-28.0806,63.6809],[-58.732,-28.0931,65.118],[-58.7496,-28.1014,59.6328],[-58.7755,-28.1237,61.5745],[-58.783,-28.1257,51.123],[-58.7948,-28.1246,52.1548],[-58.7978,-28.127,52.3126],[-58.8075,-28.1426,61.8886],[-58.8249,-28.1621,60.6331],[-58.8618,-28.1833,61.6963],[-58.87,-28.1835,56.1769],[-58.8922,-28.2085,43.6805],[-58.8989,-28.2124,43.4915],[-58.9067,-28.2116,43.3561],[-58.9147,-28.2038,43.3684],[-58.9216,-28.2002,47.1671],[-58.9374,-28.1973,41.144],[-58.9393,-28.1947,41.7766],[-58.9352,-28.1885,41.5193],[-58.9364,-28.1862,41.2169],[-58.9406,-28.1858,41.3962],[-58.9605,-28.1895,41.7832],[-58.9697,-28.2074,41.0871],[-58.9773,-28.2155,40.5439],[-58.9853,-28.2155,40.6187],[-58.9952,-28.2093,41.3224],[-58.999,-28.2089,40.8204],[-59.0027,-28.2103,41.9129],[-59.0068,-28.2164,40.1915],[-59.0068,-28.2377,38.5],[-59.0136,-28.2503,39.8227],[-59.0122,-28.2643,39.5193],[-59.0082,-28.2645,39.5692],[-59.0054,-28.2621,40.0373],[-59.0025,-28.2552,41.1546],[-58.9948,-28.2551,40.6022],[-58.9908,-28.2559,40.9802],[-58.9881,-28.2626,40.6398],[-58.9851,-28.265,40.1895],[-58.9665,-28.2714,41.6325],[-58.9586,-28.2725,40.2385],[-58.947,-28.2703,40.7991],[-58.9279,-28.2758,42.3894],[-58.9002,-28.2801,56.6766],[-58.8803,-28.2783,55.1744],[-58.8684,-28.2795,49.935],[-58.8606,-28.2778,48.318],[-58.8289,-28.2508,52.1866],[-58.8079,-28.2364,55.1715],[-58.7586,-28.3331,65.0071],[-58.7486,-28.3496,66.5835],[-58.7465,-28.4028,62.8703],[-58.7363,-28.4127,63.0352],[-58.7149,-28.4034,63.3971],[-58.6974,-28.4247,65.3975],[-58.7117,-28.4398,63.8887],[-58.6637,-28.5145,52.8146]]]]}
,"properties": {"GID_2": "ARG.7.18_1","GID_0": "ARG","country": "Argentina","GID_1": "ARG.7_1","state": "Corrientes","NL_NAME_1": "NA","county": "Saladas","VARNAME_2": "NA","NL_NAME_2": "NA","TYPE_2": "Departamento","ENGTYPE_2": "Department","CC_2": "NA","HASC_2": "AR.CN.SL","name": "Saladas.county","area_km2": 1892.001,"hist_schema_id": "Elevation0-9000","hist_area_km2": {"50": 530.664,"75": 1359.171,"100": 2.166}}}