{"type": "Feature","bbox": [-71.717,-40.1193,-70.8206,-39.4554],"geometry": {"type": "MultiPolygon","coordinates": [[[[-71.4626,-39.4554,1393.3771],[-71.4645,-39.46,1395.3784],[-71.4631,-39.4712,1686.3151],[-71.4689,-39.4793,1625.7994],[-71.4739,-39.493,1479.3538],[-71.4891,-39.4957,1297.5156],[-71.5034,-39.5021,1732.0978],[-71.517,-39.5032,1729.7996],[-71.5192,-39.5056,1767.8496],[-71.5178,-39.511,1651.2949],[-71.5297,-39.5181,1348.8218],[-71.5315,-39.5249,1555.6504],[-71.5342,-39.5272,1616.595],[-71.5336,-39.5351,1562.0305],[-71.5109,-39.5473,1575.6079],[-71.5108,-39.5513,1546.1753],[-71.5048,-39.5584,1371.4548],[-71.5001,-39.5582,1264.5151],[-71.4926,-39.5541,1233.6528],[-71.4842,-39.553,1344.1848],[-71.479,-39.5501,1464.71],[-71.4702,-39.552,1533.486],[-71.4673,-39.5572,1560.9426],[-71.4742,-39.5638,1564.5433],[-71.4728,-39.5687,1484.6964],[-71.4747,-39.5732,1443.0793],[-71.4732,-39.5761,1450.0813],[-71.4618,-39.581,1217.4709],[-71.4611,-39.5834,1211.2386],[-71.4682,-39.5876,1223.0042],[-71.4774,-39.6006,1460.0801],[-71.4806,-39.6091,1863.2155],[-71.4874,-39.6118,2201.9785],[-71.4965,-39.6185,2638.6086],[-71.4993,-39.6288,3130.3877],[-71.5027,-39.6339,3496.6443],[-71.5026,-39.6371,3724.3254],[-71.5115,-39.6306,3051.7878],[-71.5228,-39.6265,2493.7722],[-71.5432,-39.6236,1894.9067],[-71.5528,-39.625,1768.2255],[-71.5587,-39.6277,1693.8018],[-71.5636,-39.6328,1559.5773],[-71.5753,-39.6358,1471.4231],[-71.5842,-39.632,1623.1173],[-71.5935,-39.6299,1471.2029],[-71.5969,-39.6307,1419.5978],[-71.5997,-39.6282,1415.6349],[-71.6084,-39.6285,1766.4928],[-71.614,-39.6244,1672.4534],[-71.6136,-39.6166,1789.9955],[-71.6111,-39.6137,1786.7773],[-71.6151,-39.6101,1689.887],[-71.6176,-39.5986,1437.5958],[-71.6233,-39.5962,1551.2411],[-71.6232,-39.5928,1761.4686],[-71.635,-39.5859,1875.8425],[-71.645,-39.5881,1885.6005],[-71.6555,-39.5877,1945.1755],[-71.6586,-39.5793,1790.0669],[-71.6715,-39.5698,1835.0134],[-71.6734,-39.5638,1933.7816],[-71.6833,-39.5679,1858.781],[-71.6887,-39.5755,1721.3748],[-71.6886,-39.5801,1653.6423],[-71.6902,-39.5829,1681.3314],[-71.6981,-39.5881,1571.7739],[-71.6947,-39.5934,1518.7355],[-71.6989,-39.5973,1546.2451],[-71.6954,-39.6043,1492.6047],[-71.6959,-39.6119,1431.5194],[-71.6981,-39.6152,1430.6304],[-71.694,-39.6221,1293.2982],[-71.6975,-39.6289,1311.119],[-71.6997,-39.6304,1359.7186],[-71.6993,-39.6337,1378.0833],[-71.7042,-39.6324,1369.553],[-71.717,-39.6358,1545.8804],[-71.7147,-39.6408,1592.6682],[-71.7153,-39.6502,1475.2473],[-71.7053,-39.6529,1622.6707],[-71.6986,-39.6601,1552.9355],[-71.6935,-39.6579,1579.7416],[-71.6917,-39.6725,1530.6688],[-71.6882,-39.6774,1487.962],[-71.6862,-39.679,1463.1785],[-71.6729,-39.6781,1861.7695],[-71.6692,-39.6824,1731.746],[-71.6714,-39.6927,1783.447],[-71.6851,-39.6917,1488.3329],[-71.6932,-39.6958,1547.551],[-71.6997,-39.6932,1599.8687],[-71.704,-39.695,1677.5663],[-71.7048,-39.696,1677.5663],[-71.7025,-39.6986,1753.438],[-71.7033,-39.7019,1782.7925],[-71.6994,-39.7028,1725.1917],[-71.6937,-39.7073,1734.2057],[-71.6975,-39.7104,1694.7649],[-71.7009,-39.7105,1664.8892],[-71.7037,-39.7178,1474.5785],[-71.7037,-39.7225,1531.6146],[-71.7122,-39.7246,1834.0281],[-71.7082,-39.7331,1635.6128],[-71.7077,-39.7384,1525.9104],[-71.7025,-39.7453,1472.3943],[-71.6855,-39.7564,1691.3121],[-71.6804,-39.7659,1639.9001],[-71.6803,-39.7701,1653.0547],[-71.6843,-39.7751,1463.3975],[-71.6844,-39.7776,1413.5175],[-71.6804,-39.7808,1318.6909],[-71.6804,-39.7873,1195.1433],[-71.6776,-39.7959,1289.1921],[-71.6833,-39.8013,1537.0188],[-71.6787,-39.805,1377.0609],[-71.673,-39.8041,1403.5638],[-71.667,-39.8076,1589.6543],[-71.6683,-39.8091,1534.5742],[-71.6778,-39.8102,1301.7213],[-71.6817,-39.8173,1296.7542],[-71.6866,-39.8223,1414.792],[-71.6922,-39.8235,1525.6141],[-71.6928,-39.826,1613.6125],[-71.6865,-39.8305,1566.7753],[-71.6863,-39.8322,1522.9213],[-71.691,-39.8402,1519.7179],[-71.6888,-39.849,1477.3346],[-71.6841,-39.857,1283.0089],[-71.6703,-39.8639,1197.9526],[-71.6618,-39.8611,1383.1982],[-71.6564,-39.8557,1502.5046],[-71.6468,-39.8529,1652.7839],[-71.6436,-39.8539,1630.6482],[-71.6358,-39.8594,1679.1741],[-71.6379,-39.8712,1723.4905],[-71.6337,-39.8756,1720.1167],[-71.634,-39.8812,1704.243],[-71.6323,-39.8831,1615.7273],[-71.6202,-39.8793,1511.0514],[-71.6131,-39.875,1636.0559],[-71.6103,-39.8806,1483.718],[-71.5993,-39.8891,1634.6099],[-71.5944,-39.8951,1822.1885],[-71.5927,-39.9014,1804.1127],[-71.5968,-39.9081,1758.8217],[-71.5921,-39.9124,1815.7836],[-71.6021,-39.9152,1674.9875],[-71.6038,-39.9192,1737.7529],[-71.5989,-39.9238,1919.8298],[-71.5986,-39.9293,1818.1489],[-71.6139,-39.937,1569.7611],[-71.6188,-39.9358,1610.9375],[-71.6242,-39.9383,1790.0581],[-71.6243,-39.94,1776.5699],[-71.6173,-39.9499,1592.6779],[-71.6153,-39.9578,1699.8512],[-71.6191,-39.9626,1671.8472],[-71.6194,-39.9685,1631.6202],[-71.6228,-39.9756,1631.9766],[-71.6257,-39.9768,1665.4016],[-71.6336,-39.9685,1491.8293],[-71.6401,-39.9683,1434.401],[-71.6513,-39.9729,1484.0204],[-71.6528,-39.9745,1568.5513],[-71.6537,-39.9809,1621.3812],[-71.6588,-39.9839,1564.7983],[-71.6595,-39.9872,1582.4352],[-71.6576,-39.989,1549.1406],[-71.6629,-39.9889,1574.884],[-71.6664,-39.9928,1483.4644],[-71.6701,-40.0043,1171.6143],[-71.6694,-40.0154,1174.6052],[-71.6712,-40.0223,1383.9044],[-71.6738,-40.0267,1472.27],[-71.6791,-40.0287,1619.7666],[-71.6477,-40.0399,1546.5725],[-71.622,-40.0424,1559.1558],[-71.5702,-40.0386,989.1475],[-71.5507,-40.0389,900.0],[-71.5385,-40.0355,900.0],[-71.4995,-40.0372,900.0],[-71.4619,-40.0291,900.0],[-71.4491,-40.0303,900.0],[-71.4311,-40.0359,900.0],[-71.4179,-40.0359,900.0],[-71.4002,-40.0298,900.0],[-71.3935,-40.0283,907.1824],[-71.3876,-40.0291,900.0],[-71.3361,-40.0676,900.0],[-71.2975,-40.0865,893.9646],[-71.2851,-40.0882,878.9313],[-71.2594,-40.085,981.9188],[-71.2417,-40.092,894.2102],[-71.2356,-40.093,829.1176],[-71.2237,-40.0887,825.7775],[-71.2108,-40.09,837.304],[-71.1915,-40.0947,807.4497],[-71.186,-40.0939,806.5447],[-71.1638,-40.0749,793.4568],[-71.1471,-40.0674,822.8732],[-71.1093,-40.0598,757.8956],[-71.0898,-40.0592,745.7439],[-71.0699,-40.0605,742.5641],[-71.0647,-40.0629,742.7229],[-71.0542,-40.0758,725.8932],[-71.0301,-40.0927,718.0732],[-70.9871,-40.1155,767.5165],[-70.9752,-40.1193,770.1456],[-70.9556,-40.1174,696.0586],[-70.9439,-40.1134,692.4719],[-70.9241,-40.1,681.8701],[-70.8924,-40.0825,674.9208],[-70.8545,-40.0753,834.1936],[-70.8206,-40.0738,706.9318],[-70.8246,-40.0653,655.1265],[-70.8298,-40.0457,650.2689],[-70.8295,-40.0306,648.8202],[-70.8314,-40.0261,649.6017],[-70.8456,-40.0092,786.3908],[-70.856,-39.9908,681.197],[-70.855,-39.9708,755.1769],[-70.8487,-39.9515,696.5878],[-70.8543,-39.9424,920.0882],[-70.857,-39.9326,832.191],[-70.8567,-39.9226,894.9927],[-70.8544,-39.9127,726.678],[-70.8557,-39.9028,722.0325],[-70.8612,-39.8937,778.6478],[-70.8818,-39.8745,961.1203],[-70.89,-39.8608,938.4082],[-70.9017,-39.8489,1113.6316],[-70.9077,-39.8346,704.9227],[-70.9125,-39.8098,1038.5403],[-70.9168,-39.8005,1104.4922],[-70.9506,-39.7701,1097.1055],[-70.9518,-39.765,1060.0559],[-70.9486,-39.7612,850.0967],[-70.9266,-39.7501,733.9518],[-70.9222,-39.7464,791.1702],[-70.9166,-39.7373,913.7877],[-70.9162,-39.7273,1164.4781],[-70.924,-39.6929,1184.4573],[-70.9239,-39.6826,1133.8293],[-70.9261,-39.6785,1083.8538],[-70.9539,-39.6654,971.122],[-70.9607,-39.6568,829.6265],[-70.9622,-39.6469,874.405],[-70.9596,-39.627,1032.0249],[-70.9594,-39.6068,1096.4762],[-70.961,-39.6022,1025.755],[-70.9803,-39.5889,1143.5967],[-70.9845,-39.5794,1221.311],[-70.9844,-39.5693,1211.1805],[-70.9827,-39.5645,1043.1682],[-70.9728,-39.5515,883.9731],[-70.9705,-39.5429,995.439],[-70.9819,-39.5419,1204.9176],[-70.9947,-39.5432,1065.1115],[-71.0268,-39.5403,1611.6445],[-71.0505,-39.5328,1504.9019],[-71.0815,-39.5254,1501.7748],[-71.1126,-39.532,1484.5289],[-71.1314,-39.5278,1590.8259],[-71.1439,-39.5273,1716.0873],[-71.1537,-39.5341,1686.4451],[-71.16,-39.5357,1679.325],[-71.1662,-39.5351,1640.577],[-71.1766,-39.529,1612.1768],[-71.1889,-39.5173,1559.4656],[-71.1959,-39.5089,1564.8832],[-71.1993,-39.4992,1631.022],[-71.2026,-39.495,1562.8879],[-71.2158,-39.4835,1594.0237],[-71.221,-39.4809,1547.7053],[-71.2337,-39.4823,1358.9027],[-71.24,-39.4804,1326.0529],[-71.2447,-39.4771,1371.1619],[-71.2486,-39.4669,1448.4305],[-71.2528,-39.4649,1666.2458],[-71.2652,-39.4693,1749.2953],[-71.2872,-39.488,1760.1859],[-71.2931,-39.4889,1666.4111],[-71.3184,-39.4836,1435.6174],[-71.3306,-39.4871,1571.4685],[-71.3407,-39.4937,1645.7334],[-71.3463,-39.4953,1476.2823],[-71.3592,-39.493,1206.4337],[-71.3647,-39.4902,1209.7985],[-71.3773,-39.4788,1602.9628],[-71.3962,-39.4773,1161.666],[-71.402,-39.4749,1195.9617],[-71.4091,-39.4669,1443.0957],[-71.4156,-39.4665,1214.964],[-71.4344,-39.4708,1412.5288],[-71.441,-39.4702,1311.5908],[-71.4511,-39.4579,1363.213],[-71.4626,-39.4554,1393.3771]]]]}
,"properties": {"GID_2": "ARG.15.7_1","GID_0": "ARG","country": "Argentina","GID_1": "ARG.15_1","state": "Neuquén","NL_NAME_1": "NA","county": "Huiliches","VARNAME_2": "JunindelosAndes","NL_NAME_2": "NA","TYPE_2": "Departamento","ENGTYPE_2": "Department","CC_2": "NA","HASC_2": "AR.NQ.HU","name": "Huiliches.county","area_km2": 3881.961,"hist_schema_id": "Elevation0-9000","hist_area_km2": {"650": 4.788,"675": 11.211,"700": 20.122,"725": 24.967,"750": 37.028,"775": 62.743,"800": 76.36,"825": 81.71,"850": 88.17,"875": 89.495,"900": 257.899,"925": 151.806,"950": 155.296,"975": 147.978,"1000": 143.742,"1025": 134.162,"1050": 161.968,"1075": 126.367,"1100": 118.648,"1125": 118.184,"1150": 109.983,"1175": 101.086,"1200": 96.11,"1225": 91.897,"1250": 88.774,"1275": 87.809,"1300": 90.237,"1325": 82.942,"1350": 80.605,"1375": 79.53,"1400": 77.337,"1425": 72.405,"1450": 68.585,"1475": 66.951,"1500": 62.705,"1525": 59.053,"1550": 54.635,"1575": 51.332,"1600": 46.475,"1625": 43.652,"1650": 39.031,"1675": 36.487,"1700": 33.945,"1725": 32.328,"1750": 28.138,"1775": 23.509,"1800": 22.627,"1825": 18.751,"1850": 16.47,"1875": 14.598,"1900": 12.235,"1925": 10.868,"1950": 9.11,"1975": 7.61,"2000": 6.407,"2025": 5.053,"2050": 4.516,"2075": 3.343,"2100": 3.1,"2125": 2.415,"2150": 2.056,"2175": 1.763,"2200": 1.649,"2225": 1.371,"2250": 1.061,"2275": 0.979,"2300": 0.849,"2325": 0.947,"2350": 0.849,"2375": 0.8,"2400": 0.637,"2425": 0.767,"2450": 0.686,"2475": 0.718,"2500": 0.604,"2525": 0.506,"2550": 0.718,"2575": 0.49,"2600": 0.441,"2625": 0.522,"2650": 0.522,"2675": 0.457,"2700": 0.522,"2725": 0.392,"2750": 0.425,"2775": 0.359,"2800": 0.327,"2825": 0.327,"2850": 0.212,"2875": 0.343,"2900": 0.245,"2925": 0.245,"2950": 0.245,"2975": 0.245,"3000": 0.18,"3025": 0.245,"3050": 0.131,"3075": 0.114,"3100": 0.18,"3125": 0.163,"3150": 0.18,"3175": 0.196,"3200": 0.082,"3225": 0.131,"3250": 0.196,"3275": 0.18,"3300": 0.049,"3325": 0.114,"3350": 0.098,"3375": 0.098,"3400": 0.082,"3425": 0.147,"3450": 0.131,"3475": 0.131,"3500": 0.065,"3525": 0.114,"3550": 0.131,"3600": 0.065,"3625": 0.049,"3650": 0.033,"3675": 0.049,"3725": 0.033}}}