{"type": "Feature","bbox": [-66.71,-26.3983,-65.7491,-25.1821],"geometry": {"type": "MultiPolygon","coordinates": [[[[-66.4287,-26.3759,4509.5156],[-66.4109,-26.3803,4639.9595],[-66.3875,-26.3931,4492.6353],[-66.3756,-26.3978,4664.7437],[-66.3734,-26.3983,4679.751],[-66.3701,-26.3959,4640.5117],[-66.357,-26.3764,4548.2783],[-66.3522,-26.3613,4652.333],[-66.3509,-26.3502,4819.2358],[-66.3457,-26.3307,4883.9507],[-66.334,-26.306,4993.8374],[-66.3299,-26.2908,5209.5293],[-66.3243,-26.2807,5201.8911],[-66.2973,-26.2487,4931.4629],[-66.2806,-26.2355,4721.6377],[-66.2688,-26.2159,4625.4448],[-66.259,-26.1953,4549.7646],[-66.2465,-26.1814,4959.2109],[-66.2348,-26.1643,5038.3604],[-66.2237,-26.1553,5047.0977],[-66.2062,-26.1467,4852.2471],[-66.1917,-26.1497,4556.4551],[-66.1793,-26.1361,4954.5688],[-66.1613,-26.1374,4701.916],[-66.1449,-26.115,4348.9878],[-66.1313,-26.1008,4192.7334],[-66.1254,-26.0906,4005.729],[-66.1169,-26.0818,3701.9233],[-66.1116,-26.079,3486.0044],[-66.0676,-26.0727,2552.3579],[-66.0553,-26.0696,2242.7939],[-66.0426,-26.0699,2270.2446],[-66.0256,-26.0626,1979.0273],[-66.0007,-26.0577,1746.6844],[-65.969,-26.0581,1629.7461],[-65.9565,-26.056,1610.0299],[-65.9323,-26.0488,1587.4907],[-65.9209,-26.0438,1601.2045],[-65.9108,-26.0369,1581.9939],[-65.892,-26.0345,1552.012],[-65.8803,-26.0304,1546.7964],[-65.8554,-26.0126,1540.9534],[-65.8287,-25.9735,1646.1246],[-65.8151,-25.9615,1798.9309],[-65.7947,-25.9392,3022.0464],[-65.7931,-25.9341,3088.762],[-65.7948,-25.9283,3099.0957],[-65.8012,-25.8597,2941.584],[-65.7983,-25.8311,2712.8237],[-65.7885,-25.8103,2682.7986],[-65.807,-25.8053,2841.9407],[-65.8238,-25.7974,2512.8235],[-65.8542,-25.7889,2059.814],[-65.8641,-25.7816,2139.1733],[-65.8627,-25.7764,2046.7788],[-65.8554,-25.7669,1998.4958],[-65.8479,-25.751,2033.7112],[-65.8423,-25.7169,2119.4556],[-65.8374,-25.7063,2174.9409],[-65.8044,-25.6892,2671.3992],[-65.7883,-25.6715,2664.3162],[-65.7823,-25.6714,2568.1719],[-65.7702,-25.6748,2668.29],[-65.7665,-25.6703,2844.3159],[-65.7645,-25.6648,3034.5574],[-65.7647,-25.6534,2804.3604],[-65.7581,-25.6374,2683.7844],[-65.759,-25.6317,2871.4231],[-65.7733,-25.606,2648.5444],[-65.7756,-25.595,2844.3772],[-65.7734,-25.5895,3037.0566],[-65.763,-25.5833,2854.5239],[-65.7593,-25.5787,2661.2502],[-65.7491,-25.5575,2937.7012],[-65.7542,-25.5474,2853.9717],[-65.7563,-25.5362,2660.6318],[-65.767,-25.5092,2510.8774],[-65.7785,-25.4887,2526.1379],[-65.7887,-25.4615,2851.1001],[-65.7899,-25.4501,2725.9819],[-65.7867,-25.4273,2951.9023],[-65.7815,-25.4048,2988.8706],[-65.7744,-25.3884,3134.2039],[-65.7744,-25.3837,2952.8789],[-65.7871,-25.3811,2818.3188],[-65.7924,-25.3783,2764.5991],[-65.796,-25.3673,2739.9624],[-65.7962,-25.35,2714.7874],[-65.8093,-25.3305,2794.3589],[-65.8203,-25.3098,2896.5803],[-65.8253,-25.2931,2901.6084],[-65.8295,-25.2647,2766.5627],[-65.8435,-25.2265,2912.0879],[-65.8482,-25.2041,3168.8728],[-65.8424,-25.1939,3098.1875],[-65.8442,-25.1885,3148.7368],[-65.8493,-25.1849,3214.7725],[-65.8551,-25.1827,3369.1086],[-65.8661,-25.1821,3393.4429],[-65.8629,-25.1875,3346.1274],[-65.864,-25.2048,3307.7163],[-65.8679,-25.2217,3253.231],[-65.8757,-25.2375,3212.0269],[-65.8805,-25.2412,3202.7754],[-65.8993,-25.2424,3169.175],[-65.9082,-25.2505,3144.3191],[-65.9337,-25.2675,3123.7407],[-65.9502,-25.276,3242.918],[-65.9763,-25.2922,3235.5618],[-65.9877,-25.297,3337.9309],[-66.0069,-25.3128,3545.4031],[-66.0023,-25.3304,3650.4082],[-66.0039,-25.3476,3637.8618],[-66.0065,-25.3589,3691.041],[-66.0123,-25.369,3623.582],[-66.0151,-25.3802,3656.9966],[-66.0176,-25.4203,3422.0195],[-66.0227,-25.4307,3444.3071],[-66.0328,-25.4452,3292.7866],[-66.038,-25.4483,3198.7136],[-66.0507,-25.4493,3057.6855],[-66.0696,-25.4478,2902.9126],[-66.1012,-25.4487,2680.509],[-66.12,-25.4465,2554.1118],[-66.1261,-25.448,2501.8555],[-66.145,-25.4475,2434.2407],[-66.1621,-25.4549,2342.4976],[-66.1765,-25.4661,2264.7292],[-66.1876,-25.4714,2189.8208],[-66.2192,-25.4716,2026.998],[-66.2318,-25.4733,1979.01],[-66.2753,-25.4967,2849.8167],[-66.298,-25.5069,2767.9033],[-66.3084,-25.5135,2911.4961],[-66.3255,-25.5209,2377.3735],[-66.3552,-25.5306,2261.1052],[-66.3643,-25.5386,2273.2065],[-66.3723,-25.5542,2294.8428],[-66.3792,-25.5636,2332.5767],[-66.3836,-25.5805,2402.8286],[-66.3794,-25.6147,2568.4424],[-66.3824,-25.6376,2630.677],[-66.3877,-25.6541,2705.4336],[-66.398,-25.6685,2725.5867],[-66.4236,-25.694,3076.5791],[-66.4424,-25.7095,2858.7905],[-66.4455,-25.7144,3018.0337],[-66.449,-25.7255,3104.6975],[-66.4559,-25.7709,3231.4675],[-66.4491,-25.799,3090.1008],[-66.4486,-25.8105,3264.563],[-66.4569,-25.8382,3477.2661],[-66.4641,-25.8476,3826.7373],[-66.4674,-25.8645,3831.2642],[-66.4675,-25.876,3669.7883],[-66.4603,-25.898,3386.0508],[-66.4583,-25.9151,3387.0056],[-66.4583,-25.9496,3884.8103],[-66.4601,-25.961,4068.9614],[-66.4632,-25.9659,4162.1523],[-66.469,-25.968,4439.3667],[-66.4748,-25.965699999999998,4165.8462],[-66.5069,-25.9469,3577.1863],[-66.5188,-25.9429,3632.3394],[-66.547,-25.9298,3904.4812],[-66.5506,-25.9249,4012.4077],[-66.5665,-25.9157,4364.5801],[-66.5854,-25.9155,4691.0645],[-66.5972,-25.9198,4776.0049],[-66.6019,-25.9236,4847.7207],[-66.6224,-25.9456,4684.9849],[-66.6524,-25.9668,4402.3193],[-66.6683,-25.9847,4305.3828],[-66.6859,-25.9908,4344.8838],[-66.7018,-26.0002,4360.5259],[-66.71,-26.0071,4397.748],[-66.6903,-26.0261,4480.0181],[-66.6782,-26.0456,4657.0601],[-66.6598,-26.0667,4839.5093],[-66.6476,-26.0888,4752.7275],[-66.6312,-26.0931,4611.1362],[-66.6237,-26.0988,4657.2988],[-66.6189,-26.1091,4776.8228],[-66.6165,-26.1313,4641.3521],[-66.6091,-26.155,4663.7344],[-66.6053,-26.1608,4574.8955],[-66.5942,-26.1697,4610.2559],[-66.5854,-26.1806,4699.6167],[-66.5775,-26.1993,4887.8389],[-66.5553,-26.2316,4686.6045],[-66.5374,-26.2661,5003.4927],[-66.5141,-26.2977,4601.5352],[-66.509,-26.3025,4472.481],[-66.4958,-26.309,4373.4292],[-66.4881,-26.3147,4279.3662],[-66.4857,-26.3232,4224.7446],[-66.4787,-26.3351,4493.1343],[-66.4566,-26.3592,4392.9033],[-66.4287,-26.3759,4509.5156]]]]}
,"properties": {"GID_2": "ARG.17.22_1","GID_0": "ARG","country": "Argentina","GID_1": "ARG.17_1","state": "Salta","NL_NAME_1": "NA","county": "SanCarlos","VARNAME_2": "NA","NL_NAME_2": "NA","TYPE_2": "Departamento","ENGTYPE_2": "Department","CC_2": "NA","HASC_2": "AR.SA.SC","name": "SanCarlos.county","area_km2": 5930.998,"hist_schema_id": "Elevation0-9000","hist_area_km2": {"1550": 29.956,"1575": 39.456,"1600": 55.435,"1625": 59.936,"1650": 45.633,"1675": 38.261,"1700": 32.409,"1725": 32.93,"1750": 34.386,"1775": 32.307,"1800": 34.565,"1825": 36.343,"1850": 40.109,"1875": 46.666,"1900": 52.689,"1925": 58.158,"1950": 61.624,"1975": 62.6,"2000": 59.446,"2025": 58.15,"2050": 56.066,"2075": 52.762,"2100": 54.465,"2125": 52.901,"2150": 49.118,"2175": 51.315,"2200": 49.786,"2225": 51.505,"2250": 53.378,"2275": 57.87,"2300": 60.184,"2325": 64.105,"2350": 69.882,"2375": 72.755,"2400": 77.248,"2425": 85.586,"2450": 95.203,"2475": 86.947,"2500": 81.86,"2525": 77.178,"2550": 75.782,"2575": 69.285,"2600": 70.775,"2625": 67.933,"2650": 73.274,"2675": 78.275,"2700": 82.243,"2725": 84.711,"2750": 78.756,"2775": 73.04,"2800": 68.65,"2825": 57.833,"2850": 55.429,"2875": 52.791,"2900": 53.493,"2925": 53.164,"2950": 48.617,"2975": 45.575,"3000": 43.987,"3025": 41.654,"3050": 40.81,"3075": 38.977,"3100": 39.129,"3125": 42.198,"3150": 53.456,"3175": 54.746,"3200": 60.459,"3225": 54.131,"3250": 45.801,"3275": 43.48,"3300": 38.096,"3325": 44.514,"3350": 39.749,"3375": 42.225,"3400": 36.459,"3425": 33.367,"3450": 30.099,"3475": 26.837,"3500": 26.585,"3525": 25.651,"3550": 25.378,"3575": 31.773,"3600": 40.111,"3625": 34.7,"3650": 36.378,"3675": 34.208,"3700": 35.028,"3725": 35.882,"3750": 35.687,"3775": 33.699,"3800": 32.668,"3825": 33.083,"3850": 30.034,"3875": 29.615,"3900": 29.025,"3925": 30.587,"3950": 28.984,"3975": 26.3,"4000": 24.298,"4025": 23.402,"4050": 24.126,"4075": 24.031,"4100": 24.352,"4125": 33.531,"4150": 36.495,"4175": 38.377,"4200": 33.416,"4225": 33.21,"4250": 31.742,"4275": 31.743,"4300": 35.835,"4325": 36.445,"4350": 35.4,"4375": 35.972,"4400": 37.574,"4425": 36.623,"4450": 36.127,"4475": 35.134,"4500": 32.259,"4525": 30.548,"4550": 30.262,"4575": 29.729,"4600": 29.898,"4625": 27.671,"4650": 22.817,"4675": 23.181,"4700": 21.202,"4725": 19.05,"4750": 17.641,"4775": 16.157,"4800": 13.074,"4825": 11.476,"4850": 9.667,"4875": 9.191,"4900": 7.611,"4925": 6.641,"4950": 5.747,"4975": 4.967,"5000": 4.072,"5025": 3.349,"5050": 3.501,"5075": 2.873,"5100": 2.569,"5125": 1.598,"5150": 2.074,"5175": 1.978,"5200": 1.56,"5225": 1.047,"5250": 0.761,"5275": 0.78,"5300": 0.761,"5325": 0.457,"5350": 0.228,"5375": 0.266,"5400": 0.133}}}