{"type":"Feature","properties":{"GID_2":"ARG.6.20_1","GID_0":"ARG","country":"Argentina","GID_1":"ARG.6_1","state":"Córdoba","NL_NAME_1":"NA","county":"SanJusto","VARNAME_2":"SanFrancisco","NL_NAME_2":"NA","TYPE_2":"Departamento","ENGTYPE_2":"Department","CC_2":"NA","HASC_2":"AR.CB.SJ","name":"SanJusto.county"},
"geometry":{"type": "MultiPolygon","coordinates": [[[[-62.1818,-32.0717,97.7061],[-62.1772,-32.0554,97.6703],[-62.1824,-32.0467,97.8602],[-62.1749,-31.997,97.5443],[-62.1765,-31.9701,97.7006],[-62.1805,-31.9575,97.7156],[-62.1944,-31.9285,98.7031],[-62.2075,-31.914,98.6962],[-62.2243,-31.8986,98.873],[-62.2296,-31.8867,99.1241],[-62.2321,-31.8657,99.5657],[-62.231,-31.8474,100.0732],[-62.2275,-31.8321,100.4868],[-62.2146,-31.797,101.4013],[-62.215,-31.7815,101.0939],[-62.2184,-31.7607,100.4741],[-62.2235,-31.743,100.5873],[-62.2354,-31.7218,101.2729],[-62.2496,-31.7016,101.4721],[-62.132,-31.6086,104.3186],[-62.1047,-31.534,105.1285],[-62.0597,-31.3991,111.3532],[-61.8611,-30.7928,98.9578],[-61.8323,-30.6735,97.4022],[-61.8794,-30.6609,98.4301],[-61.9826,-30.6463,99.1031],[-61.9782,-30.598,97.9133],[-62.0235,-30.5924,96.8327],[-62.0938,-30.5249,95.5367],[-62.1277,-30.4881,93.3174],[-62.1261,-30.479,94.0286],[-62.1626,-30.3791,88.2076],[-62.1773,-30.3304,71.5522],[-62.1891,-30.326,69.4399],[-62.3701,-30.3252,69.5807],[-62.3722,-30.5633,67.5],[-62.4279,-30.5531,67.5],[-62.4343,-30.554,67.5],[-62.438,-30.5582,67.5],[-62.4394,-30.5636,67.5],[-62.4437,-30.5673,67.5],[-62.4816,-30.5632,68.1495],[-62.507,-30.564,67.5],[-62.5132,-30.5629,67.5],[-62.5238,-30.5569,67.5],[-62.5481,-30.5507,67.5],[-62.5524,-30.5468,67.5],[-62.556399999999996,-30.5425,67.5],[-62.5439,-30.5429,67.5],[-62.5445,-30.5378,67.5],[-62.5531,-30.5299,67.5],[-62.5554,-30.5246,67.5],[-62.5735,-30.5259,67.5],[-62.5906,-30.5326,68.5896],[-62.6095,-30.5331,67.5],[-62.628,-30.5314,67.5],[-62.6282,-30.5261,67.5],[-62.6328,-30.5234,67.5],[-62.639,-30.5227,67.5],[-62.643,-30.5184,69.2143],[-62.6452,-30.5133,69.2614],[-62.6501,-30.5105,67.5],[-62.6562,-30.5116,67.5],[-62.682,-30.5276,67.5],[-62.6962,-30.5386,67.5],[-62.7033,-30.5477,67.5],[-62.7041,-30.5532,67.5],[-62.7012,-30.5578,67.5],[-62.6955,-30.5605,67.5],[-62.6831,-30.5628,67.7002],[-62.6785,-30.5661,67.5],[-62.6766,-30.5714,67.5],[-62.6769,-30.5824,67.5],[-62.6842,-30.5914,67.5],[-62.6897,-30.5942,67.5],[-62.6958,-30.5957,67.5],[-62.7213,-30.5957,69.2217],[-62.7586,-30.6026,67.5],[-62.7712,-30.601,67.5],[-62.7881,-30.6082,67.5],[-62.8127,-30.6136,67.5],[-62.8229,-30.6202,70.9003],[-62.8414,-30.6243,74.7221],[-62.8524,-30.6295,68.8035],[-62.8836,-30.6342,67.5],[-62.8892,-30.637,69.8302],[-62.8873,-30.6418,67.912],[-62.8821,-30.6451,67.5],[-62.8798,-30.6498,67.5],[-62.8716,-30.658,67.5],[-62.8755,-30.6609,67.5],[-62.8875,-30.657,67.5],[-62.8936,-30.6565,67.5],[-62.9062,-30.6589,67.5],[-62.9113,-30.6576,67.5],[-62.909,-30.6525,67.5],[-62.9105,-30.643,67.5],[-62.9133,-30.6387,67.5],[-62.918,-30.6418,67.5],[-62.9193,-30.6469,67.5],[-62.9288,-30.6544,67.5],[-62.9253,-30.6587,67.5],[-62.9254,-30.6638,67.5],[-62.9379,-30.665,67.5],[-62.9438,-30.6674,67.5],[-62.9547,-30.6623,67.5],[-62.9611,-30.662,67.5],[-62.967,-30.6639,67.5],[-62.9914,-30.6585,67.5],[-62.9976,-30.6595,67.5],[-63.0024,-30.6632,68.0089],[-62.9981,-30.6669,67.5],[-63.0163,-30.6705,68.6892],[-63.0288,-30.6791,69.5887],[-63.0285,-30.6847,70.49],[-63.0227,-30.6862,69.923],[-63.01,-30.6886,67.5],[-62.9942,-30.6868,67.5],[-62.9933,-30.6913,67.5],[-62.9678,-30.6943,67.5],[-62.964,-30.6904,67.5],[-62.9586,-30.6883,67.5],[-62.9529,-30.6907,67.5],[-62.9486,-30.6947,67.5],[-62.9304,-30.6998,67.5],[-62.9253,-30.7031,67.5],[-62.923,-30.7082,67.5],[-62.915,-30.7165,67.5],[-62.9112,-30.7382,67.5],[-62.9059,-30.7481,67.5],[-62.9047,-30.7646,67.5],[-62.9013,-30.7691,67.5],[-62.8896,-30.7734,67.5],[-62.8526,-30.7818,67.5],[-62.8385,-30.7874,67.5],[-62.8276,-30.9171,78.4957],[-62.947,-30.952,84.6298],[-62.9672,-31.0432,95.2778],[-62.9806,-31.0419,97.454],[-62.9889,-31.0663,106.4521],[-63.0231,-31.0594,105.2743],[-63.0402,-31.1127,118.5105],[-63.1136,-31.1008,124.9635],[-63.1268,-31.1391,124.6826],[-63.1452,-31.1402,129.1201],[-63.1823,-31.2736,155.1059],[-63.2568,-31.2596,160.5318],[-63.2859,-31.3412,180.0383],[-63.2848,-31.3413,182.2018],[-63.2709,-31.4559,186.7077],[-63.2174,-31.4902,180.0583],[-63.232,-31.566,187.9988],[-63.2283,-31.5706,185.0047],[-63.2247,-31.5807,186.4861],[-63.2114,-31.5928,183.9144],[-63.2009,-31.6127,185.7414],[-63.1871,-31.6243,186.5987],[-63.1833,-31.6464,184.3354],[-63.1782,-31.648,183.6623],[-63.1584,-31.6471,181.7681],[-63.1453,-31.6488,180.3181],[-63.142,-31.6527,178.8158],[-63.1429,-31.6694,179.6759],[-63.1403,-31.6763,180.2902],[-63.102,-31.6767,171.5055],[-63.0977,-31.7093,171.4425],[-63.0865,-31.7115,170.7804],[-63.0875,-31.728,171.5912],[-63.0766,-31.7276,170.0952],[-63.055,-31.7876,168.9728],[-63.0525,-31.7985,168.837],[-63.0498,-31.8033,168.3811],[-63.0395,-31.8099,165.6835],[-63.0374,-31.815,166.15],[-63.0342,-31.8369,166.5036],[-63.0188,-31.8463,163.9769],[-63.0172,-31.8517,163.8232],[-63.0182,-31.8679,164.693],[-63.0138,-31.8783,162.7559],[-63.0043,-31.8858,162.8698],[-63.0013,-31.8907,161.7707],[-62.9955,-31.9122,162.5786],[-62.992,-31.9168,161.3277],[-62.9754,-31.9249,159.3267],[-62.9755,-31.9355,159.3757],[-62.9517,-31.9446,157.2173],[-62.9351,-31.953,154.5349],[-62.9203,-31.9637,152.8147],[-62.9031,-31.98,152.0888],[-62.8905,-31.9831,150.252],[-62.8856,-31.9865,149.5281],[-62.8825,-31.9913,149.5383],[-62.8821,-31.9968,149.1561],[-62.8853,-32.013,149.7731],[-62.882,-32.0177,150.1227],[-62.8629,-32.0152,148.1435],[-62.8498,-32.0154,145.9401],[-62.8423,-32.0206,146.1174],[-62.7948,-32.0248,140.2624],[-62.6442,-32.0546,125.6144],[-62.6274,-32.003,124.1808],[-62.5314,-32.0058,117.8757],[-62.524,-31.9822,116.3742],[-62.4559,-31.9835,113.307],[-62.3313,-32.0073,105.8744],[-62.336,-32.0453,105.2463],[-62.1818,-32.0717,97.7061]]]]}}