{"type": "Feature","bbox": [-61.9832,-34.6823,-61.2789,-34.3068],"geometry": {"type": "MultiPolygon","coordinates": [[[[-61.6507,-34.3173,92.1355],[-61.7177,-34.3788,88.742],[-61.8083,-34.3802,91.7841],[-61.9832,-34.5176,103.7052],[-61.8446,-34.6396,91.5807],[-61.769,-34.5778,94.0118],[-61.644,-34.6823,89.8943],[-61.6126,-34.6564,87.7972],[-61.5978,-34.6674,87.6967],[-61.5242,-34.6062,87.3481],[-61.4397,-34.6757,83.9276],[-61.2789,-34.5432,81.1877],[-61.3598,-34.4731,82.0423],[-61.3329,-34.4511,78.1812],[-61.3682,-34.4202,79.821],[-61.3753,-34.4248,81.5854],[-61.4136,-34.3939,83.9478],[-61.3941,-34.3781,84.2815],[-61.4796,-34.3068,91.9912],[-61.5203,-34.3408,92.8002],[-61.5532,-34.3121,95.8224],[-61.6057,-34.3549,88.0],[-61.6507,-34.3173,92.1355]]]]}
,"properties": {"GID_2": "ARG.1.67_1","GID_0": "ARG","country": "Argentina","GID_1": "ARG.1_1","state": "BuenosAires","NL_NAME_1": "NA","county": "LeandroN.Alem","VARNAME_2": "Vedia|LeonardoN.Alem","NL_NAME_2": "NA","TYPE_2": "Partido","ENGTYPE_2": "Part","CC_2": "NA","HASC_2": "AR.BA.LA","name": "LeandroN.Alem.county","area_km2": 1605.913,"hist_schema_id": "Elevation0-9000","hist_area_km2": {"75": 513.536,"100": 1092.219,"125": 0.158}}}