{"type":"Feature","properties":{"GID_2":"ARG.12.10_1","GID_0":"ARG","country":"Argentina","GID_1":"ARG.12_1","state":"LaRioja","NL_NAME_1":"NA","county":"GeneralJuanFacundoQuiroga","VARNAME_2":"Malanzan|GeneralJuanF.Quiroga","NL_NAME_2":"NA","TYPE_2":"Departamento","ENGTYPE_2":"Department","CC_2":"NA","HASC_2":"AR.LR.GQ","name":"GeneralJuanFacundoQuiroga.county"},
"geometry":{"type": "MultiPolygon","coordinates": [[[[-66.9171,-30.5313,561.3104],[-67.4196,-30.5157,898.7004],[-67.3927,-30.535,866.1534],[-67.3563,-30.553,817.4816],[-67.3349,-30.5687,789.9543],[-67.3242,-30.5806,775.8933],[-67.3055,-30.6063,753.0644],[-67.2761,-30.6321,733.5614],[-67.2357,-30.6817,697.0239],[-67.2071,-30.704,680.9711],[-67.1869,-30.7163,667.4638],[-67.1798,-30.7225,662.8489],[-67.1589,-30.7643,639.0303],[-67.1429,-30.7913,625.8629],[-67.0941,-30.8649,582.8823],[-67.0763,-30.8871,568.2808],[-67.0771,-30.9272,552.7673],[-67.1164,-31.0209,531.9758],[-67.0637,-31.084,495.269],[-66.4807,-31.0957,991.9039],[-66.4899,-30.9869,1250.3953],[-66.4114,-30.9389,1062.9321],[-66.3902,-30.8488,761.0906],[-66.3257,-30.7929,673.424],[-66.3533,-30.7477,1018.634],[-66.3644,-30.706,1137.6531],[-66.3819,-30.6802,858.6783],[-66.384,-30.6776,863.3167],[-66.5824,-30.7395,1748.5449],[-66.6125,-30.6775,1266.927],[-66.6158,-30.6746,1231.2003],[-66.625,-30.6713,1150.981],[-66.6687,-30.6641,729.9214],[-66.6828,-30.6601,660.5312],[-66.7327,-30.6417,627.6542],[-66.7484,-30.6315,610.131],[-66.7658,-30.6057,580.0121],[-66.7787,-30.5735,552.7529],[-66.7823,-30.5438,532.6189],[-66.7813,-30.5347,527.1107],[-66.9171,-30.5313,561.3104]]]]}}