{"type":"Feature","properties":{"GID_2":"ARG.6.24_1","GID_0":"ARG","country":"Argentina","GID_1":"ARG.6_1","state":"Córdoba","NL_NAME_1":"NA","county":"Totoral","VARNAME_2":"VillaGeneralMitre","NL_NAME_2":"NA","TYPE_2":"Departamento","ENGTYPE_2":"Department","CC_2":"NA","HASC_2":"AR.CB.TO","name":"Totoral.county"},
"geometry":{"type": "MultiPolygon","coordinates": [[[[-63.8425,-31.015,326.8861],[-63.8415,-30.9675,320.5072],[-63.7853,-30.9658,283.2591],[-63.7819,-30.9007,269.1953],[-63.7637,-30.906,259.5389],[-63.7386,-30.9091,242.1761],[-63.721,-30.9157,234.5698],[-63.6961,-30.9206,224.0726],[-63.6897,-30.9199,221.4106],[-63.682,-30.9113,214.6962],[-63.6775,-30.901,209.2992],[-63.6752,-30.8901,206.8279],[-63.6736,-30.8627,204.1035],[-63.6683,-30.8497,199.5717],[-63.6549,-30.7276,202.6161],[-63.6424,-30.729,192.7734],[-63.6325,-30.6821,191.4594],[-63.625,-30.682,187.4608],[-63.6165,-30.6574,185.2347],[-63.6002,-30.6592,173.7885],[-63.5749,-30.5197,169.0969],[-63.6002,-30.516,186.1791],[-63.6056,-30.5183,186.1898],[-63.6087,-30.523,187.6104],[-63.6174,-30.5172,195.0697],[-63.6212,-30.5204,195.5073],[-63.6241,-30.5404,193.501],[-63.7272,-30.5331,260.8618],[-63.7463,-30.5271,275.3788],[-63.8066,-30.5362,317.3745],[-63.8053,-30.4961,324.2954],[-63.8398,-30.4938,352.525],[-63.8434,-30.4198,347.507],[-63.9798,-30.4215,521.551],[-63.9876,-30.4728,480.6418],[-63.9904,-30.4778,486.6937],[-64.006,-30.4873,498.9749],[-64.0241,-30.4922,510.4915],[-64.0368,-30.4926,526.6053],[-64.0683,-30.489,583.7161],[-64.1158,-30.4732,630.1932],[-64.1348,-30.472,665.8543],[-64.1535,-30.4753,697.7168],[-64.1853,-30.4752,778.6774],[-64.1916,-30.4744,765.3569],[-64.2022,-30.4687,790.9885],[-64.309,-30.469,758.7755],[-64.3011,-30.4783,783.5096],[-64.2861,-30.4885,804.4518],[-64.2408,-30.5269,735.1445],[-64.2235,-30.5499,717.4821],[-64.2055,-30.5851,698.952],[-64.1938,-30.6336,696.3723],[-64.184,-30.6477,689.5582],[-64.1386,-30.7009,621.9594],[-64.1323,-30.7164,617.2546],[-64.1208,-30.7367,622.309],[-64.121,-30.7518,634.7244],[-64.1249,-30.7691,646.2733],[-64.1204,-30.7807,638.3817],[-64.1204,-30.7847,638.6891],[-64.1242,-30.7924,635.1724],[-64.1285,-30.7951,641.7636],[-64.16,-30.7917,692.3031],[-64.1847,-30.7973,726.2355],[-64.1909,-30.7974,728.988],[-64.2093,-30.7931,746.7466],[-64.2453,-30.8037,834.7806],[-64.2516,-30.804,875.3715],[-64.2958,-30.7988,1005.0992],[-64.3338,-30.8022,1072.4382],[-64.353,-30.8017,1269.6901],[-64.4191,-30.7822,1292.8774],[-64.4318,-30.7806,1395.0654],[-64.4378,-30.7821,1448.9456],[-64.4586,-30.7949,1424.4697],[-64.4638,-30.8024,1371.7354],[-64.4594,-30.8515,1646.3254],[-64.4547,-30.8731,1613.4109],[-64.4487,-30.8888,1670.6377],[-64.4487,-30.8952,1630.6427],[-64.4352,-30.8958,1801.9402],[-64.4295,-30.8982,1697.0544],[-64.4246,-30.9017,1609.3638],[-64.4139,-30.9155,1461.1045],[-64.409,-30.9189,1385.7495],[-64.3711,-30.923,1244.3951],[-64.3218,-30.9341,1035.9436],[-64.3063,-30.9436,855.2142],[-64.2885,-30.9495,725.8645],[-64.2603,-30.9622,684.7485],[-64.2349,-30.9654,652.3511],[-64.1967,-30.9664,614.6669],[-64.1664,-30.9744,587.5033],[-64.1478,-30.9708,568.1454],[-64.1288,-30.9693,560.3262],[-64.0974,-30.9738,530.8261],[-64.0851,-30.9708,525.2065],[-64.0683,-30.9629,509.7605],[-64.0428,-30.9613,485.8366],[-64.0369,-30.9593,480.2192],[-64.0324,-30.9555,475.8513],[-64.0225,-30.9352,464.9264],[-64.0192,-30.9303,459.4471],[-64.0139,-30.9275,455.7271],[-64.0012,-30.9279,442.8773],[-63.9637,-30.9346,409.0806],[-63.9455,-30.9398,395.8247],[-63.9328,-30.9404,383.2361],[-63.9304,-31.0172,386.899],[-63.8425,-31.015,326.8861]]]]}}