{"type":"Feature","properties":{"GID_2":"ARG.1.118_1","GID_0":"ARG","country":"Argentina","GID_1":"ARG.1_1","state":"BuenosAires","NL_NAME_1":"NA","county":"Tordillo","VARNAME_2":"GeneralConesa","NL_NAME_2":"NA","TYPE_2":"Partido","ENGTYPE_2":"Part","CC_2":"NA","HASC_2":"AR.BA.TO","name":"Tordillo.county"},
"geometry":{"type": "MultiPolygon","coordinates": [[[[-57.425,-36.1612,4.4703],[-57.4822,-36.338,4.783],[-57.3509,-36.3677,3.6337],[-57.4068,-36.4183,5.1095],[-57.4246,-36.4614,4.1825],[-57.4476,-36.4813,4.8572],[-57.4065,-36.5127,4.5199],[-57.4709,-36.5718,4.4857],[-57.3365,-36.6702,4.5595],[-57.1729,-36.5219,1.0217],[-57.1824,-36.5141,1.2548],[-57.1064,-36.4448,2.444],[-57.1,-36.4505,2.1169],[-57.0904,-36.4544,1.8454],[-57.0859,-36.4429,2.0305],[-57.071,-36.4382,1.4403],[-57.0678,-36.4341,1.4552],[-57.0512,-36.4285,1.5035],[-57.0517,-36.4166,1.6696],[-57.0594,-36.4099,1.7392],[-57.0648,-36.4008,1.5441],[-57.0775,-36.3893,1.4622],[-57.0695,-36.3762,1.5785],[-57.0494,-36.3555,1.3801],[-57.0358,-36.3451,1.5247],[-57.0354,-36.339,1.4652],[-57.0255,-36.3185,0.4082],[-57.0349,-36.3157,0.495],[-57.0371,-36.3132,0.0],[-57.0399,-36.3143,1.4413],[-57.0399,-36.3126,1.0409],[-57.0585,-36.3029,0.0],[-57.0649,-36.3057,0.2741],[-57.0632,-36.3035,0.0],[-57.066,-36.2999,0.3016],[-57.0746,-36.2965,1.5897],[-57.084,-36.2896,1.5371],[-57.1071,-36.2774,0.0],[-57.1115,-36.2799,0.278],[-57.114,-36.2793,0.2455],[-57.1154,-36.2754,0.0],[-57.1135,-36.2738,0.0],[-57.1146,-36.2704,0.0],[-57.1204,-36.2685,0.5356],[-57.1235,-36.269,0.2016],[-57.1251,-36.2674,0.0],[-57.1282,-36.2707,0.2905],[-57.1276,-36.2646,0.0],[-57.1293,-36.2607,0.0],[-57.1321,-36.2593,0.0],[-57.1362,-36.2601,1.6426],[-57.1357,-36.2579,0.0],[-57.1393,-36.2535,0.6251],[-57.144,-36.2499,0.1803],[-57.1468,-36.2501,1.6787],[-57.159,-36.2371,0.3806],[-57.166,-36.2335,0.3695],[-57.174,-36.226,1.6282],[-57.1785,-36.2243,0.257],[-57.179,-36.2212,0.0],[-57.1849,-36.2157,0.2237],[-57.425,-36.1612,4.4703]]]]}}