{"type": "Feature","bbox": [-65.9774,-37.7179,-64.1665,-36.9534],"geometry": {"type": "MultiPolygon","coordinates": [[[[-64.1665,-36.9959,186.9975],[-64.9991,-36.9876,346.1273],[-65.6232,-36.9787,301.1671],[-65.6223,-36.9534,320.98],[-65.7861,-36.9557,297.4057],[-65.9774,-36.961,278.3978],[-65.9566,-37.6887,232.0394],[-65.6378,-37.6811,227.411],[-65.638,-37.6995,226.1973],[-64.8589,-37.7114,308.4824],[-64.1678,-37.7179,222.8107],[-64.1665,-36.9959,186.9975]]]]}
,"properties": {"GID_2": "ARG.11.22_1","GID_0": "ARG","country": "Argentina","GID_1": "ARG.11_1","state": "LaPampa","NL_NAME_1": "NA","county": "Utracán","VARNAME_2": "GeneralAcha|Ultracan","NL_NAME_2": "NA","TYPE_2": "Departamento","ENGTYPE_2": "Department","CC_2": "NA","HASC_2": "AR.LP.UT","name": "Utracán.county","area_km2": 12793.399,"hist_schema_id": "Elevation0-9000","hist_area_km2": {"125": 1.146,"150": 99.904,"175": 441.957,"200": 795.273,"225": 2139.087,"250": 2040.698,"275": 1947.233,"300": 1903.028,"325": 1559.125,"350": 1004.701,"375": 699.523,"400": 149.176,"425": 12.548}}}