{"type": "Feature","bbox": [-60.0651,-27.2829,-59.568,-26.696],"geometry": {"type": "MultiPolygon","coordinates": [[[[-59.5684,-26.9929,71.4672],[-59.5684,-26.9674,74.3111],[-59.6182,-26.9654,70.8226],[-59.6222,-26.7864,79.4373],[-59.7235,-26.788,75.434],[-59.7232,-26.696,78.0891],[-59.8732,-26.6961,80.7573],[-59.8711,-26.7328,79.2706],[-59.883,-26.7558,78.1272],[-60.0651,-27.1686,74.7956],[-59.9922,-27.1966,71.578],[-60.022,-27.1993,72.3625],[-60.0207,-27.2802,71.6569],[-59.6105,-27.2829,67.1171],[-59.568,-27.2402,65.2534],[-59.5684,-26.9929,71.4672]]]]}
,"properties": {"GID_2": "ARG.3.17_1","GID_0": "ARG","country": "Argentina","GID_1": "ARG.3_1","state": "Chaco","NL_NAME_1": "NA","county": "PresidenciadelaPlaza","VARNAME_2": "Presidented","NL_NAME_2": "NA","TYPE_2": "Departamento","ENGTYPE_2": "Department","CC_2": "NA","HASC_2": "AR.CC.PP","name": "PresidenciadelaPlaza.county","area_km2": 2343.208,"hist_schema_id": "Elevation0-9000","hist_area_km2": {"75": 2342.754,"100": 0.454}}}