{"type":"Feature","properties":{"GID_2":"ARG.1.69_1","GID_0":"ARG","country":"Argentina","GID_1":"ARG.1_1","state":"BuenosAires","NL_NAME_1":"NA","county":"Lobería","VARNAME_2":"NA","NL_NAME_2":"NA","TYPE_2":"Partido","ENGTYPE_2":"Part","CC_2":"NA","HASC_2":"AR.BA.LO","name":"Lobería.county"},
"geometry":{"type": "MultiPolygon","coordinates": [[[[-58.8084,-37.5792,148.9819],[-59.1108,-37.8297,169.3414],[-59.1106,-37.8454,166.0121],[-59.1185,-37.85,164.1542],[-59.1275,-37.8529,162.5314],[-59.1323,-37.8649,159.5752],[-59.1542,-37.8761,155.6675],[-59.1626,-37.8844,153.4535],[-59.1667,-37.8942,150.1755],[-59.1664,-37.9446,138.9121],[-59.1558,-37.9503,136.6402],[-59.149,-37.9649,137.3558],[-59.1403,-37.9724,137.5399],[-59.1295,-37.9758,130.5373],[-59.1209,-38.0012,130.8564],[-59.1034,-38.0123,125.1839],[-59.0757,-38.0246,116.2001],[-59.0749,-38.0299,114.8426],[-59.0571,-38.0459,112.1537],[-59.053,-38.0477,108.9739],[-59.0487,-38.054,113.7786],[-59.0406,-38.0745,111.2965],[-59.0323,-38.0879,101.1231],[-58.98,-38.1387,92.0813],[-58.9683,-38.1552,90.6206],[-58.9558,-38.1609,85.6775],[-58.9502,-38.1717,77.6743],[-58.9516,-38.1865,84.4307],[-58.933,-38.1901,77.9691],[-58.9213,-38.1982,68.2565],[-58.9036,-38.2356,59.3609],[-58.9018,-38.2545,59.411],[-58.8834,-38.2729,63.0617],[-58.8778,-38.2749,46.3764],[-58.879,-38.2831,59.2084],[-58.868899999999996,-38.29,39.7045],[-58.8671,-38.2974,52.147],[-58.8574,-38.3021,54.6038],[-58.8378,-38.3069,43.1401],[-58.8144,-38.328,40.2307],[-58.8138,-38.3311,47.5786],[-58.8095,-38.3358,44.8316],[-58.81,-38.3437,45.0773],[-58.7997,-38.3511,35.9653],[-58.7997,-38.358,35.1773],[-58.7926,-38.3665,27.0238],[-58.7804,-38.3872,33.72],[-58.784,-38.3902,25.9674],[-58.7836,-38.3942,29.2005],[-58.7874,-38.4001,22.661],[-58.7889,-38.4059,34.8963],[-58.7873,-38.4112,33.3956],[-58.7825,-38.4134,24.1892],[-58.7823,-38.4171,28.3635],[-58.7747,-38.4219,24.5415],[-58.7747,-38.4256,20.7104],[-58.7778,-38.429,28.7343],[-58.771,-38.435,20.6495],[-58.7699,-38.438,17.2353],[-58.7736,-38.4424,41.4807],[-58.7589,-38.4601,16.1571],[-58.7571,-38.4659,11.1149],[-58.7578,-38.471,12.9029],[-58.7553,-38.4761,11.6068],[-58.7566,-38.4801,25.588],[-58.7469,-38.4831,18.9105],[-58.7435,-38.4869,7.919],[-58.7451,-38.4913,19.9778],[-58.7507,-38.4943,13.0106],[-58.7501,-38.4994,20.77],[-58.7421,-38.5075,12.7062],[-58.7396,-38.5169,6.121],[-58.7404,-38.5217,6.1727],[-58.7377,-38.5256,5.6524],[-58.7056,-38.5021,22.6191],[-58.6286,-38.5638,2.7316],[-58.6221,-38.5638,0.0],[-58.6168,-38.5612,5.7608],[-58.5896,-38.5579,2.2148],[-58.5601,-38.5504,0.0],[-58.5196,-38.544,0.5353],[-58.4957,-38.5374,1.8802],[-58.4729,-38.5271,2.4463],[-58.4546,-38.5235,0.0],[-58.4338,-38.5126,2.5736],[-58.3999,-38.5037,1.7464],[-58.3674,-38.491,15.3694],[-58.3574,-38.4893,7.9879],[-58.3488,-38.4854,10.9471],[-58.3404,-38.4846,1.3862],[-58.3393,-38.4824,10.5527],[-58.3374,-38.4835,2.8323],[-58.3282,-38.4826,4.6632],[-58.3135,-38.4749,3.9982],[-58.2768,-38.4651,0.0],[-58.244,-38.4485,0.7124],[-58.2472,-38.4445,5.8459],[-58.2568,-38.4401,11.7174],[-58.2559,-38.4339,7.7019],[-58.2701,-38.4115,14.5093],[-58.2698,-38.4049,16.8068],[-58.2758,-38.3971,15.1314],[-58.282,-38.396,17.9531],[-58.2831,-38.3873,16.4197],[-58.2788,-38.3837,21.5622],[-58.2707,-38.3544,22.1198],[-58.2749,-38.3411,23.3864],[-58.2833,-38.3338,25.8437],[-58.2841,-38.3232,26.2104],[-58.2881,-38.3212,40.3094],[-58.2939,-38.311,30.9404],[-58.3003,-38.3094,31.2731],[-58.3112,-38.2802,35.6111],[-58.326,-38.278,37.0871],[-58.331,-38.2666,38.5941],[-58.3374,-38.2588,40.5103],[-58.3363,-38.2514,41.2749],[-58.3292,-38.235,44.0789],[-58.3218,-38.2326,44.1276],[-58.3214,-38.2292,44.9082],[-58.3286,-38.2191,47.4612],[-58.3312,-38.2126,48.2755],[-58.3279,-38.2108,48.4934],[-58.3286,-38.2049,49.9988],[-58.3319,-38.2026,51.5839],[-58.3349,-38.1902,53.7118],[-58.3379,-38.1828,55.8293],[-58.3416,-38.1787,57.0708],[-58.3419,-38.1709,58.9248],[-58.3406,-38.1636,60.3727],[-58.3337,-38.1526,63.249],[-58.3308,-38.125,72.5144],[-58.3355,-38.1103,74.6691],[-58.3265,-38.0765,86.791],[-58.37,-38.0414,98.8086],[-58.3735,-38.0434,98.5209],[-58.4563,-37.982,154.4085],[-58.5253,-37.9344,222.566],[-58.5226,-37.9313,236.6436],[-58.5911,-37.8809,190.824],[-58.5071,-37.8104,168.266],[-58.6349,-37.7151,168.7988],[-58.6514,-37.7058,157.7455],[-58.8084,-37.5792,148.9819]]]]}}