{"type":"Feature","properties":{"GID_2":"ARG.3.24_1","GID_0":"ARG","country":"Argentina","GID_1":"ARG.3_1","state":"Chaco","NL_NAME_1":"NA","county":"VeinticincodeMayo","VARNAME_2":"Machagai|25deMayo","NL_NAME_2":"NA","TYPE_2":"Departamento","ENGTYPE_2":"Department","CC_2":"NA","HASC_2":"AR.CC.VM","name":"VeinticincodeMayo.county"},
"geometry":{"type": "MultiPolygon","coordinates": [[[[-60.0151,-26.3071,91.168],[-60.0184,-26.7089,81.1157],[-60.0972,-26.677,88.4803],[-60.2831,-27.093,81.3056],[-60.2231,-27.114,79.6116],[-60.2236,-27.2799,74.4776],[-60.0207,-27.2802,71.6569],[-60.022,-27.1993,72.3625],[-59.9922,-27.1966,71.578],[-60.0651,-27.1686,74.7956],[-59.883,-26.7558,78.1272],[-59.8711,-26.7328,79.2706],[-59.8741,-26.6961,80.7573],[-59.8708,-26.5254,87.2983],[-59.8194,-26.5254,86.0896],[-59.8203,-26.3328,92.6465],[-59.8688,-26.3284,93.0876],[-59.8716,-26.3055,91.6165],[-60.0151,-26.3071,91.168]]]]}}