{"type":"Feature","properties":{"GID_2":"ARG.1.79_1","GID_0":"ARG","country":"Argentina","GID_1":"ARG.1_1","state":"BuenosAires","NL_NAME_1":"NA","county":"Monte","VARNAME_2":"SanMigueldelMonte","NL_NAME_2":"NA","TYPE_2":"Partido","ENGTYPE_2":"Part","CC_2":"NA","HASC_2":"AR.BA.MT","name":"Monte.county"},
"geometry":{"type": "MultiPolygon","coordinates": [[[[-58.8161,-35.2461,29.3454],[-58.9272,-35.343,24.0169],[-58.9331,-35.341,24.0661],[-58.9481,-35.3397,23.3126],[-58.9541,-35.3447,23.3584],[-58.9718,-35.342,23.7674],[-58.9864,-35.349,23.6903],[-59.0094,-35.3689,24.3026],[-59.0296,-35.3538,21.4941],[-59.0611,-35.3802,25.9839],[-59.0649,-35.3781,25.7564],[-59.1339,-35.4375,23.195],[-59.132,-35.439,23.3792],[-59.1264,-35.4347,23.1361],[-59.1116,-35.4337,23.3283],[-59.1048,-35.441,23.552],[-59.1003,-35.4405,23.458],[-59.094,-35.4482,23.4113],[-59.0719,-35.4537,22.6694],[-59.0723,-35.4572,23.3731],[-59.069,-35.459,22.5238],[-59.0538,-35.4623,22.0916],[-59.0472,-35.4658,22.6313],[-59.0423,-35.4656,22.0882],[-59.0396,-35.4679,21.8867],[-59.0385,-35.4756,21.6371],[-59.0322,-35.4768,21.3347],[-59.0275,-35.4739,21.1876],[-59.0181,-35.4905,19.9643],[-59.022,-35.5051,19.3446],[-59.0186,-35.5136,19.5156],[-59.0339,-35.5242,18.3689],[-59.0474,-35.5308,20.566],[-59.0524,-35.5311,20.7101],[-59.0524,-35.5336,20.7996],[-59.0489,-35.5346,20.5355],[-59.0507,-35.5379,20.1932],[-59.0549,-35.5387,20.3107],[-59.0554,-35.5419,20.4263],[-59.0514,-35.5567,19.2916],[-59.0388,-35.555,19.1374],[-59.0407,-35.5585,19.2356],[-59.0376,-35.5681,18.4945],[-59.0381,-35.5736,19.4336],[-59.0291,-35.5816,19.8082],[-59.0239,-35.5942,18.1868],[-59.0038,-35.6026,20.0738],[-58.9943,-35.5996,20.0146],[-58.9797,-35.5921,19.5181],[-58.9548,-35.6206,18.3607],[-58.9442,-35.6256,20.0808],[-58.9319,-35.6273,19.9755],[-58.9183,-35.6118,19.08],[-58.909,-35.6076,19.4744],[-58.9089,-35.6049,17.7239],[-58.9117,-35.6028,19.5511],[-58.9022,-35.5952,19.1896],[-58.8947,-35.5991,17.7126],[-58.8915,-35.5994,17.605],[-58.8883,-35.5972,17.3591],[-58.8855,-35.5983,17.394],[-58.883,-35.6024,17.1936],[-58.8825,-35.61,15.0],[-58.887,-35.6143,19.2042],[-58.885,-35.6185,19.0097],[-58.889,-35.6246,19.9755],[-58.8845,-35.6388,18.0284],[-58.8775,-35.6437,17.8004],[-58.8578,-35.653,17.8321],[-58.8479,-35.6544,18.5576],[-58.8379,-35.6668,15.6409],[-58.8438,-35.6693,16.8699],[-58.8442,-35.6737,16.3245],[-58.8477,-35.6795,16.4865],[-58.8488,-35.6835,15.9943],[-58.8452,-35.6869,16.114],[-58.8365,-35.6914,16.1953],[-58.8236,-35.6925,16.3775],[-58.8185,-35.6954,16.3875],[-58.8105,-35.6948,16.0958],[-58.8066,-35.6988,16.6325],[-58.8001,-35.6997,17.289],[-58.7924,-35.705,18.0456],[-58.7901,-35.7168,18.7472],[-58.7827,-35.7311,19.8986],[-58.7738,-35.7375,19.4699],[-58.7705,-35.7448,19.6328],[-58.7722,-35.7528,19.1533],[-58.7658,-35.7615,20.2499],[-58.7603,-35.7605,19.2663],[-58.7523,-35.7548,18.2547],[-58.7479,-35.7491,18.3609],[-58.7466,-35.7404,18.8237],[-58.7344,-35.7328,17.7399],[-58.727,-35.7305,17.483],[-58.7233,-35.7255,17.8978],[-58.7055,-35.7274,17.5538],[-58.7031,-35.7301,18.4433],[-58.6981,-35.7301,18.3678],[-58.6886,-35.7339,17.2251],[-58.6859,-35.7311,17.1813],[-58.674,-35.7327,16.7958],[-58.67,-35.7295,15.5434],[-58.6653,-35.735,17.1637],[-58.6676,-35.7396,17.2081],[-58.6656,-35.7461,17.2699],[-58.6574,-35.7499,17.1243],[-58.6401,-35.7468,16.2175],[-58.6376,-35.7526,16.11],[-58.6317,-35.7532,16.4961],[-58.6165,-35.7466,14.9934],[-58.5968,-35.753,15.7163],[-58.585,-35.7525,15.7485],[-58.5697,-35.7479,13.3059],[-58.5562,-35.7514,15.3953],[-58.5506,-35.7493,15.2008],[-58.546,-35.7314,16.4816],[-58.5372,-35.7279,15.0883],[-58.5288,-35.7292,15.5595],[-58.5232,-35.7559,16.5065],[-58.5137,-35.7557,14.514],[-58.5046,-35.7469,15.2311],[-58.4975,-35.713,14.0235],[-58.4951,-35.7106,14.1094],[-58.4879,-35.7126,12.0912],[-58.514,-35.6515,11.6282],[-58.5035,-35.6426,12.3852],[-58.573,-35.5954,16.4845],[-58.5541,-35.577,13.6772],[-58.4759,-35.5139,19.2102],[-58.6665,-35.3597,25.1068],[-58.6761,-35.3652,25.7486],[-58.7145,-35.3353,27.2248],[-58.6859,-35.3078,27.3129],[-58.7524,-35.2558,28.0132],[-58.7768,-35.2754,28.2105],[-58.8161,-35.2461,29.3454]]]]}}