{"type": "Feature","id": "1307","bbox": [-62.34136,-26.88581,-57.55692,-22.47226],"geometry": {"type": "Polygon","coordinates": [[[-62.2756,-22.51351,239.6447],[-62.28139,-22.51206,240.3719],[-62.28382,-22.50483,237.1171],[-62.28361,-22.49377,236.347],[-62.28454,-22.4887,235.5],[-62.28723,-22.48395,239.0723],[-62.29451,-22.47982,239.0778],[-62.30573,-22.47671,238.9733],[-62.34136,-22.47226,245.2861],[-62.33883,-23.55624,203.593],[-62.33921,-24.12065,195.3045],[-62.12323,-24.19852,188.7352],[-62.04951,-24.20917,183.2168],[-62.03608,-24.21258,185.7882],[-62.02662,-24.21599,177.0],[-62.02189,-24.21878,181.4856],[-62.00972,-24.22849,174.8544],[-62.00342,-24.23588,181.7475],[-62.00117,-24.23914,174.0],[-62.00016,-24.241,174.0],[-61.99696,-24.25051,177.2592],[-61.99174,-24.25692,183.2344],[-61.98321,-24.2642,181.7974],[-61.93888,-24.28865,180.7955],[-61.90203,-24.31728,179.6156],[-61.89335,-24.32131,179.3425],[-61.8864,-24.32353,178.9203],[-61.86661,-24.32518,175.8271],[-61.82831,-24.33603,176.0562],[-61.80519,-24.33836,178.8728],[-61.79049,-24.33779,177.4044],[-61.78199,-24.33929,173.1422],[-61.77571,-24.34172,172.6913],[-61.74312,-24.36823,170.5219],[-61.72101,-24.38166,172.2752],[-61.71109,-24.38895,161.3799],[-61.70504,-24.39536,169.3147],[-61.7022,-24.40554,159.6897],[-61.69793,-24.41453,161.5061],[-61.66031,-24.47644,166.0523],[-61.6546,-24.48362,164.2982],[-61.64959,-24.486,164.7157],[-61.64577,-24.48445,165.4298],[-61.64168,-24.48119,165.409],[-61.6361,-24.47907,166.6272],[-61.62236,-24.48352,164.207],[-61.61344,-24.48548,164.6093],[-61.60579,-24.486,165.2006],[-61.59494,-24.48228,160.9818],[-61.58856,-24.48145,164.6006],[-61.57879,-24.483,162.5338],[-61.57337,-24.4861,161.9134],[-61.56941,-24.48982,159.3522],[-61.56771,-24.49354,161.0216],[-61.56639,-24.49912,160.4619],[-61.56585,-24.50553,166.145],[-61.56314,-24.51489,162.5518],[-61.56066,-24.51912,162.3489],[-61.55102,-24.5307,161.3248],[-61.51115,-24.56325,161.8663],[-61.49748,-24.57958,161.1736],[-61.4511,-24.61938,156.9446],[-61.44366,-24.62397,155.4897],[-61.42263,-24.62832,155.1797],[-61.41632,-24.62837,156.0591],[-61.40493,-24.6263,155.5872],[-61.39842,-24.62568,155.6163],[-61.39074,-24.6263,156.3754],[-61.35581,-24.63917,155.3264],[-61.33633,-24.64382,154.555],[-61.32943,-24.64459,154.8831],[-61.27581,-24.64542,153.5032],[-61.26078,-24.64713,153.9003],[-61.22295,-24.65808,147.9916],[-61.20853,-24.66578,146.9258],[-61.20393,-24.66966,146.6984],[-61.19874,-24.67493,147.9635],[-61.17164,-24.71374,147.5587],[-61.16481,-24.71797,148.2821],[-61.14898,-24.72211,148.238],[-61.1452,-24.72567,147.5223],[-61.14458,-24.73048,146.9998],[-61.1458,-24.74211,148.0559],[-61.14487,-24.75342,143.9933],[-61.13975,-24.76355,147.7056],[-61.10001,-24.81823,145.7219],[-61.0949,-24.82732,145.9474],[-61.09606,-24.8314,144.8283],[-61.10247,-24.83854,145.3566],[-61.10487,-24.84427,146.8794],[-61.1058,-24.85161,144.6394],[-61.10373,-24.86344,144.008],[-61.10086,-24.87021,140.3092],[-61.09588,-24.87719,140.8893],[-61.07647,-24.89528,140.0162],[-61.06854,-24.90055,140.0823],[-61.06133,-24.90303,141.4809],[-61.05653,-24.90158,141.0354],[-61.04862,-24.89533,145.4888],[-61.04392,-24.89424,143.683],[-61.0388,-24.89543,142.834],[-61.03425,-24.89796,146.8815],[-60.89506,-25.00628,134.9162],[-60.884,-25.01279,137.9613],[-60.87227,-25.01656,138.35059999999999],[-60.86556,-25.01966,137.5587],[-60.83866,-25.03919,131.7462],[-60.80755,-25.06948,132.0771],[-60.79993,-25.07542,136.1547],[-60.77063,-25.08519,134.481],[-60.70905,-25.12105,125.0],[-60.70324,-25.12296,131.2177],[-60.67337,-25.1396,127.3486],[-60.66407,-25.14741,126.7879],[-60.65242,-25.15929,120.0],[-60.64513,-25.16451,120.3786],[-60.63831,-25.16813,129.4907],[-60.60012,-25.17784,128.2009],[-60.59239,-25.18068,118.9313],[-60.58387,-25.18508,128.7653],[-60.56346,-25.19825,120.6489],[-60.557,-25.20105,128.6483],[-60.55162,-25.20094,122.0073],[-60.54116,-25.19769,125.7999],[-60.53369,-25.19738,125.48],[-60.52444,-25.19877,125.1343],[-60.50974,-25.2042,119.601],[-60.49966,-25.20957,120.2475],[-60.49586,-25.21448,124.066],[-60.48545,-25.23097,121.8828],[-60.47207,-25.2583,124.5004],[-60.46341,-25.27112,124.9616],[-60.45062,-25.28528,118.3312],[-60.43592,-25.30719,115.0],[-60.4254,-25.31928,122.9384],[-60.40755,-25.33509,122.0508],[-60.39463,-25.34424,119.9728],[-60.37047,-25.35499,118.9112],[-60.36466,-25.35902,119.8092],[-60.36034,-25.36326,119.9449],[-60.35391,-25.37716,119.7135],[-60.34169,-25.39561,118.0338],[-60.33918,-25.40114,120.1599],[-60.33952,-25.40605,118.3471],[-60.34647,-25.4124,117.4828],[-60.34802,-25.41674,116.446],[-60.34424,-25.42403,116.95],[-60.33923,-25.42806,115.0854],[-60.30448,-25.44429,116.9727],[-60.30042,-25.44961,114.4566],[-60.29874,-25.45566,116.2525],[-60.29851,-25.46273,116.237],[-60.29732,-25.47002,111.4435],[-60.29332,-25.47927,114.5296],[-60.28885,-25.48397,113.1907],[-60.28316,-25.48671,115.7308],[-60.25603,-25.48888,108.0977],[-60.2441,-25.49229,115.5238],[-60.23869,-25.49524,116.5358],[-60.23727,-25.49803,105.3576],[-60.23795,-25.49937,108.7005],[-60.23758,-25.50092,105.0],[-60.23102,-25.5095,114.5],[-60.22802,-25.51488,113.0014],[-60.22624,-25.52041,113.8657],[-60.22671,-25.52557,112.7608],[-60.22911,-25.52986,113.37],[-60.23296,-25.53317,114.1094],[-60.23727,-25.53575,110.1849],[-60.2396,-25.53963,108.3115],[-60.23882,-25.54495,110.1557],[-60.22996,-25.55834,109.1803],[-60.22715,-25.56366,107.9553],[-60.2257,-25.56888,110.7124],[-60.22392,-25.57983,111.2695],[-60.22058,-25.58717,108.7829],[-60.21516,-25.59565,102.5],[-60.19573,-25.61766,109.8929],[-60.19126,-25.62412,102.0],[-60.18963,-25.62908,106.9183],[-60.18885,-25.63466,102.8559],[-60.18854,-25.64066,102.8443],[-60.18735,-25.64768,105.2448],[-60.18467,-25.65513,107.0177],[-60.17805,-25.6651,110.7921],[-60.17162,-25.66898,106.464],[-60.16534,-25.66996,108.3682],[-60.16069,-25.66763,106.0804],[-60.15289,-25.66107,108.3209],[-60.14824,-25.65942,108.8188],[-60.14302,-25.65998,105.8109],[-60.13862,-25.66205,104.7089],[-60.13054,-25.66712,103.9909],[-60.12545,-25.66944,103.6078],[-60.1194,-25.67135,106.3073],[-60.1125,-25.67244,101.0],[-60.10397,-25.67476,106.1193],[-60.09449,-25.67833,105.6136],[-60.08139,-25.68665,106.471],[-60.07281,-25.69032,105.9977],[-60.06524,-25.69187,108.1008],[-60.04943,-25.69357,108.745],[-60.03863,-25.69719,101.0],[-60.03341,-25.70122,104.8165],[-60.03021,-25.70742,106.0694],[-60.02948,-25.71461,102.5313],[-60.02571,-25.72551,102.1083],[-60.02119,-25.73125,102.3038],[-60.01589,-25.73512,102.8293],[-60.01036,-25.73698,104.8243],[-59.97943,-25.74313,100.2238],[-59.96819,-25.74696,100.2791],[-59.9623,-25.75099,104.7637],[-59.95765,-25.75672,100.7206],[-59.94778,-25.77388,100.3822],[-59.94236,-25.7793,101.8436],[-59.93665,-25.78323,101.6752],[-59.90877,-25.79393,99.9478],[-59.87567,-25.81186,105.5064],[-59.86784,-25.8177,105.1695],[-59.86246,-25.82313,104.8576],[-59.86066,-25.82788,99.0408],[-59.85973,-25.83289,95.7477],[-59.86138,-25.84499,96.4281],[-59.86138,-25.85196,95.1682],[-59.85818,-25.86121,93.9134],[-59.85368,-25.86612,95.0275],[-59.84831,-25.86953,95.5374],[-59.82939,-25.87609,90.5],[-59.8105,-25.8855,101.8615],[-59.77007,-25.92121,103.3412],[-59.7032,-26.00808,90.2777],[-59.69738,-26.01268,90.5188],[-59.6909,-26.01392,89.5988],[-59.67356,-26.0135,88.5335],[-59.6663,-26.07696,85.519],[-59.66715,-26.10321,94.0994],[-59.66901,-26.11717,97.7218],[-59.66731,-26.12492,87.6645],[-59.6632,-26.1322,90.152],[-59.65793,-26.13572,82.4378],[-59.65204,-26.13789,99.1404],[-59.64604,-26.13866,99.9057],[-59.64046,-26.13768,87.7759],[-59.63046,-26.13391,85.667],[-59.62491,-26.13339,81.0],[-59.61928,-26.13453,86.2249],[-59.59713,-26.1428,88.4891],[-59.57375,-26.15504,86.6523],[-59.56548,-26.15727,87.2739],[-59.55881,-26.15752,85.3265],[-59.54011,-26.15535,88.817],[-59.53336,-26.15535,90.1942],[-59.52636,-26.15618,85.2782],[-59.50399,-26.16357,89.1708],[-59.50078,-26.16435,90.5625],[-59.49391,-26.16476,84.3238],[-59.47559,-26.16357,81.9721],[-59.46559,-26.16497,83.9088],[-59.45283,-26.16863,82.7137],[-59.42993,-26.17845,81.068],[-59.41962,-26.184449999999998,83.9172],[-59.41314,-26.19008,82.7662],[-59.41185,-26.19509,81.6378],[-59.41272,-26.20641,79.4494],[-59.40993,-26.23494,83.0382],[-59.40686,-26.24238,83.0452],[-59.40151,-26.25111,82.1556],[-59.38952,-26.26558,84.1651],[-59.3849,-26.27343,84.0804],[-59.38482,-26.27943,77.2209],[-59.38776,-26.2832,80.5315],[-59.38722,-26.29137,75.9211],[-59.38239,-26.30284,79.8183],[-59.36518,-26.32516,74.4069],[-59.35549,-26.33467,85.6175],[-59.34699,-26.3401,87.2822],[-59.3412,-26.34061,79.5267],[-59.3357,-26.33968,78.7185],[-59.33113,-26.3372,80.4446],[-59.325,-26.3355,80.2309],[-59.31707,-26.33565,79.2388],[-59.29214,-26.34552,74.585],[-59.28348,-26.34785,73.1219],[-59.27041,-26.34775,77.1673],[-59.26452,-26.34666,68.5],[-59.25374,-26.34325,70.8195],[-59.23416,-26.33426,78.5146],[-59.21697,-26.33028,81.7054],[-59.20695,-26.32594,76.3607],[-59.19865,-26.31989,74.8839],[-59.1915,-26.31245,77.731],[-59.18822,-26.30837,78.0595],[-59.1846,-26.3047,75.5502],[-59.18049,-26.3016,76.322],[-59.17594,-26.29901,76.4479],[-59.16987,-26.29684,77.4022],[-59.16284,-26.2956,81.2072],[-59.1523,-26.29638,70.6189],[-59.1468,-26.29948,73.5453],[-59.13918,-26.31178,73.6203],[-59.13171,-26.32098,75.7189],[-59.10334,-26.34464,70.2373],[-59.09528,-26.34976,76.155],[-59.05993,-26.36159,70.6762],[-59.02634,-26.37436,65.0],[-58.9821,-26.3896,70.3112],[-58.95353,-26.40562,67.8349],[-58.93363,-26.4235,69.1574],[-58.90898,-26.45074,74.9871],[-58.90102,-26.46366,69.8138],[-58.88904,-26.4789,66.2826],[-58.86333,-26.50386,65.0994],[-58.85214,-26.51208,74.951],[-58.83966,-26.51869,62.2574],[-58.79907,-26.53414,67.0286],[-58.79206,-26.53833,68.2815],[-58.7871,-26.54282,63.939],[-58.77514,-26.55895,62.6843],[-58.75016,-26.58696,66.9368],[-58.74181,-26.59342,61.8516],[-58.73411,-26.59719,61.6816],[-58.7275,-26.5976,61.2033],[-58.71468,-26.5961,60.8255],[-58.70734,-26.59621,72.0886],[-58.69659,-26.59962,62.6235],[-58.69078,-26.60334,61.2052],[-58.68646,-26.60757,61.911],[-58.67331,-26.62654,60.6547],[-58.65267,-26.64793,59.2765],[-58.57712,-26.68959,66.0613],[-58.56983,-26.6948,57.3671],[-58.56474,-26.69977,56.7426],[-58.56164,-26.70374,56.58],[-58.5566,-26.71248,56.1966],[-58.55464,-26.71744,55.9976],[-58.55169,-26.72824,58.0631],[-58.54929,-26.7346,58.4518],[-58.54588,-26.74136,65.4735],[-58.53474,-26.75434,53.5],[-58.4833,-26.79103,62.0925],[-58.47604,-26.7979,57.5559],[-58.47387,-26.8025,56.5094],[-58.46658,-26.82513,57.5239],[-58.46239,-26.8304,52.0229],[-58.45759,-26.83423,53.9408],[-58.43718,-26.8443,53.8396],[-58.42617,-26.84859,58.9524],[-58.41968,-26.84937,59.8883],[-58.41351,-26.8488,57.1004],[-58.39648,-26.84425,54.6053],[-58.3901,-26.84384,50.0],[-58.38214,-26.84565,59.2618],[-58.37765,-26.84896,52.8324],[-58.37517,-26.8533,58.7851],[-58.3755,-26.85795,54.1159],[-58.37697,-26.86239,52.301],[-58.37767,-26.86606,49.0],[-58.37635,-26.87288,49.0],[-58.37302,-26.8766,49.0],[-58.35274,-26.88513,55.5213],[-58.35127,-26.88581,55.4808],[-58.32892,-26.88415,55.8232],[-58.31579,-26.87412,56.7358],[-58.32215,-26.85676,49.0],[-58.34039,-26.84446,54.8239],[-58.35238,-26.83051,51.7872],[-58.34003,-26.8086,51.8084],[-58.32333,-26.80384,51.459],[-58.30551,-26.80911,49.0],[-58.28856,-26.81149,55.687],[-58.27481,-26.79836,56.179],[-58.27848,-26.7902,50.0687],[-58.28654,-26.77873,50.1976],[-58.28794,-26.7686,52.6572],[-58.2714,-26.76426,50.4606],[-58.25926,-26.76446,49.0],[-58.25176,-26.76322,51.4504],[-58.24794,-26.75816,49.5265],[-58.2452,-26.68023,56.3037],[-58.24065,-26.66121,51.898],[-58.23554,-26.64985,49.0],[-58.23228,-26.6486,49.0],[-58.22716,-26.65202,49.0],[-58.19569,-26.65749,54.0236],[-58.18386,-26.65677,54.9932],[-58.17864,-26.65067,56.2464],[-58.18138,-26.64158,57.0338],[-58.18717,-26.63362,51.254],[-58.19208,-26.62463,51.362],[-58.19228,-26.61284,52.941],[-58.18851,-26.60974,52.9008],[-58.17151,-26.59858,51.1281],[-58.16495,-26.59228,50.7271],[-58.17053,-26.5868,51.8826],[-58.17931,-26.57264,54.9578],[-58.18541,-26.56499,56.4591],[-58.20799,-26.55021,50.306],[-58.21337,-26.54453,53.4953],[-58.21735,-26.52758,53.3062],[-58.21419,-26.51239,49.0],[-58.20872,-26.49688,49.0],[-58.20593,-26.47942,55.3866],[-58.20272,-26.47156,56.3276],[-58.18867,-26.46205,49.9279],[-58.18541,-26.45172,49.0],[-58.20959,-26.43125,56.2176],[-58.21306,-26.41864,51.4702],[-58.20618,-26.40273,53.7578],[-58.1727,-26.34929,54.6017],[-58.16763,-26.33503,55.3429],[-58.16495,-26.3186,60.5284],[-58.17001,-26.28656,49.5],[-58.16996,-26.27033,49.5],[-58.16185,-26.26331,49.875],[-58.14598,-26.2601,54.9438],[-58.1233,-26.25152,59.1174],[-58.10598,-26.23953,50.0],[-58.1066,-26.2261,50.0],[-58.12123,-26.21669,55.1631],[-58.13714,-26.20946,53.5813],[-58.14893,-26.19933,58.2048],[-58.1513,-26.18145,53.6979],[-58.14118,-26.18476,57.788],[-58.13322,-26.18899,56.8874],[-58.12764,-26.19468,55.429],[-58.12402,-26.20191,55.1816],[-58.11523,-26.19096,55.8465],[-58.10629,-26.17029,55.1241],[-58.09668,-26.1367,54.6301],[-58.0865,-26.12719,53.9659],[-58.0216,-26.10569,51.0],[-57.98821,-26.08854,51.0],[-57.87272,-26.0103,52.4558],[-57.85969,-25.99428,52.6948],[-57.85959,-25.98095,51.0],[-57.90584,-25.96865,54.4847],[-57.89824,-25.95356,53.3629],[-57.86331,-25.92762,51.5],[-57.85711,-25.91986,52.5394],[-57.85137,-25.90839,59.299],[-57.85241,-25.89795,56.1637],[-57.87535,-25.8902,57.1793],[-57.87819,-25.88317,56.39],[-57.87535,-25.87615,56.3627],[-57.85422,-25.86891,55.5878],[-57.83324,-25.85878,55.8627],[-57.81966,-25.84978,51.5],[-57.81282,-25.84524,51.5],[-57.80187,-25.83139,52.0],[-57.81706,-25.79749,54.8771],[-57.82063,-25.77827,52.0],[-57.80559,-25.7699,54.1924],[-57.78724,-25.76411,54.2986],[-57.76792,-25.75068,52.0],[-57.75107,-25.73486,52.0],[-57.74037,-25.72215,55.8843],[-57.75112,-25.71957,55.7802],[-57.76058,-25.71564,56.0961],[-57.76848,-25.70995,55.5051],[-57.77458,-25.70169,58.9495],[-57.75371,-25.67275,52.0],[-57.74125,-25.6619,55.7005],[-57.71991,-25.65383,56.1446],[-57.7087,-25.6529,52.0],[-57.6982,-25.65363,53.2392],[-57.68833,-25.6527,55.7047],[-57.67898,-25.64701,61.4693],[-57.67526,-25.63926,52.5],[-57.67004,-25.61694,56.0163],[-57.66808,-25.61229,57.9036],[-57.63878,-25.6158,56.4864],[-57.62307,-25.61539,55.8344],[-57.6163,-25.60919,58.9111],[-57.61165,-25.58593,58.6546],[-57.60069,-25.5788,61.4338],[-57.58715,-25.5757,62.3383],[-57.57532,-25.56443,53.5],[-57.57005,-25.54666,53.5],[-57.55692,-25.45984,54.0],[-57.55811,-25.44351,55.4721],[-57.56529,-25.43038,54.0],[-57.57873,-25.41674,54.4999],[-57.59754,-25.40336,54.0],[-57.64079,-25.37261,57.9007],[-57.64121,-25.36052,71.4587],[-57.67149,-25.29013,54.0],[-57.67198,-25.28983,54.0],[-57.70234,-25.27091,62.1914],[-57.72177,-25.24611,63.4075],[-57.75407,-25.18089,69.4292],[-57.766,-25.16787,64.0979],[-57.79732,-25.15392,75.2304],[-57.81241,-25.14368,69.8217],[-57.85649,-25.09676,68.117],[-57.8707,-25.08529,72.0707],[-57.89049,-25.07867,71.7781],[-57.96976,-25.07847,68.7865],[-57.98377,-25.07423,80.2471],[-57.98987,-25.0641,71.927],[-57.99364,-25.05273,69.504],[-58.00046,-25.04436,78.9059],[-58.00981,-25.0425,79.2732],[-58.03214,-25.04509,78.2907],[-58.04206,-25.04436,78.679],[-58.11151,-25.01232,72.7443],[-58.12402,-25.01294,77.4226],[-58.13389,-24.99785,73.8708],[-58.22406,-24.94122,77.9365],[-58.24251,-24.94173,84.4444],[-58.25915,-24.953,75.9489],[-58.28726,-24.97977,84.1314],[-58.2993,-24.98772,84.4224],[-58.31197,-24.99362,84.2905],[-58.32328,-24.99527,75.9438],[-58.336,-24.99186,82.1562],[-58.34132,-24.98617,82.3466],[-58.34437,-24.97832,78.9929],[-58.35057,-24.9686,80.5798],[-58.4148,-24.90308,84.4355],[-58.43852,-24.8728,80.1343],[-58.45077,-24.86174,86.0827],[-58.4734,-24.8513,81.3047],[-58.69422,-24.81202,89.2045],[-58.69938,-24.80727,90.8038],[-58.70192,-24.79931,90.1862],[-58.70812,-24.79507,89.8213],[-58.71597,-24.79187,84.7349],[-58.72326,-24.7867,87.8541],[-58.73747,-24.78278,90.3037],[-58.78847,-24.78164,87.8557],[-58.8092,-24.77678,88.1597],[-59.00092,-24.64418,99.1658],[-59.0327,-24.63705,97.405],[-59.04241,-24.63054,99.4617],[-59.06246,-24.61235,100.4245],[-59.07218,-24.60677,97.9421],[-59.07833,-24.60563,100.7624],[-59.09719,-24.60542,102.9854],[-59.11698,-24.59881,95.1882],[-59.15439,-24.57628,102.29],[-59.17791,-24.56873,105.1659],[-59.20648,-24.55023,105.2062],[-59.24808,-24.53721,107.3786],[-59.25764,-24.53018,107.371],[-59.26312,-24.52346,100.4147],[-59.27046,-24.51819,106.6803],[-59.2856,-24.51613,108.9171],[-59.29506,-24.51292,103.9379],[-59.30808,-24.49876,102.6165],[-59.34097,-24.4876,107.9439],[-59.35741,-24.469,108.248],[-59.37777,-24.43355,109.6064],[-59.38709,-24.42383,105.2716],[-59.42603,-24.39252,108.6514],[-59.45027,-24.38239,109.0957],[-59.45381,-24.37453,110.3454],[-59.45629,-24.36544,111.3867],[-59.45973,-24.35851,111.5562],[-59.4659,-24.35355,110.3287],[-59.48766,-24.34477,112.1649],[-59.51042,-24.33267,113.288],[-59.52114,-24.32503,114.3851],[-59.53202,-24.31407,114.775],[-59.53998,-24.3088,114.7401],[-59.55843,-24.30539,115.4397],[-59.5754,-24.29588,115.7021],[-59.60052,-24.29288,116.1235],[-59.61052,-24.28958,115.5939],[-59.61773,-24.28348,115.1249],[-59.63532,-24.26146,115.8614],[-59.67364,-24.22539,119.1303],[-60.03367,-24.00701,128.0656],[-60.05173,-24.00287,129.4324],[-60.07238,-24.00484,130.5898],[-60.1193,-24.02024,129.908],[-60.14325,-24.0252,130.7323],[-60.21813,-24.02737,134.5704],[-60.29642,-24.01641,136.9915],[-60.32802,-24.01796,139.0351],[-60.33737,-24.01641,139.3182],[-60.34804,-24.01083,139.5238],[-60.36758,-23.99471,141.1572],[-60.37835,-23.98851,143.2253],[-60.38742,-23.98717,143.6753],[-60.42305,-23.98851,142.3633],[-60.48488,-23.97735,144.4125],[-60.51772,-23.95575,146.8216],[-60.53596,-23.94758,147.7048],[-60.57175,-23.94603,149.6042],[-60.57754,-23.94417,150.1092],[-60.59358,-23.91223,151.752],[-60.59462,-23.90655,151.7946],[-60.60384,-23.90469,152.3699],[-60.62115,-23.8958,152.1883],[-60.63216,-23.89229,151.0224],[-60.64371,-23.89136,151.4139],[-60.68968,-23.89363,154.5933],[-60.69942,-23.89125,155.3567],[-60.71985,-23.87503,156.9004],[-60.72929,-23.87213,156.2113],[-60.78778,-23.87345,158.6378],[-60.81685,-23.8741,159.9241],[-60.83763,-23.87182,160.2184],[-60.86636,-23.85591,160.633],[-60.89995,-23.83048,162.5565],[-60.93666,-23.81384,163.1077],[-60.97483,-23.82407,163.4325],[-61.00635,-23.80547,162.4116],[-61.01581,-23.79669,162.0983],[-61.03022,-23.77462,164.8466],[-61.03624,-23.76883,166.5217],[-61.03805,-23.7554,166.4485],[-61.04999,-23.73473,164.5047],[-61.06622,-23.71571,164.9477],[-61.09252,-23.70186,164.9458],[-61.10965,-23.67561,167.5802],[-61.11885,-23.66641,166.1831],[-61.10975,-23.64998,169.4926],[-61.10624,-23.62724,170.7056],[-61.10986,-23.60698,169.1506],[-61.12223,-23.5982,171.011],[-61.13949,-23.59272,170.7353],[-61.15445,-23.58032,171.462],[-61.16781,-23.56657,172.8983],[-61.18024,-23.55717,173.343],[-61.18773,-23.55624,173.6948],[-61.20768,-23.55758,173.3689],[-61.2144,-23.55717,174.3027],[-61.22357,-23.55127,174.8935],[-61.24292,-23.53308,175.9963],[-61.25194,-23.52926,177.7794],[-61.27261,-23.52358,179.9005],[-61.28295,-23.50993,178.5648],[-61.28897,-23.49412,179.3654],[-61.29695,-23.48141,180.3917],[-61.36178,-23.45474,184.6007],[-61.38485,-23.45371,182.7992],[-61.39868,-23.45009,183.2173],[-61.40873,-23.44358,183.9665],[-61.42051,-23.43366,183.9547],[-61.4357,-23.42374,184.6519],[-61.45193,-23.41743,184.6034],[-61.4703,-23.41413,185.4383],[-61.49185,-23.4132,185.9162],[-61.50107,-23.40782,189.0298],[-61.51038,-23.38436,187.6317],[-61.52634,-23.37475,189.2231],[-61.52546,-23.36472,188.3748],[-61.52079,-23.35325,189.7389],[-61.51606,-23.34498,190.4957],[-61.53397,-23.34457,191.67],[-61.54577,-23.34261,189.3055],[-61.55464,-23.33837,189.6979],[-61.60515,-23.28928,193.753],[-61.61962,-23.28287,195.6159],[-61.66685,-23.28287,196.1817],[-61.68031,-23.27925,198.4741],[-61.68876,-23.2745,196.8741],[-61.70442,-23.25837,196.6857],[-61.71853,-23.24928,196.4021],[-61.733,-23.24339,198.8743],[-61.74426,-23.23481,198.4172],[-61.74881,-23.21734,198.7277],[-61.74948,-23.19884,198.6818],[-61.75227,-23.18706,199.7323],[-61.75847,-23.17745,200.4248],[-61.76927,-23.16556,200.77],[-61.78002,-23.15688,202.39],[-61.80266,-23.14499,199.9459],[-61.81428,-23.13518,203.3526],[-61.83697,-23.10469,202.2312],[-61.84498,-23.09725,205.681],[-61.95645,-23.03441,208.9717],[-61.99205,-22.99813,210.3938],[-62.0059,-22.97891,210.476],[-62.00606,-22.97436,210.3262],[-62.00895,-22.96971,210.3818],[-62.00378,-22.94635,211.4871],[-62.00606,-22.93684,212.0697],[-62.01717,-22.92175,211.179],[-62.03582,-22.88486,216.5015],[-62.05045,-22.86449,218.2367],[-62.07163,-22.84393,217.4371],[-62.08083,-22.83235,219.3003],[-62.0846,-22.82016,219.1084],[-62.08936,-22.81995,218.6308],[-62.09923,-22.81375,218.9099],[-62.10786,-22.80651,219.2401],[-62.10879,-22.803,219.3689],[-62.11587,-22.7998,219.3423],[-62.11974,-22.79215,220.3044],[-62.12253,-22.78316,220.4403],[-62.12615,-22.77571,220.0048],[-62.15349,-22.74781,223.036],[-62.15974,-22.73716,224.022],[-62.16408,-22.7259,223.9926],[-62.1708,-22.71732,224.4153],[-62.18418,-22.7137,224.6065],[-62.18827,-22.70833,225.2263],[-62.17592,-22.68487,226.7579],[-62.19504,-22.6736,228.5695],[-62.19462,-22.66058,229.6838],[-62.18765,-22.63857,224.5947],[-62.19297,-22.62823,226.4569],[-62.19659,-22.62647,231.2369],[-62.20253,-22.6272,231.6452],[-62.21493,-22.6243,231.3657],[-62.23974,-22.61376,228.0],[-62.25281,-22.60363,232.0965],[-62.25297,-22.59113,230.2881],[-62.23886,-22.57304,234.9632],[-62.23323,-22.5563,236.7833],[-62.24118,-22.53842,234.5059],[-62.26335,-22.51444,236.383],[-62.26883,-22.51299,239.5818],[-62.2756,-22.51351,239.6447]]]}
,"properties": {"ISO3166-1-Alpha-3": "ARG","country": "Argentina","fill": "#FF0","name": "Formosa","area_km2": 76071.36,"hist_schema_id": "Elevation0-9000","hist_area_km2": {"50": 4440.44,"75": 18999.07,"100": 16200.18,"125": 11896.17,"150": 9261.59,"175": 7732.03,"200": 6212.08,"225": 1296.08,"250": 33.73}}}