{"type":"Feature","properties":{"GID_1":"ARG.9_1","GID_0":"ARG","country":"Argentina","state":"Formosa","VARNAME_1":"NA","NL_NAME_1":"NA","TYPE_1":"Provincia","ENGTYPE_1":"Province","CC_1":"NA","HASC_1":"AR.FM","ISO_1":"AR-P","name":"Formosa.state"},
"geometry":{"type": "MultiPolygon","coordinates": [[[[-58.3639,-26.8503,52.0026],[-58.3644,-26.8678,51.201],[-58.3511,-26.8707,49.0],[-58.3334,-26.8719,49.0],[-58.3278,-26.8705,49.0],[-58.3224,-26.8666,49.0],[-58.3184,-26.8563,49.0],[-58.3209,-26.8486,49.0],[-58.3316,-26.8375,51.434],[-58.354,-26.8236,50.4642],[-58.3579,-26.8168,49.8715],[-58.3582,-26.8129,50.1079],[-58.3547,-26.8085,49.617],[-58.3482,-26.8053,49.989],[-58.3138,-26.808,49.0],[-58.2896,-26.8002,51.5885],[-58.2847,-26.7949,49.6745],[-58.2829,-26.7881,49.0],[-58.2953,-26.7647,49.0],[-58.2947,-26.7617,49.0],[-58.2871,-26.758,51.2329],[-58.2619,-26.7615,49.0],[-58.2503,-26.7532,51.6139],[-58.2453,-26.7392,49.3629],[-58.2467,-26.7238,49.0],[-58.2532,-26.7064,49.0],[-58.2509,-26.6831,51.5044],[-58.2525,-26.6503,53.3651],[-58.25,-26.6424,49.0],[-58.2387,-26.6443,50.149],[-58.2131,-26.6546,49.0],[-58.2037,-26.654,49.0],[-58.1962,-26.65,52.8203],[-58.1904,-26.6443,49.0],[-58.1883,-26.6396,49.0],[-58.189,-26.6346,51.7983],[-58.2029,-26.6211,56.9863],[-58.2048,-26.6171,55.8634],[-58.193,-26.5999,49.4824],[-58.1906,-26.5857,52.0942],[-58.1931,-26.5746,51.8506],[-58.1974,-26.5605,49.0],[-58.2061,-26.5484,51.0],[-58.2138,-26.5418,52.4359],[-58.2177,-26.5359,53.9685],[-58.219,-26.5298,53.7214],[-58.2171,-26.5212,49.0],[-58.2073,-26.5067,51.3965],[-58.2043,-26.4929,55.9019],[-58.2074,-26.4873,57.8453],[-58.2185,-26.4792,53.0333],[-58.225,-26.471,53.0033],[-58.2202,-26.4643,49.0],[-58.2091,-26.4628,53.1964],[-58.1975,-26.4637,49.0],[-58.1854,-26.4605,49.8347],[-58.1788,-26.4554,52.1743],[-58.1767,-26.4501,53.4376],[-58.1822,-26.4434,52.8939],[-58.1953,-26.4342,52.9708],[-58.2032,-26.4242,53.2158],[-58.2064,-26.416,51.5692],[-58.2064,-26.3949,51.435],[-58.2004,-26.375,49.0],[-58.1981,-26.3714,49.5],[-58.1894,-26.3665,49.5],[-58.1703,-26.3594,49.5],[-58.1645,-26.352,49.5],[-58.1539,-26.3236,49.5],[-58.1556,-26.3031,50.0819],[-58.1688,-26.2827,49.5],[-58.1695,-26.2779,49.5],[-58.1674,-26.2656,49.5],[-58.161,-26.2602,50.0],[-58.1254,-26.2472,50.0],[-58.1204,-26.2444,52.753],[-58.1132,-26.2366,53.3907],[-58.1112,-26.2229,55.652],[-58.1139,-26.2103,50.0],[-58.1263,-26.2014,53.3827],[-58.1453,-26.1927,50.0],[-58.1529,-26.1875,50.125],[-58.1565,-26.1831,54.1267],[-58.1555,-26.1805,50.5],[-58.1412,-26.179,51.0],[-58.1167,-26.182,51.0],[-58.1125,-26.1789,51.0],[-58.1109,-26.171,52.8977],[-58.1159,-26.1603,51.0],[-58.1153,-26.153199999999998,51.0],[-58.1026,-26.1326,53.4353],[-58.08,-26.1162,53.5368],[-58.0692,-26.1114,54.9823],[-58.0556,-26.1098,51.0],[-58.0408,-26.1125,51.0],[-58.0142,-26.1036,51.0],[-57.9915,-26.0905,51.0],[-57.977,-26.0855,59.322],[-57.9436,-26.0642,51.0],[-57.9049,-26.0249,51.0],[-57.8953,-26.0212,51.0],[-57.8807,-26.0184,51.0],[-57.8494,-26.006,51.0],[-57.8455,-25.9931,56.3302],[-57.8472,-25.9842,54.1201],[-57.8775,-25.9677,53.6147],[-57.884,-25.9591,56.4865],[-57.8857,-25.9503,54.449],[-57.8827,-25.9368,51.5],[-57.8695,-25.9297,51.5],[-57.8501,-25.9244,51.5],[-57.8394,-25.9173,51.5],[-57.8374,-25.9095,51.5],[-57.8378,-25.9017,51.5],[-57.861,-25.8794,55.2833],[-57.8625,-25.8689,55.4714],[-57.8565,-25.8609,53.5376],[-57.8433,-25.8559,56.0701],[-57.813,-25.848,54.6137],[-57.8013,-25.8376,52.0],[-57.7968,-25.8296,53.4513],[-57.7993,-25.8081,52.0],[-57.8106,-25.7856,52.7963],[-57.8153,-25.7711,54.6016],[-57.8138,-25.7609,55.4732],[-57.8067,-25.7563,54.4188],[-57.7965,-25.7565,54.7321],[-57.7888,-25.7599,53.5136],[-57.7812,-25.7587,55.1327],[-57.7649,-25.7513,53.5299],[-57.732,-25.7233,52.0],[-57.7281,-25.7096,52.0],[-57.7318,-25.7031,64.2272],[-57.7489,-25.7051,55.6244],[-57.7583,-25.7044,55.5616],[-57.7658,-25.6971,52.0],[-57.7668,-25.6905,52.0],[-57.7645,-25.6814,55.2765],[-57.757,-25.6742,52.0],[-57.7504,-25.6599,52.0],[-57.7465,-25.6573,52.0],[-57.7348,-25.657,57.6514],[-57.7068,-25.6513,52.0],[-57.7003,-25.6528,54.6768],[-57.6873,-25.6601,54.4561],[-57.6824,-25.6613,52.5],[-57.6787,-25.6595,56.8713],[-57.6728,-25.651,52.5],[-57.6718,-25.642,52.5],[-57.675,-25.6173,53.0],[-57.6745,-25.607,53.4676],[-57.6711,-25.6014,55.9407],[-57.6659,-25.5991,54.9752],[-57.6575,-25.5992,53.0],[-57.6511,-25.6017,53.0],[-57.6365,-25.6139,53.0],[-57.6301,-25.6164,53.0],[-57.609,-25.6175,61.3233],[-57.6032,-25.6117,61.4963],[-57.5986,-25.5748,62.0091],[-57.593,-25.5724,61.4619],[-57.5757,-25.5739,63.4956],[-57.5664,-25.5646,63.027],[-57.5626,-25.5528,62.2015],[-57.5619,-25.5428,57.0947],[-57.5691,-25.5209,54.1995],[-57.5694,-25.5151,58.4433],[-57.5545,-25.4736,62.6948],[-57.5541,-25.457,56.6245],[-57.5559,-25.4448,54.0],[-57.5717,-25.4244,54.4054],[-57.581,-25.4093,67.9409],[-57.5963,-25.3978,57.0004],[-57.6215,-25.3833,54.0],[-57.6351,-25.3794,57.14],[-57.639,-25.3741,57.4735],[-57.6395,-25.3647,60.8724],[-57.6375,-25.3573,84.4515],[-57.6405,-25.3464,75.6236],[-57.653,-25.3391,57.6069],[-57.6607,-25.3366,54.0],[-57.6662,-25.3327,54.0],[-57.6723,-25.3242,54.0],[-57.6737,-25.3047,54.0],[-57.6669,-25.2741,57.7824],[-57.669,-25.2728,56.4048],[-57.686,-25.2794,60.6332],[-57.6959,-25.2791,61.3028],[-57.7221,-25.264,61.9221],[-57.7361,-25.2401,65.9638],[-57.7563,-25.2234,66.4552],[-57.7616,-25.215699999999998,62.9738],[-57.762,-25.2085,70.5336],[-57.7601,-25.2012,66.6952],[-57.7641,-25.1824,70.6748],[-57.7674,-25.1763,74.9069],[-57.7793,-25.1651,75.1355],[-57.7828,-25.1563,71.5256],[-57.7876,-25.1517,67.761],[-57.8223,-25.1376,68.9537],[-57.8483,-25.1187,67.8578],[-57.8631,-25.0872,70.6553],[-57.8671,-25.0819,64.7581],[-57.8737,-25.0794,67.1158],[-57.8966,-25.0758,77.6185],[-57.9289,-25.0745,77.847],[-57.9393,-25.0719,71.1781],[-57.9519,-25.0766,70.565],[-57.9626,-25.075,73.1916],[-57.9691,-25.0761,75.0297],[-57.9789,-25.0823,76.9006],[-57.9853,-25.0809,73.6029],[-57.9954,-25.071,68.8255],[-57.993899999999996,-25.0645,75.3586],[-57.9947,-25.0581,71.0314],[-58.0007,-25.0488,75.0579],[-57.9966,-25.0417,79.4374],[-57.9972,-25.0395,77.6592],[-57.9993,-25.0386,79.0851],[-58.0147,-25.0425,75.539],[-58.032,-25.0443,78.217],[-58.0472,-25.0422,73.0512],[-58.0489,-25.045,78.895],[-58.0513,-25.0456,79.3546],[-58.0565,-25.0435,73.923],[-58.0622,-25.0451,75.124],[-58.0666,-25.0435,76.2642],[-58.0856,-25.0162,73.3735],[-58.0965,-25.0134,78.0107],[-58.1062,-25.0177,76.376],[-58.1134,-25.0187,72.3472],[-58.1218,-25.0126,75.6889],[-58.1297,-25.0111,71.9503],[-58.1351,-24.9973,71.5283],[-58.1395,-24.9906,76.6737],[-58.1463,-24.9854,74.4999],[-58.1484,-24.9774,73.1351],[-58.1551,-24.9752,78.9457],[-58.1598,-24.971,73.9817],[-58.1727,-24.9706,77.6972],[-58.1807,-24.9721,72.6889],[-58.1868,-24.9702,74.6427],[-58.1986,-24.9555,76.2351],[-58.2088,-24.9523,75.1507],[-58.2189,-24.9426,74.0724],[-58.2198,-24.9341,75.2888],[-58.2295,-24.9301,75.9926],[-58.2379,-24.9341,79.4094],[-58.2465,-24.9338,78.436],[-58.2619,-24.9436,76.522],[-58.2717,-24.955,78.2779],[-58.2844,-24.9631,82.6122],[-58.2906,-24.9746,84.1618],[-58.3048,-24.9848,83.944],[-58.3148,-24.9966,82.2137],[-58.3215,-24.9994,84.1245],[-58.3273,-24.9992,78.7155],[-58.332,-24.9943,79.736],[-58.3405,-24.9797,76.7924],[-58.3534,-24.9678,80.5981],[-58.3686,-24.961,79.4052],[-58.3687,-24.9597,79.4052],[-58.3802,-24.9558,80.1727],[-58.3888,-24.9483,79.5145],[-58.4021,-24.927,84.8616],[-58.4079,-24.9231,80.7816],[-58.4197,-24.9231,80.8298],[-58.4226,-24.9209,81.6195],[-58.423,-24.9163,80.7692],[-58.4197,-24.9008,82.6722],[-58.424,-24.8908,84.316],[-58.438,-24.8804,79.1487],[-58.4639,-24.8655,79.2317],[-58.4811,-24.8625,82.8372],[-58.4935,-24.8512,82.0767],[-58.4994,-24.8489,81.4857],[-58.5073,-24.8506,82.2545],[-58.5126,-24.8497,80.9712],[-58.5477,-24.8312,80.6868],[-58.566,-24.8262,83.8463],[-58.6068,-24.8323,82.8782],[-58.6547,-24.8336,89.43],[-58.6654,-24.8312,89.85],[-58.6711,-24.827,90.097],[-58.6777,-24.8151,87.9891],[-58.6831,-24.8123,84.4911],[-58.6911,-24.8126,84.0557],[-58.6966,-24.8089,87.9702],[-58.7119,-24.7849,87.8533],[-58.7188,-24.7785,85.0471],[-58.7246,-24.7773,88.8457],[-58.735,-24.7814,92.7849],[-58.758,-24.7771,87.7067],[-58.7958,-24.7748,88.0932],[-58.8135,-24.7683,97.1896],[-58.8267,-24.7529,89.7481],[-58.8431,-24.7391,89.77],[-58.8474,-24.739,90.72],[-58.86,-24.7328,96.198],[-58.8678,-24.7323,97.4647],[-58.871,-24.7338,96.6345],[-58.8755,-24.7328,94.8522],[-58.8815,-24.7227,98.4575],[-58.9023,-24.7065,97.1972],[-58.915,-24.7014,95.6434],[-58.9257,-24.6919,96.8861],[-58.9334,-24.6885,97.1784],[-58.9402,-24.6818,97.4679],[-58.9601,-24.6736,97.46],[-58.9687,-24.6665,97.2962],[-58.9776,-24.6634,100.1592],[-58.9907,-24.6645,97.9978],[-58.9976,-24.6597,97.8757],[-59.0089,-24.6596,98.024],[-59.0243,-24.6466,98.3616],[-59.0392,-24.6427,94.5721],[-59.0434,-24.6399,99.7042],[-59.0493,-24.6309,100.4371],[-59.0529,-24.6287,101.7992],[-59.0648,-24.6262,100.5193],[-59.0895,-24.6162,102.9452],[-59.0961,-24.6219,99.6563],[-59.1023,-24.6235,102.6332],[-59.1091,-24.6233,101.0482],[-59.1132,-24.6195,105.8119],[-59.1218,-24.6191,99.1688],[-59.1258,-24.6126,105.3867],[-59.1442,-24.6038,103.5741],[-59.1474,-24.6002,102.6211],[-59.1499,-24.5934,106.2297],[-59.1564,-24.5883,102.2625],[-59.1707,-24.5824,101.2711],[-59.1815,-24.5697,102.0574],[-59.2103,-24.5566,103.957],[-59.2174,-24.5561,105.5529],[-59.2354,-24.5503,105.0993],[-59.2488,-24.5351,105.8933],[-59.2518,-24.5274,106.6115],[-59.2631,-24.5223,100.4499],[-59.2898,-24.5192,106.7345],[-59.2997,-24.5152,107.0394],[-59.3275,-24.497,107.7194],[-59.3424,-24.4926,104.1761],[-59.353,-24.4847,106.8861],[-59.3649,-24.4553,107.9374],[-59.3733,-24.4436,109.3063],[-59.3818,-24.4253,108.6861],[-59.388,-24.42,108.7516],[-59.4027,-24.4147,106.4895],[-59.4218,-24.4128,109.8154],[-59.429,-24.401,110.6428],[-59.4517,-24.3829,109.0435],[-59.4627,-24.3697,111.4152],[-59.4623,-24.3608,111.4657],[-59.4701,-24.353,111.3822],[-59.4728,-24.3469,111.5308],[-59.4723,-24.3423,112.385],[-59.476,-24.3371,112.6087],[-59.4791,-24.3366,112.4394],[-59.4901,-24.3302,112.4844],[-59.495,-24.3251,112.9489],[-59.5562,-24.2917,116.2206],[-59.56,-24.2881,115.9124],[-59.5875,-24.2728,116.2395],[-59.656,-24.2362,116.8066],[-60.0466,-24.0121,129.0452],[-60.0605,-24.0159,129.8711],[-60.0752,-24.0241,131.0846],[-60.1167,-24.0395,130.0845],[-60.1545,-24.0424,133.0426],[-60.1758,-24.0404,133.0175],[-60.2032,-24.0429,134.178],[-60.2957,-24.0468,139.9756],[-60.3016,-24.0486,136.5649],[-60.3201,-24.0485,137.3774],[-60.3346,-24.0456,139.3508],[-60.3582,-24.0333,138.8556],[-60.3695,-24.0301,140.0012],[-60.3776,-24.0239,140.5228],[-60.381,-24.0191,140.9083],[-60.3874,-24.0,141.6333],[-60.3905,-23.9957,142.5027],[-60.3971,-23.991,142.6332],[-60.4223,-23.9831,142.9288],[-60.4359,-23.977,143.3137],[-60.4525,-23.9641,145.2672],[-60.4693,-23.9609,145.2583],[-60.5053,-23.9621,146.3655],[-60.517,-23.966,147.256],[-60.5496,-23.9612,150.0956],[-60.5674,-23.957,149.7855],[-60.584,-23.945,150.2811],[-60.588,-23.9352,150.8479],[-60.5876,-23.9178,151.2929],[-60.5948,-23.9089,151.8027],[-60.6031,-23.9019,151.4781],[-60.6608,-23.9064,153.9367],[-60.6878,-23.9001,154.9275],[-60.7028,-23.8941,154.9698],[-60.7155,-23.8848,157.5274],[-60.7299,-23.8814,157.8748],[-60.7349,-23.8764,157.9439],[-60.7472,-23.8739,158.9715],[-60.7534,-23.8757,159.8578],[-60.7627,-23.8709,158.0821],[-60.7677,-23.8716,159.0481],[-60.7761,-23.8767,158.3542],[-60.7859,-23.8727,159.2454],[-60.7959,-23.8793,159.8997],[-60.7991,-23.8795,159.6254],[-60.7989,-23.8694,159.844],[-60.8001,-23.8671,161.0625],[-60.8151,-23.8725,159.9986],[-60.825,-23.8738,160.2255],[-60.8367,-23.8715,160.2184],[-60.8475,-23.8672,159.4711],[-60.8575,-23.8553,161.4254],[-60.9001,-23.8316,161.3438],[-60.9117,-23.8174,163.1611],[-60.9319,-23.8048,163.2113],[-60.9385,-23.8039,163.0328],[-60.9427,-23.8053,164.4392],[-60.9474,-23.8117,164.3982],[-60.9519,-23.8131,164.0388],[-60.9819,-23.8116,164.472],[-60.994,-23.8,164.7983],[-61.0025,-23.7941,164.099],[-61.0188,-23.7722,166.9084],[-61.0206,-23.7642,166.054],[-61.0319,-23.7473,165.8737],[-61.0398,-23.7426,165.7609],[-61.0447,-23.7281,166.8476],[-61.0486,-23.7233,166.2868],[-61.0579,-23.7126,166.7825],[-61.0658,-23.708,166.4775],[-61.0797,-23.6958,166.3719],[-61.0868,-23.687,167.7972],[-61.0881,-23.6813,168.4082],[-61.0842,-23.6749,168.9681],[-61.0848,-23.6694,169.174],[-61.0964,-23.6631,167.1824],[-61.0995,-23.6582,168.206],[-61.0946,-23.6446,169.2938],[-61.0957,-23.637,169.6523],[-61.1021,-23.627,170.3659],[-61.0923,-23.6209,170.3596],[-61.0917,-23.6181,170.4043],[-61.0958,-23.612,171.4257],[-61.1103,-23.6011,170.3777],[-61.1266,-23.5942,171.7621],[-61.1308,-23.5863,173.0098],[-61.1389,-23.5781,173.4384],[-61.1487,-23.5771,171.7911],[-61.1544,-23.5735,172.528],[-61.16,-23.5677,175.0253],[-61.1718,-23.5485,174.3124],[-61.1758,-23.5457,175.282],[-61.1837,-23.5486,176.242],[-61.1874,-23.5481,174.3348],[-61.1938,-23.5415,174.078],[-61.197,-23.5403,174.0059],[-61.1995,-23.541,174.3385],[-61.2055,-23.5492,174.4534],[-61.2117,-23.5513,176.1614],[-61.2347,-23.5485,175.4018],[-61.2489,-23.5389,176.8078],[-61.266,-23.5224,177.1057],[-61.2751,-23.5176,180.2594],[-61.2745,-23.5036,180.3934],[-61.2909,-23.5014,179.0792],[-61.2983,-23.4887,181.1323],[-61.3064,-23.4846,181.3311],[-61.3162,-23.4731,179.1932],[-61.3226,-23.4697,180.3732],[-61.3469,-23.465699999999998,181.6684],[-61.3506,-23.4635,181.4365],[-61.3529,-23.4597,182.0087],[-61.3528,-23.4544,181.9738],[-61.3547,-23.4494,182.6607],[-61.3579,-23.4459,182.4829],[-61.3741,-23.4512,182.3925],[-61.3872,-23.4473,183.333],[-61.3883,-23.45,182.0605],[-61.3869,-23.4555,184.9353],[-61.3916,-23.4599,182.3073],[-61.3953,-23.4602,182.7784],[-61.4081,-23.4493,183.9944],[-61.4143,-23.4491,183.6758],[-61.4178,-23.4465,183.702],[-61.4252,-23.4447,183.2729],[-61.4372,-23.4311,184.2366],[-61.4496,-23.424,184.2785],[-61.4644,-23.4217,185.2668],[-61.4759,-23.4229,185.993],[-61.4865,-23.42,186.4998],[-61.495,-23.4156,189.0847],[-61.4992,-23.4092,186.7999],[-61.4986,-23.3989,186.7339],[-61.5088,-23.3964,188.4598],[-61.5114,-23.3857,189.2272],[-61.5149,-23.3803,188.9585],[-61.5277,-23.3686,188.1509],[-61.5282,-23.3636,187.694],[-61.5238,-23.3582,187.8078],[-61.5079,-23.3503,189.2322],[-61.5107,-23.3494,190.0987],[-61.5074,-23.3475,191.4095],[-61.5139,-23.3455,189.1418],[-61.532,-23.3465,191.6906],[-61.5364,-23.344,191.5333],[-61.5487,-23.3438,189.9402],[-61.5759,-23.32,192.1451],[-61.5769,-23.3076,191.9604],[-61.58,-23.3047,193.3014],[-61.5877,-23.3038,195.4995],[-61.5926,-23.3012,193.6071],[-61.5956,-23.2942,194.7222],[-61.5986,-23.2946,194.017],[-61.6059,-23.2913,193.6349],[-61.6115,-23.2851,194.1191],[-61.6213,-23.283,197.7132],[-61.6393,-23.2821,194.89],[-61.6726,-23.2858,195.8803],[-61.6892,-23.2763,195.8571],[-61.6928,-23.2613,196.2863],[-61.6998,-23.2561,197.2748],[-61.7156,-23.2462,197.7803],[-61.7276,-23.2457,199.2001],[-61.7393,-23.2397,198.3281],[-61.7463,-23.2012,198.2668],[-61.7499,-23.1906,199.8646],[-61.758,-23.1812,200.2785],[-61.7713,-23.1704,200.4572],[-61.7769,-23.1678,200.9786],[-61.7887,-23.1679,201.0796],[-61.7943,-23.1605,201.5427],[-61.8058,-23.161,202.2145],[-61.8143,-23.1579,201.2536],[-61.8198,-23.1519,203.0764],[-61.8246,-23.133,203.2275],[-61.8356,-23.1276,202.0418],[-61.8475,-23.1185,202.1976],[-61.8535,-23.103,203.1828],[-61.8654,-23.1008,205.3037],[-61.8625,-23.0915,205.1581],[-61.8632,-23.0866,204.7173],[-61.87,-23.0841,207.7213],[-61.8827,-23.0837,206.1807],[-61.8929,-23.0812,206.963],[-61.9106,-23.0705,206.5675],[-61.9273,-23.0707,209.0288],[-61.9371,-23.0659,207.9311],[-61.9424,-23.0544,207.9164],[-61.9541,-23.0486,209.5413],[-61.9747,-23.027,208.5126],[-61.9846,-23.0239,209.7639],[-61.9892,-23.0208,208.9493],[-61.9994,-22.9982,209.7859],[-62.0058,-22.9925,209.6257],[-62.0071,-22.9829,209.8538],[-62.0022,-22.9736,210.0042],[-62.0062,-22.9662,210.3146],[-62.0033,-22.9571,210.6779],[-62.0057,-22.9446,211.3117],[-62.0116,-22.9303,213.7454],[-62.0167,-22.9261,212.7369],[-62.023,-22.924,212.6636],[-62.0362,-22.9256,211.7116],[-62.0381,-22.9227,211.4719],[-62.0339,-22.917,213.575],[-62.0335,-22.9138,215.6071],[-62.0408,-22.8918,215.5474],[-62.0395,-22.8818,216.5395],[-62.0433,-22.8722,216.9467],[-62.0594,-22.8566,216.7902],[-62.0644,-22.8474,215.6663],[-62.0735,-22.8499,217.969],[-62.0763,-22.8468,218.5535],[-62.0805,-22.8258,218.3517],[-62.0872,-22.8173,218.2257],[-62.0897,-22.8162,218.4949],[-62.1067,-22.8185,219.5612],[-62.1114,-22.8099,220.3761],[-62.1149,-22.7967,219.9149],[-62.1174,-22.7936,220.8088],[-62.1357,-22.7867,220.5257],[-62.1403,-22.7749,221.8368],[-62.1384,-22.7643,220.866],[-62.1415,-22.7612,222.2686],[-62.1554,-22.7593,221.7841],[-62.1615,-22.7546,222.7079],[-62.1646,-22.7471,222.2225],[-62.1607,-22.7342,223.1278],[-62.1804,-22.7081,225.3429],[-62.1863,-22.7074,225.3839],[-62.1952,-22.7147,225.5161],[-62.1987,-22.7146,225.31],[-62.2013,-22.7101,225.2826],[-62.2028,-22.6874,226.8745],[-62.1989,-22.6795,222.5],[-62.201,-22.6669,223.125],[-62.2004,-22.6545,230.6105],[-62.1918,-22.6529,228.203],[-62.1887,-22.6487,225.3083],[-62.2003,-22.6412,226.9687],[-62.2236,-22.6189,233.668],[-62.2288,-22.6177,230.8497],[-62.2334,-22.6215,233.3054],[-62.2388,-22.6228,227.5],[-62.2409,-22.6109,233.329],[-62.2499,-22.607,229.2361],[-62.2523,-22.6016,229.0],[-62.2666,-22.5953,233.894],[-62.2604,-22.5894,232.0588],[-62.2464,-22.5849,233.9235],[-62.2424,-22.5781,234.1786],[-62.235,-22.5546,237.4405],[-62.2352,-22.5455,237.2777],[-62.24,-22.5374,239.6666],[-62.252,-22.5306,232.5],[-62.2567,-22.5151,239.1711],[-62.2661,-22.5083,234.5402],[-62.2701,-22.5079,241.6735],[-62.28,-22.5206,235.9919],[-62.2835,-22.5214,233.5],[-62.2856,-22.5168,240.0442],[-62.2849,-22.4913,240.0345],[-62.2873,-22.4864,241.3603],[-62.2973,-22.4827,239.8278],[-62.3255,-22.481,239.1138],[-62.3333,-22.4757,243.0465],[-62.3306,-22.4676,242.4606],[-62.3314,-22.4658,242.9881],[-62.3446,-22.4616,241.7106],[-62.3459,-23.9962,194.6983],[-62.3476,-24.1102,192.2305],[-62.3118,-24.0931,188.1353],[-62.3082,-24.0974,196.0956],[-62.3163,-24.1058,190.3866],[-62.3216,-24.109,192.0684],[-62.3215,-24.1134,188.6817],[-62.3119,-24.1126,186.2763],[-62.2998,-24.114,195.1714],[-62.2984,-24.1198,188.5788],[-62.2949,-24.1244,182.5],[-62.29,-24.1271,183.1016],[-62.2884,-24.1323,195.8365],[-62.2762,-24.1339,189.8581],[-62.2703,-24.1321,184.3266],[-62.2673,-24.1367,187.199],[-62.2552,-24.1391,187.696],[-62.2433,-24.1358,191.3467],[-62.2352,-24.1357,186.4978],[-62.2282,-24.1452,186.8439],[-62.2099,-24.1473,186.8367],[-62.2048,-24.1505,188.8416],[-62.1929,-24.1539,181.193],[-62.1875,-24.159,187.9255],[-62.1964,-24.1668,192.2706],[-62.1944,-24.1717,187.8941],[-62.1881,-24.1713,186.3522],[-62.1829,-24.168,187.1452],[-62.1766,-24.167,182.157],[-62.1719,-24.1713,185.7111],[-62.1743,-24.1769,180.2223],[-62.1725,-24.1872,186.7457],[-62.1763,-24.1919,184.1297],[-62.1779,-24.2084,189.8347],[-62.1718,-24.2105,188.8054],[-62.1675,-24.2068,184.3409],[-62.1579,-24.1922,189.9444],[-62.153,-24.1888,189.0246],[-62.1469,-24.1875,186.1392],[-62.1461,-24.1926,186.6473],[-62.1498,-24.1973,181.6229],[-62.1413,-24.2034,186.1832],[-62.1399,-24.209,181.3226],[-62.1368,-24.2136,187.8148],[-62.1307,-24.214,180.8949],[-62.1043,-24.1988,187.1791],[-62.0959,-24.1906,183.3323],[-62.0912,-24.1963,182.2039],[-62.1045,-24.21,186.8137],[-62.1054,-24.2147,182.8269],[-62.1002,-24.2179,186.2739],[-62.0769,-24.2253,180.2434],[-62.0459,-24.2239,184.7529],[-62.0409,-24.2271,180.9876],[-62.0389,-24.2385,181.1106],[-62.0339,-24.241,175.0497],[-62.0282,-24.2388,177.9505],[-62.0187,-24.2313,181.6331],[-62.0074,-24.2355,181.9938],[-61.989,-24.2377,179.7837],[-61.9797,-24.2306,176.5956],[-61.9734,-24.2299,179.3412],[-61.9696,-24.2331,172.9892],[-61.9698,-24.2391,183.9676],[-61.9679,-24.2443,179.869],[-61.9582,-24.2514,178.8704],[-61.9117,-24.2667,179.5568],[-61.9078,-24.2776,173.3955],[-61.9035,-24.2818,178.8432],[-61.8986,-24.2854,179.6344],[-61.8871,-24.2895,180.8832],[-61.8829,-24.2937,170.0299],[-61.8806,-24.3044,170.2339],[-61.8763,-24.3123,176.3696],[-61.8704,-24.3138,172.367],[-61.8677,-24.3095,173.1375],[-61.8669,-24.3038,178.9195],[-61.8614,-24.3045,177.652],[-61.8515,-24.3115,175.7422],[-61.8392,-24.3134,172.9777],[-61.8338,-24.3159,166.3698],[-61.8276,-24.3257,181.4161],[-61.8213,-24.3245,178.3039],[-61.8247,-24.3134,172.3832],[-61.8193,-24.3143,171.224],[-61.813,-24.3242,175.2393],[-61.8023,-24.3302,168.9766],[-61.7938,-24.3384,173.3268],[-61.7879,-24.3406,175.2657],[-61.7846,-24.3367,173.694],[-61.7846,-24.3309,175.8553],[-61.7902,-24.3139,178.3853],[-61.7864,-24.3139,177.1601],[-61.7748,-24.3341,174.4219],[-61.7689,-24.3504,171.1902],[-61.7633,-24.3567,171.52],[-61.7283,-24.3689,171.2716],[-61.7179,-24.3753,171.5376],[-61.7143,-24.3798,162.8135],[-61.7129,-24.3854,160.8561],[-61.7162,-24.3961,172.8551],[-61.7091,-24.412,172.2132],[-61.7087,-24.4177,172.7431],[-61.7012,-24.4263,170.9723],[-61.6953,-24.4364,170.537],[-61.6784,-24.4531,167.0683],[-61.6685,-24.46,166.1705],[-61.6626,-24.4605,165.9229],[-61.6529,-24.4535,169.2327],[-61.6469,-24.4537,167.3839],[-61.6434,-24.4638,168.1265],[-61.6339,-24.4646,167.0827],[-61.6228,-24.4689,164.1645],[-61.6164,-24.4693,164.5125],[-61.6092,-24.4647,162.9979],[-61.6061,-24.4594,169.0784],[-61.6014,-24.4602,164.7178],[-61.5934,-24.469,163.9238],[-61.583,-24.4752,164.5725],[-61.5748,-24.4838,163.9216],[-61.5725,-24.489,163.4606],[-61.5707,-24.5058,165.4486],[-61.5687,-24.5114,161.1375],[-61.5615,-24.5207,161.1278],[-61.5571,-24.5249,162.3631],[-61.5401,-24.5319,159.8733],[-61.5328,-24.541,161.461],[-61.532,-24.5466,160.6006],[-61.5278,-24.5503,159.9687],[-61.5215,-24.5482,160.8304],[-61.5171,-24.5502,154.0771],[-61.5148,-24.5615,162.5339],[-61.5108,-24.5658,159.939],[-61.5009,-24.5722,160.5038],[-61.4982,-24.5762,159.4649],[-61.4943,-24.5783,161.7583],[-61.4887,-24.5751,157.3817],[-61.4839,-24.5773,158.906],[-61.4796,-24.5818,161.095],[-61.4678,-24.6069,156.4977],[-61.4664,-24.6122,158.7301],[-61.4671,-24.6176,159.4944],[-61.4595,-24.6262,159.3734],[-61.4509,-24.6197,156.8906],[-61.4396,-24.6166,157.2678],[-61.4162,-24.6217,156.3457],[-61.4068,-24.6285,156.2027],[-61.389,-24.6263,155.7496],[-61.3841,-24.6281,156.5699],[-61.3705,-24.6391,157.2547],[-61.3587,-24.6399,155.5483],[-61.3531,-24.6422,155.0062],[-61.3416,-24.6402,146.6577],[-61.324,-24.6438,152.5446],[-61.3217,-24.6483,153.0661],[-61.3249,-24.6531,153.3959],[-61.325,-24.6585,154.2267],[-61.3197,-24.658,153.4184],[-61.3155,-24.6478,153.684],[-61.3112,-24.6441,151.5977],[-61.3053,-24.6427,149.0825],[-61.2813,-24.6439,153.2294],[-61.2725,-24.6359,145.3224],[-61.2673,-24.6355,150.2567],[-61.2573,-24.6402,152.5297],[-61.2551,-24.6452,151.3791],[-61.2436,-24.6483,149.9672],[-61.2256,-24.65,145.6792],[-61.2208,-24.6529,151.6216],[-61.2216,-24.6584,147.9916],[-61.2249,-24.663,158.3231],[-61.223,-24.6681,152.274],[-61.2111,-24.6683,144.2888],[-61.2042,-24.6774,142.6804],[-61.1991,-24.6804,143.9102],[-61.2009,-24.6854,141.8496],[-61.2002,-24.6964,150.5058],[-61.1958,-24.6992,149.6951],[-61.1976,-24.7093,149.6906],[-61.1952,-24.7143,150.8689],[-61.1899,-24.7121,142.0209],[-61.1845,-24.7208,142.149],[-61.1793,-24.7234,144.9126],[-61.1747,-24.7204,150.0407],[-61.1758,-24.7149,147.4624],[-61.1703,-24.7059,148.2107],[-61.1598,-24.7085,144.8393],[-61.1627,-24.719,142.4235],[-61.1586,-24.7378,141.2332],[-61.1555,-24.7421,148.5727],[-61.1436,-24.7407,148.0143],[-61.1514,-24.7491,143.8677],[-61.1489,-24.7591,147.0675],[-61.1419,-24.768,145.9769],[-61.14,-24.7732,146.6051],[-61.1396,-24.7955,148.8591],[-61.1354,-24.7985,148.0849],[-61.1291,-24.798,144.3991],[-61.1279,-24.8078,145.4076],[-61.1247,-24.8125,146.0802],[-61.124,-24.818,146.6884],[-61.1061,-24.8301,144.6796],[-61.0979,-24.8219,145.0682],[-61.0934,-24.8247,144.7224],[-61.0884,-24.8343,144.9777],[-61.0887,-24.8398,141.0119],[-61.086,-24.8449,147.4172],[-61.0808,-24.8436,145.0196],[-61.0761,-24.8473,144.8397],[-61.0733,-24.8521,144.4237],[-61.0742,-24.8577,143.5382],[-61.0707,-24.8619,142.3566],[-61.0474,-24.8742,143.5102],[-61.0442,-24.8852,143.5213],[-61.0397,-24.8885,146.2219],[-61.0338,-24.8898,141.9616],[-61.0278,-24.8885,133.4865],[-61.0228,-24.8896,135.5441],[-61.0206,-24.8946,138.715],[-61.0144,-24.895,136.398],[-61.003,-24.8994,135.8209],[-61.0058,-24.9091,135.7619],[-61.0115,-24.9107,142.9307],[-61.008,-24.9146,142.5563],[-60.9958,-24.9156,136.0881],[-60.992,-24.9193,139.701],[-60.9915,-24.9248,143.0065],[-60.9891,-24.9295,142.9982],[-60.9831,-24.931,136.5463],[-60.9751,-24.9386,142.7968],[-60.9694,-24.9406,142.9306],[-60.9656,-24.9449,143.7652],[-60.9484,-24.9502,140.4486],[-60.9368,-24.9628,132.0066],[-60.9206,-24.9704,139.6908],[-60.9183,-24.9756,140.1905],[-60.9331,-24.9853,140.9928],[-60.9289,-24.9879,131.7558],[-60.9106,-24.9896,134.593],[-60.9054,-24.9923,138.5955],[-60.9017,-24.9967,138.0054],[-60.9017,-25.0135,132.5598],[-60.8935,-25.0203,136.8849],[-60.8877,-25.0212,136.2764],[-60.8826,-25.0177,130.0],[-60.8738,-25.0223,134.312],[-60.8617,-25.024,138.9726],[-60.856,-25.0264,138.2961],[-60.8588,-25.0306,138.9486],[-60.856,-25.0341,134.0407],[-60.8407,-25.0428,135.6842],[-60.8316,-25.0437,131.083],[-60.8271,-25.0465,136.9692],[-60.8193,-25.0548,129.3999],[-60.8156,-25.0646,132.1279],[-60.7945,-25.0749,136.3991],[-60.7827,-25.0749,135.4015],[-60.7712,-25.0783,134.991],[-60.7653,-25.0764,131.6468],[-60.7596,-25.0766,131.7932],[-60.7541,-25.0794,126.5],[-60.7532,-25.0845,130.7863],[-60.7492,-25.0871,134.1482],[-60.7434,-25.0855,132.9017],[-60.7377,-25.1008,130.5269],[-60.7267,-25.1055,131.8112],[-60.7178,-25.1127,130.6264],[-60.7215,-25.1215,126.6819],[-60.7099,-25.1243,130.7313],[-60.7052,-25.1281,125.043],[-60.7,-25.1299,129.0305],[-60.6939,-25.1285,127.5476],[-60.6765,-25.1327,126.8549],[-60.6646,-25.131,129.8579],[-60.6525,-25.1335,126.9],[-60.6496,-25.1367,130.4134],[-60.6521,-25.1421,123.065],[-60.6589,-25.1476,126.9079],[-60.6615,-25.1523,122.0275],[-60.6609,-25.1583,122.0],[-60.6572,-25.1593,125.4094],[-60.652,-25.1521,122.8771],[-60.6457,-25.1512,125.8084],[-60.644,-25.155,121.034],[-60.6487,-25.1607,129.2017],[-60.6454,-25.1647,120.4597],[-60.6392,-25.1646,127.4415],[-60.6336,-25.1625,123.3302],[-60.6295,-25.1707,124.8643],[-60.6019,-25.1819,129.0785],[-60.5952,-25.1754,118.574],[-60.5894,-25.1801,120.7537],[-60.5742,-25.1733,125.4431],[-60.5708,-25.1782,118.0252],[-60.5742,-25.1822,126.2968],[-60.573,-25.1869,122.9964],[-60.5676,-25.1896,125.5768],[-60.561,-25.1896,124.1455],[-60.5589,-25.1929,126.3828],[-60.559,-25.199,126.176],[-60.5542,-25.2008,123.0812],[-60.5482,-25.199,125.715],[-60.5437,-25.1955,124.392],[-60.5347,-25.1809,126.1479],[-60.5289,-25.1791,125.1203],[-60.5194,-25.1929,122.8378],[-60.498,-25.2021,124.0406],[-60.4921,-25.2002,126.5224],[-60.4863,-25.2018,125.3898],[-60.4867,-25.2056,125.1046],[-60.4955,-25.2098,116.5379],[-60.4909,-25.2191,123.0317],[-60.4869,-25.2238,115.5],[-60.4859,-25.2281,119.5938],[-60.489,-25.2298,116.8729],[-60.4859,-25.2401,122.811],[-60.4756,-25.2456,125.4624],[-60.4747,-25.2511,125.0758],[-60.4696,-25.2543,117.7467],[-60.4709,-25.2588,124.9846],[-60.4764,-25.2638,125.3366],[-60.4551,-25.276,120.563],[-60.4496,-25.278,122.8395],[-60.4428,-25.2761,123.2763],[-60.4359,-25.2856,117.3143],[-60.4295,-25.307,116.4309],[-60.4246,-25.3171,112.964],[-60.4188,-25.3157,121.6615],[-60.4147,-25.3117,117.7507],[-60.4127,-25.3065,120.0988],[-60.4083,-25.3048,122.4133],[-60.4072,-25.3103,122.5948],[-60.414,-25.3197,119.142],[-60.4184,-25.3304,118.8886],[-60.4154,-25.3334,121.6248],[-60.4032,-25.3312,112.4101],[-60.4028,-25.3361,121.3924],[-60.3991,-25.3393,121.8017],[-60.3834,-25.3478,120.114],[-60.3779,-25.3499,118.9528],[-60.3656,-25.349,120.5036],[-60.3613,-25.3518,119.0668],[-60.3666,-25.3613,120.1893],[-60.3609,-25.3629,119.7203],[-60.3512,-25.3692,118.8145],[-60.3519,-25.375,119.819],[-60.3506,-25.3804,118.735],[-60.3442,-25.3961,116.9691],[-60.3401,-25.3933,117.7467],[-60.3375,-25.3882,119.6065],[-60.3328,-25.3863,115.2917],[-60.3306,-25.3912,110.3101],[-60.3236,-25.393,114.0521],[-60.3322,-25.4026,114.2362],[-60.3321,-25.4082,119.2993],[-60.3347,-25.4132,117.7566],[-60.3488,-25.422,114.5535],[-60.3383,-25.4279,116.6815],[-60.3305,-25.4362,117.0071],[-60.3244,-25.4356,116.6102],[-60.31,-25.426,118.4695],[-60.3038,-25.4266,118.1466],[-60.3014,-25.4312,117.0825],[-60.3041,-25.4363,116.0538],[-60.3027,-25.4475,115.6273],[-60.3004,-25.4511,114.4566],[-60.2889,-25.4493,117.0054],[-60.2892,-25.4554,116.7178],[-60.2925,-25.46,113.7597],[-60.2981,-25.4624,116.237],[-60.302,-25.4666,110.368],[-60.3023,-25.4723,113.589],[-60.2994,-25.4766,114.8244],[-60.2931,-25.478,114.5296],[-60.2881,-25.4755,114.3745],[-60.2842,-25.4706,111.537],[-60.2808,-25.4741,108.8226],[-60.2854,-25.4848,114.9995],[-60.2826,-25.4889,116.5255],[-60.2774,-25.4876,115.5329],[-60.2728,-25.4837,114.4711],[-60.261,-25.4813,111.3589],[-60.238,-25.4892,113.9017],[-60.2351,-25.493,113.1939],[-60.2449,-25.4996,107.5637],[-60.2459,-25.5045,106.0],[-60.2402,-25.504,109.6742],[-60.235,-25.5063,108.1817],[-60.2346,-25.511,110.9615],[-60.227,-25.5201,113.8657],[-60.2288,-25.5243,113.1128],[-60.2348,-25.5252,112.8391],[-60.2374,-25.5295,112.277],[-60.2331,-25.5337,114.1094],[-60.2326,-25.5387,110.6677],[-60.2385,-25.548,105.2901],[-60.2317,-25.5574,112.4873],[-60.2233,-25.5652,107.9326],[-60.221,-25.5702,107.2427],[-60.2209,-25.5868,109.6796],[-60.2183,-25.5974,102.5],[-60.2127,-25.5995,110.8476],[-60.2089,-25.5951,109.4306],[-60.2013,-25.5986,110.7126],[-60.196,-25.5956,107.8813],[-60.2006,-25.6083,106.9215],[-60.2,-25.6135,106.7707],[-60.193,-25.6086,105.9819],[-60.1911,-25.6124,108.854],[-60.1934,-25.6176,110.1687],[-60.1921,-25.6222,102.0],[-60.1856,-25.6203,108.4113],[-60.1887,-25.6309,107.4123],[-60.1946,-25.6405,111.0175],[-60.1948,-25.6464,106.2802],[-60.1909,-25.6498,102.1226],[-60.185,-25.652,105.4425],[-60.1813,-25.6565,105.9049],[-60.1762,-25.6572,105.8084],[-60.174,-25.6519,108.0382],[-60.1694,-25.649,104.4638],[-60.1635,-25.6487,100.5],[-60.1646,-25.6432,107.4414],[-60.1493,-25.652,106.3979],[-60.1377,-25.6553,108.1338],[-60.1257,-25.6572,101.6633],[-60.1163,-25.6566,105.3893],[-60.1149,-25.6613,100.1769],[-60.1124,-25.6636,106.7045],[-60.1034,-25.6595,101.8351],[-60.099,-25.6607,103.1101],[-60.0921,-25.6682,104.8957],[-60.0982,-25.6708,103.8912],[-60.0979,-25.6756,103.7172],[-60.092,-25.6777,107.8063],[-60.0809,-25.6761,103.0269],[-60.0697,-25.6808,106.2647],[-60.0637,-25.6811,99.0841],[-60.0582,-25.6787,105.0685],[-60.0542,-25.68,104.7249],[-60.0528,-25.6854,103.2111],[-60.0474,-25.6878,103.1485],[-60.0413,-25.6937,103.2519],[-60.0353,-25.6953,98.0],[-60.0326,-25.6994,106.3892],[-60.0387,-25.7008,103.156],[-60.0428,-25.7078,104.4666],[-60.037,-25.7084,104.8001],[-60.0354,-25.7138,101.6946],[-60.0295,-25.7153,102.5313],[-60.0195,-25.7213,100.3266],[-60.0175,-25.7262,98.3225],[-59.9938,-25.7282,98.0794],[-59.9767,-25.7435,103.274],[-59.9706,-25.7425,102.2637],[-59.9654,-25.7438,105.8937],[-59.9587,-25.7529,100.9718],[-59.9582,-25.7585,102.2444],[-59.9541,-25.7623,101.867],[-59.9251,-25.7694,107.0571],[-59.9099,-25.7866,97.2496],[-59.8829,-25.7982,105.4446],[-59.8792,-25.8028,92.5],[-59.8691,-25.8061,107.5316],[-59.8768,-25.8148,107.2389],[-59.8786,-25.8199,92.9391],[-59.8748,-25.8214,95.5608],[-59.8725,-25.8261,95.4577],[-59.8782,-25.8419,94.0897],[-59.8735,-25.8444,99.9993],[-59.8686,-25.8411,98.2144],[-59.8628,-25.840699999999998,94.6111],[-59.8582,-25.8442,99.2843],[-59.8604,-25.8482,95.1938],[-59.8508,-25.8549,104.0396],[-59.8397,-25.868,101.5386],[-59.8343,-25.8779,92.4556],[-59.8289,-25.8787,102.4473],[-59.8115,-25.8736,100.7148],[-59.8116,-25.8783,101.0785],[-59.8169,-25.8881,102.1487],[-59.814,-25.8924,104.7727],[-59.8086,-25.8922,104.6898],[-59.8026,-25.8896,104.0273],[-59.8,-25.8927,98.8917],[-59.7998,-25.8981,92.8036],[-59.7892,-25.9009,94.436],[-59.7851,-25.9042,94.5167],[-59.7848,-25.9099,90.5804],[-59.7811,-25.9143,98.1223],[-59.771,-25.9194,105.3024],[-59.7697,-25.9236,100.7275],[-59.7564,-25.9293,102.7419],[-59.7561,-25.9347,86.5],[-59.7499,-25.9354,100.9466],[-59.7488,-25.9405,86.7179],[-59.7545,-25.9506,91.514],[-59.7503,-25.9521,100.5941],[-59.7469,-25.9558,93.7059],[-59.7467,-25.9613,96.3363],[-59.744,-25.966,102.1894],[-59.7394,-25.9699,101.8096],[-59.7289,-25.9696,84.5],[-59.732,-25.9794,94.9014],[-59.7264,-25.9803,95.7347],[-59.7275,-25.9916,93.5139],[-59.7164,-25.9939,97.6717],[-59.7137,-25.9964,100.9879],[-59.706,-26.0149,91.2794],[-59.7019,-26.0121,91.1414],[-59.6887,-26.0135,89.3207],[-59.6773,-26.0087,89.8439],[-59.6707,-26.0123,83.1053],[-59.6712,-26.0158,94.9108],[-59.6755,-26.0164,96.3013],[-59.6716,-26.031,86.3618],[-59.676,-26.0399,83.2643],[-59.6728,-26.042,94.7021],[-59.6709,-26.0464,84.8911],[-59.6744,-26.0521,92.9824],[-59.6732,-26.0639,97.0509],[-59.6614,-26.0651,86.7758],[-59.666,-26.0736,84.8337],[-59.6648,-26.0776,81.5101],[-59.6664,-26.0821,96.3937],[-59.6705,-26.0851,98.4504],[-59.6743,-26.0933,79.5],[-59.6748,-26.101,80.6923],[-59.6701,-26.1103,90.1165],[-59.6749,-26.1134,85.9604],[-59.6745,-26.1172,84.8693],[-59.659,-26.121,98.6347],[-59.6526,-26.1287,85.725],[-59.6597,-26.1422,85.4445],[-59.6499,-26.1457,90.9482],[-59.6494,-26.1415,85.4672],[-59.6405,-26.1369,87.7759],[-59.6361,-26.128,80.0433],[-59.6385,-26.1172,81.662],[-59.6368,-26.1127,89.3176],[-59.6326,-26.1127,85.4031],[-59.6295,-26.1165,77.0409],[-59.6292,-26.1201,91.387],[-59.6197,-26.1223,92.2417],[-59.617,-26.1251,90.2973],[-59.6075,-26.1215,84.9788],[-59.6001,-26.123,89.0571],[-59.5986,-26.1261,90.5608],[-59.5877,-26.1257,80.9555],[-59.5827,-26.1284,77.3627],[-59.5788,-26.1311,85.0291],[-59.5807,-26.1378,83.9173],[-59.5798,-26.1436,81.4895],[-59.5769,-26.147,79.5616],[-59.5732,-26.148,85.9488],[-59.5626,-26.147,89.1242],[-59.5533,-26.1497,78.7195],[-59.5419,-26.1459,87.2713],[-59.5359,-26.1464,87.033],[-59.5342,-26.15,91.6422],[-59.5243,-26.1479,77.4813],[-59.5159,-26.1479,82.8758],[-59.5097,-26.1537,83.6064],[-59.5041,-26.1565,80.5126],[-59.5004,-26.1572,92.1844],[-59.4851,-26.1548,86.404],[-59.4858,-26.1592,85.6691],[-59.4771,-26.1592,86.1639],[-59.4724,-26.1622,83.2921],[-59.4545,-26.1515,81.5783],[-59.4279,-26.154,85.4963],[-59.4183,-26.1619,84.8376],[-59.4141,-26.1704,79.8559],[-59.4099,-26.1714,85.0464],[-59.4019,-26.1804,83.521],[-59.4097,-26.1859,82.9289],[-59.4106,-26.1936,81.9379],[-59.4158,-26.1986,82.7476],[-59.4083,-26.2099,73.0327],[-59.4049,-26.2222,83.4818],[-59.3944,-26.2409,82.9837],[-59.3893,-26.2647,84.1651],[-59.3819,-26.2614,74.6159],[-59.3792,-26.2644,81.2692],[-59.3847,-26.2763,81.4118],[-59.3852,-26.2909,76.0786],[-59.3906,-26.2941,80.654],[-59.3875,-26.2976,77.596],[-59.3869,-26.3022,75.7101],[-59.3763,-26.3103,83.176],[-59.3676,-26.3219,80.2799],[-59.3551,-26.3331,83.6705],[-59.3489,-26.3314,80.8459],[-59.337,-26.3308,79.468],[-59.3337,-26.3327,77.1502],[-59.3292,-26.3316,76.3731],[-59.326,-26.3241,72.3565],[-59.322,-26.3226,78.9996],[-59.3167,-26.3265,72.9544],[-59.3142,-26.3231,77.0087],[-59.3149,-26.3171,79.0602],[-59.3085,-26.3235,75.6472],[-59.3076,-26.3296,81.9848],[-59.3045,-26.3326,79.9779],[-59.2838,-26.342,78.26],[-59.276,-26.3439,78.6676],[-59.2673,-26.3435,77.8127],[-59.2229,-26.3327,78.7043],[-59.2113,-26.3257,76.23],[-59.192,-26.3213,78.1012],[-59.1874,-26.3173,69.2495],[-59.1851,-26.3089,67.9403],[-59.1771,-26.302,76.6257],[-59.1704,-26.2982,79.9426],[-59.158,-26.2957,82.1194],[-59.1485,-26.2897,76.4058],[-59.1405,-26.2971,81.6184],[-59.1395,-26.3009,67.0],[-59.1439,-26.3037,71.4358],[-59.1423,-26.3083,70.8699],[-59.1446,-26.3122,67.8698],[-59.1494,-26.313,73.8129],[-59.1505,-26.3164,74.1627],[-59.1148,-26.3234,71.0634],[-59.1183,-26.3287,75.8141],[-59.1177,-26.3372,66.5],[-59.1036,-26.3356,73.8204],[-59.0994,-26.3435,72.7529],[-59.0714,-26.3665,71.1264],[-59.0606,-26.369,72.8798],[-59.0533,-26.3681,71.7761],[-59.0434,-26.3635,74.6743],[-59.0235,-26.3724,71.2456],[-59.0149,-26.3736,72.859],[-59.0053,-26.3723,73.1432],[-58.9889,-26.377,74.8232],[-58.9853,-26.3805,65.6584],[-58.9623,-26.387,72.6519],[-58.9551,-26.3964,78.6418],[-58.9463,-26.4181,64.0],[-58.9356,-26.4318,72.7679],[-58.9189,-26.4455,69.5442],[-58.9142,-26.4475,63.8961],[-58.911,-26.4503,80.3616],[-58.9098,-26.454,79.5886],[-58.9027,-26.4602,67.0403],[-58.8816,-26.4682,67.0366],[-58.8725,-26.468,66.2224],[-58.8693,-26.4698,68.2752],[-58.8593,-26.487,68.2656],[-58.8592,-26.5035,75.4102],[-58.8566,-26.5067,73.4837],[-58.8519,-26.5102,75.9066],[-58.8317,-26.5187,71.1551],[-58.8208,-26.519,67.4751],[-58.8058,-26.5164,65.5965],[-58.7998,-26.5176,67.3113],[-58.8002,-26.5238,76.3975],[-58.7986,-26.5269,70.7001],[-58.7915,-26.531,73.4762],[-58.7889,-26.5375,64.4155],[-58.7801,-26.5377,69.4495],[-58.7763,-26.5395,66.4681],[-58.7789,-26.5428,73.5006],[-58.765,-26.5564,59.6894],[-58.7637,-26.5646,66.9666],[-58.7557,-26.575,60.9281],[-58.7573,-26.579,68.9811],[-58.7509,-26.5946,60.4237],[-58.7464,-26.5959,62.7828],[-58.7251,-26.5944,61.4194],[-58.7167,-26.589,61.255],[-58.7098,-26.5887,61.0099],[-58.703,-26.5843,61.3181],[-58.6962,-26.585,62.1784],[-58.6923,-26.5915,64.7832],[-58.6868,-26.607,61.911],[-58.6825,-26.6237,56.6803],[-58.6842,-26.6285,57.1173],[-58.6826,-26.633,60.3833],[-58.6702,-26.6361,60.428],[-58.6603,-26.646,59.946],[-58.6566,-26.6473,59.3946],[-58.652,-26.6517,60.1597],[-58.6411,-26.6501,60.5114],[-58.6342,-26.6511,59.3424],[-58.6216,-26.666,61.0268],[-58.6104,-26.6706,57.7951],[-58.6018,-26.6769,57.523],[-58.5806,-26.6771,57.116],[-58.5765,-26.6816,57.0144],[-58.5793,-26.6891,67.3446],[-58.5761,-26.6929,66.7259],[-58.572,-26.7086,64.0055],[-58.5625,-26.7201,61.059],[-58.5538,-26.7351,69.4804],[-58.5445,-26.7338,57.2544],[-58.5399,-26.7395,58.521],[-58.5415,-26.7479,56.8405],[-58.5381,-26.7514,66.466],[-58.5293,-26.7465,65.7472],[-58.5275,-26.7559,58.8113],[-58.523,-26.7567,57.5174],[-58.5207,-26.7504,61.5644],[-58.5163,-26.7541,65.7649],[-58.5119,-26.7675,57.0887],[-58.4968,-26.7806,62.1514],[-58.4818,-26.7807,54.7482],[-58.4791,-26.7836,54.9357],[-58.4821,-26.7893,61.3734],[-58.4858,-26.7924,58.3472],[-58.4867,-26.7958,54.0961],[-58.4746,-26.8018,56.5094],[-58.4658,-26.8025,54.8274],[-58.4618,-26.7993,55.3636],[-58.4668,-26.7891,54.3244],[-58.4655,-26.7848,54.986],[-58.4618,-26.7837,54.1711],[-58.454,-26.7884,56.1247],[-58.4507,-26.7939,52.7387],[-58.452,-26.8027,55.9279],[-58.4496,-26.8077,55.3572],[-58.4363,-26.8079,51.8492],[-58.4298,-26.799,53.2766],[-58.4265,-26.7974,53.6981],[-58.4209,-26.8045,54.7629],[-58.4201,-26.8109,52.4306],[-58.4246,-26.8183,54.0507],[-58.4187,-26.8249,55.3738],[-58.4146,-26.8269,64.0084],[-58.4112,-26.8224,53.9574],[-58.4103,-26.8091,52.911],[-58.4042,-26.8074,54.4633],[-58.4015,-26.8103,56.4252],[-58.405,-26.8234,53.1401],[-58.4051,-26.8299,53.6362],[-58.4015,-26.8324,52.2653],[-58.398,-26.8306,50.0],[-58.397,-26.8215,56.8345],[-58.3911,-26.8213,51.7979],[-58.3888,-26.825,54.2423],[-58.3889,-26.834,60.8163],[-58.3911,-26.8404,55.9251],[-58.3995,-26.8425,60.6633],[-58.4021,-26.8474,53.7018],[-58.4,-26.8516,51.9805],[-58.3876,-26.8532,59.892],[-58.3837,-26.8614,52.9673],[-58.3806,-26.8642,52.7177],[-58.376,-26.849,52.9682],[-58.3725,-26.8464,54.7588],[-58.3681,-26.8457,52.4108],[-58.3639,-26.8503,52.0026]]]]}}