{"type":"Feature","properties":{"featurecla":"River","scalerank":6,"rivernum":294,"dissolve":"294River","name":"Pilcomayo3","name_alt":null,"note":null,"min_zoom":5.0,"strokeweig":0.3,"name_en":"Pilcomayo","min_label":6.0},
"geometry":{"type": "LineString","coordinates": [[-58.723974609374991,-24.786651300005886,87.8541],[-58.716650390624991,-24.791827081255889,84.7349],[-58.708837890624991,-24.794952081255886,85.2866],[-58.70263671875,-24.79924895625588,91.2526],[-58.700122070312489,-24.80706145625588,90.8038],[-58.694921874999991,-24.811846612505889,89.2045],[-58.474169921874989,-24.85125090938088,86.3616],[-58.451513671874991,-24.861651300005889,81.3336],[-58.439257812499989,-24.87273528438088,80.1726],[-58.41552734375,-24.90300872188088,84.4355],[-58.351245117187489,-24.96843840938088,80.5798],[-58.345068359374991,-24.97820403438088,78.9929],[-58.341967773437489,-24.98601653438088,82.3466],[-58.336669921875,-24.991729425005886,82.1562],[-58.323974609375,-24.995147393755886,76.476],[-58.312744140625,-24.993487237505889,84.2905],[-58.300048828125,-24.987627862505889,84.4224],[-58.288037109375,-24.97966887813088,84.1314],[-58.259814453124989,-24.952959893755889,75.9489],[-58.2431640625,-24.94158294063088,84.4444],[-58.224853515625,-24.94109465938088,77.9365],[-58.134619140624991,-24.997881768755889,71.5283],[-58.124755859375,-25.01287200313088,72.1465],[-58.112231445312489,-25.012237237505886,72.8022],[-58.042773437499989,-25.044268487505889,78.679],[-58.032885742187489,-25.044952081255886,78.2907],[-58.010546874999989,-25.04241301875588,79.2732],[-58.001220703125,-25.044268487505889,78.1985],[-57.994311523437489,-25.05266692500588,69.504],[-57.990576171874991,-25.063995050005886,73.6145],[-57.984472656249991,-25.07415130000588,80.9076],[-57.970507812499989,-25.07830169063088,68.7865],[-57.891210937499991,-25.078643487505886,71.7781],[-57.871435546874991,-25.08513762813088,72.0535],[-57.857226562499989,-25.096709893755886,75.3845],[-57.813085937499991,-25.14348723750588,69.8217],[-57.798022460937489,-25.153838800005886,75.2304],[-57.766699218749991,-25.167803643755889,64.0979],[-57.754809570312489,-25.18084075313088,69.4292],[-57.722460937499989,-25.24602630000588,63.4075],[-57.703027343749994,-25.270830987505889,62.1914],[-57.672216796874991,-25.28997161250588,54.0]]}}