{"type":"Feature","properties":{"featurecla":"River","scalerank":6,"rivernum":294,"dissolve":"294River","name":"Pilcomayo2","name_alt":null,"note":null,"min_zoom":5.0,"strokeweig":0.25,"name_en":"Pilcomayo","min_label":6.0},
"geometry":{"type": "LineString","coordinates": [[-62.90771484375,-21.80608489375588,298.5316],[-62.914599609374989,-21.81951262813088,298.4827],[-62.91455078125,-21.82659270625588,299.7175],[-62.904296875,-21.829620050005886,301.3998],[-62.883544921875,-21.82854583125588,292.72],[-62.875244140625,-21.83049895625588,292.0974],[-62.866796874999991,-21.837237237505889,289.5],[-62.864062499999989,-21.850909112505889,290.5286],[-62.8388671875,-21.891143487505886,287.1965],[-62.832617187499991,-21.915362237505889,290.0519],[-62.831396484374991,-21.93670012813088,290.8373],[-62.82763671875,-21.959307550005889,288.187],[-62.821240234375,-21.979522393755886,285.4948],[-62.805102539062489,-22.003936456255886,279.284],[-62.802099609374991,-22.013506768755889,278.6417],[-62.795703124999989,-22.051104425005889,281.2015],[-62.795751953124991,-22.06096770625588,273.0],[-62.798510742187489,-22.06926848750588,274.6311],[-62.791796874999989,-22.08147551875588,276.6151],[-62.791601562499991,-22.11296965938088,276.6448],[-62.784228515624989,-22.13079192500588,274.8559],[-62.770068359374989,-22.144561456255886,268.0491],[-62.722753906249991,-22.166045831255886,268.1385],[-62.680029296874991,-22.194659112505889,270.3633],[-62.668139648437489,-22.20647551875588,267.492],[-62.663989257812489,-22.215362237505886,267.066],[-62.66259765625,-22.224444268755889,268.2425],[-62.659716796874989,-22.231475518755886,268.2325],[-62.651123046875,-22.234405206255886,266.7882],[-62.64111328125,-22.236163018755889,263.1033],[-62.632568359375,-22.24065520625588,261.9113],[-62.625585937499991,-22.247100518755886,257.0137],[-62.620361328125,-22.25481536250588,259.0903],[-62.627197265625,-22.25481536250588,258.3179],[-62.621020507812489,-22.26824309688088,263.4036],[-62.625,-22.27874114375588,257.716],[-62.631591796875,-22.287627862505886,256.1029],[-62.633398437499991,-22.29583098750588,255.4987],[-62.626074218749991,-22.30486419063088,255.8048],[-62.613867187499991,-22.311358331255889,258.7696],[-62.600390624999989,-22.31511809688088,253.7815],[-62.589038085937489,-22.31633880000588,254.619],[-62.5654296875,-22.32195403438088,252.4477],[-62.548388671874989,-22.335284112505889,255.5815],[-62.524169921875,-22.36467864375588,251.8528],[-62.511523437499989,-22.37004973750588,253.5251],[-62.471289062499991,-22.38176848750588,248.717],[-62.462695312499989,-22.38860442500588,249.0395],[-62.455664062499991,-22.40374114375588,246.1205],[-62.438818359374991,-22.419463800005886,245.9672],[-62.368994140624991,-22.464385675005886,243.2464],[-62.349462890624991,-22.471221612505886,248.7871],[-62.306494140624991,-22.476592706255886,238.9733],[-62.295214843749989,-22.47966887813088,237.8154],[-62.287939453124991,-22.483916925005886,239.0723],[-62.285253906249991,-22.488604425005889,237.999],[-62.284326171874994,-22.493682550005886,236.347],[-62.284521484374991,-22.504717706255889,237.1171],[-62.282177734375,-22.512041925005889,240.3719],[-62.276318359375,-22.51336028438088,239.6447],[-62.26953125,-22.51287200313088,237.6246],[-62.264086914062489,-22.51433684688088,236.383],[-62.241943359375,-22.538409112505889,232.0],[-62.233984374999991,-22.55608489375588,237.4405],[-62.239599609374991,-22.57293059688088,230.8358],[-62.253759765624991,-22.59099700313088,230.2881],[-62.253588867187489,-22.603545831255886,232.0965],[-62.240478515625,-22.613604425005889,228.0],[-62.215673828124991,-22.62420012813088,231.3657],[-62.2033203125,-22.626983331255886,231.6452],[-62.197314453124989,-22.62639739375588,231.2369],[-62.193701171874991,-22.62810637813088,226.4569],[-62.188330078124991,-22.638506768755889,227.4465],[-62.195361328124989,-22.660479425005889,229.6838],[-62.195727539062489,-22.67351653438088,228.5695],[-62.176684570312489,-22.68474700313088,226.7579],[-62.189013671874989,-22.70818450313088,225.2263],[-62.184912109374991,-22.71355559688088,224.6065],[-62.171484374999991,-22.717120050005889,224.4153],[-62.164843749999989,-22.72576262813088,223.9926],[-62.160449218749989,-22.73699309688088,224.022],[-62.154223632812489,-22.74773528438088,223.036],[-62.126953125,-22.77556731563088,220.0504],[-62.123291015625,-22.783038018755889,220.4403],[-62.120532226562489,-22.792022393755886,220.3116],[-62.116552734374991,-22.79973723750588,219.3291],[-62.109545898437489,-22.80291106563088,219.6748],[-62.108642578125,-22.806475518755889,219.2401],[-62.100024414062489,-22.81365325313088,218.8948],[-62.090087890625,-22.819854425005886,218.6308],[-62.085302734374991,-22.82000090938088,218.207],[-62.081591796874989,-22.83220794063088,218.8855],[-62.072363281249991,-22.843780206255886,217.4371],[-62.051220703125,-22.86443450313088,218.2367],[-62.036474609374991,-22.88469817500588,216.5015],[-62.017919921874991,-22.921709893755889,211.9705],[-62.0068359375,-22.93670012813088,212.0697],[-62.004492187499991,-22.94622161250588,212.0124],[-62.009692382812489,-22.96965911250588,210.3675],[-62.0068359375,-22.97429778438088,210.3262],[-62.006640624999989,-22.97869231563088,210.476],[-61.992773437499991,-22.99797942500588,209.3974],[-61.957177734374994,-23.03435637813088,208.9717],[-61.845751953124989,-23.09710051875588,205.681],[-61.837744140624991,-23.104522393755886,202.1404],[-61.815039062499991,-23.135088800005889,203.3526],[-61.80341796875,-23.144854425005889,199.6693],[-61.78076171875,-23.15667083125588,201.4202],[-61.77001953125,-23.16545989375588,200.77],[-61.75927734375,-23.177276300005886,200.4248],[-61.753027343749991,-23.18694426875588,199.7323],[-61.750244140625,-23.19866301875588,198.0479],[-61.74951171875,-23.21721770625588,198.7277],[-61.744970703124991,-23.234698175005889,198.4172],[-61.733740234374991,-23.24334075313088,198.4377],[-61.719287109374989,-23.249053643755886,196.8076],[-61.705175781249991,-23.25823333125588,195.9816],[-61.689501953124989,-23.27434661250588,196.8741],[-61.681079101562489,-23.279131768755889,198.4741],[-61.667578124999991,-23.282745050005886,196.5588],[-61.620288085937489,-23.282745050005886,195.92],[-61.605810546874991,-23.289092706255886,194.2521],[-61.555346679687489,-23.338213800005889,189.6979],[-61.546484374999991,-23.34246184688088,190.4055],[-61.534716796874989,-23.34441497188088,191.67],[-61.516772460937489,-23.344756768755886,190.4957],[-61.521582031249991,-23.35320403438088,188.5058],[-61.526220703124991,-23.364580987505889,187.8771],[-61.527026367187489,-23.37468840938088,189.2231],[-61.511083984374991,-23.384307550005886,187.6317],[-61.501757812499989,-23.407745050005886,189.0298],[-61.492529296874991,-23.413116143755886,185.9162],[-61.471044921874991,-23.41399505000588,185.4383],[-61.452685546874989,-23.417315362505889,184.6034],[-61.436450195312489,-23.42351653438088,184.6519],[-61.421191406249989,-23.43352630000588,184.1895],[-61.409472656249989,-23.443389581255886,183.9665],[-61.3994140625,-23.44988372188088,183.2173],[-61.385595703124991,-23.45354583125588,182.8908],[-61.362548828125,-23.454620050005886,184.6007],[-61.297656249999989,-23.48137786250588,181.6666],[-61.289721679687489,-23.49407317500588,179.3654],[-61.28369140625,-23.509795831255886,178.5648],[-61.273364257812489,-23.52337005000588,179.9005],[-61.252685546875,-23.529131768755889,177.7794],[-61.243701171874989,-23.533038018755889,176.1398],[-61.224291992187489,-23.55120208125588,174.8806],[-61.215136718749989,-23.55706145625588,174.4622],[-61.208422851562489,-23.557452081255889,173.3689],[-61.188403320312489,-23.55608489375588,174.2854],[-61.181005859374991,-23.55706145625588,173.343],[-61.168554687499991,-23.566436456255886,172.8983],[-61.155200195312489,-23.58025481563088,171.3209],[-61.140234374999991,-23.592608331255889,170.7353],[-61.122998046875,-23.59807708125588,171.011],[-61.110595703125,-23.60686614375588,169.1506],[-61.106982421874989,-23.626983331255886,170.7056],[-61.110522460937489,-23.64983489375588,169.1576],[-61.119580078125,-23.666338800005889,166.1831],[-61.1103515625,-23.67546965938088,167.7753],[-61.09326171875,-23.701690362505886,164.9458],[-61.066943359374989,-23.71550872188088,165.2537],[-61.050708007812489,-23.73455169063088,164.1358],[-61.038818359375,-23.75530364375588,166.4485],[-61.036962890624991,-23.76873137813088,166.5217],[-61.03095703125,-23.774444268755886,166.9112],[-61.016455078124991,-23.796709893755889,162.0983],[-61.007080078125,-23.80535247188088,161.8153],[-60.9755859375,-23.82390715938088,163.4325],[-60.937426757812489,-23.813799737505889,163.6374],[-60.900683593749989,-23.830401300005889,162.5565],[-60.867041015624991,-23.85588958125588,160.6077],[-60.83837890625,-23.87175872188088,159.8772],[-60.817626953125,-23.87395598750588,159.7908],[-60.730029296874989,-23.872100518755886,156.2113],[-60.720556640624991,-23.875030206255886,156.9004],[-60.700122070312489,-23.891143487505886,155.3567],[-60.6904296875,-23.893584893755886,154.7979],[-60.644384765624991,-23.89128997188088,151.4139],[-60.632910156249991,-23.89226653438088,151.3996],[-60.621875,-23.89568450313088,152.1883],[-60.604589843749991,-23.904620050005889,152.3699],[-60.595385742187489,-23.906573175005889,151.7946],[-60.594335937499991,-23.912139581255886,151.752],[-60.5783203125,-23.94402434688088,150.1092],[-60.5724609375,-23.94597747188088,149.6042],[-60.53671875,-23.94744231563088,147.7048],[-60.518408203124991,-23.95574309688088,146.8216],[-60.485595703125,-23.977373956255889,144.4125],[-60.423779296875,-23.98845794063088,142.3633],[-60.38818359375,-23.987139581255889,143.334],[-60.379003906249991,-23.98845794063088,143.2253],[-60.368261718749991,-23.99456145625588,141.7009],[-60.348803710937489,-24.01067473750588,139.1765],[-60.338134765625,-24.016436456255889,139.3182],[-60.328710937499991,-24.017901300005889,138.8487],[-60.297119140625,-24.016436456255889,136.492],[-60.218847656249991,-24.02727630000588,134.9515],[-60.143969726562489,-24.02507903438088,130.7323],[-60.120043945312489,-24.02019622188088,129.908],[-60.073095703124991,-24.004717706255889,129.0921],[-60.052490234375,-24.00286223750588,129.3613],[-60.034423828125,-24.006866143755886,128.0656],[-59.674365234374989,-24.225420831255889,119.1303],[-59.636035156249989,-24.261260675005886,115.8614],[-59.618457031249989,-24.28337981563088,115.3554],[-59.611279296875,-24.28948333125588,115.5939],[-59.601245117187489,-24.292803643755889,116.1235],[-59.576171875,-24.29583098750588,115.7021],[-59.559179687499991,-24.30535247188088,115.4397],[-59.540698242187489,-24.30877044063088,114.7401],[-59.532763671874989,-24.313995050005886,114.775],[-59.521899414062489,-24.32488372188088,114.5701],[-59.511157226562489,-24.332549737505886,113.0798],[-59.488378906249991,-24.34465911250588,112.2607],[-59.466650390624991,-24.35344817500588,110.3287],[-59.46044921875,-24.35833098750588,111.5562],[-59.456958007812489,-24.36541106563088,111.3867],[-59.45458984375,-24.374541925005886,110.3454],[-59.451025390624991,-24.382354425005886,109.0957],[-59.426806640624989,-24.39251067500588,109.189],[-59.387792968749991,-24.42376067500588,106.76],[-59.378515624999991,-24.43352630000588,109.6064],[-59.358154296875,-24.46892669063088,108.248],[-59.341650390624991,-24.48748137813088,107.9439],[-59.308837890625,-24.49871184688088,102.6165],[-59.295825195312489,-24.51287200313088,104.4662],[-59.286376953125,-24.51604583125588,108.9171],[-59.271166992187489,-24.518096612505886,106.6803],[-59.263842773437489,-24.52337005000588,100.4147],[-59.258398437499991,-24.530108331255889,101.2077],[-59.248779296875,-24.537139581255886,107.3786],[-59.207177734374994,-24.55022551875588,105.2062],[-59.178637695312489,-24.568682550005889,105.1659],[-59.155078124999989,-24.576202081255886,102.8288],[-59.117724609374989,-24.59880950313088,95.1882],[-59.097949218749989,-24.60540130000588,103.3661],[-59.0791015625,-24.605498956255886,101.4169],[-59.072924804687489,-24.606768487505889,98.2922],[-59.063232421875,-24.61223723750588,100.4245],[-59.043066406249991,-24.63054778438088,99.4617],[-59.0333984375,-24.637041925005889,97.405],[-59.001708984375,-24.644073175005886,99.1658],[-58.809912109374991,-24.77678801875588,90.1006],[-58.7892578125,-24.781573175005889,87.804],[-58.738208007812489,-24.782745050005886,90.3037],[-58.723974609374991,-24.786651300005886,87.8541]]}}