{"type": "Feature","bbox": [-60.459,-33.6746,-60.1629,-33.2601],"geometry": {"type": "MultiPolygon","coordinates": [[[[-60.3127,-33.6534,41.242],[-60.31,-33.6475,40.1324],[-60.2989,-33.6336,38.993],[-60.2836,-33.6191,38.8177],[-60.2792,-33.616,39.5859],[-60.2656,-33.6136,36.3031],[-60.2633,-33.6113,36.9425],[-60.2542,-33.6122,36.0521],[-60.2469,-33.6098,35.1383],[-60.2335,-33.5944,32.3442],[-60.2275,-33.5819,31.8594],[-60.222,-33.5789,31.7818],[-60.2173,-33.5784,31.0281],[-60.215,-33.5747,30.4838],[-60.2144,-33.5692,30.6672],[-60.1974,-33.533,26.8415],[-60.1831,-33.5179,26.2065],[-60.1818,-33.5125,27.2135],[-60.1744,-33.5081,25.8124],[-60.1722,-33.5026,26.2152],[-60.1656,-33.4969,23.2847],[-60.1638,-33.4915,23.7828],[-60.1629,-33.4736,22.6729],[-60.1658,-33.4714,22.7034],[-60.1708,-33.4714,22.4201],[-60.1762,-33.4662,20.5604],[-60.1773,-33.462,19.9014],[-60.1868,-33.4583,19.5921],[-60.1911,-33.4517,19.3228],[-60.1933,-33.4431,16.9301],[-60.1916,-33.4352,18.3404],[-60.1876,-33.432,20.4517],[-60.1891,-33.4146,13.4728],[-60.1872,-33.4064,16.4038],[-60.1762,-33.3914,8.7963],[-60.1738,-33.3822,15.2514],[-60.1739,-33.3737,8.4555],[-60.1691,-33.3584,3.8146],[-60.1707,-33.3478,1.0],[-60.1847,-33.3394,1.125],[-60.1884,-33.3345,1.5],[-60.1904,-33.3287,1.5],[-60.1908,-33.3109,1.0],[-60.2013,-33.289,1.5],[-60.228,-33.2697,4.4773],[-60.2499,-33.2601,1.5],[-60.2562,-33.2691,1.5],[-60.2628,-33.2686,7.1095],[-60.2665,-33.2701,9.9271],[-60.2657,-33.2829,6.3702],[-60.2809,-33.3085,18.2924],[-60.2828,-33.3141,13.9075],[-60.2828,-33.32,19.7388],[-60.2917,-33.3248,20.3988],[-60.3006,-33.3337,20.9917],[-60.3076,-33.3355,21.6108],[-60.3119,-33.3396,23.3246],[-60.3184,-33.3503,23.7278],[-60.3195,-33.3561,23.6039],[-60.3223,-33.3581,24.3898],[-60.3223,-33.3634,23.363],[-60.3183,-33.3748,25.6033],[-60.32,-33.3807,24.8834],[-60.3278,-33.397,29.5486],[-60.3404,-33.4147,26.5775],[-60.3505,-33.4229,28.5498],[-60.3604,-33.4255,28.5701],[-60.3681,-33.4317,29.0339],[-60.3717,-33.4318,29.51],[-60.3812,-33.4402,29.8218],[-60.3883,-33.4417,30.5548],[-60.3944,-33.452,29.6154],[-60.4011,-33.4543,37.0081],[-60.4055,-33.4589,34.1005],[-60.4162,-33.4902,33.1422],[-60.4203,-33.5076,34.3498],[-60.4207,-33.5253,34.6742],[-60.4149,-33.5423,36.7473],[-60.4153,-33.5483,34.5374],[-60.4229,-33.5584,41.0029],[-60.436,-33.5617,44.1684],[-60.4416,-33.5655,43.85],[-60.4535,-33.5765,39.9509],[-60.458,-33.5841,38.1455],[-60.459,-33.594,39.1097],[-60.4282,-33.6163,53.8659],[-60.4242,-33.6114,51.4378],[-60.3903,-33.6363,53.4079],[-60.3837,-33.6314,53.2448],[-60.3269,-33.6746,42.5462],[-60.3193,-33.6605,41.5645],[-60.3127,-33.6534,41.242]]]]}
,"properties": {"GID_2": "ARG.1.111_1","GID_0": "ARG","country": "Argentina","GID_1": "ARG.1_1","state": "BuenosAires","NL_NAME_1": "NA","county": "SanNicolás","VARNAME_2": "SanNicolásdelosArroyo","NL_NAME_2": "NA","TYPE_2": "Partido","ENGTYPE_2": "Part","CC_2": "NA","HASC_2": "AR.BA.SN","name": "SanNicolás.county","area_km2": 666.2313,"hist_schema_id": "Elevation0-9000","hist_area_km2": {"0": 32.8362,"25": 275.1667,"50": 358.193,"75": 0.0353}}}