{"type": "Feature","bbox": [-66.1623,-27.0955,-65.6179,-26.2181],"geometry": {"type": "MultiPolygon","coordinates": [[[[-65.8871,-26.9543,4444.1523],[-65.8718,-26.9719,4150.0039],[-65.8662,-26.9743,3800.3206],[-65.8612,-26.9829,3468.1941],[-65.8534,-26.9895,3360.2119],[-65.8493,-26.9963,3283.3684],[-65.844,-26.9996,3329.1145],[-65.8397,-27.0062,2972.1514],[-65.8208,-27.0246,2670.2388],[-65.8166,-27.0313,2444.2583],[-65.8074,-27.039,1966.5455],[-65.807,-27.0447,2178.3438],[-65.8129,-27.0503,2076.0142],[-65.8129,-27.0523,2036.0775],[-65.7968,-27.0618,1859.278],[-65.7956,-27.0672,1766.1445],[-65.7903,-27.0704,1810.0137],[-65.7864,-27.0753,1631.6172],[-65.7908,-27.0788,1706.0433],[-65.7898,-27.0823,1678.4337],[-65.7854,-27.0865,1513.6096],[-65.7887,-27.0882,1550.3058],[-65.7882,-27.0901,1575.1067],[-65.7766,-27.0955,1201.0933],[-65.7747,-27.0954,1202.7196],[-65.7678,-27.0881,1295.796],[-65.7613,-27.0875,1529.3009],[-65.7584,-27.085,1455.5109],[-65.7671,-27.0614,1673.8865],[-65.7655,-27.0426,1745.2812],[-65.7577,-27.0393,1962.4902],[-65.7507,-27.032,2289.877],[-65.723,-27.0303,1832.9569],[-65.7211,-27.027,1946.5999],[-65.7267,-27.0212,2039.5796],[-65.727,-27.0156,2189.1787],[-65.7172,-27.0009,2554.0098],[-65.6956,-26.9796,2343.7876],[-65.6936,-26.9742,2540.1938],[-65.6939,-26.9684,2558.9136],[-65.6893,-26.9576,2267.0479],[-65.6804,-26.9523,2211.0427],[-65.6635,-26.9534,1804.9938],[-65.6467,-26.9448,1956.7961],[-65.6442,-26.9417,1893.1604],[-65.6446,-26.9341,1853.6279],[-65.6505,-26.9261,1943.4135],[-65.6534,-26.909,2271.2097],[-65.6473,-26.899,2494.7505],[-65.6453,-26.8895,2593.0081],[-65.6438,-26.8884,2550.4429],[-65.6334,-26.8898,2604.6897],[-65.6266,-26.88,2707.9504],[-65.6231,-26.867,2751.6077],[-65.6226,-26.8535,3064.1353],[-65.6185,-26.8405,3083.6479],[-65.6179,-26.827,2867.7144],[-65.621,-26.8251,3095.7856],[-65.649,-26.8263,2857.9038],[-65.6545,-26.8319,2612.3254],[-65.6524,-26.819,2844.4011],[-65.654,-26.8061,2796.2856],[-65.6505,-26.797,2748.6509],[-65.6505,-26.7817,2634.9058],[-65.6451,-26.7631,2416.6711],[-65.6465,-26.7556,2427.2349],[-65.6516,-26.7494,2641.4465],[-65.6579,-26.7483,2629.4373],[-65.6634,-26.7428,2922.0376],[-65.6822,-26.7335,3353.9709],[-65.6926,-26.7316,3815.771],[-65.7004,-26.7331,3922.4431],[-65.7016,-26.7235,4191.3579],[-65.6971,-26.7148,4451.0659],[-65.6983,-26.7092,4490.5234],[-65.712,-26.6944,4389.6963],[-65.7334,-26.6815,4406.8623],[-65.7418,-26.6703,4338.7632],[-65.7437,-26.6608,4325.6797],[-65.7438,-26.6512,4338.8345],[-65.7386,-26.6167,4636.9062],[-65.7376,-26.6151,4650.6152],[-65.7326,-26.6183,4643.7183],[-65.7263,-26.62,4650.8164],[-65.7247,-26.6191,4634.9746],[-65.7295,-26.6065,4551.5459],[-65.7314,-26.5951,4387.8291],[-65.7206,-26.5787,4154.1719],[-65.7203,-26.5595,3898.061],[-65.716,-26.5528,3998.5405],[-65.7134,-26.5435,3990.9216],[-65.714,-26.5397,3860.8176],[-65.7166,-26.5373,3911.8965],[-65.7165,-26.5337,3949.1868],[-65.7085,-26.5366,3715.6311],[-65.7057,-26.5348,3816.5618],[-65.7089,-26.5234,3893.7681],[-65.709,-26.5177,3667.0312],[-65.7075,-26.5101,3793.4341],[-65.7032,-26.5034,3890.7417],[-65.704,-26.4957,4039.6182],[-65.7015,-26.4904,3871.4634],[-65.7008,-26.4827,3742.4277],[-65.7066,-26.4746,3692.709],[-65.7077,-26.469,3716.5562],[-65.7121,-26.4624,3714.6729],[-65.7106,-26.4529,3482.5674],[-65.7115,-26.4452,3215.678],[-65.721,-26.4239,3485.198],[-65.7208,-26.42,3403.3853],[-65.7149,-26.4098,3507.3962],[-65.7226,-26.3983,3599.2976],[-65.7253,-26.387,3677.7178],[-65.7245,-26.3833,3634.1758],[-65.7195,-26.3772,3558.2483],[-65.7109,-26.3565,3558.4358],[-65.8339,-26.3081,1821.6704],[-65.9237,-26.2759,1642.4597],[-66.0337,-26.2316,3117.917],[-66.041,-26.2347,3201.6382],[-66.0448,-26.2309,2887.6987],[-66.0629,-26.2282,3060.7375],[-66.0838,-26.2181,3949.23],[-66.0854,-26.2351,3606.3262],[-66.0797,-26.2444,3860.3098],[-66.0784,-26.255,4093.6704],[-66.0811,-26.2626,3886.5986],[-66.0936,-26.2688,3630.0811],[-66.1037,-26.2769,3613.4248],[-66.1012,-26.3238,3974.4463],[-66.099,-26.3386,3975.999],[-66.1014,-26.3508,3934.5042],[-66.1136,-26.3754,4202.8354],[-66.1111,-26.3871,4128.6807],[-66.1033,-26.3955,3843.249],[-66.1389,-26.3996,4071.2593],[-66.1488,-26.4043,4474.3906],[-66.1408,-26.441,3861.2148],[-66.1475,-26.444,4168.2441],[-66.153,-26.4492,4218.4307],[-66.1572,-26.4573,4113.9624],[-66.16,-26.4685,3985.8135],[-66.1555,-26.4758,3828.2065],[-66.1538,-26.4849,3231.7903],[-66.1504,-26.492,3433.0522],[-66.1505,-26.4972,3704.4065],[-66.1576,-26.5181,3837.2129],[-66.1556,-26.5283,3717.4983],[-66.1567,-26.5724,3223.8523],[-66.1623,-26.5875,3159.2932],[-66.1597,-26.5951,3167.5042],[-66.1531,-26.6046,3386.9368],[-66.1458,-26.6102,3038.21],[-66.1184,-26.6131,2311.7539],[-66.0607,-26.6147,1963.3281],[-66.0545,-26.6201,1836.7178],[-66.0003,-26.649,1899.838],[-65.9851,-26.66,1922.5914],[-65.9553,-26.6895,2129.7173],[-65.9223,-26.7113,2514.2222],[-65.8872,-26.7273,3283.4443],[-65.8735,-26.7359,3354.293],[-65.8608,-26.7486,3582.646],[-65.854,-26.7617,3901.2192],[-65.8535,-26.7712,3927.605],[-65.8577,-26.7823,4010.7532],[-65.8646,-26.7914,4082.6875],[-65.8745,-26.8225,4141.0713],[-65.8938,-26.829,4080.28],[-65.898,-26.8355,4079.897],[-65.8983,-26.8413,4063.8774],[-65.8934,-26.8454,4077.7693],[-65.8922,-26.8516,4059.0713],[-65.8971,-26.8681,4055.2988],[-65.8824,-26.8742,4078.9124],[-65.8758,-26.8816,4195.0176],[-65.8701,-26.8941,4324.7588],[-65.8576,-26.905,4458.311],[-65.8587,-26.9287,4553.0312],[-65.8694,-26.9311,4418.9268],[-65.8749,-26.9433,4213.6216],[-65.884,-26.9497,4405.77],[-65.8871,-26.9543,4444.1523]]]]}
,"properties": {"GID_2": "ARG.24.14_1","GID_0": "ARG","country": "Argentina","GID_1": "ARG.24_1","state": "Tucumán","NL_NAME_1": "NA","county": "TafídelValle","VARNAME_2": "NA","NL_NAME_2": "NA","TYPE_2": "Departamento","ENGTYPE_2": "Department","CC_2": "NA","HASC_2": "AR.TM.TD","name": "TafídelValle.county","area_km2": 2563.845,"hist_schema_id": "Elevation0-9000","hist_area_km2": {"1175": 0.189,"1200": 0.151,"1225": 0.245,"1250": 0.34,"1275": 0.434,"1300": 0.68,"1325": 0.472,"1350": 0.755,"1375": 0.68,"1400": 0.925,"1425": 0.623,"1450": 1.038,"1475": 1.133,"1500": 1.076,"1525": 1.246,"1550": 0.887,"1575": 1.209,"1600": 0.887,"1625": 1.039,"1650": 17.176,"1675": 36.823,"1700": 41.997,"1725": 57.252,"1750": 54.219,"1775": 70.453,"1800": 66.016,"1825": 65.871,"1850": 57.578,"1875": 60.19,"1900": 56.44,"1925": 51.358,"1950": 54.627,"1975": 48.821,"2000": 41.407,"2025": 40.172,"2050": 38.614,"2075": 35.791,"2100": 34.024,"2125": 31.75,"2150": 31.994,"2175": 31.574,"2200": 32.082,"2225": 32.229,"2250": 31.847,"2275": 29.764,"2300": 28.52,"2325": 27.575,"2350": 24.388,"2375": 24.73,"2400": 24.502,"2425": 23.329,"2450": 23.104,"2475": 21.511,"2500": 20.942,"2525": 20.905,"2550": 20.338,"2575": 20.414,"2600": 19.483,"2625": 19.674,"2650": 19.142,"2675": 19.236,"2700": 20.56,"2725": 20.77,"2750": 19.841,"2775": 20.773,"2800": 20.583,"2825": 19.729,"2850": 19.273,"2875": 19.808,"2900": 19.009,"2925": 19.501,"2950": 18.859,"2975": 18.554,"3000": 19.579,"3025": 18.386,"3050": 19.598,"3075": 18.65,"3100": 18.747,"3125": 19.032,"3150": 18.918,"3175": 17.692,"3200": 17.669,"3225": 18.051,"3250": 17.745,"3275": 17.936,"3300": 18.032,"3325": 18.163,"3350": 18.392,"3375": 18.601,"3400": 18.393,"3425": 17.009,"3450": 17.673,"3475": 18.225,"3500": 16.216,"3525": 15.797,"3550": 15.645,"3575": 17.005,"3600": 18.271,"3625": 16.453,"3650": 15.866,"3675": 14.291,"3700": 14.065,"3725": 13.968,"3750": 13.325,"3775": 12.528,"3800": 11.485,"3825": 10.084,"3850": 10.347,"3875": 10.12,"3900": 10.288,"3925": 10.553,"3950": 10.287,"3975": 10.228,"4000": 11.591,"4025": 11.174,"4050": 10.566,"4075": 12.571,"4100": 9.6,"4125": 8.638,"4150": 7.559,"4175": 7.01,"4200": 6.553,"4225": 6.496,"4250": 6.136,"4275": 6.325,"4300": 6.552,"4325": 8.107,"4350": 8.752,"4375": 7.859,"4400": 6.666,"4425": 6.06,"4450": 5.795,"4475": 4.925,"4500": 3.183,"4525": 3.258,"4550": 2.349,"4575": 1.763,"4600": 0.701,"4625": 0.645,"4650": 0.284,"4675": 0.19,"4725": 0.057}}}