{"type":"Feature","properties":{"GID_2":"ARG.1.66_1","GID_0":"ARG","country":"Argentina","GID_1":"ARG.1_1","state":"BuenosAires","NL_NAME_1":"NA","county":"LasFlores","VARNAME_2":"NA","NL_NAME_2":"NA","TYPE_2":"Partido","ENGTYPE_2":"Part","CC_2":"NA","HASC_2":"AR.BA.LF","name":"LasFlores.county"},
"geometry":{"type": "MultiPolygon","coordinates": [[[[-59.293,-36.3815,57.7144],[-59.2823,-36.375,56.65],[-59.2772,-36.3684,55.8084],[-59.2698,-36.3648,56.4772],[-59.263,-36.3582,55.1245],[-59.2543,-36.3551,55.1698],[-59.2261,-36.3332,53.1935],[-59.214,-36.3258,51.7776],[-59.2075,-36.3237,51.2659],[-59.2045,-36.3196,50.935],[-59.1946,-36.3177,50.1405],[-59.1771,-36.308,49.02],[-59.1703,-36.3013,48.3864],[-59.1651,-36.3013,48.1905],[-59.1299,-36.287,46.1824],[-59.1229,-36.2875,45.9171],[-59.1045,-36.2762,44.3783],[-59.1019,-36.2739,44.2305],[-59.1079,-36.268,44.3296],[-59.1104,-36.2603,44.0436],[-59.1088,-36.256,43.6642],[-59.092,-36.2416,43.1946],[-59.086,-36.2408,42.7973],[-59.0736,-36.2286,42.2188],[-59.0681,-36.2272,41.9603],[-59.0643,-36.2242,41.7517],[-59.0558,-36.2241,41.8197],[-59.0478,-36.221,43.6894],[-59.0342,-36.2205,41.4048],[-59.0196,-36.2132,39.6559],[-59.0135,-36.2129,38.9476],[-58.9931,-36.2033,38.2284],[-58.9847,-36.2033,38.0581],[-58.9784,-36.1993,37.1692],[-58.9739,-36.2009,37.9587],[-58.9535,-36.2022,36.4057],[-58.9474,-36.199,35.6451],[-58.9452,-36.1952,35.5324],[-58.9295,-36.191,34.9608],[-58.9225,-36.1876,34.0144],[-58.9155,-36.1794,33.3952],[-58.903,-36.1738,33.0087],[-58.8997,-36.1697,32.8093],[-58.8917,-36.1663,32.2329],[-58.8882,-36.1625,31.8413],[-58.868899999999996,-36.1587,31.1351],[-58.8649,-36.1555,30.8158],[-58.8503,-36.1538,30.1437],[-58.839,-36.1469,29.278],[-58.8363,-36.1414,28.667],[-58.8339,-36.1286,28.2837],[-58.8288,-36.1167,27.5368],[-58.8202,-36.1156,27.7074],[-58.8078,-36.1111,27.0255],[-58.7992,-36.1006,26.0433],[-58.8028,-36.0972,25.9565],[-58.7122,-36.0198,24.361],[-58.7554,-35.9868,24.1258],[-58.7352,-35.9707,23.6436],[-58.8959,-35.8427,23.6887],[-58.9034,-35.8489,23.6863],[-58.9624,-35.8059,23.4475],[-58.9794,-35.819,22.7159],[-58.9907,-35.8084,23.4993],[-58.9895,-35.8053,23.9765],[-59.0258,-35.776,23.3466],[-59.0232,-35.7728,23.9769],[-59.1109,-35.6992,23.131],[-59.1079,-35.6963,22.9214],[-59.1484,-35.6632,22.1028],[-59.1483,-35.6665,22.5419],[-59.1351,-35.6784,22.1102],[-59.1348,-35.6882,22.6414],[-59.1305,-35.6969,22.6603],[-59.1382,-35.6994,23.0379],[-59.1415,-35.704,23.1845],[-59.1486,-35.7043,23.098],[-59.1546,-35.7122,23.1564],[-59.1627,-35.7092,24.1386],[-59.1717,-35.7123,23.9549],[-59.1773,-35.719,24.0779],[-59.1811,-35.7251,23.7614],[-59.1817,-35.7294,23.9247],[-59.1788,-35.7483,23.7671],[-59.181,-35.7546,23.9067],[-59.1894,-35.7666,24.5043],[-59.2051,-35.7737,24.927],[-59.2309,-35.7823,25.2322],[-59.2362,-35.7862,25.2565],[-59.2382,-35.7905,25.1116],[-59.2528,-35.7961,24.9777],[-59.2599,-35.795,25.7764],[-59.2635,-35.797,25.4784],[-59.2836,-35.7964,25.879],[-59.2935,-35.8006,26.1158],[-59.3071,-35.801,26.7475],[-59.3172,-35.8085,26.9123],[-59.3187,-35.8118,26.7495],[-59.325,-35.811,26.8987],[-59.3399,-35.8031,27.6681],[-59.3475,-35.807,27.8107],[-59.3512,-35.811,28.5557],[-59.358,-35.8116,27.8374],[-59.3818,-35.8205,28.1748],[-59.3937,-35.8141,28.6826],[-59.3976,-35.81,28.7849],[-59.407,-35.808,29.7606],[-59.4122,-35.8108,30.5456],[-59.4205,-35.8068,29.4264],[-59.4295,-35.8088,29.8341],[-59.4455,-35.8095,29.6687],[-59.4582,-35.8161,30.4481],[-59.465,-35.8158,30.2155],[-59.466,-35.8112,30.6215],[-59.4803,-35.8158,32.1315],[-59.4813,-35.8206,31.6461],[-59.4844,-35.8227,31.0334],[-59.5035,-35.8231,31.6754],[-59.5126,-35.8264,32.3536],[-59.5172,-35.8306,31.8806],[-59.523,-35.8332,32.7682],[-59.5357,-35.8342,33.6821],[-59.5408,-35.8398,33.1218],[-59.5451,-35.841,33.0832],[-59.5473,-35.8443,33.1366],[-59.5519,-35.845,33.4099],[-59.5568,-35.849,33.7225],[-59.5665,-35.8512,33.0789],[-59.5672,-35.8564,33.5914],[-59.5941,-35.8609,35.0514],[-59.5983,-35.8573,34.9346],[-59.6097,-35.8613,36.8511],[-59.6245,-35.859,36.0937],[-59.6519,-35.866,36.4728],[-59.6719,-35.8537,37.6201],[-59.679,-35.8472,37.4768],[-59.6831,-35.84,37.3706],[-59.6965,-35.8347,38.1893],[-59.7065,-35.8377,39.5825],[-59.5229,-35.9801,41.8866],[-59.5577,-36.0099,45.6115],[-59.3868,-36.1376,50.0249],[-59.4909,-36.2309,61.0691],[-59.293,-36.3815,57.7144]]]]}}