{"type":"Feature","properties":{"GID_2":"ARG.7.17_1","GID_0":"ARG","country":"Argentina","GID_1":"ARG.7_1","state":"Corrientes","NL_NAME_1":"NA","county":"PasodelosLibres","VARNAME_2":"NA","NL_NAME_2":"NA","TYPE_2":"Departamento","ENGTYPE_2":"Department","CC_2":"NA","HASC_2":"AR.CN.PL","name":"PasodelosLibres.county"},
"geometry":{"type": "MultiPolygon","coordinates": [[[[-57.6811,-30.0183,43.5585],[-57.6753,-30.023,53.6718],[-57.6478,-30.0294,45.435],[-57.6315,-30.0307,49.8423],[-57.5995,-30.0253,43.8228],[-57.5903,-30.0319,43.1822],[-57.5883,-30.0387,42.9322],[-57.5875,-30.0494,41.3704],[-57.5889,-30.0525,41.0265],[-57.5968,-30.0542,39.9876],[-57.6119,-30.0661,46.1204],[-57.6092,-30.0725,43.8841],[-57.601,-30.0714,43.5838],[-57.5932,-30.0731,43.5157],[-57.5877,-30.0782,43.0464],[-57.5891,-30.0817,41.8619],[-57.5953,-30.0861,39.6785],[-57.6108,-30.0905,38.7252],[-57.6176,-30.0945,40.4784],[-57.6251,-30.1029,42.7176],[-57.6326,-30.1156,44.5971],[-57.6364,-30.1257,44.0389],[-57.6377,-30.1399,42.806],[-57.6347,-30.1502,40.952],[-57.631,-30.1564,38.8958],[-57.6313,-30.1599,39.0941],[-57.6454,-30.1669,40.417],[-57.6529,-30.1644,48.6093],[-57.6651,-30.1646,52.2534],[-57.6676,-30.1713,41.5742],[-57.665,-30.174,41.2605],[-57.6536,-30.1775,40.8106],[-57.6446,-30.1848,36.0],[-57.6415,-30.1801,36.0],[-57.6342,-30.1766,36.0],[-57.618,-30.1792,36.5],[-57.5929,-30.1765,36.5],[-57.5597,-30.1683,37.0],[-57.5048,-30.1431,37.5],[-57.4667,-30.1158,38.0],[-57.4577,-30.1067,38.0],[-57.4424,-30.0739,38.5],[-57.412,-30.0407,40.5802],[-57.4007,-30.0319,42.6884],[-57.3815,-30.0206,39.5],[-57.3585,-30.0125,39.5],[-57.3467,-30.006,40.0],[-57.342,-30.0012,40.0],[-57.3286,-29.9818,40.0],[-57.3212,-29.9561,40.5],[-57.3193,-29.9165,44.7287],[-57.322,-29.8861,47.1419],[-57.3183,-29.8676,41.0],[-57.3065,-29.8489,41.0],[-57.2828,-29.8199,41.0],[-57.2529,-29.7915,41.5],[-57.236,-29.7784,41.5],[-57.2179,-29.773,41.5],[-57.164,-29.7752,41.5],[-57.1364,-29.7658,42.0],[-57.1045,-29.749,42.0],[-57.0556,-29.7041,42.0],[-57.0432,-29.6902,42.0],[-57.0194,-29.657,45.1661],[-56.9889,-29.6401,47.6339],[-56.9788,-29.6365,47.8872],[-56.9726,-29.6359,51.7073],[-56.9709,-29.6374,55.7844],[-56.967,-29.6237,45.5162],[-56.9705,-29.6059,42.0],[-56.9594,-29.5919,42.0],[-56.9003,-29.5378,43.0],[-56.8928,-29.5231,45.1901],[-56.8846,-29.5143,46.1916],[-56.8738,-29.5086,43.5],[-56.8664,-29.5076,43.5],[-56.8556,-29.5003,46.3508],[-56.8567,-29.4882,49.4445],[-56.8547,-29.4815,50.2947],[-56.856,-29.4783,52.4736],[-56.8592,-29.4762,50.0621],[-56.8633,-29.4759,51.1862],[-56.8669,-29.4659,44.7381],[-56.8689,-29.4629,44.6211],[-56.8759,-29.4593,49.3707],[-56.8769,-29.4559,51.1015],[-56.8705,-29.4429,46.2167],[-56.8654,-29.4184,77.1194],[-56.8724,-29.3804,51.6039],[-56.8693,-29.3664,50.2251],[-56.8655,-29.3169,51.9324],[-56.8663,-29.3026,58.2326],[-56.8708,-29.2781,63.7011],[-56.8635,-29.236,55.6594],[-56.864,-29.2253,55.6201],[-56.8664,-29.2186,55.0904],[-56.8724,-29.2138,55.7877],[-56.8901,-29.2053,56.3686],[-56.9063,-29.2048,57.3949],[-56.9418,-29.2115,59.0418],[-56.9619,-29.2089,60.1187],[-56.9773,-29.2047,61.0535],[-57.0039,-29.2132,64.5971],[-57.0238,-29.2164,66.2734],[-57.0385,-29.2223,67.4288],[-57.051,-29.2314,68.8217],[-57.0617,-29.2364,68.9646],[-57.1254,-29.2575,70.277],[-57.1535,-29.2407,70.7451],[-57.3324,-29.2419,69.4998],[-57.3526,-29.2399,68.0379],[-57.3923,-29.2329,65.7369],[-57.4125,-29.2329,63.9675],[-57.4318,-29.2275,63.8169],[-57.4497,-29.2194,65.7486],[-57.4649,-29.2076,65.0383],[-57.4794,-29.1905,64.9023],[-57.4899,-29.1855,57.8296],[-57.5182,-29.1859,55.4681],[-57.5374,-29.1902,62.9866],[-57.5542,-29.2137,58.9367],[-57.5545,-29.2208,56.0353],[-57.5514,-29.2383,55.324],[-57.5522,-29.2454,55.2339],[-57.5568,-29.2591,55.5574],[-57.5623,-29.2685,55.339],[-57.5751,-29.2822,58.6438],[-57.5759,-29.2928,55.8683],[-57.5783,-29.2994,59.2388],[-57.5754,-29.3099,55.2541],[-57.5808,-29.3232,58.1695],[-57.57,-29.3335,54.6258],[-57.5692,-29.337,54.6415],[-57.5736,-29.3428,54.5282],[-57.5729,-29.3461,54.1824],[-57.5551,-29.3535,54.8704],[-57.5475,-29.37,54.1357],[-57.5471,-29.3806,53.7298],[-57.5501,-29.3829,56.1387],[-57.5512,-29.3862,60.0274],[-57.5499,-29.3932,58.7275],[-57.5444,-29.4027,57.966],[-57.5488,-29.4126,59.7371],[-57.5496,-29.4232,61.2164],[-57.5483,-29.4266,64.2741],[-57.5431,-29.432,53.9055],[-57.5285,-29.4383,52.6812],[-57.5224,-29.443,51.4535],[-57.5218,-29.4465,51.8684],[-57.5234,-29.4497,53.001],[-57.5328,-29.4614,81.0019],[-57.5339,-29.4647,83.0467],[-57.5331,-29.4786,65.4909],[-57.5218,-29.5089,51.5152],[-57.5195,-29.5479,53.4455],[-57.5232,-29.5543,55.7903],[-57.5262,-29.5682,51.0255],[-57.5426,-29.5787,50.5781],[-57.5472,-29.5847,50.5683],[-57.5433,-29.6163,49.1566],[-57.5453,-29.6303,49.5468],[-57.5503,-29.6396,49.8635],[-57.5523,-29.6501,49.4903],[-57.5638,-29.6689,48.7232],[-57.5753,-29.6788,48.41],[-57.6016,-29.6883,48.27],[-57.6083,-29.6922,50.4282],[-57.6131,-29.7093,63.0504],[-57.6185,-29.7146,60.5527],[-57.6286,-29.7453,46.6927],[-57.6349,-29.7546,46.4684],[-57.658,-29.7698,50.0528],[-57.6928,-29.7799,45.5382],[-57.6964,-29.7816,47.5284],[-57.701,-29.7874,60.9754],[-57.6977,-29.7976,58.7999],[-57.6988,-29.8012,52.2926],[-57.7048,-29.8056,51.5802],[-57.7063,-29.8091,53.3578],[-57.7048,-29.8122,63.3022],[-57.7017,-29.8146,62.5611],[-57.6977,-29.815,57.5517],[-57.6888,-29.8266,59.0561],[-57.6695,-29.8307,44.429],[-57.6756,-29.835,44.9666],[-57.6953,-29.8392,57.1231],[-57.6996,-29.8447,55.3392],[-57.6915,-29.853,47.056],[-57.6916,-29.8565,48.8549],[-57.6943,-29.8587,47.0169],[-57.7065,-29.8578,44.7837],[-57.7134,-29.8619,57.6173],[-57.718,-29.8677,59.4641],[-57.7195,-29.8782,47.0715],[-57.7124,-29.8985,44.9052],[-57.7116,-29.9056,44.3249],[-57.7177,-29.9148,51.3556],[-57.7171,-29.9219,59.0182],[-57.7146,-29.9247,51.1837],[-57.7065,-29.9261,46.1213],[-57.7047,-29.9282,44.8832],[-57.7074,-29.9353,46.3881],[-57.7171,-29.9411,54.0],[-57.717,-29.9446,58.2015],[-57.715,-29.9477,57.1096],[-57.7082,-29.9516,52.1487],[-57.6961,-29.9535,43.4821],[-57.6942,-29.9565,43.1621],[-57.6996,-29.965699999999998,50.2683],[-57.6998,-29.9692,51.5958],[-57.6982,-29.9762,51.8812],[-57.6911,-29.9848,49.0514],[-57.6771,-29.992,44.9036],[-57.658,-29.9969,42.5039],[-57.6584,-30.0003,44.5184],[-57.6776,-30.0135,45.9414],[-57.6811,-30.0183,43.5585]]]]}}