{"type": "Feature","bbox": [-64.8009,-27.3834,-63.6702,-26.5237],"geometry": {"type": "MultiPolygon","coordinates": [[[[-63.6708,-26.5319,208.7876],[-63.7964,-26.5237,220.1932],[-63.8335,-26.698,205.2737],[-63.8937,-26.7059,212.1919],[-63.9083,-26.7723,204.6583],[-64.0308,-26.7729,208.9069],[-64.0314,-26.7564,210.5152],[-64.1594,-26.7312,219.2435],[-64.1648,-26.7584,214.009],[-64.2111,-26.7529,215.6972],[-64.2044,-26.7133,222.2225],[-64.2913,-26.6995,235.1562],[-64.2916,-26.6289,249.0357],[-64.3084,-26.6275,253.3897],[-64.309,-26.5947,258.668],[-64.4515,-26.5931,317.9562],[-64.4521,-26.566,326.2465],[-64.4862,-26.5651,340.3889],[-64.4884,-26.5517,344.9248],[-64.5127,-26.5523,351.301],[-64.5115,-26.5621,349.4559],[-64.5197,-26.5634,353.6205],[-64.5105,-26.5853,341.3593],[-64.5144,-26.5889,343.4631],[-64.5076,-26.603,338.6],[-64.5146,-26.6233,336.2111],[-64.5014,-26.6837,312.9633],[-64.5948,-26.6645,361.7711],[-64.6229,-26.7981,327.1342],[-64.6772,-26.7905,341.7327],[-64.688,-26.8351,324.0793],[-64.7063,-26.8304,330.1388],[-64.7259,-26.8299,338.3857],[-64.7446,-26.9258,347.2469],[-64.7558,-26.9666,380.2814],[-64.7603,-27.0078,367.6933],[-64.7821,-27.0763,400.9334],[-64.8009,-27.1459,369.6105],[-64.7759,-27.1747,353.6686],[-64.7626,-27.21,344.8726],[-64.7515,-27.2244,332.058],[-64.7465,-27.2275,324.7781],[-64.7366,-27.2299,314.4934],[-64.7222,-27.2315,299.1429],[-64.7102,-27.2297,294.333],[-64.6957,-27.2346,294.5354],[-64.6578,-27.2582,304.3524],[-64.647,-27.2687,298.9575],[-64.63,-27.2895,291.5869],[-64.6168,-27.3015,286.877],[-64.6167,-27.2995,285.3035],[-64.5693,-27.3147,266.8784],[-64.5856,-27.338,273.8349],[-64.5242,-27.3834,250.9931],[-64.5096,-27.3829,244.4739],[-64.4959,-27.3187,243.5895],[-64.4901,-27.3199,243.8039],[-64.4821,-27.2788,244.2013],[-64.4498,-27.2807,280.6473],[-64.4624,-27.2023,273.8009],[-64.4494,-27.2025,288.0715],[-64.4463,-27.1884,290.898],[-64.3344,-27.2077,249.8036],[-64.3271,-27.1973,246.3473],[-64.194,-27.2206,169.6985],[-64.1903,-27.1342,185.2947],[-64.1118,-27.1349,174.4822],[-64.1082,-27.1002,170.2368],[-64.0414,-27.0997,178.625],[-64.0389,-27.0558,183.0201],[-64.0067,-27.0556,179.7964],[-64.0049,-26.9276,194.0488],[-63.9166,-26.928,188.7692],[-63.916,-26.9591,186.7294],[-63.8543,-26.9569,183.177],[-63.8547,-26.9469,186.7949],[-63.7243,-26.9447,180.889],[-63.7166,-26.9216,184.8904],[-63.7207,-26.9076,187.3368],[-63.7291,-26.8899,185.3769],[-63.729,-26.885,185.7578],[-63.7213,-26.867,186.2917],[-63.7134,-26.8545,188.5703],[-63.7125,-26.8497,189.1057],[-63.7136,-26.8353,189.0467],[-63.7122,-26.8208,189.5031],[-63.7077,-26.8019,191.181],[-63.7063,-26.7875,190.3629],[-63.7016,-26.7737,191.0517],[-63.7,-26.74,192.9768],[-63.6964,-26.716,195.239],[-63.6963,-26.6629,202.6331],[-63.6945,-26.6437,203.2624],[-63.6899,-26.6351,202.4622],[-63.6853,-26.6319,203.0602],[-63.6906,-26.6201,203.5037],[-63.6844,-26.6117,203.8587],[-63.6774,-26.5835,204.9856],[-63.6702,-26.5504,207.2139],[-63.6708,-26.5319,208.7876]]]]}
,"properties": {"GID_2": "ARG.22.13_1","GID_0": "ARG","country": "Argentina","GID_1": "ARG.22_1","state": "SantiagodelEstero","NL_NAME_1": "NA","county": "Jiménez","VARNAME_2": "PozoHondo|Jimnez","NL_NAME_2": "NA","TYPE_2": "Departamento","ENGTYPE_2": "Department","CC_2": "NA","HASC_2": "AR.SE.JM","name": "Jiménez.county","area_km2": 5249.654,"hist_schema_id": "Elevation0-9000","hist_area_km2": {"175": 460.497,"200": 1587.005,"225": 506.618,"250": 977.882,"275": 685.519,"300": 392.584,"325": 403.092,"350": 162.082,"375": 60.482,"400": 13.873}}}