{"type":"Feature","properties":{"GID_2":"ARG.4.1_1","GID_0":"ARG","country":"Argentina","GID_1":"ARG.4_1","state":"Chubut","NL_NAME_1":"NA","county":"Biedma","VARNAME_2":"PuertoMadryn","NL_NAME_2":"NA","TYPE_2":"Departamento","ENGTYPE_2":"Department","CC_2":"NA","HASC_2":"AR.CH.BI","name":"Biedma.county"},
"geometry":{"type": "MultiPolygon","coordinates": [[[[-64.8827,-42.837,34.2791],[-64.8785,-42.8338,0.5832],[-64.8851,-42.8293,0.0],[-64.8826,-42.826,0.4973],[-64.8871,-42.8226,0.0],[-64.8854,-42.8199,0.0],[-64.8904,-42.8176,5.7419],[-64.8893,-42.814,2.4831],[-64.8907,-42.8118,0.944],[-64.9007,-42.8126,6.4479],[-64.9021,-42.811,0.0],[-64.9068,-42.811,0.0],[-64.9121,-42.8126,0.0],[-64.9157,-42.8115,10.33],[-64.9451,-42.7954,4.1716],[-64.9507,-42.7899,18.902],[-64.9526,-42.7849,3.3948],[-64.9585,-42.7854,0.0],[-64.9604,-42.7887,1.3312],[-64.9674,-42.794,7.9156],[-64.9804,-42.7901,4.9257],[-65.0013,-42.7793,-0.2147],[-65.0024,-42.7793,-0.2147],[-65.0015,-42.7829,5.2156],[-65.0032,-42.7843,0.4441],[-65.0113,-42.7835,2.3696],[-65.0237,-42.776,3.673],[-65.0324,-42.7668,6.5809],[-65.0365,-42.754,2.2758],[-65.0366,-42.7393,0.6771],[-65.0349,-42.7379,0.0],[-65.0365,-42.7357,1.3272],[-65.0365,-42.7318,1.7988],[-65.0324,-42.7243,15.1185],[-65.0176,-42.7112,26.5054],[-64.9951,-42.6982,1.8048],[-64.9954,-42.6937,14.1463],[-64.9918,-42.6807,0.0],[-64.9874,-42.6715,0.0],[-64.9904,-42.6674,0.0],[-64.9899,-42.6615,1.5309],[-64.9857,-42.6543,4.3275],[-64.9765,-42.6476,21.8255],[-64.9685,-42.646,13.0985],[-64.9596,-42.6368,0.9981],[-64.9471,-42.6285,0.5488],[-64.926,-42.6182,0.4669],[-64.9085,-42.6151,1.0716],[-64.8812,-42.6137,4.3246],[-64.8671,-42.6168,4.2664],[-64.8637,-42.6199,0.0],[-64.856,-42.6176,12.4106],[-64.8493,-42.6179,3.5288],[-64.8399,-42.6115,0.0],[-64.8329,-42.6113,0.0],[-64.8326,-42.6079,3.7057],[-64.8288,-42.6037,3.382],[-64.816,-42.5965,0.0],[-64.8099,-42.5962,3.9358],[-64.8085,-42.591,1.4586],[-64.7885,-42.579,0.0],[-64.7807,-42.5671,0.0],[-64.764,-42.554,0.7136],[-64.7588,-42.5524,0.0],[-64.7576,-42.5499,1.552],[-64.7426,-42.5426,5.1357],[-64.7249,-42.5371,0.0],[-64.7149,-42.5296,0.0],[-64.684,-42.5126,4.3087],[-64.6704,-42.5079,12.3636],[-64.6485,-42.506,0.0],[-64.6474,-42.5043,7.4044],[-64.644,-42.5043,3.8189],[-64.6401,-42.4999,0.0],[-64.6307,-42.4974,3.4844],[-64.5957,-42.4968,0.0],[-64.5893,-42.4932,0.0],[-64.5793,-42.4912,18.0111],[-64.5635,-42.4918,2.3206],[-64.516,-42.5024,0.0],[-64.5115,-42.5021,0.0],[-64.509,-42.5001,0.0],[-64.5049,-42.5013,0.0],[-64.5035,-42.4999,1.1324],[-64.4982,-42.4999,0.0],[-64.4643,-42.5046,0.0],[-64.4401,-42.5107,3.9646],[-64.4279,-42.5112,20.0408],[-64.4115,-42.516,6.3305],[-64.4079,-42.5154,14.131],[-64.3849,-42.5237,7.6018],[-64.359,-42.5357,0.0],[-64.3562,-42.5312,53.013],[-64.3468,-42.5312,36.43],[-64.3415,-42.5329,28.1002],[-64.326,-42.5421,4.6066],[-64.3093,-42.5587,7.1804],[-64.3099,-42.5629,0.0],[-64.3154,-42.5685,0.0],[-64.3107,-42.5701,0.0],[-64.3115,-42.581,1.3004],[-64.3093,-42.5865,0.7986],[-64.3021,-42.586,1.1658],[-64.2976,-42.5807,12.929],[-64.2929,-42.5804,0.0],[-64.2921,-42.5762,32.5534],[-64.2843,-42.576,3.2174],[-64.2835,-42.5737,12.0858],[-64.2807,-42.5737,4.041],[-64.2768,-42.5754,0.0],[-64.2774,-42.5791,0.0],[-64.2674,-42.5818,0.0],[-64.2601,-42.589,9.6478],[-64.2574,-42.5962,0.0],[-64.2599,-42.5996,41.1734],[-64.2665,-42.6029,0.0],[-64.2676,-42.6104,0.0],[-64.2735,-42.6126,0.0],[-64.2737,-42.6185,1.057],[-64.2701,-42.619,9.8324],[-64.2688,-42.6226,0.0],[-64.2671,-42.6224,1.0571],[-64.266,-42.6182,0.0],[-64.2535,-42.6204,0.0],[-64.2501,-42.6168,3.2848],[-64.2421,-42.6143,17.2554],[-64.224,-42.6157,2.0123],[-64.2143,-42.6218,1.0032],[-64.2112,-42.6257,1.9189],[-64.2112,-42.6301,0.7123],[-64.2193,-42.6376,0.0],[-64.2235,-42.6487,0.4776],[-64.2288,-42.6515,21.1209],[-64.2304,-42.6538,1.2623],[-64.2301,-42.6565,6.141],[-64.2387,-42.6635,1.2389],[-64.2407,-42.6732,3.4112],[-64.2504,-42.6813,0.0],[-64.2474,-42.6868,9.5077],[-64.2454,-42.7112,4.2087],[-64.2496,-42.7224,2.6085],[-64.2615,-42.7435,1.7085],[-64.261,-42.7479,1.7259],[-64.2521,-42.7704,0.0],[-64.2407,-42.7865,0.0],[-64.2115,-42.8093,23.7725],[-64.2032,-42.8213,0.0],[-64.1957,-42.8271,16.3726],[-64.194,-42.8338,4.0757],[-64.1685,-42.8546,0.0],[-64.1588,-42.8587,5.8761],[-64.1557,-42.8662,2.0481],[-64.1471,-42.8712,7.2966],[-64.146,-42.8749,0.0],[-64.1076,-42.8796,0.0],[-64.0999,-42.8771,9.4509],[-64.0957,-42.8779,3.1657],[-64.0943,-42.8754,9.3303],[-64.0912,-42.8743,21.7757],[-64.0832,-42.8743,10.454],[-64.0701,-42.8693,48.8853],[-64.0126,-42.8615,0.0],[-63.999,-42.8557,0.0],[-63.994,-42.8557,9.0537],[-63.9818,-42.851,26.6013],[-63.971,-42.8496,0.0],[-63.966,-42.8507,4.3929],[-63.9646,-42.8476,41.572],[-63.9526,-42.8446,0.0],[-63.9351,-42.8421,18.1071],[-63.9149,-42.8424,8.2477],[-63.901,-42.8362,66.3426],[-63.874,-42.8351,5.6708],[-63.8685,-42.8315,0.0],[-63.8546,-42.8285,15.7972],[-63.8432,-42.829,2.1463],[-63.8399,-42.8262,30.4641],[-63.8335,-42.8243,41.2788],[-63.824,-42.8249,0.0],[-63.8171,-42.8232,0.3068],[-63.8104,-42.8243,1.6948],[-63.8099,-42.8207,25.7658],[-63.8076,-42.8193,11.1386],[-63.789,-42.814,21.0844],[-63.7637,-42.8126,0.0],[-63.7604,-42.8107,26.6096],[-63.751,-42.8101,0.0],[-63.7424,-42.811,27.6451],[-63.7393,-42.814,7.7018],[-63.7315,-42.8132,0.0],[-63.7257,-42.8112,27.8002],[-63.7171,-42.8037,28.7392],[-63.7088,-42.8037,6.698],[-63.6979,-42.7962,24.203],[-63.679,-42.7921,5.3458],[-63.6712,-42.7846,0.0],[-63.6651,-42.7832,0.0],[-63.6651,-42.781,2.1617],[-63.6621,-42.7782,1.2068],[-63.6538,-42.7785,1.4149],[-63.6476,-42.7713,0.0],[-63.636,-42.7681,1.1592],[-63.6329,-42.7657,1.5853],[-63.6326,-42.7612,0.9412],[-63.6301,-42.7599,0.0],[-63.6296,-42.7554,0.0],[-63.6324,-42.7507,0.0],[-63.6346,-42.7504,0.0],[-63.6349,-42.7424,22.8449],[-63.6293,-42.7404,0.0],[-63.6293,-42.739,0.0],[-63.6335,-42.7393,0.0],[-63.634,-42.7357,0.0],[-63.6371,-42.736,0.0],[-63.6357,-42.7321,0.0],[-63.6371,-42.7296,2.7982],[-63.6365,-42.7212,1.5277],[-63.6343,-42.7201,0.0],[-63.6349,-42.7182,2.5693],[-63.6387,-42.7171,3.5625],[-63.6401,-42.7146,0.0],[-63.6404,-42.7079,0.0],[-63.6379,-42.704,0.0],[-63.6393,-42.7026,0.0],[-63.639,-42.6996,0.0],[-63.6307,-42.6896,0.0],[-63.6263,-42.6801,0.0],[-63.621,-42.6774,0.0],[-63.621,-42.671,13.6502],[-63.6168,-42.664,5.4691],[-63.6188,-42.6621,21.3496],[-63.6182,-42.6579,3.9511],[-63.6093,-42.6457,0.0],[-63.6051,-42.6304,0.0],[-63.5979,-42.6232,0.0],[-63.5854,-42.6154,4.1394],[-63.5826,-42.6079,0.0],[-63.5865,-42.6032,12.6872],[-63.5865,-42.5988,0.0],[-63.584,-42.5924,0.0],[-63.5879,-42.5896,18.5903],[-63.5899,-42.5704,4.4193],[-63.5937,-42.5687,27.3351],[-63.5962,-42.5654,13.1323],[-63.5982,-42.556,0.0],[-63.6029,-42.5482,2.9301],[-63.6021,-42.5337,0.0],[-63.6032,-42.524,1.4833],[-63.6026,-42.5193,12.261],[-63.5993,-42.516,0.0],[-63.5982,-42.5099,0.6481],[-63.6004,-42.5062,0.6063],[-63.6063,-42.5032,3.8964],[-63.6068,-42.4996,0.0],[-63.6054,-42.4976,0.0],[-63.6076,-42.4912,0.0],[-63.6124,-42.486,9.984],[-63.6107,-42.4851,0.0],[-63.6101,-42.4685,8.8717],[-63.6124,-42.4496,3.1503],[-63.6124,-42.4304,1.0639],[-63.616,-42.4051,0.0],[-63.614,-42.401,0.0],[-63.6143,-42.3779,0.0],[-63.6115,-42.3743,0.0],[-63.6143,-42.3735,0.0],[-63.611,-42.3646,0.9997],[-63.6126,-42.3615,0.7808],[-63.6154,-42.3604,0.0],[-63.6174,-42.3662,0.0],[-63.619,-42.3665,0.7071],[-63.6201,-42.3599,0.0],[-63.6237,-42.3524,0.0],[-63.6346,-42.3435,0.0],[-63.6399,-42.3426,0.0],[-63.6418,-42.3374,0.0],[-63.6407,-42.3321,0.0],[-63.6557,-42.3204,3.692],[-63.6546,-42.3182,0.0],[-63.656,-42.3174,0.0],[-63.6524,-42.3174,0.0],[-63.649,-42.3138,0.0],[-63.6562,-42.3043,0.0],[-63.6613,-42.301,0.0],[-63.6626,-42.2976,0.0],[-63.6615,-42.2949,0.0],[-63.656,-42.2988,0.0],[-63.6487,-42.2962,0.3301],[-63.654,-42.2993,0.0],[-63.646,-42.3068,0.0],[-63.6451,-42.3126,0.0],[-63.6418,-42.3121,1.1081],[-63.6401,-42.3157,0.2123],[-63.6379,-42.3162,0.3865],[-63.6368,-42.3135,0.4035],[-63.6362,-42.321,0.0],[-63.6338,-42.3201,0.4524],[-63.621,-42.3279,1.7205],[-63.6193,-42.3371,0.0],[-63.6135,-42.3432,0.0],[-63.6115,-42.3432,1.1601],[-63.6121,-42.3465,0.0],[-63.6087,-42.3515,0.0],[-63.6093,-42.3549,0.0],[-63.6076,-42.3576,2.4263],[-63.6054,-42.3582,4.2106],[-63.6054,-42.3604,6.6181],[-63.6076,-42.3624,2.1782],[-63.6121,-42.4079,0.0],[-63.6104,-42.4137,0.0],[-63.6107,-42.4282,0.0],[-63.6071,-42.4626,3.705],[-63.609,-42.4871,0.0],[-63.6035,-42.4962,0.0],[-63.6035,-42.5043,1.502],[-63.601,-42.5051,0.6063],[-63.6005,-42.501,0.0],[-63.6049,-42.4829,0.0],[-63.6082,-42.4168,3.9354],[-63.604,-42.3765,3.9301],[-63.5985,-42.3593,0.0],[-63.5988,-42.3449,0.0],[-63.5971,-42.3329,0.0],[-63.6051,-42.3065,0.0],[-63.614,-42.2904,0.0],[-63.6324,-42.2649,0.0],[-63.6474,-42.2474,0.0],[-63.6715,-42.2238,1.5163],[-63.6832,-42.2079,0.0],[-63.6826,-42.2068,0.0],[-63.6974,-42.1843,3.8335],[-63.7015,-42.1679,0.0],[-63.7154,-42.1474,9.9463],[-63.7251,-42.1212,0.0],[-63.7379,-42.0985,3.2241],[-63.7454,-42.0898,0.0],[-63.7607,-42.0754,1.0177],[-63.7962,-42.0718,5.6965],[-63.8165,-42.0732,6.9584],[-63.8404,-42.0779,1.9716],[-63.8482,-42.0779,0.0],[-63.854,-42.079,0.0],[-63.8557,-42.081,3.5704],[-63.8812,-42.0851,3.2892],[-63.8951,-42.0893,0.0],[-63.904,-42.0937,7.1339],[-63.9043,-42.0921,0.0],[-63.9096,-42.0935,0.0],[-63.9174,-42.0971,0.0],[-63.919,-42.0996,12.3669],[-63.9282,-42.1026,7.3989],[-63.9349,-42.1021,0.0],[-63.9357,-42.104,0.1233],[-63.9388,-42.1043,0.4439],[-63.9421,-42.1115,0.0],[-63.9543,-42.1101,0.0],[-63.9574,-42.1132,0.0],[-63.9654,-42.1135,0.7107],[-63.971,-42.1185,0.0],[-63.9721,-42.1226,1.9206],[-63.9793,-42.1246,0.0],[-63.9787,-42.129,0.0],[-63.991,-42.1393,0.0],[-64.0043,-42.1407,0.0],[-64.0068,-42.1418,0.4512],[-64.0068,-42.1443,7.8358],[-64.0093,-42.144,0.0],[-64.0093,-42.1457,7.6419],[-64.0151,-42.1476,1.3216],[-64.0165,-42.146,0.0],[-64.0201,-42.1485,13.106],[-64.0276,-42.1465,1.2062],[-64.0268,-42.1504,15.3999],[-64.0279,-42.1518,5.0337],[-64.0335,-42.1549,47.0627],[-64.0368,-42.1535,3.756],[-64.0354,-42.1557,18.3821],[-64.0374,-42.1568,0.642],[-64.0376,-42.1613,20.0689],[-64.0396,-42.164,8.1705],[-64.0476,-42.1662,0.0],[-64.0535,-42.1646,26.4868],[-64.0537,-42.1618,0.0],[-64.056,-42.1607,0.0],[-64.0582,-42.1635,0.0],[-64.0565,-42.1654,19.4002],[-64.0574,-42.1674,3.3311],[-64.0599,-42.1682,20.6696],[-64.0624,-42.1662,0.0],[-64.0624,-42.1699,16.9818],[-64.0671,-42.1746,7.7254],[-64.0701,-42.1743,0.0],[-64.0776,-42.1796,33.4294],[-64.0832,-42.1796,9.6675],[-64.0868,-42.1765,0.2948],[-64.0862,-42.1787,5.1593],[-64.0918,-42.181,0.0],[-64.0982,-42.1829,0.0],[-64.1062,-42.1821,0.0],[-64.1062,-42.1843,3.3047],[-64.1087,-42.1829,0.0],[-64.1085,-42.1851,0.0],[-64.1307,-42.1915,0.0],[-64.1382,-42.1951,6.5512],[-64.1521,-42.1979,0.0],[-64.1604,-42.1976,0.0],[-64.241,-42.2126,0.0],[-64.3213,-42.2243,0.0],[-64.3504,-42.2315,27.6208],[-64.3696,-42.2343,0.0],[-64.371,-42.2368,21.4385],[-64.3751,-42.2357,0.0],[-64.3774,-42.2385,9.6932],[-64.3796,-42.2371,0.0],[-64.3785,-42.2396,0.0],[-64.3665,-42.2393,11.8727],[-64.3613,-42.2421,0.8418],[-64.359,-42.2457,0.0],[-64.3474,-42.2449,0.0],[-64.3357,-42.2476,16.5037],[-64.3304,-42.251,0.5708],[-64.3254,-42.2493,20.5714],[-64.3135,-42.2524,3.8016],[-64.311,-42.2524,1.3712],[-64.3082,-42.2493,3.3065],[-64.2976,-42.249,2.3555],[-64.2901,-42.2451,0.0],[-64.2826,-42.2468,0.0],[-64.2782,-42.246,3.6785],[-64.274,-42.2479,0.0],[-64.2701,-42.2457,0.0],[-64.2737,-42.2432,0.6082],[-64.2737,-42.2412,1.8321],[-64.2715,-42.2399,0.0],[-64.2624,-42.2385,0.0],[-64.256,-42.2399,0.0],[-64.2538,-42.2385,0.0],[-64.2535,-42.2357,4.2925],[-64.2476,-42.2365,0.0],[-64.246,-42.2346,0.0],[-64.241,-42.2354,1.9684],[-64.2315,-42.2407,0.0],[-64.2307,-42.2429,2.3978],[-64.2321,-42.2454,0.0],[-64.2301,-42.2474,0.0],[-64.2254,-42.2435,0.0],[-64.2179,-42.2429,8.122],[-64.2149,-42.2449,0.0],[-64.2057,-42.2429,8.1944],[-64.1999,-42.2435,5.5185],[-64.1971,-42.2457,0.0],[-64.1924,-42.2454,0.0],[-64.1854,-42.2496,0.0],[-64.1813,-42.2496,0.0],[-64.1801,-42.2471,0.7515],[-64.1696,-42.2468,0.0],[-64.1624,-42.2449,0.0],[-64.1601,-42.2438,0.0],[-64.1593,-42.241,0.0],[-64.1554,-42.2396,0.0],[-64.1462,-42.2412,8.1121],[-64.141,-42.244,0.0],[-64.1382,-42.2426,0.0],[-64.1368,-42.2396,1.024],[-64.1324,-42.2399,1.6273],[-64.1204,-42.2446,0.0],[-64.1171,-42.2479,1.1444],[-64.1135,-42.2479,11.9265],[-64.1043,-42.2543,0.1998],[-64.094,-42.2526,2.5209],[-64.0829,-42.2596,0.0],[-64.0813,-42.2626,0.0],[-64.0751,-42.2621,0.1949],[-64.0671,-42.2718,0.0],[-64.0638,-42.2746,0.0],[-64.061,-42.2743,5.5708],[-64.0563,-42.2799,2.1397],[-64.0485,-42.2946,0.0],[-64.0437,-42.311,6.6915],[-64.0443,-42.3165,8.2867],[-64.0493,-42.3162,0.0],[-64.0499,-42.324,6.0195],[-64.0532,-42.326,1.3824],[-64.0587,-42.326,0.0],[-64.0604,-42.3299,13.6945],[-64.0685,-42.329,0.0],[-64.0701,-42.3335,1.2229],[-64.0582,-42.3351,5.5471],[-64.0563,-42.3385,1.9572],[-64.059,-42.3385,0.0],[-64.0587,-42.3399,0.0],[-64.0535,-42.3407,7.8326],[-64.0504,-42.3435,0.0],[-64.0443,-42.3437,0.0],[-64.0449,-42.3571,14.7468],[-64.0462,-42.3593,39.1735],[-64.0488,-42.3599,0.0],[-64.0488,-42.3629,0.0],[-64.051,-42.3643,0.0],[-64.0529,-42.3774,5.0555],[-64.0565,-42.3821,4.6156],[-64.0615,-42.3848,26.71],[-64.0682,-42.3849,15.582],[-64.0729,-42.3896,35.3122],[-64.0785,-42.3901,0.2789],[-64.0779,-42.3918,10.5412],[-64.0857,-42.3982,3.934],[-64.0904,-42.399,0.0],[-64.0943,-42.4026,3.3242],[-64.1004,-42.4032,0.0],[-64.1029,-42.4093,1.1189],[-64.1096,-42.4154,0.0],[-64.1215,-42.4235,1.2415],[-64.1265,-42.4249,0.0],[-64.1268,-42.4265,1.6116],[-64.1393,-42.4271,0.3829],[-64.1399,-42.4238,0.0],[-64.1438,-42.4246,9.8883],[-64.1499,-42.4221,0.3902],[-64.1551,-42.4221,0.5845],[-64.1576,-42.4188,0.0],[-64.166,-42.4212,0.0],[-64.1685,-42.4201,0.0],[-64.1687,-42.4171,0.2391],[-64.1754,-42.4188,0.7791],[-64.1738,-42.4168,0.0],[-64.176,-42.4165,0.0],[-64.1862,-42.4193,0.3477],[-64.1915,-42.4157,0.0],[-64.2051,-42.4204,1.9554],[-64.2132,-42.4215,3.5373],[-64.2249,-42.4174,0.0],[-64.2404,-42.4176,0.0],[-64.2474,-42.4149,3.882],[-64.2596,-42.4168,4.9859],[-64.2649,-42.414,0.0],[-64.2885,-42.4151,3.1602],[-64.2932,-42.4135,7.9014],[-64.2965,-42.4076,0.0],[-64.3015,-42.4038,0.0],[-64.3063,-42.4049,5.0366],[-64.3129,-42.4115,3.4959],[-64.3187,-42.4126,1.0587],[-64.3204,-42.411,0.0],[-64.3301,-42.4113,0.0],[-64.3313,-42.4135,0.0],[-64.3337,-42.4135,0.0],[-64.3315,-42.4185,6.9242],[-64.3362,-42.4213,8.2986],[-64.3393,-42.4215,2.2979],[-64.3396,-42.4204,0.0],[-64.3449,-42.4229,0.0],[-64.3632,-42.4251,1.0032],[-64.3674,-42.424,2.7529],[-64.3693,-42.421,0.0],[-64.3724,-42.424,1.9943],[-64.374,-42.424,0.0],[-64.3737,-42.4229,0.0],[-64.3779,-42.4238,0.0],[-64.3796,-42.4268,0.0],[-64.3846,-42.429,0.0],[-64.4007,-42.4296,15.2062],[-64.4085,-42.4315,9.056],[-64.411,-42.4285,0.3871],[-64.4115,-42.4324,3.676],[-64.4176,-42.4324,0.0],[-64.419,-42.4356,0.0],[-64.424,-42.4385,0.0],[-64.439,-42.4382,0.0],[-64.4407,-42.4393,0.0],[-64.4482,-42.4382,0.0],[-64.4501,-42.4354,0.0],[-64.4587,-42.436,0.0],[-64.4604,-42.4374,0.0],[-64.4646,-42.4365,0.4942],[-64.469,-42.4382,2.0939],[-64.476,-42.4362,0.0],[-64.4776,-42.434,0.0],[-64.4849,-42.431,5.4629],[-64.4807,-42.4201,0.0],[-64.4849,-42.4137,0.0],[-64.4868,-42.414,0.0],[-64.4871,-42.4174,0.0],[-64.4901,-42.4182,3.1983],[-64.4924,-42.421,5.208],[-64.4929,-42.429,0.0],[-64.4968,-42.4304,2.384],[-64.506,-42.4304,2.3415],[-64.5165,-42.426,0.0],[-64.5182,-42.4279,0.0],[-64.5226,-42.4285,4.3917],[-64.5318,-42.4276,1.8322],[-64.5374,-42.4249,1.8888],[-64.5396,-42.4218,4.3815],[-64.5385,-42.4188,0.0],[-64.5415,-42.4188,0.0],[-64.5437,-42.4254,3.2243],[-64.5507,-42.4249,0.0],[-64.5563,-42.4293,0.0],[-64.556,-42.4315,2.5085],[-64.5593,-42.4321,2.4445],[-64.5618,-42.4313,3.2382],[-64.5615,-42.4296,0.0],[-64.5707,-42.4282,0.0],[-64.5685,-42.4251,0.0],[-64.5713,-42.4238,0.0],[-64.5718,-42.419,0.0],[-64.5749,-42.4212,0.0],[-64.5799,-42.4212,0.0],[-64.5851,-42.4257,0.0],[-64.5926,-42.4246,0.0],[-64.5949,-42.4262,0.0],[-64.599,-42.4249,1.9983],[-64.5996,-42.4232,0.0],[-64.6071,-42.4218,0.806],[-64.6124,-42.4182,0.5619],[-64.6168,-42.4115,1.2187],[-64.6168,-42.4079,0.7602],[-64.6151,-42.4062,0.0],[-64.6126,-42.4065,0.0],[-64.6113,-42.4035,0.0],[-64.6093,-42.4032,0.0],[-64.6093,-42.4018,0.0],[-64.6137,-42.4015,0.0],[-64.6113,-42.396,0.0],[-64.609,-42.3957,0.0],[-64.6107,-42.3918,0.0],[-64.6004,-42.3904,0.0],[-64.5982,-42.3868,0.0463],[-64.5946,-42.3879,0.0],[-64.5885,-42.3849,0.0],[-64.5901,-42.371,0.0],[-64.5862,-42.3679,0.0],[-64.5885,-42.3674,0.0573],[-64.5807,-42.3599,0.0],[-64.5754,-42.3587,0.0],[-64.5754,-42.3543,2.9158],[-64.5682,-42.3485,0.0],[-64.5693,-42.3432,0.5995],[-64.5671,-42.3418,0.0],[-64.5649,-42.336,0.0],[-64.5685,-42.3285,0.2065],[-64.5665,-42.3215,0.0],[-64.5596,-42.3143,0.0674],[-64.5582,-42.3096,0.0],[-64.5468,-42.2962,8.6601],[-64.5332,-42.2887,0.0],[-64.5243,-42.2885,0.0],[-64.526,-42.2857,2.3611],[-64.5243,-42.2826,4.0303],[-64.5071,-42.2765,0.0],[-64.5062,-42.274,0.0],[-64.5076,-42.2721,0.8343],[-64.506,-42.2701,0.0],[-64.4901,-42.2621,0.0],[-64.4865,-42.2562,1.4626],[-64.4829,-42.2554,0.0],[-64.4771,-42.2493,0.0],[-64.4646,-42.2424,0.0],[-64.4626,-42.2387,0.0],[-64.4751,-42.2365,10.2874],[-64.5235,-42.2368,42.4663],[-64.6015,-42.2315,25.7301],[-64.6663,-42.224,8.0854],[-64.6743,-42.2207,8.5405],[-64.6974,-42.216,0.0],[-64.7337,-42.2149,18.8399],[-64.7693,-42.2074,13.4269],[-64.8001,-42.1957,0.0],[-64.8024,-42.196,0.0],[-64.8043,-42.1985,13.4602],[-64.8313,-42.196,0.0],[-64.8374,-42.1929,0.0],[-64.8557,-42.189,2.0117],[-64.8779,-42.1813,5.4025],[-64.9037,-42.1696,3.3894],[-64.9474,-42.1446,2.478],[-64.9793,-42.1226,0.0],[-65.0015,-42.1049,5.2725],[-65.0274,-42.079,0.0],[-65.0488,-42.051,9.3354],[-65.0671,-42.0185,9.6362],[-65.0704,-42.004,0.0],[-65.069,-41.9976,5.9674],[-65.9736,-42.0036,377.5789],[-65.9427,-42.8623,142.0562],[-65.4546,-42.8519,129.6882],[-64.8827,-42.837,34.2791]]],
[[[-64.5163,-42.419,0.8356],[-64.5165,-42.4179,0.0],[-64.5188,-42.4185,2.1475],[-64.5165,-42.4224,0.0],[-64.5132,-42.4204,0.0],[-64.5143,-42.4193,0.0],[-64.5163,-42.419,0.8356]]],
[[[-64.6032,-42.4193,0.0],[-64.6054,-42.4185,0.0],[-64.6071,-42.4196,0.0103],[-64.6032,-42.4204,0.0],[-64.6032,-42.4193,0.0]]],
[[[-63.6463,-42.3149,0.0],[-63.6504,-42.3179,0.9841],[-63.649,-42.3246,0.0],[-63.6418,-42.3268,2.1027],[-63.6351,-42.331,0.5292],[-63.6343,-42.334,0.0],[-63.6304,-42.3351,2.13],[-63.6343,-42.3396,1.9744],[-63.634,-42.3421,0.0],[-63.6254,-42.3432,0.0],[-63.6237,-42.3399,0.0],[-63.6221,-42.3396,0.0],[-63.624,-42.3457,2.0047],[-63.6207,-42.3565,0.0],[-63.6174,-42.3593,0.4101],[-63.6126,-42.359,0.0],[-63.6129,-42.3501,0.0],[-63.6162,-42.3437,2.4072],[-63.6221,-42.3379,0.0],[-63.6249,-42.3268,0.0],[-63.6274,-42.3254,0.0],[-63.6321,-42.326,0.0],[-63.6324,-42.329,0.2195],[-63.6463,-42.3149,0.0]]],
[[[-64.0001,-41.9999,0.0],[-64.0001,-42.0001,0.0],[-63.9999,-42.0001,0.0],[-63.9999,-41.9999,0.0],[-64.0001,-41.9999,0.0]]]]}}