{"type": "Feature","bbox": [-59.6205,-32.0549,-58.4064,-31.2043],"geometry": {"type": "MultiPolygon","coordinates": [[[[-58.5194,-31.5578,65.474],[-58.5095,-31.5438,61.9307],[-58.4976,-31.532,65.4348],[-58.4937,-31.5208,62.918],[-58.493899999999996,-31.5092,64.7924],[-58.5029,-31.4873,66.2021],[-58.5045,-31.4757,67.8795],[-58.5022,-31.4564,69.4119],[-58.496,-31.4378,68.9607],[-58.4888,-31.428,67.0111],[-58.4712,-31.4246,64.7302],[-58.4647,-31.4195,68.662],[-58.4602,-31.4184,68.6828],[-58.4519,-31.421,69.5571],[-58.4438,-31.4181,70.025],[-58.439,-31.4073,69.4162],[-58.4495,-31.3736,66.5972],[-58.451,-31.3621,66.862],[-58.4455,-31.3561,62.5948],[-58.4321,-31.356,65.764],[-58.4197,-31.3512,66.6544],[-58.4128,-31.3462,66.9545],[-58.4064,-31.3359,68.8077],[-58.4071,-31.3283,68.8355],[-58.4139,-31.3097,58.64],[-58.4223,-31.3006,62.0655],[-58.4339,-31.2754,66.5046],[-58.4453,-31.2586,69.0051],[-58.4612,-31.2401,65.0356],[-58.4698,-31.2387,66.3982],[-58.5054,-31.2437,67.0589],[-58.5371,-31.243,67.6174],[-58.5458,-31.2414,68.7195],[-58.5535,-31.2373,68.6091],[-58.5626,-31.2362,67.3841],[-58.5743,-31.2414,70.0089],[-58.5865,-31.2527,69.3871],[-58.5969,-31.2602,69.3703],[-58.6049,-31.2637,67.3741],[-58.6184,-31.2633,67.1728],[-58.635,-31.269,67.1061],[-58.6487,-31.2694,62.8639],[-58.6564,-31.2659,67.5659],[-58.6696,-31.2634,65.774],[-58.6876,-31.2651,66.6331],[-58.7,-31.2693,63.1418],[-58.7136,-31.27,64.6612],[-58.7306,-31.2649,66.8696],[-58.7459,-31.251,65.9258],[-58.7545,-31.2486,66.1043],[-58.7726,-31.249,58.975],[-58.7856,-31.2474,63.887],[-58.7993,-31.2317,61.1811],[-58.8123,-31.2293,63.051],[-58.8242,-31.2239,62.2334],[-58.8331,-31.2229,61.9675],[-58.8724,-31.2043,47.1873],[-58.8811,-31.2054,47.0334],[-58.9036,-31.2184,46.6812],[-58.9313,-31.2383,45.9784],[-58.9553,-31.249,45.2092],[-58.9683,-31.2519,45.5344],[-58.9711,-31.255,45.468],[-58.977,-31.2655,45.3108],[-58.981,-31.2807,45.4516],[-58.9851,-31.2876,45.6765],[-58.9895,-31.3025,51.6933],[-59.0275,-31.3506,44.6505],[-59.0372,-31.3682,43.461],[-59.0489,-31.4016,43.2498],[-59.0582,-31.4148,44.2408],[-59.0695,-31.4369,42.1894],[-59.0724,-31.4388,41.8652],[-59.099,-31.4338,44.1441],[-59.1162,-31.4158,56.2481],[-59.1222,-31.4012,58.2495],[-59.1324,-31.3883,57.3818],[-59.1369,-31.3774,55.6752],[-59.1477,-31.365,61.5268],[-59.1531,-31.3503,64.6871],[-59.1576,-31.3435,63.0005],[-59.1666,-31.3349,62.9838],[-59.1807,-31.3252,61.5299],[-59.1842,-31.3141,64.6817],[-59.2091,-31.2684,69.9554],[-59.2123,-31.2655,71.1029],[-59.2167,-31.2653,69.6824],[-59.2444,-31.267,71.2268],[-59.2477,-31.266,68.9846],[-59.2485,-31.259,69.9072],[-59.2622,-31.256,70.9925],[-59.2709,-31.2567,72.5125],[-59.2869,-31.2706,74.2343],[-59.302,-31.2791,75.7832],[-59.3079,-31.2849,76.1782],[-59.3439,-31.3008,73.6093],[-59.3609,-31.3062,73.701],[-59.3918,-31.3122,69.4696],[-59.3994,-31.3163,72.0537],[-59.4101,-31.3288,77.02],[-59.4176,-31.3331,74.7159],[-59.4227,-31.3396,75.883],[-59.4264,-31.3466,75.2049],[-59.4271,-31.3543,74.6596],[-59.4314,-31.3612,73.9809],[-59.4386,-31.3657,66.8626],[-59.4559,-31.3698,72.9503],[-59.4648,-31.3787,76.9682],[-59.4706,-31.3891,73.0768],[-59.4826,-31.4007,74.4737],[-59.489,-31.4111,75.2656],[-59.4913,-31.4188,76.6528],[-59.4905,-31.4223,74.8164],[-59.4864,-31.4252,77.3255],[-59.487,-31.4273,76.9938],[-59.496,-31.4305,76.446],[-59.5065,-31.4378,78.8085],[-59.5199,-31.4396,80.2624],[-59.5274,-31.4441,80.3981],[-59.5361,-31.453,75.5473],[-59.5904,-31.4788,77.7441],[-59.5941,-31.5108,66.2066],[-59.5994,-31.5336,67.2196],[-59.5999,-31.5453,62.513],[-59.6031,-31.5565,66.8278],[-59.6033,-31.5643,61.244],[-59.6011,-31.5718,57.7856],[-59.5863,-31.5864,57.9059],[-59.5577,-31.6054,57.0749],[-59.5495,-31.6087,54.9333],[-59.536,-31.6086,57.3035],[-59.5242,-31.6143,54.3823],[-59.515,-31.6231,54.0413],[-59.5137,-31.6305,50.1582],[-59.5212,-31.657,50.8927],[-59.5286,-31.6753,51.5496],[-59.5336,-31.6818,51.8708],[-59.5411,-31.6865,52.5145],[-59.5466,-31.6872,52.5181],[-59.5693,-31.707,53.9096],[-59.5714,-31.7102,53.9359],[-59.5705,-31.7218,54.8207],[-59.5753,-31.7368,54.6266],[-59.5851,-31.7449,57.0337],[-59.5911,-31.7595,57.1533],[-59.5978,-31.7699,57.0819],[-59.5993,-31.7734,56.6955],[-59.5936,-31.7881,57.7303],[-59.5954,-31.7996,61.1046],[-59.6205,-31.8363,67.9772],[-59.619,-31.8477,63.0706],[-59.6152,-31.8547,62.1626],[-59.6159,-31.8618,63.0077],[-59.6001,-31.8657,62.8726],[-59.5755,-31.876,68.6488],[-59.5587,-31.8889,78.246],[-59.54,-31.8996,69.895],[-59.5352,-31.9109,67.0998],[-59.5366,-31.9142,69.5523],[-59.5667,-31.938,79.6262],[-59.5686,-31.9419,79.2501],[-59.5671,-31.9451,75.98],[-59.5567,-31.9529,80.2559],[-59.5323,-31.9632,74.779],[-59.5222,-31.9557,71.4285],[-59.5174,-31.9548,70.3199],[-59.5144,-31.9571,68.169],[-59.509,-31.9687,79.6444],[-59.5061,-31.9705,73.1672],[-59.4969,-31.9684,70.7695],[-59.4607,-31.9685,61.0255],[-59.4476,-31.9654,54.8839],[-59.4397,-31.9615,54.8387],[-59.4268,-31.941,62.9465],[-59.4207,-31.9352,62.0231],[-59.3996,-31.9284,51.6088],[-59.3816,-31.9266,49.9857],[-59.363,-31.916,60.7198],[-59.3358,-31.9139,49.3039],[-59.3176,-31.915,46.7092],[-59.2975,-31.9059,49.1842],[-59.2794,-31.9051,48.093],[-59.2666,-31.9089,50.8151],[-59.2558,-31.916,43.2002],[-59.229,-31.9202,49.2298],[-59.2158,-31.9308,46.2104],[-59.2048,-31.9429,42.1453],[-59.1936,-31.9496,40.9521],[-59.185,-31.9512,43.0316],[-59.1811,-31.9584,37.1905],[-59.1619,-31.9684,38.8213],[-59.1319,-31.9784,38.0567],[-59.0912,-31.9822,34.2083],[-59.0798,-31.9862,33.7672],[-59.085,-32.0089,35.6427],[-59.0849,-32.0145,33.4432],[-59.0794,-32.0234,32.3301],[-59.0669,-32.033,32.8211],[-59.0666,-32.0382,32.2201],[-59.0305,-32.0346,46.8686],[-59.0083,-32.0388,53.3525],[-58.9995,-32.0364,60.9916],[-58.9841,-32.0444,62.5847],[-58.9706,-32.0446,56.5887],[-58.9572,-32.0425,56.4001],[-58.928,-32.0533,58.4331],[-58.919,-32.0549,52.8554],[-58.9145,-32.0548,50.0125],[-58.9077,-32.0496,49.0969],[-58.8991,-32.047,55.4941],[-58.89,-32.0471,51.7579],[-58.8773,-32.0511,52.7232],[-58.8682,-32.0521,53.5225],[-58.8449,-32.0505,61.8817],[-58.8425,-32.0482,64.0065],[-58.8426,-32.0243,68.9407],[-58.8396,-32.0223,69.03],[-58.8075,-32.019,68.7227],[-58.7908,-32.0129,60.0906],[-58.7681,-32.0135,54.9235],[-58.7548,-32.0105,62.634],[-58.7439,-32.0038,62.9338],[-58.7179,-31.9768,61.1973],[-58.7071,-31.9712,52.2565],[-58.706,-31.9586,59.0284],[-58.709,-31.9432,55.1619],[-58.7104,-31.9396,55.051],[-58.72,-31.9311,63.4347],[-58.7225,-31.9199,64.2282],[-58.7188,-31.8929,63.4758],[-58.7199,-31.8775,60.9042],[-58.7179,-31.8581,67.1174],[-58.7132,-31.8353,62.2805],[-58.7071,-31.8166,69.2565],[-58.7079,-31.8126,68.8118],[-58.706,-31.809,67.5195],[-58.7027,-31.8065,65.6048],[-58.6857,-31.8113,68.0872],[-58.6449,-31.814,67.1653],[-58.6409,-31.8124,69.2162],[-58.6127,-31.7871,69.6568],[-58.601,-31.7538,71.0777],[-58.5872,-31.7385,68.3797],[-58.5793,-31.7163,68.5083],[-58.5739,-31.7101,62.0502],[-58.5631,-31.7029,69.5732],[-58.551,-31.6977,68.5779],[-58.529,-31.6934,63.7324],[-58.5127,-31.6864,63.8247],[-58.5056,-31.6817,62.5312],[-58.5005,-31.6753,63.8623],[-58.4989,-31.6677,67.855],[-58.5079,-31.6591,66.3737],[-58.5317,-31.648,60.5909],[-58.5384,-31.6428,65.4944],[-58.5626,-31.6321,64.9601],[-58.5607,-31.6207,60.9618],[-58.5492,-31.5913,69.0566],[-58.5473,-31.576,67.8973],[-58.5438,-31.5647,64.6627],[-58.5412,-31.5619,66.2652],[-58.5329,-31.5585,64.6176],[-58.5194,-31.5578,65.474]]]]}
,"properties": {"GID_2": "ARG.8.17_1","GID_0": "ARG","country": "Argentina","GID_1": "ARG.8_1","state": "EntreRíos","NL_NAME_1": "NA","county": "Villaguay","VARNAME_2": "NA","NL_NAME_2": "NA","TYPE_2": "Departamento","ENGTYPE_2": "Department","CC_2": "NA","HASC_2": "AR.ER.VG","name": "Villaguay.county","area_km2": 7243.876,"hist_schema_id": "Elevation0-9000","hist_area_km2": {"25": 111.662,"50": 4246.76,"75": 2885.111,"100": 0.343}}}