{"type":"Feature","properties":{"ISO3166-1-Alpha-3":"ARG","country":"Argentina","fill":"#00F","id":"1302","name":"La Rioja"},
"geometry":{"type": "Polygon","coordinates": [[[-68.41202,-28.01307,4513.7744],[-68.41941,-28.01204,4590.481],[-68.42716,-28.00971,4394.04],[-68.44036,-28.00118,4213.3828],[-68.44223,-27.99943,4197.6069],[-68.44287,-27.99808,4197.6069],[-68.44595,-27.99028,4161.1055],[-68.44695,-27.98511,4165.8286],[-68.44726,-27.97938,4238.0366],[-68.44548,-27.96635,4268.854],[-68.43135,-27.91556,4309.9858],[-68.43024,-27.90925,4292.1821],[-68.42993,-27.90336,4292.3271],[-68.43099,-27.89799,4346.6553],[-68.43279,-27.89344,4384.7017],[-68.44334,-27.87628,4694.8604],[-68.44556,-27.87179,4857.0137],[-68.44812,-27.86161,4994.2627],[-68.44866,-27.85029,4885.2432],[-68.44755,-27.83809,4853.8408],[-68.4461,-27.83174,4968.4507],[-68.42975,-27.78404,4628.5674],[-68.42791,-27.77153,4553.8501],[-68.42799,-27.7658,4588.6538],[-68.42856,-27.76022,4478.1357],[-68.4299,-27.75526,4454.9043],[-68.43207,-27.75066,4396.3193],[-68.43502,-27.74663,4407.8945],[-68.4423,-27.74306,4340.8506],[-68.45315,-27.74006,4260.1025],[-68.49917,-27.73577,4760.6416],[-68.5093,-27.73779,4693.96],[-68.52101,-27.74182,4752.6475],[-68.53315,-27.74988,4821.249],[-68.54064,-27.75727,4874.1865],[-68.54901,-27.76373,4685.1274],[-68.55361,-27.76626,4640.0146],[-68.56906,-27.7721,4573.957],[-68.57669,-27.77277,4786.54],[-68.58589,-27.77246,4820.7769],[-68.60108,-27.76936,4848.2603],[-68.60973,-27.76642,4886.8018],[-68.63172,-27.75479,4510.8765],[-68.63813,-27.75278,4493.9326],[-68.64666,-27.75174,4532.0557],[-68.6571,-27.75205,4493.5903],[-68.68265,-27.75758,4879.082],[-68.75319,-27.76559,6110.9004],[-68.76285,-27.76807,6257.3623],[-68.78249,-27.77691,6399.8052],[-68.84962,-27.79345,5386.5474],[-69.12048,-27.77412,4791.229],[-69.13406,-27.77234,4789.7021],[-69.17301,-27.92408,4651.2695],[-69.19019,-27.95137,4500.2749],[-69.2159,-27.96852,4608.4668],[-69.27515,-27.98289,4090.4888],[-69.29106,-27.9894,3854.9043],[-69.30323,-27.99953,3691.2339],[-69.3131,-28.01452,3884.2402],[-69.31377,-28.02268,3883.9658],[-69.31093,-28.0293,4182.0723],[-69.31176,-28.03653,4310.9839],[-69.33083,-28.05245,3962.2666],[-69.36716,-28.13037,4551.8486],[-69.38987,-28.162,4030.0471],[-69.41188,-28.20252,4373.1885],[-69.42031,-28.21264,4462.0503],[-69.43563,-28.20851,4330.3638],[-69.45607,-28.1958,5040.5986],[-69.47617,-28.18794,4645.4717],[-69.49051,-28.19838,4973.9697],[-69.50123,-28.25037,4675.7637],[-69.51009,-28.26752,4503.9077],[-69.55353,-28.31786,4640.9175],[-69.60732,-28.3563,5476.7949],[-69.65303,-28.39785,5491.2144],[-69.65405,-28.40099,5397.0615],[-69.5867,-28.41677,4306.2046],[-69.57908,-28.41976,4472.7314],[-69.55947,-28.43124,4461.771],[-69.55118,-28.43516,4689.9248],[-69.54298,-28.43754,4599.5771],[-69.52914,-28.43873,4426.8149],[-69.51684,-28.43764,4116.4551],[-69.50012,-28.43279,4103.8193],[-69.49025,-28.42901,4308.8965],[-69.47914,-28.42643,4236.3286],[-69.47304,-28.42643,4464.605],[-69.46632,-28.42969,4286.2271],[-69.45984,-28.43552,4086.5784],[-69.44328,-28.46028,4128.3203],[-69.43914,-28.46539,4088.3921],[-69.43284,-28.47051,4076.7114],[-69.42067,-28.47733,4077.7588],[-69.41144,-28.48028,4068.5457],[-69.4032,-28.48198,4060.6177],[-69.35359,-28.4778,3956.1909],[-69.34509,-28.48054,3918.4883],[-69.33633,-28.48477,3915.3745],[-69.19019,-28.59402,3598.9204],[-69.16179,-28.62135,3830.5667],[-69.14787,-28.65794,3654.5332],[-69.13378,-28.68006,4086.7866],[-69.12242,-28.71101,3615.0667],[-69.11358,-28.74982,3457.3608],[-69.10299,-28.77767,3479.8638],[-69.0356,-28.83054,3842.5476],[-69.02025,-28.84702,3977.9644],[-69.0072,-28.86604,3829.7969],[-68.99739,-28.89834,3372.6721],[-68.98106,-28.93493,3228.4749],[-68.97392,-28.94573,3456.2053],[-68.96367,-28.95544,3844.7451],[-68.93871,-28.97265,4122.1064],[-68.92814,-28.98149,4127.147],[-68.92114,-28.98955,4003.3447],[-68.91643,-28.99647,3935.1958],[-68.91341,-29.00205,3944.0605],[-68.90863,-29.01415,3991.8228],[-68.90832,-29.02267,3934.4331],[-68.91031,-29.03311,4107.8726],[-68.91959,-29.04913,4187.9648],[-68.93005,-29.05585,4359.8569],[-68.94331,-29.06071,3997.1597],[-68.95429,-29.06345,3782.0508],[-68.96465,-29.07016,3670.0513],[-68.97369,-29.079,3870.9836],[-68.99883,-29.11791,3722.2964],[-69.0041,-29.15026,3923.2827],[-69.00503,-29.19589,4065.5925],[-69.00023,-29.23341,3685.3105],[-68.98501,-29.2485,3914.092],[-68.96718,-29.26328,3923.0083],[-68.95886,-29.28162,4267.6069],[-68.94964,-29.29733,3901.1846],[-68.94615,-29.30116,3822.5686],[-68.94305,-29.30529,3681.7034],[-68.94188,-29.31061,3721.9077],[-68.94274,-29.31666,3869.1533],[-68.94827,-29.32498,3794.4976],[-68.9538,-29.32891,3710.9272],[-68.95969,-29.3317,3807.5576],[-68.96542,-29.33289,3742.022],[-68.97051,-29.33506,3820.7527],[-68.97524,-29.34291,3811.6218],[-68.97886,-29.3563,3922.051],[-68.98578,-29.4166,4230.583],[-68.98013,-29.44384,4496.6025],[-68.97935,-29.45298,4515.6504],[-68.98242,-29.46275,4674.2861],[-68.98584,-29.4688,4539.4902],[-69.00023,-29.48513,4611.7456],[-69.01353,-29.50481,4409.938],[-69.01563,-29.51003,4384.0415],[-69.01948,-29.52233,4299.1172],[-69.02607,-29.57277,4810.2725],[-69.02405,-29.60109,4726.3496],[-69.02203,-29.61168,4732.6562],[-69.01725,-29.61778,4512.6738],[-69.01294,-29.62238,4541.6104],[-68.97772,-29.63623,3738.241],[-68.95421,-29.63462,3611.2993],[-68.89703,-29.61897,3395.2463],[-68.88889,-29.61917,3580.1726],[-68.87881,-29.62114,3352.1497],[-68.85034,-29.63106,3429.0542],[-68.83853,-29.63328,3391.3352],[-68.82305,-29.63307,3292.6113],[-68.81386,-29.63204,3126.6013],[-68.80657,-29.63034,3036.0188],[-68.75435,-29.61096,2074.8838],[-68.72564,-29.60465,1919.4619],[-68.70058,-29.60212,1573.0731],[-68.69118,-29.60372,1575.3071],[-68.67939,-29.60739,1514.5332],[-68.6218,-29.64005,1364.8599],[-68.61446,-29.64294,1327.7566],[-68.60501,-29.64532,1307.1003],[-68.58868,-29.64749,1265.1511],[-68.57857,-29.64791,1212.5828],[-68.56408,-29.64698,1152.5403],[-68.54023,-29.64325,1072.9111],[-68.52721,-29.64269,1036.6268],[-68.49672,-29.6447,986.272],[-68.37223,-29.68119,1004.554],[-68.34319,-29.68429,1088.3301],[-68.33546,-29.68723,1406.7349],[-68.32799,-29.6925,1115.8372],[-68.30427,-29.72563,967.5115],[-68.28882,-29.73906,1155.2781],[-68.24965,-29.7632,1339.0234],[-68.1909,-29.79663,1572.3524],[-68.17831,-29.8064,1427.3044],[-68.17067,-29.81704,1336.1638],[-68.16423,-29.83027,1256.8898],[-68.16103,-29.84014,1233.9957],[-68.15886,-29.84474,1278.1942],[-68.15625,-29.84913,1301.0198],[-68.15108,-29.85301,1181.5212],[-68.1439,-29.85658,1140.3665],[-68.0986,-29.86846,1355.155],[-68.07656,-29.88272,1432.6141],[-68.02827,-29.9268,1715.2124],[-68.02365,-29.94117,1357.8451],[-68.01535,-29.96034,1362.0392],[-68.01086,-29.96577,1291.1638],[-68.00406,-29.9715,1467.6791],[-67.9684,-29.99052,1750.6782],[-67.96166,-29.99517,1737.6387],[-67.95437,-30.00189,1724.3179],[-67.92794,-30.03817,1599.9539],[-67.9137,-30.05072,1517.2065],[-67.8867,-30.06928,1483.7588],[-67.87329,-30.07641,1478.6248],[-67.82384,-30.09418,1417.3024],[-67.81728,-30.09899,1405.9005],[-67.8102,-30.10566,1397.7063],[-67.78441,-30.14147,1427.4789],[-67.77343,-30.15299,1344.0688],[-67.63452,-30.24787,1191.1083],[-67.62656,-30.25655,1246.269],[-67.59525,-30.29929,1116.1479],[-67.58168,-30.32352,1125.5376],[-67.57194,-30.36492,1051.0369],[-67.56845,-30.37504,1047.7576],[-67.56623,-30.37975,1036.7032],[-67.56127,-30.38548,1026.4574],[-67.55362,-30.39179,1015.6562],[-67.48784,-30.42765,949.3665],[-67.48203,-30.43282,941.3368],[-67.47601,-30.44005,934.5432],[-67.45045,-30.48295,929.573],[-67.44407,-30.49116,924.5371],[-67.43081,-30.50372,898.1813],[-67.38965,-30.5354,862.0797],[-67.36862,-30.54666,843.0002],[-67.35947,-30.55307,822.9072],[-67.34307,-30.56707,799.0159],[-67.29604,-30.63338,746.6758],[-67.28914,-30.64108,741.816],[-67.26361,-30.67559,716.1137],[-67.2561,-30.68304,710.1312],[-67.2492,-30.68826,706.2493],[-67.20636,-30.70412,679.9904],[-67.20111,-30.70712,676.2577],[-67.19228,-30.71399,669.7221],[-67.18215,-30.72624,663.084],[-67.14313,-30.80882,619.6404],[-67.13168,-30.82566,610.6129],[-67.11846,-30.84137,599.9312],[-67.10262,-30.86737,584.4458],[-67.08363,-30.8916,568.9861],[-67.08171,-30.89739,565.7379],[-67.08071,-30.9055,561.0934],[-67.11838,-31.00922,538.0754],[-67.11474,-31.03852,524.6953],[-67.05996,-31.08182,496.2541],[-67.10393,-31.35426,422.7269],[-67.0936,-31.37907,416.3704],[-67.05864,-31.43829,404.5985],[-67.05122,-31.45927,401.1909],[-67.05055,-31.51244,397.5737],[-67.04893,-31.5233,397.2958],[-67.04412,-31.53084,397.2831],[-67.03621,-31.54014,397.3843],[-66.9548,-31.60965,428.8206],[-66.94482,-31.61569,429.5341],[-66.93896,-31.61812,423.5057],[-66.92581,-31.62205,429.0321],[-66.86646,-31.62773,406.8829],[-66.85987,-31.63027,404.4348],[-66.85447,-31.63574,402.4753],[-66.85206,-31.64846,395.7734],[-66.85201,-31.66458,390.3651],[-66.85144,-31.67047,388.2134],[-66.83976,-31.71197,385.1259],[-66.83891,-31.74116,376.5],[-66.83674,-31.74747,376.5],[-66.83232,-31.75367,376.5],[-66.82181,-31.76116,374.5],[-66.81367,-31.7639,389.6311],[-66.80641,-31.76426,389.2744],[-66.80018,-31.76344,388.1542],[-66.79202,-31.76674,388.1581],[-66.78212,-31.77444,386.3873],[-66.75628,-31.81532,370.1894],[-66.73052,-31.87656,367.0214],[-66.66182,-31.88844,365.8005],[-66.63929,-31.89495,365.8027],[-66.61167,-31.90937,365.6731],[-66.60148,-31.91366,370.6413],[-66.59394,-31.91495,377.2004],[-66.58443,-31.91526,383.9817],[-66.5681,-31.91185,393.7796],[-66.54697,-31.90338,402.0969],[-66.54025,-31.90255,406.4059],[-66.53239,-31.90338,412.7471],[-66.52144,-31.90756,423.0469],[-66.50141,-31.91955,439.9908],[-66.49932,-31.92038,442.8599],[-66.49346,-31.92069,445.8913],[-66.44093,-31.91505,475.5975],[-66.43302,-31.9149,479.7037],[-66.42374,-31.91604,485.455],[-66.4093,-31.92048,492.718],[-66.38264,-31.93247,505.5301],[-66.37385,-31.93381,508.7631],[-66.36269,-31.93355,510.5882],[-66.33036,-31.92684,521.687],[-66.31719,-31.9258,525.4911],[-66.26843,-31.93009,474.7452],[-66.21717,-31.92544,433.5799],[-66.16717,-31.90958,390.0875],[-66.12668,-31.88958,364.3935],[-66.10449,-31.88219,352.987],[-66.05439,-31.87144,339.7266],[-66.01651,-31.87118,336.3062],[-65.96925,-31.87857,336.9427],[-65.95899,-31.88172,341.6068],[-65.95326,-31.88426,340.9746],[-65.9383,-31.89309,343.551],[-65.93158,-31.89593,344.2297],[-65.92336,-31.89857,344.8181],[-65.90729,-31.90074,344.0636],[-65.8597,-31.901,343.906],[-65.75965,-31.8855,341.4464],[-65.76303,-31.61988,287.382],[-65.76577,-31.27075,248.6477],[-65.76727,-31.09624,259.1051],[-65.75378,-31.0348,258.9105],[-65.68826,-30.86458,234.1748],[-65.67524,-30.83176,229.4362],[-65.65493,-30.78236,226.6761],[-65.57351,-30.57095,201.9214],[-65.57157,-30.55503,201.4819],[-65.56455,-30.52594,198.9821],[-65.53938,-30.45659,196.9816],[-65.52638,-30.41597,195.5063],[-65.52114,-30.40522,194.8739],[-65.4999,-30.37706,193.6524],[-65.48476,-30.34786,192.3368],[-65.40189,-30.14018,185.0805],[-65.56883,-29.84278,201.6022],[-65.60532,-29.75136,209.8801],[-65.6664,-29.6353,241.5684],[-65.7295,-29.50218,267.8457],[-65.74079,-29.46533,262.1485],[-65.75291,-29.40342,258.0132],[-65.75347,-29.39045,260.4363],[-65.75231,-29.37232,257.625],[-65.75332,-29.32544,267.8739],[-65.75539,-29.3148,270.5316],[-65.76074,-29.29966,270.7187],[-65.79244,-29.2501,267.6346],[-65.97036,-29.09492,296.383],[-65.9794,-29.08959,296.9028],[-66.00067,-29.08065,299.4096],[-66.12182,-28.97063,318.6136],[-66.1657,-28.94381,333.0117],[-66.3344,-28.87452,443.1607],[-66.35333,-28.86248,496.3426],[-66.3623,-28.85452,725.0897],[-66.37703,-28.83566,908.1153],[-66.37894,-28.83085,948.2172],[-66.37933,-28.82444,972.6516],[-66.37757,-28.81679,1176.5217],[-66.37008,-28.80413,1315.3597],[-66.36486,-28.79721,1362.8859],[-66.35623,-28.78816,1294.9585],[-66.33731,-28.76109,1727.2401],[-66.33499,-28.7554,1643.7328],[-66.33367,-28.74899,1761.2076],[-66.33553,-28.74067,1533.9626],[-66.33757,-28.73571,1556.1392],[-66.35163,-28.72708,1196.5966],[-66.37313,-28.7184,1055.283],[-66.37863,-28.71546,1051.806],[-66.39674,-28.70336,921.027],[-66.4294,-28.67541,788.5372],[-66.4647,-28.63107,745.1707],[-66.47395,-28.61412,1151.8955],[-66.48632,-28.53314,756.0193],[-66.49596,-28.49914,725.4612],[-66.49862,-28.49428,723.0245],[-66.50237,-28.4888,714.9116],[-66.50963,-28.48023,709.4576],[-66.51834,-28.46751,710.3645],[-66.55027,-28.4439,720.7521],[-66.58435,-28.40416,726.9844],[-66.77948,-28.33062,786.0146],[-66.97616,-28.26742,870.7945],[-67.00838,-28.26773,895.394],[-67.03074,-28.27936,922.2012],[-67.04265,-28.28422,932.7983],[-67.04867,-28.28804,930.158],[-67.05205,-28.29083,928.6964],[-67.055,-28.29481,928.7487],[-67.05787,-28.29962,934.8378],[-67.06014,-28.30447,937.1514],[-67.06456,-28.31062,939.8023],[-67.08179,-28.32886,961.985],[-67.08975,-28.33574,979.7211],[-67.09859,-28.34147,1005.0457],[-67.112,-28.3453,1034.4598],[-67.18711,-28.35631,1079.569],[-67.26013,-28.35832,1097.2897],[-67.70416,-28.33925,1685.9972],[-67.767,-28.35346,2849.0889],[-67.78343,-28.36013,2690.5649],[-67.80875,-28.38028,3281.4216],[-67.8241,-28.3824,3341.792],[-67.83275,-28.37052,3131.5288],[-67.83717,-28.3609,3310.186],[-67.84007,-28.34504,3660.2456],[-67.84174,-28.34008,3654.0476],[-67.84412,-28.33584,3693.0029],[-67.8505,-28.32793,3549.1267],[-67.86513,-28.31316,3486.8279],[-67.9121,-28.25342,3462.2373],[-67.9144,-28.24892,3544.7949],[-67.92533,-28.2145,3657.3218],[-67.92846,-28.17539,4211.3511],[-67.93249,-28.16024,4399.9561],[-67.93244,-28.15435,4419.085],[-67.92923,-28.13487,4389.624],[-67.92931,-28.12898,4272.9688],[-67.93195,-28.12407,4312.8809],[-67.93841,-28.12035,4063.1267],[-67.94853,-28.11766,3795.5583],[-67.96218,-28.11844,3543.1177],[-67.96995,-28.12076,3494.5837],[-67.98572,-28.12821,3376.5906],[-67.9961,-28.12945,3520.9802],[-68.01163,-28.12945,3491.5847],[-68.01739,-28.13032,3502.7129],[-68.03318,-28.13575,3848.3706],[-68.05225,-28.14541,4002.6558],[-68.07292,-28.15285,4399.8086],[-68.08437,-28.15523,4028.5686],[-68.09209,-28.15435,3928.5029],[-68.10126,-28.15099,4106.043],[-68.11439,-28.14231,4148.1924],[-68.12545,-28.131,4382.8418],[-68.12819,-28.12681,4439.188],[-68.13824,-28.11518,4318.0083],[-68.1464,-28.10836,4115.6074],[-68.15152,-28.10562,4076.0898],[-68.16136,-28.1017,4043.8657],[-68.2049,-28.09027,3960.7874],[-68.23084,-28.08655,4117.7339],[-68.26221,-28.08919,4358.979],[-68.26921,-28.08857,4305.9019],[-68.27727,-28.08624,4199.1758],[-68.28541,-28.08242,4320.895],[-68.29577,-28.07451,4333.8716],[-68.30521,-28.06371,4073.75],[-68.3158,-28.04676,3954.5623],[-68.33004,-28.03193,3948.2944],[-68.33879,-28.02532,3904.7808],[-68.34843,-28.01943,3943.2585],[-68.35569,-28.01664,3914.5691],[-68.36507,-28.01426,3936.1021],[-68.38127,-28.01235,4251.728],[-68.39951,-28.01204,4220.0952],[-68.41202,-28.01307,4513.7744]]]}}