{"type": "Feature","bbox": [-69.5928,-32.0025,-65.4137,-27.7108],"geometry": {"type": "MultiPolygon","coordinates": [[[[-65.7759,-31.6453,291.3286],[-65.7697,-31.0317,264.5917],[-65.5331,-30.4823,196.8878],[-65.4137,-30.1224,185.1929],[-65.4389,-30.0606,186.0147],[-65.4593,-30.0026,187.4279],[-65.4913,-29.9234,191.2454],[-65.5468,-29.7964,204.6823],[-65.5857,-29.693,215.2415],[-65.6347,-29.5759,227.1523],[-65.7201,-29.3555,252.8081],[-65.7526,-29.2773,263.6662],[-65.829,-29.2534,270.0891],[-65.8286,-29.1809,280.1783],[-66.1098,-28.9408,323.7824],[-66.1695,-28.9111,352.0109],[-66.2199,-28.8898,379.7755],[-66.2365,-28.8992,373.6946],[-66.2484,-28.9014,374.961],[-66.2635,-28.9017,376.0123],[-66.2783,-28.8991,382.3991],[-66.2925,-28.8945,392.4069],[-66.3126,-28.8829,411.6165],[-66.3354,-28.8755,444.6998],[-66.3806,-28.8735,537.3109],[-66.3892,-28.8708,542.4114],[-66.398,-28.8636,573.7488],[-66.4034,-28.854,613.3402],[-66.4018,-28.8408,704.9709],[-66.3739,-28.8095,1202.3792],[-66.3662,-28.7894,1242.7821],[-66.3612,-28.7631,1147.8721],[-66.3552,-28.7575,1237.6729],[-66.3351,-28.7523,1494.0564],[-66.3315,-28.7448,1767.0745],[-66.331,-28.7395,1741.1342],[-66.3334,-28.7346,1596.6752],[-66.3396,-28.7288,1350.6326],[-66.3778,-28.7128,1032.6349],[-66.4896,-28.6407,743.0667],[-66.4876,-28.5795,805.3894],[-66.4893,-28.5445,754.2319],[-66.5227,-28.5412,708.0268],[-66.5235,-28.537,708.554],[-66.5277,-28.5301,704.3698],[-66.5249,-28.5226,703.5338],[-66.526,-28.5128,704.1617],[-66.5199,-28.5049,706.8285],[-66.5205,-28.4946,706.4534],[-66.516,-28.4847,708.0701],[-66.5162,-28.4635,711.356],[-66.5178,-28.4529,713.3508],[-66.5795,-28.3202,734.7021],[-66.9964,-28.2427,910.9586],[-67.0911,-28.2792,935.1112],[-67.1604,-28.3801,1138.6477],[-67.2824,-28.3822,1143.4999],[-67.3827,-28.3814,1144.1799],[-67.4182,-28.3718,1165.4053],[-67.5005,-28.3321,1204.0022],[-67.5718,-28.32,1243.4977],[-67.6235,-28.3173,1627.8845],[-67.6427,-28.3129,1483.4624],[-67.6549,-28.3128,1503.4575],[-67.6786,-28.316,1587.7703],[-67.7388,-28.3401,2441.1914],[-67.7665,-28.3453,2505.9951],[-67.8095,-28.3504,3327.7466],[-67.8176,-28.3865,3874.8047],[-67.8286,-28.3757,3089.7188],[-67.8361,-28.3555,3492.0537],[-67.8464,-28.3425,3655.7847],[-67.8475,-28.3345,3701.1621],[-67.8428,-28.3219,3769.2844],[-67.8446,-28.3142,3661.3909],[-67.8663,-28.3047,3466.2129],[-67.8786,-28.2971,3369.6787],[-67.8869,-28.2893,3444.7397],[-67.8949,-28.2781,3328.3735],[-67.9011,-28.2631,3467.4529],[-67.9091,-28.2274,3730.24],[-67.9016,-28.2198,3797.6804],[-67.9017,-28.214,3900.3645],[-67.9091,-28.2109,3766.1604],[-67.9222,-28.2134,3545.9575],[-67.9238,-28.2085,3630.186],[-67.9234,-28.1952,3646.4685],[-67.9182,-28.1637,4281.8765],[-67.9198,-28.1585,4330.6875],[-67.9219,-28.1568,4368.6069],[-67.9317,-28.1565,4441.6992],[-67.932,-28.1553,4453.8818],[-67.9157,-28.132,4329.2852],[-67.9152,-28.1271,4572.5933],[-67.9176,-28.122,4769.7612],[-67.9738,-28.1169,3479.584],[-67.9975,-28.1288,3570.3943],[-68.0094,-28.1281,3512.8589],[-68.0175,-28.1251,3548.4199],[-68.0203,-28.1264,3803.1575],[-68.0262,-28.1357,3865.6226],[-68.0304,-28.1394,3883.4727],[-68.0454,-28.1401,4029.8867],[-68.0566,-28.1439,4190.0283],[-68.0763,-28.16,4289.2656],[-68.1034,-28.1597,4102.3237],[-68.1141,-28.1549,4153.9253],[-68.1185,-28.1507,4238.2363],[-68.1164,-28.1408,4130.499],[-68.1253,-28.13,4382.8418],[-68.129,-28.1174,4284.667],[-68.1483,-28.1053,4138.4849],[-68.1542,-28.1049,4065.8433],[-68.1635,-28.1072,4186.6182],[-68.1688,-28.1062,4063.6831],[-68.1759,-28.0947,4027.2817],[-68.1802,-28.091,4010.9673],[-68.1858,-28.0896,3948.137],[-68.1997,-28.0947,3921.9104],[-68.2103,-28.0851,3998.6855],[-68.2181,-28.0813,4015.6917],[-68.2567,-28.0749,4442.71],[-68.2624,-28.0757,4312.5024],[-68.2748,-28.0871,4243.8965],[-68.2809,-28.0874,4219.2412],[-68.2833,-28.0861,4265.7285],[-68.2965,-28.0746,4251.3564],[-68.2999,-28.0675,4149.459],[-68.3027,-28.049,4199.9038],[-68.2979,-28.0337,4396.2012],[-68.2994,-28.0284,4361.646],[-68.3028,-28.0242,4260.5059],[-68.3387,-28.0257,3904.7808],[-68.3497,-28.0216,3943.2317],[-68.3617,-28.0202,3858.5198],[-68.4083,-28.0088,4562.6846],[-68.4128,-28.0111,4670.4214],[-68.4227,-28.0249,4237.9175],[-68.4346,-28.0263,4360.8237],[-68.4456,-28.0229,4336.8892],[-68.4473,-28.0176,4282.1245],[-68.4552,-28.0063,4222.8633],[-68.4565,-28.0011,4340.9053],[-68.4392,-27.9596,4228.1934],[-68.4352,-27.9238,4223.8276],[-68.4285,-27.9027,4303.6919],[-68.4275,-27.8827,4464.335],[-68.4316,-27.8733,4594.0811],[-68.4404,-27.8673,4814.2734],[-68.4445,-27.8625,4831.354],[-68.4501,-27.8412,4841.2705],[-68.4539,-27.8363,5017.5908],[-68.4624,-27.8298,4902.1655],[-68.4877,-27.8214,4462.5723],[-68.4973,-27.8162,4399.7422],[-68.5056,-27.8045,4627.9971],[-68.5094,-27.7929,4724.582],[-68.5087,-27.787,4700.4629],[-68.492,-27.7338,4653.4932],[-68.553,-27.7108,5448.5977],[-68.6446,-27.7498,4534.5718],[-68.7366,-27.7582,5404.1377],[-68.804,-27.7608,6668.4639],[-68.8456,-27.7805,5430.2021],[-69.089,-27.773,5463.6577],[-69.0896,-27.7863,5426.6548],[-69.0952,-27.7886,5400.9297],[-69.0955,-27.799,5405.5303],[-69.0999,-27.8052,5276.1904],[-69.1007,-27.8163,5184.7622],[-69.1058,-27.8231,5191.6006],[-69.1039,-27.8262,5222.5376],[-69.1087,-27.8305,5173.2324],[-69.1061,-27.8335,5179.623],[-69.1114,-27.8377,5225.1592],[-69.1142,-27.842,5184.6582],[-69.1097,-27.8465,5216.396],[-69.1105,-27.8518,5190.3159],[-69.1135,-27.8549,5218.5972],[-69.1137,-27.8573,5198.1328],[-69.1283,-27.8664,5079.6084],[-69.1323,-27.8725,4924.0039],[-69.129,-27.8794,4900.4502],[-69.1296,-27.8848,5050.0771],[-69.1255,-27.8888,4981.0957],[-69.1214,-27.8984,4772.2603],[-69.1251,-27.9035,4763.0249],[-69.1435,-27.9186,4922.1694],[-69.1471,-27.9266,5030.0708],[-69.1517,-27.9272,4965.8433],[-69.1559,-27.9318,4939.1797],[-69.1553,-27.947,5018.7363],[-69.165,-27.9532,4971.9375],[-69.1668,-27.9611,4977.8076],[-69.1702,-27.9619,4941.8145],[-69.1733,-27.9663,4946.8052],[-69.173,-27.9715,4979.3457],[-69.1811,-27.9723,4810.165],[-69.1898,-27.9662,4781.7676],[-69.1968,-27.9682,4694.7378],[-69.2074,-27.9636,4684.6387],[-69.2234,-27.9721,4712.084],[-69.2349,-27.9662,4767.5454],[-69.2379,-27.967,4752.0352],[-69.2388,-27.9703,4763.4346],[-69.2368,-27.9795,4895.5166],[-69.2436,-27.98,4815.7529],[-69.2485,-27.9839,4797.1636],[-69.2499,-27.9881,4810.7808],[-69.2532,-27.9899,4781.9146],[-69.2517,-28.0049,4665.793],[-69.2568,-28.0104,4640.5762],[-69.2667,-28.0093,4595.4233],[-69.2688,-28.0118,4604.5464],[-69.2662,-28.0151,4623.3799],[-69.2667,-28.0291,4747.8271],[-69.2645,-28.0316,4718.0801],[-69.266,-28.0368,4769.4985],[-69.2605,-28.04,4883.0342],[-69.2606,-28.0417,4841.5356],[-69.2637,-28.0474,4830.4414],[-69.2791,-28.0526,4373.2363],[-69.2812,-28.0567,4243.4155],[-69.2852,-28.0577,4239.6426],[-69.2863,-28.0604,4230.8574],[-69.2905,-28.0622,4229.6221],[-69.3016,-28.072,4195.3843],[-69.2969,-28.0786,4430.3945],[-69.2992,-28.083,4460.2788],[-69.3011,-28.0957,4596.9307],[-69.305,-28.1032,4652.2715],[-69.302,-28.1087,4796.8394],[-69.3056,-28.1141,4799.8877],[-69.3046,-28.1202,4786.2495],[-69.3085,-28.1228,4761.041],[-69.3077,-28.1293,4718.2769],[-69.3131,-28.1311,4832.9731],[-69.314,-28.1344,4883.7764],[-69.3239,-28.1427,4792.9927],[-69.3251,-28.1483,4765.5356],[-69.3298,-28.156,4659.7891],[-69.3337,-28.1585,4802.9482],[-69.3361,-28.1643,5000.9517],[-69.3413,-28.1676,4949.3657],[-69.3462,-28.1678,4928.9673],[-69.362,-28.18,4731.4922],[-69.3806,-28.1817,4659.5391],[-69.3833,-28.1842,4684.7734],[-69.3843,-28.1905,4728.5249],[-69.3811,-28.1946,4803.5986],[-69.3837,-28.2065,4968.3721],[-69.3823,-28.2117,5013.9004],[-69.3905,-28.2214,5164.3296],[-69.3914,-28.2272,5214.3945],[-69.3958,-28.2204,5049.5654],[-69.4087,-28.2137,4508.8604],[-69.4103,-28.2053,4458.9224],[-69.4156,-28.2052,4546.54],[-69.4187,-28.2081,4517.8647],[-69.4307,-28.2017,4376.6816],[-69.4474,-28.1868,4909.8896],[-69.4567,-28.1839,5150.3965],[-69.464,-28.1976,5153.166],[-69.4711,-28.202,5100.062],[-69.4728,-28.2048,5088.335],[-69.4789,-28.2073,5080.4321],[-69.482,-28.2236,5066.4985],[-69.4773,-28.2259,4974.4609],[-69.4776,-28.2317,4893.3062],[-69.4749,-28.2378,4932.7051],[-69.4846,-28.2475,4696.083],[-69.4871,-28.2555,4909.1523],[-69.5002,-28.2622,4925.9072],[-69.5029,-28.2658,4923.4668],[-69.5032,-28.2738,4892.1221],[-69.4997,-28.2841,5003.5249],[-69.5077,-28.2927,4955.5215],[-69.511,-28.2987,5055.8472],[-69.5132,-28.3079,5080.9971],[-69.5213,-28.3134,5037.8486],[-69.5198,-28.3199,5058.7788],[-69.5228,-28.3245,5029.5967],[-69.5235,-28.3298,5027.8193],[-69.5318,-28.3353,5160.9355],[-69.5391,-28.3359,5211.1689],[-69.5422,-28.3383,5249.3857],[-69.558,-28.3419,5206.7646],[-69.568,-28.3483,5319.6816],[-69.5788,-28.3507,5217.9033],[-69.5822,-28.3529,5135.0186],[-69.587,-28.3599,5173.7275],[-69.5852,-28.3661,5223.3154],[-69.5862,-28.3722,5351.9844],[-69.5881,-28.3779,5426.4258],[-69.5928,-28.3841,5345.939],[-69.5652,-28.3968,4436.417],[-69.5303,-28.405,4483.1055],[-69.5245,-28.4056,4503.3296],[-69.5074,-28.401,4118.6494],[-69.4892,-28.4008,4089.4492],[-69.4838,-28.4026,4087.3157],[-69.475,-28.4101,4069.7595],[-69.4663,-28.4239,4136.0933],[-69.4586,-28.4322,4060.113],[-69.4536,-28.4346,3998.4277],[-69.4513,-28.4396,4017.8179],[-69.4474,-28.4432,4004.5388],[-69.4353,-28.4437,3985.2307],[-69.4121,-28.4491,3944.4814],[-69.4,-28.4484,3932.2524],[-69.3947,-28.446,4025.1611],[-69.3827,-28.4455,3957.7854],[-69.3523,-28.4351,3880.1729],[-69.1979,-28.5899,3465.3721],[-69.199,-28.6059,3680.5479],[-69.1971,-28.6164,3851.0925],[-69.1842,-28.6404,3839.9043],[-69.1791,-28.6557,3671.4338],[-69.1556,-28.7045,3754.8535],[-69.1423,-28.7399,3488.6355],[-69.0932,-28.7868,3501.3123],[-68.9493,-28.9142,3686.8098],[-68.9511,-28.9248,3793.3513],[-68.9552,-28.9345,3882.4163],[-68.95,-28.9499,3856.1538],[-68.9529,-28.9553,3913.6597],[-68.964,-28.9598,3809.4766],[-68.967,-28.9645,3790.5735],[-68.9666,-28.97,3749.4229],[-68.9563,-28.9742,3903.8394],[-68.9466,-28.9804,3832.4995],[-68.9449,-28.9855,3884.7732],[-68.9456,-28.9963,3925.4612],[-68.9317,-29.006,4091.2698],[-68.9248,-29.0148,3925.8181],[-68.9176,-29.0295,4099.5566],[-68.9055,-29.0478,4245.646],[-68.9036,-29.0583,4386.6172],[-68.9083,-29.09,4368.6729],[-68.9259,-29.1116,4412.1377],[-68.9305,-29.1215,4251.8613],[-68.9346,-29.1253,4222.1152],[-68.94,-29.1277,4213.2314],[-68.952,-29.127,4249.5698],[-68.9573,-29.1243,4309.3843],[-68.9637,-29.1155,4402.2666],[-68.9685,-29.1119,4136.1313],[-68.9739,-29.1125,3975.5166],[-68.9814,-29.1209,4059.2778],[-68.9902,-29.135,4197.5269],[-68.994,-29.139,4094.208],[-69.0001,-29.1399,3960.2866],[-69.0043,-29.1433,3704.4824],[-69.0065,-29.1485,3852.5623],[-69.0088,-29.1645,4019.1938],[-68.9932,-29.1715,4270.4385],[-68.9714,-29.19,3828.8167],[-68.9718,-29.1953,3783.1641],[-68.9887,-29.2051,3855.314],[-68.9858,-29.2101,3804.2971],[-68.9809,-29.2132,3754.8796],[-68.9789,-29.2183,3851.5691],[-68.9778,-29.234,4020.9075],[-68.9723,-29.2493,3801.4019],[-68.9686,-29.2703,4082.8274],[-68.956,-29.2818,4283.5059],[-68.9521,-29.2917,4134.8984],[-68.9529,-29.3077,4089.1282],[-68.9731,-29.3277,3944.3113],[-68.976,-29.3322,4046.9167],[-68.9772,-29.3428,3884.5166],[-68.9746,-29.3587,4007.6763],[-68.9756,-29.3639,3948.8914],[-68.9869,-29.3827,3901.8037],[-68.9927,-29.3978,3979.4146],[-68.9932,-29.4031,4060.3118],[-68.9868,-29.4121,4085.7249],[-68.9773,-29.4189,4360.6172],[-68.9563,-29.4394,4340.1025],[-68.9566,-29.443,4425.4487],[-68.9749,-29.4542,4663.3315],[-68.9893,-29.4714,4615.4336],[-69.0001,-29.4761,4823.5542],[-69.0089,-29.4834,4709.498],[-69.0241,-29.5061,4450.4175],[-69.031,-29.5212,4718.2407],[-69.0291,-29.5318,4806.2646],[-69.0181,-29.5566,4426.8105],[-69.0162,-29.5884,4365.6362],[-69.0029,-29.6154,4027.9519],[-68.9965,-29.6209,3844.4697],[-68.9859,-29.6263,3768.3496],[-68.9739,-29.6283,3561.2419],[-68.9571,-29.6347,3546.4736],[-68.9509,-29.635,3562.0334],[-68.9448,-29.6343,3511.8701],[-68.9399,-29.6316,3648.3352],[-68.9336,-29.6222,3911.5344],[-68.9307,-29.6109,3323.3752],[-68.9132,-29.6158,3212.6289],[-68.8974,-29.6144,3534.0703],[-68.8924,-29.6121,3642.2878],[-68.8887,-29.6078,3873.2798],[-68.8798,-29.5934,3639.0483],[-68.8753,-29.5939,3404.5073],[-68.8647,-29.6015,3103.3677],[-68.8413,-29.614,2870.3496],[-68.8297,-29.6164,2973.5005],[-68.8176,-29.6144,2650.5154],[-68.7933,-29.6152,2864.771],[-68.769,-29.6132,2427.3787],[-68.7489,-29.6197,2146.7173],[-68.7433,-29.6188,2252.7075],[-68.705,-29.6015,1622.1335],[-68.6929,-29.6011,1543.7932],[-68.6838,-29.6024,1522.1941],[-68.6729,-29.6068,1498.3131],[-68.6311,-29.6289,1517.2239],[-68.6142,-29.6403,1344.8154],[-68.6022,-29.641,1279.0414],[-68.5861,-29.6378,1222.7854],[-68.5749,-29.6336,1180.2483],[-68.5689,-29.6334,1160.8678],[-68.5326,-29.6385,1053.9364],[-68.5085,-29.6368,1001.8426],[-68.491,-29.6413,981.0293],[-68.4667,-29.6429,962.2399],[-68.4389,-29.6536,939.8587],[-68.4049,-29.6605,1001.0541],[-68.3692,-29.6652,1038.5603],[-68.334,-29.6762,1257.8628],[-68.3312,-29.692,1125.2651],[-68.3227,-29.7119,970.312],[-68.3188,-29.716,951.162],[-68.3135,-29.7185,948.8752],[-68.3013,-29.7186,953.6033],[-68.2892,-29.7206,1032.3774],[-68.2839,-29.723,1059.1633],[-68.2724,-29.7355,1189.0291],[-68.2555,-29.7637,1486.8484],[-68.2448,-29.7767,1384.3585],[-68.2293,-29.7849,1260.4373],[-68.2041,-29.786,1595.4982],[-68.1957,-29.788,1417.2437],[-68.194,-29.7922,1522.4673],[-68.195,-29.8037,1430.1785],[-68.1935,-29.8089,1193.4506],[-68.1851,-29.8289,1406.4362],[-68.1736,-29.8476,1092.1805],[-68.1684,-29.8505,1108.4696],[-68.1387,-29.8446,1279.9526],[-68.1143,-29.8428,1279.2355],[-68.1081,-29.843,1287.1964],[-68.1033,-29.8457,1297.738],[-68.0956,-29.8715,1393.1208],[-68.0826,-29.9013,1115.0664],[-68.0777,-29.9046,1092.1299],[-68.066,-29.9075,1091.3899],[-68.0317,-29.9298,1369.8521],[-68.0249,-29.9387,1535.571],[-68.0084,-29.9673,1475.3188],[-68.0044,-29.9711,1525.4561],[-67.9828,-29.981,1801.1503],[-67.9706,-29.9824,1751.6982],[-67.9491,-30.0066,1674.735],[-67.895,-30.0518,1563.0347],[-67.8719,-30.0685,1502.4235],[-67.855,-30.0736,1456.7983],[-67.8344,-30.0843,1431.7325],[-67.806,-30.0935,1423.1278],[-67.8024,-30.0971,1412.4263],[-67.8009,-30.1129,1387.7788],[-67.7987,-30.1176,1382.9834],[-67.7903,-30.1252,1374.8369],[-67.7524,-30.1462,1352.9956],[-67.7085,-30.1736,1303.7036],[-67.6909,-30.1877,1287.2424],[-67.6728,-30.2086,1262.9719],[-67.6603,-30.2322,1225.052],[-67.6565,-30.2364,1214.8396],[-67.6379,-30.2496,1187.4922],[-67.6211,-30.2644,1218.2817],[-67.5953,-30.2964,1116.7799],[-67.5792,-30.3037,1101.3184],[-67.5764,-30.3078,1096.3082],[-67.5695,-30.3388,1058.7098],[-67.5698,-30.3439,1054.4138],[-67.5736,-30.3539,1058.9456],[-67.5792,-30.363,1055.0955],[-67.5795,-30.3683,1055.0889],[-67.5779,-30.3734,1058.3323],[-67.5632,-30.3899,1034.0771],[-67.5512,-30.4074,1000.715],[-67.5074,-30.44,953.1484],[-67.5026,-30.441,951.4855],[-67.4843,-30.4504,936.0261],[-67.4734,-30.4576,933.8815],[-67.4604,-30.4717,921.0574],[-67.4319,-30.5098,898.3887],[-67.4137,-30.5189,891.5601],[-67.3927,-30.535,866.1534],[-67.3621,-30.5497,829.9264],[-67.3399,-30.5644,793.9774],[-67.3282,-30.5756,784.3447],[-67.3055,-30.6063,753.0644],[-67.2761,-30.6321,733.5614],[-67.2357,-30.6817,697.0239],[-67.2071,-30.704,680.9711],[-67.1869,-30.7163,667.4638],[-67.1798,-30.7225,662.8489],[-67.1589,-30.7643,639.0303],[-67.1429,-30.7913,625.8629],[-67.0941,-30.8649,582.8823],[-67.0763,-30.8871,568.2808],[-67.0771,-30.9272,552.7673],[-67.1164,-31.0209,531.9758],[-67.0623,-31.0858,495.248],[-67.1001,-31.3875,416.3515],[-67.0923,-31.4042,408.3842],[-67.0863,-31.428,405.3461],[-67.0743,-31.4432,404.0249],[-67.0688,-31.4534,402.5854],[-67.0611,-31.5296,397.3223],[-67.0548,-31.5532,397.728],[-67.0436,-31.5685,397.8773],[-67.0309,-31.5792,398.2398],[-66.9832,-31.6053,411.3708],[-66.9461,-31.6378,422.227],[-66.8695,-31.6381,405.0458],[-66.862,-31.6552,394.0955],[-66.8589,-31.6669,391.9009],[-66.8573,-31.6906,381.9815],[-66.8574,-31.7609,387.2139],[-66.8551,-31.7729,388.5318],[-66.8492,-31.7839,384.5209],[-66.8403,-31.7936,380.2394],[-66.8229,-31.8035,375.0005],[-66.8028,-31.8102,373.2062],[-66.7818,-31.8136,371.4611],[-66.7647,-31.8185,370.4371],[-66.7549,-31.8265,369.3471],[-66.7474,-31.8438,368.632],[-66.7443,-31.8558,368.0125],[-66.7383,-31.8665,367.1259],[-66.7154,-31.8871,366.0609],[-66.7131,-31.8872,366.069],[-66.6994,-31.8976,366.1519],[-66.6833,-31.9176,366.2416],[-66.6466,-31.9416,366.5921],[-66.6344,-31.9475,366.8799],[-66.6138,-31.9524,367.0562],[-66.5601,-31.9561,403.1924],[-66.5579,-31.9573,403.1992],[-66.5575,-31.9601,405.1284],[-66.5596,-31.9769,415.1264],[-66.3885,-32.0008,507.2206],[-66.3426,-32.0025,486.2364],[-66.3432,-31.9732,520.282],[-66.3348,-31.9597,543.0942],[-66.3279,-31.9529,568.8229],[-66.3161,-31.9457,587.821],[-66.3064,-31.9426,608.037],[-66.2813,-31.9427,485.3522],[-66.2532,-31.9465,454.6548],[-66.1532,-31.9705,391.3212],[-66.1475,-31.9698,389.3387],[-66.1409,-31.9547,384.4999],[-66.1372,-31.9498,382.7601],[-66.1308,-31.9467,379.651],[-66.1239,-31.9459,377.7657],[-66.1107,-31.9507,375.4474],[-66.0857,-31.9678,378.0077],[-66.0753,-31.9728,378.4258],[-66.0729,-31.9725,377.858],[-66.0722,-31.9704,376.7934],[-66.0723,-31.9554,371.4391],[-66.0682,-31.9494,367.5498],[-66.0604,-31.9429,362.728],[-66.0176,-31.9212,352.9722],[-65.9553,-31.886,341.6793],[-65.9487,-31.8866,342.3908],[-65.9187,-31.8969,344.0037],[-65.9048,-31.8984,343.7866],[-65.8729,-31.8961,342.5944],[-65.8063,-31.8872,337.5761],[-65.7783,-31.8852,339.4717],[-65.7759,-31.6453,291.3286]]]]}
,"properties": {"GID_1": "ARG.12_1","GID_0": "ARG","country": "Argentina","state": "LaRioja","VARNAME_1": "NA","NL_NAME_1": "NA","TYPE_1": "Provincia","ENGTYPE_1": "Province","CC_1": "NA","HASC_1": "AR.LR","ISO_1": "AR-F","name": "LaRioja.state","area_km2": 91211.82,"hist_schema_id": "Elevation0-9000","hist_area_km2": {"175": 165.44,"200": 1829.98,"225": 950.44,"250": 1261.22,"275": 2482.84,"300": 4160.05,"325": 4452.98,"350": 3045.9,"375": 2734.74,"400": 2398.63,"425": 2256.85,"450": 1871.03,"475": 1551.87,"500": 1369.88,"525": 1285.43,"550": 1148.13,"575": 1149.91,"600": 1170.96,"625": 1190.03,"650": 1046.69,"675": 939.15,"700": 917.88,"725": 1121.53,"750": 1093.36,"775": 1020.9,"800": 896.76,"825": 782.21,"850": 725.04,"875": 645.67,"900": 614.05,"925": 567.55,"950": 522.63,"975": 534.27,"1000": 537.63,"1025": 555.6,"1050": 605.64,"1075": 580.18,"1100": 579.24,"1125": 614.74,"1150": 645.56,"1175": 672.11,"1200": 703.31,"1225": 790.35,"1250": 873.05,"1275": 800.05,"1300": 710.54,"1325": 660.43,"1350": 648.33,"1375": 631.35,"1400": 636.21,"1425": 610.42,"1450": 588.04,"1475": 555.9,"1500": 517.83,"1525": 492.5,"1550": 476.96,"1575": 475.17,"1600": 479.39,"1625": 439.25,"1650": 418.74,"1675": 389.03,"1700": 372.28,"1725": 353.98,"1750": 342.86,"1775": 323.21,"1800": 307.48,"1825": 305.72,"1850": 311.2,"1875": 310.25,"1900": 316.72,"1925": 311.22,"1950": 304.95,"1975": 303.3,"2000": 311.36,"2025": 306.4,"2050": 305.83,"2075": 298.1,"2100": 282.77,"2125": 277.97,"2150": 280.6,"2175": 281.39,"2200": 275.7,"2225": 279.44,"2250": 270.56,"2275": 261.14,"2300": 255.65,"2325": 247.97,"2350": 238.84,"2375": 230.69,"2400": 225.02,"2425": 219.29,"2450": 217.83,"2475": 218.73,"2500": 211.46,"2525": 211.88,"2550": 210.71,"2575": 204.09,"2600": 197.19,"2625": 192.22,"2650": 188.65,"2675": 187.61,"2700": 180.58,"2725": 177.55,"2750": 172.1,"2775": 174.69,"2800": 172.45,"2825": 169.24,"2850": 166.79,"2875": 166.75,"2900": 163.14,"2925": 157.67,"2950": 157.41,"2975": 154.58,"3000": 151.62,"3025": 150.78,"3050": 152.04,"3075": 149.25,"3100": 155.57,"3125": 166.76,"3150": 167.15,"3175": 160.63,"3200": 160.89,"3225": 164.81,"3250": 164.83,"3275": 164.46,"3300": 164.88,"3325": 158.06,"3350": 155.9,"3375": 147.04,"3400": 143.62,"3425": 139.14,"3450": 138.4,"3475": 142.12,"3500": 143.71,"3525": 143.42,"3550": 144.97,"3575": 143.44,"3600": 144.33,"3625": 153.22,"3650": 174.0,"3675": 188.52,"3700": 186.47,"3725": 202.11,"3750": 208.38,"3775": 214.68,"3800": 204.51,"3825": 206.6,"3850": 213.75,"3875": 209.82,"3900": 208.08,"3925": 204.68,"3950": 201.79,"3975": 204.84,"4000": 207.72,"4025": 204.08,"4050": 200.51,"4075": 185.83,"4100": 182.01,"4125": 178.03,"4150": 173.33,"4175": 170.4,"4200": 162.41,"4225": 159.62,"4250": 194.87,"4275": 186.81,"4300": 173.89,"4325": 178.92,"4350": 192.06,"4375": 185.86,"4400": 179.0,"4425": 165.39,"4450": 148.03,"4475": 139.51,"4500": 131.06,"4525": 135.45,"4550": 151.1,"4575": 153.9,"4600": 146.07,"4625": 132.67,"4650": 125.34,"4675": 118.77,"4700": 118.13,"4725": 113.6,"4750": 102.04,"4775": 94.08,"4800": 88.63,"4825": 78.04,"4850": 78.77,"4875": 75.52,"4900": 70.14,"4925": 68.72,"4950": 60.36,"4975": 57.72,"5000": 52.2,"5025": 45.74,"5050": 42.59,"5075": 40.32,"5100": 42.57,"5125": 44.69,"5150": 56.24,"5175": 51.38,"5200": 49.56,"5225": 51.99,"5250": 53.89,"5275": 58.94,"5300": 56.67,"5325": 49.08,"5350": 46.84,"5375": 45.79,"5400": 49.56,"5425": 45.47,"5450": 42.39,"5475": 42.03,"5500": 40.49,"5525": 34.85,"5550": 26.14,"5575": 22.13,"5600": 21.0,"5625": 21.22,"5650": 19.4,"5675": 18.2,"5700": 16.28,"5725": 15.22,"5750": 14.24,"5775": 12.79,"5800": 11.53,"5825": 11.88,"5850": 11.72,"5875": 12.39,"5900": 11.38,"5925": 11.25,"5950": 9.3,"5975": 10.09,"6000": 8.86,"6025": 7.3,"6050": 4.87,"6075": 4.1,"6100": 3.5,"6125": 3.69,"6150": 2.75,"6175": 2.83,"6200": 2.47,"6225": 2.23,"6250": 1.99,"6275": 2.23,"6300": 2.0,"6325": 1.52,"6350": 1.33,"6375": 1.52,"6400": 1.37,"6425": 1.09,"6450": 1.2,"6475": 1.18,"6500": 1.52,"6525": 0.84,"6550": 1.37,"6575": 1.42,"6600": 1.57,"6625": 1.09}}}