{"type":"Feature","properties":{"GID_2":"ARG.1.21_1","GID_0":"ARG","country":"Argentina","GID_1":"ARG.1_1","state":"BuenosAires","NL_NAME_1":"NA","county":"CapitánSarmiento","VARNAME_2":"NA","NL_NAME_2":"NA","TYPE_2":"Partido","ENGTYPE_2":"Part","CC_2":"NA","HASC_2":"AR.BA.CS","name":"CapitánSarmiento.county"},
"geometry":{"type": "MultiPolygon","coordinates": [[[[-60.0344,-34.2723,57.2159],[-59.975,-34.2892,51.3836],[-59.9233,-34.2521,53.2119],[-59.9002,-34.2419,52.7071],[-59.8915,-34.2503,51.8638],[-59.8981,-34.2579,50.9989],[-59.8866,-34.271,52.4583],[-59.6805,-34.1694,42.818],[-59.725,-34.1325,28.896],[-59.7163,-34.1189,31.4867],[-59.7147,-34.1094,31.6223],[-59.7229,-34.0877,33.9642],[-59.7467,-34.0506,20.755],[-59.7475,-34.0408,18.1424],[-59.7612,-34.0136,12.6739],[-59.7598,-34.0103,13.7237],[-59.7554,-34.0078,18.2622],[-59.7504,-33.9985,11.5412],[-59.7555,-34.0016,13.5569],[-59.7611,-34.0011,13.7312],[-59.774,-34.0089,13.401],[-59.7963,-34.0179,13.8586],[-59.8025,-34.0185,13.5123],[-59.8126,-34.0159,19.3512],[-59.8222,-34.0187,18.815],[-59.8252,-34.0317,15.6697],[-59.8356,-34.0383,15.4142],[-59.8388,-34.038,16.6824],[-59.8475,-34.0445,28.3258],[-59.8523,-34.0493,26.3203],[-59.8547,-34.0552,16.8173],[-59.8783,-34.0669,19.8065],[-59.893,-34.0723,19.0063],[-59.9018,-34.078,18.2923],[-59.9117,-34.0816,20.3633],[-59.9192,-34.0792,20.3399],[-59.9457,-34.079,20.7562],[-59.959,-34.0835,19.9497],[-59.9658,-34.0884,23.2998],[-59.9736,-34.0866,22.1969],[-59.9885,-34.0904,23.7332],[-59.9963,-34.1203,28.9926],[-59.9912,-34.1332,40.1697],[-59.99,-34.1408,39.6176],[-59.994,-34.1545,34.287],[-59.9917,-34.1708,43.0662],[-59.9931,-34.1774,39.181399999999996],[-59.992,-34.1923,46.2247],[-59.9973,-34.2103,45.5806],[-60.0053,-34.2227,51.0801],[-60.0076,-34.2312,47.8083],[-60.0077,-34.247,49.5427],[-60.0344,-34.2723,57.2159]]]]}}