{"type":"Feature","properties":{"featurecla":"River","scalerank":6,"rivernum":287,"dissolve":"287River","name":"Salado2","name_alt":null,"note":null,"min_zoom":5.0,"strokeweig":0.2,"name_en":"Salado","min_label":6.0},
"geometry":{"type": "LineString","coordinates": [[-65.865087890624991,-24.20842864375588,3377.748],[-65.865649414062489,-24.217803643755886,3421.4573],[-65.871191406249991,-24.234698175005889,3418.186],[-65.8720703125,-24.24382903438088,3457.458],[-65.870654296874989,-24.250518487505886,3435.1133],[-65.857470703124989,-24.27507903438088,3465.8936],[-65.850634765624989,-24.30193450313088,3688.6353],[-65.848876953125,-24.31438567500588,3881.5786],[-65.846850585937489,-24.32024505000588,3750.7527],[-65.843994140625,-24.32488372188088,3674.0498],[-65.837255859374991,-24.33318450313088,3550.6436],[-65.834277343749989,-24.337920831255886,3503.4111],[-65.826342773437489,-24.356963800005886,3425.1885],[-65.822070312499989,-24.375030206255886,3518.0679],[-65.82001953125,-24.41668059688088,2927.0776]]}}