{"type":"Feature","properties":{"featurecla":"River","scalerank":8,"rivernum":858,"dissolve":"858River","name":"Bermejo","name_alt":null,"note":null,"min_zoom":7.0,"strokeweig":0.15,"name_en":"Bermejo","min_label":8.0},
"geometry":{"type": "LineString","coordinates": [[-64.696582031249989,-21.966827081255886,1742.7469],[-64.696582031249989,-21.97307708125588,1780.1152],[-64.671557617187489,-22.003741143755889,1874.532],[-64.679785156249991,-22.119463800005889,1585.9589],[-64.668627929687489,-22.166045831255886,1278.6039],[-64.658544921874991,-22.17839934688088,1361.9049],[-64.639453124999989,-22.19158294063088,1210.8909],[-64.616992187499989,-22.20208098750588,1347.9241],[-64.596972656249989,-22.20647551875588,1597.743],[-64.587646484375,-22.21257903438088,1332.5979],[-64.560961914062489,-22.242998956255889,1072.292],[-64.552539062499989,-22.25481536250588,996.7662],[-64.543505859374989,-22.27532317500588,851.3182],[-64.543017578124989,-22.291338800005889,831.4056],[-64.549853515624989,-22.305205987505886,865.1107],[-64.562841796874991,-22.31975676875588,772.2041]]}}