{"type":"Feature","properties":{"featurecla":"River","scalerank":6,"rivernum":287,"dissolve":"287River","name":"Salado3","name_alt":null,"note":null,"min_zoom":5.0,"strokeweig":0.2,"name_en":"Salado","min_label":6.0},
"geometry":{"type": "LineString","coordinates": [[-65.82001953125,-24.41668059688088,2927.0776],[-65.825122070312489,-24.440459893755886,3009.1255],[-65.837158203125,-24.459307550005889,2902.9497],[-65.851000976562489,-24.47649505000588,2769.9729],[-65.861621093749989,-24.49553801875588,2753.1467],[-65.865234375,-24.509795831255886,2691.0364],[-65.86767578125,-24.554034112505889,2631.0259],[-65.866259765624989,-24.56707122188088,2656.0479],[-65.862109374999989,-24.57781340938088,2718.062],[-65.840136718749989,-24.608721612505889,2601.7017],[-65.828125,-24.63201262813088,2845.3081],[-65.819091796875,-24.64275481563088,2548.3887],[-65.791357421874991,-24.666827081255889,2490.7148],[-65.784277343749991,-24.676788018755886,2520.9082],[-65.764501953124991,-24.71746184688088,2310.7939],[-65.749365234374991,-24.76018645625588,2289.9248],[-65.733569335937489,-24.839873956255886,2112.9399],[-65.72412109375,-24.86516692500588,2241.6973],[-65.705004882812489,-24.892608331255886,1898.2048],[-65.680346679687489,-24.91497161250588,1841.6001],[-65.625537109374989,-24.953936456255889,1416.5255],[-65.542822265624991,-25.031280206255886,1234.439],[-65.5078125,-25.052764581255886,1181.1519],[-65.444433593749991,-25.082549737505886,1109.4919],[-65.4228515625,-25.106280206255889,1085.5867],[-65.422778320312489,-25.140459893755889,1058.23],[-65.438720703125,-25.185577081255886,1033.6077],[-65.441015624999991,-25.211260675005889,1034.458],[-65.428027343749989,-25.22356536250588,1032.0],[-65.39599609375,-25.222491143755889,1242.1672],[-65.38525390625,-25.224639581255886,1404.1224],[-65.376757812499989,-25.22966887813088,1274.1836],[-65.361621093749989,-25.24407317500588,1100.9436],[-65.353271484375,-25.249346612505889,1090.5342],[-65.299853515624989,-25.267901300005889,1263.2057],[-65.271337890624991,-25.272295831255889,1567.9374],[-65.244238281249991,-25.269366143755889,1087.9374],[-65.215991210937489,-25.25115325313088,943.2947],[-65.204199218749991,-25.22356536250588,870.5746],[-65.197851562499991,-25.191729425005889,884.5751],[-65.18603515625,-25.16082122188088,1345.3883],[-65.171240234374991,-25.144073175005886,857.4198],[-65.153002929687489,-25.13152434688088,802.6],[-65.097021484374991,-25.103057550005886,751.589],[-65.086376953125,-25.10222747188088,749.3003],[-64.9501953125,-25.15789153438088,833.3994],[-64.936328124999989,-25.16716887813088,821.9037],[-64.930029296874991,-25.175616143755889,792.8014],[-64.921875,-25.20183684688088,672.8734],[-64.906909179687489,-25.22795989375588,659.799],[-64.906103515624991,-25.23601653438088,656.2522],[-64.90869140625,-25.256182550005889,720.9636],[-64.883154296874991,-25.306182550005886,663.8359],[-64.827001953124991,-25.336748956255889,600.3411],[-64.671240234374991,-25.36443450313088,526.8473],[-64.668627929687489,-25.365752862505886,526.2472],[-64.6578125,-25.36296965938088,521.8146],[-64.643359374999989,-25.354034112505886,514.9702],[-64.638232421874989,-25.352080987505886,512.1635],[-64.633227539062489,-25.348467706255889,509.9633],[-64.610278320312489,-25.321123956255889,499.1447],[-64.602709960937489,-25.315264581255889,496.2563],[-64.587158203125,-25.308135675005886,489.207],[-64.579882812499989,-25.30364348750588,486.2788],[-64.522021484374989,-25.25383880000588,474.5],[-64.487719726562489,-25.23577239375588,474.5],[-64.397705078125,-25.22039153438088,462.808],[-64.373583984374989,-25.198272393755886,443.5621],[-64.339697265624991,-25.12615325313088,446.2372],[-64.31591796875,-25.099639581255886,441.1555],[-64.280078124999989,-25.078643487505886,430.2319],[-64.238208007812489,-25.071123956255889,424.0037],[-64.1962890625,-25.08513762813088,402.3565],[-64.172656249999989,-25.109209893755889,382.8759],[-64.155322265624989,-25.14006926875588,381.5911],[-64.011328124999991,-25.50164153438088,316.5655],[-63.949877929687489,-25.58147551875588,308.9912],[-63.962890625,-25.66057708125588,299.291],[-63.955175781249991,-25.709307550005889,292.9785],[-63.930273437499991,-25.748858331255889,287.6067],[-63.86669921875,-25.81755950313088,277.7987],[-63.797778320312489,-25.93792083125588,262.8392],[-63.73984375,-26.014971612505889,254.2182],[-63.722412109375,-26.05144622188088,250.2541],[-63.720947265625,-26.090850518755886,244.9455],[-63.736987304687489,-26.139678643755886,239.7659],[-63.778662109374991,-26.19109465938088,234.7994],[-63.784765624999991,-26.21209075313088,236.6715],[-63.7841796875,-26.256182550005889,230.916],[-63.778564453125,-26.29802825313088,229.4982],[-63.77294921875,-26.31536223750588,230.4725],[-63.764013671874991,-26.33538176875588,226.3094],[-63.752880859375,-26.354522393755886,224.6483],[-63.740405273437489,-26.369463800005889,222.7245],[-63.730810546874991,-26.384307550005886,220.4914],[-63.715869140624989,-26.441436456255886,217.9593],[-63.686376953124991,-26.50530364375588,211.108],[-63.677832031249991,-26.544952081255886,208.4275],[-63.6611328125,-26.58660247188088,205.3662],[-63.661865234375,-26.606475518755886,207.236],[-63.66845703125,-26.61467864375588,205.7055],[-63.689379882812489,-26.630205987505889,203.1542],[-63.696630859374991,-26.640655206255886,203.6247],[-63.698339843749991,-26.65056731563088,203.0772],[-63.696630859374991,-26.77092864375588,191.4615],[-63.701416015625,-26.79436614375588,189.9872],[-63.719335937499991,-26.828936456255889,189.1778],[-63.72333984375,-26.849151300005886,186.8539],[-63.722021484374991,-26.872393487505889,186.5403],[-63.709643554687489,-26.921221612505889,185.4514],[-63.699462890625,-27.00383880000588,178.377],[-63.696826171874989,-27.00872161250588,178.7582],[-63.696630859374991,-27.04094817500588,177.514],[-63.69287109375,-27.054717706255886,175.6686],[-63.684130859374989,-27.062041925005886,176.7637],[-63.674731445312489,-27.06804778438088,176.8775],[-63.668701171875,-27.07830169063088,174.3872],[-63.669848632812489,-27.087237237505889,173.2819],[-63.679785156249991,-27.108233331255889,174.5015],[-63.682373046875,-27.11980559688088,174.6959],[-63.680273437499991,-27.13054778438088,175.2825],[-63.670825195312489,-27.14837005000588,171.3422],[-63.668701171875,-27.15764739375588,172.9864],[-63.664160156249991,-27.170245050005889,168.8741],[-63.633959960937489,-27.21599700313088,168.4067],[-63.612963867187489,-27.267901300005889,165.4567],[-63.603515625,-27.28118255000588,164.5222],[-63.600634765624989,-27.28826262813088,164.5052],[-63.593017578125,-27.32244231563088,162.6854],[-63.58935546875,-27.332842706255889,161.6209],[-63.565039062499991,-27.367510675005889,160.3276],[-63.541357421874991,-27.43084075313088,157.5535],[-63.538378906249989,-27.445635675005889,154.6133],[-63.558837890625,-27.617022393755889,146.2274]]}}