{"type": "Feature","bbox": [-60.9858,-31.9684,-60.3126,-31.0175],"geometry": {"type": "MultiPolygon","coordinates": [[[[-60.6654,-31.8034,14.7863],[-60.6612,-31.7885,9.0],[-60.6608,-31.778,14.2887],[-60.6695,-31.7477,16.4133],[-60.6658,-31.735,14.0464],[-60.6581,-31.7237,12.6639],[-60.646,-31.7228,12.4362],[-60.625,-31.7262,15.7058],[-60.61,-31.7238,9.0],[-60.5999,-31.718,9.0],[-60.5785,-31.6957,10.4525],[-60.5706,-31.6921,9.0],[-60.5492,-31.6912,9.0],[-60.5315,-31.6953,9.0],[-60.5238,-31.6996,9.0],[-60.5055,-31.7,9.0],[-60.4669,-31.6924,9.0],[-60.4306,-31.6788,9.0],[-60.4139,-31.6674,14.6909],[-60.4028,-31.655,9.0],[-60.3818,-31.636,9.5],[-60.3417,-31.6172,10.5],[-60.3252,-31.6057,10.5],[-60.3213,-31.596,10.5],[-60.3233,-31.5855,12.2123],[-60.3318,-31.5719,11.0],[-60.3331,-31.5561,11.125],[-60.3317,-31.5511,11.5],[-60.3282,-31.547,11.5],[-60.3126,-31.5373,11.5],[-60.3398,-31.5245,16.0684],[-60.3512,-31.5161,14.7659],[-60.3657,-31.514,11.5],[-60.38,-31.4994,13.4874],[-60.3949,-31.4982,13.3122],[-60.4017,-31.5005,14.5339],[-60.4071,-31.5051,12.5037],[-60.4139,-31.507,11.9799],[-60.428,-31.5032,16.6151],[-60.435,-31.492,16.0104],[-60.4422,-31.4907,15.8764],[-60.4721,-31.4943,13.7178],[-60.4894,-31.4834,11.5],[-60.5037,-31.4869,12.6407],[-60.5112,-31.4867,15.2709],[-60.5255,-31.4827,14.1063],[-60.5299,-31.478,13.0289],[-60.5307,-31.4586,12.9063],[-60.5287,-31.4525,13.1226],[-60.5243,-31.4472,13.1337],[-60.5133,-31.4392,11.5],[-60.5108,-31.433,11.5],[-60.5055,-31.4078,11.5],[-60.5053,-31.395,11.5],[-60.5017,-31.3826,11.9009],[-60.5046,-31.3506,13.0603],[-60.5002,-31.3384,13.3098],[-60.4914,-31.328,13.2807],[-60.4888,-31.3216,11.5],[-60.4928,-31.3169,11.5],[-60.4997,-31.3137,12.0845],[-60.5073,-31.3135,13.297],[-60.5141,-31.3107,13.2425],[-60.5182,-31.3056,13.4614],[-60.5181,-31.2926,16.0834],[-60.5139,-31.2803,13.1001],[-60.5098,-31.2749,14.3991],[-60.4976,-31.2676,15.1477],[-60.4887,-31.2574,14.2172],[-60.4799,-31.2397,15.0206],[-60.4731,-31.2172,15.6048],[-60.5942,-31.1814,17.722],[-60.5777,-31.1702,18.4036],[-60.5681,-31.1355,21.2064],[-60.6967,-31.1065,38.7426],[-60.6807,-31.0457,47.486],[-60.8255,-31.0175,28.9186],[-60.8255,-31.022,32.2376],[-60.8456,-31.0419,29.0653],[-60.8491,-31.0477,27.2397],[-60.8499,-31.054,26.6357],[-60.8416,-31.0716,26.4708],[-60.8344,-31.0826,26.4045],[-60.8268,-31.0819,25.4868],[-60.812,-31.0843,28.926],[-60.8069,-31.0885,27.0055],[-60.8047,-31.0954,24.6685],[-60.805,-31.1016,27.6902],[-60.8277,-31.1272,32.8353],[-60.833,-31.139,26.1846],[-60.8436,-31.148,28.2843],[-60.8468,-31.1533,27.3848],[-60.8468,-31.1599,27.2607],[-60.8497,-31.1656,27.2106],[-60.8588,-31.1759,28.7353],[-60.8599,-31.1888,27.4613],[-60.8486,-31.1974,24.0643],[-60.847,-31.2027,24.4906],[-60.8677,-31.2216,35.6387],[-60.8805,-31.2374,26.1696],[-60.8859,-31.2414,21.8898],[-60.9,-31.2455,25.142],[-60.9086,-31.2558,24.1694],[-60.924,-31.2698,22.7232],[-60.9354,-31.2772,33.5967],[-60.9348,-31.2899,32.3338],[-60.9261,-31.3,25.0588],[-60.9276,-31.3064,28.703],[-60.9385,-31.315,38.0319],[-60.9416,-31.3276,33.4455],[-60.9454,-31.3333,34.7772],[-60.9459,-31.3395,29.7906],[-60.9415,-31.3518,20.6767],[-60.9298,-31.3598,20.8339],[-60.9169,-31.3648,18.9817],[-60.9136,-31.3693,20.5485],[-60.8917,-31.3686,21.4845],[-60.8846,-31.3713,20.1176],[-60.8781,-31.37,18.1108],[-60.8721,-31.3658,21.0691],[-60.8514,-31.3585,21.5835],[-60.846,-31.3537,22.301],[-60.8341,-31.3538,24.147],[-60.8267,-31.3522,17.6849],[-60.8192,-31.3524,17.2948],[-60.8098,-31.3625,21.090699999999998],[-60.811,-31.3685,22.8542],[-60.8206,-31.3774,23.0522],[-60.8197,-31.3967,25.332],[-60.8128,-31.415,15.9328],[-60.8002,-31.431,16.6712],[-60.7966,-31.4434,18.1017],[-60.795,-31.4562,18.9593],[-60.7913,-31.4611,19.367],[-60.7855,-31.4629,19.2789],[-60.8025,-31.4845,21.3226],[-60.8051,-31.5095,18.1328],[-60.8108,-31.5126,22.1337],[-60.8139,-31.5183,25.1654],[-60.8133,-31.5249,24.1266],[-60.8086,-31.5295,19.7765],[-60.802,-31.5325,16.0596],[-60.7973,-31.5375,14.1072],[-60.8003,-31.5434,14.325],[-60.8063,-31.5474,16.3178],[-60.8072,-31.5537,18.2911],[-60.8043,-31.5594,18.2763],[-60.7939,-31.5688,18.2866],[-60.7804,-31.5917,16.6376],[-60.7808,-31.5933,16.1351],[-60.8106,-31.5893,21.0561],[-60.8312,-31.5813,29.2522],[-60.8478,-31.5798,29.2411],[-60.8534,-31.5811,29.2365],[-60.8365,-31.6239,28.5088],[-60.8326,-31.6418,23.647],[-60.8544,-31.6594,27.1637],[-60.912,-31.6989,25.1266],[-60.9187,-31.7314,25.888],[-60.9508,-31.7275,37.4118],[-60.9786,-31.7715,29.2658],[-60.9858,-31.8039,30.0304],[-60.9481,-31.8117,18.2032],[-60.9081,-31.8182,15.3972],[-60.8928,-31.8192,15.4771],[-60.8865,-31.8158,15.5698],[-60.8822,-31.8105,15.3514],[-60.8766,-31.8069,14.6981],[-60.8691,-31.8058,13.9143],[-60.8644,-31.8099,13.723],[-60.8541,-31.8334,10.6234],[-60.8528,-31.8397,12.1608],[-60.8558,-31.8523,10.8121],[-60.8551,-31.8651,10.521],[-60.8509,-31.8703,10.3987],[-60.8444,-31.8733,9.5],[-60.8369,-31.8727,10.4083],[-60.8303,-31.8697,10.5634],[-60.823,-31.8699,9.0],[-60.8196,-31.8758,9.0],[-60.8127,-31.8771,9.0],[-60.7986,-31.8748,9.0],[-60.7925,-31.8785,9.0],[-60.7855,-31.8799,9.0],[-60.7713,-31.8765,10.2856],[-60.7674,-31.8817,10.0837],[-60.7689,-31.9071,11.1633],[-60.7639,-31.9192,9.9665],[-60.7633,-31.9256,10.3556],[-60.765,-31.954,10.0752],[-60.7147,-31.9684,8.0],[-60.7077,-31.9497,8.5],[-60.6887,-31.9344,11.455],[-60.6709,-31.9242,8.5],[-60.6633,-31.9129,11.4158],[-60.663,-31.9053,12.5949],[-60.6713,-31.8883,12.4339],[-60.6736,-31.8781,14.4361],[-60.6713,-31.8679,14.732],[-60.6586,-31.8413,9.0],[-60.6599,-31.8335,9.0],[-60.6668,-31.8221,13.3719],[-60.6654,-31.8034,14.7863]]]]}
,"properties": {"GID_2": "ARG.21.9_1","GID_0": "ARG","country": "Argentina","GID_1": "ARG.21_1","state": "SantaFe","NL_NAME_1": "NA","county": "LaCapital","VARNAME_2": "SantaFe","NL_NAME_2": "NA","TYPE_2": "Departamento","ENGTYPE_2": "Department","CC_2": "NA","HASC_2": "AR.SF.LP","name": "LaCapital.county","area_km2": 3054.981,"hist_schema_id": "Elevation0-9000","hist_area_km2": {"0": 634.741,"25": 2188.131,"50": 232.11}}}