{"type":"Feature","properties":{"GID_2":"ARG.1.96_1","GID_0":"ARG","country":"Argentina","GID_1":"ARG.1_1","state":"BuenosAires","NL_NAME_1":"NA","county":"Ramallo","VARNAME_2":"NA","NL_NAME_2":"NA","TYPE_2":"Partido","ENGTYPE_2":"Part","CC_2":"NA","HASC_2":"AR.BA.RM","name":"Ramallo.county"},
"geometry":{"type": "MultiPolygon","coordinates": [[[[-60.0246,-33.8317,39.9222],[-60.0182,-33.8312,39.192],[-60.0736,-33.7836,50.5056],[-60.0474,-33.7721,54.7139],[-60.0436,-33.7741,54.8369],[-59.8193,-33.5748,0.0],[-59.8203,-33.5681,3.2525],[-59.8182,-33.5564,3.3213],[-59.8204,-33.5327,0.0],[-59.8266,-33.5254,0.0],[-59.8383,-33.5189,2.0701],[-59.8647,-33.5102,0.0],[-59.9124,-33.4988,0.0],[-59.9224,-33.4905,0.0],[-59.9352,-33.4728,0.0],[-59.949,-33.4635,0.0],[-59.9731,-33.4599,3.746],[-60.005,-33.4589,4.1585],[-60.0214,-33.4538,0.5],[-60.0387,-33.4433,0.5],[-60.06,-33.4329,0.5],[-60.0683,-33.4234,0.5],[-60.0698,-33.4175,0.5],[-60.076,-33.4069,0.5],[-60.1039,-33.3803,0.5],[-60.1193,-33.368,0.5],[-60.1312,-33.3616,0.5],[-60.1481,-33.3574,0.5],[-60.1707,-33.3478,1.0],[-60.1691,-33.3584,3.8146],[-60.1739,-33.3737,8.4555],[-60.1738,-33.3822,15.2514],[-60.1762,-33.3914,8.7963],[-60.1872,-33.4064,16.4038],[-60.1891,-33.4146,13.4728],[-60.1876,-33.432,20.4517],[-60.1916,-33.4352,18.3404],[-60.1933,-33.4431,16.9301],[-60.1911,-33.4517,19.3228],[-60.1868,-33.4583,19.5921],[-60.1773,-33.462,19.9014],[-60.1762,-33.4662,20.5604],[-60.1708,-33.4714,22.4201],[-60.1658,-33.4714,22.7034],[-60.1629,-33.4736,22.6729],[-60.1638,-33.4915,23.7828],[-60.1656,-33.4969,23.2847],[-60.1722,-33.5026,26.2152],[-60.1744,-33.5081,25.8124],[-60.1818,-33.5125,27.2135],[-60.1831,-33.5179,26.2065],[-60.1974,-33.533,26.8415],[-60.2144,-33.5692,30.6672],[-60.215,-33.5747,30.4838],[-60.2173,-33.5784,31.0281],[-60.222,-33.5789,31.7818],[-60.2275,-33.5819,31.8594],[-60.2335,-33.5944,32.3442],[-60.2415,-33.6044,34.0213],[-60.2469,-33.6098,35.1383],[-60.2542,-33.6122,36.0521],[-60.2633,-33.6113,36.9425],[-60.2656,-33.6136,36.3031],[-60.2792,-33.616,39.5859],[-60.2989,-33.6336,38.993],[-60.31,-33.6475,40.1324],[-60.3127,-33.6534,41.242],[-60.2447,-33.6628,38.7613],[-60.2459,-33.6557,38.3841],[-60.1749,-33.6673,57.3076],[-60.1762,-33.6765,56.4964],[-60.1645,-33.6894,58.9885],[-60.1429,-33.6931,56.4188],[-60.1433,-33.717,56.0077],[-60.1459,-33.721,55.8633],[-60.1557,-33.7496,53.2077],[-60.1111,-33.8206,47.3266],[-60.0979,-33.8202,46.406],[-60.0975,-33.8175,45.9401],[-60.0903,-33.8135,45.2367],[-60.0713,-33.8214,43.0151],[-60.0559,-33.8304,41.9225],[-60.0402,-33.8333,41.0694],[-60.0246,-33.8317,39.9222]]]]}}