{"type": "Feature","bbox": [-66.4034,-30.1224,-65.4137,-28.3233],"geometry": {"type": "MultiPolygon","coordinates": [[[[-66.039,-28.3378,4074.1248],[-66.0461,-28.3545,4126.3613],[-66.0452,-28.3717,4005.2759],[-66.0467,-28.3774,4176.0146],[-66.0523,-28.3873,4295.9126],[-66.0472,-28.3981,4277.6187],[-66.0424,-28.4148,4124.2173],[-66.0428,-28.4263,4117.4473],[-66.0469,-28.4371,3810.8149],[-66.0548,-28.4462,3792.0835],[-66.0746,-28.4606,3483.8872],[-66.074,-28.4665,3481.3186],[-66.076,-28.4718,3447.0122],[-66.0838,-28.4812,3629.1055],[-66.0888,-28.4847,3525.6384],[-66.1011,-28.4886,3516.1443],[-66.1203,-28.4871,2840.998],[-66.1259,-28.4901,2840.0186],[-66.1358,-28.5233,2923.2131],[-66.1441,-28.5389,2811.6545],[-66.1543,-28.5459,2825.5879],[-66.1664,-28.55,2825.8931],[-66.1717,-28.5533,2816.8757],[-66.1792,-28.5627,2690.5154],[-66.1821,-28.5679,2830.1226],[-66.1827,-28.5793,2904.281],[-66.1871,-28.5961,2812.2236],[-66.1954,-28.6117,2906.1345],[-66.1994,-28.6161,2921.981],[-66.205,-28.6191,2916.3013],[-66.2115,-28.6186,2806.2476],[-66.2173,-28.6152,2613.3892],[-66.223,-28.6162,2633.8433],[-66.2284,-28.62,2743.2588],[-66.2324,-28.6245,2735.5176],[-66.2374,-28.6352,2703.6597],[-66.2399,-28.6525,2675.6528],[-66.2426,-28.6575,2632.8298],[-66.2527,-28.6649,2535.3711],[-66.2644,-28.6699,2452.1436],[-66.29,-28.6737,2341.1064],[-66.3206,-28.6835,1467.8011],[-66.3435,-28.6944,1157.8302],[-66.365,-28.7073,1092.9912],[-66.3699,-28.7161,1054.9417],[-66.3372,-28.7305,1361.8933],[-66.3319,-28.737,1657.2241],[-66.3315,-28.7448,1767.0745],[-66.3335,-28.75,1694.8016],[-66.3373,-28.7538,1522.8107],[-66.3552,-28.7575,1237.6729],[-66.3598,-28.7608,1198.1908],[-66.3635,-28.7709,1154.2859],[-66.3662,-28.7894,1242.7821],[-66.3739,-28.8095,1202.3792],[-66.4006,-28.8385,709.2183],[-66.4032,-28.846,756.1951],[-66.4034,-28.854,613.3402],[-66.398,-28.8636,573.7488],[-66.3864,-28.872,536.2281],[-66.3776,-28.8738,537.7998],[-66.3354,-28.8755,444.6998],[-66.3154,-28.8817,412.9453],[-66.298,-28.8923,395.784],[-66.2783,-28.8991,382.3991],[-66.2605,-28.902,375.3341],[-66.2454,-28.901,378.7698],[-66.2337,-28.8983,372.6287],[-66.2199,-28.8898,379.7755],[-66.1695,-28.9111,352.0109],[-66.1098,-28.9408,323.7824],[-65.8286,-29.1809,280.1783],[-65.829,-29.2534,270.0891],[-65.7526,-29.2773,263.6662],[-65.7201,-29.3555,252.8081],[-65.6347,-29.5759,227.1523],[-65.5857,-29.693,215.2415],[-65.5468,-29.7964,204.6823],[-65.4913,-29.9234,191.2454],[-65.4593,-30.0026,187.4279],[-65.4389,-30.0606,186.0147],[-65.4137,-30.1224,185.1929],[-65.4799,-29.8523,197.2624],[-65.5441,-29.5652,329.444],[-65.5461,-29.5552,359.7703],[-65.5445,-29.5455,351.4463],[-65.5549,-29.5292,374.4997],[-65.5597,-29.5185,408.7868],[-65.5622,-29.4784,452.4011],[-65.5581,-29.4327,427.5581],[-65.5519,-29.4163,613.8044],[-65.5535,-29.3991,655.3575],[-65.5637,-29.3719,585.9587],[-65.576,-29.3213,833.1714],[-65.5821,-29.3111,876.8053],[-65.5935,-29.3065,931.3291],[-65.5963,-29.3014,916.5347],[-65.6126,-29.2515,958.8717],[-65.6125,-29.2343,902.0089],[-65.6082,-29.2058,870.2179],[-65.5907,-29.1565,1155.9011],[-65.5844,-29.1342,1130.3986],[-65.5824,-29.1171,1210.7479],[-65.5829,-29.0999,1368.2063],[-65.5939,-29.0433,1358.2531],[-65.6032,-29.028199999999998,1400.3441],[-65.6063,-29.017,1415.9828],[-65.6085,-29.0,1430.047],[-65.6146,-28.9898,1455.2191],[-65.634,-28.9745,1041.7927],[-65.6493,-28.9556,742.8392],[-65.6516,-28.9504,880.8484],[-65.6515,-28.9448,808.9163],[-65.6446,-28.9284,1469.2781],[-65.6435,-28.9229,1469.6877],[-65.6447,-28.9171,1480.1637],[-65.6584,-28.8912,1445.673],[-65.6622,-28.8684,1518.3671],[-65.6663,-28.8574,1537.3628],[-65.6697,-28.8526,1553.7161],[-65.68,-28.8453,1540.8782],[-65.6836,-28.8407,1515.3398],[-65.6873,-28.8295,1545.7588],[-65.6876,-28.8179,1553.5781],[-65.6858,-28.8125,1524.9177],[-65.6565,-28.7761,1396.7285],[-65.7626,-28.754,404.2447],[-65.7971,-28.7489,396.7667],[-65.8132,-28.7431,399.4045],[-65.8306,-28.7295,401.8326],[-65.8358,-28.7203,406.9742],[-65.8378,-28.7103,409.7601],[-65.8331,-28.7009,413.6097],[-65.8168,-28.6862,418.9479],[-65.8085,-28.6727,427.186],[-65.8081,-28.6626,432.4177],[-65.8127,-28.6424,444.67],[-65.811,-28.6168,451.9418],[-65.8079,-28.6016,458.4556],[-65.7947,-28.5849,457.6225],[-65.7987,-28.5644,474.9619],[-65.7942,-28.5518,474.8212],[-65.8234,-28.5379,488.5787],[-65.8553,-28.5156,584.5216],[-65.872,-28.5013,845.1996],[-65.8874,-28.486,1301.9043],[-65.8971,-28.4733,1583.4268],[-65.9047,-28.4594,1877.1736],[-65.9091,-28.4445,1753.0953],[-65.9141,-28.4352,1691.9524],[-65.9334,-28.4238,2124.7993],[-65.9362,-28.4195,2081.4026],[-65.9447,-28.3949,2373.699],[-65.9443,-28.3847,2704.6106],[-65.9468,-28.3592,2515.9739],[-65.9404,-28.3449,2259.9561],[-65.9277,-28.3291,1771.8081],[-65.941,-28.3306,1871.3972],[-65.9505,-28.3244,2289.9915],[-65.9558,-28.3233,2386.8501],[-65.9965,-28.3258,2890.8105],[-66.0138,-28.3277,3684.6729],[-66.0283,-28.3359,3924.9768],[-66.039,-28.3378,4074.1248]]]]}
,"properties": {"GID_2": "ARG.2.6_1","GID_0": "ARG","country": "Argentina","GID_1": "ARG.2_1","state": "Catamarca","NL_NAME_1": "NA","county": "Capayán","VARNAME_2": "Huillapima","NL_NAME_2": "NA","TYPE_2": "Departamento","ENGTYPE_2": "Department","CC_2": "NA","HASC_2": "AR.CT.CA","name": "Capayán.county","area_km2": 4567.266,"hist_schema_id": "Elevation0-9000","hist_area_km2": {"175": 12.114,"200": 136.049,"225": 227.956,"250": 252.868,"275": 283.741,"300": 368.59,"325": 456.253,"350": 331.25,"375": 299.459,"400": 220.23,"425": 147.506,"450": 119.583,"475": 101.844,"500": 70.852,"525": 49.819,"550": 41.37,"575": 35.068,"600": 31.515,"625": 29.895,"650": 27.571,"675": 25.583,"700": 23.131,"725": 21.365,"750": 20.657,"775": 20.49,"800": 20.696,"825": 18.206,"850": 19.89,"875": 19.202,"900": 17.107,"925": 16.776,"950": 16.406,"975": 17.079,"1000": 16.931,"1025": 16.354,"1050": 16.318,"1075": 17.082,"1100": 16.656,"1125": 17.102,"1150": 18.492,"1175": 19.963,"1200": 19.034,"1225": 17.92,"1250": 18.723,"1275": 16.772,"1300": 16.216,"1325": 17.741,"1350": 18.606,"1375": 22.558,"1400": 21.503,"1425": 18.37,"1450": 17.033,"1475": 17.61,"1500": 16.2,"1525": 15.347,"1550": 12.745,"1575": 10.848,"1600": 10.049,"1625": 10.496,"1650": 10.626,"1675": 10.59,"1700": 10.031,"1725": 10.051,"1750": 10.386,"1775": 9.847,"1800": 9.977,"1825": 9.847,"1850": 10.239,"1875": 9.531,"1900": 9.214,"1925": 9.55,"1950": 9.922,"1975": 10.313,"2000": 10.797,"2025": 11.3,"2050": 11.319,"2075": 11.597,"2100": 12.455,"2125": 12.212,"2150": 12.752,"2175": 13.404,"2200": 12.828,"2225": 13.276,"2250": 14.206,"2275": 13.983,"2300": 14.225,"2325": 13.406,"2350": 13.63,"2375": 12.345,"2400": 11.34,"2425": 10.056,"2450": 8.623,"2475": 8.419,"2500": 7.898,"2525": 7.6,"2550": 7.713,"2575": 7.303,"2600": 7.564,"2625": 6.632,"2650": 6.949,"2675": 6.986,"2700": 6.781,"2725": 7.452,"2750": 6.521,"2775": 6.614,"2800": 6.167,"2825": 5.981,"2850": 4.751,"2875": 5.18,"2900": 5.291,"2925": 4.994,"2950": 3.522,"2975": 3.84,"3000": 3.43,"3025": 3.318,"3050": 3.337,"3075": 3.504,"3100": 3.15,"3125": 3.3,"3150": 3.653,"3175": 3.132,"3200": 3.56,"3225": 3.374,"3250": 3.187,"3275": 3.449,"3300": 3.542,"3325": 3.411,"3350": 3.43,"3375": 2.89,"3400": 3.188,"3425": 2.61,"3450": 1.752,"3475": 2.144,"3500": 2.125,"3525": 2.908,"3550": 2.591,"3575": 1.939,"3600": 2.61,"3625": 2.2,"3650": 2.312,"3675": 1.921,"3700": 1.827,"3725": 2.107,"3750": 1.865,"3775": 2.238,"3800": 2.051,"3825": 1.883,"3850": 1.809,"3875": 1.455,"3900": 1.809,"3925": 1.753,"3950": 2.126,"3975": 2.145,"4000": 1.94,"4025": 2.555,"4050": 2.443,"4075": 2.163,"4100": 2.909,"4125": 2.611,"4150": 0.858,"4175": 0.522,"4200": 0.541,"4225": 0.317,"4250": 0.186,"4275": 0.242,"4300": 0.093}}}