{"type": "Feature","bbox": [-60.4872,-35.2948,-60.0324,-34.7595],"geometry": {"type": "MultiPolygon","coordinates": [[[[-60.3255,-35.23,58.5185],[-60.2397,-35.2948,53.2397],[-60.0324,-35.1117,41.2611],[-60.0398,-35.1088,41.4837],[-60.0546,-35.0927,41.6229],[-60.0824,-35.0883,42.221],[-60.0906,-35.0904,41.4013],[-60.1103,-35.0911,42.8808],[-60.1226,-35.0857,43.0566],[-60.1295,-35.0848,43.6557],[-60.1384,-35.0768,43.15],[-60.1559,-35.0653,43.7849],[-60.1242,-35.0352,51.3595],[-60.2329,-34.9528,53.2241],[-60.2246,-34.9456,52.4469],[-60.3109,-34.88,59.656],[-60.2454,-34.8256,59.483],[-60.3273,-34.7595,63.3744],[-60.3662,-34.794,62.3889],[-60.3636,-34.7979,62.965],[-60.3685,-34.8015,62.3527],[-60.38,-34.7932,63.5083],[-60.4637,-34.8632,53.4646],[-60.4539,-34.8705,52.7198],[-60.4552,-34.8776,52.8904],[-60.451,-34.8834,52.622],[-60.4498,-34.8956,52.3507],[-60.4528,-34.9189,53.4657],[-60.4574,-34.9269,52.0893],[-60.4726,-34.9412,51.9327],[-60.4781,-34.9553,52.2632],[-60.4853,-34.9653,51.7552],[-60.4872,-34.9739,51.4323],[-60.485,-34.9846,51.27],[-60.4725,-35.0055,51.8389],[-60.4613,-35.0116,51.1188],[-60.4515,-35.0124,50.7218],[-60.4449,-35.0152,50.6475],[-60.4427,-35.0267,50.9228],[-60.4432,-35.038,50.2622],[-60.4337,-35.0475,53.075],[-60.4161,-35.0615,52.1677],[-60.4107,-35.069,54.009],[-60.393,-35.0848,55.6517],[-60.3899,-35.0897,55.9534],[-60.3636,-35.1096,49.2109],[-60.3595,-35.107,50.5391],[-60.3327,-35.1269,51.731],[-60.3695,-35.1592,56.0716],[-60.3413,-35.1813,59.0455],[-60.3585,-35.197,58.8503],[-60.3209,-35.2259,60.5905],[-60.3255,-35.23,58.5185]]]]}
,"properties": {"GID_2": "ARG.1.3_1","GID_0": "ARG","country": "Argentina","GID_1": "ARG.1_1","state": "BuenosAires","NL_NAME_1": "NA","county": "Alberti","VARNAME_2": "NA","NL_NAME_2": "NA","TYPE_2": "Partido","ENGTYPE_2": "Part","CC_2": "NA","HASC_2": "AR.BA.AL","name": "Alberti.county","area_km2": 1110.285,"hist_schema_id": "Elevation0-9000","hist_area_km2": {"50": 1081.3458,"75": 28.9392}}}