{"type":"Feature","properties":{"GID_2":"ARG.1.82_1","GID_0":"ARG","country":"Argentina","GID_1":"ARG.1_1","state":"BuenosAires","NL_NAME_1":"NA","county":"Morón","VARNAME_2":"NA","NL_NAME_2":"NA","TYPE_2":"Partido","ENGTYPE_2":"Part","CC_2":"NA","HASC_2":"AR.BA.MN","name":"Morón.county"},
"geometry":{"type": "MultiPolygon","coordinates": [[[[-58.7143,-34.6105,13.0852],[-58.724,-34.6237,9.7946],[-58.7246,-34.6318,10.6882],[-58.7297,-34.6394,13.7161],[-58.6578,-34.6984,27.5285],[-58.6415,-34.7084,29.4265],[-58.6403,-34.7054,30.2196],[-58.5814,-34.6534,29.6215],[-58.5827,-34.6471,26.0857],[-58.5709,-34.6452,27.4418],[-58.5716,-34.6424,26.0154],[-58.5568,-34.6388,25.8088],[-58.5673,-34.6301,26.6745],[-58.5729,-34.6329,26.6304],[-58.589,-34.6105,29.1721],[-58.593,-34.6124,25.0799],[-58.6467,-34.568,7.1556],[-58.6589,-34.5713,6.296],[-58.6678,-34.5786,9.8169],[-58.6712,-34.5776,7.3727],[-58.6719,-34.5799,8.4871],[-58.6838,-34.5886,5.6201],[-58.6851,-34.5932,6.995],[-58.6901,-34.5941,7.8209],[-58.6975,-34.6008,9.6727],[-58.7107,-34.6062,10.2025],[-58.7143,-34.6105,13.0852]]]]}}