{"type":"Feature","properties":{"GID_2":"ARG.1.44_1","GID_0":"ARG","country":"Argentina","GID_1":"ARG.1_1","state":"BuenosAires","NL_NAME_1":"NA","county":"GeneralBelgrano","VARNAME_2":"NA","NL_NAME_2":"NA","TYPE_2":"Partido","ENGTYPE_2":"Part","CC_2":"NA","HASC_2":"AR.BA.GB","name":"GeneralBelgrano.county"},
"geometry":{"type": "MultiPolygon","coordinates": [[[[-58.4437,-35.733,13.085],[-58.4482,-35.7283,16.0892],[-58.4446,-35.7126,12.5979],[-58.4601,-35.698,12.6334],[-58.4678,-35.6919,12.1075],[-58.4716,-35.691,13.0459],[-58.4813,-35.7121,14.4253],[-58.4862,-35.713,14.6241],[-58.4951,-35.7106,14.1094],[-58.4975,-35.713,14.0235],[-58.5046,-35.7469,15.2311],[-58.5137,-35.7557,14.514],[-58.5168,-35.7566,17.9267],[-58.5232,-35.7559,16.5065],[-58.5288,-35.7292,15.5595],[-58.5372,-35.7279,15.0883],[-58.546,-35.7314,16.4816],[-58.5506,-35.7493,15.2008],[-58.5562,-35.7514,15.3953],[-58.5697,-35.7479,13.3059],[-58.585,-35.7525,15.7485],[-58.5968,-35.753,15.7163],[-58.6165,-35.7466,14.9934],[-58.6317,-35.7532,16.4961],[-58.6376,-35.7526,16.11],[-58.6401,-35.7468,16.2175],[-58.6574,-35.7499,17.1243],[-58.6656,-35.7461,17.2699],[-58.6676,-35.7396,17.2081],[-58.6653,-35.735,17.1637],[-58.67,-35.7295,15.5434],[-58.674,-35.7327,16.7958],[-58.6859,-35.7311,17.1813],[-58.6886,-35.7339,17.2251],[-58.6981,-35.7301,18.3678],[-58.7031,-35.7301,18.4433],[-58.7055,-35.7274,17.5538],[-58.7233,-35.7255,17.8978],[-58.727,-35.7305,17.483],[-58.7344,-35.7328,17.7399],[-58.7466,-35.7404,18.8237],[-58.7479,-35.7491,18.3609],[-58.7523,-35.7548,18.2547],[-58.7603,-35.7605,19.2663],[-58.7658,-35.7615,20.2499],[-58.7722,-35.7528,19.1533],[-58.7705,-35.7448,19.6328],[-58.7738,-35.7375,19.4699],[-58.7827,-35.7311,19.8986],[-58.7901,-35.7168,18.7472],[-58.7924,-35.705,18.0456],[-58.8001,-35.6997,17.289],[-58.8066,-35.6988,16.6325],[-58.8105,-35.6948,16.0958],[-58.8185,-35.6954,16.3875],[-58.8236,-35.6925,16.3775],[-58.8365,-35.6914,16.1953],[-58.8488,-35.6835,15.9943],[-58.8442,-35.6737,16.3245],[-58.8438,-35.6693,16.8699],[-58.8379,-35.6668,15.6409],[-58.8479,-35.6544,18.5576],[-58.8578,-35.653,17.8321],[-58.8775,-35.6437,17.8004],[-58.8845,-35.6388,18.0284],[-58.889,-35.6246,19.9755],[-58.885,-35.6185,19.0097],[-58.887,-35.6143,19.2042],[-58.8825,-35.61,15.0],[-58.883,-35.6024,17.1936],[-58.8855,-35.5983,17.394],[-58.8883,-35.5972,17.3591],[-58.8915,-35.5994,17.605],[-58.8947,-35.5991,17.7126],[-58.9022,-35.5952,19.1896],[-58.9117,-35.6028,19.5511],[-58.9089,-35.6049,17.7239],[-58.909,-35.6076,19.4744],[-58.9183,-35.6118,19.08],[-58.9319,-35.6273,19.9755],[-58.9442,-35.6256,20.0808],[-58.9548,-35.6206,18.3607],[-58.9797,-35.5921,19.5181],[-58.9943,-35.5996,20.0146],[-59.0038,-35.6026,20.0738],[-59.0241,-35.5936,18.1868],[-59.0348,-35.614,20.3627],[-59.0429,-35.6176,20.3782],[-59.0522,-35.6164,20.8117],[-59.0652,-35.6116,20.8295],[-59.0842,-35.6128,20.71],[-59.0866,-35.6173,20.7],[-59.0997,-35.6252,21.4759],[-59.1035,-35.6239,21.6956],[-59.1098,-35.6273,21.6861],[-59.1157,-35.6279,21.5653],[-59.1324,-35.6257,21.3543],[-59.1501,-35.6324,21.5726],[-59.1533,-35.6357,22.0262],[-59.1545,-35.64,22.048],[-59.1539,-35.6467,22.5834],[-59.1505,-35.6503,22.4363],[-59.1521,-35.6549,22.2545],[-59.1484,-35.6632,22.1028],[-59.1079,-35.6963,22.9214],[-59.1109,-35.6992,23.131],[-59.0232,-35.7728,23.9769],[-59.0258,-35.776,23.3466],[-58.9895,-35.8053,23.9765],[-58.9907,-35.8084,23.4993],[-58.9794,-35.819,22.7159],[-58.9624,-35.8059,23.4475],[-58.9034,-35.8489,23.6863],[-58.8959,-35.8427,23.6887],[-58.7352,-35.9707,23.6436],[-58.7554,-35.9868,24.1258],[-58.5769,-36.1227,21.005],[-58.291,-35.8611,12.2624],[-58.3029,-35.8582,11.7956],[-58.3056,-35.8614,9.7213],[-58.309,-35.8618,9.9511],[-58.3169,-35.8705,13.2593],[-58.3418,-35.8661,13.2452],[-58.3498,-35.859,13.872],[-58.3491,-35.8517,12.8767],[-58.3505,-35.8462,12.8501],[-58.359,-35.8438,14.3306],[-58.366,-35.8386,12.9796],[-58.3798,-35.8351,11.2153],[-58.3882,-35.8301,11.5406],[-58.3918,-35.8216,13.1714],[-58.4128,-35.8215,11.9455],[-58.4213,-35.8159,11.9955],[-58.4256,-35.8078,11.5398],[-58.4254,-35.7927,11.1589],[-58.4275,-35.7872,11.385],[-58.4361,-35.7839,12.7303],[-58.4426,-35.7733,12.2614],[-58.4594,-35.7748,20.2586],[-58.4609,-35.7701,14.1708],[-58.4607,-35.7666,17.926],[-58.4555,-35.7586,15.2603],[-58.458,-35.7531,15.0061],[-58.457,-35.7428,13.0955],[-58.4433,-35.7378,10.4473],[-58.4413,-35.7358,11.0827],[-58.4437,-35.733,13.085]]]]}}