{"type": "Feature","bbox": [-65.6626,-38.8534,-64.5081,-37.6995],"geometry": {"type": "MultiPolygon","coordinates": [[[[-64.5129,-38.2507,175.6487],[-64.5081,-37.7152,279.5014],[-65.0686,-37.7087,300.1474],[-65.638,-37.6995,226.1973],[-65.6457,-38.1849,272.7861],[-65.6626,-38.8305,167.9912],[-65.6304,-38.8275,199.5066],[-65.6266,-38.8156,165.3494],[-65.6216,-38.8147,175.4255],[-65.6146,-38.8164,194.8197],[-65.6134,-38.8117,181.7571],[-65.615,-38.8064,161.5],[-65.602,-38.8011,165.6309],[-65.6,-38.7892,161.2929],[-65.5957,-38.7868,164.8565],[-65.5833,-38.7844,163.9915],[-65.5785,-38.775,162.1238],[-65.5749,-38.7741,176.4117],[-65.5668,-38.7786,166.5312],[-65.5523,-38.7759,172.7332],[-65.542,-38.7847,160.9687],[-65.5267,-38.7845,159.7776],[-65.5116,-38.7869,156.0765],[-65.4978,-38.7987,160.562],[-65.4639,-38.7996,167.0549],[-65.457,-38.8035,175.8428],[-65.4458,-38.8151,156.7911],[-65.4365,-38.8213,164.0138],[-65.426,-38.826,155.1773],[-65.3911,-38.8341,149.5462],[-65.3836,-38.8381,152.5334],[-65.373,-38.85,149.0889],[-65.3679,-38.8514,147.9014],[-65.3364,-38.8495,148.7132],[-65.3279,-38.8476,152.0649],[-65.3221,-38.8428,162.71],[-65.3147,-38.831,139.8334],[-65.2937,-38.8291,139.455],[-65.2763,-38.8191,137.4606],[-65.271,-38.8176,146.4941],[-65.2593,-38.821,153.9423],[-65.2509,-38.828,134.8536],[-65.2328,-38.8269,134.4641],[-65.2189,-38.8314,133.7548],[-65.204,-38.8297,133.8595],[-65.1883,-38.8318,132.3414],[-65.1829,-38.8278,133.0072],[-65.178,-38.8078,131.586],[-65.1697,-38.8159,131.3329],[-65.1649,-38.8147,130.8567],[-65.158,-38.8089,129.4037],[-65.1536,-38.8014,148.6573],[-65.1505,-38.8008,156.9065],[-65.1432,-38.8095,132.818],[-65.1377,-38.8114,129.028],[-65.1286,-38.8107,125.8141],[-65.1129,-38.8035,127.1819],[-65.0978,-38.8022,125.72],[-65.086,-38.8046,125.9295],[-65.0739,-38.8045,126.8975],[-65.0506,-38.8098,126.3454],[-65.0294,-38.8084,133.0662],[-65.0056,-38.8119,130.0388],[-64.9632,-38.812,156.4458],[-64.9166,-38.8232,127.533],[-64.9082,-38.8214,125.2467],[-64.8833,-38.8117,119.7852],[-64.8747,-38.8119,122.3587],[-64.8419,-38.8184,127.368],[-64.8122,-38.8129,124.1834],[-64.8004,-38.8126,133.4815],[-64.7626,-38.8218,131.7486],[-64.7413,-38.8217,146.6012],[-64.7235,-38.8309,108.8144],[-64.7178,-38.832,106.4283],[-64.6965,-38.8306,109.0118],[-64.6755,-38.8332,99.0897],[-64.6518,-38.8273,124.1909],[-64.6434,-38.8273,122.3906],[-64.6197,-38.8384,99.6633],[-64.5899,-38.8426,102.1917],[-64.572,-38.8514,93.8344],[-64.515,-38.8534,97.3089],[-64.5129,-38.2507,175.6487]]]]}
,"properties": {"GID_2": "ARG.11.12_1","GID_0": "ARG","country": "Argentina","GID_1": "ARG.11_1","state": "LaPampa","NL_NAME_1": "NA","county": "LihuelCalel","VARNAME_2": "CuchilloCo","NL_NAME_2": "NA","TYPE_2": "Departamento","ENGTYPE_2": "Department","CC_2": "NA","HASC_2": "AR.LP.UC","name": "LihuelCalel.county","area_km2": 12266.303,"hist_schema_id": "Elevation0-9000","hist_area_km2": {"100": 55.707,"125": 186.527,"150": 722.039,"175": 1505.284,"200": 1650.834,"225": 2072.561,"250": 2076.874,"275": 1971.324,"300": 1460.785,"325": 468.477,"350": 61.106,"375": 19.464,"400": 9.273,"425": 3.358,"450": 1.37,"475": 0.785,"500": 0.317,"525": 0.117}}}