{"type":"Feature","properties":{"GID_2":"ARG.14.4_1","GID_0":"ARG","country":"Argentina","GID_1":"ARG.14_1","state":"Misiones","NL_NAME_1":"NA","county":"Capital","VARNAME_2":"Posadas|Capital(Posadas)","NL_NAME_2":"NA","TYPE_2":"Departamento","ENGTYPE_2":"Department","CC_2":"NA","HASC_2":"AR.MN.PS","name":"Capital.county"},
"geometry":{"type": "MultiPolygon","coordinates": [[[[-55.8531,-27.7572,183.2092],[-55.802,-27.7394,128.107],[-55.8024,-27.734,129.0019],[-55.7895,-27.7296,150.6188],[-55.7853,-27.7331,153.7905],[-55.769,-27.7287,186.0533],[-55.7736,-27.7146,215.7305],[-55.7662,-27.6939,161.3],[-55.7561,-27.7011,171.5982],[-55.7448,-27.7169,220.5413],[-55.7218,-27.7111,174.0646],[-55.7183,-27.715699999999998,159.0889],[-55.7165,-27.7229,163.3625],[-55.6942,-27.7363,170.1987],[-55.6923,-27.7381,177.4897],[-55.6924,-27.7409,176.4205],[-55.6621,-27.7439,162.6238],[-55.6573,-27.7062,142.0833],[-55.6162,-27.7084,260.0555],[-55.6087,-27.6409,208.9638],[-55.6535,-27.6359,115.9476],[-55.6517,-27.6281,114.5851],[-55.6585,-27.6195,111.9724],[-55.6606,-27.6144,118.4532],[-55.6611,-27.6064,118.7175],[-55.6736,-27.592,106.5577],[-55.6763,-27.5909,108.3074],[-55.6817,-27.5918,107.0907],[-55.6809,-27.597,105.7598],[-55.7005,-27.598,129.4015],[-55.6999,-27.6014,122.6727],[-55.72,-27.6026,158.7697],[-55.7232,-27.5844,228.0766],[-55.747,-27.5834,128.9695],[-55.7534,-27.5819,118.1774],[-55.7622,-27.5835,97.0525],[-55.7729,-27.579,93.934],[-55.7742,-27.5812,91.4584],[-55.7797,-27.5821,90.8638],[-55.7928,-27.5758,88.0767],[-55.796,-27.5684,86.2884],[-55.8088,-27.5671,86.459],[-55.7879,-27.5511,105.0979],[-55.7847,-27.4922,80.6104],[-55.7902,-27.486,80.0],[-55.7972,-27.4717,91.7212],[-55.8001,-27.4711,91.7569],[-55.8084,-27.4738,80.0],[-55.8105,-27.4725,80.0],[-55.8068,-27.4623,80.0],[-55.8015,-27.4559,80.0],[-55.8003,-27.4482,80.0],[-55.796,-27.4429,80.0],[-55.8285,-27.4332,80.0],[-55.8444,-27.4189,80.0],[-55.8505,-27.412,80.0],[-55.8631,-27.3912,80.0],[-55.8775,-27.3619,80.0],[-55.8826,-27.3563,80.0],[-55.8932,-27.3488,80.0],[-55.9,-27.3457,80.0],[-55.9082,-27.3445,80.0],[-55.9444,-27.3515,80.0],[-55.9722,-27.3493,80.0],[-55.9961,-27.3409,80.0],[-56.0284,-27.3205,80.0],[-56.0285,-27.3445,80.0],[-56.0395,-27.3534,80.0],[-56.0399,-27.356,80.6641],[-56.0374,-27.3691,80.0],[-56.034,-27.3735,80.0],[-56.0345,-27.3871,80.0],[-56.0421,-27.3988,80.0],[-56.0453,-27.4147,86.2564],[-56.0511,-27.421,88.7447],[-56.0585,-27.4257,98.2127],[-56.0596,-27.4282,107.8742],[-56.0579,-27.4578,107.5955],[-56.0423,-27.4705,113.7219],[-56.0283,-27.5033,110.3113],[-56.0215,-27.5086,114.427],[-56.0153,-27.5178,130.4639],[-56.0003,-27.5269,124.2332],[-55.9869,-27.5378,140.9738],[-55.9857,-27.5422,159.1564],[-55.9749,-27.5595,167.6711],[-55.9564,-27.5787,176.6596],[-55.9339,-27.6174,158.87],[-55.8946,-27.6972,116.9535],[-55.8658,-27.7364,174.4942],[-55.8531,-27.7572,183.2092]]]]}}