{"type": "Feature","bbox": [-69.7709,-33.5467,-68.8057,-33.0094],"geometry": {"type": "MultiPolygon","coordinates": [[[[-69.7699,-33.3493,6316.7993],[-69.7709,-33.3594,6543.5127],[-69.3533,-33.4052,1636.9823],[-69.3067,-33.4357,1437.2148],[-69.2723,-33.4477,1324.7837],[-69.2493,-33.469,1222.3041],[-69.2395,-33.4753,1186.2422],[-69.2279,-33.4793,1151.472],[-69.2093,-33.4808,1104.9591],[-69.1956,-33.4842,1071.5867],[-69.1306,-33.512,965.3116],[-69.0923,-33.5232,924.5066],[-69.0616,-33.5358,895.5994],[-69.0255,-33.5442,868.0656],[-69.0029,-33.5467,853.2704],[-68.9934,-33.5109,857.6443],[-68.9886,-33.503,843.4047],[-68.983,-33.4975,841.7313],[-68.9505,-33.4804,839.7027],[-68.9316,-33.466,834.6451],[-68.9217,-33.4624,828.1442],[-68.9119,-33.4617,820.8365],[-68.889,-33.4517,816.8904],[-68.8812,-33.4458,811.9059],[-68.8631,-33.4236,807.8313],[-68.8536,-33.4163,802.5558],[-68.8427,-33.4107,796.9154],[-68.8168,-33.4026,791.0992],[-68.8057,-33.3959,789.9019],[-68.8165,-33.3929,809.7995],[-68.8259,-33.386,818.2402],[-68.8352,-33.3754,833.7443],[-68.8416,-33.3635,843.3186],[-68.844,-33.3619,845.7422],[-68.8625,-33.3599,860.7477],[-68.8835,-33.355,884.1321],[-68.9211,-33.3412,930.9326],[-68.9064,-33.2923,928.231],[-68.9147,-33.2885,939.1599],[-68.9396,-33.2887,978.5229],[-68.9501,-33.2836,993.4721],[-68.984,-33.2794,1074.3749],[-69.0008,-33.2726,1111.9248],[-69.0327,-33.2563,1211.0446],[-69.0683,-33.247,1346.8881],[-69.0879,-33.2389,1405.0762],[-69.1141,-33.2133,1647.9969],[-69.1416,-33.2011,1741.2015],[-69.1556,-33.1778,1838.8553],[-69.1863,-33.1484,1773.8413],[-69.1924,-33.1337,1923.9551],[-69.2022,-33.1202,2001.8353],[-69.2075,-33.1176,2010.1995],[-69.2225,-33.114,2037.4912],[-69.2565,-33.111,2321.3999],[-69.2773,-33.1057,2177.8633],[-69.3088,-33.0946,2314.3911],[-69.345,-33.0871,2721.2483],[-69.3879,-33.0812,3853.199],[-69.3944,-33.0724,4015.3901],[-69.4129,-33.0654,4028.1155],[-69.414,-33.0443,4914.8506],[-69.421,-33.0379,5013.4404],[-69.4245,-33.0279,5245.147],[-69.4361,-33.0123,5101.6353],[-69.4444,-33.0094,5662.8125],[-69.4534,-33.0112,5656.6699],[-69.4651,-33.017,5468.4917],[-69.5008,-33.0209,4004.2393],[-69.5085,-33.0253,4331.54],[-69.5176,-33.0336,4358.3555],[-69.7699,-33.3493,6316.7993]]]]}
,"properties": {"GID_2": "ARG.13.18_1","GID_0": "ARG","country": "Argentina","GID_1": "ARG.13_1","state": "Mendoza","NL_NAME_1": "NA","county": "Tupungato","VARNAME_2": "NA","NL_NAME_2": "NA","TYPE_2": "Departamento","ENGTYPE_2": "Department","CC_2": "NA","HASC_2": "AR.MZ.TP","name": "Tupungato.county","area_km2": 2498.552,"hist_schema_id": "Elevation0-9000","hist_area_km2": {"800": 4.956,"825": 16.686,"850": 47.983,"875": 63.042,"900": 58.998,"925": 56.478,"950": 60.51,"975": 57.93,"1000": 54.748,"1025": 56.292,"1050": 47.359,"1075": 38.937,"1100": 33.431,"1125": 30.901,"1150": 30.833,"1175": 30.977,"1200": 30.287,"1225": 29.651,"1250": 27.101,"1275": 25.509,"1300": 23.774,"1325": 22.304,"1350": 22.181,"1375": 22.218,"1400": 20.836,"1425": 20.482,"1450": 21.138,"1475": 20.394,"1500": 19.899,"1525": 20.343,"1550": 21.124,"1575": 21.249,"1600": 20.648,"1625": 20.153,"1650": 20.384,"1675": 21.608,"1700": 21.058,"1725": 20.988,"1750": 21.149,"1775": 20.776,"1800": 20.866,"1825": 21.31,"1850": 19.804,"1875": 20.018,"1900": 20.763,"1925": 20.585,"1950": 20.16,"1975": 19.043,"2000": 18.884,"2025": 18.459,"2050": 16.953,"2075": 16.651,"2100": 16.316,"2125": 16.334,"2150": 15.306,"2175": 14.223,"2200": 12.964,"2225": 11.847,"2250": 11.12,"2275": 11.068,"2300": 10.66,"2325": 8.566,"2350": 8.689,"2375": 7.608,"2400": 8.157,"2425": 8.246,"2450": 7.537,"2475": 8.192,"2500": 8.512,"2525": 7.341,"2550": 7.306,"2575": 7.714,"2600": 7.838,"2625": 8.458,"2650": 7.501,"2675": 8.636,"2700": 7.59,"2725": 8.902,"2750": 8.814,"2775": 8.707,"2800": 8.388,"2825": 8.476,"2850": 8.404,"2875": 7.908,"2900": 8.458,"2925": 8.334,"2950": 7.855,"2975": 8.511,"3000": 7.731,"3025": 8.635,"3050": 8.121,"3075": 8.795,"3100": 7.873,"3125": 7.873,"3150": 7.625,"3175": 7.642,"3200": 7.217,"3225": 7.784,"3250": 8.104,"3275": 7.926,"3300": 7.82,"3325": 7.891,"3350": 7.75,"3375": 7.288,"3400": 6.739,"3425": 7.395,"3450": 7.165,"3475": 7.839,"3500": 7.272,"3525": 7.325,"3550": 7.378,"3575": 6.828,"3600": 7.094,"3625": 7.29,"3650": 7.467,"3675": 7.36,"3700": 7.786,"3725": 8.549,"3750": 7.839,"3775": 8.886,"3800": 8.904,"3825": 9.222,"3850": 8.265,"3875": 8.566,"3900": 9.117,"3925": 9.932,"3950": 9.862,"3975": 10.182,"4000": 10.306,"4025": 10.571,"4050": 10.59,"4075": 10.447,"4100": 10.82,"4125": 10.43,"4150": 11.05,"4175": 11.014,"4200": 10.642,"4225": 11.369,"4250": 11.529,"4275": 10.464,"4300": 10.395,"4325": 10.625,"4350": 9.792,"4375": 9.649,"4400": 9.42,"4425": 9.881,"4450": 9.455,"4475": 9.385,"4500": 9.544,"4525": 8.923,"4550": 8.392,"4575": 8.09,"4600": 7.949,"4625": 7.275,"4650": 7.188,"4675": 6.69,"4700": 6.602,"4725": 6.69,"4750": 5.928,"4775": 5.999,"4800": 5.414,"4825": 5.752,"4850": 5.646,"4875": 5.788,"4900": 5.025,"4925": 4.351,"4950": 4.12,"4975": 3.392,"5000": 3.942,"5025": 3.517,"5050": 3.09,"5075": 3.108,"5100": 2.38,"5125": 2.558,"5150": 2.22,"5175": 2.274,"5200": 1.954,"5225": 1.723,"5250": 1.776,"5275": 1.403,"5300": 1.385,"5325": 1.155,"5350": 0.942,"5375": 0.764,"5400": 0.622,"5425": 0.444,"5450": 0.586,"5475": 0.462,"5500": 0.391,"5525": 0.284,"5550": 0.248,"5575": 0.409,"5600": 0.231,"5625": 0.213,"5650": 0.195,"5675": 0.391,"5700": 0.302,"5725": 0.195,"5750": 0.319,"5775": 0.178,"5800": 0.266,"5825": 0.213,"5850": 0.089,"5875": 0.142,"5900": 0.142,"5925": 0.053,"5950": 0.089,"5975": 0.106,"6000": 0.053,"6025": 0.035,"6050": 0.071,"6100": 0.124,"6125": 0.071,"6150": 0.071,"6175": 0.035,"6200": 0.071,"6225": 0.053,"6250": 0.053,"6300": 0.089,"6325": 0.089,"6350": 0.071,"6375": 0.071,"6400": 0.089,"6425": 0.106,"6450": 0.071,"6475": 0.124,"6500": 0.053,"6525": 0.124,"6550": 0.035}}}