{"type": "Feature","bbox": [-66.2631,-33.5697,-65.578,-32.6589],"geometry": {"type": "MultiPolygon","coordinates": [[[[-66.2183,-32.7387,1538.8927],[-66.206,-32.7536,1360.5291],[-66.195,-32.7703,1362.5293],[-66.1862,-32.7931,1750.4802],[-66.1782,-32.8057,1824.2681],[-66.1728,-32.8242,1936.2521],[-66.1543,-32.8422,1814.4468],[-66.1427,-32.864,1652.3799],[-66.1466,-32.873,1638.8861],[-66.1554,-32.8853,1606.1635],[-66.1546,-32.9043,1713.047],[-66.1567,-32.9087,1561.6053],[-66.1646,-32.9215,1641.9183],[-66.1889,-32.9414,1652.7694],[-66.1966,-32.9542,1830.132],[-66.2007,-32.9681,1785.0709],[-66.207,-32.976,1905.7767],[-66.2153,-32.9824,1795.8529],[-66.2207,-32.9841,1611.3087],[-66.2432,-32.9861,1317.4642],[-66.2484,-32.9883,1237.7672],[-66.2593,-32.986,1265.9253],[-66.2631,-32.988,1263.9771],[-66.2621,-32.9928,1252.765],[-66.2582,-32.9965,1215.6707],[-66.2444,-33.0048,1341.6951],[-66.2233,-33.0209,1765.9458],[-66.2198,-33.0246,1701.6194],[-66.2104,-33.0422,2093.4492],[-66.2091,-33.0612,2059.8962],[-66.2127,-33.0752,2119.7993],[-66.2151,-33.099,1861.4443],[-66.2212,-33.1169,1717.2578],[-66.1708,-33.1191,1433.7607],[-66.1598,-33.1213,1395.0245],[-66.1597,-33.1252,1367.3463],[-66.1679,-33.1324,1492.4708],[-66.1624,-33.1903,1122.1736],[-66.1155,-33.5679,759.7223],[-65.8303,-33.5697,660.0448],[-65.5875,-33.5683,593.152],[-65.5958,-33.5617,590.057],[-65.5975,-33.5571,592.3029],[-65.5987,-33.5428,596.2796],[-65.6011,-33.5334,589.1596],[-65.604,-33.5294,592.8173],[-65.6183,-33.5217,596.782],[-65.6202,-33.5171,616.1189],[-65.6289,-33.5109,620.765],[-65.6498,-33.5035,619.1997],[-65.6542,-33.5003,617.1243],[-65.6588,-33.4917,634.3437],[-65.6508,-33.4737,652.8881],[-65.643,-33.4611,657.7181],[-65.6406,-33.4469,666.6004],[-65.6406,-33.423,682.2112],[-65.6452,-33.3801,711.0162],[-65.6526,-33.362,720.9831],[-65.6531,-33.3573,723.4052],[-65.6516,-33.3478,728.9482],[-65.6455,-33.3293,743.1492],[-65.6448,-33.3151,751.5614],[-65.6503,-33.3015,758.6647],[-65.6514,-33.2824,769.4064],[-65.659,-33.2594,783.943],[-65.6592,-33.2402,794.672],[-65.6657,-33.2219,809.621],[-65.6678,-33.1981,827.8652],[-65.6662,-33.1885,829.7018],[-65.6623,-33.1797,830.9548],[-65.6488,-33.1642,834.6432],[-65.6351,-33.1431,846.5408],[-65.6331,-33.1388,849.4573],[-65.6326,-33.1291,853.4338],[-65.6343,-33.1197,856.9592],[-65.6379,-33.1107,863.1245],[-65.6572,-33.087,898.8302],[-65.6659,-33.0799,913.8284],[-65.668,-33.0711,914.5996],[-65.6679,-33.0593,902.9523],[-65.6674,-33.055,906.5029],[-65.6653,-33.0522,910.4172],[-65.6621,-33.0501,912.2716],[-65.6585,-33.0501,915.6962],[-65.6303,-33.058,900.0034],[-65.6278,-33.0723,891.2322],[-65.6186,-33.079,879.3653],[-65.612,-33.0786,874.3815],[-65.6061,-33.0735,871.5623],[-65.5999,-33.0646,875.0437],[-65.5983,-33.0586,876.2254],[-65.6094,-33.0461,888.4935],[-65.6079,-33.0365,891.3444],[-65.5916,-33.026,892.2627],[-65.5863,-33.0206,890.7661],[-65.578,-32.962,919.4617],[-65.5874,-32.9569,926.145],[-65.594,-32.949,932.7576],[-65.6139,-32.9402,941.0878],[-65.6245,-32.9289,960.4891],[-65.6389,-32.9216,978.5065],[-65.6418,-32.9176,973.7748],[-65.6438,-32.9033,1008.5794],[-65.6477,-32.8943,985.7283],[-65.6543,-32.8864,1036.5736],[-65.6588,-32.8837,1008.2204],[-65.6698,-32.8816,1023.3703],[-65.6753,-32.883,1023.6008],[-65.6799,-32.8858,1029.1652],[-65.6905,-32.8973,1099.9756],[-65.6955,-32.899,1110.5887],[-65.7013,-32.899,1121.4418],[-65.7126,-32.8885,1135.433],[-65.7229,-32.8845,1159.6959],[-65.7739,-32.8859,1245.7424],[-65.7997,-32.876,1308.187],[-65.8108,-32.8745,1326.1604],[-65.8244,-32.8658,1325.6802],[-65.8296,-32.8641,1334.5751],[-65.8523,-32.8635,1345.0115],[-65.8804,-32.86,1375.0184],[-65.8852,-32.8577,1377.5408],[-65.896,-32.8465,1414.9865],[-65.9058,-32.8417,1444.2192],[-65.9452,-32.838,1481.798],[-65.9834,-32.8289,1496.0889],[-65.9984,-32.8222,1619.011],[-66.0065,-32.8155,1687.0038],[-66.0129,-32.8076,1665.1678],[-66.0175,-32.8049,1700.2198],[-66.049,-32.7942,1698.8104],[-66.0587,-32.7893,1732.4851],[-66.0668,-32.7826,1829.328],[-66.0752,-32.7649,1673.0696],[-66.0759,-32.7552,1663.5537],[-66.0747,-32.7507,1646.8979],[-66.0661,-32.7329,1613.0835],[-66.0671,-32.7139,1651.4159],[-66.0644,-32.6998,1639.6973],[-66.0654,-32.6902,1555.4525],[-66.0785,-32.6589,1380.9363],[-66.0924,-32.6692,1356.6017],[-66.1203,-32.6856,1420.3912],[-66.1604,-32.7121,1574.7544],[-66.1753,-32.719,1574.5521],[-66.2031,-32.7355,1488.8591],[-66.2183,-32.7387,1538.8927]]]]}
,"properties": {"GID_2": "ARG.19.4_1","GID_0": "ARG","country": "Argentina","GID_1": "ARG.19_1","state": "SanLuis","NL_NAME_1": "NA","county": "CoronelPringles","VARNAME_2": "LaToma","NL_NAME_2": "NA","TYPE_2": "Departamento","ENGTYPE_2": "Department","CC_2": "NA","HASC_2": "AR.SL.CP","name": "CoronelPringles.county","area_km2": 4097.524,"hist_schema_id": "Elevation0-9000","hist_area_km2": {"575": 0.247,"600": 24.28,"625": 72.019,"650": 79.859,"675": 121.112,"700": 122.197,"725": 145.645,"750": 184.224,"775": 191.571,"800": 181.457,"825": 182.486,"850": 170.601,"875": 149.205,"900": 151.55,"925": 157.935,"950": 129.631,"975": 137.019,"1000": 123.502,"1025": 128.949,"1050": 114.308,"1075": 113.822,"1100": 103.9,"1125": 92.254,"1150": 78.783,"1175": 66.144,"1200": 64.87,"1225": 64.516,"1250": 54.777,"1275": 50.944,"1300": 47.624,"1325": 50.032,"1350": 52.087,"1375": 49.919,"1400": 45.935,"1425": 38.924,"1450": 32.983,"1475": 31.4,"1500": 24.777,"1525": 24.009,"1550": 24.314,"1575": 29.461,"1600": 35.114,"1625": 37.81,"1650": 40.326,"1675": 37.012,"1700": 37.156,"1725": 36.573,"1750": 37.728,"1775": 21.192,"1800": 19.038,"1825": 15.062,"1850": 13.582,"1875": 10.429,"1900": 7.525,"1925": 5.282,"1950": 4.106,"1975": 4.053,"2000": 4.461,"2025": 4.141,"2050": 4.017,"2075": 4.23,"2100": 3.661,"2125": 2.808,"2150": 1.883,"2175": 0.853,"2200": 0.213}}}