{"type":"Feature","properties":{"GID_2":"ARG.12.17_1","GID_0":"ARG","country":"Argentina","GID_1":"ARG.12_1","state":"LaRioja","NL_NAME_1":"NA","county":"Sanagasta","VARNAME_2":"VillaBustos","NL_NAME_2":"NA","TYPE_2":"Departamento","ENGTYPE_2":"Department","CC_2":"NA","HASC_2":"AR.LR.SA","name":"Sanagasta.county"},
"geometry":{"type": "MultiPolygon","coordinates": [[[[-66.8618,-29.1749,1831.3978],[-66.8747,-29.1614,2476.1655],[-66.923,-29.1328,1759.8917],[-66.9355,-29.1198,1743.873],[-66.9433,-29.109,1600.6187],[-66.9482,-29.0925,1554.3025],[-66.9625,-29.0092,1431.6362],[-67.0444,-28.9711,2486.4675],[-67.1422,-28.8482,3997.7427],[-67.1985,-28.9472,3662.6814],[-67.2103,-28.9751,3369.7378],[-67.2176,-29.0259,3218.0049],[-67.2174,-29.0473,3009.094],[-67.2146,-29.0641,2887.6174],[-67.1991,-29.1134,2408.1558],[-67.2026,-29.1213,2529.4485],[-67.2138,-29.1293,2768.1997],[-67.2187,-29.1367,2695.5317],[-67.2231,-29.1576,2783.1255],[-67.2227,-29.1705,2877.3604],[-67.2131,-29.1946,2770.5161],[-67.1959,-29.2251,3016.5833],[-67.1846,-29.2666,2825.2266],[-67.1809,-29.2745,2582.3335],[-67.1744,-29.2807,2655.5767],[-67.1578,-29.2898,2430.7725],[-67.1506,-29.2955,2246.7998],[-67.1481,-29.2992,2151.2197],[-67.1437,-29.3201,2552.9397],[-67.1392,-29.3323,2466.6982],[-67.1342,-29.3396,2531.2188],[-67.1175,-29.3551,2468.7156],[-67.1068,-29.3694,2684.4124],[-67.099,-29.394,2230.9736],[-67.0787,-29.423,2180.1279],[-67.0672,-29.4307,1967.4508],[-67.0529,-29.4333,1465.8243],[-67.0386,-29.4308,1461.4774],[-67.0297,-29.4273,1442.7711],[-67.0094,-29.4156,1462.8481],[-66.9865,-29.3997,925.2296],[-66.9482,-29.3611,1791.8397],[-66.9419,-29.345,1524.8286],[-66.9351,-29.3028,1599.3792],[-66.9294,-29.2865,1876.418],[-66.9242,-29.2793,2063.0791],[-66.9063,-29.265,2132.5452],[-66.8981,-29.2544,1866.3098],[-66.8913,-29.2384,1998.5953],[-66.8838,-29.2007,1960.2251],[-66.8753,-29.1854,1910.8817],[-66.8618,-29.1749,1831.3978]]]]}}