{"type":"Feature","properties":{"GID_2":"ARG.4.12_1","GID_0":"ARG","country":"Argentina","GID_1":"ARG.4_1","state":"Chubut","NL_NAME_1":"NA","county":"RióSenguer","VARNAME_2":"RioSenguerr|RioSenguerr","NL_NAME_2":"NA","TYPE_2":"Departamento","ENGTYPE_2":"Department","CC_2":"NA","HASC_2":"AR.CH.RS","name":"RióSenguer.county"},
"geometry":{"type": "MultiPolygon","coordinates": [[[[-69.9187,-44.678,458.7975],[-70.4082,-44.6706,582.3931],[-71.2316,-44.6538,1044.2742],[-71.2275,-44.6579,1084.4603],[-71.2263,-44.6631,1206.2174],[-71.217,-44.6662,1200.283],[-71.2189,-44.6702,1204.8944],[-71.2167,-44.6757,1260.7769],[-71.2015,-44.678,1414.7031],[-71.1942,-44.6855,1445.9956],[-71.2096,-44.6983,1486.3617],[-71.21,-44.704,1481.7435],[-71.2142,-44.7108,1572.7446],[-71.2141,-44.7149,1603.6431],[-71.2045,-44.7163,1653.1189],[-71.2019,-44.7211,1597.4272],[-71.2015,-44.7302,1582.6606],[-71.204,-44.7338,1658.4609],[-71.2015,-44.7377,1668.1216],[-71.2083,-44.7441,1764.191],[-71.2053,-44.7484,1747.7576],[-71.2054,-44.7508,1726.8553],[-71.2236,-44.7632,1849.6528],[-71.2386,-44.7691,1825.8116],[-71.2423,-44.7777,1697.8992],[-71.2534,-44.7871,1555.3318],[-71.2472,-44.7986,1695.6498],[-71.2533,-44.8019,1673.1166],[-71.2614,-44.8025,1718.7638],[-71.2619,-44.8052,1663.4078],[-71.2663,-44.8074,1672.1163],[-71.2765,-44.81,1697.6567],[-71.2886,-44.8094,1739.4901],[-71.2927,-44.8139,1763.1954],[-71.3045,-44.807,1687.7308],[-71.318,-44.8067,1732.6022],[-71.3272,-44.8087,1765.1382],[-71.3344,-44.8016,1740.0671],[-71.3483,-44.7938,1938.0469],[-71.3588,-44.7941,1881.7],[-71.3658,-44.7921,1868.8752],[-71.3687,-44.7958,1872.5017],[-71.373,-44.7964,1927.7936],[-71.3825,-44.7922,1975.6232],[-71.3948,-44.7907,1845.7177],[-71.4078,-44.7789,1992.056],[-71.4159,-44.7762,1918.3774],[-71.4225,-44.7687,1908.7062],[-71.4277,-44.7678,1918.5359],[-71.4336,-44.7565,1733.7358],[-71.4407,-44.7537,1730.9985],[-71.4529,-44.7528,1779.2512],[-71.4527,-44.7506,1760.4551],[-71.4556,-44.7482,1759.9694],[-71.4665,-44.7467,1808.9528],[-71.4632,-44.7431,1806.313],[-71.471,-44.7377,1793.8406],[-71.4965,-44.7377,1751.0605],[-71.5014,-44.7412,1793.4374],[-71.5146,-44.7428,1709.3806],[-71.5213,-44.7456,1717.2771],[-71.5257,-44.7432,1661.1698],[-71.5333,-44.743899999999996,1659.8799],[-71.5424,-44.748,1624.0886],[-71.5456,-44.7529,1588.3699],[-71.5616,-44.7554,1523.1416],[-71.5679,-44.7595,1611.3079],[-71.5767,-44.7535,1542.683],[-71.5823,-44.7526,1483.0542],[-71.5931,-44.7641,1408.4414],[-71.5974,-44.763,1397.3906],[-71.5998,-44.7643,1394.8911],[-71.5983,-44.7665,1385.5818],[-71.5993,-44.77,1383.2001],[-71.5923,-44.774,1416.364],[-71.595,-44.7803,1441.5093],[-71.6178,-44.7772,1404.3579],[-71.6259,-44.7798,1418.7933],[-71.6325,-44.7783,1441.8405],[-71.6384,-44.7796,1441.301],[-71.6428,-44.7826,1479.3422],[-71.6499,-44.7829,1471.6788],[-71.6557,-44.7866,1515.2648],[-71.6628,-44.7876,1552.6447],[-71.6713,-44.7874,1556.8743],[-71.6749,-44.7804,1412.359],[-71.6739,-44.7741,1324.5569],[-71.6754,-44.7707,1276.9237],[-71.6901,-44.764,1165.4814],[-71.7042,-44.7696,1189.1382],[-71.7187,-44.767,1266.1487],[-71.7354,-44.7688,1412.228],[-71.7465,-44.7619,1500.8206],[-71.764,-44.7631,1628.9336],[-71.7694,-44.757,1663.6711],[-71.7846,-44.7515,1641.7688],[-71.7926,-44.7535,1743.3783],[-71.8002,-44.759,1416.825],[-71.809,-44.762,1217.8588],[-71.8191,-44.7713,1166.5865],[-71.8246,-44.7738,1122.0588],[-71.8259,-44.7771,1209.5958],[-71.8234,-44.7814,1299.4828],[-71.8099,-44.7869,1592.6267],[-71.8157,-44.7941,1720.5841],[-71.8319,-44.7923,1586.7155],[-71.844,-44.7968,1651.0051],[-71.8488,-44.801,1668.068],[-71.8562,-44.802,1827.089],[-71.8591,-44.7996,1767.5142],[-71.867,-44.7988,1456.5052],[-71.8733,-44.7952,1579.9504],[-71.8802,-44.7944,1497.1005],[-71.8843,-44.7967,1656.1453],[-71.8875,-44.7948,1595.1187],[-71.8902,-44.7888,1693.8436],[-71.8942,-44.7853,1809.811],[-71.904,-44.783,1462.8719],[-71.9143,-44.7769,1718.4198],[-71.9235,-44.7785,1678.3799],[-71.9262,-44.7808,1667.2495],[-71.9212,-44.7869,1633.7007],[-71.922,-44.789,1648.0298],[-71.9254,-44.7906,1636.7424],[-71.9269,-44.7948,1568.218],[-71.9239,-44.7988,1621.2791],[-71.9302,-44.8033,1647.8949],[-71.9437,-44.7955,1199.6292],[-71.9461,-44.7908,1114.8727],[-71.9587,-44.7856,1355.7117],[-71.9702,-44.7859,1532.9797],[-71.9832,-44.7809,1415.9185],[-71.9869,-44.7815,1435.3726],[-71.997,-44.7875,1628.3083],[-72.0057,-44.7847,1528.6084],[-72.0054,-44.7802,1544.5505],[-72.0094,-44.7747,1578.9507],[-72.0177,-44.7708,1286.0015],[-72.0136,-44.764,1374.6096],[-72.0164,-44.7582,1404.424],[-72.0234,-44.758,1361.8278],[-72.0284,-44.7656,1221.3707],[-72.0327,-44.7667,1097.866],[-72.0432,-44.7589,1268.8457],[-72.0482,-44.7595,1441.0669],[-72.0519,-44.7574,1426.5337],[-72.0654,-44.7579,1608.139],[-72.0663,-44.7598,1657.176],[-72.0636,-44.7728,1397.1091],[-72.0656,-44.7776,1353.1652],[-72.073,-44.7817,1618.8099],[-72.069,-44.7848,1514.3809],[-72.0671,-44.7887,1400.5938],[-72.0584,-44.7934,1351.8638],[-72.0518,-44.794,1326.8865],[-72.0489,-44.796,1304.4248],[-72.0429,-44.796,1342.5522],[-72.0333,-44.8009,1051.4963],[-72.027,-44.8061,1012.5814],[-72.0367,-44.8093,1027.2048],[-72.0373,-44.8155,1035.2896],[-72.0416,-44.8181,1041.3022],[-72.0414,-44.8213,1082.1454],[-72.0458,-44.8239,1119.0013],[-72.0504,-44.8313,1317.7822],[-72.0483,-44.8353,1477.822],[-72.0582,-44.8393,1469.1948],[-72.0612,-44.8446,1177.7191],[-72.0672,-44.8503,1127.9858],[-72.0601,-44.8514,1045.0944],[-72.0509,-44.857,1070.2975],[-72.0398,-44.8597,1315.0901],[-72.0361,-44.8627,1470.3007],[-72.0371,-44.8643,1548.3075],[-72.0526,-44.8694,1673.6196],[-72.0658,-44.8761,1552.8849],[-72.0648,-44.8777,1615.6838],[-72.05,-44.8822,1705.3975],[-72.0442,-44.8906,1678.521],[-72.0443,-44.8941,1707.3865],[-72.0404,-44.902,1773.7544],[-72.0316,-44.9047,1909.2385],[-72.0289,-44.9007,2002.3573],[-72.0261,-44.9005,1946.9178],[-72.0217,-44.8969,1828.1984],[-72.0027,-44.8994,1488.5046],[-71.9985,-44.8984,1488.219],[-71.9957,-44.9005,1596.9536],[-71.9861,-44.9013,1663.1222],[-71.9781,-44.9039,1930.7365],[-71.9798,-44.9063,1804.7354],[-71.9772,-44.9127,1970.5829],[-71.9792,-44.9154,2025.8816],[-71.9776,-44.9195,1818.4314],[-71.9732,-44.9216,1894.0922],[-71.947,-44.9213,1536.2668],[-71.942,-44.9303,1754.5632],[-71.9347,-44.9334,1927.7949],[-71.9357,-44.9367,1916.4731],[-71.9338,-44.9427,1961.6078],[-71.9275,-44.9454,1846.8958],[-71.9217,-44.9442,1616.4431],[-71.9102,-44.9478,1024.6671],[-71.9015,-44.9469,1046.0278],[-71.8952,-44.949,1130.3975],[-71.8918,-44.9482,1071.0093],[-71.8871,-44.9504,1126.0906],[-71.8858,-44.946,1159.8148],[-71.8824,-44.9454,1158.5577],[-71.8814,-44.9466,1150.9172],[-71.8839,-44.951,1142.7064],[-71.882,-44.9555,1176.1427],[-71.8835,-44.9576,1187.701],[-71.8794,-44.9595,1146.6959],[-71.8762,-44.9585,1133.5348],[-71.8729,-44.9535,1114.0021],[-71.8632,-44.9469,1265.3759],[-71.8521,-44.9307,1686.7177],[-71.8303,-44.9267,1929.5596],[-71.8153,-44.9197,1673.7209],[-71.8071,-44.9243,1581.8241],[-71.8078,-44.9295,1372.3883],[-71.806,-44.9317,1346.6044],[-71.7971,-44.9303,1567.9583],[-71.7921,-44.9335,1669.6165],[-71.7886,-44.9334,1707.3583],[-71.7807,-44.9432,1749.0658],[-71.7743,-44.9408,1842.9207],[-71.7632,-44.9281,1825.4086],[-71.7543,-44.927,1833.05],[-71.747,-44.9435,1666.4502],[-71.7445,-44.955,1681.7865],[-71.7415,-44.9589,1677.9502],[-71.735,-44.9557,1635.5398],[-71.7065,-44.9561,1613.8715],[-71.6963,-44.9599,1586.5573],[-71.6838,-44.9688,1566.7488],[-71.6709,-44.9706,1547.3051],[-71.6572,-44.9756,1498.3073],[-71.6375,-44.9697,1521.8524],[-71.6342,-44.97,1520.5479],[-71.627,-44.9747,1508.7985],[-71.6211,-44.9751,1521.8691],[-71.6103,-44.9734,1535.1937],[-71.6031,-44.9703,1551.6511],[-71.5988,-44.9719,1561.4921],[-71.5925,-44.9774,1510.3972],[-71.5796,-44.9805,1475.0579],[-71.5599,-44.9779,1821.4386],[-71.559,-44.9871,1651.3112],[-71.5552,-44.9927,1597.467],[-71.5522,-44.9954,1602.6731],[-71.5418,-44.9982,1744.5034],[-71.5406,-45.0,1734.38],[-71.5421,-45.0024,1713.6432],[-71.5518,-45.0077,1712.7853],[-71.5521,-45.0098,1638.7772],[-71.5474,-45.0159,1562.7205],[-71.5536,-45.0213,1376.8994],[-71.558,-45.0304,1344.7527],[-71.5475,-45.0338,1337.7922],[-71.5396,-45.0408,1326.7148],[-71.5297,-45.0467,1321.0948],[-71.5231,-45.0543,1303.7183],[-71.5215,-45.0587,1296.2534],[-71.5131,-45.0606,1302.0237],[-71.509,-45.0642,1314.8186],[-71.5053,-45.0716,1318.4346],[-71.5059,-45.0856,1325.0809],[-71.5109,-45.0949,1252.2678],[-71.5172,-45.1004,1296.1656],[-71.5267,-45.1034,1369.2272],[-71.5029,-45.1028,1262.2393],[-71.4987,-45.106,1248.0345],[-71.4918,-45.1079,1229.197],[-71.4905,-45.1126,1208.4813],[-71.4861,-45.1173,1176.699],[-71.4851,-45.1215,1135.1365],[-71.4822,-45.1251,1076.0118],[-71.4791,-45.1341,1029.6174],[-71.4797,-45.1371,1015.9143],[-71.4854,-45.1433,979.1405],[-71.4803,-45.14,992.4677],[-71.4754,-45.1399,992.424],[-71.4704,-45.144,973.7561],[-71.4703,-45.1483,964.7957],[-71.4655,-45.15,956.8271],[-71.4454,-45.1523,953.9839],[-71.4438,-45.1529,947.5312],[-71.4435,-45.1556,938.6559],[-71.4407,-45.1569,934.2859],[-71.4328,-45.1561,935.6098],[-71.4175,-45.1579,937.9155],[-71.4264,-45.1625,923.6064],[-71.419,-45.166,917.616],[-71.4206,-45.1694,922.068],[-71.4252,-45.1717,915.0408],[-71.4196,-45.1724,912.7541],[-71.4185,-45.176,911.0854],[-71.4065,-45.1806,920.5222],[-71.4051,-45.1847,922.4349],[-71.4073,-45.189,919.7844],[-71.4008,-45.1909,912.2141],[-71.3988,-45.1966,905.151],[-71.3924,-45.2011,896.1321],[-71.3834,-45.2035,891.778],[-71.3785,-45.2065,883.4162],[-71.3754,-45.2117,877.5781],[-71.3758,-45.2136,875.5637],[-71.3715,-45.2174,874.7299],[-71.3729,-45.2192,877.1014],[-71.3702,-45.2247,878.2993],[-71.3586,-45.2262,875.4034],[-71.349,-45.2299,866.9317],[-71.3421,-45.2352,860.6239],[-71.3377,-45.2361,856.564],[-71.3332,-45.2413,850.8737],[-71.3386,-45.25,841.2845],[-71.332,-45.2493,848.9088],[-71.3311,-45.2511,847.6795],[-71.3358,-45.2527,841.3174],[-71.3359,-45.2555,838.4647],[-71.3444,-45.2646,836.963],[-71.3497,-45.2654,825.0479],[-71.3506,-45.2668,828.5581],[-71.3476,-45.272,834.1273],[-71.3393,-45.2732,833.4648],[-71.3381,-45.278,837.7241],[-71.3297,-45.2781,837.5967],[-71.3263,-45.2818,841.118],[-71.3266,-45.2854,842.6066],[-71.3199,-45.2929,848.6129],[-71.3247,-45.3061,855.9119],[-71.3307,-45.3117,839.5386],[-71.335,-45.3133,849.887],[-71.3333,-45.3192,846.5944],[-71.3363,-45.322,845.3988],[-71.3481,-45.3265,843.6448],[-71.3493,-45.3318,846.951],[-71.3669,-45.3352,852.4186],[-71.3721,-45.3385,856.6763],[-71.3709,-45.3433,864.4651],[-71.3844,-45.3494,881.0339],[-71.4019,-45.3533,899.9183],[-71.4131,-45.3531,911.4878],[-71.438,-45.3608,939.9109],[-71.4432,-45.3654,948.0157],[-71.4472,-45.3663,962.2655],[-71.449,-45.3683,962.2118],[-71.4393,-45.3719,960.9619],[-71.4443,-45.3764,972.255],[-71.4372,-45.3901,1098.8351],[-71.4383,-45.3958,1117.1967],[-71.4441,-45.391,1060.9612],[-71.4595,-45.384,926.0184],[-71.4701,-45.3882,826.1169],[-71.4813,-45.386,785.6174],[-71.5021,-45.3863,765.1289],[-71.5109,-45.3891,780.7228],[-71.5219,-45.3896,872.5945],[-71.5278,-45.3917,927.2209],[-71.5295,-45.3941,946.2059],[-71.5321,-45.4006,1004.8183],[-71.5307,-45.4063,1037.1116],[-71.5318,-45.4096,1041.4532],[-71.5237,-45.4167,993.4095],[-71.5238,-45.4217,984.5532],[-71.5205,-45.4258,1029.7827],[-71.5307,-45.4299,1008.8465],[-71.5345,-45.4329,1036.5513],[-71.5279,-45.4387,994.667],[-71.5169,-45.4394,964.6774],[-71.5125,-45.4428,947.4885],[-71.508,-45.45,942.7173],[-71.5074,-45.4536,1063.7225],[-71.5016,-45.4551,1118.5079],[-71.5026,-45.4568,1097.0798],[-71.5079,-45.4578,1066.7231],[-71.5091,-45.4606,1078.3564],[-71.498,-45.4669,937.1656],[-71.4948,-45.4712,919.0183],[-71.4835,-45.4702,889.7974],[-71.4771,-45.4739,857.9556],[-71.475,-45.4784,855.2314],[-71.4696,-45.4804,898.3674],[-71.4743,-45.4832,884.1561],[-71.4757,-45.486,834.3354],[-71.4739,-45.4885,824.1176],[-71.4694,-45.4893,819.523],[-71.4672,-45.4917,835.6167],[-71.47,-45.4952,813.5075],[-71.5008,-45.5023,1064.6333],[-71.5104,-45.5084,901.9028],[-71.5233,-45.5093,839.1859],[-71.5344,-45.514,819.9078],[-71.5425,-45.5151,772.6389],[-71.5442,-45.5209,792.243],[-71.5513,-45.5197,785.0717],[-71.5543,-45.5225,785.9236],[-71.5598,-45.5234,794.6258],[-71.5761,-45.5191,796.7922],[-71.5838,-45.5217,803.0183],[-71.5923,-45.5199,802.1072],[-71.6048,-45.5224,807.5375],[-71.6125,-45.5202,806.8535],[-71.6119,-45.514,812.4016],[-71.6189,-45.5131,815.8106],[-71.6231,-45.5108,851.6919],[-71.6384,-45.5121,858.1768],[-71.6436,-45.5142,809.9194],[-71.6435,-45.5169,823.7888],[-71.645,-45.5178,823.7888],[-71.6664,-45.5175,790.8227],[-71.6726,-45.5141,911.7175],[-71.6791,-45.515,914.0853],[-71.6822,-45.5131,905.4625],[-71.6859,-45.5182,869.0219],[-71.6909,-45.5208,891.9326],[-71.6818,-45.526,781.4549],[-71.6835,-45.5282,757.8958],[-71.6942,-45.5338,711.4471],[-71.6999,-45.5339,738.2474],[-71.7056,-45.5367,746.7065],[-71.7232,-45.5352,860.9007],[-71.7357,-45.5406,947.4167],[-71.7451,-45.5413,931.555],[-71.7445,-45.544,867.9965],[-71.7479,-45.549,929.6338],[-71.7531,-45.5502,932.8054],[-71.754,-45.5532,851.6404],[-71.761,-45.5569,890.9617],[-71.7638,-45.562,990.6342],[-71.7623,-45.5639,997.8018],[-71.7641,-45.5657,1001.5568],[-71.7647,-45.5738,805.9126],[-71.7628,-45.5757,793.9467],[-71.7491,-45.5786,803.2682],[-71.7429,-45.5784,788.4819],[-71.7278,-45.5727,831.1819],[-71.7263,-45.5776,844.0178],[-71.7342,-45.5815,735.3289],[-71.7302,-45.5876,749.8787],[-71.7304,-45.5917,857.0759],[-71.7367,-45.5951,958.2017],[-71.7425,-45.5962,882.3625],[-71.7468,-45.6072,917.2985],[-71.755,-45.6096,906.8924],[-71.7609,-45.6205,954.5005],[-71.7728,-45.6173,966.3637],[-71.7773,-45.6192,923.9359],[-71.7781,-45.628,779.0773],[-71.782,-45.6333,833.3479],[-71.7732,-45.6411,784.4755],[-71.7777,-45.6435,768.3127],[-71.7792,-45.6461,789.5914],[-71.778,-45.6482,827.5031],[-71.7833,-45.6494,801.8713],[-71.7829,-45.6543,798.813],[-71.7801,-45.6568,822.6965],[-71.7946,-45.6627,789.6435],[-71.7961,-45.6655,788.0964],[-71.7943,-45.668,781.1591],[-71.7889,-45.6686,792.1163],[-71.7732,-45.6811,830.3407],[-71.7738,-45.6902,856.3425],[-71.7723,-45.6954,877.3385],[-71.7826,-45.7045,1186.0624],[-71.793,-45.7052,1211.3069],[-71.7957,-45.7099,1191.6742],[-71.7988,-45.7115,1164.0308],[-71.7981,-45.7156,1222.2244],[-71.8021,-45.719,1222.2186],[-71.7962,-45.7241,1340.021],[-71.7948,-45.7306,1426.84],[-71.7831,-45.7349,1065.5493],[-71.7717,-45.7431,946.5284],[-71.7701,-45.75,920.3496],[-71.7669,-45.7545,904.8337],[-71.7645,-45.7552,877.929],[-71.7635,-45.7608,818.5862],[-71.7544,-45.7727,721.9832],[-71.7555,-45.7774,671.1116],[-71.7616,-45.7879,627.4254],[-71.7583,-45.7918,608.0179],[-71.7548,-45.7924,604.5736],[-71.7446,-45.7988,570.362],[-71.7429,-45.8031,560.1683],[-71.7425,-45.8071,551.4196],[-71.7538,-45.8181,526.856],[-71.7534,-45.8215,523.6631],[-71.7561,-45.8264,514.4957],[-71.763,-45.8316,504.697],[-71.764,-45.8341,504.5733],[-71.768,-45.8361,502.8159],[-71.7664,-45.8386,495.7772],[-71.7686,-45.8433,489.9048],[-71.7678,-45.8471,486.1895],[-71.7634,-45.8468,486.0696],[-71.7644,-45.851,485.4138],[-71.7622,-45.8535,486.306],[-71.7602,-45.8532,486.1427],[-71.7605,-45.8501,486.3504],[-71.7583,-45.8493,486.3963],[-71.7562,-45.8502,485.756],[-71.7568,-45.8541,486.1098],[-71.751,-45.8511,488.133],[-71.7492,-45.8518,486.7824],[-71.75,-45.8542,487.1231],[-71.7465,-45.8529,487.4328],[-71.7417,-45.8537,487.1899],[-71.739,-45.8575,487.4592],[-71.7375,-45.8571,487.7047],[-71.7374,-45.8548,488.2643],[-71.7325,-45.8556,488.2307],[-71.7299,-45.8529,487.8001],[-71.7272,-45.8533,489.3214],[-71.7288,-45.8551,488.4054],[-71.7269,-45.8569,488.8794],[-71.7167,-45.8545,489.636],[-71.7166,-45.8586,489.675],[-71.7117,-45.8578,491.1378],[-71.7086,-45.8616,490.1286],[-71.7045,-45.8613,490.4475],[-71.7038,-45.8634,490.63869999999997],[-71.7009,-45.8631,490.644],[-71.6979,-45.8662,491.2249],[-71.6931,-45.8653,491.0456],[-71.6854,-45.8719,492.1255],[-71.6817,-45.8716,492.5499],[-71.6801,-45.8746,492.8777],[-71.6708,-45.8753,492.9631],[-71.6695,-45.8789,493.4106],[-71.6577,-45.8836,493.9805],[-71.659,-45.8851,494.2918],[-71.6559,-45.8859,494.7084],[-71.6568,-45.888,494.8319],[-71.6538,-45.889,495.1017],[-71.6535,-45.8909,495.1309],[-71.6551,-45.8935,495.829],[-71.6538,-45.8957,496.0846],[-71.6552,-45.8967,496.6384],[-71.6522,-45.8985,497.1299],[-71.6518,-45.9013,497.5108],[-71.6485,-45.9022,497.9577],[-71.6498,-45.9046,498.2895],[-71.6475,-45.9042,498.3439],[-71.6479,-45.9065,498.2233],[-71.6447,-45.9082,499.0525],[-71.6449,-45.9147,501.7768],[-71.6468,-45.9179,499.583],[-71.6431,-45.9194,500.5584],[-71.6418,-45.9253,506.5263],[-71.6388,-45.9253,502.106],[-71.6354,-45.9284,508.4073],[-71.6328,-45.9281,504.1068],[-71.6335,-45.9291,504.9038],[-71.6319,-45.9303,505.0324],[-71.6332,-45.9323,507.075],[-71.6311,-45.9326,506.3918],[-71.6306,-45.9346,517.5831],[-71.6239,-45.935,508.9751],[-71.6257,-45.9367,510.2029],[-71.6236,-45.9369,510.0091],[-71.6247,-45.9389,512.0132],[-71.6229,-45.942,530.3416],[-71.6238,-45.9431,526.616],[-71.6185,-45.9468,520.142],[-71.6185,-45.9556,528.9008],[-71.6166,-45.9591,533.3917],[-71.6177,-45.9607,536.0196],[-71.6146,-45.9647,542.8139],[-71.6165,-45.967,549.0397],[-71.6161,-45.977,560.6758],[-71.6198,-45.9819,570.1582],[-71.6286,-45.9837,589.4896],[-71.6322,-45.9782,633.5989],[-71.6347,-45.9775,612.0304],[-71.6418,-45.9809,635.4056],[-71.6478,-45.9862,630.8427],[-71.6484,-45.9885,654.3434],[-71.6449,-45.9924,639.4464],[-71.6481,-45.9982,680.0159],[-71.6471,-46.0013,668.7885],[-71.6482,-46.0067,665.0197],[-71.5455,-45.9992,672.2727],[-70.7014,-45.9962,692.8953],[-70.5129,-45.9963,646.0101],[-70.1881,-46.001,586.8224],[-69.6481,-46.0052,444.3191],[-69.6268,-44.681399999999996,918.9977],[-69.9187,-44.678,458.7975]]]]}}