{"type": "Feature","bbox": [-66.4204,-30.7534,-65.4962,-30.371],"geometry": {"type": "MultiPolygon","coordinates": [[[[-65.4962,-30.371,193.459],[-65.9976,-30.3936,328.8808],[-66.2324,-30.5266,479.0065],[-66.3715,-30.5112,1518.7173],[-66.3695,-30.5225,1511.8357],[-66.3716,-30.5307,1516.2419],[-66.3793,-30.5416,1469.332],[-66.3866,-30.5574,1413.8523],[-66.4086,-30.5858,1247.5154],[-66.4196,-30.6096,1159.3955],[-66.4204,-30.6223,1146.1475],[-66.4187,-30.635,1214.8511],[-66.4062,-30.6534,1075.368],[-66.3847,-30.6767,863.3167],[-66.3664,-30.702,1131.8706],[-66.3613,-30.7141,1142.6201],[-66.3533,-30.7477,1018.634],[-65.9684,-30.7496,345.3186],[-65.6496,-30.7534,226.3958],[-65.5331,-30.4823,196.8878],[-65.4962,-30.371,193.459]]]]}
,"properties": {"GID_2": "ARG.12.9_1","GID_0": "ARG","country": "Argentina","GID_1": "ARG.12_1","state": "LaRioja","NL_NAME_1": "NA","county": "GeneralBelgrano","VARNAME_2": "Olta","NL_NAME_2": "NA","TYPE_2": "Departamento","ENGTYPE_2": "Department","CC_2": "NA","HASC_2": "AR.LR.GB","name": "GeneralBelgrano.county","area_km2": 2780.65,"hist_schema_id": "Elevation0-9000","hist_area_km2": {"200": 404.634,"225": 328.225,"250": 262.424,"275": 217.216,"300": 212.811,"325": 181.143,"350": 166.316,"375": 163.362,"400": 170.516,"425": 136.596,"450": 100.278,"475": 52.437,"500": 41.653,"525": 31.506,"550": 19.63,"575": 10.472,"600": 8.539,"625": 7.972,"650": 7.113,"675": 6.548,"700": 5.763,"725": 5.563,"750": 5.344,"775": 5.746,"800": 4.962,"825": 5.126,"850": 5.163,"875": 4.78,"900": 5.017,"925": 4.98,"950": 5.144,"975": 5.308,"1000": 6.329,"1025": 6.366,"1050": 7.897,"1075": 9.046,"1100": 9.576,"1125": 11.783,"1150": 14.028,"1175": 13.645,"1200": 11.511,"1225": 11.036,"1250": 10.963,"1275": 9.941,"1300": 11.328,"1325": 10.873,"1350": 10.435,"1375": 8.339,"1400": 6.059,"1425": 5.184,"1450": 4.783,"1475": 2.465,"1500": 1.935,"1525": 1.68,"1550": 1.625,"1575": 1.023,"1600": 0.511}}}