{"type":"Feature","properties":{"GID_2":"ARG.13.3_1","GID_0":"ARG","country":"Argentina","GID_1":"ARG.13_1","state":"Mendoza","NL_NAME_1":"NA","county":"GodoyCruz","VARNAME_2":"NA","NL_NAME_2":"NA","TYPE_2":"Departamento","ENGTYPE_2":"Department","CC_2":"NA","HASC_2":"AR.MZ.GC","name":"GodoyCruz.county"},
"geometry":{"type": "MultiPolygon","coordinates": [[[[-68.9653,-32.9106,1262.8651],[-68.9657,-32.9551,1218.7163],[-68.8224,-32.9574,826.5237],[-68.8188,-32.9482,814.2989],[-68.8224,-32.9477,815.7854],[-68.8164,-32.9367,798.0431],[-68.8107,-32.9371,790.2314],[-68.8033,-32.9238,767.061],[-68.7997,-32.9246,769.4208],[-68.7952,-32.9157,750.0305],[-68.811,-32.9117,760.0583],[-68.8232,-32.9147,776.0367],[-68.8296,-32.9185,785.0707],[-68.8264,-32.9076,766.2072],[-68.8614,-32.908,811.7512],[-68.8769,-32.9051,846.4158],[-68.8887,-32.9095,934.3551],[-68.9653,-32.9106,1262.8651]]]]}}