{"type": "Feature","bbox": [-58.0088,-37.2073,-57.1776,-36.5718],"geometry": {"type": "MultiPolygon","coordinates": [[[[-57.7725,-37.1391,18.8271],[-57.6778,-37.2073,15.8688],[-57.5691,-37.1076,11.1457],[-57.4907,-37.1064,12.7915],[-57.4991,-37.0185,7.5531],[-57.3111,-37.0081,6.0929],[-57.3267,-36.9098,6.2714],[-57.2306,-36.909,5.3503],[-57.239,-36.7897,3.5236],[-57.1776,-36.7883,2.072],[-57.2492,-36.7338,2.8956],[-57.4709,-36.5718,4.4857],[-57.5032,-36.5893,4.1809],[-57.659,-36.7295,8.1375],[-57.6662,-36.7241,8.1084],[-57.7159,-36.7671,9.1564],[-57.7545,-36.7378,8.6569],[-57.7974,-36.7758,7.7024],[-57.8006,-36.7738,8.4457],[-57.8965,-36.8578,15.4851],[-57.9224,-36.8394,16.7259],[-57.9739,-36.8847,19.4242],[-57.947,-36.904,18.5978],[-58.0088,-36.9632,23.3722],[-57.7725,-37.1391,18.8271]]]]}
,"properties": {"GID_2": "ARG.1.74_1","GID_0": "ARG","country": "Argentina","GID_1": "ARG.1_1","state": "BuenosAires","NL_NAME_1": "NA","county": "Maipú","VARNAME_2": "NA","NL_NAME_2": "NA","TYPE_2": "Partido","ENGTYPE_2": "Part","CC_2": "NA","HASC_2": "AR.BA.MA","name": "Maipú.county","area_km2": 2592.665,"hist_schema_id": "Elevation0-9000","hist_area_km2": {"0": 1912.478,"25": 680.136,"50": 0.051}}}