{"type": "Feature","bbox": [-59.5578,-35.4375,-58.812,-34.9642],"geometry": {"type": "MultiPolygon","coordinates": [[[[-58.9391,-35.1036,31.1576],[-59.0191,-35.0415,34.4699],[-58.9996,-35.0246,36.305],[-59.077,-34.9642,36.7964],[-59.1167,-34.9975,36.7128],[-59.1309,-35.0121,35.3681],[-59.1428,-35.0205,34.9395],[-59.1457,-35.0186,34.5605],[-59.2254,-35.089,27.6039],[-59.2482,-35.0707,32.2801],[-59.2569,-35.1015,30.4532],[-59.351,-35.1442,34.1428],[-59.3664,-35.1554,33.492],[-59.3651,-35.1592,33.1078],[-59.3766,-35.165,33.0195],[-59.3794,-35.1631,32.9078],[-59.5578,-35.2522,31.3484],[-59.5573,-35.2665,36.9103],[-59.5457,-35.2845,32.1409],[-59.5221,-35.2932,32.1381],[-59.5181,-35.2903,31.1229],[-59.5076,-35.2908,29.9364],[-59.5043,-35.2925,30.0606],[-59.4903,-35.2923,29.6824],[-59.4876,-35.2897,29.4002],[-59.4843,-35.2907,29.3706],[-59.4723,-35.3054,29.623],[-59.4645,-35.3026,29.3937],[-59.452,-35.3063,28.6653],[-59.4492,-35.3103,29.1305],[-59.4458,-35.3117,29.1436],[-59.4391,-35.3067,28.5569],[-59.4331,-35.307,29.6595],[-59.4318,-35.3018,28.644],[-59.4198,-35.3051,27.8336],[-59.4124,-35.3044,27.7],[-59.4062,-35.2987,28.3471],[-59.4018,-35.2982,29.0862],[-59.3977,-35.295,27.811],[-59.3873,-35.3001,28.5684],[-59.3879,-35.3063,28.5647],[-59.382,-35.3205,27.8929],[-59.385,-35.3284,27.7201],[-59.3847,-35.3336,28.4283],[-59.3728,-35.3433,28.5137],[-59.3684,-35.3485,27.735],[-59.3684,-35.3517,28.2838],[-59.3645,-35.3534,28.2002],[-59.3569,-35.3452,27.4047],[-59.352,-35.3545,27.0579],[-59.3457,-35.3569,27.3327],[-59.3373,-35.356,26.7841],[-59.3231,-35.3663,27.277],[-59.3266,-35.3748,27.3298],[-59.3268,-35.3777,27.2817],[-59.325,-35.3801,27.6864],[-59.3159,-35.3765,28.1014],[-59.3106,-35.3714,26.8036],[-59.3025,-35.3698,28.0481],[-59.2817,-35.3802,26.9589],[-59.2675,-35.3942,26.0887],[-59.2406,-35.394,27.3411],[-59.2246,-35.398,27.0822],[-59.2163,-35.397,25.8852],[-59.2026,-35.4002,26.0571],[-59.1939,-35.4062,26.0633],[-59.1902,-35.4124,26.4581],[-59.1757,-35.4101,25.118],[-59.1701,-35.4194,24.0826],[-59.1705,-35.423,24.0144],[-59.1568,-35.4248,23.5788],[-59.1339,-35.4375,23.195],[-59.0649,-35.3781,25.7564],[-59.0611,-35.3802,25.9839],[-59.0296,-35.3538,21.4941],[-59.0094,-35.3689,24.3026],[-58.9864,-35.349,23.6903],[-58.9718,-35.342,23.7674],[-58.9541,-35.3447,23.3584],[-58.9481,-35.3397,23.3126],[-58.9331,-35.341,24.0661],[-58.9272,-35.343,24.0169],[-58.812,-35.2424,29.7265],[-58.8979,-35.1775,30.0184],[-58.8731,-35.1549,31.1032],[-58.9391,-35.1036,31.1576]]]]}
,"properties": {"GID_2": "ARG.1.70_1","GID_0": "ARG","country": "Argentina","GID_1": "ARG.1_1","state": "BuenosAires","NL_NAME_1": "NA","county": "Lobos","VARNAME_2": "NA","NL_NAME_2": "NA","TYPE_2": "Partido","ENGTYPE_2": "Part","CC_2": "NA","HASC_2": "AR.BA.LB","name": "Lobos.county","area_km2": 1743.549,"hist_schema_id": "Elevation0-9000","hist_area_km2": {"25": 1730.39,"50": 13.16}}}