{"type":"Feature","properties":{"GID_2":"ARG.1.93_1","GID_0":"ARG","country":"Argentina","GID_1":"ARG.1_1","state":"BuenosAires","NL_NAME_1":"NA","county":"Pinamar","VARNAME_2":"NN","NL_NAME_2":"NA","TYPE_2":"Partido","ENGTYPE_2":"Part","CC_2":"NA","HASC_2":"AR.BA.PI","name":"Pinamar.county"},
"geometry":{"type": "MultiPolygon","coordinates": [[[[-56.9516,-37.1925,11.8937],[-56.9195,-37.1964,6.8474],[-56.9146,-37.1967,0.0],[-56.9129,-37.1951,0.0],[-56.9012,-37.1807,0.577],[-56.8937,-37.1671,11.1885],[-56.8901,-37.1649,4.8428],[-56.886,-37.1579,9.7746],[-56.8829,-37.1565,0.7194],[-56.866,-37.1307,1.4484],[-56.8237,-37.0812,0.0],[-56.8224,-37.0757,4.7236],[-56.8112,-37.0579,4.2531],[-56.7935,-37.0374,0.5069],[-56.8361,-37.0237,3.8354],[-56.847,-37.0381,3.9273],[-56.859,-37.0578,3.9882],[-56.8868,-37.1099,15.507],[-56.9233,-37.1547,27.3434],[-56.9355,-37.1673,19.4505],[-56.9413,-37.18,21.1308],[-56.9516,-37.1925,11.8937]]]]}}