{"type": "Feature","bbox": [-69.903,-38.6899,-68.2431,-37.7391],"geometry": {"type": "MultiPolygon","coordinates": [[[[-69.8829,-37.7391,739.2247],[-69.8979,-37.7971,918.0795],[-69.8963,-37.8121,883.72],[-69.8945,-37.8169,855.5809],[-69.8861,-37.8257,791.1334],[-69.886,-37.8294,715.4028],[-69.903,-37.8376,773.2122],[-69.9005,-37.846,760.8844],[-69.8873,-37.8647,702.8079],[-69.8774,-37.8833,670.4976],[-69.8749,-37.893,688.9274],[-69.8738,-37.9131,688.6981],[-69.871,-37.9228,703.3734],[-69.8548,-37.9661,719.8865],[-69.839,-37.9935,752.5593],[-69.8336,-38.0081,763.7409],[-69.8324,-38.0195,625.2672],[-69.834,-38.0229,620.9688],[-69.8524,-38.0175,649.3439],[-69.8565,-38.0198,653.9304],[-69.8598,-38.0243,656.4972],[-69.8633,-38.0349,661.9301],[-69.8609,-38.0445,659.4417],[-69.8513,-38.0635,648.7333],[-69.8481,-38.0678,641.8925],[-69.8379,-38.0752,632.4911],[-69.8374,-38.0789,629.7158],[-69.8483,-38.0868,651.2358],[-69.8504,-38.0904,666.4636],[-69.8477,-38.0937,675.2905],[-69.8202,-38.109,641.3599],[-69.8111,-38.1158,654.2345],[-69.8057,-38.1247,690.3186],[-69.7896,-38.1629,665.2542],[-69.7814,-38.1766,728.4301],[-69.7742,-38.1848,732.3766],[-69.7634,-38.1895,601.1577],[-69.745,-38.1944,637.3452],[-69.7246,-38.2062,659.662],[-69.7054,-38.2119,708.7236],[-69.701,-38.2145,729.2631],[-69.6999,-38.2184,731.6678],[-69.7054,-38.2339,632.8426],[-69.7031,-38.2493,702.5909],[-69.7038,-38.2539,712.809],[-69.7067,-38.258,704.416],[-69.7294,-38.2763,565.0757],[-69.735,-38.2851,614.5366],[-69.7377,-38.3052,553.59],[-69.7368,-38.3101,590.3702],[-69.7295,-38.324,588.6625],[-69.7372,-38.332,611.8922],[-69.7397,-38.3368,550.5035],[-69.7435,-38.3471,570.5016],[-69.7429,-38.3515,593.6578],[-69.7394,-38.3549,584.555],[-69.7001,-38.3732,588.0757],[-69.6618,-38.4131,635.8449],[-69.6361,-38.4279,563.3171],[-69.6144,-38.4461,652.2393],[-69.5923,-38.4561,589.6279],[-69.5715,-38.4677,550.3093],[-69.5619,-38.4743,523.8954],[-69.5495,-38.4858,519.9781],[-69.5342,-38.495,526.1521],[-69.5229,-38.4993,516.7955],[-69.5167,-38.5,521.6734],[-69.4847,-38.4968,508.733],[-69.472,-38.4972,504.2141],[-69.4593,-38.4996,527.8604],[-69.449,-38.505,553.6541],[-69.4369,-38.517,587.8534],[-69.4289,-38.5306,600.2833],[-69.4244,-38.5453,550.6146],[-69.4232,-38.5605,645.6953],[-69.4201,-38.57,646.8857],[-69.4074,-38.5845,644.9537],[-69.4002,-38.5851,625.4183],[-69.3937,-38.5904,626.5713],[-69.3901,-38.6036,626.0885],[-69.3571,-38.6086,600.654],[-69.3442,-38.6144,590.6726],[-69.3366,-38.6228,616.5951],[-69.3323,-38.6247,633.8826],[-69.3244,-38.624,619.5409],[-69.3012,-38.6174,515.947],[-69.2816,-38.6176,546.6593],[-69.2648,-38.6197,592.5211],[-69.2511,-38.6255,513.5804],[-69.2419,-38.6341,512.5789],[-69.2356,-38.6353,508.5013],[-69.2279,-38.6343,490.4144],[-69.2075,-38.6248,488.6491],[-69.1566,-38.6251,481.8502],[-69.1341,-38.6202,483.465],[-69.1137,-38.609,508.329],[-69.0976,-38.6047,481.0748],[-69.083,-38.5878,453.5148],[-69.0596,-38.5789,448.9749],[-69.0563,-38.5618,444.2401],[-69.0533,-38.5573,442.6367],[-69.0462,-38.5512,442.9272],[-69.0266,-38.5395,460.0297],[-69.0206,-38.5316,484.9422],[-69.0175,-38.5217,462.9206],[-68.9925,-38.498,454.1375],[-68.9766,-38.4919,430.9659],[-68.9582,-38.4772,428.4361],[-68.9543,-38.472,427.103],[-68.9487,-38.4572,426.0483],[-68.9436,-38.4489,427.2804],[-68.9235,-38.4288,417.2255],[-68.9138,-38.413,416.209],[-68.9031,-38.404,415.4433],[-68.8882,-38.3925,413.7149],[-68.8777,-38.3866,411.0093],[-68.855,-38.3784,406.8905],[-68.8398,-38.3773,405.5743],[-68.76,-38.3868,398.0854],[-68.7466,-38.3906,388.538],[-68.7192,-38.4024,384.675],[-68.6919,-38.4092,382.0087],[-68.6814,-38.4133,380.3265],[-68.6619,-38.4253,377.235],[-68.6358,-38.4452,372.118],[-68.6103,-38.4594,367.4324],[-68.5854,-38.4804,361.988],[-68.5641,-38.485,361.8722],[-68.5421,-38.4959,357.8185],[-68.5289,-38.5072,355.4581],[-68.5145,-38.5161,354.3602],[-68.5003,-38.5333,350.9891],[-68.4843,-38.5494,348.0369],[-68.4586,-38.5668,382.2569],[-68.4477,-38.5723,345.7229],[-68.3965,-38.5876,337.0],[-68.3736,-38.6001,328.5029],[-68.3285,-38.6311,321.6159],[-68.3051,-38.6504,316.1676],[-68.2973,-38.6616,316.8358],[-68.2927,-38.6637,315.8272],[-68.2793,-38.6745,312.8293],[-68.2541,-38.6899,312.3557],[-68.245,-38.6882,311.2634],[-68.2431,-37.7512,504.3134],[-69.8829,-37.7391,739.2247]]]]}
,"properties": {"GID_2": "ARG.15.2_1","GID_0": "ARG","country": "Argentina","GID_1": "ARG.15_1","state": "Neuquén","NL_NAME_1": "NA","county": "Añelo","VARNAME_2": "NA","NL_NAME_2": "NA","TYPE_2": "Departamento","ENGTYPE_2": "Department","CC_2": "NA","HASC_2": "AR.NQ.AN","name": "Añelo.county","area_km2": 11681.677,"hist_schema_id": "Elevation0-9000","hist_area_km2": {"225": 397.541,"250": 223.891,"275": 248.807,"300": 251.756,"325": 361.904,"350": 356.431,"375": 359.8,"400": 418.298,"425": 511.747,"450": 559.508,"475": 688.037,"500": 755.545,"525": 520.778,"550": 420.112,"575": 346.386,"600": 329.078,"625": 304.824,"650": 397.054,"675": 337.854,"700": 301.638,"725": 199.195,"750": 192.101,"775": 182.16,"800": 176.438,"825": 170.123,"850": 159.114,"875": 166.558,"900": 168.959,"925": 156.723,"950": 137.2,"975": 132.954,"1000": 142.43,"1025": 151.573,"1050": 150.112,"1075": 137.688,"1100": 129.556,"1125": 122.508,"1150": 116.449,"1175": 108.384,"1200": 84.158,"1225": 79.245,"1250": 81.805,"1275": 76.731,"1300": 69.642,"1325": 73.668,"1350": 49.19,"1375": 34.071,"1400": 30.865,"1425": 20.703,"1450": 14.609,"1475": 11.111,"1500": 9.587,"1525": 8.581,"1550": 5.715,"1575": 4.458,"1600": 3.486,"1625": 3.52,"1650": 2.967,"1675": 2.246,"1700": 2.263,"1725": 2.313,"1750": 2.112,"1775": 2.078,"1800": 2.179,"1825": 2.162,"1850": 1.861,"1875": 1.944,"1900": 2.062,"1925": 1.19,"1950": 0.821,"1975": 0.453,"2000": 0.536,"2025": 0.419,"2050": 0.57,"2075": 0.587,"2100": 0.251,"2125": 0.201}}}