{"type":"Feature","properties":{"GID_2":"ARG.1.71_1","GID_0":"ARG","country":"Argentina","GID_1":"ARG.1_1","state":"BuenosAires","NL_NAME_1":"NA","county":"LomasdeZamora","VARNAME_2":"NA","NL_NAME_2":"NA","TYPE_2":"Partido","ENGTYPE_2":"Part","CC_2":"NA","HASC_2":"AR.BA.LZ","name":"LomasdeZamora.county"},
"geometry":{"type": "MultiPolygon","coordinates": [[[[-58.3373,-34.7586,12.0538],[-58.3477,-34.7431,16.3402],[-58.3571,-34.7439,10.9776],[-58.3677,-34.7493,12.2038],[-58.3729,-34.7452,13.2509],[-58.3758,-34.7467,16.7421],[-58.382,-34.742,12.8031],[-58.4143,-34.7365,9.9477],[-58.4472,-34.6932,6.2487],[-58.4661,-34.7136,5.5945],[-58.4848,-34.731,3.5064],[-58.485,-34.7359,6.2869],[-58.4933,-34.7316,5.914],[-58.4948,-34.7289,5.8046],[-58.502,-34.7264,3.8853],[-58.4312,-34.8204,24.457],[-58.406,-34.808,25.3142],[-58.4114,-34.8018,23.5089],[-58.3596,-34.775,18.6539],[-58.3628,-34.7711,15.8017],[-58.3373,-34.7586,12.0538]]]]}}