{"type":"Feature","properties":{"GID_2":"ARG.21.5_1","GID_0":"ARG","country":"Argentina","GID_1":"ARG.21_1","state":"SantaFe","NL_NAME_1":"NA","county":"Garay","VARNAME_2":"Helvencia","NL_NAME_2":"NA","TYPE_2":"Departamento","ENGTYPE_2":"Department","CC_2":"NA","HASC_2":"AR.SF.GA","name":"Garay.county"},
"geometry":{"type": "MultiPolygon","coordinates": [[[[-59.6343,-30.7108,18.0],[-59.7119,-30.6986,20.3811],[-59.9638,-30.6701,19.2007],[-60.2216,-30.6511,22.6254],[-60.2214,-30.6639,22.8327],[-60.2277,-30.6821,21.78],[-60.2375,-30.6913,24.4926],[-60.257,-30.7182,24.899],[-60.2621,-30.7366,24.3936],[-60.2737,-30.753,22.3457],[-60.2788,-30.7651,22.6643],[-60.2792,-30.778,21.057],[-60.2738,-30.7818,21.9362],[-60.2715,-30.7866,21.4262],[-60.2787,-30.7977,21.9195],[-60.2772,-30.8037,20.8241],[-60.2654,-30.8118,18.3494],[-60.2617,-30.8173,17.4565],[-60.2615,-30.8301,19.7452],[-60.2682,-30.8486,17.731],[-60.288,-30.8573,16.7476],[-60.2921,-30.8625,19.0402],[-60.2915,-30.8688,16.6079],[-60.2967,-30.8876,18.7997],[-60.3044,-30.8975,20.1391],[-60.3007,-30.9009,17.6791],[-60.3059,-30.9131,20.3385],[-60.3051,-30.9194,19.0522],[-60.3069,-30.9257,17.8614],[-60.3144,-30.9366,20.0233],[-60.3154,-30.9431,17.9371],[-60.3204,-30.9549,18.9899],[-60.3213,-30.9613,17.9573],[-60.3183,-30.9665,17.6454],[-60.3189,-30.9731,16.96],[-60.3212,-30.979,16.2917],[-60.3278,-30.9826,16.3489],[-60.3297,-30.9883,16.8943],[-60.3294,-30.9949,17.1291],[-60.3406,-31.0114,17.3217],[-60.3447,-31.0239,16.9892],[-60.3443,-31.0299,17.1151],[-60.3403,-31.0355,17.1551],[-60.3399,-31.0419,16.5311],[-60.3459,-31.054,15.6806],[-60.3582,-31.0579,16.2826],[-60.366,-31.0687,16.1122],[-60.3633,-31.0749,16.1238],[-60.366,-31.0812,16.2801],[-60.3711,-31.0777,15.4234],[-60.3772,-31.0815,15.9092],[-60.3782,-31.0944,15.2209],[-60.3859,-31.1122,15.4331],[-60.3805,-31.1245,15.0753],[-60.3832,-31.1293,15.2197],[-60.3908,-31.131,15.8381],[-60.3974,-31.1424,14.5347],[-60.4026,-31.1468,13.4039],[-60.4162,-31.1433,15.2071],[-60.4231,-31.1459,14.4764],[-60.4283,-31.1504,14.802],[-60.4417,-31.1549,15.6738],[-60.4459,-31.1603,14.1714],[-60.453,-31.1614,15.3556],[-60.4583,-31.1657,15.1704],[-60.4616,-31.1714,15.3246],[-60.4641,-31.1905,16.7137],[-60.47,-31.2023,16.1085],[-60.4724,-31.2149,15.661],[-60.4825,-31.2457,15.2505],[-60.4924,-31.263,15.3861],[-60.5098,-31.2749,14.3991],[-60.5166,-31.2863,13.5097],[-60.5188,-31.299,15.9767],[-60.5182,-31.3056,13.4614],[-60.5141,-31.3107,13.2425],[-60.5073,-31.3135,13.297],[-60.4997,-31.3137,12.0845],[-60.4928,-31.3169,11.5],[-60.4888,-31.3216,11.5],[-60.4914,-31.328,13.2807],[-60.5002,-31.3384,13.3098],[-60.5046,-31.3506,13.0603],[-60.5013,-31.3762,17.4289],[-60.5017,-31.3826,11.9009],[-60.5053,-31.395,11.5],[-60.5066,-31.4142,12.4643],[-60.5133,-31.4392,11.5],[-60.5243,-31.4472,13.1337],[-60.5287,-31.4525,13.1226],[-60.5313,-31.465,13.8288],[-60.5299,-31.478,13.0289],[-60.5255,-31.4827,14.1063],[-60.5112,-31.4867,15.2709],[-60.5037,-31.4869,12.6407],[-60.4894,-31.4834,11.5],[-60.4721,-31.4943,13.7178],[-60.4422,-31.4907,15.8764],[-60.435,-31.492,16.0104],[-60.428,-31.5032,16.6151],[-60.4214,-31.506,12.9697],[-60.4139,-31.507,11.9799],[-60.4071,-31.5051,12.5037],[-60.4017,-31.5005,14.5339],[-60.3949,-31.4982,13.3122],[-60.38,-31.4994,13.4874],[-60.3657,-31.514,11.5],[-60.3512,-31.5161,14.7659],[-60.3398,-31.5245,16.0684],[-60.3126,-31.5373,11.5],[-60.2939,-31.5301,11.5],[-60.2576,-31.5265,11.5],[-60.241,-31.5201,11.5],[-60.2318,-31.5132,12.5102],[-60.2265,-31.5067,11.5],[-60.2252,-31.4938,17.9056],[-60.2198,-31.4844,11.5],[-60.2073,-31.4696,11.5],[-60.1962,-31.4608,11.5],[-60.1888,-31.4523,16.2752],[-60.1721,-31.4466,15.2401],[-60.1512,-31.4432,12.492],[-60.1408,-31.438,11.5],[-60.134,-31.4292,11.5],[-60.1303,-31.4193,15.0734],[-60.1213,-31.4056,13.3097],[-60.1133,-31.3832,11.5],[-60.1008,-31.3594,15.6743],[-60.0936,-31.3394,12.0],[-60.09,-31.3188,12.5],[-60.0975,-31.2962,12.5],[-60.0977,-31.291,12.5],[-60.0954,-31.2863,12.5],[-60.0858,-31.276,13.0],[-60.069,-31.2701,13.0],[-60.0485,-31.2656,13.0],[-60.0389,-31.2592,16.9354],[-60.0254,-31.2535,13.0],[-60.0152,-31.2437,13.0],[-60.0061,-31.2301,14.0],[-60.0013,-31.2178,16.4467],[-60.0,-31.2074,18.7154],[-60.0007,-31.1891,15.8566],[-59.9864,-31.1723,14.5],[-59.9745,-31.1373,15.3486],[-59.9617,-31.1135,14.5],[-59.9509,-31.1046,16.7771],[-59.9227,-31.0951,14.5],[-59.89,-31.0606,14.5],[-59.8735,-31.0386,14.5],[-59.8694,-31.0262,14.5],[-59.8583,-31.0137,14.5],[-59.8407,-30.9863,14.5],[-59.8311,-30.9762,14.5],[-59.8176,-30.9659,15.0],[-59.7971,-30.9369,15.0],[-59.7873,-30.9271,15.5],[-59.7775,-30.9052,20.0582],[-59.7615,-30.8896,15.5],[-59.7533,-30.8727,16.0],[-59.7494,-30.8442,19.8687],[-59.7436,-30.832,22.5798],[-59.7359,-30.8284,20.1243],[-59.7238,-30.8294,16.5],[-59.712,-30.8271,16.5],[-59.7042,-30.8232,16.5],[-59.6908,-30.8125,16.5],[-59.6861,-30.8057,16.5],[-59.6847,-30.8007,16.75],[-59.6883,-30.788,17.6634],[-59.6859,-30.7753,18.0934],[-59.6746,-30.7568,17.0],[-59.6585,-30.7378,17.5],[-59.6512,-30.7264,22.9862],[-59.6343,-30.7108,18.0]]]]}}