{"type": "Feature","bbox": [-66.6499,-27.2549,-65.8535,-26.1356],"geometry": {"type": "MultiPolygon","coordinates": [[[[-66.1293,-27.2509,5240.8359],[-66.1467,-27.2432,4866.9878],[-66.1364,-27.2298,4811.8672],[-66.1216,-27.22,5014.9092],[-66.1017,-27.2106,5258.2515],[-66.0959,-27.2038,4926.0908],[-66.083,-27.1864,4969.5439],[-66.0766,-27.1552,4776.8203],[-66.0665,-27.155,4911.4771],[-66.0646,-27.1458,4569.8604],[-66.0432,-27.1166,4634.2266],[-66.0352,-27.1093,4653.1499],[-66.0134,-27.1057,4730.1416],[-66.0052,-27.1027,4884.6714],[-65.9994,-27.0966,4652.0171],[-65.9841,-27.0711,4611.2764],[-65.9673,-27.0375,4558.0503],[-65.9153,-27.0082,4771.2178],[-65.9061,-26.9999,4522.6064],[-65.9059,-26.995,4614.7798],[-65.9093,-26.9893,4743.9399],[-65.894,-26.9707,4685.9727],[-65.8896,-26.9632,4596.7974],[-65.8882,-26.956,4462.5566],[-65.884,-26.9497,4405.77],[-65.8749,-26.9433,4213.6216],[-65.8694,-26.9311,4418.9268],[-65.8587,-26.9287,4553.0312],[-65.8576,-26.905,4458.311],[-65.8701,-26.8941,4324.7588],[-65.8758,-26.8816,4195.0176],[-65.8824,-26.8742,4078.9124],[-65.8971,-26.8681,4055.2988],[-65.8922,-26.8516,4059.0713],[-65.8934,-26.8454,4077.7693],[-65.8983,-26.8413,4063.8774],[-65.898,-26.8355,4079.897],[-65.8938,-26.829,4080.28],[-65.8745,-26.8225,4141.0713],[-65.8646,-26.7914,4082.6875],[-65.8577,-26.7823,4010.7532],[-65.8535,-26.7712,3927.605],[-65.854,-26.7617,3901.2192],[-65.8608,-26.7486,3582.646],[-65.8735,-26.7359,3354.293],[-65.8872,-26.7273,3283.4443],[-65.9053,-26.72,2603.2085],[-65.9375,-26.7021,2220.2808],[-65.9553,-26.6895,2129.7173],[-65.9851,-26.66,1922.5914],[-66.0003,-26.649,1899.838],[-66.0545,-26.6201,1836.7178],[-66.0607,-26.6147,1963.3281],[-66.1184,-26.6131,2311.7539],[-66.1458,-26.6102,3038.21],[-66.1531,-26.6046,3386.9368],[-66.1597,-26.5951,3167.5042],[-66.1623,-26.5875,3159.2932],[-66.1567,-26.5724,3223.8523],[-66.1556,-26.5283,3717.4983],[-66.1576,-26.5181,3837.2129],[-66.1505,-26.4972,3704.4065],[-66.1504,-26.492,3433.0522],[-66.1538,-26.4849,3231.7903],[-66.1555,-26.4758,3828.2065],[-66.16,-26.4685,3985.8135],[-66.1572,-26.4573,4113.9624],[-66.153,-26.4492,4218.4307],[-66.1475,-26.444,4168.2441],[-66.1408,-26.441,3861.2148],[-66.1488,-26.4043,4474.3906],[-66.1389,-26.3996,4071.2593],[-66.1033,-26.3955,3843.249],[-66.1111,-26.3871,4128.6807],[-66.1136,-26.3754,4202.8354],[-66.1014,-26.3508,3934.5042],[-66.099,-26.3386,3975.999],[-66.1012,-26.3238,3974.4463],[-66.1037,-26.2769,3613.4248],[-66.0936,-26.2688,3630.0811],[-66.0811,-26.2626,3886.5986],[-66.0784,-26.255,4093.6704],[-66.0797,-26.2444,3860.3098],[-66.0854,-26.2351,3606.3262],[-66.0838,-26.2181,3949.23],[-66.0816,-26.2194,3859.1345],[-66.0843,-26.2131,4179.7495],[-66.0911,-26.2068,4230.3613],[-66.0959,-26.2071,4331.6304],[-66.1025,-26.2103,4365.9829],[-66.1046,-26.2092,4334.6201],[-66.1161,-26.187,4234.4033],[-66.1333,-26.168,4259.3652],[-66.1341,-26.1635,4266.6631],[-66.132,-26.1548,4196.9194],[-66.1339,-26.1483,4285.7119],[-66.1497,-26.1377,4498.9517],[-66.1769,-26.1356,4893.1865],[-66.1811,-26.1375,4898.0474],[-66.1897,-26.1488,4650.7227],[-66.1942,-26.1496,4522.083],[-66.2039,-26.1467,4805.5352],[-66.2086,-26.1474,4880.6689],[-66.2217,-26.154,5008.0825],[-66.2331,-26.1626,5082.7427],[-66.2479,-26.1832,4936.0034],[-66.259,-26.1953,4549.7646],[-66.2688,-26.2159,4625.4448],[-66.2806,-26.2355,4721.6377],[-66.2973,-26.2487,4931.4629],[-66.3205,-26.275,5105.3003],[-66.3299,-26.2908,5209.5293],[-66.334,-26.306,4993.8374],[-66.345,-26.3285,4869.7632],[-66.357,-26.3764,4548.2783],[-66.3716,-26.3975,4653.0239],[-66.3756,-26.3978,4664.7437],[-66.3875,-26.3931,4492.6353],[-66.4131,-26.3794,4642.5645],[-66.4287,-26.3759,4509.5156],[-66.477,-26.4049,4284.5039],[-66.4994,-26.4208,4130.1714],[-66.5065,-26.4288,4071.8076],[-66.5335,-26.4854,4086.8262],[-66.5486,-26.5002,4105.666],[-66.5521,-26.5206,4074.1719],[-66.5607,-26.5504,4149.9932],[-66.5754,-26.5892,4071.9604],[-66.584,-26.6295,4429.7046],[-66.5835,-26.65,4457.2222],[-66.5794,-26.6649,4575.5352],[-66.5719,-26.6726,4409.9858],[-66.5699,-26.6775,4436.71],[-66.5742,-26.6803,4586.4092],[-66.5911,-26.6822,4617.8442],[-66.6013,-26.6869,4437.8774],[-66.61,-26.6934,4612.499],[-66.6237,-26.716,4754.1299],[-66.6369,-26.7258,4571.5454],[-66.6444,-26.7337,4708.8188],[-66.649,-26.7429,4787.9873],[-66.6499,-26.7532,4479.9282],[-66.6461,-26.7681,4517.1812],[-66.6257,-26.8051,4294.1353],[-66.6139,-26.8161,4017.7007],[-66.5941,-26.8263,4046.3052],[-66.5866,-26.8343,3570.0764],[-66.5932,-26.8537,3442.3481],[-66.5915,-26.8638,3418.4688],[-66.5866,-26.8731,3278.3035],[-66.5768,-26.8857,3511.7437],[-66.5656,-26.8974,3622.5852],[-66.5601,-26.8991,3563.8645],[-66.5574,-26.9031,3359.0789],[-66.556,-26.9135,2885.4395],[-66.5603,-26.9336,2969.3127],[-66.5604,-26.9695,2965.6777],[-66.5577,-27.0002,2778.9885],[-66.56,-27.0101,2641.416],[-66.5698,-27.0287,2481.4995],[-66.5734,-27.0327,2487.8906],[-66.5986,-27.0536,2619.8318],[-66.6166,-27.0662,2488.272],[-66.6193,-27.0814,2303.5825],[-66.6267,-27.1062,2261.9233],[-66.6341,-27.1143,2229.2295],[-66.5914,-27.1766,2480.7976],[-66.5743,-27.1782,2560.2241],[-66.5634,-27.1814,2699.604],[-66.5487,-27.1896,2795.8003],[-66.5409,-27.1969,2906.6992],[-66.5332,-27.2108,3050.9512],[-66.5303,-27.2207,3094.4629],[-66.5274,-27.2359,3235.6025],[-66.5275,-27.2549,3411.6611],[-66.2549,-27.1627,2459.2896],[-66.2457,-27.168,2498.7888],[-66.2345,-27.1796,2565.677],[-66.2176,-27.1936,2725.6802],[-66.1782,-27.2376,4071.8755],[-66.1678,-27.2421,4294.2183],[-66.1508,-27.2445,4939.9058],[-66.1293,-27.2509,5240.8359]]]]}
,"properties": {"GID_2": "ARG.2.13_1","GID_0": "ARG","country": "Argentina","GID_1": "ARG.2_1","state": "Catamarca","NL_NAME_1": "NA","county": "SantaMaría","VARNAME_2": "NA","NL_NAME_2": "NA","TYPE_2": "Departamento","ENGTYPE_2": "Department","CC_2": "NA","HASC_2": "AR.CT.SM","name": "SantaMaría.county","area_km2": 5770.917,"hist_schema_id": "Elevation0-9000","hist_area_km2": {"1825": 0.663,"1850": 12.393,"1875": 22.66,"1900": 28.242,"1925": 27.29,"1950": 29.141,"1975": 26.771,"2000": 23.928,"2025": 24.984,"2050": 27.478,"2075": 31.712,"2100": 34.772,"2125": 34.429,"2150": 37.54,"2175": 39.218,"2200": 43.503,"2225": 186.517,"2250": 261.277,"2275": 177.158,"2300": 153.055,"2325": 127.143,"2350": 119.471,"2375": 126.544,"2400": 128.652,"2425": 111.912,"2450": 101.542,"2475": 87.99,"2500": 82.751,"2525": 76.027,"2550": 71.953,"2575": 69.708,"2600": 69.622,"2625": 66.051,"2650": 62.574,"2675": 64.496,"2700": 65.111,"2725": 60.381,"2750": 60.95,"2775": 54.801,"2800": 53.805,"2825": 50.773,"2850": 56.047,"2875": 55.824,"2900": 51.774,"2925": 53.291,"2950": 55.247,"2975": 55.135,"3000": 55.82,"3025": 54.291,"3050": 47.033,"3075": 45.102,"3100": 39.972,"3125": 39.746,"3150": 39.409,"3175": 37.537,"3200": 37.896,"3225": 36.988,"3250": 34.699,"3275": 36.742,"3300": 36.176,"3325": 35.268,"3350": 34.761,"3375": 34.309,"3400": 33.651,"3425": 37.332,"3450": 39.841,"3475": 37.286,"3500": 38.956,"3525": 33.938,"3550": 31.792,"3575": 30.202,"3600": 29.235,"3625": 29.824,"3650": 30.204,"3675": 31.913,"3700": 32.194,"3725": 33.468,"3750": 34.871,"3775": 33.635,"3800": 33.441,"3825": 31.64,"3850": 31.814,"3875": 30.846,"3900": 32.306,"3925": 32.492,"3950": 31.09,"3975": 34.458,"4000": 33.913,"4025": 38.859,"4050": 38.027,"4075": 43.515,"4100": 45.886,"4125": 45.627,"4150": 42.557,"4175": 41.877,"4200": 42.106,"4225": 43.624,"4250": 44.004,"4275": 45.672,"4300": 42.466,"4325": 38.382,"4350": 34.395,"4375": 34.427,"4400": 32.647,"4425": 32.135,"4450": 30.407,"4475": 27.108,"4500": 26.58,"4525": 27.589,"4550": 26.148,"4575": 23.262,"4600": 21.631,"4625": 22.181,"4650": 19.68,"4675": 17.27,"4700": 14.901,"4725": 12.985,"4750": 10.464,"4775": 8.625,"4800": 7.775,"4825": 7.641,"4850": 6.716,"4875": 7.057,"4900": 6.243,"4925": 5.009,"4950": 4.138,"4975": 2.903,"5000": 2.259,"5025": 1.576,"5050": 0.986,"5075": 0.797,"5100": 0.91,"5125": 0.664,"5150": 0.626,"5175": 0.55,"5200": 0.57,"5225": 0.683,"5250": 0.266,"5275": 0.057}}}