{"type":"Feature","properties":{"GID_2":"ARG.22.7_1","GID_0":"ARG","country":"Argentina","GID_1":"ARG.22_1","state":"SantiagodelEstero","NL_NAME_1":"NA","county":"Capital","VARNAME_2":"SandelEstero|Capital(Santiago","NL_NAME_2":"NA","TYPE_2":"Departamento","ENGTYPE_2":"Department","CC_2":"NA","HASC_2":"AR.SE.SE","name":"Capital.county"},
"geometry":{"type": "MultiPolygon","coordinates": [[[[-64.4374,-27.6157,224.586],[-64.5199,-27.7133,252.2076],[-64.549,-27.683,303.7396],[-64.6163,-27.6704,331.103],[-64.6239,-27.6782,336.8605],[-64.6427,-27.6759,330.5284],[-64.6464,-27.6868,321.1133],[-64.7006,-27.6775,349.9883],[-64.7089,-27.7173,318.3029],[-64.7225,-27.7966,416.517],[-64.7054,-27.7998,392.8902],[-64.7169,-27.8428,425.9818],[-64.6584,-27.8549,397.7075],[-64.6706,-27.8955,430.8802],[-64.624,-27.9064,386.6252],[-64.6198,-27.8922,383.585],[-64.5639,-27.9049,344.7885],[-64.5765,-27.947,339.9893],[-64.5589,-27.9504,328.1024],[-64.6027,-28.1121,326.246],[-64.6221,-28.1086,336.9518],[-64.6426,-28.1883,317.0539],[-64.4734,-28.2217,225.0079],[-64.4526,-28.1443,235.2502],[-64.418,-28.1498,211.5887],[-64.4249,-28.0941,230.8905],[-64.2613,-28.1223,176.401],[-64.2354,-28.0172,172.9673],[-64.1358,-27.9999,162.537],[-64.1351,-27.9932,161.7936],[-64.1281,-27.9801,163.8139],[-64.1259,-27.9707,164.1715],[-64.141,-27.9569,169.8563],[-64.1503,-27.9516,166.8104],[-64.1552,-27.9512,166.9993],[-64.1654,-27.9544,167.1261],[-64.17,-27.952,167.5853],[-64.1731,-27.9479,167.7003],[-64.1748,-27.9434,167.9221],[-64.1695,-27.9296,171.0948],[-64.1696,-27.9254,171.3004],[-64.1905,-27.9031,171.5258],[-64.1931,-27.8989,172.3085],[-64.1931,-27.8844,175.2787],[-64.1945,-27.8798,174.0783],[-64.1972,-27.8756,174.8659],[-64.2085,-27.8654,176.3796],[-64.2076,-27.8511,180.2392],[-64.2171,-27.8397,181.0196],[-64.2185,-27.835,180.7008],[-64.2165,-27.8208,182.9624],[-64.2183,-27.8172,184.0609],[-64.2238,-27.8165,180.8225],[-64.2383,-27.81,184.4359],[-64.2819,-27.7672,190.9744],[-64.3214,-27.7418,201.8565],[-64.3311,-27.7302,202.5157],[-64.3374,-27.7119,207.1685],[-64.3409,-27.7081,209.6251],[-64.3722,-27.689,210.4333],[-64.3756,-27.6852,210.4656],[-64.3945,-27.6506,217.934],[-64.4018,-27.6435,218.3387],[-64.4111,-27.6388,219.9778],[-64.4374,-27.6157,224.586]]]]}}