{"type": "Feature","bbox": [-66.1964,-25.0999,-65.4974,-23.9724],"geometry": {"type": "MultiPolygon","coordinates": [[[[-65.7384,-24.1216,4326.0459],[-65.7415,-24.1163,4405.8306],[-65.7518,-24.1064,4419.3594],[-65.7573,-24.1043,4573.7197],[-65.7665,-24.1044,4327.1548],[-65.7712,-24.1011,4286.0137],[-65.7723,-24.0958,4472.7788],[-65.7688,-24.0853,4741.7236],[-65.7698,-24.0743,5254.0596],[-65.8294,-23.9994,3971.8308],[-65.8403,-23.9927,3782.3279],[-65.8756,-23.9777,3834.0811],[-65.8961,-23.9859,4059.3696],[-65.9205,-23.9844,4413.0869],[-65.9259,-23.9824,4688.6406],[-65.9396,-23.9724,4940.1304],[-65.9454,-23.9726,4848.7422],[-65.9559,-23.9778,4621.6924],[-65.9759,-23.978,4519.3066],[-65.9828,-23.9894,4325.8882],[-65.9951,-24.0024,4223.4473],[-66.0106,-24.0274,3962.6997],[-66.0218,-24.0412,4187.6475],[-66.0406,-24.0838,4515.9795],[-66.0585,-24.0998,4465.0405],[-66.0841,-24.1161,4260.6577],[-66.0951,-24.1213,4203.9624],[-66.103,-24.1303,4131.7949],[-66.1086,-24.1406,4061.1934],[-66.1102,-24.1461,4019.1699],[-66.1066,-24.1689,4170.0039],[-66.1266,-24.1981,4055.1064],[-66.1324,-24.2145,4087.3687],[-66.1402,-24.2482,4105.9214],[-66.146,-24.2646,4037.7073],[-66.1514,-24.2749,4071.2766],[-66.1587,-24.2842,4015.936],[-66.1638,-24.2947,3970.4021],[-66.1632,-24.3003,3982.7957],[-66.1569,-24.3167,4012.823],[-66.1584,-24.3337,4089.3267],[-66.1655,-24.3498,4192.0088],[-66.1584,-24.3715,4370.8491],[-66.1596,-24.3828,4508.8862],[-66.1654,-24.3992,4933.5391],[-66.1651,-24.4107,5470.0332],[-66.1603,-24.4212,5615.0068],[-66.1964,-24.4498,4409.8262],[-66.1651,-24.45,4642.1577],[-66.1602,-24.4595,4570.5615],[-66.1516,-24.4871,4770.5093],[-66.1456,-24.5153,4775.771],[-66.1265,-24.5451,5381.4116],[-66.122,-24.5558,5395.7368],[-66.122,-24.5614,5167.5845],[-66.1252,-24.5727,5340.1831],[-66.1346,-24.5871,5222.4678],[-66.1376,-24.6099,4553.2495],[-66.1344,-24.65,4712.543],[-66.133,-24.6959,4625.3569],[-66.1159,-24.739,4874.1792],[-66.1221,-24.7517,4813.9175],[-66.0582,-24.7605,3204.9309],[-66.0272,-24.7566,3607.6504],[-66.0208,-24.7577,3672.7991],[-66.0156,-24.7676,3357.8062],[-65.9988,-24.7849,3336.3369],[-65.9965,-24.7901,3244.7039],[-66.0008,-24.8069,3451.063],[-66.0019,-24.8241,3266.5464],[-66.0044,-24.8353,3170.9949],[-66.0044,-24.841,3213.4121],[-66.0012,-24.8521,3251.2361],[-65.9785,-24.8718,3007.4463],[-65.9618,-24.889,3455.603],[-65.9514,-24.8956,3667.0005],[-65.9383,-24.915,3919.7925],[-65.9271,-24.9356,3618.1333],[-65.9221,-24.9394,3719.8289],[-65.9164,-24.9413,3772.6597],[-65.8975,-24.9387,4542.6724],[-65.8912,-24.9396,4736.0571],[-65.8862,-24.9427,4763.3218],[-65.8839,-24.9482,4725.3569],[-65.884,-24.9655,4604.6455],[-65.8911,-24.9933,4476.8604],[-65.8911,-25.0278,4346.145],[-65.8895,-25.0392,4356.2051],[-65.8852,-25.0499,4075.3967],[-65.8666,-25.0655,4424.6855],[-65.85,-25.0737,4997.9023],[-65.8312,-25.0734,4555.6367],[-65.7937,-25.0695,3457.2119],[-65.7748,-25.0712,3188.8613],[-65.7643,-25.0775,2983.4897],[-65.7495,-25.0959,2839.8892],[-65.744,-25.099,2810.8718],[-65.7378,-25.0999,2908.5376],[-65.732,-25.098,2881.5093],[-65.7232,-25.0895,3148.4875],[-65.7114,-25.0863,3207.5349],[-65.7068,-25.0825,2989.0029],[-65.6945,-25.056,2332.9878],[-65.6873,-25.0466,1903.0753],[-65.6749,-25.0445,1649.1824],[-65.6517,-25.0355,1549.6072],[-65.6394,-25.0335,1477.4309],[-65.6105,-25.022,1349.4978],[-65.5793,-25.025,1288.3621],[-65.567,-25.0227,1269.6533],[-65.5608,-25.024,1261.6191],[-65.5259,-25.0371,1211.9294],[-65.5146,-25.0423,1196.0293],[-65.5043,-25.0498,1179.6853],[-65.5073,-25.0281,1203.8652],[-65.5051,-24.9937,1236.4077],[-65.514,-24.9858,1253.6708],[-65.5306,-24.9797,1278.0505],[-65.5139,-24.9484,1283.0724],[-65.5048,-24.9406,1275.0142],[-65.4974,-24.9313,1269.2698],[-65.5066,-24.9237,1282.3673],[-65.5097,-24.9188,1285.8929],[-65.5192,-24.9117,1296.3447],[-65.5211,-24.9067,1299.0339],[-65.5207,-24.9008,1296.4742],[-65.5125,-24.8792,1277.5732],[-65.5114,-24.8618,1276.3336],[-65.5215,-24.8559,1288.6718],[-65.5332,-24.8424,1321.7031],[-65.5348,-24.8309,1362.3135],[-65.5385,-24.827,1427.2169],[-65.5628,-24.8202,1604.0778],[-65.5787,-24.8102,1595.1997],[-65.5812,-24.8055,1517.8508],[-65.5731,-24.7967,1567.2305],[-65.5739,-24.7915,1755.9446],[-65.5823,-24.7758,1666.7439],[-65.5802,-24.7069,2197.3711],[-65.5739,-24.6787,2563.6538],[-65.5749,-24.6619,2640.7278],[-65.5688,-24.6455,2795.5125],[-65.5687,-24.6168,2817.5103],[-65.5647,-24.5999,2821.854],[-65.5624,-24.5767,2427.6423],[-65.6106,-24.5664,2761.1011],[-65.632,-24.5546,3042.9983],[-65.6605,-24.5436,3961.7642],[-65.6666,-24.5452,4140.6289],[-65.6851,-24.5607,3845.7539],[-65.6908,-24.5632,3747.7258],[-65.7089,-24.5665,3567.5386],[-65.7153,-24.5646,3492.1899],[-65.7188,-24.5602,3488.0527],[-65.7167,-24.555,3490.0593],[-65.7088,-24.5459,3663.9751],[-65.692,-24.5381,3804.5117],[-65.6795,-24.5182,4090.0256],[-65.6766,-24.5071,4230.8223],[-65.6591,-24.464,4730.5415],[-65.6591,-24.4411,4840.6616],[-65.6619,-24.4124,5208.5039],[-65.6599,-24.4011,5066.9253],[-65.654,-24.391,5141.5757],[-65.6494,-24.3871,5119.6865],[-65.6281,-24.3749,4602.9805],[-65.6286,-24.367,4670.2354],[-65.6214,-24.3518,4555.0244],[-65.6202,-24.3437,4464.5522],[-65.6227,-24.3358,4731.6655],[-65.6284,-24.3294,4832.0581],[-65.6623,-24.3068,5112.4111],[-65.6678,-24.2911,5129.5996],[-65.6658,-24.272,5218.543],[-65.6681,-24.2671,5144.4082],[-65.6831,-24.2581,4814.5498],[-65.6852,-24.2473,4805.8643],[-65.6885,-24.2427,4848.3584],[-65.7025,-24.238,5094.3398],[-65.7068,-24.2346,5232.5317],[-65.7036,-24.2239,4853.6411],[-65.7048,-24.2103,4769.2227],[-65.7164,-24.1977,4693.9517],[-65.7255,-24.1904,4497.0322],[-65.7274,-24.1852,4604.144],[-65.7278,-24.1715,4205.1064],[-65.7375,-24.1612,4083.8206],[-65.7448,-24.1493,4015.0437],[-65.7423,-24.1357,4069.6321],[-65.7373,-24.1292,4193.7158],[-65.7384,-24.1216,4326.0459]]]]}
,"properties": {"GID_2": "ARG.17.21_1","GID_0": "ARG","country": "Argentina","GID_1": "ARG.17_1","state": "Salta","NL_NAME_1": "NA","county": "RosariodeLerma","VARNAME_2": "NA","NL_NAME_2": "NA","TYPE_2": "Departamento","ENGTYPE_2": "Department","CC_2": "NA","HASC_2": "AR.SA.RL","name": "RosariodeLerma.county","area_km2": 5297.835,"hist_schema_id": "Elevation0-9000","hist_area_km2": {"1175": 0.192,"1200": 3.247,"1225": 8.223,"1250": 11.279,"1275": 19.143,"1300": 36.892,"1325": 37.394,"1350": 35.127,"1375": 33.995,"1400": 30.457,"1425": 27.705,"1450": 21.977,"1475": 18.266,"1500": 17.171,"1525": 13.788,"1550": 13.539,"1575": 12.52,"1600": 12.482,"1625": 10.212,"1650": 9.116,"1675": 8.578,"1700": 9.175,"1725": 8.982,"1750": 9.233,"1775": 9.81,"1800": 10.29,"1825": 9.675,"1850": 9.695,"1875": 10.291,"1900": 9.06,"1925": 10.157,"1950": 9.677,"1975": 9.984,"2000": 9.774,"2025": 10.139,"2050": 9.62,"2075": 10.736,"2100": 9.678,"2125": 10.14,"2150": 10.814,"2175": 10.621,"2200": 10.833,"2225": 12.181,"2250": 12.489,"2275": 11.257,"2300": 12.893,"2325": 12.989,"2350": 13.759,"2375": 14.106,"2400": 14.145,"2425": 15.377,"2450": 16.475,"2475": 17.033,"2500": 18.903,"2525": 17.826,"2550": 19.212,"2575": 21.293,"2600": 22.43,"2625": 22.603,"2650": 24.089,"2675": 24.164,"2700": 26.035,"2725": 25.224,"2750": 27.324,"2775": 28.52,"2800": 28.925,"2825": 31.815,"2850": 32.011,"2875": 33.531,"2900": 35.246,"2925": 35.345,"2950": 35.694,"2975": 39.876,"3000": 40.011,"3025": 40.765,"3050": 42.519,"3075": 41.269,"3100": 43.661,"3125": 45.895,"3150": 49.405,"3175": 53.03,"3200": 55.134,"3225": 58.581,"3250": 58.395,"3275": 59.192,"3300": 56.675,"3325": 60.097,"3350": 67.075,"3375": 72.314,"3400": 77.555,"3425": 78.995,"3450": 86.244,"3475": 91.629,"3500": 92.101,"3525": 91.683,"3550": 94.924,"3575": 95.799,"3600": 91.905,"3625": 92.41,"3650": 89.708,"3675": 88.144,"3700": 89.766,"3725": 86.319,"3750": 84.782,"3775": 84.858,"3800": 79.234,"3825": 73.885,"3850": 71.927,"3875": 68.986,"3900": 64.874,"3925": 62.227,"3950": 63.073,"3975": 63.001,"4000": 60.625,"4025": 57.305,"4050": 55.109,"4075": 53.067,"4100": 49.188,"4125": 46.158,"4150": 41.582,"4175": 37.488,"4200": 36.622,"4225": 33.315,"4250": 31.519,"4275": 31.808,"4300": 30.162,"4325": 29.312,"4350": 27.709,"4375": 26.414,"4400": 25.964,"4425": 25.097,"4450": 21.989,"4475": 21.816,"4500": 20.964,"4525": 21.079,"4550": 20.829,"4575": 20.521,"4600": 20.424,"4625": 19.227,"4650": 19.029,"4675": 20.169,"4700": 19.818,"4725": 17.947,"4750": 16.923,"4775": 16.593,"4800": 15.687,"4825": 15.07,"4850": 14.607,"4875": 14.937,"4900": 13.217,"4925": 12.831,"4950": 11.614,"4975": 11.097,"5000": 10.673,"5025": 9.11,"5050": 8.377,"5075": 6.853,"5100": 6.603,"5125": 6.43,"5150": 6.893,"5175": 7.453,"5200": 7.087,"5225": 6.971,"5250": 5.929,"5275": 5.272,"5300": 4.751,"5325": 3.611,"5350": 3.495,"5375": 2.433,"5400": 1.853,"5425": 1.66,"5450": 1.236,"5475": 1.197,"5500": 0.888,"5525": 0.907,"5550": 0.753,"5575": 0.502,"5600": 0.309,"5625": 0.367,"5650": 0.328,"5675": 0.29,"5700": 0.154,"5725": 0.077}}}