{"type":"Feature","properties":{"GID_2":"ARG.13.11_1","GID_0":"ARG","country":"Argentina","GID_1":"ARG.13_1","state":"Mendoza","NL_NAME_1":"NA","county":"Malargüe","VARNAME_2":"Malarge|Malarge","NL_NAME_2":"NA","TYPE_2":"Departamento","ENGTYPE_2":"Department","CC_2":"NA","HASC_2":"AR.MZ.ML","name":"Malargüe.county"},
"geometry":{"type": "MultiPolygon","coordinates": [[[[-68.2935,-35.9985,1196.3096],[-68.4862,-35.5718,3512.3337],[-68.7413,-35.373,1588.4656],[-69.3097,-35.2544,1370.24],[-69.3294,-35.2612,1372.0643],[-69.3356,-35.2669,1372.9886],[-69.3574,-35.2678,1378.9768],[-69.3685,-35.2635,1381.2126],[-69.3779,-35.2632,1384.4283],[-69.3893,-35.2588,1387.5006],[-69.4046,-35.2565,1391.0732],[-69.4182,-35.2501,1397.5813],[-69.4307,-35.2492,1401.4001],[-69.4364,-35.2472,1404.6398],[-69.464,-35.2305,1417.1165],[-69.467,-35.2261,1420.7203],[-69.4703,-35.2135,1425.0642],[-69.4756,-35.2073,1431.0989],[-69.5023,-35.1943,1452.7974],[-69.519,-35.1828,1469.4678],[-69.5302,-35.1783,1478.9685],[-69.5437,-35.1676,1493.3481],[-69.5467,-35.1631,1497.9805],[-69.5508,-35.1508,1510.1282],[-69.5653,-35.134,1530.6589],[-69.57,-35.1191,1546.6412],[-69.5756,-35.1099,1558.1725],[-69.6058,-35.0877,1638.5477],[-69.6224,-35.069,1617.6064],[-69.6304,-35.0551,1635.1694],[-69.648,-35.0308,1670.4324],[-69.6505,-35.0234,1680.9348],[-69.6508,-35.008,1692.811],[-69.6531,-34.9978,1704.4008],[-69.6562,-34.9906,1712.4651],[-69.6614,-34.9842,1721.5532],[-69.6825,-34.9689,1749.2581],[-69.7145,-34.9528,1789.5907],[-69.736,-34.9505,1810.5048],[-69.7653,-34.942,1857.3218],[-69.7735,-34.9312,1860.2324],[-69.7972,-34.9189,1890.5583],[-69.8114,-34.9138,1916.281],[-69.8326,-34.8986,1943.0681],[-69.8724,-34.8783,2010.1433],[-69.8791,-34.873,2046.478],[-69.9071,-34.8619,2102.1362],[-69.9496,-34.8358,2095.7737],[-69.9848,-34.8251,2113.0806],[-70.0017,-34.8102,2121.5632],[-70.0271,-34.7954,2144.8225],[-70.0435,-34.788,2157.3718],[-70.0561,-34.7734,2155.8821],[-70.0816,-34.7546,2174.8105],[-70.0956,-34.7375,2189.9683],[-70.1034,-34.7236,2200.3149],[-70.1047,-34.7133,2208.9673],[-70.1034,-34.7031,2217.9666],[-70.1057,-34.693,2230.3599],[-70.1092,-34.689,2320.1912],[-70.12,-34.6836,2646.4128],[-70.1508,-34.6805,2745.2588],[-70.1742,-34.6736,2894.1108],[-70.196,-34.6732,3312.8022],[-70.2132,-34.67,3930.4971],[-70.2158,-34.6738,3711.0684],[-70.2142,-34.6793,3668.3408],[-70.216,-34.6843,3801.0647],[-70.2231,-34.6817,3766.1892],[-70.2316,-34.685,3715.6304],[-70.2356,-34.6893,3681.229],[-70.2405,-34.6885,3821.936],[-70.2429,-34.6919,3817.731],[-70.2463,-34.6925,3783.6782],[-70.25,-34.6984,3651.0686],[-70.2501,-34.7013,3752.6787],[-70.2539,-34.7045,3771.4609],[-70.2539,-34.7107,3835.8794],[-70.2569,-34.7189,4084.1592],[-70.2587,-34.7217,4232.5059],[-70.2623,-34.7233,4324.9868],[-70.2585,-34.7294,4251.5732],[-70.2727,-34.7372,4230.1592],[-70.2823,-34.7356,4409.0259],[-70.2885,-34.7386,4509.3823],[-70.2937,-34.7391,4560.6406],[-70.3063,-34.7474,4589.792],[-70.31,-34.7621,4432.7822],[-70.3094,-34.7697,4565.4277],[-70.3038,-34.7723,4427.9277],[-70.3002,-34.772,4457.6616],[-70.2936,-34.7793,4364.9678],[-70.2811,-34.7825,4197.0693],[-70.2788,-34.788,4046.8972],[-70.2767,-34.7891,4063.2378],[-70.2692,-34.7922,4101.2812],[-70.2531,-34.7936,4581.1982],[-70.2483,-34.7991,4554.5454],[-70.2544,-34.8035,4380.9673],[-70.2545,-34.8062,4351.9854],[-70.2587,-34.808,4298.4683],[-70.2569,-34.8141,4301.7705],[-70.2609,-34.8202,4359.8994],[-70.2602,-34.8229,4309.2529],[-70.2636,-34.8331,4222.2031],[-70.2799,-34.8523,3937.5752],[-70.2772,-34.8598,3822.5698],[-70.281,-34.8688,3755.5649],[-70.2759,-34.8728,3725.8853],[-70.2769,-34.8763,3522.0603],[-70.2832,-34.8777,3326.2573],[-70.2911,-34.8837,3074.3242],[-70.2919,-34.8891,3102.1077],[-70.2893,-34.892,3121.4507],[-70.3016,-34.8991,3637.3137],[-70.3021,-34.9038,3831.6208],[-70.3079,-34.9085,3743.8325],[-70.3133,-34.9205,3985.7974],[-70.3163,-34.9225,3927.1128],[-70.3162,-34.9245,3892.8164],[-70.3213,-34.9328,4053.2341],[-70.3256,-34.9331,3944.1841],[-70.3326,-34.9372,3926.1426],[-70.3303,-34.9428,4112.29],[-70.3325,-34.9455,3959.6472],[-70.3303,-34.9516,3808.1323],[-70.3319,-34.9549,3812.5671],[-70.3291,-34.959,3881.3796],[-70.3307,-34.9733,3840.7043],[-70.327,-34.9772,3899.9299],[-70.3306,-34.9787,3810.8391],[-70.3318,-34.9857,3823.5479],[-70.3341,-34.9874,3740.7043],[-70.3332,-34.9902,3748.8057],[-70.3382,-34.9915,3625.644],[-70.3429,-34.9949,3517.4724],[-70.3448,-34.9932,3538.646],[-70.3547,-34.9962,3558.6897],[-70.3574,-35.0017,3514.1714],[-70.365,-35.0053,3634.5366],[-70.3644,-35.0105,3550.7603],[-70.3665,-35.0167,3681.4626],[-70.365,-35.0197,3679.781],[-70.3613,-35.0206,3540.6147],[-70.3619,-35.0331,3404.2312],[-70.3604,-35.0348,3516.4072],[-70.3668,-35.0364,3362.5942],[-70.3728,-35.0411,3336.6064],[-70.3768,-35.0502,3391.1399],[-70.3752,-35.057,3576.4504],[-70.3726,-35.0583,3583.334],[-70.3733,-35.0619,3526.4004],[-70.3715,-35.0666,3552.5947],[-70.3712,-35.0746,3537.4639],[-70.3742,-35.0815,3535.3511],[-70.3734,-35.0865,3514.3052],[-70.3702,-35.0933,3343.0127],[-70.3651,-35.0934,3290.3635],[-70.3576,-35.0989,3268.0544],[-70.3621,-35.1011,3206.2971],[-70.3637,-35.1049,3247.1719],[-70.3672,-35.1075,3222.7505],[-70.3663,-35.1094,3219.9424],[-70.3702,-35.1118,3180.7788],[-70.3678,-35.1246,3103.4851],[-70.3614,-35.1347,3172.3789],[-70.372,-35.1505,3180.4839],[-70.3705,-35.1535,3103.2266],[-70.3766,-35.1663,3016.8235],[-70.3745,-35.1698,3126.5962],[-70.3787,-35.1734,3138.2869],[-70.388,-35.1695,3104.2324],[-70.3908,-35.1729,3149.4248],[-70.3992,-35.1758,3079.5493],[-70.4025,-35.1801,3200.8574],[-70.4088,-35.1793,3089.9976],[-70.4159,-35.1828,3022.3535],[-70.4212,-35.1835,3077.3606],[-70.428,-35.1892,3043.2214],[-70.4363,-35.1934,3052.0361],[-70.45,-35.1959,3164.501],[-70.4526,-35.191,3200.8894],[-70.4551,-35.1897,3231.3137],[-70.4578,-35.1951,3126.0142],[-70.4712,-35.2018,3247.6526],[-70.4723,-35.2039,3246.5742],[-70.4793,-35.2041,2970.0957],[-70.4865,-35.2024,2952.7563],[-70.4965,-35.2035,3061.1958],[-70.5044,-35.2012,2770.7908],[-70.5144,-35.2026,2609.6353],[-70.5157,-35.2058,2586.5559],[-70.518,-35.2065,2515.5786],[-70.5255,-35.2024,2549.4131],[-70.5245,-35.1956,2770.4966],[-70.5269,-35.1943,2834.6936],[-70.528,-35.1965,2802.3926],[-70.5335,-35.1994,2734.8513],[-70.5368,-35.1993,2693.4561],[-70.5431,-35.2028,2864.1558],[-70.5482,-35.2086,3039.8933],[-70.5521,-35.2105,3147.4966],[-70.5579,-35.2195,3437.3066],[-70.5679,-35.2236,3910.5994],[-70.5639,-35.235,3494.0962],[-70.5651,-35.2426,3540.2695],[-70.5666,-35.2457,3582.7888],[-70.5724,-35.2495,3693.5823],[-70.5711,-35.2527,3692.0776],[-70.5731,-35.2573,3780.814],[-70.5791,-35.2578,3705.0317],[-70.5774,-35.2654,3653.1821],[-70.5815,-35.2677,3654.5312],[-70.5826,-35.2704,3912.4233],[-70.5819,-35.2735,4025.7422],[-70.5761,-35.2784,3845.4832],[-70.5747,-35.2864,3669.573],[-70.567,-35.2989,3446.3687],[-70.565,-35.3002,3401.5417],[-70.5516,-35.3004,3361.1475],[-70.5381,-35.3068,3116.0249],[-70.5137,-35.3098,2842.6765],[-70.5099,-35.3123,2789.5825],[-70.5044,-35.3201,2694.6978],[-70.5006,-35.3211,2686.3369],[-70.4931,-35.3217,2557.2568],[-70.4877,-35.32,2625.4343],[-70.4842,-35.3162,2670.9719],[-70.477,-35.3163,2615.9277],[-70.4691,-35.3133,2492.9397],[-70.4663,-35.3135,2595.2148],[-70.4645,-35.3178,2670.0601],[-70.461,-35.32,2696.2312],[-70.448,-35.3154,3005.2119],[-70.432,-35.3186,2962.2075],[-70.4369,-35.3238,2924.1162],[-70.4358,-35.3304,2927.4246],[-70.4314,-35.3359,2944.4417],[-70.4283,-35.3435,3008.0408],[-70.42,-35.3485,3150.5996],[-70.418,-35.3553,3184.342],[-70.4208,-35.3587,3076.9727],[-70.4248,-35.3713,3041.0],[-70.4295,-35.3735,3003.436],[-70.4351,-35.3794,2972.0559],[-70.44,-35.3812,2959.6726],[-70.4418,-35.3847,2956.7832],[-70.4473,-35.3868,2954.4753],[-70.4528,-35.392,2940.0889],[-70.4504,-35.3956,2938.4497],[-70.4499,-35.4038,2905.2791],[-70.4471,-35.4085,2890.6787],[-70.4395,-35.4113,2845.9312],[-70.4385,-35.4131,2844.5623],[-70.4446,-35.4213,2888.2112],[-70.4502,-35.4216,2915.6069],[-70.4529,-35.4272,2932.7595],[-70.4456,-35.4338,2890.0403],[-70.439,-35.4343,3028.0186],[-70.4349,-35.4367,3130.3076],[-70.4352,-35.4425,2984.8376],[-70.4323,-35.4453,2955.8315],[-70.4364,-35.4488,2953.4055],[-70.4456,-35.4508,2976.8647],[-70.4464,-35.4558,2984.9006],[-70.4443,-35.46,2993.1111],[-70.4467,-35.4634,3017.064],[-70.4431,-35.4681,3032.2849],[-70.4301,-35.476,2976.5254],[-70.4162,-35.4882,3001.0925],[-70.4095,-35.4902,3011.7363],[-70.4024,-35.49,3041.1152],[-70.397,-35.4858,3055.3113],[-70.3954,-35.4862,3059.447],[-70.3851,-35.5097,3007.4814],[-70.3802,-35.5143,3035.6641],[-70.3675,-35.5196,3513.3933],[-70.3682,-35.5218,3534.0759],[-70.3895,-35.5164,2927.3267],[-70.3946,-35.5184,2914.9763],[-70.395,-35.5218,2915.5024],[-70.398,-35.5253,2909.198],[-70.4042,-35.5273,2881.728],[-70.4085,-35.5251,2874.8862],[-70.4118,-35.5256,2877.3347],[-70.4135,-35.5284,2924.8147],[-70.4083,-35.5349,2801.3438],[-70.4072,-35.5427,2891.3613],[-70.4048,-35.546,2904.1731],[-70.4103,-35.5491,2908.1882],[-70.4076,-35.556,2805.4407],[-70.4099,-35.5602,2662.8569],[-70.4037,-35.5633,2756.3533],[-70.4023,-35.5705,2859.3423],[-70.3991,-35.5741,2883.2073],[-70.399,-35.5783,2897.5291],[-70.3966,-35.5829,2925.9302],[-70.3987,-35.5877,2987.6111],[-70.3913,-35.5922,3027.2871],[-70.3847,-35.6055,3444.2791],[-70.3857,-35.6083,3446.9951],[-70.3919,-35.6104,3436.8433],[-70.3971,-35.6171,3355.5193],[-70.3974,-35.6221,3426.0605],[-70.4018,-35.627,3389.2234],[-70.4112,-35.63,3181.8545],[-70.4184,-35.6294,3179.5886],[-70.423,-35.6407,3246.312],[-70.4101,-35.6462,2953.4839],[-70.4082,-35.6499,3090.4316],[-70.4086,-35.6561,3100.353],[-70.3979,-35.6626,2974.5049],[-70.3977,-35.6653,2993.5066],[-70.4026,-35.6675,2924.8555],[-70.4059,-35.6734,2958.3999],[-70.3985,-35.6864,2815.8943],[-70.395,-35.6887,2795.2305],[-70.3861,-35.6879,2767.1309],[-70.3873,-35.6911,2753.6904],[-70.384,-35.6965,2834.876],[-70.3746,-35.7003,2998.9595],[-70.3755,-35.7043,3010.0361],[-70.3723,-35.7112,2973.9387],[-70.3732,-35.7169,2917.5576],[-70.3683,-35.7219,2876.677],[-70.3694,-35.7249,2804.2246],[-70.3675,-35.7301,2875.5645],[-70.3698,-35.737,2934.5437],[-70.3619,-35.7428,2970.833],[-70.3615,-35.7474,2959.8643],[-70.3582,-35.7495,2980.3667],[-70.3593,-35.7516,2978.5146],[-70.3585,-35.7544,2985.9438],[-70.3712,-35.7578,3000.022],[-70.3747,-35.7643,3079.7598],[-70.38,-35.7669,3115.6179],[-70.3781,-35.769,3121.7871],[-70.3779,-35.7749,3116.1445],[-70.3759,-35.7776,3119.0598],[-70.3769,-35.784,3112.4419],[-70.3793,-35.7869,3148.127],[-70.3766,-35.7888,3107.584],[-70.3709,-35.7896,3099.9683],[-70.3626,-35.7946,3034.5332],[-70.3579,-35.8013,3059.6213],[-70.347,-35.801,3016.4604],[-70.3406,-35.796,2986.8188],[-70.3371,-35.7954,3014.2014],[-70.3237,-35.8099,3096.2683],[-70.3117,-35.8132,3367.6389],[-70.3163,-35.8197,3276.2598],[-70.3275,-35.8221,3102.3921],[-70.331,-35.8287,3017.0444],[-70.3471,-35.8371,2862.874],[-70.3501,-35.8368,2871.1299],[-70.3574,-35.8429,2879.6736],[-70.3617,-35.8412,2873.4365],[-70.3694,-35.8416,2868.1328],[-70.3779,-35.8499,2806.5986],[-70.3801,-35.8565,2916.1145],[-70.3795,-35.8649,3089.3511],[-70.384,-35.868899999999996,3115.2417],[-70.3908,-35.8704,3060.021],[-70.4003,-35.8672,3026.6321],[-70.406,-35.8674,3042.1343],[-70.4209,-35.8756,3240.2178],[-70.4216,-35.878,3253.0532],[-70.4194,-35.885,3265.6162],[-70.4233,-35.891,3174.5688],[-70.4232,-35.8986,3132.2896],[-70.4256,-35.9041,3096.1384],[-70.4231,-35.9153,3107.53],[-70.4122,-35.9185,3018.0435],[-70.4083,-35.9218,2954.9287],[-70.3863,-35.9241,3227.092],[-70.3692,-35.9227,3764.8726],[-70.365,-35.925,3772.8657],[-70.3763,-35.9313,3299.8362],[-70.3799,-35.9378,3010.7112],[-70.3869,-35.9397,2813.3909],[-70.3918,-35.9521,2793.1792],[-70.4056,-35.9534,2790.4009],[-70.4077,-35.9562,2793.1445],[-70.416,-35.96,2969.5654],[-70.4168,-35.9651,3127.5254],[-70.4203,-35.9676,2967.3164],[-70.4224,-35.9725,3065.562],[-70.4185,-35.9777,2933.2888],[-70.4102,-35.9804,2769.0049],[-70.3935,-35.9817,2557.8862],[-70.3798,-35.9898,2855.7395],[-70.3748,-35.9948,2938.2017],[-70.3821,-35.9998,2941.7522],[-70.3807,-36.0248,2890.0637],[-70.3768,-36.027,2814.0576],[-70.376,-36.032,2844.1511],[-70.3706,-36.0328,2886.5938],[-70.3699,-36.0414,3027.6799],[-70.3764,-36.0457,3076.9087],[-70.3866,-36.0472,3071.1863],[-70.3873,-36.0509,3054.9966],[-70.3948,-36.0549,2984.1943],[-70.4024,-36.0522,3031.3533],[-70.4079,-36.0537,3058.929],[-70.412,-36.0603,3086.6572],[-70.4175,-36.0755,3000.707],[-70.4183,-36.0894,3016.156],[-70.4237,-36.0919,2942.3557],[-70.4258,-36.0988,2873.9404],[-70.4154,-36.1046,2717.647],[-70.415,-36.1077,2699.8416],[-70.4132,-36.1075,2700.7073],[-70.4123,-36.1031,2681.3391],[-70.4057,-36.1064,2650.4729],[-70.4021,-36.1129,2469.8833],[-70.3966,-36.1322,2181.8096],[-70.3935,-36.1516,2175.5],[-70.3923,-36.1784,2182.2773],[-70.3936,-36.188,2171.5151],[-70.399,-36.1995,2163.884],[-70.399,-36.2043,2039.0872],[-70.3931,-36.2233,2014.0457],[-70.3853,-36.2418,1944.2222],[-70.386,-36.2661,1830.1375],[-70.3808,-36.2876,1822.3301],[-70.365,-36.3194,1881.6146],[-70.3532,-36.3305,1754.1974],[-70.3388,-36.3392,1637.1064],[-70.3033,-36.3448,1707.203],[-70.293,-36.3395,1662.7279],[-70.281,-36.3285,1584.9232],[-70.2663,-36.3263,1628.9011],[-70.251,-36.3273,1667.949],[-70.2361,-36.3302,1611.5957],[-70.2255,-36.3344,1589.9286],[-70.2186,-36.3397,1536.4547],[-70.2145,-36.346,1452.589],[-70.2151,-36.3632,1441.5251],[-70.2099,-36.3746,1446.7609],[-70.2111,-36.3892,1432.7565],[-70.2102,-36.3964,1489.4727],[-70.2041,-36.4076,1428.8711],[-70.1945,-36.4201,1477.2354],[-70.192,-36.4273,1435.324],[-70.1932,-36.4318,1501.6666],[-70.2022,-36.4418,1462.5664],[-70.2007,-36.4515,1426.1797],[-70.1902,-36.4662,1425.9531],[-70.1874,-36.4807,1420.2183],[-70.1821,-36.4922,1416.1284],[-70.1617,-36.51,1477.2415],[-70.1361,-36.5431,1324.1562],[-70.1304,-36.5595,1509.9609],[-70.1247,-36.5681,1252.8718],[-70.1169,-36.5755,1263.8419],[-70.0842,-36.5973,1302.683],[-70.0781,-36.6056,1184.8143],[-70.063,-36.6327,1161.7063],[-70.0563,-36.6405,1154.1188],[-70.0317,-36.6499,1291.2496],[-70.0134,-36.6661,1198.0801],[-70.0063,-36.6706,1435.6876],[-69.9698,-36.6823,1397.1664],[-69.9501,-36.6975,1442.6194],[-69.9391,-36.7121,1262.9241],[-69.9343,-36.7287,1222.7327],[-69.908,-36.7493,1115.5288],[-69.9068,-36.7536,1222.5779],[-69.9115,-36.7808,1068.5371],[-69.9098,-36.7852,1068.9574],[-69.9044,-36.7911,1035.9584],[-69.8919,-36.7984,983.5221],[-69.8761,-36.8005,1059.2788],[-69.8715,-36.8026,1074.1545],[-69.8672,-36.8194,1165.6516],[-69.8594,-36.8269,1134.9257],[-69.8474,-36.8347,983.6531],[-69.8214,-36.841,957.6251],[-69.8017,-36.8524,975.5389],[-69.767,-36.8622,883.0253],[-69.7602,-36.8665,876.8835],[-69.7576,-36.8714,880.3491],[-69.7578,-36.8761,873.5853],[-69.7692,-36.8844,880.8979],[-69.7728,-36.891,877.2609],[-69.7752,-36.9007,874.4724],[-69.7755,-36.9056,868.5381],[-69.7722,-36.9199,856.4567],[-69.7768,-36.9341,851.7836],[-69.7778,-36.9438,849.0172],[-69.7753,-36.978,837.6707],[-69.7731,-36.985,835.071],[-69.7644,-36.9988,847.0483],[-69.7616,-37.0158,838.3279],[-69.7581,-37.0194,844.2137],[-69.7431,-37.0284,1048.9377],[-69.7361,-37.0362,984.8504],[-69.7335,-37.0508,959.8348],[-69.734,-37.0632,914.5455],[-69.7299,-37.0692,879.6437],[-69.7021,-37.0923,821.4321],[-69.6857,-37.0986,811.2596],[-69.6673,-37.1008,829.8068],[-69.6622,-37.1028,810.8431],[-69.651,-37.1146,791.4503],[-69.6372,-37.1195,796.1186],[-69.6255,-37.1306,871.8467],[-69.6015,-37.1337,776.3582],[-69.5627,-37.1478,765.8054],[-69.536,-37.1596,824.7424],[-69.5217,-37.1638,748.3721],[-69.5066,-37.1655,740.594],[-69.4888,-37.1747,736.346],[-69.4763,-37.175,733.4592],[-69.4645,-37.1729,728.468],[-69.4617,-37.1659,730.3161],[-69.4565,-37.1644,729.2685],[-69.395,-37.1649,712.476],[-69.3347,-37.1483,697.4734],[-69.3136,-37.146,694.9723],[-69.2986,-37.1477,687.8254],[-69.2783,-37.1425,683.6458],[-69.2607,-37.1465,681.0148],[-69.2457,-37.1548,684.1434],[-69.2292,-37.1611,722.4167],[-69.2119,-37.1709,668.6429],[-69.1726,-37.1754,660.5402],[-69.1496,-37.1819,656.6619],[-69.1223,-37.2011,653.2779],[-69.0983,-37.2047,652.6478],[-69.0865,-37.2157,640.8798],[-69.0657,-37.219,638.4799],[-69.0407,-37.2469,634.6935],[-69.0376,-37.2536,627.1298],[-69.0369,-37.261,625.4412],[-69.0408,-37.2778,619.1105],[-69.0401,-37.2899,617.1649],[-69.0427,-37.3044,613.6045],[-69.0414,-37.3337,610.5905],[-69.0383,-37.3404,614.6912],[-69.0245,-37.3569,605.7233],[-69.0158,-37.3632,608.0708],[-68.9748,-37.3733,589.8442],[-68.9565,-37.3732,584.8193],[-68.92,-37.3699,589.1075],[-68.9079,-37.3711,624.0354],[-68.8996,-37.3741,599.4902],[-68.8911,-37.3812,573.1469],[-68.8794,-37.3838,580.6366],[-68.8732,-37.3928,569.5422],[-68.8659,-37.3953,568.1317],[-68.844,-37.3926,563.7922],[-68.8294,-37.3891,560.2497],[-68.7963,-37.3766,596.2491],[-68.7864,-37.3709,551.0897],[-68.7784,-37.3637,551.8129],[-68.7634,-37.3664,555.3798],[-68.7556,-37.3701,555.0736],[-68.7535,-37.3749,546.5037],[-68.7394,-37.379,552.2199],[-68.7333,-37.3847,546.1121],[-68.7207,-37.3856,552.3024],[-68.7165,-37.3877,555.303],[-68.7132,-37.4,538.0574],[-68.6993,-37.4099,689.1906],[-68.6964,-37.4138,617.9469],[-68.6973,-37.4365,539.2186],[-68.6943,-37.4395,593.5946],[-68.6525,-37.4478,525.0369],[-68.6315,-37.446,523.9767],[-68.612,-37.438,518.3483],[-68.6067,-37.4373,557.0251],[-68.5893,-37.4477,558.2123],[-68.5729,-37.454,524.3818],[-68.5575,-37.454,512.6816],[-68.5397,-37.451,508.9679],[-68.4962,-37.4547,590.0328],[-68.4938,-37.4555,593.2284],[-68.4918,-37.4593,594.0151],[-68.4925,-37.4795,535.0499],[-68.4801,-37.4812,514.3455],[-68.4793,-37.4853,499.9192],[-68.4811,-37.493,564.134],[-68.4663,-37.4941,499.0259],[-68.4596,-37.4991,577.7111],[-68.4527,-37.5101,561.2625],[-68.4491,-37.5269,489.1224],[-68.4299,-37.546,486.4023],[-68.4216,-37.5486,483.7879],[-68.3881,-37.5533,478.263],[-68.3822,-37.5532,477.6618],[-68.3741,-37.5493,475.2089],[-68.3557,-37.5491,471.9462],[-68.3232,-37.5558,464.6542],[-68.2987,-37.5579,464.2432],[-68.2844,-37.5619,458.445],[-68.2428,-37.5779,468.0504],[-68.2407,-36.2369,1032.1938],[-68.2417,-36.1657,1027.0394],[-68.2958,-36.1663,1095.4055],[-68.2958,-35.9985,1188.6375],[-68.2935,-35.9985,1196.3096]]]]}}