{"type": "Feature","bbox": [-61.7159,-27.6842,-61.0065,-26.9224],"geometry": {"type": "MultiPolygon","coordinates": [[[[-61.7138,-26.9224,145.4066],[-61.7159,-27.6842,93.3837],[-61.5704,-27.6819,71.0481],[-61.5687,-27.6235,77.4277],[-61.0335,-27.6239,79.2987],[-61.0337,-27.4654,83.8325],[-61.0074,-27.4658,83.455],[-61.0065,-27.4036,86.0887],[-61.0716,-27.3575,87.7382],[-61.7138,-26.9224,145.4066]]]]}
,"properties": {"GID_2": "ARG.3.5_1","GID_0": "ARG","country": "Argentina","GID_1": "ARG.3_1","state": "Chaco","NL_NAME_1": "NA","county": "DocedeOctubre","VARNAME_2": "Gral.Pinedo|12deOctubre","NL_NAME_2": "NA","TYPE_2": "Departamento","ENGTYPE_2": "Department","CC_2": "NA","HASC_2": "AR.CC.DC","name": "DocedeOctubre.county","area_km2": 3640.348,"hist_schema_id": "Elevation0-9000","hist_area_km2": {"75": 980.279,"100": 1989.798,"125": 483.757,"150": 186.514}}}