{"type":"Feature","properties":{"GID_2":"ARG.1.128_1","GID_0":"ARG","country":"Argentina","GID_1":"ARG.1_1","state":"BuenosAires","NL_NAME_1":"NA","county":"Zárate","VARNAME_2":"NA","NL_NAME_2":"NA","TYPE_2":"Partido","ENGTYPE_2":"Part","CC_2":"NA","HASC_2":"AR.BA.ZA","name":"Zárate.county"},
"geometry":{"type": "MultiPolygon","coordinates": [[[[-59.3286,-33.9999,3.8613],[-59.3203,-34.0044,4.1804],[-59.3144,-34.0155,6.8534],[-59.3063,-34.0495,5.7258],[-59.3054,-34.065,6.8927],[-59.2938,-34.0776,9.3621],[-59.2816,-34.0852,7.2005],[-59.2729,-34.0957,9.4921],[-59.2766,-34.1078,10.0816],[-59.2805,-34.1141,13.6401],[-59.278,-34.1238,18.0288],[-59.2802,-34.1305,11.3963],[-59.276,-34.1409,10.1105],[-59.2818,-34.1501,10.4282],[-59.3124,-34.165,12.5926],[-59.24,-34.1755,29.2448],[-59.2412,-34.1808,31.7406],[-59.1061,-34.2046,27.4147],[-58.9849,-34.1389,0.0],[-58.9772,-34.1317,0.0],[-58.9745,-34.1266,3.2624],[-58.9879,-34.1127,3.5319],[-59.0086,-34.1025,0.0],[-58.9714,-33.9704,2.6934],[-58.954,-33.9721,7.84],[-58.941,-33.9668,1.7488],[-58.9292,-33.9646,1.9467],[-58.9102,-33.964,3.2749],[-58.889,-33.9663,3.2368],[-58.8647,-33.9655,3.5166],[-58.8319,-33.9453,3.5872],[-58.8499,-33.9399,0.0],[-58.8793,-33.9232,0.0],[-58.8886,-33.9144,0.5785],[-58.8994,-33.8924,0.0],[-58.9277,-33.87,3.9766],[-58.9336,-33.8668,3.1657],[-58.9507,-33.8627,3.8875],[-58.9825,-33.8593,2.3442],[-58.9905,-33.8538,2.9007],[-59.0013,-33.8384,0.8805],[-59.0064,-33.8337,5.3301],[-59.016,-33.8326,6.2491],[-59.0327,-33.8382,3.2366],[-59.0562,-33.8313,0.0],[-59.081,-33.8292,3.1131],[-59.0911,-33.8313,3.3724],[-59.1132,-33.8411,3.5961],[-59.1307,-33.8426,3.3439],[-59.1408,-33.8395,0.0],[-59.1525,-33.8328,0.0],[-59.1622,-33.8241,0.0],[-59.1719,-33.8106,3.2893],[-59.1969,-33.8146,2.623],[-59.2234,-33.8213,3.3161],[-59.2697,-33.8252,2.7841],[-59.2873,-33.8311,2.7629],[-59.3011,-33.8402,3.3267],[-59.306,-33.8594,2.7143],[-59.3049,-33.8638,2.3302],[-59.2884,-33.8734,3.1903],[-59.271,-33.8886,3.2288],[-59.2552,-33.8982,2.868],[-59.2446,-33.902,5.6301],[-59.2369,-33.9142,2.7917],[-59.2332,-33.9267,0.4697],[-59.2411,-33.9336,3.1411],[-59.2484,-33.9356,2.9931],[-59.2659,-33.9351,3.4905],[-59.2731,-33.9391,2.67],[-59.2927,-33.9339,2.3758],[-59.3007,-33.9365,15.0587],[-59.3144,-33.9297,2.5943],[-59.3214,-33.9304,2.2874],[-59.3273,-33.9341,2.7655],[-59.3329,-33.9299,2.3528],[-59.3432,-33.9327,2.0523],[-59.3479,-33.9392,3.3662],[-59.3498,-33.9488,2.7275],[-59.3482,-33.9585,2.5153],[-59.3428,-33.9667,2.8261],[-59.3386,-33.984,3.7335],[-59.3286,-33.9999,3.8613]]]]}}