{"type":"Feature","properties":{"GID_2":"ARG.1.108_1","GID_0":"ARG","country":"Argentina","GID_1":"ARG.1_1","state":"BuenosAires","NL_NAME_1":"NA","county":"SanFernando(1)","VARNAME_2":"NA","NL_NAME_2":"NA","TYPE_2":"Partido","ENGTYPE_2":"Part","CC_2":"NA","HASC_2":"AR.BA.SF","name":"SanFernando(1).county"},
"geometry":{"type": "MultiPolygon","coordinates": [[[[-58.2762,-34.2707,0.0],[-58.2757,-34.2707,0.0],[-58.2749,-34.2671,0.0],[-58.2774,-34.2685,0.6436],[-58.2762,-34.2707,0.0]]],
[[[-58.2724,-34.2535,0.734],[-58.2746,-34.2518,0.8357],[-58.2757,-34.254,1.0439],[-58.2762,-34.2621,1.0368],[-58.2743,-34.2651,0.1495],[-58.2679,-34.2674,0.9059],[-58.2654,-34.2646,0.7601],[-58.2704,-34.2588,0.9477],[-58.2724,-34.2535,0.734]]],
[[[-58.2815,-34.2376,0.0],[-58.2849,-34.2368,0.0],[-58.2865,-34.2379,0.0],[-58.2907,-34.2468,1.038],[-58.2893,-34.2493,0.9156],[-58.2899,-34.2524,0.4922],[-58.2879,-34.2529,0.7831],[-58.286,-34.249,1.0164],[-58.2843,-34.2543,1.0278],[-58.2876,-34.2574,0.9247],[-58.2885,-34.2615,0.1444],[-58.2865,-34.2615,0.507],[-58.2865,-34.259,0.9613],[-58.2815,-34.2565,0.0],[-58.2815,-34.2376,0.0]]],
[[[-58.2668,-34.2251,0.2585],[-58.2701,-34.2243,0.0],[-58.2713,-34.2254,0.0],[-58.2746,-34.2343,0.0],[-58.2751,-34.2379,0.0],[-58.2737,-34.2404,1.0426],[-58.2754,-34.2401,0.5259],[-58.2754,-34.2418,0.5834],[-58.2724,-34.2449,0.8814],[-58.2724,-34.2487,0.2288],[-58.2693,-34.2493,0.9149],[-58.269,-34.2468,0.4821],[-58.2663,-34.2468,0.9231],[-58.2668,-34.2429,1.0368],[-58.2571,-34.2449,0.7088],[-58.2574,-34.2465,0.9384],[-58.254,-34.2501,0.1606],[-58.251,-34.2493,0.9462],[-58.2501,-34.2504,0.161],[-58.2485,-34.2474,1.1281],[-58.2535,-34.2374,0.2725],[-58.2601,-34.2335,1.3264],[-58.2607,-34.2301,0.3191],[-58.2668,-34.2251,0.2585]]],
[[[-58.284,-34.2315,0.6813],[-58.2854,-34.2293,0.3107],[-58.291,-34.2335,0.0],[-58.2932,-34.239,0.1532],[-58.2924,-34.2446,0.0],[-58.2899,-34.2435,0.0],[-58.2874,-34.236,1.0401],[-58.284,-34.2315,0.6813]]],
[[[-58.2779,-34.219,0.0],[-58.2793,-34.2174,1.0647],[-58.2815,-34.219,0.576],[-58.2824,-34.2254,0.0],[-58.2799,-34.2224,0.1275],[-58.2796,-34.2196,0.6407],[-58.2779,-34.219,0.0]]],
[[[-58.3107,-34.1868,0.0],[-58.3126,-34.186,0.0],[-58.3207,-34.189,0.0],[-58.331,-34.2057,0.0],[-58.3293,-34.2079,1.0935],[-58.3315,-34.211,0.1698],[-58.3299,-34.2299,0.0],[-58.331,-34.2337,0.0],[-58.3293,-34.239,0.283],[-58.3215,-34.2385,0.6128],[-58.321,-34.2368,0.9865],[-58.3237,-34.2343,1.048],[-58.3215,-34.2351,0.7797],[-58.3162,-34.2304,0.146],[-58.3143,-34.2301,0.1951],[-58.3118,-34.2329,0.5402],[-58.309,-34.2299,0.2097],[-58.3104,-34.2274,0.7925],[-58.3093,-34.2262,1.3334],[-58.3099,-34.2204,1.0536],[-58.306,-34.2165,0.4551],[-58.2993,-34.2182,1.0654],[-58.2985,-34.2199,1.0682],[-58.2971,-34.2171,0.8303],[-58.296,-34.2182,0.3959],[-58.2979,-34.221,1.0682],[-58.2971,-34.2262,1.0254],[-58.2999,-34.2287,1.0951],[-58.2962,-34.2276,1.299],[-58.294,-34.231,0.3094],[-58.2904,-34.231,0.8382],[-58.286,-34.2282,0.3107],[-58.286,-34.2246,0.4642],[-58.2829,-34.2193,0.4232],[-58.2835,-34.2112,0.4037],[-58.2821,-34.2093,0.0],[-58.289,-34.2004,0.0],[-58.2979,-34.1957,0.0],[-58.3051,-34.189,0.0],[-58.3107,-34.1868,0.0]]],
[[[-58.2571,-34.2054,0.47],[-58.2651,-34.2049,0.8967],[-58.2679,-34.2107,1.2838],[-58.2654,-34.2071,1.1775],[-58.2607,-34.2074,1.1831],[-58.2565,-34.214,0.6358],[-58.2537,-34.2163,0.0],[-58.251,-34.216,0.2746],[-58.2501,-34.2126,0.969],[-58.2529,-34.2054,0.2325],[-58.2571,-34.2054,0.47]]],
[[[-58.3368,-34.2143,0.0],[-58.3387,-34.2132,0.6646],[-58.3435,-34.2149,0.0],[-58.3493,-34.2204,0.2042],[-58.3476,-34.2251,0.0],[-58.3443,-34.2274,0.4891],[-58.3385,-34.2368,0.8031],[-58.3349,-34.2343,0.8591],[-58.3354,-34.229,0.1792],[-58.3326,-34.2249,0.235],[-58.3329,-34.2212,0.5364],[-58.3368,-34.2143,0.0]]],
[[[-58.3357,-34.1387,0.0],[-58.3385,-34.1387,0.0],[-58.3385,-34.1435,0.0],[-58.3426,-34.1521,0.0],[-58.3374,-34.1582,1.1984],[-58.3365,-34.1651,0.9136],[-58.3346,-34.1668,0.9981],[-58.3351,-34.1729,1.1943],[-58.3324,-34.1718,0.191],[-58.334,-34.1754,1.0171],[-58.3326,-34.1776,0.7632],[-58.3351,-34.1818,0.8061],[-58.3326,-34.1826,0.7289],[-58.3326,-34.1846,0.5703],[-58.336,-34.1912,0.0],[-58.336,-34.1949,0.0],[-58.3332,-34.1957,0.2064],[-58.3279,-34.1932,0.6503],[-58.3213,-34.1865,0.0],[-58.3165,-34.1813,0.0],[-58.3162,-34.1782,0.0],[-58.3165,-34.1762,0.0],[-58.3201,-34.1757,1.0418],[-58.3221,-34.1732,0.7944],[-58.3224,-34.1643,0.0],[-58.3237,-34.1626,0.0],[-58.3288,-34.164,1.0845],[-58.3276,-34.1593,0.1978],[-58.3293,-34.1562,0.0],[-58.3385,-34.1501,1.2904],[-58.3343,-34.1468,0.0],[-58.3357,-34.1387,0.0]]],
[[[-58.331,-34.1482,0.2032],[-58.3326,-34.1474,0.9149],[-58.3296,-34.1521,0.0],[-58.3293,-34.1507,0.0],[-58.331,-34.1482,0.2032]]],
[[[-58.3321,-34.1362,0.5858],[-58.334,-34.1357,0.4956],[-58.3326,-34.1387,0.0],[-58.3315,-34.1379,0.0],[-58.3321,-34.1362,0.5858]]],
[[[-58.2604,-34.1651,0.6355],[-58.266,-34.1646,1.2601],[-58.2665,-34.1668,0.4091],[-58.2596,-34.1762,1.0157],[-58.2574,-34.1901,0.0],[-58.2507,-34.1912,7.2811],[-58.2462,-34.1899,0.0],[-58.2426,-34.1857,2.7097],[-58.2432,-34.1754,0.0],[-58.2451,-34.174,0.2391],[-58.2451,-34.1707,0.0],[-58.2468,-34.1699,0.5194],[-58.2468,-34.1679,0.0],[-58.2604,-34.1651,0.6355]]],
[[[-58.2624,-34.174,1.2106],[-58.2649,-34.1749,0.5142],[-58.2632,-34.1779,1.1933],[-58.2612,-34.1765,1.2027],[-58.2624,-34.174,1.2106]]],
[[[-58.4676,-34.3176,0.0],[-58.4732,-34.3165,0.8657],[-58.474,-34.3199,0.6903],[-58.476,-34.321,0.3881],[-58.4729,-34.3218,0.0],[-58.4676,-34.3176,0.0]]],
[[[-58.4982,-34.2954,2.063],[-58.5026,-34.2946,6.6165],[-58.5082,-34.2988,1.4155],[-58.5088,-34.3018,1.7311],[-58.4871,-34.3185,0.0],[-58.481,-34.3204,0.0],[-58.4768,-34.3196,0.3881],[-58.4738,-34.314,0.0],[-58.479,-34.3124,0.7668],[-58.4771,-34.3104,0.0],[-58.4796,-34.3101,0.4838],[-58.4799,-34.3118,0.7668],[-58.481,-34.3104,0.7827],[-58.4776,-34.3079,0.675],[-58.4735,-34.3099,0.0],[-58.4729,-34.3054,0.1432],[-58.4821,-34.2988,0.7166],[-58.494,-34.2982,3.1285],[-58.4982,-34.2954,2.063]]],
[[[-58.4712,-34.3012,0.7395],[-58.4707,-34.2999,0.7395],[-58.4721,-34.2996,0.8718],[-58.4757,-34.3001,1.0527],[-58.4771,-34.3021,1.1136],[-58.4729,-34.3043,0.8357],[-58.4712,-34.3012,0.7395]]],
[[[-58.4674,-34.2949,0.0],[-58.4774,-34.2949,0.6413],[-58.4813,-34.2985,0.4138],[-58.4765,-34.2999,1.1483],[-58.466,-34.2982,0.0],[-58.4674,-34.2949,0.0]]],
[[[-58.4624,-34.2962,0.1317],[-58.4643,-34.2954,0.4103],[-58.4651,-34.2968,0.4589],[-58.4612,-34.2976,0.0],[-58.4624,-34.2962,0.1317]]],
[[[-58.4887,-34.286,0.4767],[-58.4901,-34.2849,0.4767],[-58.496,-34.2863,0.6243],[-58.5004,-34.2901,2.8489],[-58.5013,-34.2938,0.7811],[-58.494,-34.2974,1.7718],[-58.4851,-34.2976,0.2605],[-58.4849,-34.2951,0.715],[-58.4874,-34.2926,0.6553],[-58.4843,-34.2887,0.1144],[-58.4887,-34.286,0.4767]]],
[[[-58.466,-34.2857,0.2626],[-58.4813,-34.2849,1.1208],[-58.4815,-34.2863,0.5233],[-58.4765,-34.2885,0.0],[-58.4618,-34.2871,0.3608],[-58.4626,-34.2857,0.1718],[-58.466,-34.2857,0.2626]]],
[[[-58.4738,-34.2832,0.4196],[-58.4751,-34.2824,0.1218],[-58.4768,-34.2824,0.3854],[-58.476,-34.284,0.5235],[-58.4738,-34.2832,0.4196]]],
[[[-58.3249,-34.2429,0.246],[-58.3271,-34.2418,0.7235],[-58.3288,-34.2432,1.364],[-58.3299,-34.2479,0.0],[-58.3274,-34.2501,0.0],[-58.324,-34.2496,0.0],[-58.3251,-34.246,1.1966],[-58.3229,-34.2474,1.0959],[-58.3229,-34.2449,1.1199],[-58.3249,-34.2429,0.246]]],
[[[-58.3099,-34.2438,0.1134],[-58.3104,-34.2421,0.0942],[-58.3124,-34.2435,0.773],[-58.3124,-34.2465,0.0],[-58.3107,-34.2462,0.0],[-58.3099,-34.2438,0.1134]]],
[[[-58.3243,-34.2407,0.8464],[-58.3229,-34.2401,0.8441],[-58.326,-34.2401,0.8089],[-58.3254,-34.2418,0.246],[-58.3243,-34.2407,0.8464]]],
[[[-58.3951,-34.2282,1.2135],[-58.3996,-34.2274,0.7587],[-58.3963,-34.2299,0.0],[-58.394,-34.2296,0.0],[-58.3951,-34.2282,1.2135]]],
[[[-58.4082,-34.2654,0.3067],[-58.4093,-34.2646,0.3067],[-58.411,-34.266,0.0],[-58.409,-34.2668,0.0],[-58.4082,-34.2654,0.3067]]],
[[[-58.716,-34.2272,3.6435],[-58.716,-34.2392,6.7276],[-58.7194,-34.2518,6.3537],[-58.6153,-34.2818,7.8583],[-58.5751,-34.2956,5.272],[-58.5532,-34.3072,5.4037],[-58.5232,-34.3094,2.2875],[-58.5165,-34.3054,1.4376],[-58.5132,-34.2971,0.0],[-58.5057,-34.2946,0.0],[-58.496,-34.2829,0.9648],[-58.4918,-34.2804,0.2859],[-58.4904,-34.2815,0.0],[-58.4871,-34.2807,0.1061],[-58.4874,-34.2785,0.1814],[-58.4896,-34.2788,0.6687],[-58.4901,-34.2771,0.0],[-58.4979,-34.2737,0.0],[-58.4976,-34.2707,1.8292],[-58.494,-34.2718,0.0],[-58.4976,-34.2687,0.3463],[-58.4799,-34.2724,3.4707],[-58.4749,-34.2749,0.0],[-58.4624,-34.2749,0.0],[-58.4538,-34.271,0.1538],[-58.4535,-34.2649,6.8055],[-58.4515,-34.2685,0.0],[-58.4437,-34.2676,0.2294],[-58.4329,-34.269,0.0],[-58.4326,-34.2676,0.1634],[-58.4204,-34.2668,0.0],[-58.4149,-34.2649,0.0],[-58.4065,-34.2554,1.463],[-58.4049,-34.2565,0.5229],[-58.4038,-34.2551,1.7216],[-58.4038,-34.2585,0.3073],[-58.4018,-34.2596,0.0],[-58.3965,-34.254,0.0],[-58.3968,-34.251,0.5961],[-58.3926,-34.249,0.0],[-58.389,-34.2446,0.0],[-58.3879,-34.2407,0.0],[-58.3901,-34.2363,1.4071],[-58.4035,-34.2304,3.658],[-58.4038,-34.2279,0.8442],[-58.3996,-34.2254,0.2391],[-58.3876,-34.2235,0.4017],[-58.3829,-34.2251,0.0],[-58.379,-34.224,0.0],[-58.3787,-34.2226,0.0],[-58.3815,-34.2215,3.2392],[-58.3768,-34.2196,0.7065],[-58.3743,-34.2157,0.6494],[-58.3779,-34.2129,1.1876],[-58.371,-34.2132,0.367],[-58.371,-34.2115,1.1054],[-58.3743,-34.2104,0.8808],[-58.3793,-34.2038,0.6543],[-58.3765,-34.1999,0.282],[-58.3699,-34.2026,1.42],[-58.3671,-34.2057,1.0114],[-58.3629,-34.2051,1.1022],[-58.3637,-34.209,0.1045],[-58.361,-34.2099,0.0],[-58.3593,-34.2093,0.0],[-58.3599,-34.2062,0.6879],[-58.3557,-34.2071,0.2482],[-58.3515,-34.2007,0.0],[-58.3537,-34.1935,0.0],[-58.3563,-34.1929,0.9561],[-58.3549,-34.1904,1.8472],[-58.361,-34.1837,2.0596],[-58.3626,-34.1796,0.7187],[-58.3707,-34.1726,0.0],[-58.3757,-34.1646,2.2769],[-58.3732,-34.1621,1.3863],[-58.3721,-34.156,0.7393],[-58.3682,-34.1526,0.0],[-58.3707,-34.146,0.0],[-58.3676,-34.1421,0.7094],[-58.3671,-34.1279,2.0281],[-58.3659,-34.1335,0.0],[-58.3635,-34.1326,0.5213],[-58.3586,-34.1436,0.0],[-58.3557,-34.1374,0.4814],[-58.3571,-34.1362,1.3361],[-58.3532,-34.1332,0.0],[-58.3519,-34.1278,0.0],[-58.3576,-34.1193,0.0],[-58.3599,-34.1197,0.157],[-58.3679,-34.1118,2.2737],[-58.3615,-34.0924,0.0],[-58.3632,-34.0782,5.4916],[-58.3621,-34.0721,0.0],[-58.3643,-34.0646,2.0185],[-58.3607,-34.0593,0.6419],[-58.3615,-34.0535,0.2605],[-58.3649,-34.049,1.0782],[-58.3582,-34.0535,0.2457],[-58.3557,-34.0532,0.2071],[-58.3543,-34.0493,1.9573],[-58.3537,-34.0535,0.0],[-58.3518,-34.0551,0.0],[-58.3499,-34.0543,0.0],[-58.349,-34.0507,0.0],[-58.351,-34.0507,0.0],[-58.3521,-34.0526,0.0],[-58.3515,-34.0488,0.2736],[-58.3532,-34.0474,2.3474],[-58.3524,-34.0446,1.1039],[-58.3537,-34.0404,0.0],[-58.3604,-34.0349,1.1407],[-58.3654,-34.0265,1.6289],[-58.3782,-34.0163,0.7186],[-58.3901,-34.0124,0.0],[-58.3979,-34.0126,0.4284],[-58.4076,-34.009,0.0],[-58.4165,-34.0079,0.0],[-58.4174,-34.0043,0.0],[-58.4438,-34.0066,3.4035],[-58.4433,-34.0078,3.4035],[-58.4603,-34.0056,4.0752],[-58.4721,-34.007,2.3504],[-58.4953,-34.0067,0.0],[-58.5191,-34.0183,0.0],[-58.5527,-34.0257,0.0],[-58.5656,-34.03,3.3221],[-58.5896,-34.0326,0.0],[-58.6109,-34.0422,2.1777],[-58.6282,-34.0438,5.2577],[-58.6455,-34.042,1.014],[-58.6673,-34.0357,9.5776],[-58.8027,-34.086,3.3392],[-58.8105,-34.0875,2.9157],[-58.8106,-34.0948,4.5597],[-58.7748,-34.136,14.2436],[-58.7748,-34.1452,3.2764],[-58.7701,-34.1562,2.0111],[-58.7561,-34.1655,2.3447],[-58.7554,-34.172,8.5777],[-58.7497,-34.175,12.1831],[-58.7201,-34.1769,4.2475],[-58.7032,-34.1802,2.7852],[-58.703,-34.1935,1.866],[-58.7058,-34.2122,8.0503],[-58.7167,-34.2251,7.1566],[-58.716,-34.2272,3.6435]]],
[[[-58.3493,-34.0774,0.3908],[-58.3504,-34.0768,0.2819],[-58.3521,-34.0793,1.279],[-58.3512,-34.086,1.4273],[-58.3526,-34.0876,0.506],[-58.3526,-34.0932,0.0],[-58.3521,-34.0971,0.9811],[-58.3474,-34.1012,1.3894],[-58.3457,-34.0985,0.0],[-58.3493,-34.0774,0.3908]]],
[[[-58.3576,-34.0546,1.6867],[-58.3593,-34.054,0.6288],[-58.3601,-34.056,1.8465],[-58.3587,-34.0582,1.2346],[-58.3568,-34.0576,0.9079],[-58.3576,-34.0546,1.6867]]]]}}