{"type": "Feature","bbox": [-64.5988,-29.0049,-63.8695,-28.2522],"geometry": {"type": "MultiPolygon","coordinates": [[[[-63.8695,-28.412,127.5341],[-63.8746,-28.4109,128.6239],[-63.8853,-28.405,128.6728],[-63.8938,-28.4054,128.2938],[-63.9149,-28.4115,128.3566],[-63.9316,-28.4072,129.6629],[-63.946,-28.4007,129.4433],[-63.9619,-28.4007,132.32],[-63.9764,-28.3948,131.6742],[-63.9962,-28.3783,133.8704],[-64.0062,-28.3755,134.9032],[-64.0096,-28.3718,135.6232],[-64.0181,-28.3676,135.6075],[-64.0197,-28.363,135.9601],[-64.0299,-28.3638,135.675],[-64.0529,-28.351,136.9317],[-64.0666,-28.3302,140.5811],[-64.066,-28.3206,141.8014],[-64.0632,-28.3113,140.0895],[-64.0643,-28.3067,140.9839],[-64.0692,-28.3045,138.2171],[-64.0799,-28.3042,139.6821],[-64.0811,-28.2899,143.5381],[-64.0905,-28.2724,142.0202],[-64.0897,-28.2684,145.8483],[-64.0836,-28.26,139.3514],[-64.0828,-28.2522,138.8391],[-64.2368,-28.3102,139.751],[-64.2371,-28.3288,136.6139],[-64.2739,-28.3362,140.1113],[-64.4196,-28.309,179.8437],[-64.4347,-28.3706,176.7097],[-64.5081,-28.3588,206.8781],[-64.5183,-28.4064,198.599],[-64.4762,-28.4142,183.5493],[-64.4814,-28.4335,182.8013],[-64.5507,-28.4214,212.5515],[-64.5552,-28.4367,217.1611],[-64.567,-28.4353,221.4184],[-64.5681,-28.4465,221.4343],[-64.5715,-28.4532,224.2968],[-64.5777,-28.4527,225.3513],[-64.5844,-28.4882,224.9297],[-64.5716,-28.49,219.9375],[-64.5896,-28.548,214.6592],[-64.5482,-28.5585,199.0598],[-64.5732,-28.6509,199.2535],[-64.5894,-28.6483,205.5138],[-64.5988,-28.6804,200.5977],[-64.5688,-28.6872,188.6455],[-64.5746,-28.7215,186.2014],[-64.51,-28.7324,160.8743],[-64.5289,-28.7956,146.1059],[-64.5506,-28.7928,152.3187],[-64.5645,-28.8499,144.936],[-64.5594,-28.852,143.2411],[-64.5771,-28.9048,144.0209],[-64.5628,-28.9071,134.735],[-64.5707,-28.9418,130.0695],[-64.5767,-28.9543,131.0624],[-64.589,-29.0013,119.0614],[-64.2414,-29.0049,113.692],[-64.1876,-28.7984,114.2291],[-64.2321,-28.7915,115.3646],[-64.2182,-28.7307,116.2666],[-64.2116,-28.7314,116.8292],[-64.2012,-28.687,117.8557],[-64.1376,-28.6991,117.5963],[-64.1394,-28.7047,117.0107],[-64.0909,-28.7142,117.7166],[-64.0862,-28.7081,117.6594],[-64.1052,-28.6743,119.8097],[-64.1222,-28.6777,121.4787],[-64.1103,-28.6232,121.1486],[-64.0728,-28.6284,119.7732],[-64.0515,-28.523,125.9061],[-64.042,-28.523,126.3219],[-63.9128,-28.4436,128.9014],[-63.8695,-28.412,127.5341]]]]}
,"properties": {"GID_2": "ARG.22.15_1","GID_0": "ARG","country": "Argentina","GID_1": "ARG.22_1","state": "SantiagodelEstero","NL_NAME_1": "NA","county": "Loreto","VARNAME_2": "Va.S.Martin","NL_NAME_2": "NA","TYPE_2": "Departamento","ENGTYPE_2": "Department","CC_2": "NA","HASC_2": "AR.SE.LO","name": "Loreto.county","area_km2": 3315.862,"hist_schema_id": "Elevation0-9000","hist_area_km2": {"125": 2440.901,"150": 477.562,"175": 245.924,"200": 124.919,"225": 26.538}}}