{"type": "Feature","bbox": [-61.328,-27.1255,-60.8336,-26.6442],"geometry": {"type": "MultiPolygon","coordinates": [[[[-61.3263,-26.6442,124.2884],[-61.328,-26.838,114.7645],[-61.1885,-26.8359,110.9055],[-61.2171,-26.8639,113.2116],[-60.8358,-27.1255,91.5718],[-60.8336,-26.8985,99.8316],[-60.8715,-26.8882,100.3038],[-60.8911,-26.9064,101.0573],[-61.0097,-26.8387,105.1797],[-60.9931,-26.8389,105.9925],[-60.9915,-26.6477,112.8604],[-61.3263,-26.6442,124.2884]]]]}
,"properties": {"GID_2": "ARG.3.7_1","GID_0": "ARG","country": "Argentina","GID_1": "ARG.3_1","state": "Chaco","NL_NAME_1": "NA","county": "GeneralBelgrano","VARNAME_2": "Corzuela","NL_NAME_2": "NA","TYPE_2": "Departamento","ENGTYPE_2": "Department","CC_2": "NA","HASC_2": "AR.CC.GB","name": "GeneralBelgrano.county","area_km2": 1286.0699,"hist_schema_id": "Elevation0-9000","hist_area_km2": {"100": 861.8661,"125": 424.2038}}}