{"type":"Feature","properties":{"GID_2":"ARG.19.2_1","GID_0":"ARG","country":"Argentina","GID_1":"ARG.19_1","state":"SanLuis","NL_NAME_1":"NA","county":"Belgrano","VARNAME_2":"VillaGenerelRoca","NL_NAME_2":"NA","TYPE_2":"Departamento","ENGTYPE_2":"Department","CC_2":"NA","HASC_2":"AR.SL.BE","name":"Belgrano.county"},
"geometry":{"type": "MultiPolygon","coordinates": [[[[-67.1976,-33.1005,456.2321],[-66.8094,-33.0899,669.368],[-66.2212,-33.1169,1717.2578],[-66.2151,-33.099,1861.4443],[-66.2127,-33.0752,2119.7993],[-66.2091,-33.0612,2059.8962],[-66.2104,-33.0422,2093.4492],[-66.2198,-33.0246,1701.6194],[-66.2233,-33.0209,1765.9458],[-66.2444,-33.0048,1341.6951],[-66.2582,-32.9965,1215.6707],[-66.2621,-32.9928,1252.765],[-66.2631,-32.988,1263.9771],[-66.2593,-32.986,1265.9253],[-66.2484,-32.9883,1237.7672],[-66.2432,-32.9861,1317.4642],[-66.2207,-32.9841,1611.3087],[-66.2153,-32.9824,1795.8529],[-66.207,-32.976,1905.7767],[-66.2007,-32.9681,1785.0709],[-66.1966,-32.9542,1830.132],[-66.1889,-32.9414,1652.7694],[-66.1646,-32.9215,1641.9183],[-66.1567,-32.9087,1561.6053],[-66.1546,-32.9043,1713.047],[-66.1554,-32.8853,1606.1635],[-66.1466,-32.873,1638.8861],[-66.1427,-32.864,1652.3799],[-66.1543,-32.8422,1814.4468],[-66.1728,-32.8242,1936.2521],[-66.1782,-32.8057,1824.2681],[-66.1862,-32.7931,1750.4802],[-66.1975,-32.766,1348.6493],[-66.2183,-32.7387,1538.8927],[-66.2249,-32.7376,1172.6447],[-66.231,-32.7295,1025.0515],[-66.2273,-32.7109,1002.3242],[-66.2301,-32.6583,1174.7114],[-66.2338,-32.6298,914.108],[-66.2253,-32.602,1031.5807],[-66.2227,-32.5878,928.9209],[-66.2262,-32.5449,703.8687],[-66.2191,-32.5217,693.9415],[-66.2127,-32.5084,689.467],[-66.2106,-32.499,683.1609],[-66.2152,-32.4852,671.5519],[-66.2157,-32.4661,659.8212],[-66.4263,-32.4348,594.2531],[-67.3198,-32.4485,486.1182],[-67.3165,-32.4639,485.5522],[-67.3061,-32.4763,484.221],[-67.3025,-32.4991,483.0784],[-67.2984,-32.5114,481.8224],[-67.2982,-32.5292,480.8552],[-67.2854,-32.5522,479.614],[-67.2859,-32.5572,479.2364],[-67.2911,-32.5665,478.9075],[-67.2919,-32.5741,478.6226],[-67.2893,-32.5786,478.6215],[-67.2672,-32.5997,477.9126],[-67.2626,-32.6092,477.4317],[-67.2607,-32.6166,477.0501],[-67.263,-32.6267,477.1266],[-67.2604,-32.6366,476.7343],[-67.262,-32.6492,475.8178],[-67.2532,-32.6655,475.1852],[-67.249,-32.683,475.1673],[-67.2439,-32.6922,474.2856],[-67.2175,-32.7046,475.0342],[-67.2099,-32.7124,474.9408],[-67.2038,-32.7241,474.7632],[-67.204,-32.742,474.3785],[-67.1896,-32.7669,471.2139],[-67.1894,-32.7693,471.2852],[-67.1923,-32.773,474.4307],[-67.1885,-32.777,472.873],[-67.1886,-32.7871,471.7565],[-67.1988,-32.7927,471.6108],[-67.2027,-32.7965,471.8284],[-67.2118,-32.8153,471.8731],[-67.2116,-32.8255,470.6206],[-67.201,-32.8573,469.278],[-67.2016,-32.8751,468.8693],[-67.2052,-32.8875,468.2143],[-67.2057,-32.9028,468.2007],[-67.2149,-32.9159,467.6046],[-67.2162,-32.9261,466.3401],[-67.2198,-32.9358,466.3724],[-67.2128,-32.95,467.4265],[-67.2024,-32.9626,465.3768],[-67.2,-32.9699,464.7724],[-67.2019,-32.9903,462.8713],[-67.2065,-32.9996,464.3907],[-67.2023,-33.0145,459.5698],[-67.2019,-33.0221,459.2932],[-67.2055,-33.0345,460.855],[-67.2119,-33.046,461.4352],[-67.2098,-33.0508,460.7001],[-67.2033,-33.0562,461.2788],[-67.2031,-33.0611,461.5277],[-67.1976,-33.0669,460.8216],[-67.1948,-33.0742,461.8894],[-67.1954,-33.0818,464.103],[-67.1982,-33.089,465.9122],[-67.1976,-33.1005,456.2321]]]]}}