{"type": "Feature","bbox": [-55.3627,-27.9247,-54.9737,-27.6153],"geometry": {"type": "MultiPolygon","coordinates": [[[[-55.3098,-27.9247,89.9936],[-55.2776,-27.9207,100.6796],[-55.2776,-27.9179,85.9183],[-55.26,-27.9149,80.9761],[-55.2533,-27.9107,84.6963],[-55.2374,-27.8931,75.5],[-55.2407,-27.8988,75.5],[-55.2227,-27.8813,75.5],[-55.203,-27.8666,89.2214],[-55.196,-27.8631,106.3514],[-55.1833,-27.8614,84.9761],[-55.1746,-27.862,76.5],[-55.1619,-27.8709,76.5],[-55.1544,-27.885,76.5],[-55.1489,-27.8902,102.0181],[-55.1338,-27.8954,77.0],[-55.1288,-27.8939,77.0],[-55.1252,-27.8899,77.0],[-55.1229,-27.8742,77.0],[-55.1245,-27.8611,77.5],[-55.117,-27.8532,83.2514],[-55.1,-27.8476,77.5],[-55.0908,-27.8465,78.0],[-55.0767,-27.8476,81.8578],[-55.062,-27.8537,84.5592],[-55.0434,-27.8556,80.0],[-55.0354,-27.8552,89.3241],[-55.0283,-27.8503,80.0],[-55.0255,-27.8417,91.1841],[-55.0255,-27.8309,80.0],[-55.0365,-27.8183,80.0],[-55.0536,-27.8082,81.5],[-55.0713,-27.8,82.5],[-55.0776,-27.7948,92.5995],[-55.0809,-27.7873,87.9767],[-55.0629,-27.7744,94.8591],[-55.0533,-27.7719,85.0],[-55.0469,-27.7728,85.5],[-55.0274,-27.7923,86.5],[-55.021,-27.7966,87.5],[-55.0138,-27.7975,88.125],[-55.008,-27.7956,93.8938],[-55.0,-27.7901,90.0],[-54.9869,-27.7763,103.0636],[-54.9775,-27.7739,90.5],[-54.9737,-27.7538,108.2065],[-54.9761,-27.7492,178.0931],[-54.9873,-27.7456,213.9294],[-54.9918,-27.7393,242.8457],[-54.9987,-27.7343,118.3392],[-55.0191,-27.6989,135.4529],[-55.0181,-27.6965,141.1594],[-55.0212,-27.6891,144.8237],[-55.0214,-27.6838,175.0546],[-55.0293,-27.676,168.9125],[-55.0328,-27.6687,148.3356],[-55.0331,-27.6635,158.3108],[-55.0376,-27.6603,154.7361],[-55.0383,-27.6474,225.6855],[-55.0441,-27.6459,203.584],[-55.0457,-27.6441,207.0057],[-55.0442,-27.6417,252.4441],[-55.0474,-27.6375,276.4125],[-55.0524,-27.6345,248.1923],[-55.0541,-27.6303,263.1779],[-55.0606,-27.6336,208.4874],[-55.0766,-27.6153,279.8183],[-55.1716,-27.6203,267.3235],[-55.1655,-27.6952,302.0869],[-55.1892,-27.699,295.6531],[-55.1868,-27.726,177.2235],[-55.1948,-27.7333,162.412],[-55.2504,-27.7362,208.0746],[-55.2576,-27.7407,271.5117],[-55.2636,-27.7404,251.3971],[-55.2869,-27.727,272.1007],[-55.3256,-27.7836,119.9012],[-55.328,-27.7783,120.7112],[-55.3627,-27.7745,125.6766],[-55.3098,-27.9247,89.9936]]]]}
,"properties": {"GID_2": "ARG.14.15_1","GID_0": "ARG","country": "Argentina","GID_1": "ARG.14_1","state": "Misiones","NL_NAME_1": "NA","county": "SanJavier","VARNAME_2": "NA","NL_NAME_2": "NA","TYPE_2": "Departamento","ENGTYPE_2": "Department","CC_2": "NA","HASC_2": "AR.MN.SJ","name": "SanJavier.county","area_km2": 680.4076,"hist_schema_id": "Elevation0-9000","hist_area_km2": {"75": 32.7503,"100": 135.0168,"125": 143.9807,"150": 97.59,"175": 61.1842,"200": 44.3573,"225": 42.9183,"250": 41.3523,"275": 42.4866,"300": 29.8135,"325": 8.7698,"350": 0.1879}}}