{"type": "Feature","bbox": [-61.7131,-27.3656,-60.8358,-26.6393],"geometry": {"type": "MultiPolygon","coordinates": [[[[-61.7124,-26.6393,168.6418],[-61.7131,-26.7597,155.2102],[-61.2437,-27.0884,102.272],[-60.8391,-27.3656,84.0263],[-60.8358,-27.2998,87.4676],[-60.9202,-27.2407,90.6275],[-60.8576,-27.1652,93.2095],[-60.8364,-27.1855,89.7261],[-60.8358,-27.1255,91.5718],[-61.2171,-26.8639,113.2116],[-61.1885,-26.8359,110.9055],[-61.328,-26.838,114.7645],[-61.3263,-26.6442,124.2884],[-61.7124,-26.6393,168.6418]]]]}
,"properties": {"GID_2": "ARG.3.15_1","GID_0": "ARG","country": "Argentina","GID_1": "ARG.3_1","state": "Chaco","NL_NAME_1": "NA","county": "NuevedeJulio","VARNAME_2": "LasBrenas|9deJulio","NL_NAME_2": "NA","TYPE_2": "Departamento","ENGTYPE_2": "Department","CC_2": "NA","HASC_2": "AR.CC.NJ","name": "NuevedeJulio.county","area_km2": 2309.993,"hist_schema_id": "Elevation0-9000","hist_area_km2": {"75": 23.019,"100": 1300.048,"125": 837.447,"150": 135.784,"175": 13.696}}}