{"type": "Feature","bbox": [-66.6957,-28.0195,-65.9315,-27.1627],"geometry": {"type": "MultiPolygon","coordinates": [[[[-65.9315,-27.6146,2350.0215],[-65.9361,-27.5946,2280.9292],[-65.954,-27.5753,2215.7314],[-65.9597,-27.5604,2234.3638],[-65.9688,-27.5462,2279.8921],[-65.9664,-27.5141,2285.377],[-65.9758,-27.4859,2362.5293],[-65.9724,-27.4567,2144.0117],[-65.9769,-27.444,2118.1111],[-65.9752,-27.4308,2033.3789],[-65.9696,-27.4151,1674.2415],[-65.9673,-27.3987,1321.2469],[-65.9736,-27.3622,1676.1775],[-65.9844,-27.3333,1616.3322],[-65.9886,-27.3149,1796.6808],[-65.9955,-27.3048,1864.6692],[-66.0027,-27.3041,2068.6116],[-66.0134,-27.2972,2119.0586],[-66.0327,-27.2901,2514.3672],[-66.0533,-27.2865,2823.1372],[-66.0705,-27.2809,3393.6558],[-66.0889,-27.2797,3503.8452],[-66.0952,-27.2756,3705.9133],[-66.1053,-27.2648,4195.2676],[-66.1178,-27.2563,4809.6875],[-66.1293,-27.2509,5240.8359],[-66.1508,-27.2445,4939.9058],[-66.1678,-27.2421,4294.2183],[-66.1782,-27.2376,4071.8755],[-66.2176,-27.1936,2725.6802],[-66.2345,-27.1796,2565.677],[-66.2457,-27.168,2498.7888],[-66.2549,-27.1627,2459.2896],[-66.5275,-27.2549,3411.6611],[-66.5263,-27.2615,3368.2],[-66.5213,-27.2707,2964.293],[-66.5195,-27.2809,2856.4058],[-66.5233,-27.2958,2628.7898],[-66.5322,-27.3129,2462.24],[-66.615,-27.3582,2906.7512],[-66.6236,-27.3929,2852.3735],[-66.6218,-27.3978,2890.532],[-66.6126,-27.4037,3005.2024],[-66.6094,-27.4137,2760.2014],[-66.6154,-27.4223,2733.6272],[-66.6338,-27.4364,2251.3467],[-66.6454,-27.4805,2362.4104],[-66.6128,-27.5098,2436.9048],[-66.6208,-27.529,1998.9556],[-66.6266,-27.5489,2246.6899],[-66.6284,-27.5695,1903.5081],[-66.6536,-27.5971,1600.5671],[-66.6532,-27.6074,1544.7734],[-66.6549,-27.6121,1572.3948],[-66.6734,-27.632,1228.9185],[-66.6794,-27.6407,1327.8022],[-66.6918,-27.664,1394.6239],[-66.6953,-27.6737,1354.5706],[-66.6957,-27.6993,1137.6565],[-66.6844,-27.7548,863.7079],[-66.6752,-27.8364,877.9095],[-66.6744,-27.8723,870.7625],[-66.6707,-27.9132,850.4572],[-66.6723,-27.944,833.902],[-66.6708,-27.9747,822.0979],[-66.6726,-28.0174,803.8109],[-66.4359,-28.0195,744.8181],[-66.4382,-27.9973,751.2529],[-66.4377,-27.9859,751.3848],[-66.4277,-27.9525,754.37],[-66.4133,-27.9269,755.4698],[-66.39,-27.8994,750.1199],[-66.3666,-27.8795,745.6216],[-66.3464,-27.8652,744.0122],[-66.2912,-27.8357,734.4424],[-66.2684,-27.8077,734.2349],[-66.2435,-27.7895,740.2945],[-66.2036,-27.7708,768.17],[-66.1851,-27.7653,817.9612],[-66.1594,-27.7604,903.746],[-66.1555,-27.7574,913.7602],[-66.1562,-27.751,977.6502],[-66.1518,-27.7402,1073.7712],[-66.1423,-27.7326,1072.4312],[-66.1243,-27.7261,1208.6825],[-66.1055,-27.7218,1499.1923],[-66.0863,-27.7227,1856.1038],[-66.0758,-27.7292,2134.0215],[-66.0697,-27.7393,2199.2896],[-66.0653,-27.7436,2427.0828],[-66.0442,-27.7567,2761.4492],[-66.0314,-27.7697,2769.1143],[-66.0164,-27.7805,2698.6106],[-66.0102,-27.7815,2735.2573],[-66.0036,-27.7805,2667.7898],[-65.9917,-27.7761,2387.208],[-65.9867,-27.7724,2404.9121],[-65.9701,-27.7548,2314.7395],[-65.9638,-27.7448,2310.2505],[-65.9598,-27.7339,2259.488],[-65.9568,-27.7168,2165.7388],[-65.9566,-27.7054,2168.3831],[-65.9596,-27.6884,2122.3413],[-65.9711,-27.6679,2224.3374],[-65.9719,-27.6622,2198.5847],[-65.9701,-27.6508,2140.4568],[-65.9623,-27.6351,2070.2944],[-65.954,-27.6262,2117.8438],[-65.9435,-27.6195,2355.3896],[-65.9315,-27.6146,2350.0215]]]]}
,"properties": {"GID_2": "ARG.2.3_1","GID_0": "ARG","country": "Argentina","GID_1": "ARG.2_1","state": "Catamarca","NL_NAME_1": "NA","county": "Andalgalá","VARNAME_2": "NA","NL_NAME_2": "NA","TYPE_2": "Departamento","ENGTYPE_2": "Department","CC_2": "NA","HASC_2": "AR.CT.AG","name": "Andalgalá.county","area_km2": 4690.815,"hist_schema_id": "Elevation0-9000","hist_area_km2": {"725": 8.214,"750": 193.603,"775": 274.218,"800": 348.562,"825": 306.54,"850": 241.857,"875": 126.371,"900": 67.502,"925": 54.946,"950": 48.978,"975": 41.806,"1000": 34.385,"1025": 29.068,"1050": 24.353,"1075": 20.877,"1100": 19.204,"1125": 19.354,"1150": 20.614,"1175": 21.364,"1200": 18.508,"1225": 18.452,"1250": 18.452,"1275": 17.194,"1300": 16.067,"1325": 16.705,"1350": 17.608,"1375": 17.909,"1400": 17.535,"1425": 18.832,"1450": 17.405,"1475": 16.787,"1500": 16.148,"1525": 16.375,"1550": 18.256,"1575": 18.427,"1600": 20.477,"1625": 25.292,"1650": 30.123,"1675": 38.282,"1700": 48.111,"1725": 52.6,"1750": 61.373,"1775": 66.46,"1800": 62.681,"1825": 57.817,"1850": 51.128,"1875": 46.0,"1900": 41.246,"1925": 41.455,"1950": 37.66,"1975": 36.609,"2000": 34.861,"2025": 34.298,"2050": 31.779,"2075": 30.801,"2100": 30.538,"2125": 29.638,"2150": 30.465,"2175": 28.041,"2200": 27.721,"2225": 27.721,"2250": 29.132,"2275": 30.465,"2300": 27.984,"2325": 30.302,"2350": 27.401,"2375": 26.05,"2400": 25.112,"2425": 23.137,"2450": 29.607,"2475": 38.04,"2500": 38.302,"2525": 38.922,"2550": 37.039,"2575": 36.589,"2600": 38.324,"2625": 39.661,"2650": 39.982,"2675": 37.137,"2700": 33.689,"2725": 32.823,"2750": 31.56,"2775": 30.355,"2800": 32.748,"2825": 30.68,"2850": 30.116,"2875": 27.874,"2900": 24.974,"2925": 24.39,"2950": 23.617,"2975": 19.699,"3000": 17.59,"3025": 17.006,"3050": 15.631,"3075": 14.99,"3100": 14.557,"3125": 13.635,"3150": 14.444,"3175": 12.693,"3200": 13.785,"3225": 13.144,"3250": 12.297,"3275": 11.375,"3300": 10.715,"3325": 10.131,"3350": 10.282,"3375": 10.037,"3400": 9.849,"3425": 10.057,"3450": 9.077,"3475": 8.569,"3500": 9.002,"3525": 8.908,"3550": 7.42,"3575": 8.154,"3600": 8.06,"3625": 7.797,"3650": 7.401,"3675": 7.156,"3700": 6.403,"3725": 6.215,"3750": 6.385,"3775": 6.083,"3800": 5.876,"3825": 5.801,"3850": 5.538,"3875": 5.217,"3900": 5.406,"3925": 5.481,"3950": 5.01,"3975": 5.425,"4000": 4.878,"4025": 4.916,"4050": 4.633,"4075": 4.181,"4100": 4.878,"4125": 4.219,"4150": 4.295,"4175": 3.73,"4200": 4.313,"4225": 4.521,"4250": 3.522,"4275": 4.351,"4300": 3.748,"4325": 4.332,"4350": 4.408,"4375": 4.069,"4400": 4.125,"4425": 4.125,"4450": 4.709,"4475": 4.465,"4500": 4.352,"4525": 4.106,"4550": 4.013,"4575": 3.975,"4600": 4.126,"4625": 4.163,"4650": 3.561,"4675": 3.278,"4700": 3.259,"4725": 3.429,"4750": 2.562,"4775": 3.09,"4800": 2.336,"4825": 2.619,"4850": 2.43,"4875": 2.807,"4900": 2.299,"4925": 2.261,"4950": 2.129,"4975": 1.696,"5000": 2.016,"5025": 1.865,"5050": 1.771,"5075": 1.545,"5100": 1.243,"5125": 1.149,"5150": 1.319,"5175": 0.942,"5200": 0.999,"5225": 0.829,"5250": 0.754,"5275": 0.697,"5300": 0.641,"5325": 0.546,"5350": 0.603,"5375": 0.358,"5400": 0.32,"5425": 0.17,"5450": 0.094,"5475": 0.057}}}