{"type":"Feature","properties":{"ISO3166-1-Alpha-3":"ARG","country":"Argentina","fill":"#000","id":"1304","name":"Santiago del Estero"},
"geometry":{"type": "Polygon","coordinates": [[[-63.39858,-25.65936,266.43],[-63.92439,-25.65234,296.1427],[-63.95922,-25.64252,302.0105],[-63.96077,-25.6421,301.7244],[-64.15337,-25.58469,377.3302],[-64.19176,-25.57989,398.8802],[-64.2116,-25.60366,404.5138],[-64.425,-26.02756,547.5087],[-64.43066,-26.04456,546.6763],[-64.43219,-26.05712,576.3923],[-64.43221,-26.08848,520.7116],[-64.43358,-26.09779,518.7629],[-64.441,-26.11779,467.3516],[-64.47712,-26.18073,405.5733],[-64.47916,-26.18636,405.9914],[-64.48634,-26.22021,409.4381],[-64.48278,-26.29126,385.9114],[-64.48502,-26.31974,394.7719],[-64.52125,-26.42583,393.8759],[-64.52327,-26.43746,389.5728],[-64.52404,-26.44655,387.5872],[-64.50745,-26.54903,350.7803],[-64.49911,-26.62282,330.0078],[-64.49859,-26.65982,322.8346],[-64.50063,-26.6776,314.2129],[-64.50554,-26.68349,315.1022],[-64.56897,-26.67419,347.2726],[-64.58145,-26.67651,353.1707],[-64.58848,-26.68803,349.9423],[-64.61639,-26.78157,332.4535],[-64.62207,-26.79185,329.7977],[-64.62776,-26.79743,329.0521],[-64.6329,-26.79914,329.9197],[-64.64486,-26.801,332.2014],[-64.65889,-26.80064,332.4008],[-64.66649,-26.80131,334.4626],[-64.67437,-26.80482,334.2117],[-64.68039,-26.81841,332.469],[-64.6938,-26.86487,320.0785],[-64.72811,-26.98755,359.6313],[-64.74325,-27.01525,348.5714],[-64.74857,-27.01701,347.6637],[-64.75475,-27.02011,352.5497],[-64.76134,-27.02553,357.077],[-64.77018,-27.03613,363.1797],[-64.77563,-27.04595,370.7371],[-64.77899,-27.0538,378.9774],[-64.79327,-27.11095,395.9733],[-64.80521,-27.15379,373.384],[-64.83539,-27.22294,403.1573],[-64.85353,-27.24511,375.5122],[-64.85787,-27.25157,368.5315],[-64.87983,-27.30919,311.6834],[-64.88665,-27.3189,307.1366],[-64.89324,-27.32443,305.7209],[-64.91717,-27.32805,305.9951],[-64.92719,-27.3342,317.6261],[-64.94029,-27.34536,326.1473],[-64.98763,-27.39781,283.812],[-65.00213,-27.40789,284.6008],[-65.06359,-27.47238,279.5183],[-65.06036,-27.476,277.7688],[-65.04411,-27.48535,273.2789],[-65.02882,-27.48969,274.2135],[-65.01101,-27.49264,273.4816],[-64.9914,-27.50039,272.0],[-64.97257,-27.51134,272.0],[-64.96959,-27.51372,272.0],[-64.96882,-27.51977,272.0],[-64.96954,-27.52209,272.0],[-64.97171,-27.52736,272.0],[-64.9837,-27.54576,272.0],[-64.99073,-27.55377,272.0],[-64.99435,-27.55708,272.0],[-65.00386,-27.56359,272.0],[-65.00791,-27.56571,272.0],[-65.013,-27.56757,272.0],[-65.01866,-27.56891,272.0],[-65.02502,-27.56943,272.0],[-65.04644,-27.56757,272.0],[-65.05326,-27.57015,272.0],[-65.05835,-27.57299,272.0],[-65.06941,-27.60069,272.0],[-65.06827,-27.62374,272.0],[-65.02827,-27.71159,297.8594],[-65.00104,-27.76409,344.6469],[-64.99915,-27.77815,353.2193],[-65.00096,-27.77877,354.7133],[-65.00422,-27.77913,349.2274],[-65.01626,-27.77784,338.1923],[-65.02393,-27.78171,335.0099],[-65.0313,-27.7904,333.5324],[-65.06005,-27.87008,368.4832],[-65.06918,-27.88651,364.3587],[-65.07261,-27.88972,365.9334],[-65.08124,-27.89489,357.2364],[-65.0915,-27.89907,353.1778],[-65.10297,-27.90135,346.8013],[-65.11385,-27.90129,345.9529],[-65.13023,-27.8983,348.4048],[-65.13728,-27.89768,349.2968],[-65.14333,-27.89825,351.2101],[-65.15509,-27.9015,355.9416],[-65.16909,-27.90967,361.6067],[-65.0791,-28.2746,469.6862],[-65.07222,-28.42405,398.9168],[-65.07827,-28.48152,386.7158],[-65.09067,-28.50627,375.235],[-65.10323,-28.52151,370.2709],[-65.12674,-28.54461,367.451],[-65.1407,-28.56301,359.2462],[-65.15227,-28.58689,350.3341],[-65.15886,-28.59154,347.3353],[-65.17563,-28.59893,345.2372],[-65.17927,-28.60415,345.3894],[-65.18067,-28.60988,339.804],[-65.18,-28.64507,336.0392],[-65.17888,-28.65034,335.4948],[-65.1763,-28.65448,334.2091],[-65.17271,-28.65618,331.6879],[-65.16436,-28.65794,329.7314],[-65.12251,-28.67866,321.6295],[-65.10225,-28.69489,317.5762],[-65.0985,-28.70078,316.6283],[-65.0962,-28.70621,314.0146],[-65.09258,-28.72135,311.705],[-65.07507,-28.91772,263.5322],[-65.0793,-29.00014,256.2814],[-65.03543,-29.29268,242.5428],[-64.99197,-29.38503,195.0587],[-64.92696,-29.48606,181.6384],[-64.91753,-29.50559,180.3209],[-64.91461,-29.51024,180.2252],[-64.90391,-29.53169,179.127],[-64.88247,-29.55711,178.3506],[-64.5905,-29.49153,120.5799],[-64.40325,-29.44849,117.3295],[-64.29408,-29.42513,114.5],[-64.25375,-29.4243,135.3585],[-64.05841,-29.46926,420.6998],[-64.04906,-29.47303,431.8798],[-64.04446,-29.47789,417.1846],[-64.04384,-29.48905,403.0872],[-64.04554,-29.51365,412.2295],[-64.04867,-29.52569,413.3232],[-64.04185,-29.53453,432.0927],[-64.02759,-29.54517,460.6572],[-63.95317,-29.58036,571.1114],[-63.94976,-29.58419,611.1801],[-63.93974,-29.59917,587.2826],[-63.93268,-29.6062,633.8858],[-63.92578,-29.60946,633.5516],[-63.86235,-29.62041,630.5535],[-63.85238,-29.62377,630.2798],[-63.84734,-29.62718,626.1559],[-63.83581,-29.63664,609.4252],[-63.82434,-29.64388,608.4267],[-63.81576,-29.64734,617.1588],[-63.80765,-29.64977,607.2859],[-63.74812,-29.65411,625.8298],[-63.72856,-29.65349,597.8836],[-63.61074,-29.63716,485.4192],[-63.59609,-29.63855,378.4402],[-63.52439,-29.65876,290.3011],[-63.51503,-29.65943,276.427],[-63.47834,-29.65209,223.3222],[-63.4693,-29.65276,212.2483],[-63.46271,-29.65524,203.6327],[-63.45948,-29.65927,199.4776],[-63.45777,-29.66418,199.1683],[-63.45708,-29.66987,196.6725],[-63.45731,-29.67597,196.3601],[-63.46173,-29.70211,195.0462],[-63.46155,-29.70826,186.9616],[-63.4579,-29.71431,183.7679],[-63.44896,-29.7171,167.1219],[-63.41357,-29.72118,138.2901],[-63.403,-29.72439,133.2944],[-63.39633,-29.72852,129.1178],[-63.3946,-29.73338,127.2864],[-63.39372,-29.73896,124.7214],[-63.39354,-29.75751,122.3504],[-63.39264,-29.76351,122.98],[-63.38742,-29.76924,116.9113],[-63.38406,-29.77131,115.9845],[-63.36282,-29.77348,103.0308],[-62.79252,-29.77622,78.8548],[-62.45187,-29.77234,75.2991],[-62.28816,-29.77674,74.7126],[-62.24258,-29.80562,74.9077],[-62.08713,-30.15661,88.5149],[-61.99885,-29.66517,81.1397],[-61.95141,-29.40146,74.3161],[-61.86549,-28.91689,80.5487],[-61.76995,-28.35739,78.9291],[-61.70995,-28.00041,75.3548],[-61.70964,-27.81127,119.3503],[-61.70938,-26.79382,157.3131],[-61.70933,-26.26026,148.7463],[-61.71052,-26.14657,152.3472],[-61.72233,-25.74416,160.4494],[-61.75387,-25.66143,162.802],[-63.39858,-25.65936,266.43]]]}}