{"type":"Feature","properties":{"featurecla":"River","scalerank":8,"rivernum":767,"dissolve":"767River","name":"Dulce1","name_alt":null,"note":null,"min_zoom":7.0,"strokeweig":0.2,"name_en":"Dulce","min_label":8.0},
"geometry":{"type": "LineString","coordinates": [[-65.245849609375,-26.540557550005886,640.7195],[-65.248339843749989,-26.551299737505886,658.122],[-65.276318359375,-26.566729425005889,668.6912],[-65.288134765624989,-26.589873956255886,721.0136],[-65.285498046874991,-26.617705987505886,730.5834],[-65.27001953125,-26.64617278438088,754.7563],[-65.260302734374989,-26.65569426875588,719.8053],[-65.238037109375,-26.670440362505886,653.0443],[-65.228369140624991,-26.67962005000588,623.402],[-65.220629882812489,-26.693389581255886,604.071],[-65.207690429687489,-26.741241143755886,562.7695],[-65.184375,-26.795733331255889,461.4978],[-65.180273437499991,-26.81487395625588,433.3813],[-65.181689453124989,-26.83464934688088,428.0746],[-65.290869140624991,-27.09612395625588,345.2979],[-65.3134765625,-27.13567473750588,334.8875],[-65.3291015625,-27.178057550005889,328.7576],[-65.327197265624989,-27.223467706255889,318.5695],[-65.318359375,-27.24260833125588,314.6692],[-65.303881835937489,-27.26238372188088,310.6305],[-65.286376953125,-27.27800872188088,307.4028],[-65.2685546875,-27.28435637813088,307.2297],[-65.254248046874991,-27.29485442500588,308.7319],[-65.157177734375,-27.413604425005886,287.9347],[-65.129492187499991,-27.436358331255889,283.6896],[-65.044238281249989,-27.485381768755886,275.6427],[-65.02890625,-27.489776300005886,274.2135],[-65.011157226562489,-27.492705987505886,273.4816],[-64.991503906249989,-27.50042083125588,272.0],[-64.972705078124989,-27.51140715938088,272.0],[-64.957275390625,-27.52385833125588,272.0],[-64.951416015625,-27.532745050005886,272.0],[-64.948535156249989,-27.541045831255886,272.0],[-64.94296875,-27.547393487505886,272.0],[-64.929296874999991,-27.55120208125588,272.0],[-64.918066406249991,-27.548663018755889,272.0],[-64.898364257812489,-27.53411223750588,272.0],[-64.891772460937489,-27.53069426875588,272.0],[-64.876074218749991,-27.52678801875588,266.3209],[-64.833984375,-27.50872161250588,276.318],[-64.812597656249991,-27.50335051875588,279.4712],[-64.727294921875,-27.50335051875588,254.6897],[-64.716723632812489,-27.498077081255886,251.6918],[-64.703710937499991,-27.47454192500588,250.8143],[-64.693164062499989,-27.469268487505886,254.7596],[-64.681884765625,-27.466338800005886,251.4634],[-64.659472656249989,-27.453155206255886,234.8152],[-64.648779296874991,-27.44939544063088,232.5575],[-64.602709960937489,-27.456866143755889,229.2528],[-64.55322265625,-27.48064544063088,223.9931],[-64.508642578124991,-27.51091887813088,221.0773],[-64.477465820312489,-27.53753020625588,213.4655],[-64.468505859375,-27.549834893755886,215.2642],[-64.4560546875,-27.57708098750588,212.4829],[-64.446386718749991,-27.589385675005886,219.1494],[-64.434985351562489,-27.59783294063088,208.5953],[-64.401708984374991,-27.61321380000588,204.0],[-64.388964843749989,-27.626788018755889,205.176],[-64.362158203124991,-27.664092706255886,198.4561],[-64.34716796875,-27.675323175005886,193.6196],[-64.353930664062489,-27.675323175005886,197.6335],[-64.3310546875,-27.687334893755889,197.7936],[-64.301513671875,-27.733428643755886,190.2789],[-64.288427734374991,-27.74358489375588,187.974],[-64.269677734375,-27.753252862505889,188.8382],[-64.222900390625,-27.795440362505886,182.7336],[-64.191821289062489,-27.814776300005889,178.8823],[-64.179443359375,-27.837725518755889,180.9748],[-64.148974609374989,-27.923858331255886,163.5538],[-64.145117187499991,-27.929229425005886,169.9105],[-64.13251953125,-27.93059661250588,168.5322],[-64.11962890625,-27.93401458125588,169.1295],[-64.108251953124991,-27.93840911250588,167.7864],[-64.10009765625,-27.94280364375588,167.558],[-64.105566406249991,-27.95598723750588,160.8114],[-64.100830078125,-27.962920831255886,161.6475],[-64.092333984374989,-27.968291925005886,165.3727],[-64.08642578125,-27.97698333125588,163.1841],[-64.086767578124991,-27.987823175005886,162.5574],[-64.091650390624991,-27.992998956255889,161.8515],[-64.097412109375,-27.995928643755889,162.3586],[-64.10009765625,-28.000518487505886,155.8064],[-64.105224609375,-28.002276300005889,162.7245],[-64.127001953124989,-28.01482512813088,159.9968],[-64.130786132812489,-28.01799895625588,160.3254],[-64.140966796874991,-28.022295831255889,160.7747],[-64.138476562499989,-28.03167083125588,159.5642],[-64.13134765625,-28.04094817500588,159.3373],[-64.12744140625,-28.04461028438088,160.0471],[-64.10693359375,-28.07878997188088,154.2817],[-64.103564453124989,-28.09148528438088,153.5446],[-64.11376953125,-28.17449309688088,150.4286],[-64.10693359375,-28.196123956255889,148.0381],[-64.07177734375,-28.259600518755889,143.2837],[-64.047167968749989,-28.293780206255889,140.8224],[-64.017578125,-28.326495050005889,137.2333],[-63.985595703125,-28.348467706255889,134.3338],[-63.867358398437489,-28.39470794063088,129.1709],[-63.830175781249991,-28.41790130000588,127.754],[-63.77587890625,-28.460772393755889,124.5118],[-63.755859375,-28.470049737505889,121.9193],[-63.7375,-28.48211028438088,119.6766],[-63.72333984375,-28.50457122188088,122.4475]]}}