{"type":"Feature","properties":{"GID_1":"ARG.22_1","GID_0":"ARG","country":"Argentina","state":"SantiagodelEstero","VARNAME_1":"NA","NL_NAME_1":"NA","TYPE_1":"Provincia","ENGTYPE_1":"Province","CC_1":"NA","HASC_1":"AR.SE","ISO_1":"AR-G","name":"SantiagodelEstero.state"},
"geometry":{"type": "MultiPolygon","coordinates": [[[[-63.122,-29.7914,81.0816],[-62.7836,-29.8148,78.2032],[-62.7883,-29.8182,77.1938],[-62.7995,-29.822,77.9892],[-62.8064,-29.8272,77.8228],[-62.8097,-29.8316,77.7874],[-62.8107,-29.8422,77.572],[-62.8079,-29.8497,77.5321],[-62.8031,-29.8566,77.2612],[-62.8024,-29.8698,77.1526],[-62.799,-29.8772,77.1362],[-62.7948,-29.8809,76.9416],[-62.7862,-29.8837,76.5785],[-62.7842,-29.8913,76.39],[-62.7693,-29.9081,76.0585],[-62.7662,-29.9155,75.8488],[-62.7657,-29.9342,76.3761],[-62.7635,-29.9392,75.6651],[-62.7256,-29.9543,75.0573],[-62.716,-29.9709,74.7167],[-62.7027,-29.9766,74.7676],[-62.7022,-29.9819,74.0947],[-62.6955,-29.9871,74.3002],[-62.6815,-30.0137,74.1949],[-62.6693,-30.0285,73.7438],[-62.6611,-30.0311,73.7436],[-62.6557,-30.0375,73.621],[-62.6464,-30.0441,73.4586],[-62.6378,-30.0459,73.2732],[-62.6367,-30.0512,73.4715],[-62.628,-30.0531,73.1073],[-62.6181,-30.059,73.0826],[-62.6097,-30.0575,73.1285],[-62.6011,-30.0598,72.8582],[-62.5866,-30.0587,72.6353],[-62.5814,-30.061,72.3681],[-62.5723,-30.0609,71.5],[-62.5657,-30.072,71.5],[-62.5661,-30.0767,72.3507],[-62.5599,-30.0823,72.4736],[-62.561,-30.0927,72.414],[-62.5554,-30.1035,71.7763],[-62.5581,-30.1083,72.2001],[-62.5627,-30.1111,71.9536],[-62.57,-30.1252,71.9254],[-62.5714,-30.1329,72.1116],[-62.5764,-30.1424,72.0767],[-62.5865,-30.1457,72.1455],[-62.58,-30.1548,71.6699],[-62.5815,-30.157,71.8411],[-62.5848,-30.1569,71.873],[-62.586,-30.1588,71.8887],[-62.5873,-30.1641,71.896],[-62.5906,-30.1684,70.0],[-62.5893,-30.1736,71.3148],[-62.5925,-30.1769,71.4811],[-62.5825,-30.1837,71.2512],[-62.5788,-30.1801,71.0424],[-62.5748,-30.1866,70.772],[-62.5784,-30.1909,71.9315],[-62.575,-30.1947,71.7829],[-62.5789,-30.1988,71.7735],[-62.5788,-30.204,71.6294],[-62.5862,-30.2081,70.5],[-62.5874,-30.2104,70.5],[-62.584,-30.2145,71.8663],[-62.5853,-30.2197,71.7979],[-62.5845,-30.2224,70.9293],[-62.5847,-30.2245,70.0],[-62.5895,-30.2272,71.8021],[-62.5837,-30.2332,71.9017],[-62.5815,-30.238,71.7962],[-62.588,-30.2435,69.9918],[-62.5828,-30.2496,70.9314],[-62.583,-30.2575,70.8964],[-62.5801,-30.2729,70.0],[-62.5778,-30.2746,70.3544],[-62.5689,-30.2761,68.0478],[-62.5664,-30.2862,67.5],[-62.563,-30.2905,67.5],[-62.5437,-30.3027,67.5],[-62.5374,-30.3117,67.5],[-62.5274,-30.3169,67.5],[-62.522,-30.3263,68.0699],[-62.1891,-30.326,69.4399],[-62.1773,-30.3304,71.5522],[-62.1626,-30.3791,88.2076],[-62.1261,-30.479,94.0286],[-62.107,-30.3697,92.3876],[-62.004,-29.7172,82.4534],[-61.9231,-29.2308,75.2459],[-61.8559,-28.8394,79.9748],[-61.7172,-27.9939,82.8649],[-61.7136,-26.8442,157.3954],[-61.7106,-26.3316,147.4475],[-61.7111,-26.0708,156.7757],[-61.7099,-25.9614,156.8953],[-61.7123,-25.6555,160.6295],[-63.0536,-25.6549,241.1752],[-63.4276,-25.6519,267.316],[-63.4754,-25.7097,266.3467],[-63.5,-25.7082,266.8383],[-63.5281,-25.7092,268.4659],[-63.5914,-25.7076,271.0677],[-63.6017,-25.7058,273.7849],[-63.6451,-25.6927,276.9377],[-63.6693,-25.6888,279.5218],[-63.7353,-25.6975,283.2481],[-63.7705,-25.698,282.5378],[-63.8123,-25.7027,284.9214],[-63.8695,-25.7037,285.8663],[-63.9318,-25.7073,291.5323],[-63.9704,-25.7058,292.4158],[-64.0087,-25.7005,297.7626],[-64.0292,-25.696,304.1174],[-64.0323,-25.7014,304.3582],[-64.0344,-25.7144,304.1448],[-64.0427,-25.7435,309.3081],[-64.0444,-25.7623,307.6122],[-64.2063,-25.7488,379.8253],[-64.2134,-25.7315,384.6985],[-64.2873,-25.7202,453.0634],[-64.4108,-25.9976,444.6272],[-64.4536,-26.0739,671.8126],[-64.4291,-26.1048,513.3732],[-64.4728,-26.1844,409.5289],[-64.4935,-26.2335,408.1919],[-64.4828,-26.272,390.8788],[-64.4787,-26.3001,386.1194],[-64.4803,-26.3106,388.1106],[-64.4783,-26.3198,391.6151],[-64.4975,-26.3393,408.0991],[-64.5203,-26.3573,423.8792],[-64.5229,-26.3744,417.1815],[-64.5233,-26.3928,404.9193],[-64.5301,-26.4215,396.6546],[-64.528,-26.4571,390.6311],[-64.5179,-26.4882,373.0215],[-64.5115,-26.5621,349.4559],[-64.5197,-26.5634,353.6205],[-64.5105,-26.5853,341.3593],[-64.5144,-26.5889,343.4631],[-64.5076,-26.603,338.6],[-64.5146,-26.6233,336.2111],[-64.5014,-26.6837,312.9633],[-64.5948,-26.6645,361.7711],[-64.6229,-26.7981,327.1342],[-64.6772,-26.7905,341.7327],[-64.688,-26.8351,324.0793],[-64.7063,-26.8304,330.1388],[-64.7259,-26.8299,338.3857],[-64.7446,-26.9258,347.2469],[-64.7558,-26.9666,380.2814],[-64.7603,-27.0078,367.6933],[-64.7821,-27.0763,400.9334],[-64.8016,-27.1483,370.4949],[-64.8072,-27.1463,373.8491],[-64.8131,-27.1507,386.5497],[-64.84,-27.2266,394.9721],[-64.8463,-27.2257,387.0942],[-64.8758,-27.3112,313.9286],[-64.9402,-27.3319,327.4712],[-64.9467,-27.3479,320.6119],[-64.9944,-27.3363,296.0408],[-65.0054,-27.3724,288.6203],[-65.0165,-27.4192,281.9129],[-65.0408,-27.4874,274.4802],[-65.031,-27.4951,273.3211],[-65.0234,-27.5044,272.9868],[-65.0138,-27.5065,272.0],[-65.002,-27.5013,272.0],[-64.9743,-27.5201,272.0],[-64.9669,-27.5532,272.0],[-64.9778,-27.5707,272.0],[-64.9855,-27.5741,272.0],[-64.9926,-27.5712,272.0],[-65.0009,-27.5643,272.0],[-65.0118,-27.5611,272.0],[-65.0188,-27.5634,272.0],[-65.0133,-27.5728,272.0],[-65.0168,-27.5766,272.0],[-65.0302,-27.5739,272.0],[-65.0426,-27.5895,272.0],[-64.9596,-27.7596,367.0687],[-65.0144,-27.7712,337.7921],[-65.0494,-27.8722,368.8861],[-65.0872,-27.891,352.0813],[-65.0935,-27.8908,348.9262],[-65.1265,-27.8787,339.5616],[-65.1274,-27.8684,338.2724],[-65.1546,-27.8661,344.0924],[-65.1587,-27.8815,348.7343],[-65.1675,-27.9021,359.4288],[-65.1791,-27.9123,363.3548],[-65.1874,-27.9152,365.3827],[-65.1834,-27.9355,372.8937],[-65.1703,-27.9739,387.0199],[-65.1502,-28.0602,436.7302],[-65.1169,-28.1916,488.1035],[-65.1113,-28.3071,481.2049],[-65.0994,-28.4695,390.3565],[-65.1257,-28.6091,340.959],[-65.1669,-28.6082,341.4133],[-65.1789,-28.6004,345.4722],[-65.1811,-28.6006,345.7687],[-65.1809,-28.6531,333.8315],[-65.1441,-28.6663,326.8273],[-65.1324,-28.7174,317.2568],[-65.0254,-28.7495,296.8826],[-65.003,-28.7712,287.61],[-64.9905,-28.7982,279.4308],[-64.9598,-28.8379,270.7483],[-64.9536,-28.8435,268.0447],[-64.9292,-28.8594,268.9655],[-64.9168,-28.8711,255.9585],[-64.9066,-28.8961,245.9075],[-64.9003,-28.9437,241.3362],[-64.8945,-28.9615,235.2119],[-64.8747,-28.9945,223.7534],[-64.8323,-29.0463,231.953],[-64.8303,-29.0568,234.5575],[-64.8306,-29.0728,234.6532],[-64.8274,-29.0858,235.4079],[-64.8249,-29.1124,217.5459],[-64.8257,-29.1256,221.1127],[-64.8346,-29.1483,226.043],[-64.8474,-29.1663,208.1154],[-64.8524,-29.1761,205.5515],[-64.8539,-29.1839,200.1087],[-64.8528,-29.1999,200.8653],[-64.8586,-29.2206,188.1392],[-64.8852,-29.2654,205.7683],[-64.8903,-29.2807,212.0817],[-64.8892,-29.2886,213.6812],[-64.8835,-29.2949,215.6855],[-64.8781,-29.2969,219.5194],[-64.8659,-29.2979,217.5754],[-64.8518,-29.3035,225.4121],[-64.848,-29.3073,225.6328],[-64.8473,-29.3129,232.4668],[-64.8512,-29.3166,233.9668],[-64.8659,-29.3204,219.5595],[-64.885,-29.3287,207.3819],[-64.8902,-29.3352,204.4347],[-64.8917,-29.3431,199.4365],[-64.8905,-29.351,195.5182],[-64.886,-29.361,191.0149],[-64.8646,-29.3834,181.9166],[-64.8483,-29.412,180.755],[-64.8384,-29.4254,180.1126],[-64.8354,-29.433,179.8702],[-64.8346,-29.4622,179.4432],[-64.8298,-29.4993,179.3168],[-64.8349,-29.5088,178.8746],[-64.8374,-29.5193,178.7101],[-64.8299,-29.5367,180.6759],[-64.8278,-29.563,178.6048],[-64.7368,-29.555,221.001],[-64.6574,-29.544,151.1424],[-64.501,-29.5268,119.0934],[-64.4196,-29.5131,118.1607],[-64.3319,-29.5033,122.794],[-63.9771,-29.546,507.3835],[-63.9623,-29.5781,537.9957],[-63.9625,-29.6172,573.2403],[-63.8926,-29.6177,633.2797],[-63.8653,-29.5698,604.3582],[-63.8508,-29.5664,599.3625],[-63.8072,-29.57,596.1619],[-63.7819,-29.5806,602.941],[-63.7798,-29.5982,598.0062],[-63.8035,-29.604,607.7657],[-63.7729,-29.6411,606.8],[-63.7228,-29.6634,589.4827],[-63.6255,-29.6474,482.6999],[-63.5634,-29.6576,326.9489],[-63.525,-29.6621,284.1893],[-63.5079,-29.6684,262.5669],[-63.4691,-29.6634,212.9691],[-63.4833,-29.7227,202.1023],[-63.4523,-29.7237,172.842],[-63.4506,-29.7492,167.4412],[-63.4519,-29.7759,166.7126],[-63.3383,-29.7765,91.4309],[-63.122,-29.7914,81.0816]]]]}}