{"type": "Feature","bbox": [-59.4149,-27.9993,-58.8111,-27.3311],"geometry": {"type": "MultiPolygon","coordinates": [[[[-59.4086,-27.4645,60.8352],[-59.4149,-27.9546,54.3094],[-59.4123,-27.9991,56.1042],[-58.893,-27.9993,45.104],[-58.8918,-27.9955,44.1325],[-58.8814,-27.9837,40.5],[-58.8777,-27.9768,40.5],[-58.8746,-27.9664,42.8393],[-58.856,-27.9253,41.0],[-58.8541,-27.9156,41.0],[-58.8543,-27.8993,46.782],[-58.8509,-27.8834,41.5],[-58.8431,-27.8687,41.5],[-58.8305,-27.8569,41.5],[-58.825,-27.8472,41.5],[-58.8236,-27.8202,42.0],[-58.8142,-27.8003,42.0],[-58.8111,-27.7843,42.0],[-58.8114,-27.7735,42.0],[-58.8175,-27.7414,42.0],[-58.825,-27.6714,42.5],[-58.8392,-27.6538,42.5],[-58.8532,-27.6297,44.3418],[-58.8625,-27.6229,49.3623],[-58.8777,-27.6058,43.0],[-58.8796,-27.6008,43.0],[-58.8778,-27.5683,47.5918],[-58.87,-27.5536,46.5078],[-58.8688,-27.5484,45.3365],[-58.8733,-27.5271,44.9147],[-58.8802,-27.5182,43.0],[-58.8882,-27.5036,48.4189],[-58.889,-27.4873,47.6092],[-58.8872,-27.4822,43.6861],[-58.8829,-27.4794,43.0],[-58.8878,-27.4732,46.9511],[-58.8908,-27.4615,49.2526],[-58.8891,-27.4528,48.3138],[-58.8824,-27.4438,47.6993],[-58.8676,-27.4316,47.6381],[-58.9867,-27.3311,53.4853],[-59.1226,-27.4557,58.7936],[-59.178,-27.4111,56.3859],[-59.2289,-27.4499,55.8988],[-59.4084,-27.449,61.024],[-59.4086,-27.4645,60.8352]]]]}
,"properties": {"GID_2": "ARG.3.20_1","GID_0": "ARG","country": "Argentina","GID_1": "ARG.3_1","state": "Chaco","NL_NAME_1": "NA","county": "SanFernando","VARNAME_2": "Resistencia","NL_NAME_2": "NA","TYPE_2": "Departamento","ENGTYPE_2": "Department","CC_2": "NA","HASC_2": "AR.CC.SF","name": "SanFernando.county","area_km2": 3563.596,"hist_schema_id": "Elevation0-9000","hist_area_km2": {"25": 0.262,"50": 3496.636,"75": 66.698}}}