{"type": "Feature","bbox": [-60.8662,-31.2172,-60.1331,-29.9034],"geometry": {"type": "MultiPolygon","coordinates": [[[[-60.2379,-30.692,24.4926],[-60.3564,-30.67,21.9795],[-60.3556,-30.6435,22.0836],[-60.3577,-30.6308,21.7776],[-60.3677,-30.614,20.0],[-60.3743,-30.611,20.0],[-60.3841,-30.6026,21.7237],[-60.3823,-30.5896,22.0897],[-60.3801,-30.5837,22.5136],[-60.3631,-30.5713,23.4647],[-60.3594,-30.5657,22.5622],[-60.3603,-30.5401,24.4582],[-60.3575,-30.5275,24.13],[-60.3592,-30.5149,23.6936],[-60.3557,-30.5024,23.8472],[-60.3472,-30.4928,24.1163],[-60.3508,-30.4874,24.4803],[-60.3486,-30.4818,22.6868],[-60.3351,-30.4763,22.4798],[-60.3204,-30.4473,22.9637],[-60.3023,-30.4361,23.249],[-60.2975,-30.4312,28.1674],[-60.2954,-30.425,24.993],[-60.2889,-30.4225,24.8498],[-60.2743,-30.4208,23.6612],[-60.263,-30.4124,24.9938],[-60.2511,-30.3964,24.8963],[-60.237,-30.3669,25.1989],[-60.232,-30.3621,25.1209],[-60.2189,-30.356,25.2798],[-60.2146,-30.3509,25.3154],[-60.2135,-30.3446,25.2486],[-60.2174,-30.3391,23.0],[-60.2179,-30.3328,24.7913],[-60.2143,-30.3143,25.1814],[-60.2197,-30.3098,26.1891],[-60.2227,-30.3042,25.2423],[-60.2211,-30.2979,23.9302],[-60.2229,-30.2852,32.7135],[-60.2162,-30.2738,27.6164],[-60.1965,-30.2648,28.5459],[-60.1906,-30.261,28.8691],[-60.1863,-30.2555,27.4978],[-60.1897,-30.2504,24.0],[-60.1908,-30.2378,25.9619],[-60.1808,-30.2284,30.7493],[-60.177,-30.2231,27.8745],[-60.1725,-30.2112,25.6092],[-60.167,-30.2071,26.1345],[-60.1635,-30.2015,28.4019],[-60.1608,-30.1889,27.0391],[-60.1613,-30.1824,27.2233],[-60.1539,-30.1645,27.0071],[-60.1331,-30.138,27.0754],[-60.136,-30.1351,26.0],[-60.1502,-30.1332,26.0],[-60.1568,-30.1361,26.0],[-60.1683,-30.1525,26.0],[-60.179,-30.1602,26.0],[-60.1931,-30.1635,29.4814],[-60.1997,-30.1607,39.006],[-60.2044,-30.1558,40.4644],[-60.2036,-30.143,47.8289],[-60.1863,-30.1222,29.4798],[-60.191,-30.119,29.9195],[-60.2058,-30.1179,31.8155],[-60.212,-30.1153,33.4023],[-60.2169,-30.1105,34.9276],[-60.225,-30.0997,54.2741],[-60.2303,-30.0746,52.3298],[-60.2325,-30.0683,51.1625],[-60.2368,-30.0634,54.6792],[-60.2499,-30.0572,47.1867],[-60.2642,-30.054,53.3038],[-60.2776,-30.0485,54.9223],[-60.2836,-30.0451,55.8116],[-60.2927,-30.0358,50.6939],[-60.2938,-30.0294,52.255],[-60.2924,-29.9811,55.9356],[-60.3,-29.976,55.8248],[-60.3161,-29.9752,66.5079],[-60.6724,-29.9167,48.6864],[-60.7352,-29.9034,49.9203],[-60.7367,-29.9076,51.1404],[-60.7375,-29.9334,49.665],[-60.7226,-29.9468,48.6653],[-60.7225,-29.9593,48.5733],[-60.716,-29.9713,48.6455],[-60.7156,-29.9768,50.3465],[-60.7224,-29.9803,51.3175],[-60.7297,-29.9816,48.4854],[-60.7354,-29.9856,48.6075],[-60.7428,-29.9862,48.4501],[-60.7409,-29.9911,48.4801],[-60.7351,-29.995,48.4193],[-60.7316,-30.0005,47.6693],[-60.7338,-30.0261,48.0964],[-60.7441,-30.0312,46.9301],[-60.7451,-30.0442,47.0881],[-60.7569,-30.0672,47.3178],[-60.7583,-30.0735,46.7995],[-60.7569,-30.0791,46.5065],[-60.7634,-30.09,46.7851],[-60.7606,-30.0952,46.8363],[-60.7514,-30.103,46.2541],[-60.7394,-30.1262,50.1379],[-60.7236,-30.1388,49.8749],[-60.7191,-30.1439,48.7988],[-60.7169,-30.15,49.3171],[-60.7175,-30.1562,47.0556],[-60.7262,-30.1665,45.6604],[-60.7291,-30.1723,45.1566],[-60.7328,-30.1976,44.5969],[-60.7394,-30.2005,44.6089],[-60.7452,-30.2053,45.2493],[-60.7405,-30.2064,44.6764],[-60.7351,-30.2101,45.0177],[-60.7268,-30.2274,44.0383],[-60.732,-30.2321,42.2119],[-60.7164,-30.2447,44.4306],[-60.7146,-30.2506,46.6175],[-60.7028,-30.2577,45.0739],[-60.6945,-30.2683,47.559],[-60.6804,-30.2664,43.9365],[-60.6741,-30.2693,45.1217],[-60.6697,-30.2746,46.227],[-60.6677,-30.2868,46.3245],[-60.6618,-30.291,44.9988],[-60.6611,-30.3038,42.9717],[-60.669,-30.3144,51.4742],[-60.6699,-30.3208,55.3219],[-60.6677,-30.3399,42.1028],[-60.6653,-30.3456,42.2705],[-60.669,-30.3487,42.2136],[-60.6756,-30.3496,43.887],[-60.6903,-30.3626,42.6298],[-60.6883,-30.3682,40.9613],[-60.6891,-30.38,41.7667],[-60.6956,-30.3824,47.3242],[-60.6951,-30.3861,55.084],[-60.6894,-30.3904,43.5961],[-60.6949,-30.4021,47.7507],[-60.6883,-30.3985,41.4597],[-60.6817,-30.3972,42.0175],[-60.6761,-30.4014,41.1104],[-60.6769,-30.4051,41.0241],[-60.6818,-30.4092,41.0841],[-60.6765,-30.414,40.5617],[-60.6776,-30.4314,40.0078],[-60.6664,-30.4312,40.2315],[-60.6648,-30.4378,41.5004],[-60.6698,-30.4403,38.6066],[-60.6738,-30.4446,38.762],[-60.6695,-30.4502,39.2784],[-60.6673,-30.4563,39.9628],[-60.6674,-30.4619,39.3117],[-60.6632,-30.4662,39.1827],[-60.6641,-30.4728,42.9991],[-60.663,-30.4787,43.6999],[-60.6591,-30.4846,39.9956],[-60.6647,-30.4852,51.0767],[-60.6689,-30.5036,39.3659],[-60.6722,-30.5093,40.1222],[-60.6791,-30.5109,40.5251],[-60.684,-30.5158,40.8463],[-60.69,-30.5179,39.6035],[-60.6942,-30.523,43.7847],[-60.6975,-30.5422,46.7306],[-60.6935,-30.5474,39.3874],[-60.6811,-30.5542,38.9679],[-60.6772,-30.5595,38.4292],[-60.6751,-30.5721,49.1911],[-60.6526,-30.5976,43.4881],[-60.6347,-30.6057,37.4568],[-60.6302,-30.6103,37.5657],[-60.6316,-30.6163,37.1067],[-60.6358,-30.619,37.2637],[-60.6346,-30.632,36.4128],[-60.6295,-30.6368,35.5371],[-60.6302,-30.6499,43.6531],[-60.6238,-30.6507,37.4228],[-60.6209,-30.6628,43.0491],[-60.6172,-30.6684,39.3661],[-60.6102,-30.6709,37.0202],[-60.6109,-30.677,38.2274],[-60.609,-30.6829,40.1838],[-60.6123,-30.6885,36.0868],[-60.6152,-30.7075,36.0949],[-60.6273,-30.7309,35.6337],[-60.6297,-30.7435,35.0917],[-60.6399,-30.7526,33.9491],[-60.6545,-30.7543,35.133],[-60.676,-30.7495,35.2203],[-60.6912,-30.7481,35.8688],[-60.6975,-30.7495,35.2472],[-60.7005,-30.7537,34.5517],[-60.7079,-30.7518,35.1146],[-60.7142,-30.7536,33.866],[-60.7271,-30.7694,33.8791],[-60.7277,-30.7758,33.7415],[-60.7348,-30.7857,33.6844],[-60.7564,-30.8014,33.7076],[-60.7787,-30.8009,33.4359],[-60.793,-30.7864,32.5488],[-60.7994,-30.783,33.7293],[-60.8068,-30.783,38.9169],[-60.8139,-30.7847,38.3552],[-60.8343,-30.8032,32.4685],[-60.8408,-30.8149,31.1415],[-60.8363,-30.8191,32.288],[-60.8303,-30.8291,32.1925],[-60.8246,-30.8323,31.9647],[-60.8213,-30.8381,31.8063],[-60.8204,-30.8444,31.8081],[-60.8045,-30.8635,34.7094],[-60.793,-30.8876,30.9915],[-60.7964,-30.8927,31.5813],[-60.8185,-30.8916,30.6005],[-60.8308,-30.8978,30.0434],[-60.8456,-30.8963,30.4958],[-60.8586,-30.9026,35.2188],[-60.8613,-30.9074,31.1253],[-60.8443,-30.9201,29.9346],[-60.8374,-30.9215,30.8195],[-60.839,-30.9278,30.6489],[-60.8436,-30.9328,31.7823],[-60.8455,-30.9389,29.9892],[-60.8437,-30.9578,29.08],[-60.8485,-30.9624,33.6541],[-60.8443,-30.9802,28.8959],[-60.8518,-30.9886,28.6357],[-60.8651,-30.9948,27.295],[-60.8662,-31.0017,28.5766],[-60.8646,-31.0066,29.5517],[-60.8575,-31.0033,28.8294],[-60.8426,-31.0048,28.6938],[-60.8255,-31.0175,28.9186],[-60.6807,-31.0457,47.486],[-60.6967,-31.1065,38.7426],[-60.5681,-31.1355,21.2064],[-60.5777,-31.1702,18.4036],[-60.5942,-31.1814,17.722],[-60.4731,-31.2172,15.6048],[-60.47,-31.2023,16.1085],[-60.4625,-31.1842,16.7378],[-60.4616,-31.1714,15.3246],[-60.4583,-31.1657,15.1704],[-60.453,-31.1614,15.3556],[-60.4459,-31.1603,14.1714],[-60.4417,-31.1549,15.6738],[-60.4283,-31.1504,14.802],[-60.4231,-31.1459,14.4764],[-60.4162,-31.1433,15.2071],[-60.4026,-31.1468,13.4039],[-60.3974,-31.1424,14.5347],[-60.3908,-31.131,15.8381],[-60.3832,-31.1293,15.2197],[-60.3805,-31.1245,15.0753],[-60.3859,-31.1122,15.4331],[-60.3782,-31.0944,15.2209],[-60.3772,-31.0815,15.9092],[-60.3711,-31.0777,15.4234],[-60.366,-31.0812,16.2801],[-60.3633,-31.0749,16.1238],[-60.366,-31.0687,16.1122],[-60.3582,-31.0579,16.2826],[-60.3459,-31.054,15.6806],[-60.3399,-31.0419,16.5311],[-60.3403,-31.0355,17.1551],[-60.3443,-31.0299,17.1151],[-60.3447,-31.0239,16.9892],[-60.3406,-31.0114,17.3217],[-60.3294,-30.9949,17.1291],[-60.3297,-30.9883,16.8943],[-60.3278,-30.9826,16.3489],[-60.3212,-30.979,16.2917],[-60.3189,-30.9731,16.96],[-60.3183,-30.9665,17.6454],[-60.3213,-30.9613,17.9573],[-60.3204,-30.9549,18.9899],[-60.3154,-30.9431,17.9371],[-60.3144,-30.9366,20.0233],[-60.3069,-30.9257,17.8614],[-60.3051,-30.9194,19.0522],[-60.3059,-30.9131,20.3385],[-60.3007,-30.9009,17.6791],[-60.3044,-30.8975,20.1391],[-60.2967,-30.8876,18.7997],[-60.2915,-30.8688,16.6079],[-60.2921,-30.8625,19.0402],[-60.288,-30.8573,16.7476],[-60.2682,-30.8486,17.731],[-60.2615,-30.8301,19.7452],[-60.2617,-30.8173,17.4565],[-60.2654,-30.8118,18.3494],[-60.2772,-30.8037,20.8241],[-60.2787,-30.7977,21.9195],[-60.2715,-30.7866,21.4262],[-60.2738,-30.7818,21.9362],[-60.2792,-30.778,21.057],[-60.2788,-30.7651,22.6643],[-60.2737,-30.753,22.3457],[-60.2621,-30.7366,24.3936],[-60.257,-30.7182,24.899],[-60.2379,-30.692,24.4926]]]]}
,"properties": {"GID_2": "ARG.21.16_1","GID_0": "ARG","country": "Argentina","GID_1": "ARG.21_1","state": "SantaFe","NL_NAME_1": "NA","county": "SanJusto","VARNAME_2": "NA","NL_NAME_2": "NA","TYPE_2": "Departamento","ENGTYPE_2": "Department","CC_2": "NA","HASC_2": "AR.SF.SJ","name": "SanJusto.county","area_km2": 5589.034,"hist_schema_id": "Elevation0-9000","hist_area_km2": {"25": 1774.334,"50": 3808.715,"75": 5.985}}}