{"type": "Feature","bbox": [-70.9845,-39.9166,-69.863,-39.0386],"geometry": {"type": "MultiPolygon","coordinates": [[[[-70.9705,-39.5429,995.439],[-70.9728,-39.5515,883.9731],[-70.9827,-39.5645,1043.1682],[-70.9844,-39.5693,1211.1805],[-70.9845,-39.5794,1221.311],[-70.9803,-39.5889,1143.5967],[-70.961,-39.6022,1025.755],[-70.9594,-39.6068,1096.4762],[-70.9596,-39.627,1032.0249],[-70.9622,-39.6469,874.405],[-70.9607,-39.6568,829.6265],[-70.9539,-39.6654,971.122],[-70.9261,-39.6785,1083.8538],[-70.9239,-39.6826,1133.8293],[-70.924,-39.6929,1184.4573],[-70.9162,-39.7273,1164.4781],[-70.9166,-39.7373,913.7877],[-70.9222,-39.7464,791.1702],[-70.9266,-39.7501,733.9518],[-70.9486,-39.7612,850.0967],[-70.9518,-39.765,1060.0559],[-70.9506,-39.7701,1097.1055],[-70.9472,-39.7744,846.5099],[-70.9289,-39.7887,1008.1161],[-70.914,-39.8049,1088.1274],[-70.9077,-39.8346,704.9227],[-70.9017,-39.8489,1113.6316],[-70.89,-39.8608,938.4082],[-70.8818,-39.8745,961.1203],[-70.8648,-39.8896,885.7439],[-70.8577,-39.8989,754.1604],[-70.8345,-39.8775,698.9329],[-70.8339,-39.8474,879.5455],[-70.7554,-39.913,976.4203],[-70.7176,-39.8867,1009.1149],[-70.6795,-39.9166,1077.6],[-70.377,-39.6935,1095.5522],[-70.2011,-39.8367,914.1164],[-69.863,-39.585,681.5724],[-70.0415,-39.4429,773.4466],[-69.9005,-39.3375,660.3416],[-69.9135,-39.3324,667.9583],[-69.9279,-39.3225,676.8206],[-69.9615,-39.3076,678.6364],[-69.9695,-39.2997,693.1676],[-69.9794,-39.2932,726.9422],[-69.9853,-39.2914,732.6447],[-70.0046,-39.2912,747.1417],[-70.0378,-39.2758,794.3917],[-70.0518,-39.2654,815.8591],[-70.055,-39.2555,825.3759],[-70.0592,-39.2526,822.08],[-70.0717,-39.2491,860.639],[-70.0758,-39.2397,810.9399],[-70.0861,-39.227,906.621],[-70.1015,-39.2181,881.1606],[-70.1156,-39.2077,825.9926],[-70.1212,-39.2055,831.2249],[-70.1405,-39.2038,848.7735],[-70.1727,-39.2036,895.7853],[-70.191,-39.2,867.6204],[-70.2025,-39.2045,933.0957],[-70.2089,-39.2048,945.4019],[-70.2669,-39.2019,928.5489],[-70.2731,-39.2004,926.7795],[-70.2829,-39.1943,999.1487],[-70.3109,-39.1666,1083.8314],[-70.3286,-39.1521,1250.6711],[-70.3391,-39.1394,1225.4044],[-70.3478,-39.1321,1228.9663],[-70.3659,-39.1269,1340.0343],[-70.3786,-39.1258,1198.8705],[-70.4135,-39.1386,1311.9966],[-70.5324,-39.0442,1850.0793],[-70.6262,-39.1128,2205.3013],[-70.6378,-39.1003,1795.5166],[-70.643,-39.0911,1788.3025],[-70.646,-39.0813,1771.9785],[-70.6461,-39.0711,1832.2214],[-70.6771,-39.0756,2331.5732],[-70.6936,-39.0677,1720.7976],[-70.7144,-39.0486,1845.8932],[-70.7299,-39.0389,2124.9531],[-70.7355,-39.0386,2140.7925],[-70.747,-39.0444,2102.72],[-70.7518,-39.0533,2001.6466],[-70.7536,-39.0686,2000.7184],[-70.7521,-39.1488,1854.9238],[-70.7632,-39.167,1875.1201],[-70.7631,-39.1715,1826.6581],[-70.7567,-39.1807,1750.8304],[-70.7564,-39.1958,1826.5354],[-70.7607,-39.2051,1928.9396],[-70.7731,-39.2172,1675.7305],[-70.7757,-39.2215,1780.0613],[-70.7762,-39.2262,1744.1874],[-70.7714,-39.2412,1860.8149],[-70.7603,-39.2594,1757.3246],[-70.7581,-39.2694,1876.679],[-70.759,-39.2797,1994.0793],[-70.7653,-39.2876,2034.8496],[-70.7861,-39.3002,1759.6621],[-70.7971,-39.3128,1588.5276],[-70.8012,-39.3221,1629.7823],[-70.8013,-39.3373,1616.8513],[-70.804,-39.3469,1688.2493],[-70.8285,-39.3767,1452.2429],[-70.8335,-39.3858,1139.072],[-70.8364,-39.3958,1155.6304],[-70.836,-39.4057,1298.5916],[-70.8317,-39.4151,1282.6233],[-70.8219,-39.4283,1336.3997],[-70.8095,-39.4401,1527.5447],[-70.8031,-39.4486,1550.3821],[-70.7987,-39.4589,1541.4263],[-70.7992,-39.4682,1729.0781],[-70.8029,-39.4718,1686.7635],[-70.8147,-39.4776,1731.9421],[-70.8398,-39.4839,1949.5986],[-70.8505,-39.4886,1750.8424],[-70.8569,-39.4972,1556.8918],[-70.866,-39.5163,1528.9265],[-70.8726,-39.525,1660.3286],[-70.8853,-39.5363,1325.3134],[-70.9012,-39.5451,1503.2513],[-70.9196,-39.5496,1261.1523],[-70.9456,-39.551,1069.3],[-70.9705,-39.5429,995.439]]]]}
,"properties": {"GID_2": "ARG.15.3_1","GID_0": "ARG","country": "Argentina","GID_1": "ARG.15_1","state": "Neuquén","NL_NAME_1": "NA","county": "CatánLil","VARNAME_2": "LasColoradas","NL_NAME_2": "NA","TYPE_2": "Departamento","ENGTYPE_2": "Department","CC_2": "NA","HASC_2": "AR.NQ.CL","name": "CatánLil.county","area_km2": 5623.24,"hist_schema_id": "Elevation0-9000","hist_area_km2": {"625": 0.799,"650": 13.047,"675": 73.284,"700": 116.234,"725": 137.181,"750": 139.479,"775": 134.442,"800": 133.108,"825": 146.763,"850": 145.489,"875": 151.251,"900": 150.977,"925": 150.485,"950": 152.218,"975": 152.747,"1000": 160.699,"1025": 200.065,"1050": 218.847,"1075": 270.394,"1100": 262.301,"1125": 238.388,"1150": 206.723,"1175": 192.207,"1200": 174.796,"1225": 154.094,"1250": 142.902,"1275": 131.665,"1300": 115.307,"1325": 102.808,"1350": 94.218,"1375": 80.731,"1400": 71.716,"1425": 68.323,"1450": 68.542,"1475": 70.189,"1500": 62.236,"1525": 62.905,"1550": 59.831,"1575": 56.095,"1600": 50.416,"1625": 45.835,"1650": 41.969,"1675": 37.331,"1700": 34.437,"1725": 31.551,"1750": 27.977,"1775": 26.896,"1800": 23.975,"1825": 22.434,"1850": 20.205,"1875": 19.515,"1900": 19.399,"1925": 18.582,"1950": 16.775,"1975": 16.022,"2000": 14.133,"2025": 12.409,"2050": 12.098,"2075": 9.486,"2100": 9.37,"2125": 8.813,"2150": 7.168,"2175": 6.413,"2200": 4.883,"2225": 4.341,"2250": 3.174,"2275": 2.549,"2300": 2.072,"2325": 1.743,"2350": 1.003,"2375": 1.004,"2400": 0.477,"2425": 0.428,"2450": 0.395,"2475": 0.444,"2500": 0.329,"2525": 0.559,"2550": 0.461,"2575": 0.362,"2600": 0.411,"2625": 0.313,"2650": 0.214,"2675": 0.362,"2700": 0.296,"2725": 0.181,"2750": 0.313,"2775": 0.148,"2800": 0.066}}}