{"type": "Feature","bbox": [-59.7827,-34.423,-59.2729,-33.9999],"geometry": {"type": "MultiPolygon","coordinates": [[[[-59.6805,-34.1694,42.818],[-59.7827,-34.2199,48.0421],[-59.6978,-34.2916,35.5736],[-59.7037,-34.2934,35.6993],[-59.6754,-34.3992,53.3676],[-59.6712,-34.3972,52.6626],[-59.6675,-34.4025,52.2143],[-59.6686,-34.4044,53.1909],[-59.6463,-34.423,55.317],[-59.6219,-34.4013,52.426],[-59.6066,-34.4115,55.4707],[-59.5416,-34.3531,42.2921],[-59.5006,-34.3286,46.6981],[-59.5038,-34.324,44.1238],[-59.4902,-34.315,44.8916],[-59.4844,-34.3188,44.0043],[-59.4691,-34.3084,39.3733],[-59.467,-34.3101,33.9002],[-59.4479,-34.2953,28.7041],[-59.4333,-34.3101,30.8611],[-59.4282,-34.3067,30.8086],[-59.4304,-34.3029,28.4672],[-59.4141,-34.2916,28.5199],[-59.4189,-34.2842,22.3774],[-59.4131,-34.281,24.2062],[-59.4205,-34.2729,19.3984],[-59.4021,-34.2701,20.2069],[-59.3929,-34.2645,18.4888],[-59.3908,-34.2544,34.9167],[-59.3798,-34.2465,17.824],[-59.3839,-34.2297,20.0543],[-59.3777,-34.2139,16.8182],[-59.3703,-34.2028,15.4015],[-59.3663,-34.2009,15.0995],[-59.3385,-34.1766,15.2727],[-59.3334,-34.1761,13.3506],[-59.3274,-34.1701,12.6005],[-59.3204,-34.1686,13.2427],[-59.2818,-34.1501,10.4282],[-59.276,-34.1409,10.1105],[-59.2802,-34.1305,11.3963],[-59.278,-34.1238,18.0288],[-59.2805,-34.1141,13.6401],[-59.2766,-34.1078,10.0816],[-59.2729,-34.0957,9.4921],[-59.2816,-34.0852,7.2005],[-59.2938,-34.0776,9.3621],[-59.3054,-34.065,6.8927],[-59.3063,-34.0495,5.7258],[-59.3144,-34.0155,6.8534],[-59.3203,-34.0044,4.1804],[-59.3286,-33.9999,3.8613],[-59.3249,-34.0177,5.2217],[-59.336,-34.0344,8.6928],[-59.3721,-34.0532,11.2068],[-59.3884,-34.06,18.1659],[-59.4055,-34.0615,19.7565],[-59.3975,-34.0726,20.4183],[-59.467,-34.1364,42.7799],[-59.5149,-34.1015,20.1463],[-59.5149,-34.1049,19.5633],[-59.5193,-34.1093,23.0209],[-59.5265,-34.1228,22.3952],[-59.5355,-34.1315,36.3305],[-59.5415,-34.1399,24.846],[-59.5459,-34.1556,26.2378],[-59.5641,-34.1677,29.1923],[-59.607,-34.174,38.4376],[-59.6274,-34.1706,40.0979],[-59.6376,-34.1597,40.873],[-59.6805,-34.1694,42.818]]]]}
,"properties": {"GID_2": "ARG.1.106_1","GID_0": "ARG","country": "Argentina","GID_1": "ARG.1_1","state": "BuenosAires","NL_NAME_1": "NA","county": "SanAntoniodeAreco","VARNAME_2": "SanAntoniode","NL_NAME_2": "NA","TYPE_2": "Partido","ENGTYPE_2": "Part","CC_2": "NA","HASC_2": "AR.BA.SA","name": "SanAntoniodeAreco.county","area_km2": 870.065,"hist_schema_id": "Elevation0-9000","hist_area_km2": {"0": 17.2307,"25": 403.1768,"50": 449.57,"75": 0.0875}}}