{"type":"Feature","properties":{"featurecla":"River","scalerank":7,"rivernum":520,"dissolve":"520River","name":"Salado","name_alt":null,"note":null,"min_zoom":6.0,"strokeweig":0.15,"name_en":"Salado","min_label":7.0},
"geometry":{"type": "LineString","coordinates": [[-61.53955078125,-34.07439544063088,88.2418],[-61.538989257812489,-34.105987237505886,86.1102],[-61.53466796875,-34.13225676875588,86.0647],[-61.522802734374991,-34.15447356563088,82.876],[-61.499609374999991,-34.173858331255886,81.5],[-61.452319335937489,-34.19768645625588,84.8298],[-61.4365234375,-34.20940520625588,88.2722],[-61.422460937499991,-34.22527434688088,84.5439],[-61.369238281249991,-34.33074309688088,86.0937],[-61.354736328125,-34.351885675005889,78.6196],[-61.331396484374991,-34.36858489375588,78.0212],[-61.3203125,-34.372393487505889,78.0499],[-61.296972656249991,-34.37737395625588,79.7966],[-61.2861328125,-34.38152434688088,76.4295],[-61.272705078125,-34.392608331255886,80.1698],[-61.252197265625,-34.41961028438088,79.5244],[-61.239501953125,-34.42962005000588,75.0],[-61.183154296874989,-34.462725518755889,75.6537],[-61.158203125,-34.48381926875588,77.1814],[-61.138037109374991,-34.508819268755886,78.938],[-61.127978515624989,-34.52971770625588,78.0945],[-61.125732421875,-34.54607512813088,77.6882],[-61.12744140625,-34.582842706255889,77.1998],[-61.120410156249989,-34.608233331255889,74.0],[-61.104101562499991,-34.63152434688088,76.1719],[-61.081298828125,-34.648760675005889,75.3554],[-61.054736328124989,-34.65569426875588,74.5],[-61.037451171874991,-34.65252044063088,76.5208],[-60.947070312499989,-34.60759856563088,72.3498],[-60.91162109375,-34.59661223750588,69.9636],[-60.874853515624991,-34.59246184688088,73.4974],[-60.832617187499991,-34.595245050005886,69.1187],[-60.786230468749991,-34.608916925005886,67.0218],[-60.742602539062489,-34.63469817500588,66.3946],[-60.665771484375,-34.705401300005889,60.5695]]}}