{"type":"Feature","properties":{"featurecla":"River","scalerank":5,"rivernum":192,"dissolve":"192River","name":"Colorado3","name_alt":null,"note":null,"min_zoom":4.7,"strokeweig":0.3,"name_en":"Colorado","min_label":5.7},
"geometry":{"type": "LineString","coordinates": [[-64.9703125,-38.80364348750588,155.3469],[-64.943603515625,-38.818682550005875,140.413],[-64.872241210937489,-38.809600518755886,131.5787],[-64.840576171875,-38.817901300005886,129.3935],[-64.821044921875,-38.81047942500588,136.3215],[-64.542333984374991,-38.852080987505886,98.7498],[-64.471606445312489,-38.853838800005875,111.8073],[-64.146484375,-38.94939544063088,122.5409],[-64.073974609375,-38.987334893755886,88.4303],[-64.057421874999989,-38.993682550005886,76.7548],[-64.010351562499991,-38.99993255000588,74.8669],[-63.994580078125,-39.009795831255886,69.6033],[-63.908300781249991,-39.092315362505886,63.5],[-63.888232421874989,-39.09978606563088,65.5291],[-63.819580078125,-39.112139581255875,64.1086],[-63.782275390624989,-39.128448175005886,61.1035],[-63.768115234374989,-39.13811614375588,57.9334],[-63.754077148437489,-39.149932550005886,62.0729],[-63.728320312499989,-39.18303801875588,58.7386],[-63.711376953125,-39.200225518755886,52.9144],[-63.675634765624991,-39.213213800005875,51.5335],[-63.545166015625,-39.28337981563088,47.5915],[-63.516528320312489,-39.30608489375588,44.9742],[-63.478125,-39.31853606563088,43.9826],[-63.295019531249991,-39.33806731563088,69.5452],[-63.276049804687489,-39.344561456255875,65.8793],[-63.222460937499989,-39.38591887813088,36.7667],[-63.200537109374991,-39.390948175005875,36.0218],[-63.150317382812489,-39.39397551875588,32.7451],[-63.121875,-39.408526300005875,31.0],[-63.098925781249989,-39.41253020625588,32.4731],[-63.089599609375,-39.417315362505875,27.444],[-63.066162109375,-39.43816497188088,28.9316],[-63.05859375,-39.447295831255886,29.964],[-63.053271484374989,-39.45720794063088,28.5536],[-63.050927734374994,-39.46575286250588,28.2878],[-63.04736328125,-39.473663018755886,28.0144],[-63.0380859375,-39.48211028438088,26.5848],[-63.029150390624991,-39.486358331255886,27.7066],[-63.01904296875,-39.488604425005875,26.8381],[-62.901538085937489,-39.49578215938088,32.8463],[-62.87158203125,-39.50774505000588,21.2204],[-62.859960937499991,-39.509307550005886,16.5],[-62.848559570312489,-39.50725676875588,16.5],[-62.8271484375,-39.497881768755875,20.4495],[-62.81591796875,-39.49578215938088,20.452],[-62.789843749999989,-39.49797942500588,18.8921],[-62.72900390625,-39.51677825313088,18.1833],[-62.5859375,-39.53704192500588,14.0001],[-62.544677734375,-39.557159112505886,13.5605],[-62.491796874999991,-39.60369231563088,12.3004],[-62.483203124999989,-39.61614348750588,11.1494],[-62.46845703125,-39.674151300005875,10.2359],[-62.462084960937489,-39.68816497188088,9.0151],[-62.44921875,-39.70086028438088,8.7389],[-62.417529296874989,-39.720538018755875,8.4171],[-62.404589843749989,-39.73357512813088,8.3531],[-62.400732421874991,-39.74114348750588,8.2679],[-62.395751953125,-39.755401300005886,7.9296],[-62.390429687499989,-39.762237237505886,5.3839],[-62.352392578124991,-39.785967706255875,5.7366],[-62.335400390625,-39.800127862505875,3.6634],[-62.325976562499989,-39.805498956255875,4.4187],[-62.3154296875,-39.80974700313088,2.7822],[-62.308764648437489,-39.821807550005886,1.9802]]}}