{"type":"Feature","properties":{"GID_2":"ARG.11.20_1","GID_0":"ARG","country":"Argentina","GID_1":"ARG.11_1","state":"LaPampa","NL_NAME_1":"NA","county":"Toay","VARNAME_2":"NA","NL_NAME_2":"NA","TYPE_2":"Departamento","ENGTYPE_2":"Department","CC_2":"NA","HASC_2":"AR.LP.TO","name":"Toay.county"},
"geometry":{"type": "MultiPolygon","coordinates": [[[[-64.1659,-36.8114,176.8557],[-64.1655,-36.7172,163.9008],[-64.279,-36.7166,127.8952],[-64.2795,-36.6943,139.3122],[-64.3526,-36.6258,205.0971],[-64.497,-36.6249,241.8875],[-64.4909,-36.2681,180.1364],[-65.0479,-36.2622,267.607],[-65.0603,-36.9869,303.0727],[-64.1665,-36.9959,186.9975],[-64.1659,-36.8114,176.8557]]]]}}