{"type": "Feature","id": "1271","bbox": [-73.58804,-52.39075,-65.71301,-45.99941],"geometry": {"type": "Polygon","coordinates": [[[-67.58166,-46.00003,0.0],[-67.58416,-45.99993,0.0],[-68.36688,-45.99941,700.5516],[-69.63329,-45.99962,443.3678],[-71.64495,-45.99941,687.6342],[-71.64916,-45.99941,680.0159],[-71.7235,-46.05765,1011.0709],[-71.73544,-46.07119,1103.3909],[-71.75595,-46.10065,1472.5886],[-71.77016,-46.11264,1653.8936],[-71.79228,-46.12194,1722.7192],[-71.81636,-46.1268,1547.7749],[-71.89052,-46.13341,1926.6699],[-71.90447,-46.1363,1850.4775],[-71.91263,-46.14209,1996.322],[-71.9147,-46.15232,1867.3867],[-71.90948,-46.15666,2139.1494],[-71.90049,-46.15894,1879.2578],[-71.89129,-46.16297,1947.9581],[-71.84292,-46.19615,1742.6294],[-71.78277,-46.22467,1574.3784],[-71.76334,-46.24451,1163.1215],[-71.75926,-46.27294,573.9648],[-71.76293,-46.31852,228.2622],[-71.76158,-46.358,219.5754],[-71.75187,-46.39303,205.5],[-71.6849,-46.51923,205.5],[-71.6805,-46.53814,215.7425],[-71.68577,-46.55385,225.3654],[-71.69322,-46.56915,299.9139],[-71.69554,-46.58713,319.2284],[-71.68019,-46.65958,567.6708],[-71.68717,-46.69007,720.5529],[-71.72019,-46.7156,557.8004],[-71.776,-46.73813,1044.375],[-71.79321,-46.75105,894.9427],[-71.81956,-46.77895,724.9297],[-71.83409,-46.78856,701.7963],[-71.85579,-46.79446,743.0416],[-71.90747,-46.79487,700.1562],[-71.93413,-46.79952,768.9451],[-71.9501,-46.81399,781.6833],[-71.95072,-46.8236,977.1711],[-71.94622,-46.83115,1211.3896],[-71.94002,-46.83828,1307.7755],[-71.93537,-46.84613,1731.3153],[-71.9362,-46.8543,1880.4407],[-71.94183,-46.86091,1607.7095],[-71.94865,-46.86753,1646.8342],[-71.9532,-46.87476,1654.8987],[-71.96963,-46.93398,1793.1989],[-71.97036,-46.94845,2030.0088],[-71.96023,-46.9622,2085.1433],[-71.92669,-46.9838,2110.5496],[-71.9148,-46.99847,2283.5054],[-71.9347,-47.01439,2174.6382],[-71.99997,-47.04219,1509.1934],[-72.00519,-47.06193,1195.8766],[-71.98431,-47.08054,1800.457],[-71.92028,-47.10679,1581.1099],[-71.89346,-47.12136,1092.8992],[-71.87414,-47.14255,700.4852],[-71.86256,-47.1689,648.7834],[-71.86328,-47.1966,695.1594],[-71.8807,-47.22192,703.8423],[-71.91253,-47.23453,636.4337],[-71.94581,-47.22771,608.1436],[-72.00984,-47.19815,1349.9177],[-72.0303,-47.19753,1484.2825],[-72.04146,-47.20373,913.249],[-72.04513,-47.21582,163.4851],[-72.04317,-47.23288,154.5],[-72.03671,-47.24962,154.5],[-72.03056,-47.25965,154.5],[-72.02942,-47.26967,154.5],[-72.03816,-47.28704,154.5],[-72.05795,-47.31194,575.5029],[-72.14538,-47.38181,1567.2288],[-72.17055,-47.40754,1593.8601],[-72.18735,-47.41747,1454.2324],[-72.20915,-47.42026,1242.8494],[-72.26295,-47.41385,762.7375],[-72.28817,-47.41499,648.0991],[-72.32873,-47.42646,817.1513],[-72.34661,-47.436279999999996,764.7389],[-72.36119,-47.45095,661.233],[-72.37049,-47.47452,751.6055],[-72.35829,-47.48341,775.8574],[-72.33752,-47.48795,998.7599],[-72.32088,-47.49839,1236.8733],[-72.31964,-47.51193,1254.1841],[-72.33757,-47.56567,2888.4351],[-72.33995,-47.585209999999996,2729.6172],[-72.34444,-47.60226,2306.5708],[-72.35173,-47.61828,2645.2695],[-72.36284,-47.63502,3228.6533],[-72.4573,-47.74913,1760.6163],[-72.47441,-47.78282,1185.3633],[-72.50045,-47.85289,963.5404],[-72.52422,-47.88266,1071.0437],[-72.54391,-47.9148,1025.9677],[-72.53528,-47.94581,1167.9318],[-72.50945,-47.97299,878.7203],[-72.47746,-47.99376,1087.0945],[-72.45612,-48.0011,914.9933],[-72.43689,-48.0042,1422.0791],[-72.41917,-48.00957,1688.3767],[-72.40258,-48.02415,1303.9076],[-72.39886,-48.03324,1148.9498],[-72.39777,-48.04234,1539.3738],[-72.39545,-48.05092,1247.8076],[-72.38801,-48.05784,1151.8302],[-72.37705,-48.06218,1400.6664],[-72.34305,-48.07045,1163.8232],[-72.33323,-48.09081,1195.1586],[-72.30951,-48.21122,448.8879],[-72.31152,-48.23096,444.08],[-72.32413,-48.26858,603.6398],[-72.32563,-48.28553,674.3052],[-72.31757,-48.29896,659.7277],[-72.30372,-48.31602,796.3093],[-72.29509,-48.33328,1033.5277],[-72.30233,-48.34754,1490.8733],[-72.3154,-48.35033,1687.9586],[-72.34486,-48.34371,1703.7157],[-72.35865,-48.34299,1228.3977],[-72.37142,-48.3464,940.4955],[-72.37715,-48.35033,964.5185],[-72.38868,-48.36428,883.2997],[-72.41674,-48.39115,1499.9296],[-72.43312,-48.40035,926.3135],[-72.49647,-48.41513,861.6403],[-72.53787,-48.43125,358.0372],[-72.57678,-48.45213,267.9417],[-72.61471,-48.51001,825.9056],[-72.6066,-48.56096,789.1982],[-72.58422,-48.61595,940.897],[-72.57802,-48.72188,995.7089],[-72.58215,-48.76054,725.9031],[-72.59233,-48.79113,1391.8375],[-72.61879,-48.81965,946.6299],[-72.67197,-48.86296,253.0],[-72.74292,-48.91381,1344.4946],[-72.78121,-48.93386,904.2354],[-72.82493,-48.9445,940.8144],[-72.92224,-48.95226,1392.9636],[-72.96962,-48.96435,806.94],[-73.00972,-48.99039,315.7669],[-73.01748,-48.99825,328.5532],[-73.01758,-48.99825,328.5532],[-73.07856,-49.05871,1163.4685],[-73.09225,-49.08103,1031.3682],[-73.09509,-49.09581,1532.1906],[-73.09484,-49.10873,1841.3743],[-73.09711,-49.12134,2030.7],[-73.10719,-49.13488,2252.9861],[-73.17132,-49.18935,1415.6233],[-73.18434,-49.21426,1407.5571],[-73.18315,-49.23906,1378.725],[-73.17045,-49.25087,1367.8119],[-73.16258,-49.25818,1355.1454],[-73.09763,-49.26655,1960.6381],[-73.09825,-49.27275,1975.9244],[-73.13065,-49.27875,1400.0449],[-73.14129,-49.28557,1353.8141],[-73.14501,-49.30366,1341.922],[-73.45786,-49.30769,2837.6753],[-73.47112,-49.3172,2116.6484],[-73.47047,-49.34221,2701.2905],[-73.46205,-49.37497,2244.5588],[-73.46673,-49.38758,2195.9424],[-73.4838,-49.4007,2182.8552],[-73.52228,-49.41672,1924.192],[-73.54044,-49.42778,1824.5323],[-73.55114,-49.44401,1590.1536],[-73.55073,-49.46323,1514.798],[-73.54434,-49.4776,1648.7115],[-73.54259,-49.49103,2012.3612],[-73.55594,-49.50809,1950.7573],[-73.58659,-49.53,2270.074],[-73.58804,-49.54054,2439.8032],[-73.57556,-49.55925,2045.8882],[-73.5622,-49.57175,1763.8921],[-73.53295,-49.59397,1422.7966],[-73.52111,-49.60896,1720.9407],[-73.5182,-49.62849,1668.4805],[-73.52809,-49.64441,1904.906],[-73.54073,-49.6595,1621.1517],[-73.54638,-49.67676,1651.1976],[-73.53951,-49.69268,1965.0718],[-73.52478,-49.70601,1981.5317],[-73.49262,-49.72782,1944.8845],[-73.4651,-49.75996,1862.3011],[-73.46298,-49.78714,2188.2236],[-73.48163,-49.81112,2176.4229],[-73.5345,-49.8476,1816.0359],[-73.53884,-49.86155,1860.3135],[-73.53827,-49.87675,1893.0989],[-73.54194,-49.89452,1912.2968],[-73.55398,-49.90806,1927.0979],[-73.5684,-49.92005,1899.6814],[-73.57274,-49.93235,1865.2494],[-73.55445,-49.94713,2520.8804],[-73.50021,-49.97865,2164.4158],[-73.48747,-49.99116,2044.3989],[-73.47859,-50.00945,2042.4135],[-73.48076,-50.02268,2051.4854],[-73.5315,-50.08314,2041.1908],[-73.54148,-50.11374,1972.0553],[-73.53057,-50.14081,2037.0586],[-73.40582,-50.21699,1668.3533],[-73.3651,-50.23197,819.0067],[-73.34635,-50.24365,332.0288],[-73.32294,-50.26835,1163.6033],[-73.30144,-50.29956,1019.1525],[-73.28433,-50.33305,377.0701],[-73.2742,-50.36447,243.1259],[-73.27276,-50.38473,1738.89],[-73.27576,-50.42555,690.2845],[-73.27405,-50.44519,630.2518],[-73.2618,-50.49904,2177.7551],[-73.26185,-50.5566,1658.0902],[-73.25762,-50.57304,1901.4203],[-73.2449,-50.58947,2179.6587],[-73.20268,-50.62647,1709.4919],[-73.19225,-50.64135,1874.6597],[-73.18527,-50.67846,2241.6875],[-73.18672,-50.7167,2366.4731],[-73.17772,-50.74946,1289.2915],[-73.13948,-50.77023,196.0],[-73.09608,-50.77065,1411.9377],[-73.05174,-50.75783,1290.3632],[-73.01009,-50.73644,1066.8473],[-72.93841,-50.68538,505.0626],[-72.90286,-50.66657,899.4323],[-72.77842,-50.61965,792.0244],[-72.75579,-50.61644,888.0805],[-72.73351,-50.6243,976.5251],[-72.68266,-50.65954,938.5641],[-72.66261,-50.66781,1047.5023],[-72.61812,-50.66678,1268.0148],[-72.54913,-50.6151,1277.1578],[-72.50598,-50.60125,1518.6558],[-72.38335,-50.62027,1138.7272],[-72.34522,-50.63732,1393.6815],[-72.32191,-50.64156,1230.9185],[-72.30284,-50.6489,1376.8121],[-72.30491,-50.66492,1234.8436],[-72.34098,-50.71515,1606.8716],[-72.3477,-50.729,1464.8921],[-72.34739,-50.74315,1845.7095],[-72.33814,-50.76062,1629.9633],[-72.31116,-50.78873,1190.3402],[-72.28393,-50.81064,911.8431],[-72.26347,-50.83628,618.3629],[-72.25675,-50.87514,401.1473],[-72.26595,-50.96071,203.5146],[-72.27706,-51.00732,161.9209],[-72.29344,-51.02924,135.7645],[-72.32248,-51.03265,119.4957],[-72.3386,-51.03699,124.7568],[-72.35075,-51.0467,152.5081],[-72.36816,-51.06665,170.1908],[-72.39653,-51.09207,593.5653],[-72.40459,-51.10582,871.3087],[-72.4031,-51.12608,928.3387],[-72.38222,-51.1606,746.2614],[-72.34946,-51.1839,837.9304],[-72.27396,-51.21677,364.6534],[-72.25757,-51.23062,245.5557],[-72.25881,-51.24519,256.6539],[-72.27049,-51.25956,295.5152],[-72.31344,-51.298,549.2559],[-72.32046,-51.31258,484.878],[-72.32331,-51.33449,561.394],[-72.32357,-51.39082,469.9999],[-72.32899,-51.4088,501.8947],[-72.33447,-51.41634,634.6902],[-72.3417,-51.42296,587.9623],[-72.34832,-51.4305,457.631],[-72.35173,-51.44042,386.1834],[-72.35106,-51.44942,382.314],[-72.34909,-51.45903,354.1676],[-72.34832,-51.46833,326.9955],[-72.35121,-51.47598,478.8297],[-72.42232,-51.52238,299.329],[-72.45007,-51.55267,291.8947],[-72.42914,-51.57602,684.8199],[-72.40201,-51.57974,699.5083],[-72.37571,-51.57954,761.2073],[-72.35152,-51.58347,632.6991],[-72.3309,-51.59938,482.1426],[-72.32279,-51.61623,382.6073],[-72.31416,-51.67152,243.4976],[-72.30072,-51.69147,248.0609],[-72.28114,-51.70149,257.8163],[-72.18709,-51.72072,241.1985],[-72.14213,-51.73942,185.5186],[-72.07262,-51.7786,181.0146],[-72.00984,-51.82779,121.8657],[-71.98173,-51.84495,166.7922],[-71.95847,-51.868,169.3617],[-71.9485,-51.896,127.8722],[-71.96023,-51.92794,172.0526],[-71.96524,-51.97063,175.9345],[-71.9177,-51.99006,162.5148],[-71.8376,-51.99078,159.205],[-71.61214,-51.99274,149.1678],[-71.38662,-51.99471,149.0373],[-71.16116,-51.99677,175.7624],[-70.93569,-51.99874,247.7189],[-70.71015,-52.0007,181.734],[-70.48471,-52.00266,167.213],[-70.25925,-52.00463,175.6898],[-70.03376,-52.00659,142.8574],[-69.95275,-52.00742,113.6324],[-69.83333,-52.03935,121.3528],[-69.66393,-52.08473,157.4832],[-69.48529,-52.13248,166.5957],[-69.21226,-52.13795,100.3266],[-69.00757,-52.17909,42.0165],[-68.85866,-52.23324,111.2315],[-68.8205,-52.24317,100.922],[-68.62172,-52.26363,94.7366],[-68.60359,-52.26797,96.5724],[-68.57315,-52.28027,98.8233],[-68.55682,-52.28368,97.7309],[-68.47781,-52.29536,77.8418],[-68.4545,-52.29991,69.5805],[-68.44804,-52.31066,66.8126],[-68.44844,-52.34689,6.1533],[-68.4363,-52.36633,6.3243],[-68.44245,-52.37948,0.0],[-68.43475,-52.39075,4.2308],[-68.41781,-52.38605,6.6729],[-68.40705,-52.37102,6.6727],[-68.39014,-52.35787,5.4558],[-68.36247,-52.33907,7.7452],[-68.35481,-52.32498,51.0261],[-68.36561,-52.3062,0.0],[-68.39792,-52.27523,0.0],[-68.5216,-52.16351,4.5152],[-68.68506,-52.00501,0.6134],[-68.75307,-51.91472,0.0],[-68.82671,-51.80375,0.0],[-68.87316,-51.75897,7.1537],[-68.93593,-51.64552,0.0],[-68.97351,-51.61995,9.9958],[-69.00066,-51.61135,10.7532],[-69.02892,-51.61419,0.0],[-69.05538,-51.62987,3.1602],[-69.09808,-51.65313,4.9943],[-69.18065,-51.68157,0.5],[-69.19896,-51.68662,5.4202],[-69.2189,-51.6867,1.0],[-69.2189,-51.68043,6.0843],[-69.16478,-51.65176,5.4182],[-69.15698,-51.63488,0.5],[-69.20067,-51.62049,5.9818],[-69.30456,-51.59349,4.176],[-69.35299,-51.58837,9.9112],[-69.39872,-51.5926,1.0],[-69.61681,-51.62518,22.3005],[-69.59415,-51.61663,53.5935],[-69.54556,-51.60589,4.6468],[-69.49991,-51.58025,111.6923],[-69.47427,-51.57529,61.3576],[-69.41812,-51.57057,1.0],[-69.38878,-51.55967,1.0],[-69.37719,-51.5569,1.0],[-69.3601,-51.55576,1.0],[-69.28433,-51.55975,26.0874],[-69.17186,-51.59938,0.5],[-69.14753,-51.60329,2.0085],[-69.11962,-51.60475,0.0],[-69.10131,-51.59922,0.0],[-69.06876,-51.57236,10.1628],[-69.0476,-51.56316,5.4133],[-69.01976,-51.56316,0.0],[-68.99942,-51.56927,0.0],[-68.98184,-51.57155,9.637],[-68.96255,-51.56015,79.6897],[-68.95446,-51.5429,71.694],[-68.95621,-51.52223,22.6638],[-68.96373,-51.50075,0.0],[-69.06265,-51.32147,108.1864],[-69.07925,-51.2776,115.3951],[-69.0869,-51.23528,110.1124],[-69.10418,-51.21486,94.3849],[-69.10845,-51.18434,120.6002],[-69.1237,-51.13454,37.3866],[-69.14542,-51.05722,72.3907],[-69.15746,-51.01572,44.2604],[-69.15867,-50.99646,42.7979],[-69.16778,-50.97822,0.0],[-69.19666,-50.98036,34.0448],[-69.22773,-50.99214,0.0],[-69.28808,-51.01577,0.5],[-69.32326,-51.03238,0.7941],[-69.38073,-51.06487,2.7015],[-69.41072,-51.08392,7.1046],[-69.39013,-51.04852,6.3483],[-69.34781,-51.01865,6.4146],[-69.26049,-50.97422,4.1929],[-69.20587,-50.93558,9.848],[-69.15907,-50.91564,4.1488],[-69.1368,-50.90348,0.0],[-69.12806,-50.87806,0.0],[-69.12727,-50.84673,0.0],[-69.13257,-50.784,0.0],[-69.14753,-50.75872,21.5189],[-69.14997,-50.74212,10.1669],[-69.1424,-50.7195,8.3145],[-69.12267,-50.67986,0.0],[-69.07991,-50.60454,0.0],[-69.07652,-50.56017,30.9895],[-69.06005,-50.54134,0.0],[-69.04387,-50.51547,33.7244],[-69.00987,-50.47724,0.0],[-68.98961,-50.45159,0.0],[-68.97508,-50.42891,0.0],[-68.94631,-50.40434,0.0],[-68.89989,-50.36199,0.0],[-68.88094,-50.35276,0.0],[-68.87643,-50.33057,16.2791],[-68.85622,-50.32219,0.0],[-68.84026,-50.32573,0.0],[-68.82552,-50.32413,0.0],[-68.79465,-50.31753,0.0],[-68.79168,-50.30388,0.0],[-68.76733,-50.28868,0.0],[-68.73665,-50.29143,0.0],[-68.61436,-50.25202,0.0],[-68.4381,-50.20078,0.0],[-68.41832,-50.19183,0.0],[-68.3959,-50.17783,121.2397],[-68.3621,-50.16931,0.0],[-68.34987,-50.14881,0.0],[-68.36313,-50.13424,0.0],[-68.39111,-50.12901,0.0],[-68.40298,-50.11698,0.0],[-68.41924,-50.11195,0.0],[-68.44526,-50.10967,0.0],[-68.46666,-50.10013,0.0],[-68.49375,-50.08011,0.0],[-68.5115,-50.06077,5.8796],[-68.51802,-50.03967,7.9928],[-68.51897,-50.02511,10.2916],[-68.51885,-50.01567,11.6498],[-68.53232,-50.00834,7.6622],[-68.55211,-49.99969,106.8667],[-68.5596,-49.97968,13.9014],[-68.56773,-49.97414,26.7616],[-68.58347,-49.97034,21.0184],[-68.60119,-49.97254,35.88],[-68.63899,-49.98431,0.0],[-68.67084,-49.99473,102.424],[-68.71745,-49.98946,28.8249],[-68.76906,-49.98195,55.3595],[-68.80107,-49.98453,51.2718],[-68.82901,-49.98154,25.7134],[-68.84215,-49.98105,8.0424],[-68.85603,-49.98349,11.2818],[-68.88191,-49.99261,48.2576],[-68.91501,-50.01127,52.098],[-68.96996,-50.01377,10.7861],[-68.99299,-50.01523,11.0666],[-68.99804,-50.01491,6.6487],[-69.00837,-50.01556,15.2337],[-69.0135,-50.01523,13.3687],[-69.0135,-50.00775,32.2915],[-68.97492,-49.99188,26.2025],[-68.94597,-49.99123,21.4381],[-68.91334,-49.9811,11.7341],[-68.87538,-49.9625,15.0957],[-68.80357,-49.96831,2.2771],[-68.74299,-49.96415,5.0903],[-68.70145,-49.97039,1.563],[-68.67439,-49.96836,1.0766],[-68.65014,-49.95818,19.8706],[-68.62645,-49.95306,2.4262],[-68.59309,-49.9376,22.3174],[-68.57727,-49.92762,5.3355],[-68.5778,-49.90283,0.0],[-68.59578,-49.85831,2.0049],[-68.63061,-49.81777,7.8889],[-68.65811,-49.78265,9.0752],[-68.66405,-49.76751,9.1359],[-68.67711,-49.75579,8.4669],[-68.73974,-49.72772,12.7304],[-68.71988,-49.7291,13.462],[-68.69579,-49.73561,13.1692],[-68.67223,-49.74578,14.2354],[-68.65404,-49.75791,19.0788],[-68.64127,-49.77459,4.3959],[-68.59467,-49.83463,4.055],[-68.56907,-49.85882,12.485],[-68.54894,-49.89368,5.3093],[-68.54186,-49.91562,6.8781],[-68.52095,-49.94052,5.2052],[-68.48664,-49.95947,9.0375],[-68.46245,-49.98039,9.1017],[-68.44512,-50.00549,14.3948],[-68.4362,-50.03153,0.0],[-68.42195,-50.05119,0.0],[-68.3995,-50.07532,0.0],[-68.37662,-50.08343,5.994],[-68.35192,-50.11053,7.8646],[-68.34187,-50.11761,10.6125],[-68.32828,-50.12021,9.3733],[-68.25837,-50.12465,0.0],[-68.17011,-50.11403,0.0],[-68.07635,-50.08727,0.0],[-67.98217,-50.0432,0.0],[-67.89493,-49.99687,0.0],[-67.83321,-49.95454,0.0],[-67.7989,-49.90984,0.0],[-67.79381,-49.90537,0.0],[-67.78685,-49.89219,0.0],[-67.77172,-49.87086,0.0],[-67.76317,-49.8484,0.0],[-67.73201,-49.7813,46.49],[-67.71254,-49.68555,0.0],[-67.718,-49.67055,0.0],[-67.71355,-49.62966,0.0],[-67.70625,-49.60603,0.0],[-67.70629,-49.56211,70.5831],[-67.70006,-49.53427,71.6259],[-67.67639,-49.46194,0.0],[-67.65665,-49.39471,0.0],[-67.65331,-49.37713,21.1019],[-67.6114,-49.32319,0.0],[-67.60785,-49.28431,27.6935],[-67.60766,-49.26507,-0.1508],[-67.62218,-49.25075,4.7326],[-67.63683,-49.24725,0.0],[-67.64574,-49.25205,0.0],[-67.66321,-49.26715,8.371],[-67.66908,-49.29607,8.4961],[-67.6847,-49.30996,10.7157],[-67.68289,-49.33648,9.9071],[-67.6979,-49.37196,3.1495],[-67.72518,-49.39075,16.7315],[-67.79312,-49.39178,2.0],[-67.81428,-49.39129,2.0],[-67.83251,-49.38543,7.449],[-67.83088,-49.37957,32.0633],[-67.77431,-49.37441,2.5113],[-67.74578,-49.35569,2.0733],[-67.74537,-49.34242,3.6054],[-67.7578,-49.33478,0.4535],[-67.73981,-49.32755,3.6672],[-67.72631,-49.31813,3.3271],[-67.7119,-49.31561,0.0],[-67.70417,-49.30389,0.0],[-67.71068,-49.29372,0.0],[-67.72289,-49.28436,2.0019],[-67.73233,-49.27467,0.0],[-67.7025,-49.26751,4.1552],[-67.67536,-49.24879,0.0],[-67.66834,-49.22404,0.0],[-67.66031,-49.21396,0.0],[-67.65587,-49.20403,0.0],[-67.65014,-49.19598,86.2046],[-67.6317,-49.19061,101.206],[-67.62413,-49.18483,76.9365],[-67.60993,-49.17811,0.0],[-67.61537,-49.16114,8.2355],[-67.6352,-49.15554,13.509],[-67.63256,-49.12998,0.9611],[-67.61543,-49.11811,0.0],[-67.59636,-49.1068,0.0],[-67.58993,-49.08459,3.4333],[-67.57494,-49.04787,0.0],[-67.55655,-49.01582,19.9848],[-67.40574,-48.90424,11.1369],[-67.32184,-48.86735,11.0933],[-67.24781,-48.84565,13.3981],[-67.19828,-48.81835,0.0],[-67.19323,-48.79611,2.9281],[-67.18464,-48.77158,0.0],[-67.14579,-48.74243,0.0],[-67.13675,-48.6928,1.1218],[-67.11435,-48.67375,7.3514],[-67.04413,-48.64424,11.5838],[-66.98692,-48.6117,10.4015],[-66.91548,-48.60426,9.2242],[-66.88977,-48.5959,13.6112],[-66.86644,-48.58983,0.0],[-66.86039,-48.56985,0.0],[-66.85781,-48.54831,13.821],[-66.83828,-48.53957,0.0],[-66.8092,-48.51268,0.6031],[-66.77335,-48.49418,15.5327],[-66.74984,-48.47529,0.0],[-66.69337,-48.45509,0.0],[-66.65099,-48.43108,15.5611],[-66.57623,-48.4239,1.0553],[-66.54497,-48.42397,0.4227],[-66.50106,-48.41399,12.062],[-66.46849,-48.40028,12.1066],[-66.46381,-48.37877,0.0],[-66.46956,-48.36493,0.0],[-66.45157,-48.35508,0.0],[-66.4486,-48.35027,9.4361],[-66.42096,-48.35038,0.0],[-66.38626,-48.35117,6.6462],[-66.35284,-48.35614,1.078],[-66.34111,-48.35272,2.1626],[-66.35499,-48.32122,0.0],[-66.33678,-48.28631,0.0],[-66.31688,-48.26426,14.869],[-66.30085,-48.25189,17.4698],[-66.26481,-48.24278,0.0],[-66.23829,-48.20892,0.0],[-66.2013,-48.19886,-0.0729],[-66.15954,-48.18532,9.1749],[-66.15277,-48.1749,0.0],[-66.14007,-48.16024,-0.1008],[-66.13201,-48.13634,5.6876],[-66.10863,-48.1233,0.0],[-66.09006,-48.11626,0.0],[-66.06153,-48.11013,19.3053],[-66.01521,-48.10647,0.1701],[-65.99008,-48.10721,0.443],[-65.97168,-48.09945,20.5588],[-65.95316,-48.10476,0.0],[-65.94497,-48.1178,5.7378],[-65.91724,-48.11381,0.0],[-65.89769,-48.09446,0.0],[-65.90319,-48.07855,-0.0857],[-65.93748,-48.07169,0.0],[-65.96413,-48.05699,2.5697],[-65.96845,-48.04717,0.0388],[-65.94896,-48.03826,0.0],[-65.94689,-48.0263,0.0],[-65.94042,-48.02093,0.0],[-65.93688,-48.0158,4.9417],[-65.92999,-47.99095,2.1599],[-65.95201,-47.98069,18.1984],[-65.94621,-47.9625,3.7786],[-65.92738,-47.94141,3.797],[-65.89956,-47.93238,2.6811],[-65.84707,-47.94442,0.0],[-65.83674,-47.96299,0.4804],[-65.81245,-47.96033,0.2287],[-65.78633,-47.95339,0.0],[-65.76195,-47.94855,0.0],[-65.77459,-47.94396,0.0],[-65.79512,-47.93593,7.6306],[-65.78815,-47.92531,0.0],[-65.76174,-47.91191,0.0],[-65.79036,-47.90478,6.1089],[-65.82704,-47.89853,0.0],[-65.85341,-47.87959,13.0957],[-65.86721,-47.83508,22.87],[-65.88463,-47.78383,0.0],[-65.90182,-47.76995,13.8667],[-65.92935,-47.76762,7.8347],[-65.97414,-47.76465,15.275],[-66.02257,-47.77099,9.1935],[-66.04937,-47.79186,13.8269],[-66.14444,-47.8282,74.9476],[-66.19978,-47.83807,14.4575],[-66.22411,-47.84271,0.0],[-66.3011,-47.87249,2.2533],[-66.34065,-47.87518,71.1172],[-66.38915,-47.86386,53.2112],[-66.37344,-47.86126,13.2624],[-66.29638,-47.86386,6.5609],[-66.27392,-47.85947,2.7312],[-66.21044,-47.82855,1.0235],[-66.14801,-47.80657,6.4655],[-66.12196,-47.7997,17.4052],[-66.09562,-47.78746,15.1669],[-66.06193,-47.75816,26.5031],[-66.03206,-47.73953,36.5865],[-65.97287,-47.74099,22.7635],[-65.9219,-47.74653,28.9292],[-65.89495,-47.75066,29.3074],[-65.86513,-47.74991,10.9951],[-65.84563,-47.74221,7.3189],[-65.7907,-47.63271,0.0],[-65.76185,-47.56806,0.0],[-65.73567,-47.50954,0.0],[-65.7268,-47.40885,1.9923],[-65.71301,-47.3415,0.0],[-65.72431,-47.30956,0.0],[-65.73774,-47.27758,8.9674],[-65.75536,-47.22345,0.0],[-65.7449,-47.20416,6.895],[-65.79646,-47.17425,0.0],[-65.80582,-47.16806,12.5864],[-65.82408,-47.1533,15.5438],[-65.84738,-47.13969,18.8823],[-65.85806,-47.11341,7.8508],[-65.88116,-47.09656,6.4073],[-65.91929,-47.09392,7.8808],[-65.97956,-47.06618,0.0],[-66.00329,-47.06357,0.0],[-66.0288,-47.06732,0.0],[-66.0858,-47.08261,18.3765],[-66.20049,-47.08959,21.9767],[-66.30428,-47.07379,7.1325],[-66.35823,-47.06699,0.0],[-66.36872,-47.06129,0.0],[-66.38565,-47.05779,0.0],[-66.44066,-47.06129,130.8745],[-66.45678,-47.05836,126.6015],[-66.48933,-47.04502,24.609],[-66.50524,-47.04079,0.0],[-66.52628,-47.04209,0.0],[-66.54703,-47.04648,0.0],[-66.56749,-47.04803,8.5109],[-66.5878,-47.04079,0.0],[-66.6288,-47.05122,8.1631],[-66.66106,-47.03568,14.0643],[-66.69925,-47.03774,6.345],[-66.78645,-47.00661,68.9594],[-66.82457,-46.98138,92.5633],[-66.88305,-46.91872,0.0],[-66.97199,-46.84832,0.0],[-66.98229,-46.84222,0.0],[-66.99022,-46.83904,36.7813],[-66.99983,-46.82488,0.0],[-67.00927,-46.82171,0.0],[-67.02257,-46.82122,19.9198],[-67.03319,-46.81911,12.9913],[-67.0474,-46.79563,0.0],[-67.08211,-46.75709,0.0],[-67.11539,-46.73602,11.1645],[-67.12999,-46.7066,0.0],[-67.15243,-46.69714,0.0],[-67.19364,-46.691,0.0],[-67.23209,-46.67099,0.0],[-67.24606,-46.65162,0.0],[-67.25627,-46.64342,0.0],[-67.28742,-46.63616,0.0],[-67.3365,-46.62519,0.0],[-67.36508,-46.60622,0.0],[-67.42322,-46.56742,16.2046],[-67.51814,-46.43816,12.1598],[-67.54088,-46.4013,37.2619],[-67.5747,-46.32204,0.0],[-67.62247,-46.16375,0.0],[-67.62442,-46.13006,0.0],[-67.62121,-46.09954,0.0],[-67.61351,-46.07187,0.0],[-67.58166,-46.00003,0.0]]]}
,"properties": {"ISO3166-1-Alpha-3": "ARG","country": "Argentina","fill": "#FF0","name": "Santa Cruz","area_km2": 243451.61,"hist_schema_id": "Elevation0-9000","hist_area_km2": {"-75": 181.79,"-50": 197.88,"-25": 197.74,"0": 1821.41,"25": 4881.09,"50": 5688.64,"75": 7299.58,"100": 8678.56,"125": 12253.36,"150": 12145.26,"175": 11905.95,"200": 9553.43,"225": 8809.08,"250": 10496.42,"275": 9622.0,"300": 8569.16,"325": 8463.0,"350": 7519.55,"375": 5534.53,"400": 4623.03,"425": 4922.18,"450": 4194.25,"475": 3886.61,"500": 3685.89,"525": 3768.44,"550": 4210.85,"575": 4614.35,"600": 4567.75,"625": 3967.72,"650": 3788.28,"675": 3615.13,"700": 3799.38,"725": 4589.12,"750": 4490.18,"775": 4566.64,"800": 4116.28,"825": 3469.88,"850": 2723.9,"875": 2397.93,"900": 2220.35,"925": 1948.33,"950": 1808.05,"975": 1620.78,"1000": 1442.47,"1025": 1230.31,"1050": 1117.39,"1075": 1041.93,"1100": 954.0,"1125": 912.01,"1150": 912.41,"1175": 849.55,"1200": 781.41,"1225": 757.02,"1250": 717.9,"1275": 690.54,"1300": 650.96,"1325": 648.9,"1350": 616.32,"1375": 596.96,"1400": 593.45,"1425": 605.14,"1450": 570.54,"1475": 617.53,"1500": 585.98,"1525": 531.63,"1550": 452.39,"1575": 395.33,"1600": 354.03,"1625": 322.46,"1650": 287.77,"1675": 266.53,"1700": 239.54,"1725": 214.36,"1750": 195.63,"1775": 179.69,"1800": 160.13,"1825": 143.0,"1850": 131.0,"1875": 123.91,"1900": 118.4,"1925": 103.15,"1950": 90.83,"1975": 80.36,"2000": 74.27,"2025": 68.48,"2050": 62.85,"2075": 56.74,"2100": 47.75,"2125": 44.03,"2150": 38.23,"2175": 31.17,"2200": 29.17,"2225": 26.96,"2250": 25.41,"2275": 22.85,"2300": 19.6,"2325": 18.4,"2350": 16.41,"2375": 15.06,"2400": 14.9,"2425": 13.34,"2450": 11.25,"2475": 9.97,"2500": 9.01,"2525": 7.78,"2550": 7.54,"2575": 6.76,"2600": 6.04,"2625": 5.59,"2650": 5.16,"2675": 4.85,"2700": 4.45,"2725": 3.59,"2750": 3.55,"2775": 3.49,"2800": 2.62,"2825": 2.66,"2850": 2.3,"2875": 1.97,"2900": 2.22,"2925": 2.22,"2950": 2.0,"3000": 2.28}}}