{"type":"Feature","properties":{"featurecla":"Lake","scalerank":3,"name":"Lago Buenos Aires","name_abb":"L. Buenos Aires","name_alt":null,"note":null,"delta":null,"dam_name":null,"year":-99,"admin":null,"min_zoom":3.0,"min_label":4.0},
"geometry":{"type": "Polygon","coordinates": [[[-71.178713749196547,-46.497349379519335,231.4788],[-71.2047649744477,-46.4888128198325,209.572],[-71.223751460647691,-46.485280450306931,205.5],[-71.235526025732966,-46.484691722052673,205.5],[-71.2474477728818,-46.482042444908473,205.5],[-71.25833924558566,-46.477921347128643,205.5],[-71.267758897653877,-46.471739700458869,206.6353],[-71.2771785497221,-46.461731320136408,226.2915],[-71.2776200959128,-46.457021494102293,205.5],[-71.274823636705037,-46.452900396322434,205.5],[-71.274529272577908,-46.444363836635631,205.5],[-71.276589821467837,-46.432883635677484,205.5],[-71.278503188294181,-46.426996353134854,205.5],[-71.286303837663169,-46.424347075990681,205.5],[-71.3194198019655,-46.424935804244939,207.4959],[-71.343557660390289,-46.429645630279055,205.5],[-71.357245592301908,-46.430528722660426,205.5],[-71.412291684075527,-46.424935804244939,205.5],[-71.437901363135978,-46.418459793448051,205.5],[-71.505016384122,-46.390200837243412,205.5],[-71.527682421911138,-46.384902282955039,205.5],[-71.580520782731284,-46.380781185175181,205.5],[-71.64366188800102,-46.366357342945747,205.5],[-71.6588216405483,-46.356054598496115,233.8206],[-71.6549949068956,-46.338098386741109,205.5],[-71.636891513076989,-46.322497088003104,205.5],[-71.613489564970024,-46.311899979426386,205.5],[-71.582434149557642,-46.304835240375212,205.5],[-71.579637690349884,-46.298359229578324,205.5],[-71.584494698447557,-46.29129449052715,205.5],[-71.59685799178709,-46.286584664493063,214.234],[-71.607455100363822,-46.288645213382978,230.6212],[-71.627766225135915,-46.3027746914853,205.5],[-71.637774605458389,-46.307778881646527,206.3554],[-71.698266433583953,-46.30630706101087,205.5],[-71.727997210424249,-46.309250702282185,218.3077],[-71.740802049954468,-46.325146365147305,219.6151],[-71.7484555172599,-46.347812402936427,205.5],[-71.765970182824233,-46.342513848648082,205.5],[-71.795995323791658,-46.314549256570558,205.5],[-71.821899366979252,-46.30895633815507,205.5],[-71.869586355574583,-46.319259082604674,205.5],[-71.888572841774575,-46.3113112511721,205.5],[-71.904615686703252,-46.298947957832581,359.865],[-71.927428906555946,-46.288350849255835,222.4397],[-71.951861129107883,-46.281580474331804,214.9537],[-71.973496892452062,-46.280403017823289,210.0671],[-71.950830854662925,-46.316904169587616,247.2737],[-71.940086564022607,-46.328384370545763,374.2376],[-71.927134542428817,-46.335743473724051,285.8795],[-71.900641770986965,-46.343102576902339,255.684],[-71.888572841774575,-46.352522228970543,324.0717],[-71.8767982766893,-46.363708065801546,297.6466],[-71.867672988748225,-46.366062978818604,212.643],[-71.809830437766848,-46.3566433267504,294.9999],[-71.7940819569653,-46.356054598496115,324.0379],[-71.781718663625782,-46.362236245165889,373.0204],[-71.7837792125157,-46.381664277556581,205.5],[-71.817631087135837,-46.388729016607755,240.6562],[-71.85678151604435,-46.388729016607755,206.4691],[-71.874443363672256,-46.386668467717811,205.5],[-71.897403765588521,-46.401092309947273,288.2177],[-71.9552463165699,-46.413455603286792,205.5],[-71.981003177693921,-46.423758347736424,205.5],[-72.021772609301649,-46.453194760449577,232.5685],[-72.044438647090786,-46.466441146170496,205.5],[-72.0663687745621,-46.471739700458869,205.5],[-72.087121445524886,-46.47438897760307,525.211],[-72.1094931191869,-46.481159352527072,601.3942],[-72.1300986080861,-46.490284640468161,208.5696],[-72.145405542696949,-46.49940992840925,213.7522],[-72.162331480007026,-46.512361950003054,220.812],[-72.169101854931057,-46.513245042384426,219.4344],[-72.183378515096933,-46.513245042384426,291.3434],[-72.1922094389109,-46.509712672858853,210.7907],[-72.20192345510624,-46.502647933807708,482.7121],[-72.212520563682972,-46.49852683602785,711.1299],[-72.224295128768233,-46.502647933807708,773.2115],[-72.244164707349626,-46.516483047782884,370.5321],[-72.267419473393034,-46.527963248741031,333.6798],[-72.291998878008528,-46.53620544430072,415.4546],[-72.362499086456566,-46.543270183351865,254.5773],[-72.379866569957329,-46.552101107165811,217.785],[-72.401796697428637,-46.5715291395565,283.262],[-72.430202835696846,-46.6030261011596,437.094],[-72.446098498561952,-46.615389394499118,205.5],[-72.4669983515883,-46.623042861804549,205.5],[-72.481275011754192,-46.624514682440207,205.5],[-72.526018359078208,-46.623042861804549,205.5],[-72.5376457420999,-46.620982312914634,205.5],[-72.556926592427033,-46.6115626608464,209.5048],[-72.586510187203757,-46.604203557668114,253.2495],[-72.601081211496776,-46.595961362108426,205.5],[-72.6165353281712,-46.594195177345654,208.6443],[-72.6389070018332,-46.609502111956488,308.0139],[-72.665399773275041,-46.573589688446418,205.5],[-72.673936332961858,-46.471739700458869,205.5],[-72.686741172492091,-46.444363836635631,221.7723],[-72.700281922340153,-46.456138401720892,208.2816],[-72.735311253468822,-46.4690904233147,617.7531],[-72.748116092999041,-46.4785100753829,816.9872],[-72.755475196177343,-46.497349379519335,1140.5559],[-72.750323823952527,-46.512067585875911,800.5769],[-72.724566962828519,-46.536794172554977,305.9107],[-72.723683870447118,-46.54032654208055,332.9042],[-72.726627511718434,-46.551806743038696,499.8561],[-72.727657786163391,-46.557694025581327,449.6066],[-72.725744419337033,-46.563286943996815,504.7064],[-72.72132895743006,-46.565641857013873,471.3016],[-72.716619131395959,-46.566524949395273,341.3722],[-72.713969854251772,-46.567702405903788,290.3903],[-72.709848756471928,-46.588602258930138,543.9949],[-72.707199479327741,-46.595078269727054,689.2058],[-72.697632645195966,-46.609502111956488,372.0131],[-72.686446808364963,-46.622748497677406,230.159],[-72.672758876453344,-46.632462513872753,280.6945],[-72.63272535516343,-46.640999073559584,291.9328],[-72.628898621510714,-46.6533623668991,432.2224],[-72.636552088816146,-46.667786209128565,206.8714],[-72.657157577715367,-46.690157882790572,205.5],[-72.660101218986682,-46.696339529460346,205.5],[-72.6617202216859,-46.702815540257234,205.5],[-72.66613568359287,-46.711940828198323,205.5],[-72.686741172492091,-46.7396110561487,205.5],[-72.7039614739293,-46.74932507234405,205.5],[-72.719562772667274,-46.750502528852564,205.5],[-72.758713201575787,-46.746087066945591,205.5],[-72.774020136186635,-46.74932507234405,205.5],[-72.823767673671881,-46.774051659023087,351.8934],[-72.814789567794364,-46.786120588235491,330.8588],[-72.81111001620522,-46.803488071736268,205.5],[-72.81243465477732,-46.823210468254075,205.5],[-72.820971214464137,-46.853824337475771,205.5],[-72.823031763354052,-46.857356707001372,205.5],[-72.826416950816068,-46.859417255891287,205.5],[-72.841282339236216,-46.871486185103691,205.5],[-72.859827279245508,-46.880905837171895,205.5],[-72.8685110209959,-46.886793119714525,205.5],[-72.887497507195889,-46.919173173699022,684.7976],[-72.89515097450132,-46.990114928337732,209.1004],[-72.919436014989671,-47.012780966126883,205.5],[-72.923409930705958,-47.01837388454237,551.8489],[-72.928266938803631,-47.022789346449372,831.5701],[-72.933859857219133,-47.025438623593544,974.7226],[-72.939894321825335,-47.027204808356345,1014.8246],[-72.9163451916548,-47.0260273518478,1218.8333],[-72.878519401318371,-47.010426053109825,488.8693],[-72.840840793045516,-47.001300765168736,205.5],[-72.832598597485841,-46.98834874357496,469.2162],[-72.8275944073246,-46.97245308070984,330.3316],[-72.81699729874785,-46.958323602607521,219.5578],[-72.8340704181215,-46.935657564818371,227.9431],[-72.838191515901343,-46.907104244486618,205.5],[-72.828183135578854,-46.885321299078868,551.3802],[-72.803309366836231,-46.88384947844321,583.8044],[-72.804781187471889,-46.888264940350183,624.8122],[-72.797274902230029,-46.900333869562587,305.0879],[-72.787708068098254,-46.908576065122276,380.1942],[-72.782851060000581,-46.9006282336897,268.2001],[-72.7806433290471,-46.888559304477326,205.5],[-72.770929312851749,-46.868836907959491,210.9614],[-72.768574399834691,-46.859417255891287,205.5],[-72.7607737504657,-46.838517402864937,319.4344],[-72.741934446329282,-46.837339946356394,603.0623],[-72.699840376149453,-46.849114511441684,210.9975],[-72.662750496130869,-46.835573761593622,511.5154],[-72.62521906992157,-46.80525425649904,251.2574],[-72.55045058163013,-46.725481578046384,212.7825],[-72.541325293689042,-46.721066116139383,211.8958],[-72.526018359078208,-46.719299931376611,214.9657],[-72.516745889073547,-46.716061925978153,211.4775],[-72.501586136526271,-46.701343719621576,238.0183],[-72.4915777562038,-46.698105714223118,259.7463],[-72.467587079842559,-46.696339529460346,294.1187],[-72.4455097703077,-46.691040975171973,222.4411],[-72.425051463472045,-46.682504415485141,400.63],[-72.388697493771275,-46.658366557060361,218.2045],[-72.340863323112387,-46.6115626608464,526.5052],[-72.330119032472069,-46.595372633854168,332.7105],[-72.323643021675181,-46.588307894803023,444.0504],[-72.2894967829279,-46.567702405903788,205.5],[-72.28257922594031,-46.575355873209219,567.8524],[-72.271540571172878,-46.567996770030931,389.0201],[-72.251818174655057,-46.552101107165811,205.5],[-72.24166261226901,-46.547391281131723,205.5],[-72.229740865120178,-46.54621382462318,211.7311],[-72.213550838127929,-46.547391281131723,210.8468],[-72.199274177962053,-46.550923650657296,205.5],[-72.193239713355851,-46.557694025581327,226.5626],[-72.18691088462252,-46.56623058526813,205.5],[-72.17219267826593,-46.568879862412331,205.5],[-72.123622597289213,-46.56534749288673,310.1304],[-72.008673405644288,-46.535027987792176,219.1741],[-71.885334836376117,-46.4785100753829,205.5],[-71.87179408652807,-46.474977705857327,205.5],[-71.857958972552879,-46.47350588522167,205.5],[-71.844859768895518,-46.474977705857327,207.6473],[-71.833526750000942,-46.481748080781358,223.2636],[-71.81586490237305,-46.49940992840925,205.5],[-71.804826247605618,-46.502647933807708,247.603],[-71.792610136329643,-46.495877558883677,261.0995],[-71.781424299498639,-46.491462096976704,205.5],[-71.769208188222677,-46.496171923010792,250.1748],[-71.74816115313277,-46.513245042384426,263.2257],[-71.739624593445953,-46.5220759661984,213.8992],[-71.7363865880475,-46.527963248741031,214.6327],[-71.730499305504864,-46.531789982393747,205.5],[-71.71342618613123,-46.533556167156519,205.5],[-71.700326982473868,-46.532967438902261,206.1231],[-71.673539846904887,-46.527668884613888,206.9642],[-71.6588216405483,-46.526197063978231,205.5],[-71.646899893399464,-46.528257612868146,209.8739],[-71.625116947991728,-46.537677264936377,210.7475],[-71.6140782932243,-46.540032177953407,210.4483],[-71.605247369410336,-46.542681455097608,205.5],[-71.569482127963838,-46.560932030979757,235.2125],[-71.514730400317347,-46.567702405903788,205.5],[-71.445849194568538,-46.585952981785965,205.5],[-71.419209241063129,-46.588307894803023,205.5],[-71.357834320556165,-46.581537519878992,205.5],[-71.346795665788733,-46.583598068768907,205.5],[-71.308675511325177,-46.595078269727054,205.5],[-71.281741193692639,-46.594195177345654,205.5],[-71.210063528736072,-46.581537519878992,205.5],[-71.20358751793917,-46.576238965590619,205.5],[-71.19240168110818,-46.550040558275896,205.5],[-71.185925670311278,-46.540032177953407,205.5],[-71.162965268395013,-46.539443449699149,205.5],[-71.14971888267408,-46.535027987792176,205.5],[-71.1448618745764,-46.520015417308457,205.766],[-71.15560616521671,-46.508535216350339,209.2456],[-71.178713749196547,-46.497349379519335,231.4788]]]}}