{"type": "Feature","bbox": [-73.159637142729125,-49.165465827840791,-72.24166261226901,-48.39069944523024],"geometry": {"type": "Polygon","coordinates": [[[-72.791681983814527,-48.6915395831588,253.0],[-72.789768616988184,-48.681531202836311,253.0],[-72.789768616988184,-48.596165605968139,253.0],[-72.794772807149414,-48.505501454811565,253.0],[-72.806988918425375,-48.461935563996093,253.0],[-72.837455605583514,-48.431910423028654,311.3505],[-72.849671716859476,-48.429261145884482,471.6235],[-72.878960947509071,-48.426317504613166,253.0],[-72.889263691958675,-48.421607678579051,253.0],[-72.89971361847185,-48.406889472222474,267.7558],[-72.906631175459452,-48.400413461425558,734.6711],[-72.9163451916548,-48.397764184281385,817.7296],[-72.959911082470285,-48.409244385239532,253.0],[-72.981252481687335,-48.408655656985246,253.0],[-72.994498867408254,-48.39069944523024,611.1465],[-73.001269242332285,-48.410421841748047,257.5027],[-72.972274375809818,-48.428083689375939,705.2433],[-72.9313577621385,-48.4407413468426,841.1725],[-72.902362895616037,-48.445451172876716,893.8174],[-72.872632118775741,-48.453693368436404,567.7991],[-72.857325184164893,-48.474298857335612,1173.8765],[-72.837455605583514,-48.527873128473573,769.0726],[-72.846139347333889,-48.539647693558862,920.5777],[-72.849230170668775,-48.554071535788296,1062.2048],[-72.848052714160247,-48.569378470399158,980.2869],[-72.843784434316845,-48.583213584374334,1128.5898],[-72.838485880028472,-48.591455779934023,978.4683],[-72.826564132879639,-48.603819073273542,824.9503],[-72.823767673671881,-48.610589448197572,732.5717],[-72.82582822256181,-48.6164767307402,615.3395],[-72.835247874630014,-48.632372393605323,1005.491],[-72.837455605583514,-48.640614589165011,1060.6204],[-72.840104882727687,-48.710378887295207,1070.804],[-72.852173811940091,-48.736871658737073,423.1633],[-72.879108129572643,-48.747174403186676,334.7585],[-72.9201719253075,-48.743347669533961,253.0],[-72.955642802626869,-48.733928017465757,253.0],[-73.068089899191165,-48.687124121251827,253.0],[-73.128876091443857,-48.6812368387092,720.092],[-73.148304123834549,-48.675055192039423,1383.7106],[-73.159637142729125,-48.664458083462677,1268.314],[-73.15374986018648,-48.6915395831588,729.262],[-73.133585917477973,-48.700959235227,269.1195],[-73.077509551259382,-48.698604322209945,258.8845],[-72.994498867408254,-48.747174403186676,829.9843],[-72.983018666450121,-48.7716066257386,592.9508],[-72.9874341283571,-48.793683935273492,1067.9076],[-73.004948793921429,-48.809285234011469,749.407],[-73.032766203935367,-48.815466880681214,481.7861],[-73.0502808694997,-48.816644337189757,729.0954],[-73.063674437284192,-48.82105979909673,1265.2551],[-73.070886358398923,-48.829596358783533,1032.0115],[-73.0701504480811,-48.84284274450448,780.9736],[-73.064410347602021,-48.848730027047111,580.5311],[-73.055579423788075,-48.851673668318426,257.92],[-73.047337228228386,-48.8569722226068,253.0],[-73.043510494575671,-48.870512972454861,253.0],[-73.033354932189638,-48.863153869276545,253.0],[-73.022021913295063,-48.858738407369572,253.0],[-73.012749443290417,-48.86109332038663,253.0],[-73.0089227096377,-48.874045341980434,346.0689],[-73.011571986781888,-48.884053722302895,695.2926],[-73.017900815515219,-48.890824097226925,690.2078],[-73.032766203935367,-48.901421205803672,411.5654],[-73.053813239025288,-48.925264700101337,1060.3723],[-73.07191663284388,-48.95146310741606,1172.502],[-73.074271545860938,-48.958527846467206,1083.3667],[-73.0748602741152,-48.965886949645522,1228.1949],[-73.073682817606667,-48.972951688696668,1417.0558],[-73.0701504480811,-48.9806051560021,1225.8989],[-73.057787154741561,-48.97147986806101,989.7795],[-73.031294383299709,-48.944398368364887,967.9595],[-73.021874731231492,-48.932035075025368,892.4652],[-73.024376826312121,-48.922909787084279,1079.7214],[-73.010100166146231,-48.914078863270333,1009.4485],[-72.974776470890433,-48.8978888362781,253.0],[-72.963590634059429,-48.887291727701353,253.0],[-72.930033123566417,-48.846375114030053,253.0],[-72.901921349425336,-48.829301994656419,253.0],[-72.862770920516837,-48.817527429571157,253.0],[-72.823620491608324,-48.8142894241727,253.0],[-72.795950263657943,-48.822825983859531,281.5985],[-72.793300986513756,-48.829301994656419,267.8088],[-72.791681983814527,-48.849613119428511,859.248],[-72.789768616988184,-48.8569722226068,777.674],[-72.785205973017639,-48.860504592132372,772.7867],[-72.7254500552099,-48.886408635319953,278.0442],[-72.608145950547936,-48.8978888362781,253.0],[-72.59136719530143,-48.903481754693587,295.7435],[-72.587246097521586,-48.915256319778848,349.1705],[-72.595929839271975,-48.925264700101337,307.6506],[-72.617712784679711,-48.925264700101337,302.089],[-72.608587496738636,-48.937333629313741,427.351],[-72.582389089423913,-48.957644754085834,314.8112],[-72.576796171008411,-48.970008047425353,749.9946],[-72.579592630216169,-48.985020617909072,715.9707],[-72.592986198000659,-49.01151338935091,823.6727],[-72.59799038816189,-49.02829214459743,689.2018],[-72.596371385462675,-49.041538530318348,805.0514],[-72.590336920856473,-49.063027111598956,725.2771],[-72.580328540534,-49.079805866845476,505.8727],[-72.566934972749507,-49.079805866845476,366.5582],[-72.561930782588263,-49.066265116997414,375.0575],[-72.572380709101438,-49.0327076065044,356.021],[-72.566934972749507,-49.017989400147826,307.2946],[-72.5539829511557,-49.003565557918364,297.4398],[-72.53617392146424,-48.9779558788579,253.0],[-72.522191625425492,-48.966770042026894,253.0],[-72.5083565114503,-48.959705302975749,253.0],[-72.492755212712325,-48.954995476941633,253.0],[-72.479803191118535,-48.958822210594349,253.0],[-72.474504636830162,-48.976778422349383,253.0],[-72.47524054714799,-48.984726253781929,542.9797],[-72.477595460165048,-48.994440269977275,741.1294],[-72.480833465563492,-49.004154286172621,997.5213],[-72.488634114932481,-49.019461220783484,1316.9869],[-72.486132019851865,-49.026820323961772,1318.5923],[-72.48230528619915,-49.033885063012917,1403.6056],[-72.481275011754192,-49.041832894445491,1119.6726],[-72.487898204614652,-49.055668008420668,1006.0978],[-72.5079149652596,-49.08098332335399,297.3097],[-72.515421250501461,-49.096584622091967,253.0],[-72.503057957161928,-49.131613953220636,290.0425],[-72.45478224031234,-49.148392708467156,253.0],[-72.286847505783726,-49.165465827840791,253.0],[-72.255350544180629,-49.16281655069659,253.0],[-72.24166261226901,-49.148392708467156,253.0],[-72.246225256239555,-49.128964676076464,253.0],[-72.259618824024045,-49.120722480516775,253.0],[-72.309955089763562,-49.110714100194286,253.0],[-72.343071054065874,-49.098056442727625,253.0],[-72.35778926042245,-49.096584622091967,253.0],[-72.370152553761983,-49.092169160184994,253.0],[-72.375745472177485,-49.083043872243906,401.4109],[-72.380013752020886,-49.0736242201757,615.7091],[-72.388403129644146,-49.069208758268729,253.0],[-72.427700740616217,-49.09511280145631,253.0],[-72.451397052850325,-49.102177540507483,253.0],[-72.460816704918543,-49.083043872243906,448.0753],[-72.452574509358854,-49.07509604081136,348.2034],[-72.4191641809294,-49.026231595707515,253.0],[-72.416073357594527,-49.014457030622225,253.0],[-72.391788317106162,-48.972951688696668,253.0],[-72.3838404856736,-48.964415129009836,253.0],[-72.377511656940271,-48.959116574721492,253.0],[-72.369711007571283,-48.955878569323033,253.0],[-72.357053350104621,-48.952640563924575,253.0],[-72.336300679141843,-48.95058001503466,253.0],[-72.316725464687579,-48.95558420519589,254.2959],[-72.3024488045217,-48.968241862662552,1142.6445],[-72.297003068169758,-48.990319172197445,1327.7317],[-72.293029152453485,-48.992968449341618,1255.5909],[-72.284492592766668,-48.98649243854473,968.6578],[-72.276839125461237,-48.974423509332325,535.5375],[-72.27507294069845,-48.959410938848606,318.9876],[-72.2787524922876,-48.948519466144745,345.4047],[-72.2847869568938,-48.9388054499494,253.0276],[-72.293029152453485,-48.931151982643968,262.2809],[-72.30303753277596,-48.925264700101337,267.1771],[-72.328500029772854,-48.922909787084279,253.0],[-72.389286222025547,-48.933212531533883,253.0],[-72.4088614364798,-48.928502705499795,253.0],[-72.4196057271201,-48.924087243592822,253.0],[-72.448159047451881,-48.925853428355595,253.0],[-72.460816704918543,-48.925264700101337,253.0],[-72.470530721113889,-48.921437966448622,253.0],[-72.569289885766551,-48.867569331183518,253.0],[-72.594605200699874,-48.863153869276545,284.9545],[-72.612855776582037,-48.857560950861057,253.0],[-72.6009340294332,-48.844314565140138,253.0],[-72.563108239096792,-48.822825983859531,253.0],[-72.542208386070442,-48.804575407977353,253.0],[-72.528373272095251,-48.797510668926208,253.0],[-72.522191625425492,-48.805458500358753,253.0],[-72.518953620027048,-48.814583788299842,636.5471],[-72.504971323988286,-48.829301994656419,799.6129],[-72.494521397475111,-48.858149679115314,606.3145],[-72.476565185720077,-48.874045341980434,490.2006],[-72.454193512058069,-48.880521352777322,625.9435],[-72.43344084109529,-48.870512972454861,253.0],[-72.447128773006909,-48.858738407369572,253.0],[-72.45478224031234,-48.848141298792854,253.0],[-72.4669983515883,-48.815466880681214,253.0],[-72.4777426422286,-48.79515575590915,253.0],[-72.490841845885967,-48.783969919078146,320.306],[-72.505854416369687,-48.774550267009914,308.9826],[-72.522191625425492,-48.760715153034738,253.0],[-72.535143647019282,-48.733044925084357,253.0],[-72.563108239096792,-48.531405497999174,253.0],[-72.566199062431679,-48.521691481803828,253.0],[-72.573705347673538,-48.511683101481339,253.0],[-72.5910728311743,-48.493726889726304,289.9976],[-72.617712784679711,-48.459286286851892,256.9161],[-72.621686700396,-48.446039901130973,256.5],[-72.626102162302971,-48.4425075316054,360.3419],[-72.639201365960332,-48.452221547800747,590.6484],[-72.651270295172722,-48.458108830343377,455.9702],[-72.6556857570797,-48.459286286851892,496.4489],[-72.682620074712247,-48.459286286851892,739.7068],[-72.696013642496737,-48.462229928123236,774.0798],[-72.696602370751009,-48.469589031301524,451.7514],[-72.686888354555663,-48.474298857335612,262.5018],[-72.656863213588224,-48.476653770352669,383.7332],[-72.645088648502963,-48.479597411623985,458.9041],[-72.6384654556425,-48.485484694166615,676.6266],[-72.617712784679711,-48.514332378625539,972.0305],[-72.613591686899866,-48.529639313236373,585.3031],[-72.608587496738636,-48.571733383416216,947.5441],[-72.591514377365,-48.60293598089217,932.9554],[-72.586804551330886,-48.625602018681292,1140.647],[-72.582683453551041,-48.760420788907595,725.9031],[-72.5966657495898,-48.797510668926208,1143.1204],[-72.632136626909173,-48.822825983859531,1034.2367],[-72.653919572316909,-48.82518089687656,940.636],[-72.68836017519132,-48.8245921686223,258.5299],[-72.7202986829851,-48.820471070842473,253.0],[-72.734428161087422,-48.811934511155641,253.0],[-72.744583723473468,-48.799571217816123,323.5815],[-72.790798891433141,-48.783675554951,253.0],[-72.803309366836231,-48.767485527958769,253.0],[-72.800365725564916,-48.758065875890537,253.0],[-72.793153804450185,-48.747468767313819,253.0],[-72.788443978416083,-48.73569420222853,253.0],[-72.796833356039343,-48.713028164439407,253.0],[-72.795214353340114,-48.702431055862661,253.0],[-72.791681983814527,-48.6915395831588,253.0]],
[[-72.905012172760223,-48.807224685121525,253.0],[-72.928708484994331,-48.807519049248668,253.0],[-72.941807688651679,-48.797510668926208,561.2526],[-72.949313973893538,-48.788385380985119,708.7943],[-72.944309783732308,-48.781320641933945,446.1396],[-72.919436014989671,-48.778671364789773,253.0],[-72.892796061484262,-48.785147375586661,553.0616],[-72.890588330530775,-48.797216304799065,414.6678],[-72.905012172760223,-48.807224685121525,253.0]]]}
,"properties": {"featurecla": "Lake","scalerank": 7,"name": "Lago San Martín","name_abb": "L. San Martín","name_alt": null,"note": null,"delta": null,"dam_name": null,"year": -99,"admin": null,"min_zoom": 5.7,"min_label": 6.7,"area_km2": 1042.903,"hist_schema_id": "Elevation0-9000","hist_area_km2": {"250": 593.5333,"275": 25.4998,"300": 27.703,"325": 24.6501,"350": 22.8101,"375": 20.432,"400": 19.4641,"425": 17.8582,"450": 16.256,"475": 16.7467,"500": 15.9049,"525": 15.2179,"550": 14.0323,"575": 13.3177,"600": 13.1253,"625": 13.2482,"650": 12.954,"675": 13.5925,"700": 12.7851,"725": 12.7006,"750": 12.0201,"775": 9.783,"800": 8.9712,"825": 8.1753,"850": 6.9484,"875": 6.2191,"900": 5.8538,"925": 4.7372,"950": 5.4889,"975": 5.3072,"1000": 4.678,"1025": 4.7482,"1050": 4.7331,"1075": 4.2862,"1100": 3.4476,"1125": 2.8054,"1150": 3.2551,"1175": 3.3097,"1200": 2.7226,"1225": 2.2042,"1250": 1.7426,"1275": 2.1186,"1300": 1.6584,"1325": 1.0317,"1350": 1.0311,"1375": 0.7805,"1400": 0.4882,"1425": 0.5857,"1450": 0.5023,"1475": 0.4049,"1500": 0.4188,"1525": 0.3212,"1550": 0.1814,"1575": 0.0697,"1600": 0.0418}}}