{"type":"Feature","properties":{"GID_1":"ARG.20_1","GID_0":"ARG","country":"Argentina","state":"SantaCruz","VARNAME_1":"NA","NL_NAME_1":"NA","TYPE_1":"Provincia","ENGTYPE_1":"Province","CC_1":"NA","HASC_1":"AR.SC","ISO_1":"AR-Z","name":"SantaCruz.state"},
"geometry":{"type": "MultiPolygon","coordinates": [[[[-68.435,-52.3954,4.4302],[-68.4353,-52.3963,2.029],[-68.4344,-52.3974,2.029],[-68.4345,-52.3962,4.4302],[-68.435,-52.3954,4.4302]]],
[[[-68.4353,-52.3943,5.2495],[-68.4352,-52.3942,5.2495],[-68.4353,-52.3938,5.2495],[-68.4356,-52.3943,0.0],[-68.4353,-52.3943,5.2495]]],
[[[-69.1086,-51.6579,1.6845],[-69.1092,-51.6557,0.1104],[-69.1119,-51.6565,0.7202],[-69.1181,-51.6621,0.9669],[-69.1136,-51.6624,1.7535],[-69.1086,-51.6579,1.6845]]],
[[[-69.1108,-51.6351,0.0],[-69.1186,-51.6343,0.0],[-69.1125,-51.6368,0.0],[-69.1153,-51.6385,0.0],[-69.1136,-51.6399,0.0],[-69.1064,-51.6371,0.0],[-69.1075,-51.6354,0.0],[-69.1108,-51.6351,0.0]]],
[[[-71.694,-52.0002,150.1736],[-71.6941,-52.0045,153.7539],[-71.694,-52.0003,150.1736],[-71.694,-52.0002,150.1736]]],
[[[-69.1347,-51.6463,0.5],[-69.1336,-51.6457,0.5],[-69.1408,-51.6465,0.5],[-69.1425,-51.6474,0.5],[-69.1425,-51.6493,0.5],[-69.1369,-51.6482,0.5],[-69.1347,-51.6463,0.5]]],
[[[-69.1175,-51.6451,0.0],[-69.1181,-51.6435,0.0],[-69.1225,-51.6435,0.0],[-69.1308,-51.6479,0.5],[-69.1275,-51.6504,0.5],[-69.1242,-51.6504,0.0],[-69.1175,-51.6451,0.0]]],
[[[-69.1564,-51.6282,0.5],[-69.1603,-51.6274,0.5],[-69.1608,-51.6287,0.5],[-69.1497,-51.631,0.5],[-69.1503,-51.6299,0.5],[-69.1564,-51.6282,0.5]]],
[[[-69.1008,-51.5996,0.0],[-69.1036,-51.5985,0.0],[-69.1136,-51.6012,1.2197],[-69.1064,-51.6018,0.0],[-69.1008,-51.5996,0.0]]],
[[[-69.0736,-51.5896,0.4793],[-69.0825,-51.5901,0.0],[-69.0886,-51.5937,0.0],[-69.0803,-51.594,0.4478],[-69.0719,-51.5901,0.163],[-69.0736,-51.5896,0.4793]]],
[[[-69.0753,-51.5876,1.4751],[-69.0736,-51.5851,1.8699],[-69.0786,-51.5854,2.2897],[-69.0781,-51.5865,0.0],[-69.0825,-51.5893,0.0],[-69.0808,-51.5896,2.2058],[-69.0753,-51.5876,1.4751]]],
[[[-69.0081,-51.5818,1.2581],[-69.0158,-51.5807,0.0218],[-69.0153,-51.5821,1.5863],[-69.0192,-51.5832,0.4624],[-69.0114,-51.586,0.4649],[-69.0014,-51.584,0.3836],[-69.0081,-51.5818,1.2581]]],
[[[-69.1375,-50.7663,0.0],[-69.1392,-50.7507,0.0],[-69.1414,-50.7438,5.2235],[-69.1403,-50.7249,0.0],[-69.1369,-50.7163,0.0],[-69.1292,-50.7038,0.0],[-69.1264,-50.6904,3.1243],[-69.1264,-50.6815,7.8899],[-69.1242,-50.6749,4.1403],[-69.1203,-50.6679,2.6057],[-69.1153,-50.6629,3.3512],[-69.1136,-50.6629,3.3512],[-69.1075,-50.6551,0.0],[-69.1075,-50.6524,0.0],[-69.0919,-50.6224,0.0],[-69.0903,-50.6132,27.2036],[-69.0803,-50.5893,0.0],[-69.0786,-50.5654,14.4121],[-69.0764,-50.5646,0.0],[-69.0781,-50.5635,25.0763],[-69.0725,-50.5621,0.0],[-69.0742,-50.559,8.3359],[-69.0719,-50.5549,0.8017],[-69.0703,-50.5546,0.0],[-69.0708,-50.5535,0.0],[-69.0647,-50.5488,0.0],[-69.0581,-50.539,0.0],[-69.0514,-50.5329,7.4304],[-69.0469,-50.5251,0.0],[-69.0419,-50.5243,0.0],[-69.0469,-50.521,26.6262],[-69.0392,-50.5112,0.0],[-69.0375,-50.5024,4.6631],[-69.0342,-50.4957,2.7976],[-69.0258,-50.4896,0.0],[-69.0053,-50.469,0.0],[-69.0003,-50.4601,20.6113],[-68.9975,-50.4585,10.491],[-68.9947,-50.451,5.5794],[-68.9886,-50.4435,0.0],[-68.9853,-50.4362,19.0512],[-68.9831,-50.4354,1.7016],[-68.9814,-50.4313,1.9282],[-68.9736,-50.4246,0.0],[-68.9714,-50.4207,4.8916],[-68.9586,-50.4104,2.7392],[-68.9447,-50.3963,0.0],[-68.9242,-50.3843,0.0],[-68.9253,-50.3787,13.0707],[-68.9175,-50.3737,0.0],[-68.9064,-50.3632,0.0],[-68.9003,-50.361,5.8391],[-68.8936,-50.3618,0.0],[-68.8919,-50.3596,0.0],[-68.8875,-50.3582,0.0],[-68.8842,-50.3582,0.9542],[-68.8836,-50.3601,0.0],[-68.8792,-50.361,0.0],[-68.8814,-50.3571,15.538],[-68.8808,-50.3546,14.2193],[-68.8847,-50.3532,12.2135],[-68.8847,-50.351,15.1576],[-68.8775,-50.3468,0.0],[-68.8792,-50.3446,9.8183],[-68.8742,-50.3451,0.0],[-68.8786,-50.3413,13.8515],[-68.8786,-50.3379,3.0436],[-68.8808,-50.3365,14.6379],[-68.8775,-50.3329,9.1569],[-68.8547,-50.321,9.3549],[-68.8069,-50.3082,0.0],[-68.8019,-50.3057,0.0],[-68.8019,-50.3018,0.0],[-68.7731,-50.2882,2.4907],[-68.7342,-50.284,0.0],[-68.7308,-50.2829,2.4208],[-68.7314,-50.2788,0.0],[-68.7131,-50.2726,24.9845],[-68.6803,-50.266,8.6121],[-68.6697,-50.2629,0.0],[-68.6692,-50.261,0.0],[-68.6653,-50.2599,0.0],[-68.6586,-50.2626,0.0],[-68.6603,-50.2579,39.624],[-68.6458,-50.2535,10.7311],[-68.6342,-50.2518,0.0],[-68.6336,-50.2496,17.1909],[-68.6297,-50.2499,0.0],[-68.6281,-50.2476,8.4534],[-68.6108,-50.2443,0.0],[-68.5836,-50.2349,5.6294],[-68.5397,-50.2232,0.0],[-68.5319,-50.2224,2.7206],[-68.5281,-50.2187,37.5145],[-68.5236,-50.2174,3.4819],[-68.4642,-50.2032,0.0],[-68.4569,-50.1993,18.3038],[-68.4014,-50.1851,0.0],[-68.3619,-50.1646,0.0],[-68.3569,-50.1593,0.0],[-68.3564,-50.1546,3.5483],[-68.3542,-50.1518,0.4546],[-68.3558,-50.1457,6.5078],[-68.3553,-50.1399,5.8786],[-68.3575,-50.1368,5.3241],[-68.3619,-50.1349,2.6804],[-68.3464,-50.1204,0.0],[-68.3419,-50.1221,0.0],[-68.3236,-50.1232,0.0],[-68.2692,-50.1196,0.0],[-68.2386,-50.1207,2.7205],[-68.1958,-50.1165,0.0],[-68.1503,-50.1074,0.0],[-68.1042,-50.0904,6.3682],[-68.0619,-50.0776,0.0],[-68.0625,-50.0768,0.0],[-68.0336,-50.0665,0.0],[-68.0092,-50.054,7.7092],[-67.9964,-50.0493,0.0],[-67.9692,-50.0337,0.0],[-67.9581,-50.0249,4.2701],[-67.9164,-50.006,7.6924],[-67.8574,-49.9654,2.1583],[-67.8379,-49.9468,0.0],[-67.8299,-49.9329,7.0441],[-67.8215,-49.9263,0.0],[-67.8026,-49.9032,0.0],[-67.7932,-49.889,0.0],[-67.7835,-49.8668,12.5976],[-67.7729,-49.8512,36.0747],[-67.7682,-49.841,12.1598],[-67.7654,-49.8396,0.0],[-67.7596,-49.8282,4.5178],[-67.7554,-49.8262,0.0],[-67.729,-49.7762,0.0],[-67.7293,-49.7718,0.0],[-67.7207,-49.7404,0.0],[-67.7207,-49.7218,0.0],[-67.7151,-49.6982,0.0],[-67.7157,-49.6818,4.7371],[-67.7213,-49.6724,0.0],[-67.716,-49.6526,0.0],[-67.7199,-49.6357,0.6959],[-67.7087,-49.6201,0.0],[-67.7054,-49.6018,15.1584],[-67.7065,-49.5899,7.968],[-67.7029,-49.5585,67.775],[-67.6963,-49.5251,22.9183],[-67.689,-49.5074,43.6717],[-67.6876,-49.5004,8.205],[-67.6879,-49.4835,16.3124],[-67.681,-49.456,15.2833],[-67.6724,-49.4354,2.0094],[-67.6724,-49.4307,9.832],[-67.6679,-49.4182,22.3717],[-67.6685,-49.4121,22.5142],[-67.6651,-49.4018,1.1995],[-67.6596,-49.3926,0.0],[-67.6476,-49.3796,0.0],[-67.6476,-49.3771,3.8755],[-67.6407,-49.3665,0.0],[-67.6338,-49.3596,1.6371],[-67.629,-49.3507,4.1364],[-67.6221,-49.3274,1.6619],[-67.6074,-49.3057,3.1524],[-67.6029,-49.296,0.6017],[-67.6038,-49.279,-0.1564],[-67.6026,-49.2754,0.4221],[-67.6085,-49.2704,14.5995],[-67.6093,-49.259,0.2015],[-67.6126,-49.249,2.1827],[-67.6357,-49.2518,6.4873],[-67.6368,-49.2537,15.8038],[-67.6429,-49.2557,0.7034],[-67.6668,-49.2543,0.0],[-67.6732,-49.2482,0.0],[-67.6679,-49.246,16.0602],[-67.666,-49.2412,0.7493],[-67.6743,-49.2201,2.8674],[-67.6671,-49.2165,0.0],[-67.6665,-49.209,0.0],[-67.6637,-49.2029,17.0451],[-67.6596,-49.2029,0.0],[-67.6549,-49.1993,57.7389],[-67.6499,-49.1993,2.6227],[-67.6443,-49.1971,1.8624],[-67.6346,-49.1974,0.0],[-67.634,-49.1957,20.8868],[-67.6315,-49.196,2.635],[-67.6246,-49.1904,0.0],[-67.6176,-49.1896,0.0],[-67.6093,-49.1804,0.0],[-67.6093,-49.1771,0.0],[-67.6146,-49.1729,0.0],[-67.6171,-49.1668,14.2212],[-67.6171,-49.164,11.8777],[-67.6129,-49.1624,0.0],[-67.6132,-49.1599,0.0],[-67.626,-49.1565,17.1076],[-67.6321,-49.1565,9.0365],[-67.6357,-49.1526,6.3331],[-67.6363,-49.1399,3.5849],[-67.6312,-49.1299,0.9611],[-67.6188,-49.1151,4.2667],[-67.6115,-49.111,7.4286],[-67.601,-49.1076,1.3395],[-67.5982,-49.1029,6.0515],[-67.599,-49.0954,3.4379],[-67.5926,-49.0899,1.314],[-67.591,-49.0865,1.9291],[-67.5826,-49.0676,2.4121],[-67.5815,-49.0563,8.1767],[-67.579,-49.0535,0.0],[-67.5751,-49.0418,0.0],[-67.5696,-49.0343,2.0654],[-67.564,-49.0299,0.0],[-67.556,-49.0185,8.9068],[-67.5512,-49.0143,9.0072],[-67.5415,-49.0065,1.0364],[-67.5285,-49.0001,1.0926],[-67.4965,-48.9729,2.5464],[-67.4943,-48.9704,0.1071],[-67.4946,-48.9649,6.6511],[-67.4921,-48.9613,0.5722],[-67.486,-48.9585,0.1592],[-67.4832,-48.9551,2.8413],[-67.4635,-48.9421,1.7231],[-67.4143,-48.9132,0.6358],[-67.359,-48.8862,5.4716],[-67.3213,-48.8704,3.8441],[-67.2962,-48.8626,8.0932],[-67.2668,-48.856,9.3232],[-67.2451,-48.854,0.5856],[-67.2379,-48.8465,4.7771],[-67.2199,-48.8385,0.723],[-67.216,-48.8349,0.8235],[-67.2132,-48.8271,8.1893],[-67.1971,-48.8149,4.7164],[-67.1924,-48.8135,0.0],[-67.1926,-48.8101,0.9426],[-67.1974,-48.8096,9.9518],[-67.1971,-48.8015,8.5553],[-67.1954,-48.7974,10.014],[-67.1896,-48.7935,0.0],[-67.1937,-48.7912,0.0],[-67.1937,-48.786,0.0],[-67.1851,-48.7715,0.0],[-67.1663,-48.7571,4.7595],[-67.1513,-48.749,0.0],[-67.1482,-48.7279,3.344],[-67.1415,-48.7135,10.3181],[-67.1387,-48.7118,0.0],[-67.1407,-48.709,0.0],[-67.1382,-48.7046,0.0],[-67.1404,-48.6965,0.0],[-67.1268,-48.6829,7.3561],[-67.106,-48.6735,0.0],[-67.0821,-48.6651,1.054],[-67.0757,-48.659,6.5544],[-67.0638,-48.6515,4.2049],[-67.0399,-48.646,3.4358],[-67.0215,-48.6374,0.7211],[-67.0207,-48.6357,0.0],[-67.0235,-48.6351,2.8987],[-67.0235,-48.6321,1.5009],[-67.0171,-48.626,4.1734],[-67.0096,-48.6213,0.0],[-66.991,-48.6135,4.2276],[-66.9563,-48.606,8.997],[-66.919,-48.6065,0.0],[-66.9051,-48.6024,4.0849],[-66.8962,-48.6018,1.4214],[-66.8749,-48.5946,0.0],[-66.8685,-48.586,0.0],[-66.8701,-48.5782,6.4839],[-66.8726,-48.5757,1.6089],[-66.8724,-48.574,3.3213],[-66.8696,-48.5737,0.0],[-66.8712,-48.5718,1.4058],[-66.8643,-48.5668,0.7365],[-66.8624,-48.5621,2.8719],[-66.8554,-48.5543,4.546],[-66.8446,-48.5476,2.1015],[-66.8382,-48.5457,0.0],[-66.8382,-48.5437,0.4735],[-66.8424,-48.5418,0.0],[-66.8426,-48.5379,0.0],[-66.836,-48.5285,2.8146],[-66.8238,-48.5185,0.0],[-66.8115,-48.5129,7.6121],[-66.8035,-48.5121,0.0],[-66.8012,-48.5082,0.0],[-66.7965,-48.5054,2.1723],[-66.7821,-48.5006,3.9827],[-66.7707,-48.4993,0.6381],[-66.7712,-48.4962,2.4916],[-66.7696,-48.4929,4.7097],[-66.7624,-48.486,1.7873],[-66.7546,-48.4815,0.0],[-66.7554,-48.4762,0.0],[-66.7543,-48.4743,7.0499],[-66.7443,-48.4701,1.5445],[-66.741,-48.471,0.0],[-66.741,-48.4687,1.6919],[-66.7365,-48.4654,2.9066],[-66.7157,-48.4585,2.6306],[-66.6893,-48.4529,10.0936],[-66.6829,-48.4543,0.3123],[-66.6815,-48.4518,0.0],[-66.6849,-48.4493,2.7449],[-66.6832,-48.4471,1.1515],[-66.659,-48.4346,0.0],[-66.6206,-48.4276,7.8406],[-66.5974,-48.4251,1.1221],[-66.5657,-48.4229,7.3994],[-66.5479,-48.4229,7.9911],[-66.5396,-48.4249,0.0],[-66.5382,-48.4204,8.278],[-66.5304,-48.4165,0.88],[-66.5143,-48.416,7.4546],[-66.4918,-48.4179,-0.3561],[-66.494,-48.4157,2.7536],[-66.494,-48.4124,5.8153],[-66.4921,-48.4101,0.2415],[-66.4665,-48.4004,2.9185],[-66.4749,-48.3974,0.0],[-66.4721,-48.3898,-0.1243],[-66.4662,-48.3865,2.8398],[-66.4676,-48.3854,5.0322],[-66.4668,-48.3815,3.8666],[-66.4765,-48.3751,7.0602],[-66.4768,-48.3701,5.3445],[-66.4687,-48.361,7.356],[-66.4526,-48.3537,2.5095],[-66.4315,-48.3499,0.48],[-66.3918,-48.3501,2.3698],[-66.3721,-48.3526,7.0119],[-66.3626,-48.3565,0.2785],[-66.3626,-48.3615,-0.2184],[-66.3568,-48.3621,0.0576],[-66.3499,-48.354,1.1852],[-66.3399,-48.3521,0.8431],[-66.3404,-48.3537,1.84],[-66.3454,-48.354,-0.9593],[-66.3479,-48.3587,0.7089],[-66.3499,-48.3593,-0.2651],[-66.3446,-48.359,-0.0116],[-66.3412,-48.356,0.0384],[-66.3418,-48.359,1.8896],[-66.3449,-48.3604,-0.3435],[-66.3435,-48.3621,-0.1183],[-66.3401,-48.3601,0.9666],[-66.3407,-48.3624,-0.5163],[-66.3393,-48.3635,0.0044],[-66.3343,-48.3621,0.0],[-66.3329,-48.3535,0.3053],[-66.336,-48.3529,-0.1285],[-66.3362,-48.3512,0.2047],[-66.3337,-48.3493,-0.2031],[-66.3343,-48.3462,0.0],[-66.3412,-48.3474,-0.4121],[-66.3482,-48.3435,2.3356],[-66.3499,-48.3379,-0.1096],[-66.356,-48.3307,2.6382],[-66.3599,-48.3199,1.6057],[-66.3593,-48.3124,5.8066],[-66.3571,-48.3079,12.3708],[-66.3549,-48.3071,-0.0923],[-66.3551,-48.3034,11.4124],[-66.3462,-48.299,-0.3311],[-66.3415,-48.2937,-0.3474],[-66.3435,-48.2907,-0.0454],[-66.3432,-48.2865,1.0712],[-66.3374,-48.2774,6.9428],[-66.3251,-48.2687,3.1522],[-66.3182,-48.2676,4.1711],[-66.3157,-48.2654,2.2756],[-66.3096,-48.2668,0.0],[-66.3115,-48.2643,0.7232],[-66.3082,-48.2612,3.8979],[-66.3065,-48.2618,-0.2823],[-66.3049,-48.2574,2.2208],[-66.2971,-48.2524,2.2056],[-66.2812,-48.2504,-0.0443],[-66.2818,-48.2482,-0.4044],[-66.2776,-48.2476,-0.1092],[-66.2787,-48.2468,-0.1092],[-66.2774,-48.2462,-0.1494],[-66.2782,-48.2426,7.8884],[-66.2679,-48.241,1.3865],[-66.2626,-48.2382,0.2589],[-66.2626,-48.2324,2.8602],[-66.2601,-48.2293,5.6385],[-66.2579,-48.2287,2.2591],[-66.2568,-48.2315,0.0],[-66.2549,-48.2315,0.0],[-66.2571,-48.2287,2.2591],[-66.2518,-48.2282,0.0],[-66.2524,-48.2265,0.1155],[-66.256,-48.2271,0.3026],[-66.2576,-48.2257,4.653],[-66.2557,-48.2199,0.0],[-66.2454,-48.2165,-0.0385],[-66.2401,-48.209,11.4776],[-66.2276,-48.2007,3.5073],[-66.2201,-48.1999,0.7772],[-66.2049,-48.2015,0.0662],[-66.1976,-48.1951,1.3256],[-66.1837,-48.196,-0.2957],[-66.1774,-48.1937,2.132],[-66.1721,-48.1957,0.3131],[-66.1676,-48.1954,-0.4158],[-66.1674,-48.194,0.8741],[-66.1635,-48.194,-0.1618],[-66.161,-48.1912,3.3437],[-66.1585,-48.1915,-0.1763],[-66.1571,-48.1882,-0.3526],[-66.154,-48.1874,0.1328],[-66.1551,-48.1804,0.0],[-66.1596,-48.1793,0.0],[-66.1643,-48.1809,0.3604],[-66.1668,-48.1785,-0.0102],[-66.1615,-48.176,-0.1379],[-66.1635,-48.1729,2.7529],[-66.1585,-48.1721,-0.0551],[-66.1557,-48.1696,0.0],[-66.1521,-48.1701,0.0],[-66.1513,-48.1676,2.175],[-66.1476,-48.1676,-0.2815],[-66.1465,-48.1649,-1.1865],[-66.1457,-48.1665,-0.7695],[-66.1429,-48.1662,0.0],[-66.144,-48.1621,0.697],[-66.139,-48.1637,-0.1071],[-66.1387,-48.1621,-0.2967],[-66.1357,-48.1618,-0.2915],[-66.1393,-48.1613,0.8394],[-66.1407,-48.159,-0.1295],[-66.1384,-48.1571,-0.1967],[-66.139,-48.1546,1.0765],[-66.1368,-48.1501,-0.1018],[-66.1335,-48.1482,0.6905],[-66.1368,-48.1437,0.2892],[-66.1329,-48.1435,0.9816],[-66.1379,-48.1399,0.2212],[-66.1349,-48.1385,0.0],[-66.1224,-48.1404,-0.342],[-66.1235,-48.1382,0.12],[-66.126,-48.1377,0.1526],[-66.1288,-48.1324,5.0434],[-66.124,-48.1257,0.9596],[-66.119,-48.1226,9.9623],[-66.1004,-48.1182,-0.0021],[-66.0982,-48.1146,3.1421],[-66.0912,-48.1149,0.0],[-66.0882,-48.1121,5.7733],[-66.0788,-48.1101,0.3216],[-66.066,-48.1113,-0.4539],[-66.0665,-48.1135,0.161],[-66.0632,-48.1137,0.1526],[-66.0643,-48.1199,0.3179],[-66.0599,-48.1204,-0.1558],[-66.0601,-48.1149,-0.0521],[-66.0554,-48.1151,0.2746],[-66.0568,-48.1093,12.1403],[-66.0434,-48.1049,0.7272],[-66.0293,-48.1057,7.68],[-66.0271,-48.1071,7.0929],[-66.0276,-48.1096,1.3372],[-66.0307,-48.1107,0.0],[-66.0304,-48.1126,-0.0392],[-66.0287,-48.1129,0.9589],[-66.0268,-48.1129,0.0111],[-66.0265,-48.111,1.3372],[-66.0221,-48.1084,1.4638],[-66.016,-48.1099,0.0],[-66.0137,-48.1054,6.8657],[-66.009,-48.1037,2.263],[-66.0051,-48.1037,4.7923],[-66.0004,-48.1074,0.0],[-65.9951,-48.106,2.0073],[-65.9938,-48.1104,-0.0681],[-65.9921,-48.1107,-0.171],[-65.9879,-48.1093,0.0499],[-65.9887,-48.1071,-0.0316],[-65.991,-48.1065,2.0084],[-65.9893,-48.1035,2.1072],[-65.9818,-48.1004,5.3652],[-65.9768,-48.1001,2.422],[-65.9735,-48.1021,0.2154],[-65.9657,-48.101,9.5561],[-65.9601,-48.1021,1.104],[-65.9599,-48.104,0.3726],[-65.9543,-48.1026,9.593],[-65.9507,-48.1046,0.0],[-65.9479,-48.1074,3.9705],[-65.9482,-48.1096,0.0],[-65.9454,-48.1096,4.9684],[-65.9438,-48.1129,1.5406],[-65.9451,-48.1165,5.7378],[-65.949,-48.1171,1.4791],[-65.9474,-48.1193,3.8589],[-65.9488,-48.1207,0.5656],[-65.9401,-48.1221,0.0],[-65.9362,-48.1204,0.0217],[-65.9424,-48.1174,3.5972],[-65.9393,-48.1162,0.1315],[-65.9413,-48.1154,0.0579],[-65.9399,-48.1123,4.4912],[-65.9351,-48.1124,3.8192],[-65.9354,-48.1143,0.0],[-65.9321,-48.116,0.7923],[-65.9293,-48.116,2.0525],[-65.9287,-48.1135,0.9916],[-65.9276,-48.1146,-0.0732],[-65.926,-48.1132,-0.1107],[-65.926,-48.1165,0.0],[-65.9235,-48.1174,0.0],[-65.9212,-48.1135,0.0],[-65.9151,-48.111,0.3839],[-65.9137,-48.1079,0.6634],[-65.9074,-48.1068,-0.0033],[-65.9074,-48.1051,0.2433],[-65.9174,-48.1049,4.2496],[-65.9143,-48.1035,0.0],[-65.9157,-48.0982,1.1751],[-65.9037,-48.1037,0.0],[-65.9085,-48.1001,1.0723],[-65.9068,-48.0996,0.6247],[-65.9079,-48.0968,0.5569],[-65.9054,-48.0949,2.359],[-65.9049,-48.0974,0.573],[-65.9021,-48.099,3.0267],[-65.9032,-48.1007,0.3192],[-65.899,-48.1021,0.0862],[-65.8982,-48.1049,0.0],[-65.8915,-48.1015,-0.0895],[-65.8951,-48.0999,0.806],[-65.8982,-48.0954,0.3926],[-65.9046,-48.0937,-0.1237],[-65.9026,-48.0918,-0.2008],[-65.8965,-48.091,0.2076],[-65.9054,-48.089,1.464],[-65.9088,-48.0854,2.8326],[-65.9115,-48.0849,3.341],[-65.9118,-48.0835,2.5838],[-65.909,-48.0832,2.4197],[-65.9099,-48.0812,0.6622],[-65.9171,-48.0785,0.0],[-65.924,-48.0782,3.012],[-65.9268,-48.0757,0.0],[-65.9315,-48.0779,0.0],[-65.9346,-48.0768,1.7062],[-65.9343,-48.0754,0.2064],[-65.9404,-48.0757,1.1216],[-65.949,-48.0726,2.7792],[-65.9515,-48.0693,2.5876],[-65.9485,-48.0713,2.7792],[-65.9488,-48.0693,0.3307],[-65.9468,-48.0693,0.0],[-65.9476,-48.0665,0.9045],[-65.9532,-48.069,2.8293],[-65.9568,-48.0687,3.1519],[-65.9638,-48.0615,2.9234],[-65.9693,-48.0524,2.2631],[-65.9721,-48.0537,2.2597],[-65.9704,-48.051,0.7793],[-65.9721,-48.0482,0.1101],[-65.9746,-48.0479,1.7227],[-65.9693,-48.0457,0.055],[-65.971,-48.0446,1.2548],[-65.9646,-48.0449,0.082],[-65.9626,-48.0426,2.5494],[-65.9571,-48.0412,0.0],[-65.9557,-48.0365,0.0],[-65.9515,-48.0349,0.0],[-65.9504,-48.0324,0.8327],[-65.9426,-48.0329,0.4616],[-65.9402,-48.0309,0.0],[-65.9413,-48.0274,0.0],[-65.9468,-48.0274,0.0],[-65.9468,-48.0238,0.0],[-65.9488,-48.0218,0.0],[-65.9571,-48.0196,5.4028],[-65.9551,-48.0154,3.4841],[-65.9479,-48.0137,1.393],[-65.9471,-48.0168,0.0937],[-65.9435,-48.0168,-0.0188],[-65.9318,-48.016,0.0],[-65.9313,-48.0146,0.0],[-65.9332,-48.0101,0.0],[-65.9379,-48.0101,0.6582],[-65.9362,-48.0082,0.0819],[-65.9435,-48.0085,9.5779],[-65.9457,-48.0062,8.6062],[-65.9429,-48.0015,3.9966],[-65.939,-48.0035,0.0],[-65.9343,-48.0026,0.4813],[-65.9346,-47.9976,2.4849],[-65.9326,-47.9957,3.1562],[-65.931,-47.9974,0.6677],[-65.9265,-47.996,0.0],[-65.929,-47.9924,0.0],[-65.9254,-47.9924,0.392],[-65.9238,-47.9899,0.3623],[-65.9268,-47.9899,1.5851],[-65.9301,-47.9865,0.3091],[-65.9371,-47.9899,3.3133],[-65.9401,-47.9871,0.7772],[-65.9421,-47.9815,0.4172],[-65.9454,-47.9837,2.1161],[-65.9485,-47.9837,6.1134],[-65.9515,-47.9807,7.7061],[-65.951,-47.9707,13.0816],[-65.9418,-47.9543,12.0655],[-65.9335,-47.9457,14.1676],[-65.9232,-47.939,7.2041],[-65.9146,-47.9349,0.0],[-65.9021,-47.9315,2.5819],[-65.8946,-47.9315,1.9408],[-65.8901,-47.9337,-0.062],[-65.8804,-47.9334,3.6433],[-65.8704,-47.9362,9.8805],[-65.8715,-47.9382,-0.1081],[-65.8699,-47.9385,2.827],[-65.869,-47.9432,2.9967],[-65.8737,-47.9432,0.0],[-65.8729,-47.9446,5.9046],[-65.8746,-47.9465,0.0],[-65.8682,-47.946,1.7045],[-65.8657,-47.944,0.8144],[-65.8676,-47.9418,0.3971],[-65.8654,-47.9387,7.323],[-65.8615,-47.9399,0.0],[-65.8573,-47.9365,5.1465],[-65.8382,-47.9404,7.6455],[-65.8363,-47.9462,5.0931],[-65.8407,-47.9501,0.0],[-65.8421,-47.9551,1.0113],[-65.841,-47.9574,0.8412],[-65.8432,-47.961,0.4278],[-65.8404,-47.961,14.7166],[-65.8396,-47.9637,0.0],[-65.8376,-47.9643,0.4804],[-65.836,-47.9632,0.0],[-65.8376,-47.9612,10.7933],[-65.8371,-47.9593,13.1845],[-65.8337,-47.9576,15.3767],[-65.8315,-47.959,2.7725],[-65.8337,-47.9615,1.2849],[-65.8324,-47.9657,0.0],[-65.8296,-47.9657,0.0],[-65.8288,-47.9632,1.503],[-65.8254,-47.9632,0.0],[-65.8257,-47.9612,5.8529],[-65.821,-47.9604,0.2124],[-65.821,-47.9568,5.7495],[-65.816,-47.9565,0.2697],[-65.8118,-47.9612,0.2287],[-65.8063,-47.9612,0.9774],[-65.8054,-47.9596,0.8604],[-65.8037,-47.961,0.8604],[-65.8046,-47.9582,0.5026],[-65.801,-47.9571,0.0],[-65.7999,-47.9512,13.5948],[-65.7904,-47.9532,0.0],[-65.7893,-47.9518,2.0659],[-65.7782,-47.9507,21.4333],[-65.7688,-47.9532,0.0],[-65.764,-47.9496,0.0],[-65.7674,-47.9446,2.3553],[-65.7874,-47.9465,31.2924],[-65.789,-47.9449,1.8693],[-65.7876,-47.944,1.1097],[-65.7893,-47.9432,10.0413],[-65.7885,-47.9405,0.0],[-65.7907,-47.9382,0.0],[-65.7924,-47.9396,20.321],[-65.7949,-47.939,5.6287],[-65.7943,-47.9354,7.6306],[-65.7907,-47.9362,2.3872],[-65.7874,-47.9349,0.3685],[-65.794,-47.9304,11.0816],[-65.7932,-47.9265,1.4288],[-65.7887,-47.9221,1.7313],[-65.7835,-47.9235,0.0],[-65.7785,-47.9226,1.0428],[-65.7768,-47.9204,8.6552],[-65.7629,-47.9196,0.0],[-65.7663,-47.9179,1.6365],[-65.7615,-47.9168,0.0],[-65.7637,-47.914,0.0],[-65.7699,-47.9135,2.6698],[-65.7704,-47.9115,0.0],[-65.7751,-47.9115,7.4313],[-65.7676,-47.9082,0.0],[-65.7676,-47.9068,0.3068],[-65.7821,-47.909,13.5031],[-65.7868,-47.9065,1.7343],[-65.7879,-47.9038,0.1802],[-65.7926,-47.9043,1.2276],[-65.7935,-47.9024,1.3132],[-65.7993,-47.9023,0.0],[-65.7999,-47.9035,7.4424],[-65.8101,-47.9026,0.0],[-65.8204,-47.9046,10.0574],[-65.8204,-47.9032,0.1606],[-65.8262,-47.9026,4.4064],[-65.8279,-47.9001,0.3504],[-65.8313,-47.8987,1.3577],[-65.8318,-47.8946,0.0],[-65.8351,-47.8935,0.6822],[-65.8429,-47.8951,3.8115],[-65.8454,-47.8926,8.4852],[-65.8485,-47.8862,0.0],[-65.8524,-47.8824,4.1863],[-65.8526,-47.8785,0.0],[-65.8607,-47.8699,9.1732],[-65.8607,-47.8601,0.0],[-65.864,-47.8501,13.1314],[-65.8635,-47.8368,3.4321],[-65.8663,-47.8265,0.4007],[-65.8754,-47.8101,0.0],[-65.8757,-47.806,4.2432],[-65.8743,-47.804,1.5885],[-65.8782,-47.8024,5.1115],[-65.881,-47.7979,1.0868],[-65.881,-47.7949,0.0],[-65.8751,-47.7926,0.0],[-65.8804,-47.7935,1.2173],[-65.8796,-47.7912,0.0],[-65.8821,-47.7907,2.1067],[-65.8854,-47.7857,0.0],[-65.8851,-47.7765,0.0],[-65.8801,-47.7762,1.5864],[-65.8793,-47.7743,0.0],[-65.8843,-47.7726,0.4096],[-65.8854,-47.7704,0.0],[-65.8974,-47.7676,1.2994],[-65.8979,-47.7657,1.861],[-65.8951,-47.7635,1.0122],[-65.8927,-47.7637,0.0],[-65.8987,-47.7626,0.0],[-65.899,-47.759,1.4741],[-65.8818,-47.7557,0.74],[-65.8812,-47.754,3.7557],[-65.876,-47.7521,2.5189],[-65.869,-47.7529,2.4108],[-65.861,-47.7507,18.7935],[-65.8554,-47.7515,0.0],[-65.8521,-47.7496,0.0],[-65.8529,-47.7482,0.0],[-65.8515,-47.7457,10.3108],[-65.8473,-47.7474,0.5002],[-65.8471,-47.7454,5.1472],[-65.8421,-47.7435,0.2498],[-65.8454,-47.7396,6.0931],[-65.8454,-47.7349,7.8073],[-65.8354,-47.7174,5.1929],[-65.8321,-47.714,0.0],[-65.8187,-47.6854,3.3439],[-65.8193,-47.6837,6.4604],[-65.7918,-47.636,5.2816],[-65.7818,-47.6099,0.0],[-65.7804,-47.6026,0.6547],[-65.7732,-47.5896,0.0],[-65.7663,-47.5818,0.0],[-65.7654,-47.5765,8.8638],[-65.7588,-47.5632,3.1248],[-65.7557,-47.5529,0.0],[-65.7554,-47.5457,0.0],[-65.7476,-47.5221,0.0],[-65.7401,-47.5121,5.2103],[-65.7385,-47.5018,0.0],[-65.7382,-47.476,0.7026],[-65.7321,-47.4571,4.6631],[-65.729,-47.4307,0.0],[-65.726,-47.4179,1.4626],[-65.7265,-47.3854,1.7996],[-65.7251,-47.3751,0.0],[-65.7213,-47.3634,6.43],[-65.7185,-47.3284,0.0],[-65.7237,-47.3174,7.4144],[-65.7254,-47.3068,3.1427],[-65.7324,-47.2899,8.2785],[-65.7335,-47.2815,0.0],[-65.7376,-47.2723,0.0],[-65.744,-47.2635,9.6292],[-65.7465,-47.256,6.1125],[-65.7468,-47.2468,0.6743],[-65.7554,-47.2351,4.1013],[-65.7582,-47.226,4.8901],[-65.7562,-47.2146,0.0],[-65.7526,-47.2104,8.9577],[-65.7462,-47.2068,2.7913],[-65.7413,-47.2071,4.8529],[-65.7393,-47.211,14.5143],[-65.7365,-47.2101,1.0063],[-65.739,-47.2062,0.5056],[-65.7371,-47.2015,1.7731],[-65.7426,-47.2021,2.9866],[-65.7501,-47.1999,9.9019],[-65.7751,-47.1857,6.5556],[-65.7999,-47.1679,4.0421],[-65.807,-47.159,0.0],[-65.814,-47.1557,1.7741],[-65.8138,-47.1546,0.0],[-65.8163,-47.1549,6.6342],[-65.8187,-47.1524,0.0],[-65.8301,-47.1479,0.0],[-65.8393,-47.1415,14.2262],[-65.849,-47.1312,7.4429],[-65.8518,-47.1254,4.8679],[-65.8524,-47.1101,-0.4982],[-65.8557,-47.1082,6.5409],[-65.8649,-47.1071,9.002],[-65.8712,-47.101,0.1369],[-65.8732,-47.0968,11.6426],[-65.8935,-47.0985,19.3336],[-65.9024,-47.0965,17.9282],[-65.9229,-47.0887,13.2409],[-65.9282,-47.0851,0.0],[-65.934,-47.0851,16.4603],[-65.9365,-47.0835,11.5313],[-65.9376,-47.0799,8.7437],[-65.9421,-47.0785,15.4058],[-65.9437,-47.0762,0.0],[-65.9454,-47.0776,5.1117],[-65.954,-47.0779,0.0],[-65.9621,-47.0749,3.8101],[-65.9743,-47.0737,2.7744],[-65.9751,-47.0721,0.0],[-65.9784,-47.0715,7.9033],[-65.984,-47.074,3.4334],[-65.9846,-47.076,12.6526],[-65.9899,-47.076,6.5091],[-66.0013,-47.0726,0.8348],[-66.016,-47.0746,11.994],[-66.0437,-47.0715,4.6973],[-66.0693,-47.0746,7.557],[-66.1012,-47.0857,7.6406],[-66.1182,-47.0832,5.9969],[-66.1393,-47.084,6.3468],[-66.159,-47.0818,6.0219],[-66.1807,-47.0882,17.845],[-66.2132,-47.0868,7.434],[-66.2396,-47.0799,7.6701],[-66.2804,-47.0768,11.3564],[-66.2857,-47.0735,9.4203],[-66.2949,-47.0713,12.8627],[-66.3074,-47.0729,0.0],[-66.3238,-47.0721,16.485],[-66.3293,-47.0699,6.5314],[-66.3487,-47.0696,33.5434],[-66.391,-47.0615,19.0215],[-66.4043,-47.0574,0.0],[-66.4174,-47.0574,17.8243],[-66.424,-47.0546,17.9959],[-66.4396,-47.0535,15.1732],[-66.4565,-47.0482,10.7987],[-66.5071,-47.041,0.0],[-66.5351,-47.0462,0.0],[-66.539,-47.0482,14.3887],[-66.5515,-47.0496,39.6281],[-66.5629,-47.049,6.9509],[-66.569,-47.0457,0.0],[-66.5813,-47.0465,7.743],[-66.5921,-47.0418,4.7475],[-66.6023,-47.0421,7.0481],[-66.6121,-47.046,8.2287],[-66.6282,-47.0468,7.3945],[-66.6401,-47.0449,6.7811],[-66.6485,-47.0407,3.8068],[-66.6546,-47.0329,0.0],[-66.6607,-47.0299,3.0092],[-66.6743,-47.0302,2.7508],[-66.6918,-47.0357,9.6083],[-66.706,-47.0351,7.3231],[-66.714,-47.0332,7.1105],[-66.759,-47.0171,24.8334],[-66.7887,-47.0018,9.3993],[-66.7946,-46.9971,9.5263],[-66.7957,-46.9926,0.0],[-66.8049,-46.9843,0.0],[-66.8243,-46.9729,3.5926],[-66.8504,-46.9538,3.0159],[-66.8571,-46.946,0.0],[-66.8557,-46.9379,7.8798],[-66.8599,-46.9332,4.2939],[-66.8662,-46.9346,28.2575],[-66.8768,-46.9329,2.7903],[-66.8838,-46.9276,1.04],[-66.8913,-46.9151,0.935],[-66.9013,-46.9099,2.3539],[-66.9068,-46.9012,0.7345],[-66.921,-46.8879,0.0],[-66.9251,-46.8812,3.507],[-66.9379,-46.8726,11.457],[-66.9404,-46.8688,28.9335],[-66.9399,-46.8651,36.2022],[-66.9504,-46.8585,61.9739],[-66.954,-46.8526,0.3693],[-66.959,-46.8504,0.9082],[-66.9707,-46.8504,9.249],[-66.9818,-46.8446,19.2916],[-66.9871,-46.8387,20.7945],[-66.9874,-46.8354,0.0],[-66.991,-46.831,0.0],[-67.0287,-46.8135,5.0252],[-67.0443,-46.8007,0.0],[-67.0529,-46.7876,0.0],[-67.074,-46.7757,1.3215],[-67.0829,-46.7663,2.1507],[-67.089,-46.7546,0.0],[-67.0968,-46.751,0.0],[-67.1073,-46.7368,0.0],[-67.1162,-46.7326,0.0],[-67.1237,-46.7249,0.0],[-67.1257,-46.7215,9.3893],[-67.1254,-46.7151,0.0],[-67.1332,-46.7076,5.1089],[-67.131,-46.7051,0.0],[-67.1276,-46.7046,0.0],[-67.1282,-46.7018,0.0],[-67.1343,-46.7029,0.0],[-67.1354,-46.7007,0.0],[-67.1415,-46.6993,0.0],[-67.1418,-46.7035,0.0],[-67.1449,-46.7038,0.5093],[-67.1504,-46.7007,0.0],[-67.1476,-46.6999,0.0],[-67.149,-46.6974,0.0],[-67.154,-46.6968,0.0],[-67.1549,-46.6979,0.0],[-67.1565,-46.6968,0.0],[-67.1568,-46.6957,0.0],[-67.1524,-46.6951,0.0],[-67.1521,-46.6935,0.0],[-67.1626,-46.6904,0.0],[-67.1657,-46.6904,0.0],[-67.1674,-46.693,3.0846],[-67.1704,-46.6926,0.0],[-67.1724,-46.6915,2.177],[-67.1701,-46.6896,0.0],[-67.1726,-46.6865,0.0],[-67.1785,-46.6929,0.0],[-67.1829,-46.6937,10.8806],[-67.1971,-46.6901,9.9193],[-67.2093,-46.6813,9.8113],[-67.229,-46.6749,3.991],[-67.2337,-46.6718,10.1122],[-67.2412,-46.6637,10.8008],[-67.2495,-46.6493,0.4557],[-67.2565,-46.6446,4.6032],[-67.2649,-46.6424,1.0187],[-67.2754,-46.6426,2.0252],[-67.2877,-46.6355,0.0],[-67.2999,-46.6338,1.2136],[-67.306,-46.6307,0.0],[-67.3107,-46.6318,3.0694],[-67.3224,-46.6287,0.0],[-67.3268,-46.629,0.4864],[-67.3399,-46.6232,0.0],[-67.3501,-46.621,0.0],[-67.3612,-46.6143,0.0],[-67.3645,-46.6104,0.0],[-67.3768,-46.6065,8.1915],[-67.3896,-46.5971,1.9635],[-67.399,-46.5882,8.5593],[-67.4043,-46.5779,0.0],[-67.4088,-46.5765,16.7573],[-67.419,-46.5693,1.2149],[-67.4221,-46.5651,0.0],[-67.4304,-46.5593,0.0],[-67.4377,-46.5493,0.0],[-67.4393,-46.549,0.0],[-67.454,-46.5243,0.0],[-67.4601,-46.5179,1.4872],[-67.4649,-46.5065,0.0],[-67.4687,-46.5026,5.3094],[-67.4679,-46.501,0.0],[-67.4721,-46.4979,0.0],[-67.4765,-46.4912,0.0],[-67.4815,-46.4882,1.0916],[-67.4852,-46.4793,2.4644],[-67.4932,-46.4718,0.42],[-67.4927,-46.4626,0.0],[-67.494,-46.4593,0.0],[-67.4968,-46.4579,0.0],[-67.5018,-46.4498,7.8992],[-67.5135,-46.4376,0.0],[-67.5135,-46.4324,0.0],[-67.5293,-46.4115,5.7119],[-67.5338,-46.4018,0.0],[-67.5413,-46.3949,2.2642],[-67.5413,-46.3904,0.0],[-67.5465,-46.3829,4.5177],[-67.5473,-46.3779,0.0],[-67.5493,-46.3776,0.2748],[-67.5524,-46.3732,0.0],[-67.5701,-46.3429,0.0],[-67.5879,-46.3051,4.9505],[-67.5899,-46.2974,1.4284],[-67.5926,-46.294,1.3105],[-67.5929,-46.2896,0.2921],[-67.5996,-46.274,0.5031],[-67.616,-46.2215,0.0],[-67.6221,-46.194,0.0],[-67.6274,-46.1568,3.748],[-67.6282,-46.124,1.0913],[-67.6276,-46.1146,3.3737],[-67.6254,-46.1101,0.261],[-67.6268,-46.1054,5.8047],[-67.6251,-46.1043,1.346],[-67.6265,-46.1029,2.6458],[-67.6251,-46.1004,2.8393],[-67.6271,-46.0937,6.9153],[-67.6271,-46.0821,7.9153],[-67.6251,-46.0785,6.4167],[-67.621,-46.0765,0.0],[-67.6249,-46.0754,8.4479],[-67.6243,-46.0721,0.0],[-67.6218,-46.0715,0.0],[-67.6196,-46.0729,0.0],[-67.6132,-46.0704,0.0],[-67.6137,-46.0676,0.0],[-67.6115,-46.0643,0.0],[-67.6121,-46.0624,0.0],[-67.6246,-46.0618,0.0],[-67.6257,-46.0526,3.2242],[-67.6229,-46.0479,8.9038],[-67.6182,-46.0496,0.0],[-67.614,-46.0468,0.0],[-67.6099,-46.0474,0.0],[-67.6079,-46.0457,0.0],[-67.601,-46.0457,0.0],[-67.5979,-46.044,0.0],[-67.5968,-46.0393,0.0],[-67.5985,-46.0387,0.0],[-67.599,-46.0357,0.0],[-67.5935,-46.0368,0.0],[-67.5926,-46.0357,0.0],[-67.5965,-46.0329,0.0],[-67.5904,-46.0293,0.0],[-67.5926,-46.0288,0.0],[-67.5918,-46.0274,0.0],[-67.5937,-46.0262,0.0],[-67.5815,-46.0229,0.0],[-67.5868,-46.0201,0.0],[-67.5888,-46.0168,0.0],[-67.5804,-46.0129,0.0],[-67.5801,-46.0115,0.0],[-67.584,-46.0118,0.0],[-67.5893,-46.009,0.0],[-67.589,-46.0024,0.0],[-67.5907,-45.9979,0.0],[-68.2885,-46.0045,743.3329],[-68.9489,-46.0069,368.698],[-69.7751,-46.0044,531.0022],[-70.2914,-45.9999,602.8788],[-70.5129,-45.9963,646.0101],[-71.5455,-45.9992,672.2727],[-71.6482,-46.0067,665.0197],[-71.6462,-46.0108,683.3613],[-71.6505,-46.0163,689.7492],[-71.6554,-46.017,692.6698],[-71.6574,-46.019,693.9605],[-71.658,-46.0229,705.0728],[-71.6642,-46.0252,716.781],[-71.6673,-46.0282,726.2737],[-71.6662,-46.0396,756.0149],[-71.6714,-46.0422,765.1714],[-71.6787,-46.0509,806.0048],[-71.683,-46.0517,803.6418],[-71.6968,-46.0617,850.9606],[-71.6975,-46.0692,914.9796],[-71.7105,-46.0709,963.5305],[-71.713,-46.0862,1020.6802],[-71.7149,-46.089,1044.6924],[-71.7308,-46.0955,1176.538],[-71.7438,-46.0916,1265.5222],[-71.7529,-46.0929,1365.5139],[-71.7603,-46.0992,1418.9363],[-71.7589,-46.1069,1676.3174],[-71.7605,-46.1096,1745.6028],[-71.7734,-46.1162,1690.5142],[-71.7829,-46.119,1766.5122],[-71.7943,-46.1181,1788.4928],[-71.8062,-46.1198,1841.3955],[-71.813,-46.116,1894.8492],[-71.8157,-46.1105,1876.8494],[-71.8253,-46.1096,1882.637],[-71.8456,-46.1207,1992.5685],[-71.8596,-46.1194,1911.5764],[-71.8669,-46.1229,1984.4084],[-71.8874,-46.1267,1979.2042],[-71.8937,-46.1337,2010.1202],[-71.901,-46.1368,1848.7322],[-71.9154,-46.1382,2065.4949],[-71.915,-46.1408,2097.7668],[-71.9083,-46.1459,2048.4199],[-71.9098,-46.1597,2169.6353],[-71.9046,-46.1596,2090.1301],[-71.9009,-46.1648,2127.9561],[-71.8808,-46.1626,2073.7671],[-71.8666,-46.1571,2280.9192],[-71.8748,-46.1606,2229.1846],[-71.8738,-46.1654,2116.2888],[-71.8772,-46.1684,2052.7764],[-71.8601,-46.1939,2117.8003],[-71.842,-46.1912,1781.5625],[-71.8333,-46.1939,1820.3375],[-71.83,-46.199,1768.7341],[-71.8237,-46.2015,1755.899],[-71.8072,-46.1971,1735.2721],[-71.8032,-46.1939,1713.2791],[-71.7961,-46.1921,1728.9871],[-71.7903,-46.1927,1732.1096],[-71.7839,-46.1979,1794.5131],[-71.7782,-46.1982,1799.7083],[-71.7752,-46.2088,1705.8124],[-71.773,-46.2117,1712.8905],[-71.7733,-46.2171,1756.4753],[-71.7673,-46.2154,1734.0386],[-71.7583,-46.2204,1581.2284],[-71.7563,-46.226,1622.2886],[-71.7531,-46.2281,1528.417],[-71.749,-46.2458,1401.8827],[-71.7422,-46.2497,1201.0253],[-71.7431,-46.2577,879.0963],[-71.7352,-46.2649,950.8881],[-71.7336,-46.2688,770.0769],[-71.731,-46.2691,711.6531],[-71.7275,-46.2724,470.0143],[-71.7272,-46.2798,500.5768],[-71.7245,-46.2815,512.1326],[-71.7239,-46.2848,496.3354],[-71.7289,-46.3047,282.8323],[-71.7356,-46.3102,283.7795],[-71.7377,-46.3206,259.7788],[-71.7366,-46.3235,245.872],[-71.7392,-46.326,217.9432],[-71.7387,-46.3273,219.0901],[-71.7428,-46.3273,249.3442],[-71.7459,-46.3298,252.9225],[-71.7444,-46.334,291.3627],[-71.7453,-46.3371,280.6229],[-71.7507,-46.3378,256.0043],[-71.7553,-46.3407,248.2917],[-71.757,-46.3456,239.7991],[-71.6687,-46.5291,207.8088],[-71.6691,-46.5332,211.0966],[-71.6723,-46.5365,213.3759],[-71.6692,-46.5404,215.9354],[-71.6688,-46.546,219.8842],[-71.6649,-46.5491,223.1032],[-71.6668,-46.5552,228.7247],[-71.6665,-46.56,233.2502],[-71.66,-46.5699,242.652],[-71.6635,-46.5767,249.1016],[-71.6613,-46.5828,254.2616],[-71.6615,-46.5878,260.1754],[-71.6666,-46.5937,273.9073],[-71.6658,-46.6082,285.0269],[-71.6686,-46.6133,290.5443],[-71.6668,-46.6174,294.852],[-71.6568,-46.6268,311.9314],[-71.6547,-46.6268,320.6653],[-71.6545,-46.6291,324.7198],[-71.6501,-46.6333,360.5143],[-71.6474,-46.6341,351.3544],[-71.6478,-46.6366,329.5648],[-71.6459,-46.638,325.454],[-71.6505,-46.6512,341.9985],[-71.6484,-46.6586,351.8323],[-71.6461,-46.6611,360.4779],[-71.6492,-46.6676,364.4343],[-71.6471,-46.6764,377.1365],[-71.6448,-46.6788,383.5993],[-71.6459,-46.6859,394.2639],[-71.6478,-46.6883,405.6429],[-71.6544,-46.6906,416.1592],[-71.6631,-46.6917,427.8702],[-71.6662,-46.6954,424.9083],[-71.6787,-46.6969,442.4868],[-71.6889,-46.7011,465.7199],[-71.6935,-46.7087,457.1205],[-71.6965,-46.7091,459.722],[-71.7026,-46.7137,482.4856],[-71.7064,-46.7127,512.5266],[-71.7094,-46.7167,480.1823],[-71.7152,-46.7192,479.1432],[-71.7162,-46.7222,492.707],[-71.7266,-46.7257,492.2408],[-71.7285,-46.7274,507.7591],[-71.7282,-46.7308,503.2699],[-71.7343,-46.73,513.7237],[-71.7396,-46.7314,513.8097],[-71.7401,-46.736,515.1934],[-71.7499,-46.7428,531.1484],[-71.7547,-46.7524,540.0055],[-71.7618,-46.759,565.3248],[-71.7681,-46.762,553.2584],[-71.7694,-46.7646,584.5082],[-71.7827,-46.7694,574.5284],[-71.7859,-46.7739,575.3992],[-71.7915,-46.7734,576.5585],[-71.796,-46.7749,579.4072],[-71.7978,-46.7778,586.0117],[-71.8033,-46.7795,590.4951],[-71.8066,-46.7826,593.3307],[-71.8134,-46.7831,597.8058],[-71.8338,-46.7963,620.5591],[-71.8531,-46.8002,642.6807],[-71.8612,-46.8039,648.3241],[-71.8706,-46.8011,720.7999],[-71.8889,-46.8006,680.4485],[-71.8922,-46.7988,677.6915],[-71.896,-46.8008,680.9766],[-71.9021,-46.8006,686.8003],[-71.9062,-46.7982,693.4283],[-71.9116,-46.7984,699.0313],[-71.9141,-46.8009,703.1998],[-71.9213,-46.8015,718.4255],[-71.9292,-46.8056,719.4799],[-71.9376,-46.8056,731.1161],[-71.9414,-46.8086,742.8058],[-71.9456,-46.8082,746.0428],[-71.9492,-46.8102,767.3498],[-71.9471,-46.8124,778.8425],[-71.9525,-46.8128,787.1324],[-71.9558,-46.8152,771.3063],[-71.9492,-46.8238,1005.9583],[-71.9358,-46.834,1454.8958],[-71.9344,-46.8403,1624.4862],[-71.9308,-46.8453,1871.996],[-71.9355,-46.8519,1862.1672],[-71.9324,-46.8601,1937.5881],[-71.9316,-46.8683,1935.3956],[-71.9368,-46.8751,1834.9271],[-71.945,-46.8788,2006.6978],[-71.9457,-46.8837,1917.436],[-71.9507,-46.8884,2000.0383],[-71.9565,-46.8904,1986.2802],[-71.9583,-46.8983,1947.2219],[-71.9701,-46.9038,1921.8931],[-71.9706,-46.911,1989.6418],[-71.969,-46.9184,2014.8013],[-71.9657,-46.9244,1984.5627],[-71.9633,-46.9257,2057.1357],[-71.9644,-46.9325,1921.1234],[-71.9576,-46.9372,2072.8604],[-71.9577,-46.9482,2216.5791],[-71.9519,-46.9584,2075.5676],[-71.9566,-46.9618,2139.9592],[-71.9577,-46.9736,2361.468],[-71.9509,-46.9771,2289.4749],[-71.9318,-46.9756,2308.1558],[-71.9184,-46.9847,2490.063],[-71.9227,-46.9884,2303.2141],[-71.9308,-46.9919,2417.7341],[-71.9321,-46.9945,2415.3474],[-71.9171,-46.9966,2191.2627],[-71.915,-46.9984,2283.5054],[-71.9023,-46.9953,2130.71],[-71.8964,-46.9955,2001.5552],[-71.8918,-47.0003,1913.5109],[-71.8892,-47.0057,1973.3274],[-71.8822,-47.008,2053.4854],[-71.8802,-47.011,2125.2209],[-71.8853,-47.0216,2141.033],[-71.8862,-47.0273,2264.3577],[-71.8963,-47.0384,1994.8252],[-71.9045,-47.0507,2105.8557],[-71.9112,-47.0538,2036.157],[-71.9149,-47.0588,2240.1697],[-71.9287,-47.0587,1917.3181],[-71.9397,-47.0631,2116.271],[-71.9455,-47.0696,2193.6838],[-71.952,-47.0704,2359.6467],[-71.9552,-47.0769,2162.2922],[-71.951,-47.0797,2186.1355],[-71.9505,-47.0872,2256.7761],[-71.938,-47.0893,1919.3087],[-71.9302,-47.093,2195.6467],[-71.9246,-47.0933,2086.2456],[-71.915,-47.0984,2202.5691],[-71.9066,-47.0988,1907.2202],[-71.88,-47.1075,1369.068],[-71.8769,-47.1115,1264.3364],[-71.8764,-47.1197,1062.7996],[-71.8644,-47.1258,870.662],[-71.8599,-47.1321,784.6177],[-71.8593,-47.1347,742.3788],[-71.8635,-47.1392,708.7517],[-71.8636,-47.1456,687.1416],[-71.8499,-47.163,693.3375],[-71.8549,-47.1667,704.0085],[-71.8746,-47.1715,628.355],[-71.8778,-47.1773,633.5991],[-71.8814,-47.1803,646.5916],[-71.8879,-47.1803,638.0881],[-71.8903,-47.1873,632.328],[-71.8885,-47.1994,755.941],[-71.8811,-47.2018,757.6381],[-71.8804,-47.2065,778.2534],[-71.885,-47.2084,752.1221],[-71.8906,-47.2084,737.7452],[-71.8926,-47.2138,718.5507],[-71.8879,-47.2185,707.3956],[-71.8831,-47.2171,732.7969],[-71.8756,-47.2223,752.5894],[-71.8645,-47.2244,860.7579],[-71.8648,-47.231,838.5494],[-71.8684,-47.2337,803.8877],[-71.873,-47.2329,788.749],[-71.8834,-47.2283,745.7913],[-71.8992,-47.2271,706.8737],[-71.9007,-47.2255,705.4114],[-71.9153,-47.2227,701.7122],[-71.922,-47.2187,717.1877],[-71.9215,-47.221,702.8017],[-71.9266,-47.2212,708.3293],[-71.9517,-47.2156,692.9364],[-71.9743,-47.2139,669.6955],[-71.9858,-47.2094,749.1727],[-72.0013,-47.207,1118.3896],[-72.0194,-47.1978,1612.6494],[-72.0006,-47.2151,1247.144],[-72.0012,-47.2194,1169.4071],[-72.0031,-47.2205,1158.8628],[-72.0006,-47.2309,802.5836],[-72.0031,-47.2321,799.5256],[-72.0053,-47.2366,672.6778],[-72.0106,-47.2389,785.5918],[-72.0129,-47.2426,802.4901],[-72.0145,-47.2514,537.802],[-71.9992,-47.2813,221.6285],[-71.9968,-47.295,165.003],[-72.0366,-47.3207,665.8506],[-72.0399,-47.3294,1010.7182],[-72.0465,-47.3334,1121.2129],[-72.0465,-47.3391,1305.9819],[-72.0484,-47.34,1365.2222],[-72.0703,-47.342,1778.927],[-72.074,-47.3409,1909.498],[-72.0757,-47.3375,1946.5945],[-72.0809,-47.3343,1840.2433],[-72.0963,-47.3349,1704.2745],[-72.109,-47.329,1873.8531],[-72.1138,-47.3319,1845.1897],[-72.1219,-47.3283,1856.9249],[-72.1268,-47.328,1796.6461],[-72.13,-47.3295,1744.339],[-72.1353,-47.3341,1787.0695],[-72.1371,-47.3431,1832.2889],[-72.143,-47.3479,1823.0537],[-72.1452,-47.3522,1879.7389],[-72.1431,-47.3562,1853.5265],[-72.1428,-47.3634,1947.8595],[-72.1521,-47.3709,1852.6301],[-72.1535,-47.3757,1924.6049],[-72.1612,-47.3788,1831.2587],[-72.1587,-47.3892,1906.428],[-72.1611,-47.395,1922.8879],[-72.1702,-47.3949,1770.9148],[-72.1801,-47.3991,1654.9476],[-72.1871,-47.4033,1615.5712],[-72.1976,-47.4165,1591.917],[-72.2173,-47.4086,965.0758],[-72.2222,-47.4057,946.8213],[-72.2235,-47.4024,920.1854],[-72.2265,-47.4022,928.0725],[-72.229,-47.4042,921.1066],[-72.2326,-47.4037,812.0781],[-72.2376,-47.406,763.7278],[-72.2446,-47.4046,788.5599],[-72.2482,-47.4089,804.0693],[-72.2491,-47.4144,835.9362],[-72.2666,-47.4154,763.1205],[-72.2753,-47.4214,869.3752],[-72.2789,-47.4312,1098.1523],[-72.2909,-47.4339,1199.3066],[-72.2916,-47.4355,1219.3248],[-72.2887,-47.4366,1201.0073],[-72.2883,-47.4385,1187.262],[-72.2935,-47.4456,1045.3325],[-72.3009,-47.446,1075.965],[-72.307,-47.4491,1047.6226],[-72.3128,-47.4483,1053.2092],[-72.3162,-47.4502,1092.3724],[-72.3205,-47.4501,1087.3723],[-72.323,-47.4484,1116.2273],[-72.3327,-47.4545,1016.1605],[-72.3415,-47.4552,908.298],[-72.3423,-47.4586,881.1238],[-72.3403,-47.4685,1068.4238],[-72.3319,-47.4759,1210.1786],[-72.326,-47.4775,1071.6328],[-72.3243,-47.481,831.0244],[-72.3204,-47.4822,829.8288],[-72.3149,-47.48,857.5974],[-72.308,-47.4808,855.2571],[-72.307,-47.4906,905.5168],[-72.2985,-47.4942,1069.8223],[-72.2951,-47.4989,1208.068],[-72.296,-47.5067,1528.9569],[-72.2921,-47.5122,1719.9495],[-72.3134,-47.5578,2123.1504],[-72.3193,-47.5609,2356.8711],[-72.3264,-47.5703,3204.1729],[-72.3255,-47.5847,3492.1147],[-72.3169,-47.5896,3389.3132],[-72.3114,-47.5909,3572.5532],[-72.3127,-47.5957,3391.1873],[-72.3249,-47.6021,3147.2944],[-72.3323,-47.6116,3214.5762],[-72.3397,-47.6156,3188.8535],[-72.3489,-47.6272,3013.9839],[-72.3534,-47.6372,3220.8589],[-72.3605,-47.639,3307.5806],[-72.3651,-47.6353,3225.5308],[-72.3815,-47.6361,2588.2197],[-72.3965,-47.6452,2100.3889],[-72.3978,-47.6492,1983.9061],[-72.402,-47.6528,2110.2566],[-72.3994,-47.6566,2159.9851],[-72.3998,-47.6585,2200.209],[-72.4133,-47.6584,2144.4529],[-72.42,-47.6607,2144.6594],[-72.4197,-47.6653,2007.4661],[-72.4102,-47.6774,1858.4531],[-72.4108,-47.6821,1726.8434],[-72.4136,-47.6837,1746.8365],[-72.4158,-47.691,1369.5073],[-72.4186,-47.6943,1164.1741],[-72.4289,-47.6996,1351.0942],[-72.4475,-47.7041,1732.1641],[-72.4504,-47.707,1730.3674],[-72.4512,-47.7164,1957.6775],[-72.4427,-47.7255,1964.7522],[-72.4395,-47.7313,2147.8611],[-72.4364,-47.7331,2178.0969],[-72.4374,-47.7389,2108.0569],[-72.4432,-47.746,2230.7505],[-72.4514,-47.7416,2126.0898],[-72.4663,-47.7384,2083.3999],[-72.4672,-47.7435,1949.1088],[-72.4719,-47.7486,1984.6195],[-72.4707,-47.7511,1964.2028],[-72.4729,-47.7583,1835.491],[-72.4813,-47.7589,1427.0544],[-72.4836,-47.7587,1389.1986],[-72.4892,-47.7534,1318.5033],[-72.4942,-47.7531,1298.5157],[-72.4971,-47.7564,1340.5508],[-72.5074,-47.7463,1362.5126],[-72.5104,-47.7449,1329.4282],[-72.5183,-47.7449,1552.0825],[-72.5214,-47.7411,1621.5712],[-72.5238,-47.7471,1582.3104],[-72.5229,-47.7529,1536.7826],[-72.521,-47.7549,1602.0183],[-72.5129,-47.7604,1502.2823],[-72.5066,-47.7613,1355.7601],[-72.5025,-47.766,1245.9625],[-72.504,-47.7696,1237.3137],[-72.4997,-47.7752,1432.1725],[-72.4999,-47.7882,1721.281],[-72.4988,-47.7899,1823.4495],[-72.4951,-47.7897,1799.6932],[-72.4956,-47.7974,1791.7653],[-72.4875,-47.8023,1840.9666],[-72.48,-47.8098,1640.8967],[-72.4731,-47.8128,1691.0127],[-72.4687,-47.8124,1827.1328],[-72.4702,-47.8157,1616.4443],[-72.4691,-47.8167,1533.4679],[-72.4706,-47.8269,1150.7729],[-72.4723,-47.8319,961.0208],[-72.4751,-47.8344,923.4606],[-72.473,-47.841,906.8314],[-72.4753,-47.85,1017.8389],[-72.4742,-47.8575,1308.7288],[-72.4786,-47.8708,1510.5212],[-72.4938,-47.8723,1537.2566],[-72.4991,-47.8751,1534.2778],[-72.5015,-47.8807,1567.1649],[-72.5014,-47.8853,1611.3655],[-72.5116,-47.8944,1413.1787],[-72.5164,-47.9031,1207.4521],[-72.523,-47.91,1262.5266],[-72.5245,-47.9178,1266.269],[-72.5232,-47.9229,1243.1272],[-72.5276,-47.9235,1249.4021],[-72.5286,-47.9274,1235.3596],[-72.5278,-47.9369,1184.4685],[-72.5241,-47.9407,1243.0581],[-72.5225,-47.9456,1294.9414],[-72.5174,-47.9448,1272.1602],[-72.5096,-47.9491,1420.0305],[-72.5041,-47.9575,1455.2551],[-72.499,-47.9617,1397.9481],[-72.4946,-47.9605,1427.9174],[-72.4931,-47.9576,1451.4935],[-72.4906,-47.9591,1407.7776],[-72.4793,-47.9593,1472.939],[-72.4773,-47.9613,1459.0018],[-72.4737,-47.9619,1450.2551],[-72.4694,-47.9604,1470.4078],[-72.4677,-47.9563,1471.8477],[-72.4591,-47.9558,1386.0121],[-72.4558,-47.9623,1382.4207],[-72.4465,-47.9659,1138.106],[-72.442,-47.965,1207.798],[-72.4356,-47.9663,1476.2156],[-72.4323,-47.9644,1548.0786],[-72.425,-47.9664,1468.5369],[-72.425,-47.9689,1474.748],[-72.4295,-47.9716,1431.5309],[-72.4268,-47.9776,1745.2847],[-72.4233,-47.9787,1893.4224],[-72.4239,-47.9836,2013.5376],[-72.4214,-47.9859,2012.282],[-72.4258,-47.9949,1807.6821],[-72.4183,-48.0,1980.5443],[-72.4301,-48.012,1685.2056],[-72.4287,-48.0171,1805.2622],[-72.4293,-48.0217,1659.6692],[-72.4321,-48.0253,1537.3737],[-72.4324,-48.0327,1508.6943],[-72.428,-48.0402,1592.2581],[-72.4331,-48.0443,1518.8254],[-72.4399,-48.0467,1336.1111],[-72.4396,-48.0581,1215.3826],[-72.4435,-48.0635,1349.4026],[-72.4312,-48.0694,1432.2153],[-72.4223,-48.0702,1608.2217],[-72.4221,-48.0737,1638.4617],[-72.4173,-48.0768,1644.1736],[-72.4087,-48.0766,1718.6947],[-72.401,-48.0736,1657.5688],[-72.3951,-48.0752,1752.584],[-72.3844,-48.0699,1810.7371],[-72.3695,-48.075,1479.0417],[-72.3608,-48.0721,1563.3085],[-72.362,-48.0901,1711.239],[-72.3579,-48.1025,1782.4088],[-72.3489,-48.1033,1853.3281],[-72.3296,-48.1124,1455.3794],[-72.3249,-48.1185,1501.4568],[-72.3234,-48.1318,1755.686],[-72.3219,-48.1334,1735.9542],[-72.3107,-48.1353,1615.2925],[-72.3053,-48.1393,1768.7262],[-72.3061,-48.1437,1757.7078],[-72.3041,-48.1505,1748.6204],[-72.3001,-48.1565,1624.8533],[-72.3077,-48.1662,1160.6244],[-72.3063,-48.1693,982.9862],[-72.3082,-48.1817,597.0211],[-72.3117,-48.1863,531.9254],[-72.3076,-48.1913,490.6824],[-72.3062,-48.2003,492.4861],[-72.3085,-48.2035,482.786],[-72.3254,-48.2146,491.1573],[-72.3151,-48.2351,655.0673],[-72.307,-48.2407,823.0701],[-72.3061,-48.247,898.3122],[-72.2986,-48.2478,894.4662],[-72.2934,-48.2563,908.4345],[-72.2901,-48.2565,902.7892],[-72.2848,-48.2656,1007.245],[-72.2702,-48.2735,930.7933],[-72.2644,-48.2806,811.6406],[-72.2594,-48.2838,784.7156],[-72.2566,-48.2891,792.0468],[-72.2592,-48.291,782.7275],[-72.2545,-48.2952,810.2982],[-72.2531,-48.2999,910.8091],[-72.2471,-48.2982,793.248],[-72.244,-48.299,718.337],[-72.2411,-48.307,717.635],[-72.2354,-48.3151,639.179],[-72.228,-48.3185,565.34],[-72.2296,-48.324,515.5522],[-72.2367,-48.3279,511.1975],[-72.2362,-48.3294,511.0297],[-72.2384,-48.3311,511.4627],[-72.2375,-48.3331,512.859],[-72.2435,-48.3383,514.1754],[-72.2455,-48.349,520.6519],[-72.2607,-48.351,834.5093],[-72.28,-48.361,1387.7753],[-72.2885,-48.3557,1464.1997],[-72.2993,-48.3569,1740.7079],[-72.3078,-48.3531,1898.9517],[-72.3229,-48.3562,1784.5117],[-72.3312,-48.3503,1766.1338],[-72.3388,-48.3493,1602.2673],[-72.3431,-48.3447,1735.9928],[-72.3501,-48.3478,1544.7148],[-72.3654,-48.351,1090.3491],[-72.3772,-48.3485,963.1284],[-72.3804,-48.3496,993.2338],[-72.3799,-48.3655,1049.7578],[-72.3763,-48.3714,1078.6028],[-72.3567,-48.3769,1453.0532],[-72.3458,-48.3846,1420.7329],[-72.3472,-48.389,1275.39],[-72.3581,-48.3913,1156.0325],[-72.3583,-48.3978,1122.7859],[-72.3601,-48.3984,1140.9302],[-72.3704,-48.3975,1242.8746],[-72.3807,-48.399,1483.1555],[-72.3879,-48.4031,1665.28],[-72.3924,-48.4101,1767.0773],[-72.4051,-48.4143,1706.7009],[-72.4063,-48.4174,1650.2363],[-72.4039,-48.4214,1400.3694],[-72.4079,-48.4263,1633.6222],[-72.4096,-48.4329,1737.4534],[-72.3935,-48.4373,1589.6077],[-72.3745,-48.4497,1934.1077],[-72.3828,-48.4558,1903.3749],[-72.3839,-48.4594,2010.6655],[-72.3917,-48.4692,2161.3689],[-72.3934,-48.4819,2031.4851],[-72.4038,-48.4864,1974.4921],[-72.4147,-48.4951,1739.84],[-72.4254,-48.4945,1699.4834],[-72.4329,-48.5035,1814.4705],[-72.4376,-48.5054,1821.5569],[-72.4422,-48.5129,1829.6949],[-72.4529,-48.5125,1786.7156],[-72.4707,-48.5163,1521.006],[-72.4812,-48.513,1334.4436],[-72.4908,-48.5124,1523.4808],[-72.504,-48.5175,1851.2734],[-72.5048,-48.5148,1842.9685],[-72.5174,-48.508,1493.0537],[-72.5259,-48.5003,1281.7603],[-72.5285,-48.4942,977.957],[-72.5266,-48.4896,833.5565],[-72.5355,-48.482,420.4126],[-72.5498,-48.4838,343.1788],[-72.5648,-48.4833,272.531],[-72.58,-48.4866,263.8286],[-72.5884,-48.4916,253.75],[-72.5899,-48.494,253.0],[-72.5825,-48.4964,253.0],[-72.5799,-48.5018,253.0],[-72.5784,-48.5132,253.0],[-72.5695,-48.5187,253.0],[-72.5674,-48.5361,253.0],[-72.5645,-48.5389,253.0],[-72.5646,-48.5475,253.0],[-72.5572,-48.5603,253.0],[-72.5639,-48.5729,253.0],[-72.565,-48.5832,253.0],[-72.5495,-48.6048,253.0],[-72.5502,-48.6146,253.0],[-72.5447,-48.6239,253.0],[-72.541,-48.635,253.0],[-72.5408,-48.6595,253.0],[-72.5348,-48.6678,253.0],[-72.5395,-48.6775,253.0],[-72.5364,-48.6981,253.0],[-72.5377,-48.7085,253.0],[-72.536,-48.7149,253.0],[-72.5408,-48.7217,253.0],[-72.5419,-48.7386,253.0],[-72.535,-48.753,253.0],[-72.5366,-48.7574,253.0],[-72.5296,-48.7706,253.0],[-72.53,-48.7962,253.0],[-72.5412,-48.8065,253.0],[-72.5656,-48.8233,253.0],[-72.5814,-48.8261,253.0],[-72.6017,-48.8359,253.0],[-72.6205,-48.8527,253.0],[-72.6396,-48.8662,253.0],[-72.6884,-48.8648,253.0],[-72.6967,-48.8967,276.3924],[-72.7037,-48.8977,344.9877],[-72.7044,-48.901,393.4205],[-72.7108,-48.9042,483.014],[-72.7281,-48.9046,1320.0334],[-72.7396,-48.9032,1438.5798],[-72.7443,-48.9061,1399.7361],[-72.7577,-48.919,1448.2267],[-72.7578,-48.9264,1238.1091],[-72.7613,-48.9306,1268.9054],[-72.7669,-48.946,1634.9453],[-72.7807,-48.9544,1578.0182],[-72.7839,-48.9588,1627.1101],[-72.7913,-48.9607,1506.3937],[-72.796,-48.9684,1614.0659],[-72.8086,-48.9608,773.3162],[-72.813,-48.9599,720.2654],[-72.8208,-48.9607,712.1306],[-72.8226,-48.964,725.053],[-72.8267,-48.9662,817.8571],[-72.849,-48.9654,1162.9888],[-72.8595,-48.9582,1393.1614],[-72.8637,-48.9503,1542.318],[-72.8629,-48.9474,1575.6638],[-72.8644,-48.9459,1561.9542],[-72.8729,-48.9483,1499.3203],[-72.8962,-48.9466,1596.78],[-72.9022,-48.9427,1655.5171],[-72.9145,-48.9402,1910.0649],[-72.9197,-48.9359,1853.2095],[-72.9236,-48.9355,1734.5148],[-72.9313,-48.94,1565.8362],[-72.9454,-48.945,1018.6263],[-72.9516,-48.9509,1026.535],[-72.9546,-48.9595,1165.5999],[-72.9519,-48.967,1419.0996],[-72.9562,-48.97,1458.4773],[-72.9594,-48.982,1607.0033],[-72.9622,-48.9824,1539.0996],[-72.9665,-48.986,1314.369],[-72.9796,-48.9871,1022.5361],[-72.9898,-48.9913,818.8151],[-72.9936,-48.9993,968.4393],[-72.9901,-49.0101,1466.4838],[-72.988,-49.0125,1491.7705],[-72.9894,-49.0178,1605.8405],[-72.986,-49.0205,1773.5034],[-72.9814,-49.0296,1947.2235],[-73.0063,-49.0295,1564.0149],[-73.0107,-49.0332,1510.9894],[-73.0112,-49.0429,1449.1569],[-73.0031,-49.0526,1939.7496],[-73.0058,-49.0578,2109.8137],[-73.0045,-49.0635,2103.0698],[-73.0163,-49.0628,1921.3259],[-73.0209,-49.0651,1929.3019],[-73.0259,-49.0645,2011.8013],[-73.0302,-49.0677,2173.9517],[-73.031,-49.075,1909.0884],[-73.0461,-49.0814,1692.1182],[-73.0467,-49.0872,1928.3663],[-73.0516,-49.0958,2033.9259],[-73.0557,-49.0992,1941.9125],[-73.0547,-49.1062,1790.3596],[-73.0631,-49.1139,2020.2998],[-73.0586,-49.1181,2135.7085],[-73.0614,-49.1263,2239.7139],[-73.0637,-49.1279,2247.1577],[-73.0714,-49.1283,2392.9009],[-73.0819,-49.133,2831.4595],[-73.0831,-49.1352,2790.6433],[-73.0816,-49.1406,2702.824],[-73.0823,-49.1452,2661.6626],[-73.1019,-49.1462,1996.5408],[-73.1102,-49.1513,1879.1118],[-73.1169,-49.1669,1657.1959],[-73.1418,-49.18,1507.2053],[-73.1461,-49.1898,1636.7133],[-73.1408,-49.1992,2072.5403],[-73.1397,-49.2059,1953.8967],[-73.1474,-49.2209,2323.0142],[-73.1443,-49.2294,2162.5889],[-73.1461,-49.234,1987.2251],[-73.146,-49.2459,1944.7336],[-73.137,-49.258,2114.9392],[-73.134,-49.2665,2319.6758],[-73.1209,-49.2652,2046.0558],[-73.103,-49.2666,2390.5618],[-73.1002,-49.2612,2333.01],[-73.0897,-49.253,2378.4709],[-73.0835,-49.2542,2259.791],[-73.0808,-49.2598,1825.6965],[-73.0678,-49.2685,1869.2375],[-73.0493,-49.2721,2613.6338],[-73.0429,-49.271,2416.1453],[-73.0395,-49.2769,2573.0266],[-73.0821,-49.2832,1501.9854],[-73.073,-49.3651,1027.4305],[-73.0771,-49.3809,937.713],[-73.0714,-49.3935,816.1178],[-73.0626,-49.404,1578.6271],[-73.0474,-49.4141,1972.787],[-73.0418,-49.4198,2251.8762],[-73.0403,-49.4269,2209.0852],[-73.0431,-49.4343,1874.7959],[-73.0455,-49.4508,1720.561],[-73.0542,-49.4653,830.6802],[-73.1043,-49.497,659.7771],[-73.1106,-49.506,656.9049],[-73.1302,-49.5246,1410.0753],[-73.1536,-49.5655,783.7403],[-73.1683,-49.5947,755.0371],[-73.1908,-49.6256,1766.1351],[-73.1982,-49.6426,1536.5322],[-73.2084,-49.655,1278.6702],[-73.2168,-49.669,1089.6182],[-73.2415,-49.6897,1050.8711],[-73.3088,-49.736,980.4646],[-73.4501,-49.7889,2647.2344],[-73.4466,-49.793,2585.8433],[-73.448,-49.7976,2469.8064],[-73.4617,-49.8,2299.7212],[-73.48,-49.8102,2195.5967],[-73.4864,-49.8116,2012.4149],[-73.4909,-49.8169,1889.7922],[-73.4902,-49.8254,1864.8586],[-73.493,-49.829,1856.2002],[-73.4857,-49.8338,1860.6272],[-73.4834,-49.839,1968.3971],[-73.4896,-49.8482,2542.4487],[-73.4891,-49.8527,2509.6736],[-73.4947,-49.8547,2491.3867],[-73.4991,-49.8612,2573.7007],[-73.4997,-49.8688,2476.8154],[-73.505,-49.8717,2431.4966],[-73.5101,-49.8782,2273.7437],[-73.5108,-49.88,2229.3875],[-73.5078,-49.8856,2028.3333],[-73.5068,-49.8918,1973.4917],[-73.5134,-49.8963,1905.5156],[-73.5292,-49.8986,1908.4469],[-73.538,-49.9037,1906.5071],[-73.5493,-49.9071,1920.4301],[-73.5484,-49.9093,1918.155],[-73.5561,-49.9227,2068.7837],[-73.5556,-49.9302,2065.9292],[-73.5571,-49.9373,2096.344],[-73.5606,-49.9421,2282.2046],[-73.5585,-49.9472,2542.2947],[-73.5548,-49.9496,2514.1511],[-73.5301,-49.952,2747.9204],[-73.521,-49.9576,2814.4717],[-73.5097,-49.9612,2988.9233],[-73.5038,-49.966,3208.6196],[-73.4817,-49.9701,2965.7051],[-73.477,-49.97,2856.8555],[-73.4721,-49.967,2769.5557],[-73.453,-49.9627,3114.5911],[-73.4514,-49.9603,3161.3511],[-73.4458,-49.9648,2990.0552],[-73.447,-49.9676,2968.3013],[-73.4452,-49.977,2580.3679],[-73.4413,-49.9818,2472.896],[-73.4482,-49.9851,2205.2773],[-73.444,-49.9897,2191.7808],[-73.4416,-50.0015,2283.3564],[-73.4356,-50.0099,2560.5422],[-73.448,-50.0162,2678.5137],[-73.4454,-50.0251,2157.137],[-73.447,-50.0328,2121.5073],[-73.4484,-50.0348,2121.7258],[-73.4599,-50.0399,2219.0381],[-73.4639,-50.0524,2814.011],[-73.4622,-50.0543,2900.2961],[-73.4772,-50.0535,2667.4026],[-73.4971,-50.0496,2904.7544],[-73.4944,-50.0524,2706.395],[-73.4942,-50.0553,2557.9565],[-73.4997,-50.0598,2850.6926],[-73.4833,-50.0702,2354.2776],[-73.482,-50.0722,2325.2297],[-73.4816,-50.084,2314.4868],[-73.4756,-50.0895,2344.6821],[-73.4765,-50.0906,2357.4634],[-73.4841,-50.0896,2318.717],[-73.4988,-50.0941,2208.2126],[-73.5049,-50.0981,2221.5142],[-73.5071,-50.1038,2395.4739],[-73.5141,-50.1063,2478.2881],[-73.5149,-50.1088,2401.7954],[-73.5121,-50.1158,2234.6323],[-73.5181,-50.1184,2021.916],[-73.52,-50.1222,2025.3372],[-73.5199,-50.1239,2040.3088],[-73.5142,-50.1287,2112.3882],[-73.5164,-50.1369,2103.606],[-73.5204,-50.1402,2080.4785],[-73.5181,-50.1474,2233.2207],[-73.5215,-50.1536,2694.5667],[-73.5098,-50.1566,2596.7991],[-73.5027,-50.1546,2573.6621],[-73.4985,-50.1551,2549.1301],[-73.4883,-50.1641,2430.0674],[-73.4784,-50.1671,2465.1636],[-73.4801,-50.1721,2302.7007],[-73.4694,-50.181399999999996,2001.074],[-73.4632,-50.1846,2119.6011],[-73.4563,-50.1843,2250.855],[-73.4418,-50.1799,2346.8247],[-73.4304,-50.1819,2206.2036],[-73.4275,-50.1856,2174.9263],[-73.4287,-50.19,2257.5276],[-73.4218,-50.1955,2359.3528],[-73.4213,-50.1985,2403.8447],[-73.416,-50.2003,2418.4211],[-73.4217,-50.2026,2237.2534],[-73.4243,-50.2059,2213.1287],[-73.4331,-50.207,2278.5625],[-73.4349,-50.2102,2340.9202],[-73.444,-50.2138,2342.5894],[-73.4479,-50.2174,2101.2759],[-73.4504,-50.2243,2278.4749],[-73.4479,-50.2272,2355.6084],[-73.4545,-50.2341,2312.6118],[-73.4519,-50.2412,2009.6479],[-73.4412,-50.2495,2151.3643],[-73.4283,-50.2517,2113.1289],[-73.3626,-50.3011,1869.6268],[-73.4044,-50.3358,933.4609],[-73.4256,-50.3361,921.4973],[-73.4378,-50.3436,518.8493],[-73.4283,-50.355,730.3498],[-73.4361,-50.3628,320.4019],[-73.4169,-50.3817,859.4408],[-73.4067,-50.38,761.5233],[-73.3978,-50.3708,319.2398],[-73.3702,-50.3724,853.3588],[-73.3763,-50.3759,937.3038],[-73.3837,-50.3867,783.1769],[-73.3843,-50.3912,839.8126],[-73.3875,-50.3922,942.4794],[-73.3756,-50.4161,579.0284],[-73.3583,-50.4287,1738.3673],[-73.3607,-50.4436,1947.9547],[-73.3597,-50.4461,2270.4688],[-73.3653,-50.4521,1894.5204],[-73.3598,-50.4611,1968.4464],[-73.3553,-50.4646,2368.5833],[-73.3521,-50.4728,2250.4204],[-73.3561,-50.4786,2034.6346],[-73.362,-50.4825,2101.8059],[-73.366,-50.4875,2338.2925],[-73.3581,-50.4878,2355.2222],[-73.3473,-50.4934,2196.1226],[-73.3394,-50.4951,2079.3042],[-73.3373,-50.4972,2020.4229],[-73.3379,-50.4993,1948.8685],[-73.3607,-50.5076,1878.0908],[-73.3625,-50.5157,1896.6565],[-73.3646,-50.5177,1931.1141],[-73.36,-50.5218,2167.6665],[-73.3577,-50.535,2809.0522],[-73.3497,-50.5381,2788.2285],[-73.3488,-50.5451,2751.7705],[-73.3425,-50.5474,2701.2559],[-73.3385,-50.5557,2475.6208],[-73.3312,-50.5622,2461.6521],[-73.3313,-50.5705,2391.4712],[-73.301,-50.5731,2418.8049],[-73.2871,-50.5894,2272.9766],[-73.2424,-50.5946,2404.9763],[-73.2349,-50.6005,2253.0508],[-73.2366,-50.61,2169.0823],[-73.2356,-50.6104,2159.438],[-73.2293,-50.611,2082.9565],[-73.2212,-50.6071,2044.8529],[-73.1936,-50.6153,1608.6986],[-73.1698,-50.6379,2515.7622],[-73.1692,-50.64,2500.4106],[-73.145,-50.6514,2662.6133],[-73.1458,-50.6539,2663.0],[-73.1533,-50.6581,2650.1458],[-73.1541,-50.6638,2715.3081],[-73.1511,-50.6683,2736.7192],[-73.1619,-50.674,2434.125],[-73.1663,-50.6819,2381.3193],[-73.1651,-50.6865,2466.6321],[-73.1739,-50.6967,2378.1821],[-73.1718,-50.7023,2469.0103],[-73.1822,-50.7069,2410.4519],[-73.1846,-50.7133,2365.1104],[-73.184,-50.7178,2390.5088],[-73.1887,-50.723,2404.8809],[-73.1859,-50.7265,2387.1865],[-73.1985,-50.7407,2049.2681],[-73.1958,-50.7429,2087.6326],[-73.1851,-50.7451,1756.8252],[-73.1793,-50.7491,1328.8478],[-73.1796,-50.752,1252.6411],[-73.184,-50.7584,1248.5336],[-73.1775,-50.7603,1314.4128],[-73.1668,-50.7581,1296.1338],[-73.15,-50.7649,627.3701],[-73.1497,-50.7678,578.3268],[-73.2003,-50.8114,1543.8799],[-73.201,-50.8204,2042.623],[-73.1917,-50.8112,1917.1477],[-73.1694,-50.8011,747.5027],[-73.1455,-50.7819,196.0],[-73.1012,-50.776,1501.2416],[-73.0962,-50.7727,1471.5916],[-73.092,-50.7744,1271.4235],[-73.0915,-50.7769,1274.3673],[-73.0829,-50.7831,1387.2134],[-73.0696,-50.7892,1708.6827],[-73.0646,-50.786,1615.6384],[-73.0562,-50.7731,1530.526],[-73.0515,-50.7684,1681.8114],[-73.0438,-50.7646,1658.0979],[-73.0419,-50.7612,1532.9965],[-73.0376,-50.7612,1482.6997],[-73.0317,-50.7586,1496.0615],[-73.026,-50.7614,1342.9127],[-73.0025,-50.7634,1436.0135],[-73.0003,-50.7567,1393.3516],[-72.9845,-50.7516,1164.5182],[-72.9805,-50.7441,1361.6599],[-72.9648,-50.7397,1347.2163],[-72.9552,-50.7413,1482.5027],[-72.9504,-50.735,1337.1168],[-72.9497,-50.7288,1252.1331],[-72.9439,-50.723,1272.9796],[-72.9439,-50.7171,1422.304],[-72.9393,-50.7103,1443.1321],[-72.9407,-50.7063,1470.5566],[-72.9302,-50.7025,1478.3042],[-72.9254,-50.7043,1508.7313],[-72.9173,-50.7029,1370.2053],[-72.9069,-50.6976,1458.9554],[-72.9048,-50.695,1447.8999],[-72.9058,-50.6937,1375.8439],[-72.9026,-50.6844,1413.3079],[-72.8984,-50.6805,1319.5586],[-72.8914,-50.6699,1350.7],[-72.8866,-50.6688,1314.6165],[-72.8756,-50.6697,1168.6827],[-72.8625,-50.6617,1444.1011],[-72.8592,-50.6573,1447.1584],[-72.8508,-50.6529,1376.7466],[-72.8465,-50.6516,1358.0895],[-72.8338,-50.6531,1279.2329],[-72.8286,-50.652,1201.5723],[-72.8145,-50.6458,1248.1769],[-72.8087,-50.6451,1184.1598],[-72.8007,-50.6382,1004.0405],[-72.793,-50.6369,871.8386],[-72.7847,-50.6317,748.5679],[-72.7702,-50.6288,821.0145],[-72.7543,-50.63,944.7009],[-72.747,-50.6268,1000.9702],[-72.738,-50.6259,1026.243],[-72.7359,-50.6244,1020.997],[-72.7378,-50.6217,1061.8315],[-72.734,-50.6157,1189.2021],[-72.7288,-50.6141,1201.6472],[-72.7273,-50.6142,1204.5024],[-72.7266,-50.6177,1168.5715],[-72.7132,-50.6341,1122.3667],[-72.6926,-50.6491,1118.79],[-72.6876,-50.6477,1114.0775],[-72.6844,-50.6434,1170.8621],[-72.6811,-50.6426,1218.4099],[-72.6699,-50.6581,1148.6273],[-72.6568,-50.6635,1107.173],[-72.6536,-50.6633,1093.5846],[-72.6507,-50.6583,1134.4052],[-72.6428,-50.6542,1313.5731],[-72.6255,-50.6581,1188.4843],[-72.6144,-50.6649,1358.2124],[-72.6146,-50.6738,1339.6788],[-72.6133,-50.6754,1302.8043],[-72.5962,-50.6817,1181.8789],[-72.5837,-50.6811,1396.4427],[-72.5773,-50.6782,1441.1011],[-72.5815,-50.6659,1379.3396],[-72.5799,-50.6544,1392.615],[-72.577,-50.6538,1438.7363],[-72.5754,-50.6516,1422.5156],[-72.5751,-50.647,1421.1699],[-72.5687,-50.6479,1371.0435],[-72.5614,-50.6465,1389.4316],[-72.5627,-50.6438,1371.3657],[-72.5524,-50.6354,1408.6035],[-72.5533,-50.6335,1400.7357],[-72.545,-50.6203,1345.2961],[-72.541,-50.6187,1346.5295],[-72.5242,-50.6186,1275.4116],[-72.5178,-50.6154,1391.3031],[-72.5034,-50.6132,1533.8832],[-72.4986,-50.6049,1680.8832],[-72.4918,-50.6008,1708.9994],[-72.481,-50.6018,1482.167],[-72.4532,-50.6179,1572.6066],[-72.445,-50.6162,1469.7686],[-72.4387,-50.6177,1387.6545],[-72.4257,-50.6168,1515.7595],[-72.4158,-50.6201,1713.2035],[-72.4145,-50.6212,1736.3733],[-72.4158,-50.6246,1681.2681],[-72.4147,-50.632,1754.729],[-72.4045,-50.6369,1778.7206],[-72.3997,-50.6332,1420.7296],[-72.3898,-50.6299,1350.1106],[-72.3695,-50.6197,1347.0198],[-72.3592,-50.6168,1517.2367],[-72.3533,-50.6178,1430.7325],[-72.3493,-50.6203,1483.4667],[-72.3461,-50.6248,1479.7629],[-72.3445,-50.6309,1509.8271],[-72.3401,-50.6332,1599.3555],[-72.3411,-50.6392,1560.8494],[-72.3378,-50.6494,1535.6978],[-72.3251,-50.651,1438.8765],[-72.3182,-50.6542,1632.5774],[-72.3025,-50.6508,1424.5421],[-72.2872,-50.6581,1792.8937],[-72.2856,-50.6599,1760.9451],[-72.2902,-50.6669,1721.8154],[-72.2895,-50.6715,1716.0906],[-72.2952,-50.6765,1764.1919],[-72.2978,-50.6857,1802.1396],[-72.3001,-50.6872,1765.84],[-72.2981,-50.6898,1783.4723],[-72.3008,-50.6922,1678.1243],[-72.2993,-50.6968,1763.2639],[-72.3022,-50.7022,1678.672],[-72.3003,-50.7067,1968.314],[-72.3112,-50.708,1809.9067],[-72.3184,-50.7164,1820.7041],[-72.3267,-50.7162,1724.2334],[-72.3367,-50.7189,1738.069],[-72.3394,-50.7242,1636.04],[-72.347,-50.7299,1697.0278],[-72.3496,-50.7398,1791.5646],[-72.3479,-50.7486,1853.2942],[-72.3495,-50.7517,1877.8721],[-72.3488,-50.7549,1903.1296],[-72.3447,-50.7598,1964.6599],[-72.3402,-50.7602,1811.3087],[-72.3365,-50.7631,1494.0972],[-72.3297,-50.7627,1321.311],[-72.3255,-50.7698,1061.0032],[-72.3169,-50.7745,1044.6448],[-72.3115,-50.7805,1012.1563],[-72.2963,-50.7905,952.4586],[-72.2942,-50.7952,910.3854],[-72.2866,-50.8019,837.8496],[-72.2862,-50.8048,841.2042],[-72.281,-50.809,784.5176],[-72.2786,-50.8159,717.2042],[-72.2682,-50.8263,630.6377],[-72.2686,-50.831,600.9573],[-72.2596,-50.8369,537.9828],[-72.2651,-50.853,441.0933],[-72.268,-50.8546,434.8553],[-72.2668,-50.8632,408.9085],[-72.2643,-50.8679,403.7063],[-72.2575,-50.8721,384.7513],[-72.2565,-50.8744,378.1389],[-72.249,-50.8754,370.7953],[-72.2468,-50.8782,367.5909],[-72.2488,-50.8792,372.8178],[-72.249,-50.8812,362.6616],[-72.2516,-50.8815,360.003],[-72.2519,-50.8846,353.3434],[-72.2556,-50.8898,345.7488],[-72.2509,-50.8927,340.1405],[-72.2507,-50.8953,336.9781],[-72.2471,-50.8971,319.8282],[-72.2462,-50.9051,315.1923],[-72.2482,-50.9065,302.5023],[-72.2488,-50.9106,295.0661],[-72.2581,-50.9181,277.5905],[-72.257,-50.9265,260.3595],[-72.2633,-50.9438,231.3857],[-72.2621,-50.9465,225.47559999999999],[-72.2586,-50.9488,222.4973],[-72.2643,-50.9528,217.3833],[-72.2691,-50.9797,203.0136],[-72.2647,-51.001,197.6022],[-72.2651,-51.0328,161.1077],[-72.2658,-51.0351,149.1552],[-72.2706,-51.0372,156.1585],[-72.2786,-51.0293,138.9929],[-72.3049,-51.0319,120.6517],[-72.3085,-51.0285,122.7923],[-72.3177,-51.0299,115.7614],[-72.3423,-51.0284,106.7513],[-72.3503,-51.0306,111.5966],[-72.361,-51.0231,98.695],[-72.3731,-51.0224,94.7917],[-72.3763,-51.0805,327.5484],[-72.3916,-51.0843,427.6969],[-72.403,-51.092,707.1761],[-72.4071,-51.0985,865.197],[-72.4065,-51.1034,910.0588],[-72.4085,-51.1076,890.7021],[-72.4046,-51.1172,966.6045],[-72.4054,-51.1199,931.3352],[-72.402,-51.125,959.2914],[-72.4019,-51.1333,1009.3041],[-72.398,-51.1372,1010.7936],[-72.3952,-51.1446,1008.2247],[-72.3898,-51.1472,976.4399],[-72.3848,-51.153,895.9749],[-72.3813,-51.1541,876.173],[-72.3792,-51.1583,842.0303],[-72.3763,-51.1604,832.2874],[-72.3632,-51.1651,827.8185],[-72.3621,-51.1682,823.8436],[-72.3595,-51.1689,826.4719],[-72.3619,-51.1735,845.8987],[-72.3599,-51.177,817.1584],[-72.3603,-51.1798,836.3376],[-72.3533,-51.1811,873.5256],[-72.3528,-51.1849,861.754],[-72.3496,-51.1884,791.4172],[-72.347,-51.1983,699.3976],[-72.3481,-51.204,640.1292],[-72.3318,-51.2099,619.4435],[-72.321,-51.2107,592.3828],[-72.3139,-51.2096,588.7368],[-72.3047,-51.2008,705.5803],[-72.3035,-51.2013,703.2683],[-72.2997,-51.2058,664.8374],[-72.2985,-51.2101,567.1246],[-72.2964,-51.2109,615.5282],[-72.2943,-51.2167,547.6421],[-72.2868,-51.2252,440.9396],[-72.2586,-51.2442,252.6514],[-72.2591,-51.2527,265.3122],[-72.2603,-51.2561,283.9912],[-72.2655,-51.2617,330.0811],[-72.2666,-51.2708,369.1808],[-72.2631,-51.2744,370.9078],[-72.2696,-51.2837,446.394],[-72.2735,-51.2861,452.3487],[-72.2953,-51.2882,559.6296],[-72.3061,-51.2931,596.0358],[-72.3109,-51.2991,607.0701],[-72.3064,-51.3012,613.8864],[-72.3077,-51.3074,606.6667],[-72.3235,-51.3097,496.7383],[-72.3261,-51.3114,508.8278],[-72.3268,-51.3145,493.3843],[-72.3312,-51.3139,492.769],[-72.3579,-51.3182,690.3387],[-72.3631,-51.3224,744.4343],[-72.3635,-51.3246,772.6743],[-72.3617,-51.3261,772.6743],[-72.365,-51.3329,773.929],[-72.3715,-51.3363,753.1147],[-72.3688,-51.3398,827.0157],[-72.369,-51.3426,864.3284],[-72.3632,-51.342,843.6095],[-72.3575,-51.3447,793.2799],[-72.3507,-51.3433,782.6922],[-72.3489,-51.3496,759.5348],[-72.3477,-51.35,759.5348],[-72.3365,-51.349,710.2242],[-72.3316,-51.3444,713.528],[-72.326,-51.3457,686.2612],[-72.3176,-51.3529,740.968],[-72.3131,-51.3632,651.3395],[-72.3088,-51.366,664.191],[-72.3104,-51.3706,661.2338],[-72.308,-51.3774,612.5972],[-72.3109,-51.3861,614.8657],[-72.3095,-51.3889,606.7794],[-72.3129,-51.3954,529.3754],[-72.31,-51.4034,586.5531],[-72.322,-51.4063,621.827],[-72.3381,-51.4244,687.448],[-72.3368,-51.4278,701.3666],[-72.3388,-51.4302,684.653],[-72.338,-51.437,669.0585],[-72.3411,-51.4478,607.2824],[-72.3367,-51.4589,576.134],[-72.3326,-51.4636,542.7302],[-72.3272,-51.4661,531.0432],[-72.3241,-51.475,440.4092],[-72.3288,-51.4777,461.3065],[-72.3459,-51.4773,587.0557],[-72.3468,-51.4811,610.8032],[-72.3513,-51.4845,603.3206],[-72.3507,-51.4888,590.2427],[-72.354,-51.4935,616.1028],[-72.3502,-51.5087,455.7434],[-72.3472,-51.5119,393.7964],[-72.3446,-51.5206,371.9242],[-72.3542,-51.5226,271.9577],[-72.3601,-51.5259,310.6385],[-72.3651,-51.5234,322.5114],[-72.3753,-51.5227,359.3588],[-72.3908,-51.5149,371.0192],[-72.4048,-51.5135,482.3685],[-72.4066,-51.5195,489.5305],[-72.3928,-51.5237,340.0594],[-72.3928,-51.5251,323.9945],[-72.3951,-51.5284,346.5386],[-72.4016,-51.5299,400.7432],[-72.4081,-51.5342,437.1741],[-72.418,-51.5445,511.37],[-72.4257,-51.5469,514.441],[-72.4304,-51.5547,574.3916],[-72.4354,-51.5726,646.5845],[-72.4417,-51.5848,690.8409],[-72.4288,-51.5875,682.4664],[-72.4187,-51.5858,650.7679],[-72.4018,-51.5878,727.9603],[-72.3909,-51.5916,698.5009],[-72.3901,-51.5945,691.4452],[-72.3877,-51.5958,706.2696],[-72.3815,-51.594,714.7265],[-72.3805,-51.5909,740.4895],[-72.382,-51.5857,743.279],[-72.3768,-51.5845,752.1786],[-72.3701,-51.5893,752.9291],[-72.3608,-51.5865,710.7258],[-72.3488,-51.5864,617.4445],[-72.3382,-51.5841,747.7175],[-72.327,-51.5874,712.476],[-72.323,-51.5929,650.589],[-72.3225,-51.6032,536.4957],[-72.3183,-51.6162,441.6389],[-72.3191,-51.6254,388.6324],[-72.3039,-51.6324,288.1203],[-72.2963,-51.6304,288.1425],[-72.2876,-51.6326,289.5289],[-72.2874,-51.6353,295.606],[-72.2844,-51.636,294.3622],[-72.2832,-51.6382,292.4748],[-72.2887,-51.64,283.7531],[-72.2909,-51.6453,280.7048],[-72.2967,-51.6464,282.5453],[-72.2882,-51.6521,272.7436],[-72.2898,-51.6595,267.1188],[-72.2924,-51.6618,258.8817],[-72.2907,-51.6625,254.3357],[-72.2875,-51.6696,249.7453],[-72.2899,-51.6728,247.3264],[-72.2913,-51.6788,241.0148],[-72.3006,-51.6873,241.2722],[-72.2989,-51.6902,253.8499],[-72.2989,-51.6975,246.9097],[-72.2973,-51.6992,254.1296],[-72.2732,-51.7053,257.0731],[-72.2555,-51.7026,283.9413],[-72.2489,-51.6993,285.0877],[-72.2467,-51.7,287.1835],[-72.2465,-51.7043,289.2316],[-72.2448,-51.7055,299.1709],[-72.2383,-51.7055,302.0436],[-72.2351,-51.7033,302.7546],[-72.2296,-51.7029,304.4576],[-72.2215,-51.7079,249.0716],[-72.1998,-51.713,216.2839],[-72.1965,-51.716,228.8491],[-72.1911,-51.7175,251.8629],[-72.1889,-51.7217,240.1657],[-72.1684,-51.7222,227.8449],[-72.1605,-51.726,236.8989],[-72.1617,-51.7285,254.1205],[-72.1675,-51.731,201.5157],[-72.1847,-51.7346,191.5175],[-72.1824,-51.7369,184.821],[-72.1729,-51.74,182.5748],[-72.1598,-51.7415,179.6541],[-72.152,-51.746,187.4994],[-72.1463,-51.7449,201.1884],[-72.1399,-51.7461,181.9037],[-72.137,-51.743899999999996,178.961],[-72.1309,-51.7431,188.6825],[-72.1218,-51.744,203.9982],[-72.1209,-51.7448,202.7867],[-72.124,-51.7482,195.4737],[-72.124,-51.7508,191.2631],[-72.1187,-51.7538,160.6879],[-72.1155,-51.7641,171.7534],[-72.1123,-51.7679,166.823],[-72.1032,-51.7714,172.3835],[-72.0759,-51.7733,211.8163],[-72.0748,-51.7776,186.4501],[-72.078,-51.7807,179.097],[-72.078,-51.7828,183.4833],[-72.0632,-51.785,179.5912],[-72.0466,-51.7977,178.2513],[-72.0414,-51.7991,176.3619],[-72.0255,-51.809,167.7202],[-72.011,-51.8205,166.7275],[-71.9934,-51.8384,163.7285],[-71.9889,-51.8408,166.6721],[-71.9844,-51.8478,167.7397],[-71.9669,-51.8651,164.8655],[-71.956,-51.8679,171.6566],[-71.9481,-51.874,175.7818],[-71.9472,-51.8805,172.6047],[-71.9411,-51.8861,174.9162],[-71.943,-51.8945,181.7243],[-71.9395,-51.9015,174.5991],[-71.9386,-51.9084,152.0718],[-71.9296,-51.9131,140.895],[-71.9288,-51.9149,131.4142],[-71.9327,-51.9202,140.3329],[-71.9453,-51.9148,172.1532],[-71.948,-51.9195,170.8025],[-71.9603,-51.926,173.8288],[-71.9684,-51.9264,175.4004],[-71.9719,-51.9282,175.2621],[-71.9801,-51.9332,178.0191],[-71.9875,-51.9405,173.9088],[-72.0285,-51.9565,189.0323],[-72.0336,-51.9602,188.0303],[-72.0338,-51.9619,184.1573],[-72.0286,-51.9679,184.7452],[-72.0176,-51.9703,179.6485],[-72.0155,-51.9736,174.7073],[-72.0067,-51.9787,176.3707],[-71.9932,-51.9792,183.1375],[-71.9794,-51.9756,183.9016],[-71.9731,-51.9717,176.8559],[-71.9654,-51.9721,175.9298],[-71.9622,-51.9778,180.8102],[-71.9557,-51.9789,179.0293],[-71.9552,-51.9867,162.3529],[-71.9487,-51.9901,160.001],[-71.9311,-51.991,175.6968],[-71.923,-51.9991,169.8111],[-71.8904,-52.0001,166.847],[-69.9955,-52.0007,130.3888],[-69.4861,-52.1516,247.8213],[-69.1901,-52.15,125.6376],[-69.0786,-52.1835,93.5335],[-68.9869,-52.2036,82.2664],[-68.838,-52.2777,96.171],[-68.7097,-52.2855,82.5899],[-68.586,-52.3067,71.802],[-68.5722,-52.326,85.4568],[-68.5135,-52.3295,90.8568],[-68.4186,-52.3325,52.0653],[-68.4177,-52.3869,7.8784],[-68.4306,-52.3948,6.3435],[-68.4333,-52.3979,4.0961],[-68.4319,-52.3982,0.0],[-68.4297,-52.3976,0.0],[-68.4181,-52.3913,0.0],[-68.4075,-52.3832,0.0],[-68.3925,-52.364,5.8707],[-68.3753,-52.3492,2.1147],[-68.3531,-52.336,4.6989],[-68.3519,-52.3226,0.0],[-68.3531,-52.3207,22.5587],[-68.3664,-52.3096,60.5788],[-68.3836,-52.291,0.0],[-68.3831,-52.2899,0.0],[-68.3992,-52.2768,58.6213],[-68.4186,-52.2554,0.0],[-68.4314,-52.2451,14.0001],[-68.4325,-52.2424,0.0],[-68.4381,-52.239,5.5764],[-68.4381,-52.2371,1.3033],[-68.4414,-52.2357,0.0],[-68.4503,-52.2265,25.8778],[-68.4781,-52.2035,0.0],[-68.4797,-52.2004,0.0],[-68.4819,-52.2001,16.9983],[-68.4925,-52.189,0.0],[-68.5014,-52.1826,13.1762],[-68.5125,-52.1699,0.0],[-68.5192,-52.1657,7.461],[-68.5253,-52.159,0.0],[-68.5303,-52.1565,43.5772],[-68.5314,-52.154,0.0],[-68.5631,-52.1282,31.8285],[-68.5697,-52.1201,0.0],[-68.5786,-52.1132,25.337],[-68.5908,-52.0996,7.3421],[-68.6092,-52.0829,7.3694],[-68.6092,-52.0807,0.158],[-68.6303,-52.0624,2.3421],[-68.6436,-52.0451,3.8136],[-68.6714,-52.0199,6.8046],[-68.7147,-51.9735,2.5313],[-68.7147,-51.9715,0.1575],[-68.7297,-51.9529,2.5755],[-68.7319,-51.9521,2.5755],[-68.7364,-51.9443,0.0],[-68.7503,-51.9293,6.6251],[-68.7803,-51.8807,0.0],[-68.8042,-51.8454,0.1639],[-68.8058,-51.8451,5.4851],[-68.8058,-51.8429,0.1969],[-68.8114,-51.8365,4.2153],[-68.8131,-51.831,0.0],[-68.8192,-51.8251,3.7748],[-68.8242,-51.8146,1.3305],[-68.8403,-51.7932,2.519],[-68.8508,-51.7762,0.0],[-68.9203,-51.6924,0.0],[-68.9358,-51.6668,6.9272],[-68.9414,-51.649,0.0],[-68.9464,-51.6449,3.8509],[-68.9508,-51.6346,1.8288],[-68.9581,-51.6249,0.9049],[-68.9803,-51.6137,0.3248],[-68.9997,-51.6093,1.7218],[-68.9997,-51.608,0.0],[-69.0014,-51.6093,1.3749],[-69.0125,-51.6063,3.9721],[-69.0153,-51.6079,0.8507],[-69.0153,-51.6099,6.8146],[-69.0192,-51.6101,0.6693],[-69.0281,-51.6151,1.0383],[-69.0342,-51.6149,1.2215],[-69.0492,-51.6193,0.0431],[-69.0581,-51.6254,1.2798],[-69.0631,-51.6251,0.0984],[-69.0642,-51.6271,0.6833],[-69.0786,-51.6354,0.4857],[-69.0936,-51.6415,2.666],[-69.1036,-51.6499,0.1828],[-69.1086,-51.6604,1.1654],[-69.1131,-51.6632,1.6506],[-69.1264,-51.666,0.5],[-69.1269,-51.6679,0.5],[-69.1369,-51.6685,0.5],[-69.1419,-51.6738,0.5],[-69.1425,-51.6782,4.1771],[-69.1453,-51.6799,5.2451],[-69.1675,-51.6851,4.9052],[-69.2081,-51.6846,3.2647],[-69.2153,-51.6904,4.3972],[-69.2225,-51.6935,7.0684],[-69.2308,-51.6935,6.5787],[-69.2314,-51.691,3.0249],[-69.2342,-51.6901,5.2878],[-69.2403,-51.6912,5.7054],[-69.2419,-51.6946,7.8536],[-69.2442,-51.6954,5.838],[-69.2431,-51.6918,4.4402],[-69.2369,-51.6904,4.401],[-69.2336,-51.6879,5.8661],[-69.2308,-51.6882,4.0098],[-69.2286,-51.6915,3.2181],[-69.2219,-51.6912,2.9201],[-69.2153,-51.6799,5.737],[-69.2086,-51.676,5.4201],[-69.1825,-51.6712,2.8241],[-69.1714,-51.6674,1.0366],[-69.1542,-51.6562,0.5],[-69.1558,-51.6524,3.3899],[-69.1525,-51.6499,0.5],[-69.1519,-51.6454,2.5513],[-69.1492,-51.6449,0.5],[-69.1481,-51.6465,0.5],[-69.1492,-51.6471,0.5],[-69.1469,-51.6471,0.5],[-69.1292,-51.6418,0.5],[-69.1203,-51.6415,0.0],[-69.1192,-51.6407,0.0],[-69.1219,-51.6385,0.0],[-69.1197,-51.6365,0.0],[-69.1658,-51.6296,0.5],[-69.1631,-51.6279,0.5],[-69.1658,-51.6254,0.5],[-69.1686,-51.6263,0.5],[-69.1753,-51.6224,0.5],[-69.1875,-51.6204,0.5],[-69.1953,-51.6168,0.5],[-69.2114,-51.6143,0.5],[-69.2175,-51.611,0.5],[-69.2253,-51.6101,0.5],[-69.2458,-51.6018,0.5],[-69.2619,-51.5993,0.5],[-69.2725,-51.5999,4.7573],[-69.3069,-51.5932,9.7474],[-69.3136,-51.5899,0.5],[-69.3342,-51.5854,1.0],[-69.3581,-51.5857,1.0],[-69.3719,-51.589,1.0],[-69.3853,-51.5896,1.0],[-69.4542,-51.6065,11.6858],[-69.4781,-51.601,1.0],[-69.4992,-51.6012,5.1892],[-69.5153,-51.6035,6.3667],[-69.5225,-51.606,5.4111],[-69.5231,-51.6079,6.94],[-69.5269,-51.6065,5.5681],[-69.5342,-51.6085,5.7123],[-69.5486,-51.6082,12.465],[-69.5547,-51.6132,7.8607],[-69.5681,-51.6124,4.34],[-69.5719,-51.6143,5.1776],[-69.5719,-51.6157,7.1798],[-69.5781,-51.6179,3.5],[-69.5869,-51.6174,4.383],[-69.5981,-51.6215,7.9239],[-69.6014,-51.6207,21.7751],[-69.5842,-51.6157,18.747],[-69.5781,-51.616,32.6937],[-69.5658,-51.6099,9.1161],[-69.5558,-51.6093,15.3444],[-69.5514,-51.6046,9.336],[-69.5392,-51.6026,11.1434],[-69.5353,-51.5996,4.0259],[-69.5253,-51.6001,2.2648],[-69.5192,-51.594,19.9082],[-69.5114,-51.5918,1.0],[-69.5097,-51.5896,1.0],[-69.5014,-51.5896,1.0],[-69.4975,-51.5862,63.9317],[-69.4803,-51.584,1.0],[-69.4736,-51.5804,21.5174],[-69.4636,-51.5796,1.0],[-69.4575,-51.5771,1.0],[-69.4503,-51.5774,8.0787],[-69.4442,-51.5737,2.0623],[-69.4397,-51.5737,1.0],[-69.4375,-51.5715,1.0],[-69.4292,-51.5726,1.0],[-69.4186,-51.5707,1.0],[-69.3897,-51.5576,19.4487],[-69.3553,-51.5551,1.0],[-69.3458,-51.5518,1.0],[-69.3314,-51.5532,1.0],[-69.3214,-51.5524,20.8374],[-69.3053,-51.5587,0.5],[-69.2892,-51.559,25.1475],[-69.2864,-51.5612,16.2769],[-69.2781,-51.5626,40.1418],[-69.2781,-51.5646,0.5],[-69.2708,-51.5643,27.2196],[-69.2625,-51.5685,2.4777],[-69.2497,-51.571,18.5454],[-69.2442,-51.5751,4.9111],[-69.2447,-51.5768,0.5],[-69.2431,-51.5782,1.2194],[-69.2319,-51.5838,0.5],[-69.1825,-51.5974,0.5],[-69.1653,-51.5999,0.5],[-69.1503,-51.6051,0.5],[-69.1347,-51.6071,0.0],[-69.1281,-51.6063,0.0],[-69.1314,-51.6035,4.3079],[-69.1147,-51.6007,1.2197],[-69.0931,-51.594,0.0],[-69.0847,-51.5885,0.8778],[-69.0697,-51.5732,2.4744],[-69.0581,-51.5668,2.2629],[-69.0453,-51.5629,32.6254],[-69.0192,-51.5601,3.7997],[-69.0014,-51.5624,5.7889],[-68.9997,-51.564,0.0],[-68.9981,-51.5632,0.6568],[-68.9892,-51.5685,3.0376],[-68.9847,-51.5729,8.5138],[-68.9808,-51.5824,0.3814],[-68.9781,-51.5826,4.572],[-68.9592,-51.5732,3.1959],[-68.9553,-51.5687,0.0],[-68.9558,-51.5671,0.0],[-68.9531,-51.5618,1.1319],[-68.9464,-51.5554,5.7348],[-68.9453,-51.5507,0.0],[-68.9519,-51.5332,13.2466],[-68.9492,-51.5293,0.9388],[-68.9547,-51.526,3.064],[-68.9603,-51.5137,55.9005],[-68.9597,-51.5123,0.1314],[-68.9925,-51.459,2.7453],[-68.9986,-51.4407,19.2471],[-69.0008,-51.4396,74.1499],[-69.0008,-51.4346,0.0],[-69.0092,-51.4182,11.3781],[-69.0103,-51.4093,0.0],[-69.0119,-51.4082,0.0],[-69.0142,-51.4001,0.0],[-69.0169,-51.3974,0.0],[-69.0231,-51.3754,0.0],[-69.0264,-51.3704,12.1544],[-69.0297,-51.3563,2.0724],[-69.0286,-51.3526,0.0],[-69.0308,-51.3524,14.6256],[-69.0325,-51.349,27.0275],[-69.0319,-51.3465,0.0],[-69.0336,-51.3443,2.8522],[-69.0319,-51.3437,0.0],[-69.0364,-51.341,17.1235],[-69.0381,-51.3374,0.0],[-69.0358,-51.3357,0.0],[-69.0419,-51.329,14.4269],[-69.0486,-51.3121,26.904],[-69.0475,-51.3099,0.0],[-69.0497,-51.3087,0.0],[-69.0486,-51.3076,0.0],[-69.0514,-51.3001,0.0],[-69.0497,-51.2988,0.0],[-69.0531,-51.2962,4.6663],[-69.0558,-51.2896,40.6864],[-69.0553,-51.2874,9.0746],[-69.0581,-51.284,0.0],[-69.0631,-51.2696,30.6726],[-69.0631,-51.2649,1.5418],[-69.0664,-51.2615,21.4117],[-69.0669,-51.256,0.0],[-69.0686,-51.2543,10.4828],[-69.0675,-51.2507,0.0],[-69.0697,-51.2504,0.0],[-69.0731,-51.2371,0.0],[-69.0747,-51.2363,13.2575],[-69.0769,-51.2304,11.5643],[-69.0775,-51.2257,32.9736],[-69.0758,-51.2243,0.0],[-69.0797,-51.2218,4.3893],[-69.0797,-51.2196,0.0],[-69.0836,-51.2151,51.0412],[-69.0847,-51.2074,0.0],[-69.0875,-51.2038,0.0],[-69.0864,-51.2018,0.0],[-69.0919,-51.1979,2.1036],[-69.0969,-51.1893,0.0],[-69.0964,-51.1874,0.0],[-69.1014,-51.1815,9.8112],[-69.1119,-51.1568,0.0],[-69.1125,-51.1501,8.6246],[-69.1175,-51.1401,0.0],[-69.1164,-51.1385,0.0],[-69.1192,-51.1371,2.6955],[-69.1186,-51.131,0.0],[-69.1208,-51.1279,5.0042],[-69.1203,-51.124,0.0],[-69.1236,-51.1215,16.9156],[-69.1242,-51.1151,0.0],[-69.1269,-51.1107,7.4478],[-69.1253,-51.1093,1.834],[-69.1281,-51.1057,0.0],[-69.1275,-51.1007,0.0],[-69.1297,-51.0996,1.6993],[-69.1281,-51.0974,0.0],[-69.1308,-51.0965,0.0],[-69.1331,-51.086,3.0597],[-69.1353,-51.0843,28.233],[-69.1353,-51.079,21.397],[-69.1375,-51.0768,5.0582],[-69.1392,-51.056,0.0],[-69.1414,-51.0546,17.2323],[-69.1397,-51.0537,0.0],[-69.1447,-51.0443,0.0],[-69.1464,-51.0438,21.4454],[-69.1481,-51.0335,17.9914],[-69.1503,-51.0293,0.0],[-69.1525,-51.0121,0.0],[-69.1536,-51.0118,18.6721],[-69.1542,-50.9962,0.0],[-69.1581,-50.9876,0.0],[-69.1664,-50.9793,0.0],[-69.1725,-50.9765,1.6805],[-69.1886,-50.976,1.0632],[-69.1931,-50.9738,0.0],[-69.2064,-50.9751,0.0],[-69.2047,-50.9801,0.0],[-69.2103,-50.9851,2.0753],[-69.2458,-50.9996,29.8887],[-69.2647,-51.0093,0.5],[-69.2769,-51.0135,5.6023],[-69.2936,-51.0165,0.5],[-69.2925,-51.0179,0.5],[-69.2997,-51.0215,0.5],[-69.3075,-51.0285,2.9962],[-69.3114,-51.0349,8.9926],[-69.3442,-51.0512,0.5],[-69.3592,-51.061,0.5],[-69.3703,-51.0646,1.4051],[-69.3703,-51.0665,1.9701],[-69.3814,-51.0765,1.4112],[-69.3836,-51.0821,40.1503],[-69.3919,-51.0838,1.9631],[-69.3947,-51.0868,11.7858],[-69.4014,-51.0879,4.8502],[-69.4031,-51.0907,5.0715],[-69.4075,-51.0918,5.0902],[-69.4153,-51.0904,7.8498],[-69.4219,-51.0868,5.8255],[-69.4314,-51.0887,4.3943],[-69.4319,-51.0929,6.3014],[-69.4347,-51.0913,5.8819],[-69.4325,-51.0879,6.1824],[-69.4269,-51.0874,3.6115],[-69.4208,-51.084,4.0625],[-69.4058,-51.086,2.3069],[-69.3969,-51.0818,2.8977],[-69.3931,-51.0782,4.8299],[-69.3897,-51.0724,4.8617],[-69.3897,-51.0696,4.5754],[-69.3842,-51.0626,5.4906],[-69.3669,-51.0501,4.5517],[-69.3642,-51.0499,4.5961],[-69.3614,-51.0465,4.8802],[-69.3481,-51.039,4.0347],[-69.3342,-51.026,4.735],[-69.3347,-51.0221,4.868],[-69.3258,-51.0137,2.4969],[-69.3192,-51.0104,2.5896],[-69.3153,-51.0068,3.8693],[-69.3153,-51.0049,4.167],[-69.3064,-51.0007,3.9038],[-69.3053,-50.9974,4.4566],[-69.2986,-50.9951,2.5367],[-69.2981,-50.9932,4.1186],[-69.2919,-50.9901,3.7824],[-69.2925,-50.989,4.541],[-69.2686,-50.9815,0.5],[-69.2675,-50.9782,1.9854],[-69.2636,-50.9782,0.5],[-69.2647,-50.9774,4.5875],[-69.2614,-50.9738,4.4744],[-69.2564,-50.9707,3.7897],[-69.2592,-50.9696,4.7137],[-69.2558,-50.9679,4.939],[-69.2419,-50.9663,3.3543],[-69.2331,-50.9663,3.6835],[-69.2281,-50.969,3.6164],[-69.2336,-50.9729,0.0],[-69.2331,-50.9757,0.0],[-69.2364,-50.9754,3.1776],[-69.2364,-50.9732,0.0],[-69.2403,-50.9715,0.0],[-69.2453,-50.9718,2.6043],[-69.2508,-50.9746,3.0295],[-69.2481,-50.9762,4.644],[-69.2481,-50.9785,0.0],[-69.2503,-50.9785,0.5],[-69.2503,-50.9801,0.5],[-69.2419,-50.9832,0.0],[-69.2386,-50.9832,0.0],[-69.2353,-50.9796,0.0],[-69.2269,-50.9762,0.9043],[-69.2236,-50.9712,2.8181],[-69.2225,-50.9599,0.0],[-69.2158,-50.9496,0.0],[-69.2164,-50.9468,3.0708],[-69.2142,-50.9449,0.0],[-69.2075,-50.9407,4.3549],[-69.2019,-50.9396,0.0],[-69.1981,-50.9349,0.0],[-69.1753,-50.9207,0.0],[-69.1669,-50.9224,2.8666],[-69.1597,-50.9199,0.0],[-69.1358,-50.9021,4.6167],[-69.1319,-50.8976,0.0],[-69.1292,-50.8829,0.0],[-69.1297,-50.8646,0.0],[-69.1281,-50.864,0.0],[-69.1281,-50.851,0.0],[-69.1303,-50.8304,0.0],[-69.1308,-50.7962,0.0],[-69.1358,-50.7796,10.6833],[-69.1375,-50.7663,0.0]]],
[[[-69.2225,-50.9854,0.0],[-69.2214,-50.984,0.0],[-69.2242,-50.9837,0.0],[-69.2292,-50.9893,0.0],[-69.2253,-50.9882,0.0],[-69.2225,-50.9854,0.0]]],
[[[-69.2114,-50.9665,0.0],[-69.2108,-50.9646,0.0],[-69.2125,-50.9649,0.0],[-69.2131,-50.9671,0.0],[-69.2114,-50.9665,0.0]]],
[[[-69.1897,-50.9504,0.0],[-69.1919,-50.949,0.0],[-69.1986,-50.9499,0.0],[-69.1942,-50.951,0.0],[-69.1964,-50.9532,0.0],[-69.1919,-50.9529,0.0],[-69.1897,-50.9504,0.0]]],
[[[-69.0308,-51.5754,5.5639],[-69.0347,-51.5735,0.9992],[-69.0375,-51.5749,1.5512],[-69.0392,-51.5785,1.2427],[-69.0475,-51.5815,0.3427],[-69.0347,-51.5862,1.3413],[-69.0186,-51.5854,0.44],[-69.0236,-51.5829,0.0562],[-69.0247,-51.579,4.1129],[-69.0236,-51.5779,0.0],[-69.0308,-51.5754,5.5639]]],
[[[-69.0347,-51.566,0.2957],[-69.0364,-51.5635,1.7395],[-69.0392,-51.564,0.6428],[-69.0436,-51.5671,1.8925],[-69.0469,-51.5671,0.8685],[-69.0481,-51.5693,3.2151],[-69.0442,-51.5701,0.5773],[-69.0347,-51.566,0.2957]]],
[[[-69.0275,-51.5638,0.6253],[-69.0297,-51.5618,0.9154],[-69.0297,-51.5638,1.7357],[-69.0331,-51.5646,0.2957],[-69.0264,-51.5649,0.4114],[-69.0275,-51.5638,0.6253]]],
[[[-69.0003,-50.9999,0.0],[-69.0003,-51.0001,0.0],[-68.9997,-51.0001,0.0],[-68.9997,-50.9999,0.0],[-69.0003,-50.9999,0.0]]],
[[[-66.321,-48.3582,0.6588],[-66.3226,-48.3574,0.0],[-66.3265,-48.3607,0.0],[-66.3238,-48.3621,-0.2451],[-66.321,-48.3582,0.6588]]],
[[[-71.7035,-46.4572,205.5],[-71.7104,-46.4577,205.5],[-71.7076,-46.4575,205.5],[-71.7035,-46.4572,205.5]]],
[[[-66.2629,-48.2443,0.1659],[-66.2629,-48.2432,0.1659],[-66.2682,-48.2438,0.2429],[-66.2674,-48.2449,0.0],[-66.2629,-48.2443,0.1659]]],
[[[-66.2474,-48.239,0.0],[-66.2471,-48.2379,0.0],[-66.251,-48.2385,0.074],[-66.2551,-48.241,0.1764],[-66.2557,-48.2432,-0.265],[-66.2535,-48.2435,-0.1713],[-66.2518,-48.2424,-0.2946],[-66.2526,-48.2415,-0.1905],[-66.2474,-48.239,0.0]]],
[[[-66.0854,-48.1285,0.2187],[-66.0888,-48.1276,-0.2122],[-66.0807,-48.1338,-0.0383],[-66.0793,-48.1332,-0.0383],[-66.0829,-48.1293,0.0],[-66.0854,-48.1285,0.2187]]],
[[[-66.1038,-48.1254,0.2876],[-66.1071,-48.1246,0.804],[-66.1085,-48.126,0.0],[-66.1021,-48.1274,0.3682],[-66.1038,-48.1254,0.2876]]],
[[[-65.939,-48.1229,0.0],[-65.9471,-48.1221,0.67],[-65.9518,-48.1232,0.0],[-65.9401,-48.1254,0.0],[-65.9379,-48.124,-0.081],[-65.939,-48.1229,0.0]]],
[[[-65.9496,-48.1157,0.0],[-65.9543,-48.1149,0.1292],[-65.9549,-48.1162,0.1292],[-65.9518,-48.1171,0.0],[-65.9496,-48.1157,0.0]]],
[[[-65.8929,-48.1129,0.0],[-65.8968,-48.1124,0.0],[-65.8954,-48.1165,0.0],[-65.8921,-48.116,-0.0764],[-65.8929,-48.1129,0.0]]],
[[[-66.0126,-48.1113,1.3383],[-66.014,-48.1104,0.0238],[-66.0179,-48.114,0.0199],[-66.0124,-48.1162,0.5238],[-66.0096,-48.1149,0.0],[-66.009,-48.1135,0.0],[-66.0126,-48.1126,1.3383],[-66.0126,-48.1113,1.3383]]],
[[[-65.9912,-48.1124,0.5622],[-65.9943,-48.1113,0.6975],[-65.9951,-48.1135,0.0],[-65.9915,-48.1151,0.0],[-65.9912,-48.1124,0.5622]]],
[[[-65.9835,-48.1076,0.0],[-65.9863,-48.1068,0.0],[-65.9874,-48.1101,-0.2559],[-65.9837,-48.111,0.0],[-65.9835,-48.1076,0.0]]],
[[[-65.8957,-48.0743,0.0],[-65.8987,-48.0735,0.0427],[-65.9021,-48.0776,0.2253],[-65.8968,-48.0793,1.4958],[-65.894,-48.0774,-0.1539],[-65.8957,-48.0743,0.0]]],
[[[-65.926,-48.0232,0.0],[-65.9274,-48.0218,0.0],[-65.9326,-48.0251,0.0],[-65.9232,-48.0257,0.024],[-65.926,-48.0232,0.0]]],
[[[-65.8885,-48.0843,1.7163],[-65.8885,-48.0826,-0.2718],[-65.8901,-48.0824,0.0],[-65.8926,-48.0851,0.0275],[-65.8887,-48.0857,0.8003],[-65.8885,-48.0843,1.7163]]],
[[[-65.8621,-47.9571,1.04],[-65.8668,-47.9568,1.8547],[-65.8696,-47.9599,0.0],[-65.8674,-47.9607,0.0],[-65.8621,-47.9571,1.04]]],
[[[-65.8718,-47.9585,0.4941],[-65.8715,-47.9571,0.0],[-65.8749,-47.9593,0.0],[-65.8729,-47.9596,0.0],[-65.8718,-47.9585,0.4941]]],
[[[-65.8707,-47.9549,0.0],[-65.8704,-47.954,0.0],[-65.8737,-47.9543,0.0],[-65.8729,-47.9557,0.2618],[-65.8707,-47.9549,0.0]]],
[[[-65.9318,-48.0168,0.6003],[-65.9362,-48.0165,0.0],[-65.9368,-48.0179,0.0],[-65.9332,-48.0187,0.1891],[-65.931,-48.0176,0.0],[-65.9318,-48.0168,0.6003]]],
[[[-65.899,-48.0035,0.5741],[-65.9035,-48.004,0.6042],[-65.904,-48.0071,0.0458],[-65.9004,-48.0062,1.531],[-65.8979,-48.004,0.0],[-65.899,-48.0035,0.5741]]],
[[[-65.8892,-47.936,0.0],[-65.8918,-47.936,0.2823],[-65.8918,-47.9379,0.9059],[-65.889,-47.9374,0.5048],[-65.8892,-47.936,0.0]]],
[[[-65.8643,-47.9474,1.2967],[-65.8704,-47.9468,2.3023],[-65.8712,-47.9482,0.0],[-65.8674,-47.9493,3.0641],[-65.8613,-47.9482,0.2778],[-65.8643,-47.9474,1.2967]]],
[[[-65.7327,-47.9179,0.0],[-65.7343,-47.9173,0.0],[-65.7368,-47.9218,0.0],[-65.7326,-47.9207,0.0],[-65.7327,-47.9179,0.0]]],
[[[-65.7363,-47.9174,1.1612],[-65.7351,-47.9143,0.0],[-65.7393,-47.9146,2.8646],[-65.7432,-47.9218,0.0],[-65.7396,-47.9212,0.0],[-65.7363,-47.9174,1.1612]]],
[[[-65.7565,-47.9126,0.0],[-65.7596,-47.9124,0.0],[-65.7613,-47.914,0.0],[-65.7551,-47.9154,0.0],[-65.7546,-47.914,0.0682],[-65.7565,-47.9126,0.0]]],
[[[-65.7146,-47.9054,0.0795],[-65.719,-47.906,2.3856],[-65.721,-47.9101,6.6043],[-65.7274,-47.9113,0.4134],[-65.7187,-47.9165,0.0],[-65.7154,-47.9149,0.2392],[-65.7118,-47.9157,0.0],[-65.7101,-47.9146,0.0],[-65.7102,-47.9118,0.0],[-65.7124,-47.9113,0.6359],[-65.7146,-47.9054,0.0795]]],
[[[-65.8651,-47.8007,0.0],[-65.8695,-47.7996,0.7152],[-65.8737,-47.8035,1.5885],[-65.8654,-47.804,0.0],[-65.8651,-47.8007,0.0]]],
[[[-65.8793,-47.7632,0.0],[-65.8832,-47.7624,0.0],[-65.8843,-47.764,1.0029],[-65.891,-47.7637,0.6493],[-65.891,-47.7649,0.0],[-65.8893,-47.7668,0.0],[-65.8726,-47.7651,0.0],[-65.8793,-47.7632,0.0]]],
[[[-65.8385,-47.7432,0.0],[-65.8401,-47.7415,0.3023],[-65.8415,-47.7432,0.2498],[-65.8415,-47.7474,0.0632],[-65.8376,-47.7471,0.0],[-65.8399,-47.7457,0.0],[-65.8385,-47.7432,0.0]]]]}}