{"type": "Feature","bbox": [-59.7727,-34.6163,-59.1991,-34.2433],"geometry": {"type": "MultiPolygon","coordinates": [[[[-59.7584,-34.5219,54.7435],[-59.6336,-34.6163,48.6152],[-59.5706,-34.5627,45.4109],[-59.5241,-34.6003,46.8435],[-59.5081,-34.5861,44.0486],[-59.4864,-34.5758,38.4806],[-59.4786,-34.5828,38.2494],[-59.2264,-34.4539,35.2982],[-59.248,-34.425,27.4265],[-59.2177,-34.4002,21.9477],[-59.1991,-34.3759,21.0261],[-59.2564,-34.3305,30.6952],[-59.2511,-34.3267,36.6521],[-59.257,-34.3221,32.4647],[-59.2586,-34.3241,31.396],[-59.2787,-34.3098,37.1644],[-59.2823,-34.3135,37.2196],[-59.319,-34.291,40.3252],[-59.3139,-34.2865,40.0644],[-59.3058,-34.2665,39.0075],[-59.3806,-34.2433,18.2874],[-59.3798,-34.2465,17.824],[-59.3908,-34.2544,34.9167],[-59.3929,-34.2645,18.4888],[-59.4021,-34.2701,20.2069],[-59.4205,-34.2729,19.3984],[-59.4131,-34.281,24.2062],[-59.4189,-34.2842,22.3774],[-59.4141,-34.2916,28.5199],[-59.4304,-34.3029,28.4672],[-59.4282,-34.3067,30.8086],[-59.4333,-34.3101,30.8611],[-59.4479,-34.2953,28.7041],[-59.467,-34.3101,33.9002],[-59.4691,-34.3084,39.3733],[-59.4844,-34.3188,44.0043],[-59.4902,-34.315,44.8916],[-59.5038,-34.324,44.1238],[-59.5006,-34.3286,46.6981],[-59.5416,-34.3531,42.2921],[-59.6066,-34.4115,55.4707],[-59.6219,-34.4013,52.426],[-59.6463,-34.423,55.317],[-59.6686,-34.4044,53.1909],[-59.6675,-34.4025,52.2143],[-59.6712,-34.3972,52.6626],[-59.6781,-34.4006,53.9375],[-59.6795,-34.4071,54.6462],[-59.7708,-34.4526,54.188],[-59.766,-34.4554,55.4221],[-59.7678,-34.4576,55.3871],[-59.7396,-34.4808,56.3538],[-59.7727,-34.511,55.3248],[-59.7584,-34.5219,54.7435]]]]}
,"properties": {"GID_2": "ARG.1.105_1","GID_0": "ARG","country": "Argentina","GID_1": "ARG.1_1","state": "BuenosAires","NL_NAME_1": "NA","county": "SanAndrésdeGiles","VARNAME_2": "SanAndresdeGiles","NL_NAME_2": "NA","TYPE_2": "Partido","ENGTYPE_2": "Part","CC_2": "NA","HASC_2": "AR.BA.SG","name": "SanAndrésdeGiles.county","area_km2": 1124.213,"hist_schema_id": "Elevation0-9000","hist_area_km2": {"25": 257.1516,"50": 866.1525,"75": 0.9089}}}