{"type":"Feature","properties":{"GID_2":"ARG.19.9_1","GID_0":"ARG","country":"Argentina","GID_1":"ARG.19_1","state":"SanLuis","NL_NAME_1":"NA","county":"LibertadorGeneralSanMartín","VARNAME_2":"LibertadorGeneralSanMa|Libert","NL_NAME_2":"NA","TYPE_2":"Departamento","ENGTYPE_2":"Department","CC_2":"NA","HASC_2":"AR.SL.LM","name":"LibertadorGeneralSanMartín.county"},
"geometry":{"type": "MultiPolygon","coordinates": [[[[-66.0785,-32.6589,1380.9363],[-66.0654,-32.6902,1555.4525],[-66.0644,-32.6998,1639.6973],[-66.0671,-32.7139,1651.4159],[-66.0661,-32.7329,1613.0835],[-66.0747,-32.7507,1646.8979],[-66.0759,-32.7552,1663.5537],[-66.0752,-32.7649,1673.0696],[-66.0668,-32.7826,1829.328],[-66.0587,-32.7893,1732.4851],[-66.049,-32.7942,1698.8104],[-66.0175,-32.8049,1700.2198],[-66.0129,-32.8076,1665.1678],[-66.0065,-32.8155,1687.0038],[-65.9984,-32.8222,1619.011],[-65.9834,-32.8289,1496.0889],[-65.9452,-32.838,1481.798],[-65.9058,-32.8417,1444.2192],[-65.896,-32.8465,1414.9865],[-65.8852,-32.8577,1377.5408],[-65.8804,-32.86,1375.0184],[-65.8523,-32.8635,1345.0115],[-65.8296,-32.8641,1334.5751],[-65.8244,-32.8658,1325.6802],[-65.8108,-32.8745,1326.1604],[-65.7997,-32.876,1308.187],[-65.7739,-32.8859,1245.7424],[-65.7229,-32.8845,1159.6959],[-65.7126,-32.8885,1135.433],[-65.7013,-32.899,1121.4418],[-65.6955,-32.899,1110.5887],[-65.6905,-32.8973,1099.9756],[-65.6799,-32.8858,1029.1652],[-65.6753,-32.883,1023.6008],[-65.6698,-32.8816,1023.3703],[-65.6588,-32.8837,1008.2204],[-65.6543,-32.8864,1036.5736],[-65.6477,-32.8943,985.7283],[-65.6438,-32.9033,1008.5794],[-65.6418,-32.9176,973.7748],[-65.6389,-32.9216,978.5065],[-65.6245,-32.9289,960.4891],[-65.6139,-32.9402,941.0878],[-65.5984,-32.9461,924.351],[-65.5912,-32.9521,932.9509],[-65.5632,-32.9228,905.5018],[-65.5298,-32.9048,892.8486],[-65.526,-32.9012,894.6258],[-65.5208,-32.8928,885.9187],[-65.5075,-32.8563,873.0895],[-65.4864,-32.8403,840.2462],[-65.4727,-32.8195,837.0],[-65.4484,-32.7993,818.0402],[-65.4216,-32.7917,815.0522],[-65.3951,-32.5228,855.28],[-65.388,-32.4882,793.4021],[-65.3748,-32.4615,763.985],[-65.3759,-32.4572,761.4332],[-65.392,-32.4374,773.3147],[-65.3946,-32.428,758.2725],[-65.3944,-32.4232,760.7078],[-65.3891,-32.4148,733.6772],[-65.3843,-32.401,706.1849],[-65.3831,-32.3916,705.3491],[-65.3894,-32.3783,699.581],[-65.4067,-32.3595,644.5913],[-65.4142,-32.3467,689.563],[-65.4166,-32.3085,657.1539],[-65.4201,-32.2941,742.7139],[-65.4241,-32.2855,764.1064],[-65.439,-32.2784,711.8333],[-65.4502,-32.2773,649.1121],[-65.4656,-32.2637,560.4238],[-65.4765,-32.2615,491.8026],[-65.7049,-32.2604,759.3901],[-65.7232,-32.269,848.5356],[-65.755,-32.2885,798.802],[-65.7973,-32.3201,879.7119],[-65.8232,-32.3454,959.9593],[-65.834,-32.3621,1062.963],[-65.8505,-32.3752,909.4767],[-65.8643,-32.3903,910.9951],[-65.8728,-32.3964,1116.8673],[-65.8857,-32.4121,1152.0903],[-65.9267,-32.445,1202.5947],[-65.9451,-32.4691,1461.1064],[-65.9685,-32.5073,1534.0623],[-65.9797,-32.5292,1548.4545],[-65.986,-32.5476,1585.8506],[-65.9997,-32.5738,1489.4263],[-66.0319,-32.6072,1639.1436],[-66.0626,-32.6474,1346.1055],[-66.0785,-32.6589,1380.9363]]]]}}