{"type":"Feature","properties":{"GID_2":"ARG.24.9_1","GID_0":"ARG","country":"Argentina","GID_1":"ARG.24_1","state":"Tucumán","NL_NAME_1":"NA","county":"Leales","VARNAME_2":"BellaVista","NL_NAME_2":"NA","TYPE_2":"Departamento","ENGTYPE_2":"Department","CC_2":"NA","HASC_2":"AR.TM.LE","name":"Leales.county"},
"geometry":{"type": "MultiPolygon","coordinates": [[[[-64.7799,-27.0693,398.9628],[-64.9068,-27.0501,356.9388],[-64.9059,-27.045,357.921],[-65.0524,-27.0224,365.5066],[-65.057,-27.0369,359.9083],[-65.1231,-27.0229,365.7047],[-65.1256,-27.0317,361.4612],[-65.1705,-27.0216,365.8802],[-65.1702,-27.0184,366.3913],[-65.1888,-27.0143,367.1221],[-65.1897,-27.0121,368.004],[-65.2508,-26.9996,366.3615],[-65.2537,-27.0095,362.8288],[-65.2568,-27.012,365.8116],[-65.2574,-27.0178,361.9116],[-65.2609,-27.0199,360.6901],[-65.265,-27.0112,365.3631],[-65.2616,-27.0021,366.871],[-65.2632,-26.9869,370.7311],[-65.2591,-26.9805,371.9017],[-65.2605,-26.9709,375.4423],[-65.2659,-26.9651,376.6017],[-65.2693,-26.9562,379.8882],[-65.2797,-26.9464,384.8832],[-65.2871,-26.9426,385.2111],[-65.2888,-26.9351,387.7572],[-65.2932,-26.9314,388.583],[-65.2941,-26.9255,390.2314],[-65.2958,-26.9255,394.9059],[-65.2979,-26.9288,389.8636],[-65.3003,-26.9499,386.0753],[-65.3051,-26.9647,381.658],[-65.3061,-26.9664,381.4595],[-65.3105,-26.9659,382.5184],[-65.312,-26.975,379.1662],[-65.3179,-26.9767,377.6453],[-65.3207,-26.982,374.1623],[-65.3205,-26.9857,372.3862],[-65.3144,-26.9927,371.8374],[-65.3271,-27.0001,368.5082],[-65.3306,-27.0131,364.5843],[-65.3362,-27.0197,368.0324],[-65.3288,-27.0283,360.407],[-65.3288,-27.0342,359.0903],[-65.3262,-27.0371,357.7696],[-65.3257,-27.0409,359.2913],[-65.3276,-27.0484,353.9449],[-65.3428,-27.0687,347.3361],[-65.3441,-27.0782,345.8575],[-65.351,-27.0855,344.086],[-65.3507,-27.0893,344.4944],[-65.3452,-27.0976,341.0753],[-65.3443,-27.1033,340.4047],[-65.3483,-27.1033,339.1537],[-65.3606,-27.099,342.2197],[-65.3634,-27.1034,342.2667],[-65.3655,-27.1038,341.9285],[-65.3699,-27.0981,343.013],[-65.3709,-27.0925,343.2996],[-65.3864,-27.0868,347.9983],[-65.3923,-27.1012,346.2044],[-65.3937,-27.1028,346.3378],[-65.3994,-27.1011,346.1208],[-65.4045,-27.1137,343.2691],[-65.4145,-27.1104,343.6129],[-65.4211,-27.1108,346.323],[-65.4217,-27.1124,347.6383],[-65.4194,-27.1196,343.9703],[-65.4099,-27.1322,341.1404],[-65.4094,-27.1415,339.1925],[-65.4007,-27.1471,336.8868],[-65.3923,-27.1462,334.1736],[-65.3762,-27.1558,331.7247],[-65.371,-27.1704,327.8766],[-65.365,-27.1725,327.3196],[-65.3561,-27.1808,322.5108],[-65.3518,-27.1916,323.6984],[-65.3398,-27.2074,324.3312],[-65.3168,-27.2179,315.8407],[-65.312,-27.2216,313.792],[-65.3154,-27.2307,314.5232],[-65.3158,-27.2384,315.8914],[-65.3153,-27.2423,315.2659],[-65.3102,-27.2507,314.4536],[-65.3095,-27.2623,314.0166],[-65.3082,-27.2637,312.7869],[-65.3033,-27.2675,307.7206],[-65.2953,-27.2703,308.2053],[-65.2926,-27.2733,314.9537],[-65.281,-27.2783,307.2291],[-65.2694,-27.2944,308.2391],[-65.2448,-27.3015,298.8012],[-65.2373,-27.3082,303.9727],[-65.2323,-27.3208,300.3346],[-65.2372,-27.3267,301.2411],[-65.2339,-27.3355,297.3145],[-65.2149,-27.3563,298.6194],[-65.1945,-27.3665,295.8403],[-65.1822,-27.3699,295.4748],[-65.1695,-27.3772,288.2515],[-65.1589,-27.3896,289.2145],[-65.1473,-27.3982,287.5959],[-65.128,-27.3994,285.7603],[-65.1221,-27.4016,286.6755],[-65.1164,-27.4139,279.3137],[-65.1061,-27.4237,282.6959],[-65.1009,-27.4402,284.8921],[-65.0857,-27.4589,280.9791],[-65.0742,-27.4638,280.9139],[-65.0678,-27.4646,275.8309],[-65.0668,-27.4631,274.3271],[-65.0687,-27.4597,280.869],[-65.0685,-27.4558,280.162],[-65.0649,-27.4537,278.4119],[-65.0606,-27.4536,276.9619],[-65.0441,-27.4623,278.8174],[-65.0399,-27.4711,275.5247],[-65.0355,-27.4725,273.3862],[-65.0165,-27.4192,281.9129],[-65.0054,-27.3724,288.6203],[-64.9944,-27.3363,296.0408],[-64.9467,-27.3479,320.6119],[-64.9402,-27.3319,327.4712],[-64.8758,-27.3112,313.9286],[-64.8463,-27.2257,387.0942],[-64.84,-27.2266,394.9721],[-64.8131,-27.1507,386.5497],[-64.8072,-27.1463,373.8491],[-64.8016,-27.1483,370.4949],[-64.7799,-27.0693,398.9628]]]]}}