{"type":"Feature","properties":{"GID_2":"ARG.1.104_1","GID_0":"ARG","country":"Argentina","GID_1":"ARG.1_1","state":"BuenosAires","NL_NAME_1":"NA","county":"Salto","VARNAME_2":"NA","NL_NAME_2":"NA","TYPE_2":"Partido","ENGTYPE_2":"Part","CC_2":"NA","HASC_2":"AR.BA.ST","name":"Salto.county"},
"geometry":{"type": "MultiPolygon","coordinates": [[[[-60.2388,-34.0143,37.4098],[-60.2431,-34.0091,37.5977],[-60.2723,-34.0102,40.893],[-60.282,-34.0079,39.8081],[-60.303,-33.9992,41.6398],[-60.3154,-34.0021,42.6725],[-60.3317,-34.0187,50.8546],[-60.4131,-34.0918,72.2393],[-60.4066,-34.0937,73.952],[-60.4954,-34.1752,52.8504],[-60.4916,-34.1848,51.1245],[-60.4876,-34.1894,50.7897],[-60.4833,-34.1923,50.7687],[-60.4754,-34.1941,49.719],[-60.4724,-34.2004,48.7644],[-60.4907,-34.2204,49.2936],[-60.4963,-34.2301,49.4452],[-60.5124,-34.2433,49.9465],[-60.5222,-34.2451,50.7781],[-60.5272,-34.2493,50.6114],[-60.5427,-34.2566,52.7501],[-60.5462,-34.2655,52.754],[-60.555,-34.2714,51.6761],[-60.5423,-34.3183,56.5482],[-60.5414,-34.348,53.7922],[-60.5425,-34.3564,54.0174],[-60.5473,-34.3624,54.1317],[-60.5617,-34.3703,55.247],[-60.5652,-34.378,55.5286],[-60.5791,-34.3866,57.1506],[-60.5799,-34.3937,56.3876],[-60.5182,-34.4391,70.3862],[-60.489,-34.4152,65.1804],[-60.4043,-34.48,69.2286],[-60.3764,-34.4566,65.4824],[-60.3248,-34.4972,67.0416],[-60.244,-34.4328,67.0884],[-60.2104,-34.4591,60.6674],[-60.1556,-34.4105,59.8922],[-60.1467,-34.4184,54.9003],[-60.1172,-34.3939,53.79],[-60.1139,-34.3963,51.8157],[-60.0865,-34.3711,57.9857],[-60.0675,-34.3846,50.874],[-60.0079,-34.3307,54.8338],[-60.0132,-34.3254,56.0414],[-59.975,-34.2892,51.3836],[-60.0551,-34.2665,59.4934],[-60.0802,-34.2549,60.3749],[-60.0762,-34.2512,60.548],[-60.2042,-34.2023,34.8724],[-60.2093,-34.1873,37.5151],[-60.2066,-34.1661,37.5934],[-60.1952,-34.1448,32.9357],[-60.1947,-34.141,35.8847],[-60.186,-34.1333,34.2844],[-60.1853,-34.1304,32.1223],[-60.1898,-34.1203,34.3039],[-60.1898,-34.1169,34.4943],[-60.1865,-34.1122,31.2251],[-60.1872,-34.1063,32.9517],[-60.1791,-34.0874,31.081],[-60.1739,-34.0696,31.9257],[-60.1681,-34.0633,30.7099],[-60.1929,-34.0544,32.0126],[-60.1975,-34.0512,33.0834],[-60.2064,-34.0389,35.0296],[-60.2295,-34.0247,43.9315],[-60.2388,-34.0143,37.4098]]]]}}