{"type":"Feature","properties":{"GID_2":"ARG.14.6_1","GID_0":"ARG","country":"Argentina","GID_1":"ARG.14_1","state":"Misiones","NL_NAME_1":"NA","county":"Eldorado","VARNAME_2":"NA","NL_NAME_2":"NA","TYPE_2":"Departamento","ENGTYPE_2":"Department","CC_2":"NA","HASC_2":"AR.MN.ED","name":"Eldorado.county"},
"geometry":{"type": "MultiPolygon","coordinates": [[[[-54.1486,-26.1393,470.7072],[-54.319,-26.1401,320.7668],[-54.431,-26.1195,226.1683],[-54.4336,-26.1494,203.9455],[-54.438,-26.1458,228.6162],[-54.4408,-26.146,227.9832],[-54.4442,-26.1503,205.6284],[-54.4497,-26.1505,204.1587],[-54.4509,-26.1461,220.1306],[-54.4539,-26.1462,202.1302],[-54.4532,-26.1388,200.8803],[-54.4561,-26.138,201.495],[-54.4531,-26.1312,202.086],[-54.4599,-26.1266,194.427],[-54.4684,-26.1272,207.9859],[-54.4686,-26.1347,202.3051],[-54.4716,-26.1391,194.6196],[-54.4773,-26.1385,222.8445],[-54.4797,-26.1398,218.0209],[-54.4803,-26.1471,199.6312],[-54.4863,-26.1439,194.9561],[-54.4899,-26.1473,194.8526],[-54.4896,-26.1498,197.1],[-54.482,-26.1527,200.0893],[-54.4836,-26.1549,205.007],[-54.4904,-26.1594,190.4267],[-54.4977,-26.1553,202.2167],[-54.4979,-26.1526,191.7038],[-54.4999,-26.151,192.7731],[-54.5043,-26.1545,195.6935],[-54.5125,-26.1566,191.683],[-54.516,-26.1605,186.7569],[-54.5084,-26.1639,195.0927],[-54.518,-26.1684,191.1559],[-54.5181,-26.1735,189.6873],[-54.5232,-26.1711,192.7759],[-54.5238,-26.1634,188.3887],[-54.5321,-26.1614,206.0438],[-54.5272,-26.1554,178.8914],[-54.5293,-26.1541,183.1203],[-54.538,-26.1553,184.5874],[-54.5411,-26.1598,183.8403],[-54.5437,-26.1607,183.0847],[-54.5452,-26.1558,178.8647],[-54.5406,-26.1462,199.1016],[-54.5478,-26.1428,180.5704],[-54.5555,-26.1465,195.7301],[-54.5643,-26.145,191.4781],[-54.5701,-26.1396,178.8178],[-54.5698,-26.1469,179.8794],[-54.571,-26.1491,167.3626],[-54.5769,-26.1489,186.5663],[-54.5848,-26.1413,208.6419],[-54.5862,-26.1389,183.0512],[-54.5859,-26.134,163.2053],[-54.5917,-26.134,167.5686],[-54.5932,-26.1361,168.3429],[-54.5932,-26.1466,173.5928],[-54.5894,-26.1505,171.6645],[-54.5898,-26.1558,169.8606],[-54.5954,-26.1562,171.3562],[-54.6024,-26.1516,165.5266],[-54.6021,-26.1618,161.6173],[-54.6048,-26.1629,167.3805],[-54.6076,-26.1637,196.769],[-54.6138,-26.1585,176.492],[-54.6196,-26.1498,161.8208],[-54.6245,-26.1521,182.7889],[-54.6252,-26.1626,166.4305],[-54.6303,-26.1646,211.4855],[-54.6357,-26.1498,119.1581],[-54.6411,-26.15,132.7621],[-54.6445,-26.1654,152.2453],[-54.6469,-26.1905,161.866],[-54.626,-26.2024,123.1998],[-54.6217,-26.2108,111.4359],[-54.6203,-26.2171,111.2057],[-54.6304,-26.229,94.0],[-54.6479,-26.2373,94.0],[-54.6702,-26.2534,94.0],[-54.6753,-26.2585,94.0],[-54.68,-26.2666,94.0],[-54.6816,-26.2737,151.109],[-54.6809,-26.2766,108.7863],[-54.6539,-26.3022,94.0],[-54.6512,-26.3067,93.5],[-54.6499,-26.318,93.5],[-54.6804,-26.3563,128.3103],[-54.6974,-26.3845,110.8403],[-54.6985,-26.3942,105.2046],[-54.6971,-26.4251,92.0],[-54.7003,-26.4402,91.5],[-54.7069,-26.4535,91.5],[-54.6987,-26.4553,99.7988],[-54.6899,-26.4549,106.2803],[-54.6774,-26.4616,119.4013],[-54.6612,-26.4557,95.9994],[-54.6596,-26.4572,120.3848],[-54.6608,-26.4598,109.5361],[-54.6688,-26.4676,101.7179],[-54.6703,-26.4699,100.6948],[-54.6697,-26.4722,111.6046],[-54.6638,-26.4732,109.4802],[-54.6589,-26.4761,110.9623],[-54.6541,-26.4939,140.3405],[-54.6441,-26.4993,121.8056],[-54.6343,-26.5124,131.063],[-54.6284,-26.5122,107.2084],[-54.6235,-26.5094,105.9495],[-54.623,-26.5069,108.2606],[-54.6303,-26.4952,123.0571],[-54.6305,-26.4926,118.8698],[-54.6273,-26.4881,110.3854],[-54.6215,-26.4884,125.2856],[-54.6098,-26.5003,132.3549],[-54.6044,-26.502,136.0579],[-54.6011,-26.4976,167.6757],[-54.6037,-26.4901,126.2318],[-54.606,-26.4885,123.3509],[-54.6044,-26.4836,144.9219],[-54.6019,-26.4826,157.9723],[-54.5938,-26.4857,148.2707],[-54.5889,-26.483,140.0139],[-54.5863,-26.4838,121.9583],[-54.5834,-26.4792,129.2643],[-54.5838,-26.4768,140.7982],[-54.5888,-26.4736,131.8969],[-54.589,-26.4686,154.3806],[-54.584,-26.466,136.6868],[-54.5729,-26.4684,153.0468],[-54.5645,-26.4655,154.9637],[-54.563,-26.4636,139.3477],[-54.5628,-26.4582,139.2065],[-54.558,-26.4552,160.0151],[-54.5556,-26.4566,137.2193],[-54.5547,-26.4618,144.7173],[-54.5594,-26.4715,152.9162],[-54.5582,-26.4793,203.1486],[-54.5561,-26.4812,140.37],[-54.5531,-26.4812,148.8435],[-54.552,-26.4734,151.7236],[-54.5495,-26.472,178.8808],[-54.545,-26.4747,163.6216],[-54.5371,-26.4714,172.6861],[-54.5352,-26.4733,159.0808],[-54.5382,-26.4837,160.701],[-54.5375,-26.4863,139.4597],[-54.5355,-26.488,165.7323],[-54.5268,-26.488,135.4508],[-54.5213,-26.4943,149.511],[-54.5182,-26.5045,144.7972],[-54.5156,-26.5049,151.7584],[-54.5118,-26.5006,183.3005],[-54.5033,-26.4987,159.576],[-54.4962,-26.4938,209.0104],[-54.4933,-26.4942,201.8234],[-54.492,-26.4964,153.7594],[-54.4932,-26.5016,182.7758],[-54.4867,-26.5064,184.798],[-54.4906,-26.5133,203.137],[-54.4891,-26.5157,173.5893],[-54.478,-26.514,202.4891],[-54.4755,-26.5155,204.5937],[-54.4684,-26.513,189.7175],[-54.4666,-26.5152,191.9424],[-54.4599,-26.5107,186.0569],[-54.457,-26.5106,184.3757],[-54.4542,-26.5116,163.7415],[-54.4484,-26.5208,166.996],[-54.4456,-26.5214,164.3324],[-54.4426,-26.521,165.8398],[-54.4403,-26.5164,177.1169],[-54.4472,-26.5048,261.8919],[-54.4471,-26.5022,263.8504],[-54.4417,-26.5007,202.6936],[-54.4348,-26.5091,180.4269],[-54.4262,-26.5101,183.0805],[-54.4226,-26.5061,212.2648],[-54.4212,-26.4956,225.9965],[-54.4154,-26.4958,207.6571],[-54.4118,-26.4998,176.3685],[-54.4118,-26.5024,178.7037],[-54.4175,-26.5084,202.3896],[-54.4168,-26.519,214.6779],[-54.4131,-26.5228,190.6063],[-54.4107,-26.5216,203.1182],[-54.4098,-26.519,212.1813],[-54.4076,-26.5059,219.9018],[-54.4024,-26.5039,212.1228],[-54.3906,-26.5053,195.4503],[-54.3868,-26.4982,224.0692],[-54.3792,-26.4951,212.4394],[-54.3782,-26.4872,191.5448],[-54.3709,-26.4756,263.4597],[-54.3665,-26.4721,196.4471],[-54.3644,-26.4731,188.6307],[-54.3639,-26.4759,189.6436],[-54.3665,-26.494,227.2457],[-54.3636,-26.4942,199.4251],[-54.357,-26.4891,241.0943],[-54.3541,-26.4816,202.1228],[-54.3515,-26.4821,203.8879],[-54.3502,-26.4843,215.7651],[-54.3501,-26.4897,230.0362],[-54.354,-26.4997,266.842],[-54.3533,-26.5023,284.3098],[-54.3362,-26.5019,237.7902],[-54.3347,-26.4996,269.7146],[-54.3353,-26.4971,228.2851],[-54.3429,-26.493,276.4266],[-54.3425,-26.4879,262.1033],[-54.3327,-26.4913,224.6219],[-54.3142,-26.4863,266.8644],[-54.3088,-26.4975,240.0324],[-54.3056,-26.4974,242.5294],[-54.3034,-26.4961,241.4225],[-54.3027,-26.4879,281.5037],[-54.3012,-26.4858,238.2241],[-54.2981,-26.4856,306.2698],[-54.2935,-26.4887,223.2902],[-54.2897,-26.4985,312.0977],[-54.2844,-26.5007,223.0748],[-54.2787,-26.4991,301.9442],[-54.2755,-26.4921,222.5091],[-54.2764,-26.4898,287.7794],[-54.2814,-26.4871,395.1762],[-54.2816,-26.4818,380.9193],[-54.2766,-26.4793,246.7717],[-54.2685,-26.4838,237.8378],[-54.2687,-26.4483,455.5274],[-54.178,-26.4485,505.8549],[-54.1801,-26.2618,292.9555],[-54.1687,-26.2618,302.5696],[-54.1689,-26.215,355.3819],[-54.1486,-26.1393,470.7072]]]]}}