{"type":"Feature","properties":{"GID_2":"ARG.21.4_1","GID_0":"ARG","country":"Argentina","GID_1":"ARG.21_1","state":"SantaFe","NL_NAME_1":"NA","county":"Constitución","VARNAME_2":"VillaConstitucion","NL_NAME_2":"NA","TYPE_2":"Departamento","ENGTYPE_2":"Department","CC_2":"NA","HASC_2":"AR.SF.CO","name":"Constitución.county"},
"geometry":{"type": "MultiPolygon","coordinates": [[[[-60.9085,-33.5833,71.0286],[-60.8773,-33.556,67.2076],[-60.8602,-33.5455,65.4279],[-60.8433,-33.5414,64.2494],[-60.822,-33.5419,63.0552],[-60.8118,-33.5458,62.5142],[-60.7988,-33.5624,63.9042],[-60.793,-33.5659,61.4158],[-60.7499,-33.5794,60.8859],[-60.7289,-33.5812,59.278],[-60.6979,-33.5749,59.9003],[-60.681,-33.5792,56.6421],[-60.6593,-33.5894,55.9519],[-60.6484,-33.6008,55.0468],[-60.6219,-33.6203,56.9337],[-60.6114,-33.6221,55.0528],[-60.6068,-33.6264,51.0803],[-60.5895,-33.6274,51.1002],[-60.5843,-33.6313,50.1439],[-60.5737,-33.6324,52.4112],[-60.5451,-33.6442,50.0557],[-60.5275,-33.6452,46.6379],[-60.507,-33.6403,51.6002],[-60.4964,-33.6398,48.054],[-60.4805,-33.6335,50.6677],[-60.4735,-33.6331,45.1704],[-60.4676,-33.63,43.1015],[-60.4618,-33.6292,42.2127],[-60.4595,-33.6266,43.5513],[-60.4583,-33.621,45.0916],[-60.4619,-33.6044,41.625],[-60.4596,-33.6018,41.3072],[-60.458,-33.5841,38.1455],[-60.4535,-33.5765,39.9509],[-60.4416,-33.5655,43.85],[-60.436,-33.5617,44.1684],[-60.4229,-33.5584,41.0029],[-60.4153,-33.5483,34.5374],[-60.4149,-33.5423,36.7473],[-60.4207,-33.5253,34.6742],[-60.4203,-33.5076,34.3498],[-60.4162,-33.4902,33.1422],[-60.4055,-33.4589,34.1005],[-60.4011,-33.4543,37.0081],[-60.3944,-33.452,29.6154],[-60.3883,-33.4417,30.5548],[-60.3812,-33.4402,29.8218],[-60.3717,-33.4318,29.51],[-60.3681,-33.4317,29.0339],[-60.3604,-33.4255,28.5701],[-60.3505,-33.4229,28.5498],[-60.3404,-33.4147,26.5775],[-60.3278,-33.397,29.5486],[-60.32,-33.3807,24.8834],[-60.3183,-33.3748,25.6033],[-60.3223,-33.3634,23.363],[-60.3223,-33.3581,24.3898],[-60.3195,-33.3561,23.6039],[-60.3184,-33.3503,23.7278],[-60.3119,-33.3396,23.3246],[-60.3076,-33.3355,21.6108],[-60.3006,-33.3337,20.9917],[-60.2917,-33.3248,20.3988],[-60.2828,-33.32,19.7388],[-60.2828,-33.3141,13.9075],[-60.2809,-33.3085,18.2924],[-60.2657,-33.2829,6.3702],[-60.2665,-33.2701,9.9271],[-60.2628,-33.2686,7.1095],[-60.2562,-33.2691,1.5],[-60.2499,-33.2601,1.5],[-60.289,-33.2466,1.5],[-60.2999,-33.2391,2.0],[-60.3032,-33.234,2.0],[-60.3052,-33.2251,2.0],[-60.3069,-33.2074,5.1399],[-60.3059,-33.1937,4.1972],[-60.3305,-33.2075,4.6003],[-60.3516,-33.215,19.601],[-60.3591,-33.2156,22.975],[-60.374,-33.2125,20.8563],[-60.3959,-33.2134,20.9927],[-60.4198,-33.233,21.4757],[-60.4333,-33.251,25.2682],[-60.4492,-33.2651,27.2667],[-60.4582,-33.283,26.6306],[-60.4734,-33.3011,26.1677],[-60.4832,-33.3188,35.0529],[-60.5168,-33.3334,35.8915],[-60.5254,-33.3399,32.8295],[-60.5308,-33.3474,37.1533],[-60.5583,-33.3667,40.1839],[-60.5732,-33.3712,36.2881],[-60.6016,-33.3724,35.8506],[-60.6355,-33.3677,35.7776],[-60.6759,-33.3487,50.5526],[-60.6914,-33.3464,45.5579],[-60.6962,-33.3429,43.3471],[-60.701,-33.336,44.4998],[-60.7099,-33.3346,47.118899999999996],[-60.7178,-33.3231,52.7147],[-60.7257,-33.3186,48.1933],[-60.733,-33.3177,43.8182],[-60.7694,-33.3199,56.9442],[-60.7757,-33.3136,53.3289],[-60.7968,-33.306,64.2161],[-60.8101,-33.2907,59.5896],[-60.8223,-33.2829,58.4121],[-60.8372,-33.2686,51.678],[-60.8433,-33.2648,54.4153],[-60.8581,-33.2609,61.3079],[-60.883,-33.2755,59.1243],[-60.9232,-33.2938,61.6418],[-60.9285,-33.2983,63.8527],[-60.9411,-33.3217,72.5093],[-60.9492,-33.3461,69.0679],[-60.9582,-33.3566,70.203],[-60.9639,-33.3607,74.2468],[-60.9834,-33.3709,67.9378],[-60.9906,-33.373,73.8643],[-61.028,-33.3782,84.2258],[-61.0396,-33.3869,84.3545],[-61.0459,-33.39,80.0541],[-61.0536,-33.3905,76.2707],[-61.0782,-33.4057,84.8965],[-61.092,-33.4113,87.5539],[-61.1071,-33.412,88.7132],[-61.1138,-33.4151,89.5352],[-61.1235,-33.4251,90.2948],[-61.1347,-33.4337,90.904],[-61.1437,-33.444,90.9825],[-61.1557,-33.452,90.7248],[-61.1693,-33.4577,93.0203],[-61.1993,-33.4629,92.0201],[-61.2105,-33.4713,92.1951],[-61.2238,-33.487,92.3663],[-61.342,-33.3291,77.123],[-61.4672,-33.3928,101.7022],[-61.5107,-33.3935,105.3267],[-61.4589,-33.468,98.6839],[-61.413,-33.4428,94.0776],[-61.1581,-33.784,87.3368],[-61.1634,-33.7893,88.5168],[-61.1257,-33.8281,88.6921],[-60.9163,-33.6366,73.9221],[-60.9184,-33.615,73.9995],[-60.9162,-33.5972,75.0213],[-60.9145,-33.5916,72.1672],[-60.9085,-33.5833,71.0286]]]]}}