{"type": "Feature","bbox": [-65.7075,-23.473,-65.0054,-22.5951],"geometry": {"type": "MultiPolygon","coordinates": [[[[-65.7075,-23.4182,3569.6724],[-65.695,-23.4146,3599.6782],[-65.6808,-23.413,3636.98],[-65.66,-23.4178,3688.7617],[-65.6342,-23.4289,3781.7092],[-65.6083,-23.4464,4022.0151],[-65.5708,-23.4656,4215.3755],[-65.5454,-23.473,4685.0996],[-65.535,-23.4267,4936.3115],[-65.5753,-23.3535,3834.4973],[-65.5763,-23.347,3757.7207],[-65.5728,-23.3309,3647.6978],[-65.5784,-23.2942,3549.2168],[-65.5774,-23.2889,3516.2612],[-65.5448,-23.2906,3430.8845],[-65.5129,-23.3115,3264.1604],[-65.4918,-23.3149,3293.8154],[-65.4801,-23.3272,3127.2905],[-65.4498,-23.3444,3368.366],[-65.4071,-23.3609,3134.1899],[-65.3928,-23.3621,3116.6155],[-65.3806,-23.3737,2858.314],[-65.3516,-23.3866,2777.3442],[-65.3413,-23.3888,2714.1475],[-65.3199,-23.3896,3092.6367],[-65.285,-23.3826,3950.6399],[-65.2535,-23.3672,4289.8081],[-65.1766,-23.3193,4355.3521],[-65.1424,-23.2906,4409.2021],[-65.097,-23.2715,4700.6445],[-65.0767,-23.2655,4196.6807],[-65.0491,-23.2504,4263.9873],[-65.036,-23.2386,4503.2339],[-65.0311,-23.2239,4367.8467],[-65.0186,-23.1995,3739.5691],[-65.0181,-23.1886,3847.7319],[-65.0198,-23.1725,4294.106],[-65.0188,-23.1672,4058.657],[-65.0116,-23.1524,3786.5449],[-65.0131,-23.1308,3507.731],[-65.007,-23.1044,3485.1526],[-65.0054,-23.0774,3213.063],[-65.0079,-23.0559,3527.585],[-65.0054,-23.0397,4012.917],[-65.0078,-23.0292,3960.5222],[-65.0199,-23.0107,4532.2397],[-65.0349,-22.9939,3822.1628],[-65.0403,-22.9928,3532.8208],[-65.0697,-22.9952,3869.75],[-65.1033,-22.9862,3650.4351],[-65.1382,-22.9866,4366.209],[-65.1554,-22.9836,4443.168],[-65.1786,-22.9834,4621.4307],[-65.2225,-22.9564,4432.3877],[-65.2401,-22.9347,4134.8496],[-65.2428,-22.9301,4031.374],[-65.2418,-22.8975,3798.5315],[-65.2398,-22.8881,3735.6763],[-65.2425,-22.8888,3772.7231],[-65.244,-22.8793,3786.4993],[-65.2499,-22.8699,3681.948],[-65.25,-22.8644,3657.345],[-65.2467,-22.8545,3828.8809],[-65.2499,-22.8499,3745.9202],[-65.2606,-22.8453,3931.6116],[-65.2666,-22.8363,3983.186],[-65.2683,-22.831,4009.6782],[-65.2652,-22.8096,3899.0408],[-65.2664,-22.7884,4142.0576],[-65.2853,-22.7483,4222.0825],[-65.2899,-22.7327,4378.3906],[-65.2895,-22.6948,4350.1846],[-65.2819,-22.6743,4593.4199],[-65.2671,-22.651,4717.543],[-65.2664,-22.6348,4810.4985],[-65.269,-22.6303,4657.6621],[-65.2973,-22.6251,4617.8574],[-65.3001,-22.6202,4541.7046],[-65.302,-22.6096,4461.7388],[-65.3092,-22.6011,4677.6611],[-65.3264,-22.5996,4548.8384],[-65.3369,-22.5951,4500.4941],[-65.3502,-22.61,4712.7358],[-65.3605,-22.6233,4628.6289],[-65.3644,-22.6427,4565.1606],[-65.3761,-22.6502,4602.4556],[-65.3814,-22.6587,4541.6743],[-65.3847,-22.6783,4274.6953],[-65.3928,-22.6928,4488.0801],[-65.3935,-22.7027,4210.8398],[-65.3963,-22.7122,4228.4209],[-65.4108,-22.7348,4346.0],[-65.4247,-22.7498,4242.1562],[-65.4301,-22.754,4141.5566],[-65.44,-22.7577,4041.8914],[-65.4755,-22.7559,3929.1116],[-65.4888,-22.7603,3857.2231],[-65.4933,-22.7691,3937.1729],[-65.4954,-22.7854,3982.3135],[-65.5043,-22.8069,3897.9893],[-65.508,-22.8462,4144.0757],[-65.5111,-22.8624,4072.7373],[-65.5142,-22.8683,3964.5127],[-65.5201,-22.872,3828.6113],[-65.5578,-22.8816,3875.0859],[-65.5795,-22.8928,3845.5046],[-65.5875,-22.9036,3806.8342],[-65.6006,-22.9412,3752.5061],[-65.6019,-22.9476,3775.5974],[-65.6015,-22.9672,3779.9758],[-65.6058,-22.9725,3800.6433],[-65.6851,-23.0269,4201.1953],[-65.6941,-23.1068,4539.9663],[-65.7011,-23.139,4137.647],[-65.6976,-23.1973,4361.604],[-65.7075,-23.4182,3569.6724]]]]}
,"properties": {"GID_2": "ARG.10.4_1","GID_0": "ARG","country": "Argentina","GID_1": "ARG.10_1","state": "Jujuy","NL_NAME_1": "NA","county": "Humahuaca","VARNAME_2": "NA","NL_NAME_2": "NA","TYPE_2": "Departamento","ENGTYPE_2": "Department","CC_2": "NA","HASC_2": "AR.JY.HU","name": "Humahuaca.county","area_km2": 3762.374,"hist_schema_id": "Elevation0-9000","hist_area_km2": {"2700": 0.058,"2725": 1.615,"2750": 3.698,"2775": 6.034,"2800": 6.988,"2825": 7.768,"2850": 9.306,"2875": 8.334,"2900": 10.263,"2925": 11.335,"2950": 12.544,"2975": 13.831,"3000": 14.416,"3025": 16.384,"3050": 18.138,"3075": 18.392,"3100": 20.906,"3125": 24.59,"3150": 28.644,"3175": 27.828,"3200": 30.792,"3225": 32.959,"3250": 31.342,"3275": 29.216,"3300": 29.997,"3325": 28.769,"3350": 31.5,"3375": 33.724,"3400": 37.06,"3425": 43.202,"3450": 46.893,"3475": 48.942,"3500": 54.776,"3525": 59.087,"3550": 58.972,"3575": 63.251,"3600": 79.453,"3625": 93.639,"3650": 107.351,"3675": 105.2,"3700": 109.538,"3725": 112.765,"3750": 112.503,"3775": 112.982,"3800": 113.263,"3825": 108.158,"3850": 107.07,"3875": 110.742,"3900": 106.676,"3925": 99.028,"3950": 94.869,"3975": 87.497,"4000": 80.85,"4025": 76.752,"4050": 72.715,"4075": 69.59,"4100": 65.574,"4125": 62.784,"4150": 61.262,"4175": 55.526,"4200": 52.85,"4225": 49.615,"4250": 44.071,"4275": 40.653,"4300": 36.11,"4325": 33.672,"4350": 31.621,"4375": 29.496,"4400": 27.512,"4425": 25.27,"4450": 24.271,"4475": 24.935,"4500": 24.08,"4525": 24.102,"4550": 23.988,"4575": 21.759,"4600": 19.086,"4625": 17.426,"4650": 15.804,"4675": 13.148,"4700": 11.821,"4725": 9.421,"4750": 8.056,"4775": 6.085,"4800": 4.953,"4825": 3.686,"4850": 3.14,"4875": 2.34,"4900": 1.657,"4925": 1.228,"4950": 0.74,"4975": 0.682,"5000": 0.74,"5025": 0.468,"5050": 0.273,"5075": 0.175,"5100": 0.078}}}