{"type":"Feature","properties":{"GID_2":"ARG.1.2_1","GID_0":"ARG","country":"Argentina","GID_1":"ARG.1_1","state":"BuenosAires","NL_NAME_1":"NA","county":"AdolfoGonzalesChaves","VARNAME_2":"AdolfoGonzal","NL_NAME_2":"NA","TYPE_2":"Partido","ENGTYPE_2":"Part","CC_2":"NA","HASC_2":"AR.BA.AC","name":"AdolfoGonzalesChaves.county"},
"geometry":{"type": "MultiPolygon","coordinates": [[[[-60.6834,-38.0953,162.7893],[-60.5604,-38.1923,174.9767],[-60.4505,-38.106,165.6094],[-60.4708,-38.0895,177.3161],[-60.3753,-38.0156,177.1054],[-60.0318,-38.2805,132.7268],[-59.9174,-38.1825,155.0686],[-59.8887,-38.1608,151.0449],[-59.8816,-38.1681,149.9661],[-59.8778,-38.1774,146.9641],[-59.8597,-38.2002,140.5264],[-59.8516,-38.205,137.7808],[-59.8415,-38.2219,129.6209],[-59.8436,-38.2249,130.161],[-59.8367,-38.2356,128.69],[-59.794,-38.2002,140.9286],[-59.7765,-38.2139,132.3788],[-59.7558,-38.1943,138.5192],[-59.7914,-38.1682,146.1288],[-59.7779,-38.1579,148.8464],[-59.7891,-38.1493,150.1724],[-59.6411,-38.0281,153.2729],[-59.6542,-38.0204,154.5584],[-59.6602,-38.0114,155.8663],[-59.6718,-38.0031,156.7274],[-59.6717,-37.9989,156.9578],[-59.6691,-37.9935,158.0505],[-59.6708,-37.9863,159.2865],[-59.6801,-37.9781,160.2238],[-59.6987,-37.9718,162.0774],[-59.7107,-37.9631,163.7125],[-59.7291,-37.9476,166.5211],[-59.7342,-37.9415,167.2723],[-59.7354,-37.937,168.463],[-59.7459,-37.9303,169.4378],[-59.7486,-37.9221,170.5028],[-59.7628,-37.9151,171.957],[-59.7672,-37.9154,172.1243],[-59.7943,-37.9017,175.2788],[-59.802,-37.8932,176.625],[-59.8058,-37.8858,176.6214],[-59.8228,-37.8787,178.8934],[-59.8282,-37.8722,179.6349],[-59.8348,-37.8679,180.356],[-59.8454,-37.8644,181.4058],[-59.8461,-37.861,180.4387],[-59.8862,-37.8351,186.2044],[-59.8917,-37.8289,186.7054],[-59.9152,-37.8144,189.8209],[-59.9374,-37.7956,193.8714],[-60.0237,-37.866,198.4635],[-60.0671,-37.8327,204.0157],[-60.0925,-37.8536,215.6425],[-60.2574,-37.7294,225.9716],[-60.2954,-37.7596,226.2394],[-60.2999,-37.7565,220.0133],[-60.3229,-37.7763,220.257],[-60.4201,-37.7006,206.6988],[-60.376,-37.6659,212.3105],[-60.4572,-37.6022,212.5393],[-60.5901,-37.7019,199.1288],[-60.5622,-37.7238,199.4526],[-60.6448,-37.7906,190.8475],[-60.6579,-37.7809,192.0941],[-60.8492,-37.9322,184.3552],[-60.7436,-38.0185,171.6477],[-60.7624,-38.0329,170.8483],[-60.6834,-38.0953,162.7893]]]]}}