{"type":"Feature","properties":{"GID_2":"ARG.1.54_1","GID_0":"ARG","country":"Argentina","GID_1":"ARG.1_1","state":"BuenosAires","NL_NAME_1":"NA","county":"GeneralSanMartín","VARNAME_2":"GeneralSanMartín","NL_NAME_2":"NA","TYPE_2":"Partido","ENGTYPE_2":"Part","CC_2":"NA","HASC_2":"AR.BA.GN","name":"GeneralSanMartín.county"},
"geometry":{"type": "MultiPolygon","coordinates": [[[[-58.6193,-34.5519,5.4933],[-58.5621,-34.5963,30.7959],[-58.523,-34.6019,28.7378],[-58.5103,-34.5745,23.0951],[-58.5242,-34.5566,27.8041],[-58.5294,-34.5476,26.6424],[-58.5281,-34.5467,26.6424],[-58.5304,-34.5423,26.3835],[-58.5382,-34.5493,28.0328],[-58.6007,-34.4947,2.8719],[-58.6017,-34.4984,3.0672],[-58.599,-34.5038,4.2229],[-58.6034,-34.5142,3.136],[-58.6019,-34.5258,3.9238],[-58.6052,-34.5314,3.3066],[-58.6059,-34.5384,10.2462],[-58.6133,-34.5482,5.5719],[-58.6193,-34.5519,5.4933]]]]}}