{"type":"Feature","properties":{"GID_2":"ARG.1.100_1","GID_0":"ARG","country":"Argentina","GID_1":"ARG.1_1","state":"BuenosAires","NL_NAME_1":"NA","county":"RoquePérez","VARNAME_2":"NA","NL_NAME_2":"NA","TYPE_2":"Partido","ENGTYPE_2":"Part","CC_2":"NA","HASC_2":"AR.BA.RP","name":"RoquePérez.county"},
"geometry":{"type": "MultiPolygon","coordinates": [[[[-59.0241,-35.5936,18.1868],[-59.0291,-35.5816,19.8082],[-59.0381,-35.5736,19.4336],[-59.0376,-35.5681,18.4945],[-59.0407,-35.5585,19.2356],[-59.0388,-35.555,19.1374],[-59.0514,-35.5567,19.2916],[-59.0554,-35.5419,20.4263],[-59.0549,-35.5387,20.3107],[-59.0507,-35.5379,20.1932],[-59.0489,-35.5346,20.5355],[-59.0524,-35.5336,20.7996],[-59.0524,-35.5311,20.7101],[-59.0474,-35.5308,20.566],[-59.0339,-35.5242,18.3689],[-59.0186,-35.5136,19.5156],[-59.022,-35.5051,19.3446],[-59.0181,-35.4905,19.9643],[-59.0275,-35.4739,21.1876],[-59.0322,-35.4768,21.3347],[-59.0385,-35.4756,21.6371],[-59.0396,-35.4679,21.8867],[-59.0423,-35.4656,22.0882],[-59.0472,-35.4658,22.6313],[-59.0538,-35.4623,22.0916],[-59.069,-35.459,22.5238],[-59.0723,-35.4572,23.3731],[-59.0719,-35.4537,22.6694],[-59.094,-35.4482,23.4113],[-59.1003,-35.4405,23.458],[-59.1048,-35.441,23.552],[-59.1116,-35.4337,23.3283],[-59.1264,-35.4347,23.1361],[-59.132,-35.439,23.3792],[-59.1568,-35.4248,23.5788],[-59.1705,-35.423,24.0144],[-59.1701,-35.4194,24.0826],[-59.1757,-35.4101,25.118],[-59.1902,-35.4124,26.4581],[-59.1939,-35.4062,26.0633],[-59.2026,-35.4002,26.0571],[-59.2163,-35.397,25.8852],[-59.2246,-35.398,27.0822],[-59.2406,-35.394,27.3411],[-59.2675,-35.3942,26.0887],[-59.2817,-35.3802,26.9589],[-59.3025,-35.3698,28.0481],[-59.3106,-35.3714,26.8036],[-59.3159,-35.3765,28.1014],[-59.325,-35.3801,27.6864],[-59.3268,-35.3777,27.2817],[-59.3266,-35.3748,27.3298],[-59.3231,-35.3663,27.277],[-59.3373,-35.356,26.7841],[-59.3457,-35.3569,27.3327],[-59.352,-35.3545,27.0579],[-59.3569,-35.3452,27.4047],[-59.3645,-35.3534,28.2002],[-59.3684,-35.3517,28.2838],[-59.3684,-35.3485,27.735],[-59.3728,-35.3433,28.5137],[-59.3847,-35.3336,28.4283],[-59.385,-35.3284,27.7201],[-59.382,-35.3205,27.8929],[-59.3879,-35.3063,28.5647],[-59.3873,-35.3001,28.5684],[-59.3977,-35.295,27.811],[-59.4018,-35.2982,29.0862],[-59.4062,-35.2987,28.3471],[-59.4124,-35.3044,27.7],[-59.4198,-35.3051,27.8336],[-59.4318,-35.3018,28.644],[-59.4331,-35.307,29.6595],[-59.4391,-35.3067,28.5569],[-59.4458,-35.3117,29.1436],[-59.4492,-35.3103,29.1305],[-59.452,-35.3063,28.6653],[-59.4645,-35.3026,29.3937],[-59.4723,-35.3054,29.623],[-59.4843,-35.2907,29.3706],[-59.4876,-35.2897,29.4002],[-59.4903,-35.2923,29.6824],[-59.502,-35.2922,29.5784],[-59.5886,-35.3623,36.795],[-59.6169,-35.341,37.9254],[-59.6211,-35.3443,36.9475],[-59.6477,-35.3229,37.5249],[-59.7165,-35.3829,50.3571],[-59.7581,-35.3504,38.0406],[-59.8269,-35.4104,37.0127],[-59.7733,-35.4542,36.5446],[-59.7812,-35.4826,35.7798],[-59.7739,-35.4846,36.1794],[-59.7696,-35.4838,35.8137],[-59.7605,-35.4774,35.3738],[-59.7539,-35.4784,35.1936],[-59.7538,-35.4749,35.0],[-59.7502,-35.4709,35.2726],[-59.7382,-35.4768,35.0896],[-59.7212,-35.4762,35.1228],[-59.7134,-35.4815,35.5594],[-59.7019,-35.4794,35.4163],[-59.6955,-35.474,35.2124],[-59.6924,-35.4686,35.1091],[-59.6926,-35.4615,35.2404],[-59.6901,-35.4584,35.129],[-59.6866,-35.4576,34.39],[-59.6828,-35.4587,34.0],[-59.6771,-35.4573,34.0],[-59.6668,-35.4601,34.0],[-59.6639,-35.4582,34.0],[-59.6595,-35.4607,34.0],[-59.6539,-35.4582,34.4594],[-59.654,-35.4687,35.2165],[-59.6502,-35.4703,35.1891],[-59.6332,-35.4683,34.8751],[-59.6297,-35.4591,34.5994],[-59.6249,-35.46,34.5215],[-59.6098,-35.4677,35.0161],[-59.6038,-35.4676,35.1658],[-59.5971,-35.4634,34.9961],[-59.5855,-35.4622,34.4166],[-59.5812,-35.4632,35.8089],[-59.5744,-35.4718,33.7889],[-59.5576,-35.4683,33.1862],[-59.5456,-35.4618,32.7311],[-59.5334,-35.4622,32.3992],[-59.5275,-35.4634,32.5747],[-59.516,-35.4824,32.2968],[-59.5006,-35.4959,31.5412],[-59.4896,-35.4991,33.9112],[-59.4776,-35.4985,30.4524],[-59.4698,-35.5007,29.7208],[-59.4406,-35.5187,30.2713],[-59.4299,-35.5225,28.0205],[-59.4133,-35.5257,27.5331],[-59.4037,-35.533,27.7353],[-59.3885,-35.5357,26.6345],[-59.3854,-35.5406,26.4842],[-59.3722,-35.5409,26.3665],[-59.3645,-35.5352,25.7567],[-59.3609,-35.5363,26.5514],[-59.4231,-35.5919,27.2159],[-59.3783,-35.6265,27.6223],[-59.3737,-35.6237,27.7605],[-59.3368,-35.6516,26.5294],[-59.3326,-35.6466,27.1478],[-59.1845,-35.7596,24.3551],[-59.1788,-35.7483,23.7671],[-59.1817,-35.7294,23.9247],[-59.1811,-35.7251,23.7614],[-59.1717,-35.7123,23.9549],[-59.1627,-35.7092,24.1386],[-59.1546,-35.7122,23.1564],[-59.1486,-35.7043,23.098],[-59.1415,-35.704,23.1845],[-59.1382,-35.6994,23.0379],[-59.1305,-35.6969,22.6603],[-59.1348,-35.6882,22.6414],[-59.1351,-35.6784,22.1102],[-59.1483,-35.6665,22.5419],[-59.1484,-35.6621,22.2545],[-59.1521,-35.6549,22.2545],[-59.1505,-35.6503,22.4363],[-59.1539,-35.6467,22.5834],[-59.1533,-35.6357,22.0262],[-59.1467,-35.6308,21.542],[-59.1421,-35.6304,21.3258],[-59.1324,-35.6257,21.3543],[-59.1157,-35.6279,21.5653],[-59.1098,-35.6273,21.6861],[-59.1035,-35.6239,21.6956],[-59.0997,-35.6252,21.4759],[-59.0866,-35.6173,20.7],[-59.0842,-35.6128,20.71],[-59.0652,-35.6116,20.8295],[-59.0522,-35.6164,20.8117],[-59.0429,-35.6176,20.3782],[-59.0348,-35.614,20.3627],[-59.0241,-35.5936,18.1868]]]]}}