{"type": "Feature","bbox": [-61.0097,-27.0425,-60.5158,-26.4287],"geometry": {"type": "MultiPolygon","coordinates": [[[[-60.9915,-26.6477,112.8604],[-60.9931,-26.8389,105.9925],[-61.0097,-26.8387,105.1797],[-60.8911,-26.9064,101.0573],[-60.8715,-26.8882,100.3038],[-60.8336,-26.8985,99.8316],[-60.834,-27.0425,94.9876],[-60.6262,-27.0413,92.4277],[-60.6261,-26.9725,91.663],[-60.7037,-26.9452,94.8758],[-60.5158,-26.5302,100.1194],[-60.7985,-26.4287,111.3397],[-60.9121,-26.6744,108.742],[-60.9389,-26.6652,107.2067],[-60.9395,-26.6481,109.1981],[-60.9915,-26.6477,112.8604]]]]}
,"properties": {"GID_2": "ARG.3.10_1","GID_0": "ARG","country": "Argentina","GID_1": "ARG.3_1","state": "Chaco","NL_NAME_1": "NA","county": "Independencia","VARNAME_2": "CampoLargo","NL_NAME_2": "NA","TYPE_2": "Departamento","ENGTYPE_2": "Department","CC_2": "NA","HASC_2": "AR.CC.IN","name": "Independencia.county","area_km2": 1878.129,"hist_schema_id": "Elevation0-9000","hist_area_km2": {"100": 1869.83,"125": 8.299}}}