{"type":"Feature","properties":{"GID_2":"ARG.1.28_1","GID_0":"ARG","country":"Argentina","GID_1":"ARG.1_1","state":"BuenosAires","NL_NAME_1":"NA","county":"Chivilcoy","VARNAME_2":"NA","NL_NAME_2":"NA","TYPE_2":"Partido","ENGTYPE_2":"Part","CC_2":"NA","HASC_2":"AR.BA.CV","name":"Chivilcoy.county"},
"geometry":{"type": "MultiPolygon","coordinates": [[[[-60.0324,-35.1117,41.2611],[-60.0066,-35.1238,40.6566],[-59.9882,-35.1378,40.6003],[-59.9736,-35.1387,40.6079],[-59.9511,-35.1279,39.8174],[-59.943,-35.1272,43.5957],[-59.9367,-35.124,41.2527],[-59.9302,-35.1255,40.6548],[-59.9222,-35.1218,39.5154],[-59.9064,-35.1225,39.2265],[-59.8972,-35.1278,39.0336],[-59.8961,-35.1317,39.7661],[-59.8888,-35.1371,39.2486],[-59.8819,-35.1403,38.8309],[-59.8767,-35.1488,38.566],[-59.8754,-35.1554,38.3466],[-59.8698,-35.1599,38.0002],[-59.8441,-35.1627,37.2991],[-59.8389,-35.1647,37.286],[-59.8372,-35.171,37.5294],[-59.8289,-35.1824,37.4516],[-59.7081,-35.0818,39.7472],[-59.7057,-35.0831,39.1393],[-59.6079,-35.0008,40.0116],[-59.6277,-34.9699,41.7475],[-59.6587,-34.9517,41.3664],[-59.6571,-34.9491,40.6672],[-59.6761,-34.937,40.5789],[-59.6883,-34.9259,40.4351],[-59.697,-34.9126,41.9479],[-59.7141,-34.8996,43.5272],[-59.7516,-34.882,42.8946],[-59.7606,-34.8727,44.0254],[-59.7693,-34.857,44.0117],[-59.7773,-34.8484,44.5516],[-59.7885,-34.8425,44.1269],[-59.7967,-34.836,44.8638],[-59.8088,-34.8313,46.0382],[-59.8128,-34.8133,44.7379],[-59.7907,-34.7899,46.8416],[-59.8247,-34.7642,50.3243],[-59.8271,-34.7663,49.6098],[-59.9464,-34.6719,57.3068],[-59.9719,-34.6932,52.9967],[-59.9811,-34.6833,53.482],[-59.9872,-34.6808,53.2612],[-59.9914,-34.6759,53.3243],[-59.9955,-34.6628,54.0678],[-60.0133,-34.6449,58.5487],[-60.0679,-34.6902,61.3928],[-60.1105,-34.6566,62.5315],[-60.1954,-34.7307,58.054],[-60.1823,-34.7409,58.9197],[-60.2004,-34.7579,56.9044],[-60.1836,-34.7741,55.898],[-60.3109,-34.88,59.656],[-60.2246,-34.9456,52.4469],[-60.2329,-34.9528,53.2241],[-60.1242,-35.0352,51.3595],[-60.1559,-35.0653,43.7849],[-60.1384,-35.0768,43.15],[-60.1295,-35.0848,43.6557],[-60.1226,-35.0857,43.0566],[-60.1103,-35.0911,42.8808],[-60.0906,-35.0904,41.4013],[-60.0824,-35.0883,42.221],[-60.0546,-35.0927,41.6229],[-60.0398,-35.1088,41.4837],[-60.0324,-35.1117,41.2611]]]]}}