{"type": "Feature","bbox": [-59.1069,-34.387,-58.6673,-33.9393],"geometry": {"type": "MultiPolygon","coordinates": [[[[-58.7194,-34.2518,6.3537],[-58.716,-34.2392,6.7276],[-58.7152,-34.2299,2.9018],[-58.7167,-34.2251,7.1566],[-58.7058,-34.2122,8.0503],[-58.703,-34.1935,1.866],[-58.7032,-34.1802,2.7852],[-58.7201,-34.1769,4.2475],[-58.7497,-34.175,12.1831],[-58.7554,-34.172,8.5777],[-58.7561,-34.1655,2.3447],[-58.7701,-34.1562,2.0111],[-58.7748,-34.1452,3.2764],[-58.7748,-34.136,14.2436],[-58.8106,-34.0948,4.5597],[-58.8105,-34.0875,2.9157],[-58.8027,-34.086,3.3392],[-58.6673,-34.0357,9.5776],[-58.6926,-34.0239,3.8313],[-58.7074,-34.0116,2.7281],[-58.7176,-33.9965,9.3894],[-58.7249,-33.9812,0.0],[-58.748,-33.9549,0.0],[-58.7638,-33.9429,0.0],[-58.7772,-33.9393,0.0],[-58.8091,-33.9409,2.5172],[-58.8319,-33.9453,3.5872],[-58.8647,-33.9655,3.5166],[-58.889,-33.9663,3.2368],[-58.9102,-33.964,3.2749],[-58.9292,-33.9646,1.9467],[-58.941,-33.9668,1.7488],[-58.954,-33.9721,7.84],[-58.9714,-33.9704,2.6934],[-59.0086,-34.1025,0.0],[-58.9879,-34.1127,3.5319],[-58.9745,-34.1266,3.2624],[-58.9772,-34.1317,0.0],[-58.9849,-34.1389,0.0],[-59.1061,-34.2046,27.4147],[-59.1069,-34.2193,30.0338],[-59.0924,-34.2332,27.6837],[-59.0806,-34.2284,21.8542],[-59.0556,-34.25,21.5957],[-59.061,-34.253,25.5321],[-59.0182,-34.2947,15.4192],[-59.0211,-34.2971,16.0537],[-58.9986,-34.3216,28.1511],[-58.9941,-34.3209,27.4605],[-58.9852,-34.3294,25.2637],[-58.9801,-34.3271,18.9163],[-58.9745,-34.3318,19.2393],[-58.9739,-34.3405,16.4997],[-58.9687,-34.3405,19.1972],[-58.9228,-34.387,8.2169],[-58.9191,-34.3828,9.6292],[-58.9173,-34.3767,7.6796],[-58.911,-34.3739,4.0031],[-58.9078,-34.3697,3.8274],[-58.9151,-34.3473,4.2273],[-58.9164,-34.3357,4.117],[-58.914,-34.3291,4.8737],[-58.9059,-34.3232,3.3652],[-58.905,-34.3207,3.0415],[-58.8971,-34.3137,2.3731],[-58.8923,-34.3116,2.5334],[-58.8896,-34.3076,2.8413],[-58.8827,-34.3059,3.14],[-58.884,-34.2947,4.1721],[-58.8804,-34.2944,4.2657],[-58.8796,-34.2905,6.0205],[-58.8745,-34.2833,2.3299],[-58.8699,-34.2851,1.8701],[-58.862,-34.2849,1.9709],[-58.8611,-34.2721,2.213],[-58.8577,-34.2696,1.7974],[-58.8523,-34.2701,1.415],[-58.8336,-34.2792,1.5692],[-58.8263,-34.2803,1.4838],[-58.81,-34.287,1.8819],[-58.8038,-34.2834,1.8489],[-58.7838,-34.2909,3.5807],[-58.7817,-34.2957,7.8634],[-58.7721,-34.2978,2.9886],[-58.7728,-34.2905,4.9941],[-58.7779,-34.2828,6.2175],[-58.788,-34.2731,2.0018],[-58.7902,-34.2652,2.376],[-58.8005,-34.2506,1.6802],[-58.8008,-34.2314,6.5279],[-58.7858,-34.24,8.3181],[-58.7194,-34.2518,6.3537]]]]}
,"properties": {"GID_2": "ARG.1.19_1","GID_0": "ARG","country": "Argentina","GID_1": "ARG.1_1","state": "BuenosAires","NL_NAME_1": "NA","county": "Campana","VARNAME_2": "NA","NL_NAME_2": "NA","TYPE_2": "Partido","ENGTYPE_2": "Part","CC_2": "NA","HASC_2": "AR.BA.CM","name": "Campana.county","area_km2": 997.1078,"hist_schema_id": "Elevation0-9000","hist_area_km2": {"0": 789.4132,"25": 207.4318,"50": 0.2629}}}