{"type": "Feature","id": "1296","bbox": [-68.29319,-39.32576,-63.38406,-35.0005],"geometry": {"type": "Polygon","coordinates": [[[-63.38406,-35.0021,126.9749],[-63.95689,-35.0005,146.1438],[-64.48689,-35.0005,193.4477],[-65.08662,-35.00179,271.8679],[-65.08744,-35.84541,287.0072],[-65.08778,-35.99878,287.5143],[-65.09227,-36.00049,287.8227],[-65.09579,-36.00132,287.9714],[-65.13522,-36.00101,289.9299],[-66.02661,-35.99992,344.8804],[-66.06312,-36.00002,345.088],[-66.61717,-35.99992,326.2875],[-67.06004,-35.99894,332.5152],[-67.13499,-35.9993,335.1105],[-68.24632,-35.9993,1058.5328],[-68.26611,-36.00648,1080.1044],[-68.28223,-36.02106,1112.2166],[-68.29156,-36.08777,1113.1057],[-68.29319,-36.12829,1096.9951],[-68.29141,-36.144,1085.9048],[-68.28567,-36.15666,1080.0715],[-68.25676,-36.27675,1007.8292],[-68.24883,-36.83351,846.4215],[-68.24939,-37.55704,490.5133],[-67.85032,-37.60024,436.989],[-67.80733,-37.61807,430.362],[-67.7779,-37.63941,426.4618],[-67.7486,-37.66907,407.9678],[-67.72478,-37.70235,380.5199],[-67.71175,-37.73475,352.7917],[-67.71051,-37.78002,344.0928],[-67.72369,-37.81686,335.3174],[-67.74795,-37.84523,331.0008],[-67.81619,-37.88327,314.8843],[-67.84826,-37.90776,310.5744],[-67.87009,-37.94177,303.3071],[-67.87562,-37.98864,299.7562],[-67.87174,-38.00724,296.7322],[-67.86394,-38.02982,304.3804],[-67.85428,-38.04889,290.7128],[-67.8449,-38.0569,290.5715],[-67.83914,-38.05907,288.6638],[-67.82172,-38.06837,288.079],[-67.81076,-38.07054,287.0164],[-67.78493,-38.06357,286.6395],[-67.7732,-38.0631,284.9092],[-67.73449,-38.07592,282.1352],[-67.70566,-38.10057,310.6543],[-67.65119,-38.19152,280.7731],[-67.62473,-38.22227,273.0],[-67.59199,-38.24712,273.0],[-67.55409,-38.26175,273.0],[-67.47771,-38.25787,273.0],[-67.45185,-38.24697,273.0],[-67.37596,-38.25555,273.0],[-67.35095,-38.25012,273.0],[-67.30527,-38.22666,276.9374],[-67.22075,-38.21322,273.0],[-67.19783,-38.21457,273.0],[-67.17659,-38.22263,269.0562],[-67.16641,-38.2355,268.0718],[-67.16321,-38.2525,260.3872],[-67.16305,-38.27291,256.8749],[-67.15941,-38.2851,240.7892],[-67.13577,-38.33807,256.1401],[-67.09903,-38.37998,249.1208],[-67.08551,-38.39068,247.1283],[-67.06983,-38.40897,234.9412],[-67.06376,-38.41316,240.0537],[-67.05316,-38.41455,232.6737],[-66.95343,-38.4575,233.1336],[-66.90824,-38.46484,237.5896],[-66.8779,-38.48308,236.7182],[-66.85522,-38.48892,232.962],[-66.8068,-38.49512,232.5186],[-66.7716,-38.51341,229.9202],[-66.76241,-38.5162,229.1846],[-66.75641,-38.51941,229.6936],[-66.7384,-38.53351,226.5192],[-66.72858,-38.53672,225.8331],[-66.68388,-38.54354,220.8845],[-66.64794,-38.55739,221.8732],[-66.61683,-38.57945,216.4352],[-66.5935,-38.60731,209.0],[-66.58087,-38.63847,229.279],[-66.57361,-38.68503,209.3509],[-66.56195,-38.70157,208.5061],[-66.53648,-38.70802,207.4571],[-66.51022,-38.7104,209.3438],[-66.39186,-38.73417,213.1341],[-66.34752,-38.73484,209.1132],[-66.21523,-38.7166,193.3393],[-65.96018,-38.74213,192.4017],[-65.94974,-38.7443,184.9652],[-65.92866,-38.75365,181.7729],[-65.90235,-38.75743,180.2602],[-65.8683,-38.76947,179.1783],[-65.82642,-38.77319,210.8028],[-65.81306,-38.77629,211.6735],[-65.80337,-38.78141,205.9895],[-65.78513,-38.79422,173.5966],[-65.77551,-38.79675,174.4364],[-65.73425,-38.79675,198.3094],[-65.71875,-38.7997,209.7804],[-65.70697,-38.80636,181.2992],[-65.69766,-38.81355,170.7866],[-65.68955,-38.81789,170.4843],[-65.67038,-38.81727,169.2971],[-65.64878,-38.80988,164.3977],[-65.62798,-38.79872,166.8142],[-65.61134,-38.78683,164.6515],[-65.59,-38.77753,161.6786],[-65.563,-38.77582,174.2915],[-65.51142,-38.78373,160.1485],[-65.42355,-38.81153,166.0393],[-65.38657,-38.832,155.3647],[-65.3674,-38.83835,161.3228],[-65.35753,-38.83696,154.4533],[-65.3134,-38.82409,151.6922],[-65.26146,-38.82549,133.3979],[-65.11416,-38.80357,127.1819],[-64.9776,-38.80357,153.3824],[-64.97016,-38.80357,155.3469],[-64.94347,-38.81856,140.413],[-64.87213,-38.80957,141.3482],[-64.84046,-38.81789,128.7883],[-64.82092,-38.8104,136.3215],[-64.5422,-38.852,98.7498],[-64.47149,-38.8537,111.8073],[-64.14631,-38.9493,122.5409],[-64.07386,-38.98723,88.4303],[-64.0573,-38.99359,76.7548],[-64.01022,-38.99979,74.8669],[-63.99446,-39.00981,69.6033],[-63.90816,-39.09224,63.5],[-63.88811,-39.09973,65.5291],[-63.81941,-39.11208,64.1086],[-63.78212,-39.12836,61.1035],[-63.76801,-39.13797,57.9334],[-63.75393,-39.14996,59.0397],[-63.72822,-39.18293,58.7386],[-63.71122,-39.20019,52.9144],[-63.67551,-39.21311,51.5335],[-63.54506,-39.28339,47.5915],[-63.5164,-39.30597,44.9742],[-63.47801,-39.31848,43.9826],[-63.38858,-39.32576,41.2294],[-63.38713,-38.82549,60.5439],[-63.38713,-38.27234,125.9992],[-63.38783,-37.7794,173.1778],[-63.38773,-37.73578,161.3998],[-63.38799,-37.28548,133.5049],[-63.38858,-36.85238,133.5371],[-63.38858,-36.62707,125.9697],[-63.38858,-36.40191,124.1382],[-63.38881,-35.98457,111.2192],[-63.38858,-35.9498,112.4158],[-63.38605,-35.49902,116.2068],[-63.38551,-35.27351,119.3313],[-63.38406,-35.0021,126.9749]]]}
,"properties": {"ISO3166-1-Alpha-3": "ARG","country": "Argentina","fill": "#00F","name": "La Pampa","area_km2": 142639.55,"hist_schema_id": "Elevation0-9000","hist_area_km2": {"-50": 31.67,"-25": 283.33,"0": 1005.07,"25": 1210.83,"50": 1633.89,"75": 2269.3,"100": 2378.01,"125": 10782.11,"150": 11930.02,"175": 8972.67,"200": 9153.1,"225": 11176.51,"250": 15344.17,"275": 16032.52,"300": 15054.34,"325": 11662.78,"350": 4846.13,"375": 2900.35,"400": 1968.62,"425": 1146.46,"450": 969.55,"475": 947.16,"500": 919.76,"525": 892.24,"550": 921.75,"575": 805.06,"600": 761.0,"625": 709.72,"650": 682.72,"675": 693.55,"700": 677.04,"725": 596.33,"750": 532.15,"775": 485.2,"800": 469.2,"825": 418.09,"850": 316.13,"875": 217.43,"900": 172.5,"925": 144.25,"950": 134.5,"975": 105.92,"1000": 80.44,"1025": 79.48,"1050": 58.36,"1075": 42.95,"1100": 21.52,"1125": 2.96}}}