{"type":"Feature","properties":{"GID_1":"ARG.11_1","GID_0":"ARG","country":"Argentina","state":"LaPampa","VARNAME_1":"ElPampa|EvaPerón","NL_NAME_1":"NA","TYPE_1":"Provincia","ENGTYPE_1":"Province","CC_1":"NA","HASC_1":"AR.LP","ISO_1":"AR-L","name":"LaPampa.state"},
"geometry":{"type": "MultiPolygon","coordinates": [[[[-63.3894,-38.4316,58.4204],[-63.3892,-38.0712,153.7476],[-63.3932,-38.0082,183.7155],[-63.389,-36.0619,114.2112],[-63.3871,-35.9992,112.2439],[-63.3892,-35.8179,109.6135],[-63.3882,-35.5767,116.0068],[-63.3932,-35.0658,124.4943],[-63.3927,-34.9984,125.7122],[-65.1067,-34.9977,278.6206],[-65.1022,-35.9969,293.6699],[-65.6475,-35.999,338.7474],[-66.6261,-35.9989,326.0932],[-67.5041,-35.9955,494.437],[-67.5804,-35.998,542.859],[-68.2958,-35.9985,1188.6375],[-68.2958,-36.1663,1095.4055],[-68.2417,-36.1657,1027.0394],[-68.2407,-36.2369,1032.1938],[-68.2428,-37.5779,468.0504],[-68.223,-37.5841,455.0809],[-68.2051,-37.5873,445.0033],[-68.1654,-37.5855,438.654],[-68.1441,-37.5871,435.0919],[-68.1232,-37.591,429.0028],[-68.0915,-37.5996,425.4615],[-68.0455,-37.6004,415.9022],[-67.9911,-37.6075,406.1293],[-67.8811,-37.6131,386.8524],[-67.8431,-37.6229,380.9717],[-67.8224,-37.6406,376.3927],[-67.7874,-37.6555,370.5725],[-67.7677,-37.6832,363.6315],[-67.7651,-37.7123,359.9722],[-67.7493,-37.7594,352.933],[-67.7396,-37.7773,344.2699],[-67.7159,-37.809,338.4781],[-67.7149,-37.8111,337.4727],[-67.7162,-37.8155,336.2814],[-67.7371,-37.8566,327.1629],[-67.7408,-37.8603,325.0406],[-67.7547,-37.8658,324.2706],[-67.7612,-37.8707,323.4739],[-67.7786,-37.9025,317.7934],[-67.7822,-37.9064,316.1002],[-67.7874,-37.9073,316.4737],[-67.8002,-37.906,315.2982],[-67.818,-37.9098,312.2032],[-67.8484,-37.9263,305.3513],[-67.8637,-37.9383,303.9401],[-67.8817,-37.961,301.4155],[-67.8889,-37.9744,299.8177],[-67.8979,-37.9843,298.8842],[-67.9009,-37.9937,296.5235],[-67.8991,-38.0007,297.7846],[-67.8895,-38.0211,298.8946],[-67.8738,-38.0336,293.7899],[-67.8628,-38.0443,291.4592],[-67.8552,-38.0547,290.6412],[-67.8437,-38.0653,288.1933],[-67.8252,-38.0713,288.934],[-67.8126,-38.0715,287.2615],[-67.7981,-38.0681,286.507],[-67.7811,-38.0606,285.1911],[-67.7758,-38.061,284.5644],[-67.7652,-38.0718,285.7401],[-67.7547,-38.0674,284.1276],[-67.7506,-38.0686,282.7143],[-67.7398,-38.0948,284.5544],[-67.7372,-38.0949,283.6242],[-67.7323,-38.0987,281.7863],[-67.7255,-38.1221,281.2161],[-67.7211,-38.1293,280.7316],[-67.7146,-38.1354,279.623],[-67.7101,-38.1372,278.9419],[-67.7052,-38.138,278.5032],[-67.6979,-38.1363,277.5],[-67.6914,-38.1384,278.064],[-67.6781,-38.1528,279.1039],[-67.6656,-38.1789,278.6315],[-67.6622,-38.1906,278.4586],[-67.6594,-38.1938,277.8937],[-67.6512,-38.1986,277.4857],[-67.6422,-38.2104,273.0],[-67.6345,-38.2156,273.0],[-67.6224,-38.2179,273.0],[-67.5942,-38.2266,273.0],[-67.5933,-38.2364,273.0],[-67.5912,-38.2417,273.0],[-67.589,-38.2429,273.0],[-67.5746,-38.2466,273.0],[-67.5623,-38.2449,273.0],[-67.5549,-38.2464,273.0],[-67.5491,-38.2503,273.0],[-67.5444,-38.2515,273.0],[-67.5342,-38.2517,273.0],[-67.5222,-38.2486,273.0],[-67.5066,-38.2421,273.0],[-67.5013,-38.2379,273.0],[-67.4982,-38.2377,273.0],[-67.4955,-38.2384,273.0],[-67.4898,-38.245,273.0],[-67.4809,-38.2463,273.0],[-67.469,-38.2466,273.0],[-67.4331,-38.2435,273.0],[-67.404,-38.2497,273.0],[-67.389,-38.2496,273.0],[-67.3684,-38.2527,273.0],[-67.3147,-38.2467,273.0],[-67.2969,-38.2339,273.0],[-67.286,-38.2309,273.0],[-67.2761,-38.222,273.0],[-67.2672,-38.2206,273.0],[-67.2576,-38.2151,273.0],[-67.2215,-38.2165,273.0],[-67.1914,-38.2134,270.6268],[-67.1854,-38.2141,256.6906],[-67.1835,-38.2232,256.2374],[-67.1867,-38.257,245.4691],[-67.1817,-38.2617,241.9203],[-67.1626,-38.2652,250.2332],[-67.1616,-38.2705,263.2274],[-67.1631,-38.2803,242.0446],[-67.1566,-38.2962,242.6662],[-67.1577,-38.3128,239.654],[-67.1539,-38.3267,241.1242],[-67.1541,-38.346,238.2403],[-67.1526,-38.3534,238.6159],[-67.1496,-38.3575,237.071],[-67.1296,-38.3574,239.0239],[-67.1243,-38.3683,237.3115],[-67.0849,-38.3857,251.7445],[-67.0755,-38.3951,244.1242],[-67.0627,-38.4013,249.1757],[-67.0481,-38.4133,231.9092],[-67.012,-38.4251,233.4962],[-66.9917,-38.4426,235.485],[-66.9707,-38.4445,230.7115],[-66.9583,-38.4514,229.8447],[-66.9402,-38.4546,228.8085],[-66.9315,-38.4542,228.275],[-66.9202,-38.4463,227.7003],[-66.9077,-38.4453,224.8314],[-66.8986,-38.4464,226.9519],[-66.8941,-38.4486,232.3967],[-66.8891,-38.4578,227.1331],[-66.8853,-38.4614,224.0005],[-66.8661,-38.4686,225.7922],[-66.8538,-38.4756,222.8986],[-66.8328,-38.4763,221.1446],[-66.8103,-38.483,221.4021],[-66.7893,-38.4832,222.9752],[-66.7564,-38.4955,231.4961],[-66.7427,-38.5083,222.5294],[-66.7355,-38.5122,222.3009],[-66.7177,-38.5157,230.5],[-66.7021,-38.5229,236.4674],[-66.684,-38.5237,234.6451],[-66.6674,-38.5294,227.6867],[-66.6459,-38.5308,235.923],[-66.6379,-38.5333,243.3642],[-66.621,-38.5471,223.5289],[-66.6061,-38.5513,234.4665],[-66.6022,-38.5541,237.7028],[-66.5996,-38.5605,226.2884],[-66.5931,-38.594,215.984],[-66.577,-38.6197,217.3146],[-66.5774,-38.6287,223.2356],[-66.5897,-38.6534,231.6682],[-66.5849,-38.6627,247.4483],[-66.5871,-38.666,231.9037],[-66.5967,-38.6695,212.5385],[-66.5972,-38.6725,210.7034],[-66.5775,-38.6852,210.3883],[-66.5724,-38.694,211.0853],[-66.5459,-38.6973,229.355],[-66.5368,-38.7101,206.9581],[-66.5319,-38.7112,208.7785],[-66.5193,-38.7089,217.8047],[-66.5082,-38.7125,208.1121],[-66.4963,-38.7126,229.4843],[-66.4795,-38.7262,206.6542],[-66.4777,-38.734,202.8027],[-66.4748,-38.7354,204.4658],[-66.4618,-38.733,202.16309999999999],[-66.4541,-38.7371,201.795],[-66.4425,-38.7394,204.5806],[-66.4374,-38.7462,199.8918],[-66.4311,-38.7455,200.3306],[-66.426,-38.742,201.8143],[-66.417,-38.7444,198.5],[-66.4133,-38.7417,201.7132],[-66.4098,-38.7344,201.345],[-66.3981,-38.7408,198.7645],[-66.3873,-38.7361,226.4903],[-66.3846,-38.7363,216.1464],[-66.3767,-38.7404,203.663],[-66.3593,-38.7446,197.5157],[-66.3474,-38.752,198.8111],[-66.3417,-38.7535,199.277],[-66.3324,-38.7538,195.5],[-66.3256,-38.7495,196.285],[-66.3152,-38.7552,197.0744],[-66.3108,-38.7537,194.1875],[-66.3051,-38.7472,196.0581],[-66.2867,-38.7542,194.3251],[-66.2547,-38.7471,194.4849],[-66.2146,-38.7303,193.9135],[-66.1973,-38.7346,192.3329],[-66.176,-38.7338,190.7666],[-66.1663,-38.7399,190.6764],[-66.1594,-38.7331,190.4295],[-66.1321,-38.7328,188.2881],[-66.1088,-38.7407,188.3954],[-66.1048,-38.7367,186.7331],[-66.1037,-38.7313,186.227],[-66.0891,-38.731,187.1267],[-66.0744,-38.7259,201.6739],[-66.0704,-38.73,193.2237],[-66.0662,-38.7449,185.0616],[-66.0588,-38.7491,185.3575],[-66.0559,-38.7495,184.1645],[-66.0485,-38.7456,183.4793],[-66.0402,-38.7496,185.0757],[-66.0359,-38.7479,183.4458],[-66.0325,-38.7427,183.0724],[-66.0289,-38.7432,184.4636],[-66.0233,-38.7507,182.7184],[-66.0203,-38.7502,183.6232],[-66.0169,-38.742,183.1117],[-66.0128,-38.7422,185.2723],[-65.9995,-38.7494,183.6286],[-65.9826,-38.7442,182.948],[-65.9518,-38.7437,184.511],[-65.9471,-38.7456,182.9216],[-65.9441,-38.7528,178.5],[-65.9361,-38.7565,181.8114],[-65.9347,-38.7609,181.3233],[-65.9354,-38.7689,178.0],[-65.9328,-38.771,180.3591],[-65.9202,-38.7685,179.5965],[-65.9128,-38.7731,178.3356],[-65.9038,-38.7663,178.583],[-65.8983,-38.7801,176.4394],[-65.8952,-38.7814,177.8263],[-65.8818,-38.7785,178.2595],[-65.8658,-38.7791,178.5767],[-65.8642,-38.7848,178.8414],[-65.866,-38.7903,176.5936],[-65.864,-38.7931,176.494],[-65.854,-38.7926,177.8395],[-65.8473,-38.7984,177.4459],[-65.8441,-38.7986,176.564],[-65.837,-38.7918,175.3543],[-65.8331,-38.7927,175.0081],[-65.8232,-38.8027,176.2691],[-65.8076,-38.8016,174.0382],[-65.804,-38.8046,172.3906],[-65.8013,-38.8125,178.6724],[-65.7976,-38.8133,183.0668],[-65.7866,-38.8077,172.4398],[-65.7656,-38.8057,173.4085],[-65.7566,-38.8118,171.6539],[-65.7322,-38.8108,172.5067],[-65.7132,-38.8177,170.4562],[-65.7005,-38.8166,167.4647],[-65.6962,-38.8186,171.387],[-65.6927,-38.8258,169.3347],[-65.6906,-38.8272,169.2441],[-65.6604,-38.8306,167.9111],[-65.6304,-38.8275,199.5066],[-65.6266,-38.8156,165.3494],[-65.6216,-38.8147,175.4255],[-65.6146,-38.8164,194.8197],[-65.6134,-38.8117,181.7571],[-65.615,-38.8064,161.5],[-65.602,-38.8011,165.6309],[-65.6,-38.7892,161.2929],[-65.5957,-38.7868,164.8565],[-65.5833,-38.7844,163.9915],[-65.5785,-38.775,162.1238],[-65.5749,-38.7741,176.4117],[-65.5668,-38.7786,166.5312],[-65.5548,-38.7756,180.7401],[-65.5501,-38.7774,167.0342],[-65.542,-38.7847,160.9687],[-65.5267,-38.7845,159.7776],[-65.5116,-38.7869,156.0765],[-65.4978,-38.7987,160.562],[-65.4699,-38.7987,175.004],[-65.4613,-38.8005,172.6336],[-65.4458,-38.8151,156.7911],[-65.4365,-38.8213,164.0138],[-65.426,-38.826,155.1773],[-65.3911,-38.8341,149.5462],[-65.3836,-38.8381,152.5334],[-65.373,-38.85,149.0889],[-65.3649,-38.8516,143.5259],[-65.3279,-38.8476,152.0649],[-65.3221,-38.8428,162.71],[-65.3147,-38.831,139.8334],[-65.2937,-38.8291,139.455],[-65.2763,-38.8191,137.4606],[-65.271,-38.8176,146.4941],[-65.2593,-38.821,153.9423],[-65.2509,-38.828,134.8536],[-65.2328,-38.8269,134.4641],[-65.2189,-38.8314,133.7548],[-65.204,-38.8297,133.8595],[-65.1883,-38.8318,132.3414],[-65.1829,-38.8278,133.0072],[-65.178,-38.8078,131.586],[-65.1697,-38.8159,131.3329],[-65.1649,-38.8147,130.8567],[-65.158,-38.8089,129.4037],[-65.1536,-38.8014,148.6573],[-65.1505,-38.8008,156.9065],[-65.1432,-38.8095,132.818],[-65.1377,-38.8114,129.028],[-65.1286,-38.8107,125.8141],[-65.1129,-38.8035,127.1819],[-65.0978,-38.8022,125.72],[-65.086,-38.8046,125.9295],[-65.0739,-38.8045,126.8975],[-65.0506,-38.8098,126.3454],[-65.0294,-38.8084,133.0662],[-65.0056,-38.8119,130.0388],[-64.9632,-38.812,156.4458],[-64.9166,-38.8232,127.533],[-64.9082,-38.8214,125.2467],[-64.8833,-38.8117,119.7852],[-64.8747,-38.8119,122.3587],[-64.8419,-38.8184,127.368],[-64.8122,-38.8129,124.1834],[-64.8004,-38.8126,133.4815],[-64.7626,-38.8218,131.7486],[-64.7413,-38.8217,146.6012],[-64.7235,-38.8309,108.8144],[-64.7178,-38.832,106.4283],[-64.6965,-38.8306,109.0118],[-64.6755,-38.8332,99.0897],[-64.6518,-38.8273,124.1909],[-64.6434,-38.8273,122.3906],[-64.6197,-38.8384,99.6633],[-64.5899,-38.8426,102.1917],[-64.5774,-38.8496,96.1269],[-64.5691,-38.8519,95.4189],[-64.5173,-38.8531,97.3691],[-64.4922,-38.8613,91.2685],[-64.4806,-38.8552,94.6941],[-64.4566,-38.8582,104.4634],[-64.452,-38.8624,95.9307],[-64.434,-38.8709,90.2169],[-64.4099,-38.8742,89.7803],[-64.3783,-38.8745,91.5509],[-64.3686,-38.8778,89.9314],[-64.3479,-38.8922,85.2422],[-64.3268,-38.8929,88.7578],[-64.3097,-38.902,85.5189],[-64.2957,-38.9028,83.6923],[-64.2687,-38.9088,89.0769],[-64.2468,-38.9177,86.4927],[-64.2296,-38.9271,84.1085],[-64.1885,-38.9426,108.3956],[-64.165,-38.9546,81.2607],[-64.1386,-38.9623,88.182],[-64.1138,-38.9727,87.5883],[-64.0714,-38.9865,94.1207],[-64.0689,-38.9883,87.3926],[-64.0673,-38.9965,77.4433],[-64.0602,-39.0023,76.2236],[-64.0499,-39.0041,75.7239],[-64.0184,-39.004,73.7103],[-64.0015,-39.0078,73.7066],[-63.9889,-39.0173,74.3655],[-63.9885,-39.0199,72.7286],[-63.9967,-39.0289,72.9293],[-63.9969,-39.0315,72.0924],[-63.9882,-39.0364,71.0553],[-63.9865,-39.0414,72.6443],[-63.9501,-39.0512,70.7068],[-63.9465,-39.059,71.9082],[-63.931,-39.0653,66.7209],[-63.9125,-39.078,66.0547],[-63.9046,-39.096,63.5],[-63.8889,-39.1023,67.4085],[-63.8687,-39.1068,63.8336],[-63.8442,-39.1082,61.8749],[-63.8291,-39.115,65.2132],[-63.8121,-39.1142,63.4639],[-63.7975,-39.1164,61.6552],[-63.7689,-39.1265,58.9297],[-63.7618,-39.1324,58.957],[-63.7539,-39.1477,58.5152],[-63.7375,-39.158,87.3577],[-63.7318,-39.1649,77.1783],[-63.7305,-39.1674,75.3438],[-63.7315,-39.1809,58.9144],[-63.7072,-39.1917,56.5455],[-63.6873,-39.203,55.4055],[-63.6741,-39.2068,54.9247],[-63.6643,-39.2177,53.3426],[-63.6545,-39.221,53.5575],[-63.6352,-39.2327,51.894],[-63.6314,-39.2401,52.8017],[-63.6288,-39.242,52.9741],[-63.6184,-39.2421,49.3546],[-63.5945,-39.2466,49.311],[-63.551,-39.2584,83.4346],[-63.5358,-39.2696,52.5779],[-63.5343,-39.2834,47.9471],[-63.5318,-39.2884,48.0316],[-63.5257,-39.2913,47.0031],[-63.5053,-39.296,46.5049],[-63.459,-39.3161,52.2018],[-63.4099,-39.321,62.0951],[-63.3993,-39.3208,54.9692],[-63.3886,-39.3183,41.5025],[-63.3902,-39.2963,79.6035],[-63.3894,-38.4316,58.4204]]]]}}