{"type":"Feature","properties":{"GID_2":"ARG.10.7_1","GID_0":"ARG","country":"Argentina","GID_1":"ARG.10_1","state":"Jujuy","NL_NAME_1":"NA","county":"Rinconada","VARNAME_2":"NA","NL_NAME_2":"NA","TYPE_2":"Departamento","ENGTYPE_2":"Department","CC_2":"NA","HASC_2":"AR.JY.RI","name":"Rinconada.county"},
"geometry":{"type": "MultiPolygon","coordinates": [[[[-65.7995,-22.4426,3747.8745],[-65.8228,-22.4298,4232.9141],[-65.8428,-22.4232,4035.4209],[-65.9585,-22.3992,3671.8396],[-66.0342,-22.2728,3698.8472],[-66.0519,-22.2744,3721.1865],[-66.0727,-22.2705,3834.6121],[-66.1116,-22.27,4145.4233],[-66.1246,-22.275,4163.061],[-66.1453,-22.2877,4275.2134],[-66.1487,-22.2882,4265.2764],[-66.1621,-22.284,4328.9165],[-66.1774,-22.2703,4381.333],[-66.1839,-22.2676,4261.7979],[-66.198,-22.2668,4353.2803],[-66.2363,-22.2728,4371.0],[-66.2539,-22.2718,4384.6021],[-66.2713,-22.2684,4029.6355],[-66.2775,-22.2711,3989.134],[-66.2937,-22.2926,4054.9919],[-66.3003,-22.295,4120.0977],[-66.3074,-22.2951,4036.0903],[-66.3143,-22.2938,4037.3174],[-66.3236,-22.2892,3875.7346],[-66.3346,-22.2763,3900.5708],[-66.3437,-22.2715,3841.6848],[-66.3557,-22.2594,3801.9314],[-66.3933,-22.2505,3701.1519],[-66.4039,-22.2511,3702.3635],[-66.4151,-22.2592,3646.9434],[-66.4288,-22.2742,3638.3086],[-66.44,-22.2818,3684.9106],[-66.4472,-22.2931,3673.7476],[-66.4486,-22.2996,3695.916],[-66.4482,-22.3095,3734.3877],[-66.4496,-22.3124,3761.2812],[-66.4751,-22.3303,3690.3237],[-66.4877,-22.3533,3743.0491],[-66.4969,-22.3633,3752.5481],[-66.5154,-22.3785,3808.7102],[-66.5187,-22.3785,3813.5149],[-66.5312,-22.3723,3914.8022],[-66.5347,-22.373,3864.9539],[-66.5397,-22.3775,3862.1824],[-66.5433,-22.3868,3949.3728],[-66.549,-22.3951,4013.0571],[-66.5601,-22.4029,4094.5488],[-66.5805,-22.3973,4190.4219],[-66.5964,-22.3906,3954.3242],[-66.6281,-22.3888,4343.4209],[-66.649,-22.386,4371.271],[-66.6694,-22.3806,4367.3813],[-66.692,-22.3712,4335.272],[-66.7202,-22.3721,4423.3906],[-66.7377,-22.3698,4428.022],[-66.7578,-22.3639,4372.2695],[-66.7665,-22.3589,4367.3525],[-66.7815,-22.3977,4581.5029],[-66.7824,-22.427,4994.5737],[-66.7837,-22.43,5081.0386],[-66.7825,-22.4381,5205.3647],[-66.8018,-22.4473,5411.3286],[-66.9286,-22.4922,5461.8984],[-66.973,-22.5407,5662.9902],[-67.0273,-22.5409,5512.2812],[-67.0141,-22.6548,5825.7476],[-67.1278,-22.7221,5346.2334],[-67.1816,-22.8145,5586.2227],[-67.1803,-22.8142,5586.2227],[-66.9902,-23.0,4673.2324],[-66.9935,-23.0104,4663.9238],[-66.6841,-23.0075,4210.4868],[-66.681,-22.9906,4321.1387],[-66.6698,-22.9738,4516.1055],[-66.5794,-22.863,5173.3306],[-66.5717,-22.8574,5149.522],[-66.5584,-22.8528,4943.2388],[-66.5407,-22.8511,4692.79],[-66.5091,-22.8558,4645.856],[-66.4799,-22.8675,4626.8394],[-66.4534,-22.8841,4436.3862],[-66.4192,-22.8929,4562.3633],[-66.3909,-22.891,4642.0264],[-66.3527,-22.8836,4346.4136],[-66.3187,-22.8742,4411.9604],[-66.2791,-22.8594,4438.5933],[-66.2288,-22.8433,4471.5391],[-66.2063,-22.8334,4308.9453],[-66.1734,-22.814,4030.9524],[-66.1582,-22.8003,4097.6396],[-66.1301,-22.7861,4056.1179],[-66.1203,-22.7765,3913.7747],[-66.1158,-22.7676,3772.7874],[-66.107,-22.7289,4135.0083],[-66.1021,-22.7165,3944.655],[-66.0825,-22.7025,3767.1587],[-66.0553,-22.6956,3733.5754],[-66.0393,-22.6887,3750.178],[-66.0278,-22.6808,3796.5447],[-65.9608,-22.674,3599.9473],[-65.9473,-22.6702,3673.9084],[-65.9252,-22.6537,3926.8645],[-65.9081,-22.6327,4310.9146],[-65.9041,-22.6236,4344.6382],[-65.9014,-22.6073,4276.1094],[-65.8839,-22.5714,4008.1699],[-65.8483,-22.5917,3711.5688],[-65.838,-22.5622,3715.3472],[-65.835,-22.5493,3726.0625],[-65.8174,-22.517,3698.2585],[-65.8154,-22.5007,3811.5552],[-65.8008,-22.4533,3770.8665],[-65.7995,-22.4426,3747.8745]]]]}}