{"type": "Feature","bbox": [-65.1106,-34.9984,-63.3912,-33.9602],"geometry": {"type": "MultiPolygon","coordinates": [[[[-63.3912,-34.5285,133.9884],[-63.5119,-34.5163,142.1165],[-63.5098,-34.5571,137.4988],[-63.6105,-34.5583,137.1632],[-63.6148,-34.5404,141.463],[-63.8347,-34.5416,145.3175],[-63.8434,-34.3646,153.1738],[-64.1712,-34.3692,186.2024],[-64.1722,-34.2589,193.5848],[-64.2224,-34.2292,199.7851],[-64.244,-34.2322,203.7675],[-64.2639,-34.2315,205.1344],[-64.2764,-34.2281,207.2959],[-64.3059,-34.2156,211.7438],[-64.319,-34.2136,212.4933],[-64.3585,-34.2164,218.8712],[-64.3783,-34.2149,218.4242],[-64.3911,-34.2121,222.4684],[-64.444,-34.2127,230.2357],[-64.4569,-34.21,233.0569],[-64.4806,-34.2002,236.8318],[-64.5188,-34.1784,245.3849],[-64.5481,-34.1656,250.7955],[-64.5737,-34.16,256.0592],[-64.5935,-34.1615,257.1987],[-64.5997,-34.1604,257.6786],[-64.6303,-34.1497,263.1105],[-64.6642,-34.1327,267.5765],[-64.6773,-34.1204,273.5501],[-64.6874,-34.1133,276.2471],[-64.712,-34.1052,280.9098],[-64.7344,-34.0853,287.4406],[-64.7453,-34.0791,291.8876],[-64.7932,-34.0606,300.4233],[-64.8083,-34.05,305.2421],[-64.825,-34.0411,312.0629],[-64.8555,-34.0305,316.1216],[-64.8788,-34.0201,326.5484],[-64.8851,-34.0183,327.3196],[-64.918,-34.0193,331.9571],[-64.9361,-34.0128,336.3207],[-64.9492,-34.0108,338.671],[-64.9558,-34.0109,340.6849],[-64.9745,-34.0162,340.3099],[-65.0071,-34.0118,350.3726],[-65.019,-34.0073,354.4609],[-65.029,-34.0,357.8321],[-65.0463,-33.9921,355.5324],[-65.0903,-33.9677,370.7903],[-65.1099,-33.9602,373.2542],[-65.1106,-34.0609,366.489],[-65.1067,-34.9977,278.6206],[-63.3927,-34.9984,125.7122],[-63.3912,-34.5285,133.9884]]]]}
,"properties": {"GID_2": "ARG.6.5_1","GID_0": "ARG","country": "Argentina","GID_1": "ARG.6_1","state": "Córdoba","NL_NAME_1": "NA","county": "GeneralRoca","VARNAME_2": "VillaHuidobro","NL_NAME_2": "NA","TYPE_2": "Departamento","ENGTYPE_2": "Department","CC_2": "NA","HASC_2": "AR.CB.GR","name": "GeneralRoca.county","area_km2": 12574.784,"hist_schema_id": "Elevation0-9000","hist_area_km2": {"125": 1459.087,"150": 2593.81,"175": 1447.45,"200": 1280.881,"225": 1399.826,"250": 1591.45,"275": 1421.919,"300": 737.006,"325": 439.912,"350": 186.99,"375": 16.453}}}