{"type":"Feature","properties":{"GID_2":"ARG.1.12_1","GID_0":"ARG","country":"Argentina","GID_1":"ARG.1_1","state":"BuenosAires","NL_NAME_1":"NA","county":"Baradero","VARNAME_2":"NA","NL_NAME_2":"NA","TYPE_2":"Partido","ENGTYPE_2":"Part","CC_2":"NA","HASC_2":"AR.BA.BD","name":"Baradero.county"},
"geometry":{"type": "MultiPolygon","coordinates": [[[[-59.6805,-34.1694,42.818],[-59.6376,-34.1597,40.873],[-59.6274,-34.1706,40.0979],[-59.607,-34.174,38.4376],[-59.5641,-34.1677,29.1923],[-59.5459,-34.1556,26.2378],[-59.5415,-34.1399,24.846],[-59.5355,-34.1315,36.3305],[-59.5265,-34.1228,22.3952],[-59.5193,-34.1093,23.0209],[-59.5149,-34.1049,19.5633],[-59.5149,-34.1015,20.1463],[-59.467,-34.1364,42.7799],[-59.3975,-34.0726,20.4183],[-59.4055,-34.0615,19.7565],[-59.3884,-34.06,18.1659],[-59.352,-34.0433,8.6742],[-59.336,-34.0344,8.6928],[-59.3249,-34.0177,5.2217],[-59.3278,-34.0013,4.022],[-59.3386,-33.984,3.7335],[-59.3428,-33.9667,2.8261],[-59.3482,-33.9585,2.5153],[-59.3498,-33.9488,2.7275],[-59.3479,-33.9392,3.3662],[-59.3432,-33.9327,2.0523],[-59.3329,-33.9299,2.3528],[-59.3273,-33.9341,2.7655],[-59.3214,-33.9304,2.2874],[-59.3144,-33.9297,2.5943],[-59.3007,-33.9365,15.0587],[-59.2927,-33.9339,2.3758],[-59.2731,-33.9391,2.67],[-59.2659,-33.9351,3.4905],[-59.2484,-33.9356,2.9931],[-59.2411,-33.9336,3.1411],[-59.2332,-33.9267,0.4697],[-59.2369,-33.9142,2.7917],[-59.2446,-33.902,5.6301],[-59.2552,-33.8982,2.868],[-59.271,-33.8886,3.2288],[-59.2884,-33.8734,3.1903],[-59.3049,-33.8638,2.3302],[-59.306,-33.8594,2.7143],[-59.3011,-33.8402,3.3267],[-59.2873,-33.8311,2.7629],[-59.2697,-33.8252,2.7841],[-59.2234,-33.8213,3.3161],[-59.1969,-33.8146,2.623],[-59.1719,-33.8106,3.2893],[-59.1731,-33.8088,0.0],[-59.1857,-33.7994,3.3538],[-59.1925,-33.7976,3.5832],[-59.2221,-33.8072,3.0071],[-59.2324,-33.8047,4.7452],[-59.2411,-33.7998,2.8482],[-59.2551,-33.7791,0.0],[-59.2548,-33.7614,3.0468],[-59.2453,-33.7329,1.3028],[-59.2465,-33.7269,0.0],[-59.2501,-33.722,0.0],[-59.2557,-33.7182,1.1841],[-59.2733,-33.7167,2.5195],[-59.3033,-33.7259,0.0],[-59.3351,-33.7265,1.6179],[-59.369,-33.7354,0.0],[-59.383,-33.7374,0.0],[-59.4113,-33.737,0.0],[-59.4514,-33.7251,0.0],[-59.4594,-33.7194,0.0],[-59.4702,-33.704,0.0],[-59.4814,-33.6698,1.6325],[-59.4927,-33.6497,3.3772],[-59.565,-33.7587,2.7187],[-59.5611,-33.7619,2.9776],[-59.5341,-33.7668,2.9191],[-59.5136,-33.7768,2.7957],[-59.5101,-33.7823,4.4875],[-59.511,-33.7892,28.147],[-59.5262,-33.7783,3.8043],[-59.5395,-33.7794,3.4485],[-59.5433,-33.7772,3.1997],[-59.5516,-33.7765,3.9467],[-59.5574,-33.7743,3.4277],[-59.5632,-33.7763,7.9619],[-59.5701,-33.7764,3.5688],[-59.5776,-33.7834,3.2158],[-59.5775,-33.7874,3.7126],[-59.5894,-33.8009,4.215],[-59.5916,-33.8199,4.5796],[-59.6,-33.83,4.5872],[-59.6022,-33.8353,4.5144],[-59.6012,-33.8544,4.7366],[-59.6057,-33.8611,5.1353],[-59.6073,-33.8688,5.1899],[-59.611,-33.8719,5.5014],[-59.6204,-33.8755,5.9132],[-59.6372,-33.8902,6.1703],[-59.6385,-33.8962,7.4715],[-59.6432,-33.9001,7.4867],[-59.6496,-33.91,7.1669],[-59.655,-33.9222,6.9213],[-59.6724,-33.9288,7.2508],[-59.6908,-33.9405,9.7384],[-59.6976,-33.9423,8.6787],[-59.7148,-33.9527,19.4832],[-59.7195,-33.9605,26.9831],[-59.7204,-33.9709,15.5176],[-59.7305,-33.981,11.5909],[-59.7346,-33.9879,10.5506],[-59.7504,-33.9985,11.5412],[-59.7554,-34.0078,18.2622],[-59.7598,-34.0103,13.7237],[-59.7612,-34.0136,12.6739],[-59.7475,-34.0408,18.1424],[-59.7467,-34.0506,20.755],[-59.7229,-34.0877,33.9642],[-59.7147,-34.1094,31.6223],[-59.7163,-34.1189,31.4867],[-59.725,-34.1325,28.896],[-59.6805,-34.1694,42.818]]]]}}