{"type":"Feature","properties":{"GID_2":"ARG.1.117_1","GID_0":"ARG","country":"Argentina","GID_1":"ARG.1_1","state":"BuenosAires","NL_NAME_1":"NA","county":"Tigre","VARNAME_2":"NA","NL_NAME_2":"NA","TYPE_2":"Partido","ENGTYPE_2":"Part","CC_2":"NA","HASC_2":"AR.BA.TI","name":"Tigre.county"},
"geometry":{"type": "MultiPolygon","coordinates": [[[[-58.7107,-34.44,14.6519],[-58.6846,-34.4745,18.2566],[-58.608,-34.5402,4.1632],[-58.606,-34.5388,10.2462],[-58.6052,-34.5314,3.3066],[-58.6019,-34.5258,3.9238],[-58.6039,-34.5174,4.3836],[-58.6019,-34.5086,3.092],[-58.599,-34.5038,4.2229],[-58.6017,-34.4984,3.0672],[-58.5999,-34.4911,3.2844],[-58.6072,-34.4858,6.4722],[-58.6031,-34.484,5.3675],[-58.5993,-34.4772,3.8155],[-58.6011,-34.4745,4.2823],[-58.5995,-34.4691,4.495],[-58.5957,-34.4658,4.5082],[-58.5945,-34.4579,2.2888],[-58.596,-34.4541,2.2428],[-58.581,-34.4506,3.2077],[-58.5621,-34.4365,11.7044],[-58.5591,-34.4303,6.2304],[-58.5518,-34.4357,2.8272],[-58.5419,-34.4385,9.1213],[-58.5388,-34.4434,5.5429],[-58.5344,-34.4466,18.5226],[-58.5198,-34.4538,5.4648],[-58.5116,-34.4474,0.0],[-58.519,-34.4468,0.5236],[-58.519,-34.444,0.485],[-58.506,-34.4393,0.7432],[-58.5029,-34.4407,0.0],[-58.4979,-34.4388,0.0],[-58.4987,-34.4354,0.0],[-58.5007,-34.4357,0.1285],[-58.501,-34.4376,0.4075],[-58.501,-34.4357,0.1285],[-58.5032,-34.4357,0.2089],[-58.506,-34.4307,0.9381],[-58.5015,-34.4282,0.0],[-58.5004,-34.4301,0.1357],[-58.4971,-34.4307,0.0868],[-58.4935,-34.4235,0.0],[-58.4943,-34.4199,0.0],[-58.4971,-34.4188,0.5192],[-58.499,-34.4201,1.022],[-58.4982,-34.4171,0.2526],[-58.5015,-34.4149,0.9935],[-58.4962,-34.4135,0.3438],[-58.5015,-34.4126,0.7495],[-58.5035,-34.409,0.8656],[-58.5001,-34.4113,0.9398],[-58.4993,-34.4087,0.9097],[-58.4938,-34.4087,0.7521],[-58.4935,-34.4065,0.6772],[-58.4904,-34.404,0.7781],[-58.4907,-34.4021,1.0604],[-58.4857,-34.4021,0.7128],[-58.4885,-34.399,0.9329],[-58.4857,-34.3996,0.7925],[-58.484,-34.3976,1.0258],[-58.4807,-34.3993,0.2546],[-58.4813,-34.3954,0.0708],[-58.4779,-34.3957,0.0],[-58.4762,-34.3918,0.2363],[-58.4787,-34.389,1.1047],[-58.4824,-34.3907,0.688],[-58.4912,-34.3818,0.3627],[-58.486,-34.3854,0.4806],[-58.481,-34.3854,1.0636],[-58.4801,-34.3832,0.9474],[-58.4779,-34.3857,0.4355],[-58.4746,-34.3862,0.8001],[-58.4715,-34.3838,0.8548],[-58.4701,-34.386,0.5807],[-58.4663,-34.3871,0.0495],[-58.4637,-34.3849,0.133],[-58.4637,-34.3801,0.8311],[-58.4674,-34.3757,0.8006],[-58.4665,-34.3751,0.8006],[-58.4601,-34.3793,0.7396],[-58.4618,-34.3812,0.6003],[-58.4612,-34.3832,0.3725],[-58.4571,-34.3882,0.0],[-58.454,-34.3887,0.0],[-58.4535,-34.3874,0.4065],[-58.4757,-34.354,0.0],[-58.4843,-34.3357,0.6577],[-58.4918,-34.3274,0.0],[-58.4957,-34.3204,0.4021],[-58.5126,-34.3071,0.0],[-58.5165,-34.3054,1.4376],[-58.5232,-34.3094,2.2875],[-58.5532,-34.3072,5.4037],[-58.5751,-34.2956,5.272],[-58.6153,-34.2818,7.8583],[-58.6608,-34.2691,8.3655],[-58.6884,-34.35,10.4134],[-58.691,-34.3536,7.6397],[-58.7209,-34.3693,2.3337],[-58.7218,-34.371,1.5713],[-58.7059,-34.3794,2.3836],[-58.7154,-34.3945,5.5169],[-58.7208,-34.3965,8.7285],[-58.7163,-34.3986,7.9971],[-58.7351,-34.4087,17.0461],[-58.7107,-34.44,14.6519]]],
[[[-58.4663,-34.326,0.0],[-58.486,-34.3262,0.0],[-58.4865,-34.3304,0.0],[-58.4799,-34.339,1.9647],[-58.4768,-34.346,2.4533],[-58.471,-34.3521,1.2153],[-58.471,-34.3554,0.0],[-58.466,-34.3637,0.0],[-58.4626,-34.3657,0.3847],[-58.4546,-34.3771,0.1098],[-58.4496,-34.3771,0.0],[-58.4449,-34.3737,0.0],[-58.4418,-34.3674,0.0],[-58.4418,-34.3654,0.0],[-58.4474,-34.3596,2.3075],[-58.449,-34.3554,0.1866],[-58.4538,-34.3529,0.7912],[-58.4521,-34.3493,1.0984],[-58.4504,-34.3526,0.9519],[-58.4471,-34.3532,0.4235],[-58.4518,-34.3451,0.8746],[-58.4468,-34.3418,0.1425],[-58.4468,-34.3387,0.9893],[-58.4435,-34.3407,0.8719],[-58.4468,-34.336,0.682],[-58.4457,-34.3332,0.9804],[-58.449,-34.3304,0.5181],[-58.4501,-34.3304,1.1918],[-58.4499,-34.3326,0.6785],[-58.4535,-34.3307,0.0],[-58.456,-34.3357,2.8622],[-58.4604,-34.3276,0.0987],[-58.4663,-34.326,0.0]]],
[[[-58.4365,-34.3268,0.0],[-58.4451,-34.3265,0.45],[-58.449,-34.329,1.2694],[-58.441,-34.3332,0.3089],[-58.4401,-34.331,0.3335],[-58.436,-34.3293,0.0],[-58.4365,-34.3268,0.0]]]]}}