{"type": "Feature","bbox": [-59.1941,-27.4794,-58.7362,-26.8563],"geometry": {"type": "MultiPolygon","coordinates": [[[[-58.9504,-26.8574,70.9747],[-59.192,-26.8563,67.1824],[-59.1941,-26.8844,64.5355],[-59.0282,-27.0083,59.3942],[-59.1893,-27.1603,58.7507],[-59.0904,-27.2439,59.6641],[-59.0898,-27.2513,58.2175],[-59.0804,-27.2605,58.0164],[-59.0789,-27.2712,57.9396],[-59.0721,-27.2878,54.6204],[-59.0722,-27.2957,53.8111],[-59.0689,-27.2971,53.7339],[-59.0626,-27.2966,61.8578],[-59.0585,-27.3,60.4289],[-59.0492,-27.3007,54.8981],[-59.0364,-27.3214,54.8125],[-59.0336,-27.321,55.7602],[-59.0305,-27.3133,54.0431],[-59.0206,-27.3141,51.8858],[-59.0125,-27.3094,52.4994],[-58.8676,-27.4316,47.6381],[-58.8798,-27.4408,49.437],[-58.8894,-27.4534,48.2019],[-58.8906,-27.464,48.2804],[-58.8875,-27.4738,46.9511],[-58.8829,-27.4794,43.0],[-58.8359,-27.4536,43.5],[-58.8159,-27.4334,47.4034],[-58.8023,-27.4122,43.5],[-58.7697,-27.3819,47.3745],[-58.7714,-27.3663,44.0],[-58.7705,-27.3572,49.6013],[-58.7611,-27.3264,48.6311],[-58.7609,-27.3218,47.059],[-58.7406,-27.2957,49.5623],[-58.7364,-27.2873,55.0151],[-58.7362,-27.2781,47.2993],[-58.7431,-27.2608,56.5071],[-58.7466,-27.2584,53.187],[-58.752,-27.2588,52.3698],[-58.7542,-27.2554,54.4594],[-58.7549,-27.2509,51.4522],[-58.7526,-27.2374,50.5856],[-58.7553,-27.2285,53.3606],[-58.7632,-27.2229,54.5586],[-58.7782,-27.2213,57.0422],[-58.7816,-27.2179,59.8763],[-58.7836,-27.2137,61.3604],[-58.7833,-27.2047,60.6459],[-58.7856,-27.1912,58.1792],[-58.7874,-27.1873,51.4609],[-58.7918,-27.1849,52.8272],[-58.7933,-27.1806,54.0092],[-58.8122,-27.1743,59.241],[-58.8344,-27.1629,59.6366],[-58.851,-27.1525,57.456],[-58.8534,-27.1484,58.3884],[-58.8579,-27.1473,58.1585],[-58.8726,-27.1346,58.9746],[-58.8874,-27.1329,59.0137],[-58.895,-27.127,62.5266],[-58.9001,-27.1268,58.6046],[-58.9085,-27.1218,65.3673],[-58.9137,-27.1222,62.7302],[-58.9168,-27.1258,62.615],[-58.9209,-27.1276,63.2902],[-58.9402,-27.1153,60.5545],[-58.9431,-27.1066,61.5432],[-58.9479,-27.0985,61.9503],[-58.9514,-26.9609,59.3948],[-58.9504,-26.8574,70.9747]]]]}
,"properties": {"GID_2": "ARG.3.18_1","GID_0": "ARG","country": "Argentina","GID_1": "ARG.3_1","state": "Chaco","NL_NAME_1": "NA","county": "PrimerodeMayo","VARNAME_2": "MargaritaBelen|1ro.deMayo","NL_NAME_2": "NA","TYPE_2": "Departamento","ENGTYPE_2": "Department","CC_2": "NA","HASC_2": "AR.CC.PM","name": "PrimerodeMayo.county","area_km2": 1399.586,"hist_schema_id": "Elevation0-9000","hist_area_km2": {"50": 1153.719,"75": 245.867}}}