{"type": "Feature","bbox": [-66.9171,-30.7395,-66.3695,-29.8297],"geometry": {"type": "MultiPolygon","coordinates": [[[[-66.8472,-29.8297,403.3524],[-66.8611,-30.0025,420.7914],[-66.8652,-30.0148,422.726],[-66.8764,-30.0288,427.2098],[-66.878,-30.0372,429.583],[-66.8759,-30.0498,426.9251],[-66.8669,-30.065,421.5908],[-66.862,-30.077,421.6733],[-66.8566,-30.1151,430.5502],[-66.8568,-30.1834,460.0858],[-66.8641,-30.3653,484.4705],[-66.861,-30.4036,498.1023],[-66.8632,-30.4119,512.4766],[-66.8692,-30.4236,521.8872],[-66.889,-30.448,530.9854],[-66.9002,-30.4669,541.8733],[-66.9171,-30.5313,561.3104],[-66.7813,-30.5347,527.1107],[-66.7823,-30.5438,532.6189],[-66.7787,-30.5735,552.7529],[-66.7658,-30.6057,580.0121],[-66.7484,-30.6315,610.131],[-66.7327,-30.6417,627.6542],[-66.6828,-30.6601,660.5312],[-66.6687,-30.6641,729.9214],[-66.625,-30.6713,1150.981],[-66.6158,-30.6746,1231.2003],[-66.6125,-30.6775,1266.927],[-66.5824,-30.7395,1748.5449],[-66.384,-30.6776,863.3167],[-66.4034,-30.6569,1025.5441],[-66.4167,-30.6389,1132.5421],[-66.4197,-30.6308,1220.9338],[-66.4203,-30.6137,1143.7991],[-66.4086,-30.5858,1247.5154],[-66.3866,-30.5574,1413.8523],[-66.3793,-30.5416,1469.332],[-66.3716,-30.5307,1516.2419],[-66.3695,-30.5225,1511.8357],[-66.3718,-30.5097,1518.7173],[-66.3759,-30.5021,1398.6753],[-66.3949,-30.4824,1458.9849],[-66.4021,-30.4712,1396.4491],[-66.427,-30.411,1291.405],[-66.4468,-30.3767,1074.3491],[-66.4539,-30.3563,988.7859],[-66.4637,-30.3415,829.7847],[-66.4756,-30.3046,831.834],[-66.4952,-30.28,818.5406],[-66.501,-30.2682,787.9374],[-66.4976,-30.2342,496.1557],[-66.4822,-30.1864,376.9083],[-66.5256,-30.1472,382.0943],[-66.6322,-30.1102,372.3465],[-66.6092,-29.8491,334.2946],[-66.8472,-29.8297,403.3524]]]]}
,"properties": {"GID_2": "ARG.12.8_1","GID_0": "ARG","country": "Argentina","GID_1": "ARG.12_1","state": "LaRioja","NL_NAME_1": "NA","county": "GeneralAngelVicentePeñaloza","VARNAME_2": "Tama|GeneralAngelV.Pesaloza","NL_NAME_2": "NA","TYPE_2": "Departamento","ENGTYPE_2": "Department","CC_2": "NA","HASC_2": "AR.LR.GP","name": "GeneralAngelVicentePeñaloza.county","area_km2": 3130.617,"hist_schema_id": "Elevation0-9000","hist_area_km2": {"325": 7.098,"350": 171.565,"375": 354.214,"400": 388.832,"425": 302.118,"450": 241.809,"475": 191.762,"500": 146.313,"525": 146.462,"550": 127.567,"575": 95.377,"600": 91.978,"625": 71.623,"650": 52.008,"675": 36.431,"700": 35.66,"725": 36.113,"750": 40.728,"775": 42.088,"800": 36.953,"825": 41.44,"850": 37.17,"875": 39.424,"900": 37.819,"925": 35.085,"950": 29.703,"975": 23.994,"1000": 18.209,"1025": 15.652,"1050": 15.927,"1075": 15.232,"1100": 14.243,"1125": 14.499,"1150": 16.491,"1175": 17.403,"1200": 15.322,"1225": 13.66,"1250": 13.258,"1275": 12.473,"1300": 10.847,"1325": 9.113,"1350": 7.707,"1375": 7.066,"1400": 8.619,"1425": 10.208,"1450": 7.249,"1475": 5.532,"1500": 3.687,"1525": 2.318,"1550": 1.641,"1575": 1.714,"1600": 1.714,"1625": 1.714,"1650": 1.458,"1675": 0.82,"1700": 0.729,"1725": 0.766,"1750": 0.93,"1775": 1.476,"1800": 1.239,"1825": 0.364}}}