{"type": "Feature","bbox": [-68.3712,-46.005,-66.339,-44.6789],"geometry": {"type": "MultiPolygon","coordinates": [[[[-66.9999,-46.0001,0.0],[-66.9999,-45.9999,0.0],[-67.0001,-45.9999,0.0],[-67.0001,-46.0001,0.0],[-66.9999,-46.0001,0.0]]],
[[[-66.3701,-45.0446,5.7134],[-66.3679,-45.0432,0.0],[-67.0799,-45.0463,567.8446],[-67.0814,-45.0352,553.9179],[-67.0942,-44.6789,281.0198],[-67.7481,-44.6849,413.7133],[-68.3712,-44.6872,419.365],[-68.3631,-46.005,703.7116],[-67.5907,-45.9979,0.0],[-67.5874,-45.9887,0.0],[-67.5824,-45.9882,0.0],[-67.5824,-45.986,0.0379],[-67.5862,-45.986,0.0],[-67.586,-45.9829,0.0],[-67.5818,-45.9779,38.8971],[-67.5724,-45.9774,9.5602],[-67.5713,-45.9704,35.9424],[-67.5649,-45.9624,2.2596],[-67.559,-45.961,29.1441],[-67.5349,-45.9612,39.2862],[-67.531,-45.9596,0.8172],[-67.5312,-45.9579,1.1426],[-67.5343,-45.9565,21.4076],[-67.5485,-45.9538,12.6398],[-67.5501,-45.9518,1.1318],[-67.5504,-45.9476,1.0287],[-67.5563,-45.944,3.2664],[-67.5571,-45.9368,3.3221],[-67.5546,-45.9301,0.0],[-67.5454,-45.9162,31.6748],[-67.5351,-45.9132,0.0],[-67.5254,-45.9049,0.0],[-67.5232,-45.9046,0.0],[-67.5132,-45.8943,4.1406],[-67.5071,-45.8838,1.3547],[-67.4951,-45.8729,22.4511],[-67.4929,-45.8749,-0.0364],[-67.4907,-45.8721,3.2476],[-67.4788,-45.8665,0.0],[-67.4779,-45.8649,0.1719],[-67.4708,-45.8632,4.7],[-67.4693,-45.8649,0.0],[-67.4662,-45.8649,0.0],[-67.4557,-45.8618,0.0],[-67.4565,-45.8587,0.0],[-67.4571,-45.8615,0.0],[-67.4629,-45.8621,0.4112],[-67.464,-45.8601,0.0],[-67.4682,-45.8601,0.8892],[-67.4687,-45.8624,4.3977],[-67.4704,-45.8624,4.2589],[-67.4735,-45.8599,2.0217],[-67.4749,-45.8537,22.0483],[-67.4724,-45.8496,0.0],[-67.4679,-45.8479,2.1525],[-67.4682,-45.8432,0.0],[-67.4654,-45.8385,0.0],[-67.4607,-45.8354,1.1516],[-67.4615,-45.8299,0.0],[-67.4554,-45.8213,0.0],[-67.4499,-45.8176,5.9399],[-67.444,-45.8179,0.9872],[-67.4287,-45.8124,1.7395],[-67.4199,-45.8043,1.2751999999999999],[-67.4182,-45.801,4.5572],[-67.4068,-45.7982,2.9479],[-67.4049,-45.7924,6.0119],[-67.3976,-45.7874,5.8992],[-67.391,-45.7871,2.3228],[-67.3779,-45.7918,0.8969],[-67.3679,-45.7876,2.4611],[-67.3671,-45.7812,1.6453],[-67.3649,-45.7782,-0.4696],[-67.3676,-45.7737,9.4804],[-67.3735,-45.7699,4.808],[-67.3735,-45.7676,0.5893],[-67.3718,-45.7651,6.6383],[-67.3729,-45.7599,6.7497],[-67.3679,-45.7549,3.1471],[-67.3763,-45.7496,5.7558],[-67.3788,-45.7351,0.0],[-67.3749,-45.7296,0.4176],[-67.3601,-45.7235,3.2866],[-67.3485,-45.7262,9.1093],[-67.3415,-45.7232,0.9688],[-67.3443,-45.7182,8.3545],[-67.3437,-45.7129,0.0],[-67.349,-45.7129,3.7353],[-67.3565,-45.7088,4.046],[-67.3615,-45.6943,5.5686],[-67.3579,-45.6779,0.0508],[-67.3604,-45.6721,0.3701],[-67.3604,-45.6565,0.0],[-67.3574,-45.644,3.3718],[-67.3482,-45.6276,2.7802],[-67.3224,-45.6037,3.5849],[-67.3057,-45.5915,9.0403],[-67.3026,-45.591,1.3949],[-67.2874,-45.5724,20.5214],[-67.2724,-45.5612,0.0],[-67.264,-45.5529,11.9709],[-67.2332,-45.5324,5.7204],[-67.2215,-45.5274,13.7625],[-67.2049,-45.5013,7.1065],[-67.1943,-45.4915,0.0],[-67.1846,-45.4771,3.6632],[-67.1651,-45.459,0.0],[-67.1551,-45.4429,3.8282],[-67.1399,-45.4249,0.6294],[-67.1188,-45.4054,12.5487],[-67.1057,-45.3976,0.0],[-67.0907,-45.3776,24.3518],[-67.0743,-45.3662,12.0374],[-67.069,-45.3529,1.3818],[-67.0649,-45.3476,4.5869],[-67.0399,-45.3288,0.0],[-67.0351,-45.3224,1.3413],[-67.0126,-45.3063,0.0],[-67.0049,-45.3037,0.0],[-66.9865,-45.2921,0.0],[-66.9674,-45.2754,7.8406],[-66.9424,-45.2626,25.3009],[-66.919,-45.2554,0.0],[-66.9157,-45.2524,18.2731],[-66.8899,-45.2426,3.5296],[-66.8696,-45.2374,0.7442],[-66.8688,-45.236,4.9085],[-66.8468,-45.2313,0.0],[-66.8362,-45.231,6.6208],[-66.8268,-45.2335,0.0],[-66.8254,-45.2357,0.0],[-66.8218,-45.2346,0.3996],[-66.8201,-45.236,0.3996],[-66.8171,-45.2326,3.9117],[-66.8029,-45.2296,0.0],[-66.7918,-45.2285,0.5567],[-66.7849,-45.2324,0.0928],[-66.7807,-45.2324,0.1874],[-66.7765,-45.229,4.7296],[-66.7735,-45.2296,0.0],[-66.7649,-45.2257,7.6825],[-66.7571,-45.226,0.0],[-66.756,-45.2246,0.0],[-66.7465,-45.2235,0.0],[-66.7204,-45.2229,10.2713],[-66.7038,-45.2254,0.0],[-66.6904,-45.2212,0.0],[-66.6821,-45.2168,0.0],[-66.6643,-45.2124,4.8654],[-66.6551,-45.2126,7.4541],[-66.6513,-45.2151,0.0672],[-66.6363,-45.214,3.1634],[-66.6304,-45.2165,0.0],[-66.6293,-45.2151,2.2936],[-66.624,-45.2154,0.0],[-66.6137,-45.2126,9.6046],[-66.6065,-45.2132,0.0],[-66.6046,-45.2154,-0.039],[-66.6012,-45.2137,3.0727],[-66.6001,-45.2151,0.0],[-66.5871,-45.216,0.2694],[-66.5857,-45.2143,3.3663],[-66.5729,-45.214,0.1282],[-66.5724,-45.2124,2.5365],[-66.5621,-45.2124,6.4179],[-66.5604,-45.2151,0.0],[-66.5546,-45.2137,5.0846],[-66.5515,-45.2151,2.3473],[-66.5532,-45.221,0.4504],[-66.5488,-45.2221,1.3308],[-66.5485,-45.2238,0.0],[-66.544,-45.2232,3.708],[-66.5437,-45.2254,0.9928],[-66.536,-45.2254,0.0],[-66.5362,-45.2235,10.3916],[-66.5338,-45.221,3.3093],[-66.519,-45.2238,0.0],[-66.5179,-45.2232,0.0],[-66.5193,-45.219,0.0],[-66.5185,-45.2151,0.0],[-66.5237,-45.2057,0.0],[-66.5188,-45.2049,0.0],[-66.5126,-45.1968,0.0],[-66.5199,-45.1971,4.8187],[-66.5212,-45.1946,0.4339],[-66.5196,-45.1946,0.0],[-66.5196,-45.1929,0.0],[-66.5221,-45.1912,0.0],[-66.5268,-45.1921,0.7902],[-66.5268,-45.1865,0.054],[-66.5326,-45.1837,1.512],[-66.5357,-45.1749,-0.0192],[-66.539,-45.1749,0.7313],[-66.5429,-45.1782,2.591],[-66.5465,-45.1768,0.2854],[-66.5529,-45.1779,1.6836],[-66.5515,-45.1771,0.1511],[-66.5526,-45.1754,0.2408],[-66.5546,-45.1785,4.4175],[-66.5621,-45.1779,0.0103],[-66.5671,-45.1746,2.6273],[-66.5657,-45.1721,0.6518],[-66.5749,-45.1676,0.0],[-66.579,-45.1679,0.0],[-66.5807,-45.166,0.0],[-66.5821,-45.1665,0.0],[-66.5824,-45.1715,2.0852],[-66.5846,-45.1729,-0.0377],[-66.594,-45.1715,8.8486],[-66.5951,-45.1668,0.1185],[-66.5987,-45.1646,2.602],[-66.5987,-45.1613,2.8183],[-66.5818,-45.1587,0.7442],[-66.5849,-45.1562,0.0],[-66.591,-45.1571,1.0109],[-66.5965,-45.1538,2.0712],[-66.5976,-45.1504,0.0],[-66.6012,-45.1476,0.7504],[-66.6001,-45.1446,1.9656],[-66.6015,-45.1443,1.5244],[-66.5993,-45.1437,0.7138],[-66.5987,-45.1407,1.6184],[-66.5896,-45.1387,0.9349],[-66.5876,-45.1401,0.4389],[-66.584,-45.1396,-0.0309],[-66.5801,-45.144,0.8905],[-66.5762,-45.1415,0.6505],[-66.5682,-45.1443,1.5954],[-66.5651,-45.1429,3.1204],[-66.5626,-45.1454,0.0],[-66.5621,-45.1443,1.7123],[-66.5574,-45.1446,-0.0264],[-66.5504,-45.1399,1.3303],[-66.5504,-45.1424,1.2586],[-66.5443,-45.144,7.4203],[-66.5435,-45.1482,0.0331],[-66.5407,-45.1496,1.2052],[-66.5415,-45.1524,0.4536],[-66.5404,-45.1535,0.0],[-66.5354,-45.1507,1.8281],[-66.5235,-45.1512,3.3551],[-66.521,-45.1571,0.5427],[-66.5154,-45.1551,1.7267],[-66.5154,-45.1571,0.5798],[-66.5118,-45.1571,0.9044],[-66.5113,-45.159,2.022],[-66.5079,-45.1599,1.5441],[-66.5076,-45.1654,-0.0586],[-66.496,-45.1649,0.2719],[-66.4915,-45.1682,-0.0623],[-66.4899,-45.1657,-0.0308],[-66.494,-45.1618,4.461],[-66.4921,-45.1596,3.3019],[-66.4912,-45.1618,0.2661],[-66.4868,-45.1629,2.2982],[-66.4857,-45.1651,0.0983],[-66.4812,-45.1657,0.0],[-66.4812,-45.1643,2.5965],[-66.4793,-45.164,1.2377],[-66.4771,-45.1668,0.0],[-66.4729,-45.1668,0.0],[-66.4713,-45.1629,2.9107],[-66.4662,-45.1607,6.3083],[-66.4662,-45.1579,1.1346],[-66.4685,-45.1562,5.8484],[-66.4618,-45.1585,0.0],[-66.4599,-45.1576,0.0],[-66.4601,-45.156,0.0],[-66.4687,-45.1532,5.976],[-66.4635,-45.1515,0.0],[-66.4624,-45.1487,3.6346],[-66.4596,-45.1507,0.2461],[-66.4576,-45.1474,0.0],[-66.464,-45.1429,0.0],[-66.4757,-45.1435,0.0],[-66.479,-45.1471,4.8446],[-66.4843,-45.146,0.0],[-66.491,-45.1485,8.3218],[-66.4951,-45.1474,4.3634],[-66.4946,-45.1446,0.0519],[-66.501,-45.144,0.0],[-66.4993,-45.1418,0.0],[-66.5007,-45.1413,0.0],[-66.5049,-45.144,0.1074],[-66.5051,-45.1463,6.9381],[-66.5171,-45.1463,6.817],[-66.5221,-45.1493,0.4685],[-66.5254,-45.1487,1.4551],[-66.5321,-45.1437,4.7938],[-66.5351,-45.1374,1.2074],[-66.5357,-45.1279,0.0],[-66.534,-45.1168,0.0],[-66.5293,-45.109,3.7447],[-66.5237,-45.1063,0.0],[-66.5215,-45.1012,2.8156],[-66.5129,-45.0937,1.8518],[-66.5115,-45.0937,1.8518],[-66.511,-45.0968,0.2083],[-66.5079,-45.0965,1.0267],[-66.5074,-45.0979,1.0267],[-66.5024,-45.0968,0.2709],[-66.5013,-45.099,0.0],[-66.4965,-45.0979,6.7056],[-66.4926,-45.099,0.0],[-66.489,-45.0924,9.0063],[-66.4821,-45.094,0.1479],[-66.4807,-45.0924,1.3366],[-66.4812,-45.0865,3.1109],[-66.4704,-45.081,2.0407],[-66.4701,-45.0793,6.0468],[-66.4612,-45.0754,4.5593],[-66.451,-45.0732,0.0],[-66.4413,-45.0754,0.0],[-66.4368,-45.0732,0.0],[-66.4346,-45.074,0.0],[-66.4324,-45.0715,0.8281],[-66.4246,-45.0715,0.0],[-66.419,-45.0651,2.7973],[-66.4079,-45.0629,0.8509],[-66.4068,-45.0585,2.8794],[-66.399,-45.0543,5.8573],[-66.3879,-45.0535,3.2364],[-66.3893,-45.0557,0.0],[-66.3882,-45.0568,0.0],[-66.3804,-45.0571,2.8336],[-66.3712,-45.0599,1.143],[-66.3693,-45.0624,0.0],[-66.3629,-45.0629,1.1752],[-66.3621,-45.0607,0.0],[-66.3718,-45.0582,11.2056],[-66.3746,-45.0551,1.3672],[-66.3751,-45.0515,1.6468],[-66.3732,-45.0482,1.2021],[-66.3676,-45.0462,0.0],[-66.3685,-45.0457,0.0],[-66.3701,-45.0462,5.7134],[-66.3701,-45.0446,5.7134]]],
[[[-66.6988,-45.246,10.5734],[-66.6988,-45.2438,2.347],[-66.7024,-45.2443,0.0],[-66.7032,-45.2487,0.0],[-66.6999,-45.2479,10.7358],[-66.6988,-45.246,10.5734]]],
[[[-66.5174,-45.1785,0.0],[-66.5201,-45.1779,0.0],[-66.5221,-45.1796,0.0],[-66.5168,-45.1835,0.0],[-66.516,-45.1821,0.2863],[-66.5174,-45.1785,0.0]]],
[[[-66.5068,-45.181,0.3545],[-66.5096,-45.1801,0.1294],[-66.5104,-45.1821,0.929],[-66.5054,-45.1865,0.0],[-66.5024,-45.186,-0.0063],[-66.5046,-45.1821,0.1356],[-66.5068,-45.181,0.3545]]],
[[[-66.4874,-45.179,0.3112],[-66.4901,-45.1782,0.327],[-66.4912,-45.184,0.3912],[-66.4874,-45.1835,0.0],[-66.486,-45.1807,0.0],[-66.4874,-45.179,0.3112]]],
[[[-66.501,-45.1771,0.2297],[-66.506,-45.1762,0.0],[-66.5062,-45.1799,0.3545],[-66.4976,-45.184,0.2712],[-66.4935,-45.1815,0.4611],[-66.4938,-45.1782,2.3737],[-66.4996,-45.1785,1.408],[-66.501,-45.1771,0.2297]]],
[[[-66.5101,-45.1735,-0.0315],[-66.5124,-45.1726,0.0872],[-66.514,-45.1743,0.0],[-66.5113,-45.1746,0.0],[-66.5101,-45.1735,-0.0315]]],
[[[-66.5218,-45.176,0.4164],[-66.5249,-45.1749,0.048],[-66.5251,-45.1765,0.0],[-66.5224,-45.1768,0.0],[-66.5218,-45.176,0.4164]]],
[[[-66.5199,-45.1707,0.4095],[-66.5207,-45.1701,0.4095],[-66.5224,-45.1699,0.0],[-66.5185,-45.1729,-0.0192],[-66.5199,-45.1707,0.4095]]],
[[[-66.5746,-45.1604,0.6611],[-66.5743,-45.1596,0.6611],[-66.5788,-45.1596,1.3295],[-66.5782,-45.1613,0.0],[-66.5746,-45.1604,0.6611]]],
[[[-66.5815,-45.1568,0.5919],[-66.5815,-45.1543,0.0],[-66.5829,-45.1543,0.0],[-66.5829,-45.1565,0.5919],[-66.5815,-45.1568,0.5919]]],
[[[-66.404,-45.1954,0.0],[-66.4079,-45.1957,0.0],[-66.4093,-45.1993,0.0],[-66.4062,-45.1996,0.0],[-66.4062,-45.1971,0.0],[-66.4043,-45.1971,0.0],[-66.404,-45.1954,0.0]]],
[[[-66.4076,-45.1846,3.5077],[-66.4104,-45.184,0.0],[-66.4107,-45.1865,0.0],[-66.4035,-45.1882,1.8423],[-66.4035,-45.1893,1.8423],[-66.406,-45.1921,0.0],[-66.4124,-45.1921,0.0],[-66.4112,-45.194,0.0],[-66.3946,-45.1918,0.0],[-66.3946,-45.1899,0.149],[-66.3999,-45.1896,10.4376],[-66.4026,-45.1862,0.0],[-66.4076,-45.1846,3.5077]]],
[[[-66.3621,-45.1512,0.0],[-66.3613,-45.1499,0.0],[-66.3662,-45.1504,0.0],[-66.3649,-45.1557,0.0],[-66.3618,-45.1538,2.8419],[-66.361,-45.1518,0.0],[-66.3621,-45.1512,0.0]]],
[[[-66.4082,-45.0876,0.0],[-66.4093,-45.0879,0.0],[-66.409,-45.0862,6.2652],[-66.411,-45.0871,0.0],[-66.4104,-45.0896,0.2649],[-66.4124,-45.0913,0.0],[-66.4049,-45.0885,0.0],[-66.4082,-45.0876,0.0]]],
[[[-66.5001,-45.1679,0.0],[-66.504,-45.1671,-0.1117],[-66.504,-45.1688,-0.0996],[-66.4979,-45.1712,1.0805],[-66.4979,-45.1693,0.4674],[-66.5001,-45.1679,0.0]]],
[[[-66.506,-45.1107,0.3083],[-66.5085,-45.1099,0.4587],[-66.5076,-45.1121,0.2409],[-66.506,-45.1121,0.0692],[-66.506,-45.1107,0.3083]]],
[[[-66.5043,-45.1093,0.5279],[-66.5054,-45.1076,0.0],[-66.5074,-45.1079,0.0],[-66.5071,-45.1093,0.8427],[-66.5043,-45.1093,0.5279]]],
[[[-66.4165,-45.0946,0.0],[-66.4199,-45.0937,0.0],[-66.4229,-45.0957,0.6224],[-66.4171,-45.0965,0.0],[-66.4151,-45.0957,0.0],[-66.4165,-45.0946,0.0]]],
[[[-66.4051,-45.084,1.2562],[-66.4079,-45.0829,0.0],[-66.411,-45.0849,0.0],[-66.4082,-45.0862,0.0],[-66.4051,-45.084,1.2562]]],
[[[-66.3404,-45.0668,0.0],[-66.339,-45.0662,0.779],[-66.3399,-45.0635,0.0],[-66.3451,-45.0649,0.0],[-66.3437,-45.0662,0.0],[-66.3404,-45.0668,0.0]]],
[[[-66.3526,-45.0624,0.0],[-66.361,-45.0621,0.3729],[-66.3599,-45.0635,0.0],[-66.3512,-45.0646,0.0],[-66.3512,-45.0626,0.0],[-66.3526,-45.0624,0.0]]]]}
,"properties": {"GID_2": "ARG.4.3_1","GID_0": "ARG","country": "Argentina","GID_1": "ARG.4_1","state": "Chubut","NL_NAME_1": "NA","county": "Escalante","VARNAME_2": "ComodoroRivadavia","NL_NAME_2": "NA","TYPE_2": "Departamento","ENGTYPE_2": "Department","CC_2": "NA","HASC_2": "AR.CH.ES","name": "Escalante.county","area_km2": 14262.87,"hist_schema_id": "Elevation0-9000","hist_area_km2": {"0": 123.61,"25": 309.49,"50": 262.46,"75": 208.33,"100": 175.8,"125": 158.5,"150": 151.25,"175": 138.27,"200": 151.34,"225": 325.54,"250": 680.95,"275": 885.01,"300": 1127.71,"325": 1040.69,"350": 883.92,"375": 806.01,"400": 831.03,"425": 759.8,"450": 623.1,"475": 533.25,"500": 444.34,"525": 345.38,"550": 355.18,"575": 588.55,"600": 309.51,"625": 534.01,"650": 670.79,"675": 349.49,"700": 267.38,"725": 166.84,"750": 54.51,"775": 0.39,"800": 0.19,"825": 0.27}}}