{"type": "Feature","bbox": [-61.0214,-33.3724,-60.3059,-32.8081],"geometry": {"type": "MultiPolygon","coordinates": [[[[-60.3101,-33.1804,2.0],[-60.316,-33.1741,2.0],[-60.3218,-33.1708,2.7632],[-60.3351,-33.1666,5.1173],[-60.3456,-33.1661,5.1941],[-60.359,-33.1695,5.0502],[-60.3761,-33.18,2.5],[-60.3856,-33.1839,4.6377],[-60.4333,-33.163,6.0233],[-60.4469,-33.1536,2.5],[-60.471,-33.1413,3.0],[-60.4932,-33.1267,3.0],[-60.5168,-33.109,3.5],[-60.5281,-33.0976,3.5],[-60.5436,-33.0778,3.5],[-60.5529,-33.0586,3.5],[-60.5712,-33.0406,3.5],[-60.6,-33.007,3.5],[-60.6096,-32.9879,4.0],[-60.6024,-32.9681,4.0],[-60.6042,-32.9625,4.0],[-60.6109,-32.9519,4.0],[-60.6267,-32.936,5.5326],[-60.6585,-32.9174,4.0],[-60.6762,-32.9022,4.0],[-60.6794,-32.8914,4.0],[-60.6804,-32.8705,4.0],[-60.6739,-32.8369,7.0447],[-60.698,-32.8358,4.5],[-60.6983,-32.8392,29.591],[-60.715,-32.8392,31.6756],[-60.7166,-32.8372,30.8901],[-60.7552,-32.8367,22.2521],[-60.7548,-32.832,22.3113],[-60.7798,-32.8321,26.369],[-60.7801,-32.8123,24.1788],[-60.8013,-32.8207,25.5817],[-60.8209,-32.8081,26.1152],[-60.8526,-32.8285,28.9982],[-60.8402,-32.8474,27.3796],[-60.835,-32.8487,26.7088],[-60.8366,-32.8543,27.2678],[-60.8284,-32.8678,27.9754],[-60.8797,-32.9617,32.8094],[-60.9327,-33.1265,62.4039],[-60.9524,-33.1474,45.2833],[-60.9672,-33.157,49.4994],[-60.972,-33.1641,56.4638],[-60.9747,-33.1748,58.2392],[-60.974,-33.1878,60.7902],[-60.9696,-33.2101,61.0054],[-60.9711,-33.2217,62.0647],[-60.9742,-33.2257,64.2931],[-60.9866,-33.235,59.792],[-60.9953,-33.2472,52.5782],[-61.0214,-33.255,56.9188],[-61.015,-33.264,56.3491],[-61.0086,-33.2608,57.6348],[-60.9921,-33.2835,67.5841],[-60.9862,-33.2829,61.823],[-60.9461,-33.3376,66.8831],[-60.9411,-33.3217,72.5093],[-60.9285,-33.2983,63.8527],[-60.9232,-33.2938,61.6418],[-60.883,-33.2755,59.1243],[-60.8581,-33.2609,61.3079],[-60.8433,-33.2648,54.4153],[-60.8372,-33.2686,51.678],[-60.8223,-33.2829,58.4121],[-60.8101,-33.2907,59.5896],[-60.7968,-33.306,64.2161],[-60.7757,-33.3136,53.3289],[-60.7694,-33.3199,56.9442],[-60.7267,-33.3184,48.1933],[-60.7178,-33.3231,52.7147],[-60.7091,-33.3352,47.118899999999996],[-60.701,-33.336,44.4998],[-60.6923,-33.3459,44.9597],[-60.6759,-33.3487,50.5526],[-60.6375,-33.3671,36.2112],[-60.6037,-33.3724,35.8935],[-60.5742,-33.3714,37.7024],[-60.5556,-33.3654,38.6625],[-60.5308,-33.3474,37.1533],[-60.5254,-33.3399,32.8295],[-60.5168,-33.3334,35.8915],[-60.4824,-33.3182,35.0529],[-60.4734,-33.3011,26.1677],[-60.4582,-33.283,26.6306],[-60.4492,-33.2651,27.2667],[-60.4333,-33.251,25.2682],[-60.4212,-33.2344,21.5003],[-60.4035,-33.2206,19.7639],[-60.3976,-33.2142,20.9927],[-60.3918,-33.2127,18.5782],[-60.374,-33.2125,20.8563],[-60.3591,-33.2156,22.975],[-60.3516,-33.215,19.601],[-60.3372,-33.2105,4.9651],[-60.3059,-33.1937,4.1972],[-60.3068,-33.1867,2.0],[-60.3101,-33.1804,2.0]]]]}
,"properties": {"GID_2": "ARG.21.12_1","GID_0": "ARG","country": "Argentina","GID_1": "ARG.21_1","state": "SantaFe","NL_NAME_1": "NA","county": "Rosario","VARNAME_2": "NA","NL_NAME_2": "NA","TYPE_2": "Departamento","ENGTYPE_2": "Department","CC_2": "NA","HASC_2": "AR.SF.RO","name": "Rosario.county","area_km2": 1979.874,"hist_schema_id": "Elevation0-9000","hist_area_km2": {"0": 85.28,"25": 1007.798,"50": 728.627,"75": 158.168}}}