{"type": "Feature","bbox": [-58.0973,-36.3028,-57.1851,-35.743],"geometry": {"type": "MultiPolygon","coordinates": [[[[-58.009,-36.0417,4.9905],[-58.0102,-36.0453,4.9278],[-57.976,-36.0684,8.1108],[-58.0449,-36.1314,7.7529],[-58.0601,-36.1237,8.1186],[-58.0973,-36.1546,8.1736],[-57.9649,-36.2546,9.1769],[-57.978,-36.2662,9.2952],[-57.9709,-36.2725,8.7475],[-57.8879,-36.3028,9.2608],[-57.8765,-36.2685,8.894],[-57.8192,-36.279,8.3591],[-57.7885,-36.1795,8.2563],[-57.6776,-36.2045,6.8926],[-57.6499,-36.109,5.4351],[-57.5354,-36.131,4.9939],[-57.5369,-36.1353,5.0115],[-57.1851,-36.2157,0.2237],[-57.1937,-36.2071,0.0],[-57.1968,-36.2071,0.8393],[-57.2057,-36.1993,0.0],[-57.2104,-36.1982,1.8093],[-57.2115,-36.194,0.9286],[-57.2132,-36.1949,1.9057],[-57.2154,-36.1932,1.8077],[-57.2157,-36.189,1.1143],[-57.2265,-36.1799,0.4969],[-57.2346,-36.1821,0.0],[-57.2349,-36.1743,1.8856],[-57.2393,-36.1726,1.8546],[-57.2399,-36.1679,0.3713],[-57.2451,-36.1662,1.9055],[-57.246,-36.1632,1.9058],[-57.2493,-36.1615,1.8021],[-57.249,-36.1599,1.8029],[-57.2521,-36.1599,1.7694],[-57.256,-36.156,1.9153],[-57.2576,-36.1512,1.7073],[-57.2701,-36.139,1.9266],[-57.2743,-36.1365,1.2731],[-57.2785,-36.1376,0.7933],[-57.2788,-36.136,0.0],[-57.2821,-36.1368,0.2909],[-57.2885,-36.1354,0.4964],[-57.2857,-36.1346,0.2961],[-57.2818,-36.1357,0.4034],[-57.2779,-36.1332,0.0],[-57.2776,-36.129,0.0],[-57.2818,-36.1196,0.0],[-57.2879,-36.1107,0.0],[-57.289,-36.111,0.7775],[-57.2893,-36.1068,0.0],[-57.2932,-36.1021,0.0],[-57.2985,-36.0988,1.2],[-57.2993,-36.096,0.3936],[-57.3032,-36.0957,0.9308],[-57.3037,-36.0904,1.7537],[-57.3074,-36.0874,1.976],[-57.3118,-36.0751,1.9131],[-57.3157,-36.0693,1.024],[-57.3171,-36.0693,1.024],[-57.3174,-36.0657,0.0],[-57.3196,-36.0649,1.8841],[-57.3232,-36.0571,2.0901],[-57.321,-36.0515,0.0],[-57.3243,-36.0518,1.9482],[-57.3307,-36.0443,2.3184],[-57.3357,-36.0315,0.3333],[-57.3401,-36.0296,2.2904],[-57.339,-36.034,2.2467],[-57.3407,-36.0346,2.004],[-57.3426,-36.0282,2.3357],[-57.3504,-36.0271,1.3694],[-57.3524,-36.0215,1.9636],[-57.3496,-36.0204,0.0],[-57.3488,-36.0176,0.8975],[-57.3535,-36.011,1.6349],[-57.3563,-35.9999,1.5311],[-57.3618,-35.9954,2.3111],[-57.364,-35.9915,2.2603],[-57.3679,-35.9765,0.0],[-57.3715,-35.9704,1.1482],[-57.381,-35.9693,0.0],[-57.3818,-35.9637,1.4954],[-57.379,-35.9626,0.0],[-57.381,-35.9574,0.3311],[-57.379,-35.9571,0.1618],[-57.3796,-35.9538,0.6668],[-57.3785,-35.9535,1.5921],[-57.376,-35.9582,0.0],[-57.3715,-35.959,0.0],[-57.3685,-35.9554,0.0],[-57.3679,-35.9512,0.0],[-57.3707,-35.949,0.0],[-57.3737,-35.9504,0.1733],[-57.3757,-35.9493,0.4665],[-57.3721,-35.9443,0.0],[-57.3746,-35.9424,0.2854],[-57.3757,-35.9343,0.3008],[-57.3779,-35.9307,0.8515],[-57.3763,-35.9271,0.0],[-57.3776,-35.9246,0.0],[-57.3743,-35.9207,1.7421],[-57.3751,-35.9201,0.6029],[-57.3768,-35.9207,0.6029],[-57.3757,-35.909,1.9644],[-57.3782,-35.9093,2.0809],[-57.3779,-35.9176,1.4573],[-57.3807,-35.9221,2.0068],[-57.3818,-35.914,2.0071],[-57.3787,-35.9035,0.0],[-57.3824,-35.9076,1.8782],[-57.3821,-35.9126,2.0284],[-57.3843,-35.9054,2.0665],[-57.381,-35.9018,0.0],[-57.3807,-35.8993,0.0],[-57.3829,-35.8999,0.0],[-57.3846,-35.9035,1.9066],[-57.3913,-35.904,2.046],[-57.3857,-35.9007,1.8589],[-57.3851,-35.8949,0.0],[-57.3818,-35.8907,0.0],[-57.3857,-35.8879,1.0503],[-57.3829,-35.8754,0.0],[-57.3857,-35.8657,0.0],[-57.389,-35.8668,0.5398],[-57.3879,-35.8643,1.7201],[-57.3887,-35.8529,0.0],[-57.384,-35.8343,0.0],[-57.386,-35.8332,0.0],[-57.3843,-35.8293,0.2511],[-57.3818,-35.829,1.0158],[-57.3815,-35.826,1.6411],[-57.3799,-35.8257,0.0],[-57.3779,-35.8132,0.0],[-57.3807,-35.8104,0.0],[-57.3771,-35.8065,0.793],[-57.3743,-35.7943,0.8013],[-57.371,-35.7921,0.3965],[-57.3713,-35.7824,0.0],[-57.3701,-35.7788,0.2281],[-57.3682,-35.7779,0.0],[-57.369,-35.7757,1.7361],[-57.3665,-35.7707,0.2866],[-57.3657,-35.7593,1.8504],[-57.3635,-35.7574,0.0],[-57.3621,-35.7501,0.0],[-57.391,-35.7457,1.9437],[-57.3966,-35.743,4.4085],[-57.4164,-35.7485,4.5487],[-57.4175,-35.7521,6.1795],[-57.4097,-35.7615,3.1389],[-57.4161,-35.7648,3.1301],[-57.4141,-35.7678,2.4224],[-57.414,-35.7722,5.042],[-57.4228,-35.7705,4.9742],[-57.4289,-35.777,3.3172],[-57.4349,-35.7777,5.3111],[-57.4364,-35.7802,5.4167],[-57.4292,-35.7834,4.3615],[-57.4277,-35.7868,5.2201],[-57.4395,-35.7874,5.7031],[-57.4425,-35.7845,4.3709],[-57.4469,-35.7849,5.5275],[-57.4644,-35.7806,5.6335],[-57.4661,-35.7832,4.8149],[-57.465,-35.7874,3.3778],[-57.4721,-35.7896,5.0281],[-57.4768,-35.7863,2.5946],[-57.4811,-35.7888,4.7946],[-57.4818,-35.7927,4.1768],[-57.4877,-35.7983,4.8687],[-57.4853,-35.8027,4.6996],[-57.4905,-35.812,1.6242],[-57.5024,-35.8279,1.5168],[-57.5125,-35.8293,4.9091],[-57.5237,-35.8336,1.1061],[-57.5281,-35.8407,1.6574],[-57.5472,-35.8488,4.5471],[-57.5503,-35.8467,4.7833],[-57.5514,-35.8438,2.1267],[-57.5575,-35.8462,3.4087],[-57.5686,-35.8581,4.1256],[-57.5757,-35.8564,6.3172],[-57.5795,-35.8447,4.1189],[-57.5884,-35.835,4.5665],[-57.5948,-35.8338,5.2772],[-57.6024,-35.8345,3.2387],[-57.6082,-35.8333,3.3845],[-57.6274,-35.8353,4.5299],[-57.6448,-35.8406,6.8091],[-57.6525,-35.8407,4.9083],[-57.6585,-35.8448,8.3298],[-57.6583,-35.8515,6.3989],[-57.6656,-35.8464,3.8454],[-57.691,-35.8344,3.2031],[-57.6969,-35.8381,4.3663],[-57.7102,-35.8374,4.7408],[-57.7154,-35.8409,5.853],[-57.7176,-35.8508,4.7519],[-57.7136,-35.864,2.3155],[-57.7174,-35.8768,5.2359],[-57.7242,-35.8811,3.4296],[-57.7367,-35.8964,4.4026],[-57.7361,-35.9048,6.174],[-57.7312,-35.9089,4.616],[-57.727,-35.917,5.2515],[-57.7317,-35.9234,4.4364],[-57.7393,-35.9276,3.8435],[-57.7554,-35.9281,5.2661],[-57.7586,-35.9267,5.4364],[-57.7681,-35.9267,2.0],[-57.7809,-35.9375,4.7511],[-57.8352,-35.9445,3.0549],[-57.8462,-35.9587,4.7597],[-57.8582,-35.9659,4.3596],[-57.9065,-35.9817,3.2241],[-57.9211,-36.0025,5.0578],[-57.9299,-36.0013,4.467],[-57.9362,-36.0022,19.9156],[-57.9437,-36.0069,4.8019],[-57.9616,-36.0319,6.8236],[-57.9717,-36.0362,8.3641],[-57.9815,-36.0374,7.413],[-57.9905,-36.0333,7.5141],[-57.9874,-36.0203,4.3542],[-57.9953,-36.0273,7.1182],[-57.997,-36.0328,5.822],[-58.009,-36.0417,4.9905]]]]}
,"properties": {"GID_2": "ARG.1.25_1","GID_0": "ARG","country": "Argentina","GID_1": "ARG.1_1","state": "BuenosAires","NL_NAME_1": "NA","county": "Castelli","VARNAME_2": "NA","NL_NAME_2": "NA","TYPE_2": "Partido","ENGTYPE_2": "Part","CC_2": "NA","HASC_2": "AR.BA.CI","name": "Castelli.county","area_km2": 2138.149,"hist_schema_id": "Elevation0-9000","hist_area_km2": {"0": 2123.853,"25": 14.296}}}