{"type":"Feature","properties":{"GID_2":"ARG.1.58_1","GID_0":"ARG","country":"Argentina","GID_1":"ARG.1_1","state":"BuenosAires","NL_NAME_1":"NA","county":"Guaminí","VARNAME_2":"Guamin|Guamin","NL_NAME_2":"NA","TYPE_2":"Partido","ENGTYPE_2":"Part","CC_2":"NA","HASC_2":"AR.BA.GU","name":"Guaminí.county"},
"geometry":{"type": "MultiPolygon","coordinates": [[[[-62.4233,-37.3515,208.9633],[-62.2056,-37.1816,180.9172],[-62.2015,-37.185,184.4051],[-61.9689,-37.0118,140.6593],[-61.9384,-37.0378,147.9874],[-61.9347,-37.0344,147.002],[-61.9073,-37.0572,156.4647],[-61.8763,-37.0349,151.3542],[-61.8898,-37.0245,150.0199],[-61.858,-36.9975,138.9352],[-61.9219,-36.9456,122.764],[-61.9285,-36.9354,120.7823],[-61.9493,-36.9158,117.7251],[-61.9459,-36.9124,117.4045],[-62.0057,-36.8594,106.5],[-61.9957,-36.8537,106.5],[-61.9973,-36.8494,108.5005],[-62.0049,-36.8465,106.5],[-62.0096,-36.8428,106.5],[-62.0197,-36.8254,106.5],[-62.0238,-36.8228,107.0084],[-62.0239,-36.8195,106.5],[-62.0157,-36.8174,107.1676],[-62.0041,-36.8192,106.5],[-61.9963,-36.8111,106.7527],[-61.9864,-36.806,107.179],[-62.003,-36.8073,115.4382],[-62.1772,-36.6636,120.6255],[-62.2027,-36.6836,124.7345],[-62.2475,-36.6472,122.7305],[-62.222,-36.6272,121.4455],[-62.3841,-36.4888,117.841],[-62.4105,-36.5076,118.2658],[-62.4668,-36.4578,115.9539],[-62.7323,-36.6611,122.7372],[-62.9733,-36.865,133.5469],[-62.6675,-37.1029,118.9613],[-62.6533,-37.1182,125.5036],[-62.6423,-37.1255,127.0108],[-62.6272,-37.1228,127.8542],[-62.6064,-37.109,120.1991],[-62.5923,-37.1059,113.3833],[-62.5799,-37.1216,118.5955],[-62.57,-37.1281,120.1715],[-62.5578,-37.1521,124.2366],[-62.537,-37.1696,132.9033],[-62.5231,-37.1854,137.6498],[-62.5139,-37.1988,142.1621],[-62.5071,-37.2348,156.4481],[-62.5373,-37.2586,173.4697],[-62.4233,-37.3515,208.9633]]]]}}