{"type":"Feature","properties":{"GID_2":"ARG.1.33_1","GID_0":"ARG","country":"Argentina","GID_1":"ARG.1_1","state":"BuenosAires","NL_NAME_1":"NA","county":"CoronelSuárez","VARNAME_2":"NA","NL_NAME_2":"NA","TYPE_2":"Partido","ENGTYPE_2":"Part","CC_2":"NA","HASC_2":"AR.BA.CE","name":"CoronelSuárez.county"},
"geometry":{"type": "MultiPolygon","coordinates": [[[[-61.5088,-37.9363,279.1148],[-61.6021,-37.8567,294.2234],[-61.4441,-37.734,252.0343],[-61.536,-37.6595,243.4964],[-61.4837,-37.6172,230.1738],[-61.5936,-37.5289,221.0777],[-61.5364,-37.4834,209.6994],[-61.7472,-37.3027,200.7699],[-61.744,-37.2804,196.4758],[-61.7404,-37.2785,196.2914],[-61.7399,-37.272,195.4417],[-61.7283,-37.2568,191.2523],[-61.7202,-37.2532,190.4391],[-61.7148,-37.2371,188.1556],[-61.7085,-37.2299,186.4754],[-61.7021,-37.2148,184.4385],[-61.7111,-37.1679,175.4982],[-61.7183,-37.1529,172.9778],[-61.7155,-37.1391,170.1131],[-61.7251,-37.1142,164.8047],[-61.7324,-37.1082,163.1785],[-61.7307,-37.0946,159.1465],[-61.7335,-37.0893,158.1454],[-61.6059,-36.9917,144.9065],[-61.7084,-36.9063,129.7274],[-61.7595,-36.9468,132.9394],[-61.7824,-36.9302,128.5082],[-61.8621,-36.9942,137.0235],[-61.858,-36.9975,138.9352],[-61.8898,-37.0245,150.0199],[-61.8763,-37.0349,151.3542],[-61.9073,-37.0572,156.4647],[-61.9347,-37.0344,147.002],[-61.9384,-37.0378,147.9874],[-61.9689,-37.0118,140.6593],[-62.2015,-37.185,184.4051],[-62.2056,-37.1816,180.9172],[-62.4233,-37.3515,208.9633],[-62.0444,-37.7497,341.2614],[-62.098,-37.9299,400.6685],[-62.0997,-37.9313,404.0966],[-62.0122,-38.0004,475.9955],[-61.9983,-38.0046,503.799],[-61.9761,-38.0072,423.4883],[-61.9598,-38.0014,491.6142],[-61.949,-38.0055,392.9771],[-61.938,-38.0057,411.8314],[-61.9246,-38.0033,346.2467],[-61.9082,-38.004,476.951],[-61.8986,-38.0083,461.023],[-61.8826,-38.0234,316.8548],[-61.8638,-38.0312,308.9451],[-61.856,-38.0434,317.0623],[-61.8543,-38.0503,302.7179],[-61.84,-38.0541,294.0113],[-61.8334,-38.0599,284.1471],[-61.8276,-38.0596,288.4067],[-61.8201,-38.0672,291.3693],[-61.8167,-38.0878,266.9568],[-61.7962,-38.1059,273.401],[-61.7972,-38.1165,251.4468],[-61.7959,-38.1229,248.4578],[-61.7852,-38.1321,246.761],[-61.7748,-38.1549,250.2899],[-61.766,-38.1686,254.3532],[-61.6615,-38.0903,395.0271],[-61.6779,-38.0768,325.2773],[-61.5057,-37.939,278.7446],[-61.5088,-37.9363,279.1148]]]]}}