{"type": "Feature","bbox": [-63.2813,-36.865,-62.8102,-36.4829],"geometry": {"type": "MultiPolygon","coordinates": [[[[-62.9733,-36.865,133.5469],[-62.8102,-36.7272,122.2597],[-62.9348,-36.6253,120.5208],[-62.9409,-36.6324,120.5032],[-63.1241,-36.4829,118.5327],[-63.2813,-36.6123,122.076],[-63.0109,-36.8356,131.1388],[-62.9733,-36.865,133.5469]]]]}
,"properties": {"GID_2": "ARG.1.103_1","GID_0": "ARG","country": "Argentina","GID_1": "ARG.1_1","state": "BuenosAires","NL_NAME_1": "NA","county": "Salliqueló","VARNAME_2": "Salliquello|Salliquello","NL_NAME_2": "NA","TYPE_2": "Partido","ENGTYPE_2": "Part","CC_2": "NA","HASC_2": "AR.BA.SQ","name": "Salliqueló.county","area_km2": 805.4665,"hist_schema_id": "Elevation0-9000","hist_area_km2": {"125": 805.1944,"150": 0.272}}}