{"type":"Feature","properties":{"GID_2":"ARG.8.3_1","GID_0":"ARG","country":"Argentina","GID_1":"ARG.8_1","state":"EntreRíos","NL_NAME_1":"NA","county":"Diamante","VARNAME_2":"NA","NL_NAME_2":"NA","TYPE_2":"Departamento","ENGTYPE_2":"Department","CC_2":"NA","HASC_2":"AR.ER.DI","name":"Diamante.county"},
"geometry":{"type": "MultiPolygon","coordinates": [[[[-60.2659,-32.0447,103.4344],[-60.2816,-32.0472,108.7537],[-60.2942,-32.0584,101.2583],[-60.3025,-32.0616,86.5571],[-60.316,-32.06,101.7812],[-60.3246,-32.0573,100.319],[-60.3293,-32.0519,113.2354],[-60.3374,-32.0561,106.3249],[-60.3402,-32.0593,104.4196],[-60.3356,-32.0653,96.9897],[-60.3365,-32.0691,104.4852],[-60.3465,-32.0773,97.1425],[-60.3506,-32.0785,97.8873],[-60.3624,-32.0723,104.3298],[-60.3666,-32.0724,95.6143],[-60.3701,-32.0754,97.3952],[-60.3736,-32.0742,100.4257],[-60.384,-32.0663,83.6461],[-60.3856,-32.0587,81.2625],[-60.3848,-32.055,90.2004],[-60.3879,-32.0524,100.4491],[-60.3923,-32.052,92.4904],[-60.3869,-32.0365,86.5127],[-60.3877,-32.0346,84.8633],[-60.3929,-32.0357,78.797],[-60.396,-32.0343,69.9962],[-60.3972,-32.0304,67.9668],[-60.4015,-32.0291,73.5692],[-60.4032,-32.0264,71.5353],[-60.3986,-32.0195,89.8011],[-60.3993,-32.0159,91.5234],[-60.4106,-32.0092,91.9113],[-60.4117,-32.0057,97.1846],[-60.4102,-31.9942,93.2747],[-60.4075,-31.991,100.4725],[-60.394,-31.9897,104.8414],[-60.391,-31.9875,98.5915],[-60.3881,-31.9761,108.0007],[-60.3836,-31.9754,106.23],[-60.3788,-31.9767,92.0938],[-60.3766,-31.9749,93.4794],[-60.3913,-31.942,84.2381],[-60.4083,-31.9394,110.626],[-60.4106,-31.936,109.6258],[-60.422,-31.9291,101.3611],[-60.4465,-31.9458,81.800299999999993],[-60.4598,-31.948,71.5937],[-60.4855,-31.94,103.7746],[-60.4876,-31.9371,110.3019],[-60.4873,-31.933,112.3551],[-60.4891,-31.9295,113.4147],[-60.4927,-31.9271,110.3613],[-60.5016,-31.9255,90.5015],[-60.5352,-31.9139,96.7354],[-60.5532,-31.9119,70.9731],[-60.5569,-31.9049,73.4256],[-60.5565,-31.9011,72.4513],[-60.5541,-31.8978,57.448],[-60.5532,-31.8901,54.9233],[-60.5553,-31.8866,52.6035],[-60.5685,-31.8838,50.4692],[-60.5678,-31.8684,66.9977],[-60.5648,-31.857,96.562],[-60.5606,-31.8504,84.007],[-60.5622,-31.8467,76.5429],[-60.5806,-31.8448,63.159],[-60.5828,-31.8425,58.5282],[-60.5785,-31.8233,59.1631],[-60.6056,-31.8193,16.4188],[-60.616,-31.812,14.6474],[-60.6654,-31.8034,14.7863],[-60.6668,-31.8221,13.3719],[-60.6599,-31.8335,9.0],[-60.6586,-31.8413,9.0],[-60.6713,-31.8679,14.732],[-60.6736,-31.8781,14.4361],[-60.6713,-31.8883,12.4339],[-60.663,-31.9053,12.5949],[-60.6633,-31.9129,11.4158],[-60.6709,-31.9242,8.5],[-60.6887,-31.9344,11.455],[-60.7077,-31.9497,8.5],[-60.7143,-31.9671,8.0],[-60.7238,-32.0049,15.3683],[-60.7192,-32.009,20.1952],[-60.6966,-32.0076,8.0],[-60.6928,-32.0125,8.0],[-60.6849,-32.0183,8.0],[-60.6625,-32.0483,7.5],[-60.6582,-32.0688,7.5],[-60.6582,-32.0806,7.0],[-60.6618,-32.0889,7.0],[-60.6808,-32.1138,6.5],[-60.7048,-32.1393,6.5],[-60.7296,-32.1599,9.2277],[-60.7337,-32.1712,7.9224],[-60.7319,-32.18,10.0854],[-60.7258,-32.1873,8.1276],[-60.7148,-32.1945,7.6116],[-60.687,-32.207,6.5],[-60.6824,-32.2114,6.5],[-60.674,-32.2245,6.0],[-60.6723,-32.2362,6.0],[-60.6762,-32.2536,6.0],[-60.6782,-32.2743,6.0],[-60.6735,-32.2978,5.5],[-60.6734,-32.3068,5.5],[-60.6771,-32.3149,5.5],[-60.6839,-32.3172,10.4858],[-60.6905,-32.3162,8.6273],[-60.7189,-32.304,8.012],[-60.7293,-32.3052,8.095],[-60.7359,-32.312,10.1522],[-60.7367,-32.3177,7.991],[-60.7342,-32.3265,7.8242],[-60.7222,-32.3412,8.802],[-60.7196,-32.3466,12.2783],[-60.7177,-32.3792,5.0],[-60.7122,-32.3932,5.0],[-60.7123,-32.402,5.0],[-60.7209,-32.4519,5.0],[-60.7304,-32.4644,5.0],[-60.752,-32.4797,5.0],[-60.7546,-32.4849,5.0],[-60.7567,-32.4969,5.0],[-60.7544,-32.5265,5.0],[-60.7434,-32.5638,5.0],[-60.7415,-32.5756,5.0],[-60.7425,-32.5964,5.0],[-60.7492,-32.61,5.0],[-60.7491,-32.6159,5.0],[-60.743899999999996,-32.6301,5.0],[-60.729,-32.6536,4.75],[-60.7209,-32.6633,4.5],[-60.7162,-32.6746,4.5],[-60.7029,-32.6666,8.3715],[-60.6873,-32.6524,6.3863],[-60.6823,-32.6459,6.9409],[-60.6748,-32.6274,7.1287],[-60.6616,-32.6249,6.7819],[-60.6158,-32.6267,4.5],[-60.6068,-32.6255,6.3658],[-60.5945,-32.6205,6.2967],[-60.5747,-32.6045,6.9466],[-60.5703,-32.6034,6.8091],[-60.5613,-32.6041,6.5289],[-60.5445,-32.5978,7.027],[-60.5246,-32.5816,6.1407],[-60.5224,-32.5785,6.0024],[-60.5206,-32.5668,5.9033],[-60.5142,-32.5614,6.2963],[-60.5123,-32.5578,5.9439],[-60.5115,-32.554,6.4649],[-60.5159,-32.543,5.9545],[-60.5087,-32.533,6.5299],[-60.4996,-32.5153,5.8845],[-60.4951,-32.4962,6.6982],[-60.493899999999996,-32.4808,6.8584],[-60.491,-32.4778,6.3667],[-60.4674,-32.4662,6.3458],[-60.4675,-32.4584,6.6436],[-60.4733,-32.4478,6.7065],[-60.477,-32.4365,6.9209],[-60.4712,-32.4307,6.6502],[-60.4544,-32.4245,6.6508],[-60.4317,-32.4215,7.3034],[-60.4241,-32.417,9.4491],[-60.4222,-32.4137,9.6919],[-60.4223,-32.4059,30.237],[-60.4287,-32.3913,45.635],[-60.4461,-32.3689,50.6723],[-60.448,-32.3613,44.2147],[-60.447,-32.3496,59.6355],[-60.4446,-32.3422,40.5443],[-60.4363,-32.3283,38.99],[-60.4307,-32.3221,53.2642],[-60.412,-32.3116,59.3705],[-60.3992,-32.3075,64.3363],[-60.3808,-32.3071,57.6976],[-60.3585,-32.3115,60.2947],[-60.3453,-32.3084,58.7132],[-60.3405,-32.302,52.9868],[-60.3353,-32.2871,59.2562],[-60.3259,-32.2739,69.2748],[-60.3202,-32.2552,76.8515],[-60.3051,-32.2406,93.8936],[-60.3004,-32.234,81.9513],[-60.2976,-32.2266,75.7493],[-60.2965,-32.2109,88.9921],[-60.2935,-32.2088,83.0652],[-60.2572,-32.2031,81.3897],[-60.2207,-32.201,106.1986],[-60.2076,-32.1979,112.8701],[-60.1882,-32.1968,104.0885],[-60.1933,-32.1913,110.4696],[-60.1936,-32.1877,117.1548],[-60.1879,-32.1815,109.8346],[-60.1802,-32.1774,108.8975],[-60.1539,-32.1713,101.5088],[-60.1459,-32.1672,101.232],[-60.1449,-32.164,100.9036],[-60.1467,-32.16,99.7816],[-60.1591,-32.1392,88.958],[-60.1629,-32.1272,97.2856],[-60.1653,-32.1258,100.2944],[-60.1782,-32.1313,101.5897],[-60.2047,-32.1377,111.4007],[-60.2088,-32.1373,115.7744],[-60.2125,-32.1347,113.5051],[-60.219,-32.1246,115.0534],[-60.2215,-32.1131,110.7758],[-60.2206,-32.1016,108.5687],[-60.2237,-32.0943,105.8998],[-60.2378,-32.0847,114.4249],[-60.2393,-32.0771,112.2617],[-60.2423,-32.0741,113.8527],[-60.2567,-32.0646,113.1049],[-60.2632,-32.0544,111.836],[-60.2659,-32.0447,103.4344]]]]}}