{"type":"Feature","properties":{"GID_2":"ARG.1.53_1","GID_0":"ARG","country":"Argentina","GID_1":"ARG.1_1","state":"BuenosAires","NL_NAME_1":"NA","county":"GeneralRodríguez","VARNAME_2":"NA","NL_NAME_2":"NA","TYPE_2":"Partido","ENGTYPE_2":"Part","CC_2":"NA","HASC_2":"AR.BA.GR","name":"GeneralRodríguez.county"},
"geometry":{"type": "MultiPolygon","coordinates": [[[[-59.04,-34.7681,28.687],[-59.0352,-34.7632,27.5719],[-59.0184,-34.7626,26.9563],[-59.0099,-34.7646,26.6586],[-59.003,-34.764,25.15],[-58.9978,-34.7616,24.9464],[-58.9679,-34.7406,25.311],[-58.9507,-34.7167,22.4389],[-58.9318,-34.7033,21.5732],[-58.9221,-34.7002,21.2898],[-58.9089,-34.7016,19.921],[-58.9021,-34.7006,19.1918],[-58.869,-34.6885,18.0],[-58.861,-34.6888,18.0],[-58.8828,-34.6761,18.8925],[-58.8848,-34.6717,18.2243],[-58.8815,-34.6539,20.518],[-58.8834,-34.6477,29.2572],[-58.8811,-34.6368,26.3834],[-58.8814,-34.6332,27.3244],[-58.8845,-34.6315,29.7168],[-58.8647,-34.6216,30.9256],[-58.8908,-34.5845,33.4499],[-58.8871,-34.5827,33.6871],[-58.9303,-34.521,30.7203],[-58.9636,-34.5364,27.5717],[-58.961,-34.5508,30.0798],[-58.9915,-34.5632,31.8381],[-58.987,-34.5704,32.3977],[-58.9983,-34.5757,32.8321],[-58.994,-34.5819,33.7659],[-59.0315,-34.599,32.9038],[-59.0491,-34.5942,34.0008],[-59.0736,-34.608,34.1946],[-59.0624,-34.6211,33.9823],[-59.0979,-34.6388,31.8057],[-59.1012,-34.6352,32.2326],[-59.121,-34.6446,32.2024],[-59.119,-34.6483,30.9107],[-59.1457,-34.6641,32.6547],[-59.0945,-34.7217,29.5462],[-59.0907,-34.7201,29.6839],[-59.0725,-34.7367,33.6367],[-59.0741,-34.7394,34.0011],[-59.04,-34.7681,28.687]]]]}}