{"type":"Feature","properties":{"GID_2":"ARG.1.101_1","GID_0":"ARG","country":"Argentina","GID_1":"ARG.1_1","state":"BuenosAires","NL_NAME_1":"NA","county":"Saavedra","VARNAME_2":"NA","NL_NAME_2":"NA","TYPE_2":"Partido","ENGTYPE_2":"Part","CC_2":"NA","HASC_2":"AR.BA.SD","name":"Saavedra.county"},
"geometry":{"type": "MultiPolygon","coordinates": [[[[-62.6287,-37.5107,246.2882],[-62.5791,-37.5544,275.7787],[-62.7289,-37.6621,272.1302],[-62.7115,-37.6766,276.8913],[-62.7253,-37.6886,268.8877],[-62.8975,-37.8189,211.3801],[-62.5807,-38.0737,241.7943],[-62.4912,-38.005,277.826],[-62.4739,-38.0269,230.0],[-62.4674,-38.0271,230.0],[-62.4551,-38.0428,231.8396],[-62.4578,-38.0533,255.7227],[-62.4457,-38.0418,232.6638],[-62.3505,-38.1246,254.2424],[-62.3426,-38.1185,257.7737],[-62.3421,-38.1127,258.1897],[-62.3378,-38.1087,248.4263],[-62.3382,-38.1041,244.142],[-62.3341,-38.0991,255.4703],[-62.3287,-38.0976,262.5554],[-62.3096,-38.0842,267.1907],[-62.2998,-38.0844,256.9688],[-62.283,-38.0777,269.6177],[-62.2771,-38.0696,279.9326],[-62.2686,-38.0619,283.1623],[-62.2687,-38.0576,283.6184],[-62.2655,-38.0537,285.9561],[-62.259,-38.0518,281.5365],[-62.2572,-38.0444,287.1536],[-62.2339,-38.0341,294.5961],[-62.2276,-38.0256,291.2946],[-62.2185,-38.023,291.6553],[-62.1929,-37.9981,326.4599],[-62.1755,-37.9921,323.2548],[-62.1728,-37.9871,329.6584],[-62.1631,-37.98,333.541],[-62.1552,-37.9679,346.8049],[-62.1508,-37.9641,349.3246],[-62.098,-37.9299,400.6685],[-62.0444,-37.7497,341.2614],[-62.4233,-37.3515,208.9633],[-62.6287,-37.5107,246.2882]]]]}}