{"type":"Feature","properties":{"GID_2":"ARG.1.88_1","GID_0":"ARG","country":"Argentina","GID_1":"ARG.1_1","state":"BuenosAires","NL_NAME_1":"NA","county":"Pehuajó","VARNAME_2":"NA","NL_NAME_2":"NA","TYPE_2":"Partido","ENGTYPE_2":"Part","CC_2":"NA","HASC_2":"AR.BA.PJ","name":"Pehuajó.county"},
"geometry":{"type": "MultiPolygon","coordinates": [[[[-61.725,-35.5368,82.0],[-61.785,-35.5857,84.141],[-61.9037,-35.4872,89.2534],[-61.9904,-35.5576,86.4494],[-62.0524,-35.5069,88.0952],[-62.1267,-35.5657,86.4681],[-62.0954,-35.5924,86.5794],[-62.434,-35.8613,84.338],[-62.0772,-36.1548,95.4676],[-62.1959,-36.2467,100.837],[-62.1699,-36.2694,99.675],[-62.1433,-36.2483,100.886],[-62.0457,-36.3264,103.8713],[-62.0186,-36.3051,110.0773],[-61.9776,-36.3371,106.1091],[-61.9625,-36.3256,105.6924],[-61.9658,-36.324,106.2799],[-61.9599,-36.3176,104.8318],[-61.9502,-36.3254,105.0384],[-61.9399,-36.3154,105.1673],[-61.9479,-36.3086,105.0022],[-61.9253,-36.2884,103.4033],[-61.9475,-36.2702,102.0547],[-61.8151,-36.1677,97.0007],[-61.8115,-36.1709,96.8385],[-61.7718,-36.1414,96.1682],[-61.7435,-36.1648,97.6373],[-61.7065,-36.1349,96.5719],[-61.6926,-36.145,100.4576],[-61.6621,-36.1209,95.1969],[-61.6583,-36.1234,97.7453],[-61.6388,-36.1072,94.4642],[-61.6345,-36.1097,98.1354],[-61.6158,-36.0944,95.457],[-61.5996,-36.1087,95.4654],[-61.4957,-36.0257,90.6157],[-61.4593,-36.0552,92.5491],[-61.4362,-36.0371,91.3999],[-61.5539,-35.9463,87.5239],[-61.5352,-35.929,87.042],[-61.6385,-35.8452,85.2457],[-61.5085,-35.7409,83.7228],[-61.5973,-35.6669,84.6428],[-61.5737,-35.648,82.1052],[-61.6553,-35.5801,84.1979],[-61.6622,-35.5867,84.036],[-61.725,-35.5368,82.0]]]]}}