{"type": "Feature","bbox": [-65.4546,-43.76,-64.3074,-42.8338],"geometry": {"type": "MultiPolygon","coordinates": [[[[-65.2835,-43.7215,0.3086],[-65.2865,-43.7212,0.0],[-65.2868,-43.7226,0.2403],[-65.284,-43.7226,0.3086],[-65.2835,-43.7215,0.3086]]],
[[[-64.8827,-42.837,34.2791],[-65.4546,-42.8519,129.6882],[-65.427,-43.3825,195.2185],[-65.4042,-43.76,233.8733],[-65.3529,-43.7587,39.2559],[-65.3526,-43.7551,0.0],[-65.3546,-43.7518,0.0],[-65.3529,-43.734,50.9892],[-65.3493,-43.7315,0.0],[-65.3504,-43.719,0.0],[-65.3474,-43.7093,18.1642],[-65.3443,-43.7071,0.0],[-65.3412,-43.6968,0.0],[-65.3418,-43.691,0.0],[-65.3399,-43.689,0.0],[-65.3401,-43.6846,0.0],[-65.3382,-43.679,0.0],[-65.3404,-43.6785,0.5203],[-65.3407,-43.6749,3.2941],[-65.3374,-43.6726,0.0],[-65.3376,-43.6682,1.8111],[-65.3348,-43.6668,0.0],[-65.3354,-43.6646,0.0],[-65.3318,-43.6579,1.4249],[-65.3282,-43.6574,0.0],[-65.3224,-43.6529,0.0],[-65.3243,-43.6512,0.7231],[-65.3215,-43.6499,0.0],[-65.3199,-43.646,0.0],[-65.316,-43.644,0.0],[-65.3143,-43.6399,0.6362],[-65.3157,-43.6374,0.0],[-65.3146,-43.6329,4.8603],[-65.3054,-43.6307,0.0],[-65.306,-43.629,0.0],[-65.304,-43.6285,0.0],[-65.3018,-43.6229,1.3288],[-65.2996,-43.6224,0.0],[-65.3004,-43.6204,2.5194],[-65.2901,-43.6126,0.0],[-65.2865,-43.599,6.3425],[-65.2765,-43.5907,2.179],[-65.2654,-43.5904,0.0],[-65.264,-43.5887,0.0],[-65.2651,-43.5874,0.0],[-65.2601,-43.584,0.0],[-65.2601,-43.5779,0.0],[-65.2535,-43.5713,0.0],[-65.2446,-43.5676,0.0],[-65.2296,-43.5574,19.4466],[-65.224,-43.5576,0.0],[-65.2126,-43.5496,0.0],[-65.2079,-43.5485,0.0],[-65.2079,-43.5462,32.519],[-65.206,-43.5462,6.0806],[-65.2054,-43.5443,38.7956],[-65.1993,-43.5446,0.0],[-65.1976,-43.5418,2.7299],[-65.1932,-43.5399,0.8189],[-65.1935,-43.534,0.0],[-65.1913,-43.5293,8.4331],[-65.1837,-43.5251,0.0],[-65.1785,-43.5187,3.7342],[-65.1779,-43.5154,0.0],[-65.1751,-43.5135,0.0],[-65.1757,-43.5096,0.0],[-65.1729,-43.504,17.424],[-65.169,-43.5015,0.0],[-65.1593,-43.4885,0.7147],[-65.1543,-43.486,2.1679],[-65.1501,-43.4793,2.3511],[-65.1404,-43.4712,0.0],[-65.136,-43.4635,7.6435],[-65.1276,-43.4565,8.1047],[-65.1212,-43.454,0.6163],[-65.1165,-43.4485,19.5305],[-65.1032,-43.4412,0.0],[-65.1015,-43.4385,1.2279],[-65.0976,-43.4376,0.0],[-65.0976,-43.436,2.3127],[-65.0951,-43.4357,0.0],[-65.0904,-43.4318,0.9939],[-65.0896,-43.4285,10.4518],[-65.0815,-43.4243,8.7425],[-65.0768,-43.4193,4.3883],[-65.0526,-43.404,2.7764],[-65.0488,-43.3913,7.1182],[-65.0426,-43.3821,0.9622],[-65.0462,-43.3793,0.0],[-65.0449,-43.3712,0.0],[-65.0465,-43.3685,19.1184],[-65.0468,-43.3626,1.9755],[-65.0549,-43.3521,13.6374],[-65.0549,-43.3418,0.6158],[-65.0512,-43.3315,0.7623],[-65.039,-43.3126,8.0358],[-64.9996,-43.2724,7.8858],[-64.9843,-43.261,3.6911],[-64.9529,-43.2424,11.2942],[-64.8832,-43.2049,0.0],[-64.786,-43.1621,4.2656],[-64.6785,-43.1246,1.7223],[-64.5904,-43.1035,1.1017],[-64.5654,-43.0957,17.8506],[-64.5529,-43.094,0.0],[-64.4999,-43.0754,11.1991],[-64.4826,-43.0707,14.8995],[-64.4729,-43.0701,0.0],[-64.4662,-43.066,14.7507],[-64.4571,-43.0635,0.0],[-64.4285,-43.0432,0.0],[-64.4118,-43.0335,0.0],[-64.3904,-43.0262,26.791],[-64.3849,-43.0207,22.8711],[-64.3415,-43.0057,19.6004],[-64.3307,-43.0035,0.0],[-64.3243,-42.9979,0.0],[-64.3251,-42.994,0.0],[-64.3238,-42.9907,0.0],[-64.3196,-42.9879,31.7116],[-64.3121,-42.986,18.8644],[-64.3074,-42.9793,0.0],[-64.3074,-42.971,0.0],[-64.3176,-42.9629,0.0],[-64.3232,-42.946,0.0],[-64.3313,-42.9343,0.0],[-64.3424,-42.9349,3.3005],[-64.3543,-42.9421,0.9143],[-64.3707,-42.9482,4.697],[-64.406,-42.954,1.9951],[-64.4221,-42.9543,0.0],[-64.4324,-42.951,0.0],[-64.4449,-42.9496,33.7145],[-64.4899,-42.949,1.6656],[-64.5004,-42.9454,4.6748],[-64.5043,-42.9376,0.0],[-64.511,-42.9321,0.0],[-64.5296,-42.9224,2.0339],[-64.5421,-42.9199,19.3176],[-64.5524,-42.924,36.583],[-64.559,-42.9246,52.6603],[-64.5837,-42.9246,53.528],[-64.6149,-42.9221,3.8027],[-64.6504,-42.914,2.6422],[-64.6554,-42.911,0.0],[-64.666,-42.9087,8.1822],[-64.6693,-42.9049,0.0],[-64.6871,-42.9018,6.0812],[-64.6965,-42.8974,47.0345],[-64.6979,-42.8924,0.0],[-64.7024,-42.8862,0.0],[-64.7024,-42.8832,0.0],[-64.7254,-42.876,1.7378],[-64.7293,-42.8729,0.0],[-64.739,-42.8704,5.0217],[-64.741,-42.8682,2.6601],[-64.7493,-42.8671,5.5551],[-64.7779,-42.8574,1.0945],[-64.7849,-42.8526,0.0],[-64.7918,-42.8515,11.5031],[-64.8065,-42.8449,9.1725],[-64.8093,-42.8426,0.0],[-64.8093,-42.8407,0.0],[-64.814,-42.8387,0.0],[-64.8243,-42.8404,3.9585],[-64.8318,-42.8382,7.0124],[-64.8379,-42.8401,4.2923],[-64.8432,-42.8376,0.0],[-64.849,-42.8387,8.9219],[-64.8646,-42.8338,1.8395],[-64.8746,-42.8351,4.1861],[-64.8785,-42.834,0.5832],[-64.8827,-42.837,34.2791]]]]}
,"properties": {"GID_2": "ARG.4.11_1","GID_0": "ARG","country": "Argentina","GID_1": "ARG.4_1","state": "Chubut","NL_NAME_1": "NA","county": "Rawson","VARNAME_2": "NA","NL_NAME_2": "NA","TYPE_2": "Departamento","ENGTYPE_2": "Department","CC_2": "NA","HASC_2": "AR.CH.RA","name": "Rawson.county","area_km2": 4143.699,"hist_schema_id": "Elevation0-9000","hist_area_km2": {"0": 300.564,"25": 1134.468,"50": 570.107,"75": 539.839,"100": 593.192,"125": 336.97,"150": 260.983,"175": 52.739,"200": 232.635,"225": 122.203}}}