{"type":"Feature","properties":{"GID_2":"ARG.21.2_1","GID_0":"ARG","country":"Argentina","GID_1":"ARG.21_1","state":"SantaFe","NL_NAME_1":"NA","county":"Caseros","VARNAME_2":"Casilda","NL_NAME_2":"NA","TYPE_2":"Departamento","ENGTYPE_2":"Department","CC_2":"NA","HASC_2":"AR.SF.CR","name":"Caseros.county"},
"geometry":{"type": "MultiPolygon","coordinates": [[[[-62.1178,-33.3947,113.4997],[-61.975,-33.3962,103.3055],[-61.4672,-33.3928,101.7022],[-61.342,-33.3291,77.123],[-61.2238,-33.487,92.3663],[-61.2053,-33.4665,92.0149],[-61.1993,-33.4629,92.0201],[-61.1693,-33.4577,93.0203],[-61.1557,-33.452,90.7248],[-61.1437,-33.444,90.9825],[-61.1347,-33.4337,90.904],[-61.1235,-33.4251,90.2948],[-61.1138,-33.4151,89.5352],[-61.1071,-33.412,88.7132],[-61.1035,-33.4121,88.5997],[-61.1625,-33.3318,88.8187],[-61.1414,-33.3177,84.1303],[-61.1783,-33.2711,74.0533],[-61.1949,-33.2433,75.2513],[-61.1872,-33.2345,77.6143],[-61.1616,-33.221,73.9801],[-61.1741,-33.1732,84.987],[-61.1497,-33.1679,81.4094],[-61.0965,-33.0783,61.5405],[-61.1364,-33.0332,64.2118],[-61.1959,-32.9541,57.5836],[-61.2232,-32.9205,45.8006],[-61.2308,-32.9247,41.2649],[-61.2396,-32.9327,45.7989],[-61.2474,-32.9449,41.8174],[-61.2653,-32.9552,51.4103],[-61.2747,-32.9665,45.1567],[-61.284,-32.9701,46.6025],[-61.2974,-32.9816,46.172],[-61.3226,-32.9856,47.8528],[-61.3427,-32.9936,48.8446],[-61.3597,-32.9935,49.3957],[-61.3949,-32.9974,54.3434],[-61.4023,-32.9958,58.0305],[-61.4097,-32.9966,57.0558],[-61.423,-33.0029,55.8731],[-61.4378,-33.0061,58.7909],[-61.4528,-33.007,57.7087],[-61.4677,-33.0048,63.1243],[-61.4753,-33.006,64.8924],[-61.4868,-33.0139,59.3781],[-61.5017,-33.0167,57.5288],[-61.5525,-33.044,52.7215],[-61.5733,-33.0511,57.3622],[-61.5895,-33.0646,53.3149],[-61.6488,-33.072,55.7067],[-61.6639,-33.0715,57.1327],[-61.6688,-33.0832,56.5132],[-61.6734,-33.0867,56.8474],[-61.6809,-33.0846,56.9506],[-61.6858,-33.0893,57.2905],[-61.6924,-33.0909,57.5135],[-61.6976,-33.087,58.0961],[-61.7053,-33.0864,58.37],[-61.7099,-33.091,58.6901],[-61.7175,-33.0911,58.9961],[-61.7315,-33.086,61.5073],[-61.7506,-33.0756,63.0411],[-61.7651,-33.0718,69.2748],[-61.7769,-33.0639,73.2192],[-61.7801,-33.058,67.0101],[-61.7999,-33.0385,72.9007],[-61.8066,-33.0291,65.3944],[-61.824,-33.0446,69.6355],[-61.8413,-33.0548,72.0739],[-61.8499,-33.0619,73.6164],[-61.8533,-33.0689,79.394],[-61.8692,-33.0808,76.6226],[-61.879,-33.0967,78.2109],[-61.8865,-33.1047,78.6628],[-61.9142,-33.1203,76.5],[-61.925,-33.1247,82.6934],[-61.9678,-33.1847,103.5901],[-62.0135,-33.2557,112.4064],[-62.1178,-33.3947,113.4997]]]]}}