{"type": "Feature","bbox": [-64.4867,-35.4602,-63.937,-34.998],"geometry": {"type": "MultiPolygon","coordinates": [[[[-64.4845,-34.998,191.1142],[-64.4867,-35.4588,189.3965],[-63.937,-35.4602,145.2011],[-63.9388,-34.9982,146.0904],[-64.4845,-34.998,191.1142]]]]}
,"properties": {"GID_2": "ARG.11.19_1","GID_0": "ARG","country": "Argentina","GID_1": "ARG.11_1","state": "LaPampa","NL_NAME_1": "NA","county": "Realicó","VARNAME_2": "Ralico|Ralico","NL_NAME_2": "NA","TYPE_2": "Departamento","ENGTYPE_2": "Department","CC_2": "NA","HASC_2": "AR.LP.RE","name": "Realicó.county","area_km2": 2553.412,"hist_schema_id": "Elevation0-9000","hist_area_km2": {"150": 1026.175,"175": 1295.789,"200": 231.448}}}