{"type": "Feature","bbox": [-69.3411456855771,-39.661919983394824,-68.68486086413705,-39.267472053038404],"geometry": {"type": "Polygon","coordinates": [[[-68.931685184736949,-39.502963354743741,450.0244],[-68.90372059265944,-39.50031407759954,374.5],[-68.911668424092,-39.47941422457319,393.0265],[-68.904898049167969,-39.464107289962357,382.6262],[-68.871929266929229,-39.439086339156148,375.3617],[-68.842492854216061,-39.422601948036771,374.5],[-68.827333101668771,-39.429077958833687,396.5819],[-68.81393953388428,-39.445267985825922,374.5],[-68.789507311332358,-39.45763127916544,378.5013],[-68.73872949940214,-39.448800355351494,374.5],[-68.7104705431975,-39.410533018824395,382.0558],[-68.68486086413705,-39.315453405760849,383.0425],[-68.756244164966475,-39.339296900058514,374.5],[-68.778027110374225,-39.34312363371123,374.5],[-68.795394593874988,-39.340179992439914,374.5],[-68.799368509591261,-39.330171612117454,456.7742],[-68.797749506892046,-39.314570313379448,374.5],[-68.798632599273432,-39.2945535527345,375.3021],[-68.787741126569571,-39.296908465751557,394.8085],[-68.77420037672151,-39.296025373370156,399.8572],[-68.7621314475091,-39.291021183208926,397.9944],[-68.755066708457946,-39.281601531140723,378.6025],[-68.757127257347875,-39.268943873674061,373.5181],[-68.7703736430688,-39.267472053038404,374.5],[-68.794364319430031,-39.274242427962434,374.5],[-68.820857090871883,-39.278657889869407,374.5],[-68.840432305326132,-39.285133900666295,374.5],[-68.880465826616046,-39.310449215599618,421.7371],[-68.867219440895113,-39.315747769887992,374.5],[-69.080486251002014,-39.394637355959276,379.5134],[-69.075187696713641,-39.399641546120506,382.9668],[-69.0719496913152,-39.401996459137564,380.8116],[-69.072832783696583,-39.414359752477111,376.8431],[-69.0654736805183,-39.4199526708926,385.1624],[-69.05546530019582,-39.418775214384084,385.5436],[-69.053257569242334,-39.409061198188738,374.5],[-68.96642015173849,-39.394048627705018,429.9421],[-68.937278103152451,-39.394342991832133,374.5],[-68.997622749214443,-39.423485040418171,374.5],[-69.03368235478807,-39.45439327376701,374.5],[-69.048106197017532,-39.461458012818156,374.5],[-69.067387047344653,-39.463812925835214,416.6412],[-69.079455976557043,-39.4599861921825,387.3065],[-69.08931717481596,-39.454098909639868,374.5],[-69.102416378473322,-39.450272175987152,374.911],[-69.11684022070277,-39.45262708900421,389.3071],[-69.143332992144622,-39.464696018216614,375.3123],[-69.158345562628341,-39.467345295360786,374.5],[-69.1696785815229,-39.462341105199556,374.5],[-69.159817383264,-39.439380703283291,374.5],[-69.170856038031431,-39.429961051215088,381.0097],[-69.188812249786466,-39.432021600105,383.8904],[-69.244447069814356,-39.464990382343757,383.9009],[-69.26019555061589,-39.471466393140645,378.9229],[-69.265346922840692,-39.478825496318933,382.0988],[-69.26269764569652,-39.490600061404194,382.0886],[-69.255044178391088,-39.509439365540629,380.7096],[-69.240620336161641,-39.529161762058436,378.4608],[-69.221192303770948,-39.534165952219695,374.5],[-69.172622222794217,-39.534460316346809,390.4989],[-69.186162972642279,-39.547412337940614,440.6146],[-69.206621279477929,-39.557715082390217,426.3129],[-69.226196493932193,-39.56124745191579,405.3053],[-69.2364992383818,-39.553299620483244,377.2073],[-69.269320838556979,-39.55889253889876,383.2914],[-69.306705082702692,-39.588917679866171,379.8624],[-69.3351112209709,-39.628362472901813,382.7583],[-69.3411456855771,-39.661919983394824,382.5274],[-69.316713463025181,-39.655149608470794,380.3691],[-69.2989044333337,-39.658976342123509,378.8623],[-69.287277050312014,-39.653677787835136,382.3326],[-69.250923080611244,-39.62895120115607,393.0626],[-69.221192303770948,-39.618648456706467,388.3985],[-69.09549882148572,-39.596276783044459,394.4609],[-69.006895219219089,-39.558598174771618,374.5],[-68.957589227924544,-39.51944774586309,374.5],[-68.931685184736949,-39.502963354743741,450.0244]]]}
,"properties": {"featurecla": "Reservoir","scalerank": 7,"name": "Embalse Ezequiel Ramos Mexia","name_abb": "Emb. Ezequiel Ramos Mexia","name_alt": null,"note": null,"delta": null,"dam_name": null,"year": -99,"admin": null,"min_zoom": 5.7,"min_label": 6.7,"area_km2": 818.7338,"hist_schema_id": "Elevation0-9000","hist_area_km2": {"375": 799.3151,"400": 14.3929,"425": 3.8802,"450": 0.7854,"475": 0.3602}}}