{"type":"Feature","properties":{"featurecla":"River","scalerank":8,"rivernum":645,"dissolve":"645River","name":"Limay3","name_alt":null,"note":null,"min_zoom":7.0,"strokeweig":0.2,"name_en":"Limay","min_label":8.0},
"geometry":{"type": "LineString","coordinates": [[-71.172216796874991,-41.062334893755875,768.0],[-71.148120117187489,-41.051299737505886,799.7905],[-71.138037109374991,-41.044952081255886,800.1497],[-71.132983398437489,-41.039385675005875,792.3785],[-71.119970703124991,-41.01751067500588,763.5425],[-71.057226562499991,-40.96233489375588,750.5518],[-71.042919921875,-40.94646575313088,740.6985],[-71.03125,-40.928741143755886,766.6542],[-71.0263671875,-40.90691497188088,774.5415],[-71.032958984375,-40.88616301875588,863.2773],[-71.046557617187489,-40.867705987505886,763.2589],[-71.062597656249991,-40.852373956255875,741.9542],[-71.080126953124989,-40.842120050005875,962.8242],[-71.100341796875,-40.833819268755875,736.4872],[-71.118505859374991,-40.82390715938088,925.5386],[-71.129931640624989,-40.808135675005886,894.8588],[-71.132177734374991,-40.798663018755875,917.381],[-71.132568359375,-40.788897393755875,764.7548],[-71.13037109375,-40.77947356563088,779.071],[-71.125097656249991,-40.770830987505875,782.3889],[-71.1181640625,-40.76433684688088,735.8685],[-71.102343749999989,-40.75432708125588,849.9999],[-71.095263671874989,-40.748565362505886,907.2397],[-71.090991210937489,-40.74309661250588,861.4575],[-71.084033203124989,-40.73113372188088,985.6312],[-71.079028320312489,-40.725909112505875,699.5],[-71.063085937499991,-40.71868255000588,1018.8218],[-71.029101562499989,-40.712432550005886,700.736],[-71.015673828124989,-40.70208098750588,699.5],[-71.0126953125,-40.695635675005875,699.5],[-71.009033203125,-40.680498956255875,699.5],[-71.006445312499991,-40.67351653438088,699.5],[-70.999804687499989,-40.66350676875588,714.8087],[-70.991455078125,-40.65447356563088,699.5],[-70.981787109374991,-40.646807550005875,699.5],[-70.971606445312489,-40.640459893755875,699.5],[-70.9208984375,-40.621612237505886,718.0346],[-70.89208984375,-40.61541106563088,699.5],[-70.867773437499991,-40.614092706255875,731.5248]]}}