{"type":"Feature","properties":{"featurecla":"River","scalerank":4,"rivernum":139,"dissolve":"139River","name":"Negro4","name_alt":null,"note":null,"min_zoom":4.0,"strokeweig":0.25,"name_en":"Negro","min_label":5.0},
"geometry":{"type": "LineString","coordinates": [[-68.014013671874991,-38.97478606563088,258.1239],[-67.918212890625,-38.98162200313088,255.1334],[-67.893896484374991,-38.99260833125588,253.8725],[-67.863940429687489,-39.011748956255886,249.9889],[-67.829345703125,-39.02263762813088,247.4298],[-67.75751953125,-39.03289153438088,244.1096],[-67.729736328125,-39.040850518755875,242.5321],[-67.693457031249991,-39.066241143755875,239.3048],[-67.670654296875,-39.077178643755886,237.5102],[-67.648242187499989,-39.07903411250588,238.4489],[-67.579199218749991,-39.05999114375588,232.0941],[-67.540136718749991,-39.055498956255875,229.704],[-67.381103515625,-39.065752862505875,219.3206],[-67.2998046875,-39.09172942500588,216.8356],[-67.25830078125,-39.09929778438088,212.2386],[-67.203222656249991,-39.09783294063088,207.7534],[-67.185302734375,-39.101397393755875,207.6794],[-67.170996093749991,-39.10881926875588,209.3563],[-67.144335937499989,-39.13005950313088,207.3265],[-67.129492187499991,-39.13787200313088,206.0367],[-67.112890624999991,-39.141631768755886,205.0369],[-66.8517578125,-39.13689544063088,186.7019],[-66.656103515624991,-39.095245050005886,225.8499],[-66.609423828124989,-39.091338800005886,205.6437],[-66.293872070312489,-39.12493255000588,160.939],[-66.219897460937489,-39.163604425005886,157.3631],[-66.179003906249989,-39.179229425005886,154.3632],[-66.177197265625,-39.18743255000588,153.872],[-66.098681640624989,-39.19793059688088,151.6904],[-66.049487304687489,-39.228838800005875,148.6638],[-66.013671875,-39.24065520625588,145.6695],[-65.896826171874991,-39.254717706255875,141.3863],[-65.827319335937489,-39.27361419063088,135.8945],[-65.804370117187489,-39.27581145625588,135.6981],[-65.804052734374991,-39.272979425005886,136.1928],[-65.768310546875,-39.254424737505886,129.0],[-65.755541992187489,-39.253252862505875,133.3453],[-65.731787109374991,-39.254717706255875,132.0324],[-65.682421874999989,-39.268096612505886,129.5717],[-65.649951171874989,-39.29241301875588,152.7023],[-65.627685546875,-39.327178643755886,139.8688],[-65.5986328125,-39.390948175005875,123.8493],[-65.572998046875,-39.429229425005886,120.7184],[-65.562841796874991,-39.45720794063088,119.8348],[-65.550390624999991,-39.465166925005875,122.5333],[-65.520800781249989,-39.472979425005875,115.0673],[-65.504565429687489,-39.48015715938088,121.9282],[-65.490820312499991,-39.49089934688088,140.2127],[-65.467871093749991,-39.51946380000588,176.1421],[-65.414306640625,-39.621416925005875,124.1681],[-65.378222656249989,-39.67131926875588,138.2473],[-65.363085937499989,-39.69817473750588,105.4678],[-65.355639648437489,-39.727569268755886,101.5574],[-65.365966796875,-39.76775481563088,102.396],[-65.368457031249989,-39.787920831255875,99.3386],[-65.358691406249989,-39.79656340938088,95.1273],[-65.348242187499991,-39.79973723750588,101.3364],[-65.332324218749989,-39.81389739375588,98.1226],[-65.321459960937489,-39.816924737505886,98.8118],[-65.3076171875,-39.819170831255875,96.3398],[-65.299243164062489,-39.82439544063088,95.1185],[-65.276782226562489,-39.84636809688088,96.6919],[-65.271240234375,-39.84905364375588,96.9074],[-65.259375,-39.85173919063088,93.8454],[-65.256298828125,-39.85051848750588,93.5301],[-65.251269531249989,-39.84758880000588,93.1839],[-65.245214843749991,-39.84490325313088,93.4788],[-65.238940429687489,-39.844268487505886,92.8034],[-65.232470703124989,-39.84734465938088,93.4813],[-65.220800781249991,-39.85613372188088,92.4335],[-65.208300781249989,-39.86003997188088,92.1219],[-65.186572265624989,-39.86956145625588,91.3418],[-65.173779296875,-39.871612237505886,90.528],[-65.129687499999989,-39.86541106563088,85.9921],[-65.02978515625,-39.871612237505886,83.9407],[-64.98203125,-39.869170831255886,82.3479],[-64.960864257812489,-39.87078215938088,78.3266],[-64.937939453125,-39.878448175005886,79.9304],[-64.901318359375,-39.897784112505875,78.6287],[-64.867236328124989,-39.920733331255875,76.13],[-64.835864257812489,-39.948272393755886,74.2059],[-64.795581054687489,-39.995635675005886,71.9838],[-64.781005859375,-40.006670831255875,70.9548],[-64.761572265624991,-40.013702081255886,71.5989],[-64.713818359375,-40.01848723750588,68.2339],[-64.642431640624991,-40.03606536250588,65.2397],[-64.614062499999989,-40.04827239375588,64.418],[-64.568359375,-40.08074309688088,63.3721],[-64.53671875,-40.08757903438088,62.4904],[-64.50732421875,-40.08367278438088,57.2243],[-64.424169921874991,-40.05217864375588,60.3287],[-64.395312499999989,-40.049834893755886,74.6655],[-64.364013671875,-40.05437590938088,73.6274],[-64.305517578124991,-40.07170989375588,91.7738],[-64.270117187499991,-40.091827081255886,89.7535],[-64.251953125,-40.105791925005875,89.9312],[-64.235205078124991,-40.129424737505886,68.2898],[-64.214648437499989,-40.13982512813088,96.9803],[-64.175830078124989,-40.154327081255886,93.0382],[-64.117602539062489,-40.190264581255875,89.2084],[-64.096972656249989,-40.19524505000588,84.8834],[-64.087158203125,-40.19939544063088,89.8688],[-64.089526367187489,-40.208819268755875,86.6983],[-64.100683593749991,-40.22600676875588,42.4007],[-64.094335937499991,-40.233233331255875,44.3231],[-64.0796875,-40.23772551875588,44.9291],[-64.052294921874989,-40.242998956255875,43.3746],[-64.011083984374991,-40.264483331255875,41.3996],[-63.990039062499989,-40.278838800005886,39.2716],[-63.963232421874991,-40.302276300005886,39.3566],[-63.951831054687489,-40.307647393755886,39.7891],[-63.939257812499989,-40.31047942500588,38.1532],[-63.913037109375,-40.312823175005875,36.4231],[-63.906494140625,-40.31707122188088,37.7118],[-63.804931640625,-40.42620208125588,33.5098],[-63.77109375,-40.448565362505875,30.0966],[-63.758349609374989,-40.452471612505875,29.8629],[-63.692138671875,-40.457549737505886,29.5754],[-63.651660156249989,-40.469561456255875,24.9345],[-63.636767578124989,-40.475909112505875,24.9709],[-63.617773437499991,-40.503741143755875,25.6953],[-63.603515625,-40.50994231563088,22.8442],[-63.586669921875,-40.51262786250588,24.4374],[-63.575292968749991,-40.51970794063088,22.6976],[-63.546777343749994,-40.552080987505875,21.4045],[-63.52412109375,-40.59246184688088,17.9864],[-63.441699218749989,-40.67107512813088,12.8932],[-63.387548828124991,-40.70916106563088,6.5]]}}