{"type":"Feature","properties":{"featurecla":"River","scalerank":8,"rivernum":645,"dissolve":"645River","name":"Limay2","name_alt":null,"note":null,"min_zoom":7.0,"strokeweig":0.2,"name_en":"Limay","min_label":8.0},
"geometry":{"type": "LineString","coordinates": [[-70.868359375,-40.61101653438088,727.4635],[-70.854736328125,-40.605987237505886,699.5],[-70.828906249999989,-40.589385675005886,699.5],[-70.812182617187489,-40.584991143755886,699.5],[-70.796484374999991,-40.58513762813088,699.5],[-70.765063476562489,-40.590362237505886,711.9185],[-70.75,-40.59465911250588,761.7213],[-70.717871093749991,-40.59734465938088,611.0873],[-70.6806640625,-40.59026458125588,589.0],[-70.64501953125,-40.576202081255886,589.0],[-70.617846679687489,-40.55852630000588,589.0],[-70.576220703124989,-40.52361419063088,657.7466],[-70.56005859375,-40.51555755000588,608.7604],[-70.536425781249989,-40.512237237505886,589.0],[-70.514599609375,-40.518584893755886,657.4069],[-70.495043945312489,-40.53142669063088,652.8615],[-70.478564453124989,-40.547686456255875,657.6127],[-70.444921874999991,-40.566924737505886,678.2485],[-70.404541015625,-40.566436456255886,713.6],[-70.32568359375,-40.547881768755886,760.4972],[-70.239062499999989,-40.549834893755886,748.7919],[-70.21435546875,-40.53826262813088,676.2822],[-70.2033203125,-40.52068450313088,622.8322],[-70.190966796874989,-40.477862237505875,782.4454],[-70.180346679687489,-40.46575286250588,589.0],[-70.172045898437489,-40.464385675005886,589.0],[-70.151464843749991,-40.46599700313088,629.3397],[-70.1421875,-40.465362237505886,666.4149],[-70.130078125,-40.46160247188088,748.759],[-70.117431640625,-40.45623137813088,737.6989],[-70.105566406249991,-40.44939544063088,683.709],[-70.095751953124989,-40.44133880000588,589.0],[-70.084765624999989,-40.42058684688088,647.2046],[-70.081958007812489,-40.395049737505886,589.0],[-70.081958007812489,-40.343780206255886,589.0],[-70.076953124999989,-40.32097747188088,591.6801],[-70.040576171874989,-40.24431731563088,650.454],[-70.01806640625,-40.214190362505875,589.0],[-70.011083984374991,-40.198077081255875,592.3876],[-70.010009765625,-40.18718840938088,652.3068],[-70.012255859374989,-40.155108331255875,742.5931],[-70.009521484375,-40.143877862505875,730.0535],[-70.000732421875,-40.123077081255886,540.7672],[-69.998144531249991,-40.11199309688088,533.1613],[-69.99169921875,-40.053545831255875,530.9468],[-69.985156249999989,-40.03337981563088,519.7074],[-69.970996093749989,-40.00798919063088,585.2798],[-69.968188476562489,-39.99871184688088,580.4873],[-69.967822265624989,-39.98064544063088,454.6279],[-69.966601562499989,-39.97307708125588,485.8569],[-69.961669921875,-39.963897393755886,461.9524],[-69.94482421875,-39.94744231563088,457.7286],[-69.922460937499991,-39.933916925005875,452.4662],[-69.680468749999989,-39.82317473750588,423.6359],[-69.6640625,-39.819659112505875,421.4842],[-69.631762695312489,-39.817901300005886,418.0447],[-69.540332031249989,-39.826006768755875,410.7898],[-69.516162109374989,-39.82195403438088,410.5862],[-69.49091796875,-39.80925872188088,405.0612],[-69.421435546874989,-39.75383880000588,395.4151],[-69.381762695312489,-39.73040130000588,389.1518],[-69.364111328124991,-39.71721770625588,385.7663],[-69.312792968749989,-39.656084893755875,380.4145]]}}