{"type":"Feature","properties":{"featurecla":"River","scalerank":4,"rivernum":127,"dissolve":"127River","name":"Neuquén","name_alt":null,"note":null,"min_zoom":4.0,"strokeweig":0.15,"name_en":"Neuquén","min_label":5.0},
"geometry":{"type": "LineString","coordinates": [[-70.803466796875,-36.528838800005886,1485.873],[-70.795751953124991,-36.67351653438088,1475.9015],[-70.79150390625,-36.69329192500588,1643.1906],[-70.785986328124991,-36.70330169063088,1593.2769],[-70.768237304687489,-36.72454192500588,1303.9863],[-70.75048828125,-36.759307550005886,1431.2766],[-70.748779296875,-36.76531340938088,1346.5698],[-70.740234375,-36.78557708125588,1287.8544],[-70.720800781249991,-36.798858331255886,1391.5874],[-70.699804687499991,-36.80999114375588,1266.2819],[-70.68671875,-36.82366301875588,1194.2412],[-70.684985351562489,-36.843780206255886,1356.025],[-70.696948242187489,-36.88787200313088,1288.3597],[-70.700366210937489,-36.90935637813088,1287.2614]]}}