{"type":"Feature","properties":{"featurecla":"River","scalerank":4,"rivernum":127,"dissolve":"127River","name":"Neuquén1","name_alt":null,"note":null,"min_zoom":4.0,"strokeweig":0.2,"name_en":"Neuquén","min_label":5.0},
"geometry":{"type": "LineString","coordinates": [[-70.700366210937489,-36.90935637813088,1287.2614],[-70.699316406249991,-36.932159112505886,1290.8347],[-70.677734375,-37.03997161250588,1490.9916],[-70.668505859374989,-37.05339934688088,1273.2748],[-70.654638671874991,-37.068389581255886,1101.4039],[-70.641772460937489,-37.088213800005889,1080.6368],[-70.632861328124989,-37.11028411250588,1050.1426],[-70.630957031249991,-37.13274505000588,1276.5322],[-70.633105468749989,-37.14202239375588,1358.2924],[-70.636816406249991,-37.152178643755889,1189.1946],[-70.641210937499991,-37.16082122188088,1139.2178],[-70.645263671875,-37.166338800005889,1055.3438],[-70.654296875,-37.169756768755889,1090.1113],[-70.667919921875,-37.172393487505886,1021.5896],[-70.680224609374989,-37.17644622188088,1005.3434],[-70.685595703124989,-37.183428643755889,1068.3286],[-70.688281249999989,-37.189288018755889,1056.3267],[-70.693603515625,-37.19426848750588,1120.0071],[-70.6974609375,-37.198760675005886,1069.8141],[-70.695849609374989,-37.20378997188088,1067.9799],[-70.692431640624989,-37.22429778438088,1110.6877],[-70.695239257812489,-37.23381926875588,1068.8442],[-70.708056640624989,-37.249053643755886,1140.8685],[-70.711596679687489,-37.25847747188088,1177.0736],[-70.710791015624991,-37.269854425005889,1013.2913],[-70.699267578124989,-37.31023528438088,1365.9492],[-70.6923828125,-37.319854425005886,949.5543],[-70.669921875,-37.33611419063088,1171.5859],[-70.654345703124989,-37.35295989375588,1161.7673],[-70.629492187499991,-37.36296965938088,1091.2418],[-70.601904296874991,-37.36956145625588,1003.5593],[-70.582568359374989,-37.37175872188088,972.6517],[-70.561450195312489,-37.367998956255889,932.592],[-70.52490234375,-37.354327081255889,972.2374],[-70.462744140624991,-37.34441497188088,969.1879],[-70.44775390625,-37.347198175005886,874.0731],[-70.424414062499991,-37.360381768755886,1124.4077],[-70.411865234375,-37.36492278438088,1095.9365],[-70.325927734375,-37.36492278438088,841.8424],[-70.30625,-37.36785247188088,837.8683],[-70.252001953124989,-37.38396575313088,963.3679],[-70.233154296875,-37.39226653438088,883.8563],[-70.21640625,-37.40813567500588,855.1606],[-70.18916015625,-37.44670989375588,830.6],[-70.174731445312489,-37.45427825313088,954.9052],[-70.157763671874989,-37.45916106563088,951.7026],[-70.134814453124989,-37.47112395625588,904.96],[-70.112158203124991,-37.48650481563088,850.9221],[-70.095947265625,-37.501495050005886,778.9384],[-70.0783203125,-37.536163018755886,769.4205],[-70.047460937499991,-37.62224700313088,800.1472],[-70.021484375,-37.65227630000588,743.5231],[-70.004492187499991,-37.65740325313088,737.1736],[-69.96630859375,-37.659698175005886,731.5461],[-69.948828124999991,-37.669756768755889,781.2086],[-69.938085937499991,-37.67400481563088,737.106],[-69.91162109375,-37.67229583125588,721.7268],[-69.901049804687489,-37.676592706255889,718.9219],[-69.891650390624989,-37.687530206255886,716.5427],[-69.8857421875,-37.69793059688088,713.1412],[-69.876806640624991,-37.72112395625588,743.4317],[-69.860888671874989,-37.791827081255889,689.4355],[-69.860107421875,-37.803741143755886,843.6741],[-69.854418945312489,-37.80828215938088,698.5259],[-69.859375,-37.81829192500588,688.0856],[-69.873388671874991,-37.83440520625588,687.989],[-69.872998046875,-37.841827081255886,761.0211],[-69.856982421874989,-37.87883880000588,666.5778],[-69.832275390625,-37.96770598750588,814.1488],[-69.818945312499991,-37.982940362505886,702.8753],[-69.816015624999991,-37.99212005000588,671.6292],[-69.8203125,-38.00335051875588,704.7697],[-69.838916015624989,-38.024737237505875,622.2148],[-69.842700195312489,-38.037139581255886,620.7606],[-69.835131835937489,-38.05388762813088,627.6594],[-69.744311523437489,-38.158233331255886,605.2031],[-69.726000976562489,-38.17302825313088,655.8269],[-69.706347656249989,-38.199053643755875,675.7745],[-69.702978515624991,-38.233916925005886,642.2735],[-69.712329101562489,-38.310870050005875,680.5092],[-69.7041015625,-38.35173919063088,549.7488],[-69.680029296874991,-38.38347747188088,609.7493],[-69.53583984375,-38.48308684688088,518.3014],[-69.523193359375,-38.485674737505875,516.4088],[-69.508471679687489,-38.48552825313088,535.386],[-69.486743164062489,-38.48894622188088,509.8025],[-69.456298828125,-38.50701262813088,603.112],[-69.406591796874991,-38.566924737505886,613.2278],[-69.376074218749991,-38.588897393755886,591.3369],[-69.35546875,-38.594756768755886,488.6943],[-69.172949218749991,-38.60003020625588,495.6189],[-69.116625976562489,-38.58831145625588,457.8774],[-69.06494140625,-38.553741143755886,448.5045],[-69.043554687499991,-38.525713800005875,443.1763],[-69.0341796875,-38.51628997188088,441.3469],[-68.970141601562489,-38.47576262813088,430.2043],[-68.909472656249989,-38.392120050005886,415.0484],[-68.889697265624989,-38.37346770625588,411.3705],[-68.85888671875,-38.361651300005875,407.8624],[-68.822558593749989,-38.35369231563088,403.6736],[-68.785742187499991,-38.351104425005886,421.801],[-68.753515624999991,-38.35540130000588,452.1451],[-68.728369140624991,-38.364092706255875,488.3244],[-68.705322265625,-38.37493255000588,469.3036],[-68.552539062499989,-38.470049737505875,364.8364],[-68.493994140624991,-38.51970794063088,353.3473],[-68.469970703125,-38.530596612505875,351.0307],[-68.411303710937489,-38.54900481563088,342.1946],[-68.38818359375,-38.56536223750588,339.4357],[-68.354541015624989,-38.618487237505875,327.1649],[-68.333984375,-38.63396575313088,323.3752],[-68.2822265625,-38.657745050005886,315.2458],[-68.225683593749991,-38.69670989375588,308.7322],[-68.179003906249989,-38.74285247188088,300.0702],[-68.049560546875,-38.90374114375588,269.8391],[-68.03759765625,-38.92693450313088,266.9583],[-68.035205078124989,-38.94500090938088,275.7119],[-68.036914062499989,-38.959014581255886,264.1609],[-68.03173828125,-38.969756768755886,259.5987],[-68.014013671874991,-38.97478606563088,258.1239]]}}