{"type":"Feature","properties":{"featurecla":"Lake Centerline","scalerank":8,"rivernum":645,"dissolve":"645Lake Centerline","name":"Limay","name_alt":null,"note":null,"min_zoom":7.0,"strokeweig":0.2,"name_en":"Limay","min_label":8.0},
"geometry":{"type": "LineString","coordinates": [[-69.312792968749989,-39.656084893755875,380.4145],[-69.310717773437489,-39.651397393755886,379.3349],[-69.304248046874989,-39.641436456255875,378.0799],[-69.282031249999989,-39.61467864375588,374.5],[-69.265307617187489,-39.598467706255875,374.5],[-69.244580078125,-39.58562590938088,374.5],[-69.211376953125,-39.57097747188088,374.5],[-69.189624023437489,-39.56487395625588,374.5],[-69.184179687499991,-39.562530206255886,374.5],[-69.135546874999989,-39.534991143755875,374.5],[-69.121337890625,-39.52947356563088,374.5],[-69.10986328125,-39.526690362505875,374.5],[-69.079833984375,-39.52678801875588,374.5],[-69.051855468749991,-39.52434661250588,374.5],[-69.045751953124991,-39.52263762813088,374.5],[-69.019824218749989,-39.50994231563088,374.5],[-68.972998046874991,-39.493682550005886,374.5],[-68.962329101562489,-39.48870208125588,374.5],[-68.953784179687489,-39.480791925005875,374.5],[-68.943041992187489,-39.46819426875588,374.5],[-68.904833984374989,-39.413409112505875,374.5],[-68.898535156249991,-39.40740325313088,374.5],[-68.887377929687489,-39.399444268755886,374.5],[-68.835302734374991,-39.37444426875588,374.5],[-68.830249023437489,-39.36809661250588,374.5],[-68.825122070312489,-39.358721612505875,374.5],[-68.80908203125,-39.307647393755886,374.5],[-68.7978515625,-39.293487237505886,375.3021],[-68.776782226562489,-39.281768487505886,374.5],[-68.760546874999989,-39.266436456255875,374.5]]}}