{"type":"Feature","properties":{"featurecla":"River","scalerank":8,"rivernum":645,"dissolve":"645River","name":"Limay1","name_alt":null,"note":null,"min_zoom":7.0,"strokeweig":0.2,"name_en":"Limay","min_label":8.0},
"geometry":{"type": "LineString","coordinates": [[-68.010546874999989,-38.975616143755886,259.6254],[-68.117480468749989,-38.997100518755886,303.9954],[-68.151123046875,-38.99724700313088,311.4764],[-68.197314453124989,-38.98455169063088,270.5069],[-68.215991210937489,-38.982940362505886,276.0342],[-68.2314453125,-38.98650481563088,275.6886],[-68.244921874999989,-38.99309661250588,313.9402],[-68.258544921875,-38.996416925005875,312.47],[-68.28759765625,-38.98406340938088,272.375],[-68.309423828124991,-38.963213800005875,279.3128],[-68.321044921875,-38.96184661250588,279.6315],[-68.362890624999991,-38.991729425005886,281.9765],[-68.379687499999989,-38.99602630000588,282.8474],[-68.411914062499989,-39.010284112505886,286.0611],[-68.476806640625,-39.073077081255875,340.3707],[-68.509765625,-39.08733489375588,340.7674],[-68.542089843749991,-39.092803643755886,300.3143],[-68.574560546874991,-39.107745050005875,291.5],[-68.604736328125,-39.129717706255875,311.5],[-68.6298828125,-39.15618255000588,311.5],[-68.659838867187489,-39.200518487505875,325.6584],[-68.671557617187489,-39.213702081255875,347.6432],[-68.687255859375,-39.22576262813088,313.8112],[-68.704638671874989,-39.234698175005875,311.5],[-68.747314453125,-39.249346612505875,369.9662],[-68.760546874999989,-39.266436456255875,374.5]]}}