{"type": "Feature","bbox": [-65.7896,-42.0027,-64.6058,-39.9256],"geometry": {"type": "MultiPolygon","coordinates": [[[[-64.9999,-41.9999,0.0],[-65.0001,-41.9999,0.0],[-65.0001,-42.0001,0.0],[-64.9999,-42.0001,0.0],[-64.9999,-41.9999,0.0]]],
[[[-65.0251,-41.4471,0.0],[-65.0279,-41.4465,0.0],[-65.0285,-41.4476,0.0],[-65.024,-41.4485,0.0],[-65.0251,-41.4471,0.0]]],
[[[-65.046,-41.4137,0.0],[-65.0462,-41.411,0.0],[-65.0476,-41.411,0.0],[-65.0515,-41.4118,0.0],[-65.0521,-41.4143,0.0],[-65.051,-41.4129,0.0],[-65.046,-41.4137,0.0]]],
[[[-65.1832,-41.9989,81.5679],[-65.069,-41.9976,5.9674],[-65.0676,-41.9929,0.341],[-65.066,-41.9926,0.0],[-65.069,-41.9885,2.2822],[-65.069,-41.9871,4.0335],[-65.0654,-41.9865,0.0],[-65.0707,-41.9693,0.0],[-65.0696,-41.9649,0.0],[-65.071,-41.9585,0.0507],[-65.0679,-41.9538,0.0],[-65.0693,-41.9496,4.859],[-65.0638,-41.9424,5.2882],[-65.0629,-41.9282,5.5577],[-65.0646,-41.9212,8.443],[-65.061,-41.911,0.1219],[-65.0646,-41.9071,0.2638],[-65.0668,-41.9074,1.941],[-65.0668,-41.9057,0.9094],[-65.0635,-41.9049,0.0],[-65.0615,-41.9021,1.1724],[-65.0596,-41.9038,0.0],[-65.0565,-41.9029,0.1594],[-65.056,-41.896,0.0],[-65.0579,-41.8907,0.0],[-65.0568,-41.8871,0.0],[-65.0596,-41.8854,2.2333],[-65.0585,-41.8826,4.1023],[-65.0551,-41.8829,1.4863],[-65.0524,-41.8793,0.4539],[-65.0465,-41.8799,0.0],[-65.0432,-41.8749,0.0],[-65.0357,-41.874,0.0],[-65.036,-41.8724,0.0],[-65.0418,-41.8693,0.0],[-65.0449,-41.8696,2.4131],[-65.0476,-41.8624,0.6666],[-65.0451,-41.8596,0.0],[-65.0457,-41.8546,0.0],[-65.0424,-41.8549,0.0],[-65.0401,-41.8512,0.1337],[-65.0379,-41.8515,0.0],[-65.0371,-41.8488,0.0],[-65.0457,-41.8479,0.0],[-65.0488,-41.8504,7.2593],[-65.0504,-41.8468,1.4695],[-65.0504,-41.8404,3.2176],[-65.0488,-41.8396,3.2176],[-65.0468,-41.841,0.0],[-65.0457,-41.8371,0.0],[-65.0399,-41.8315,0.0],[-65.0368,-41.8326,2.9251],[-65.0382,-41.834,0.0],[-65.0326,-41.8351,0.0],[-65.0229,-41.8335,2.3177],[-65.021,-41.8365,0.0],[-65.0163,-41.8335,0.1949],[-65.0137,-41.8174,1.0422],[-65.0163,-41.799,0.0],[-65.0188,-41.7993,4.4006],[-65.0179,-41.7962,6.4817],[-65.0151,-41.7926,0.0],[-65.014,-41.7854,1.1088],[-65.0104,-41.7779,9.7743],[-65.0065,-41.7782,0.0],[-65.0013,-41.7735,0.0],[-64.9962,-41.7724,0.0],[-64.9957,-41.7704,0.0],[-64.9976,-41.769,0.0],[-64.9938,-41.7637,0.0],[-64.9946,-41.7624,0.0],[-65.0018,-41.7629,0.0],[-65.0032,-41.7604,6.02],[-65.0024,-41.7551,0.0],[-65.0124,-41.7504,2.2646],[-65.0137,-41.7476,1.432],[-65.0124,-41.7451,0.0],[-65.0137,-41.7385,1.5412],[-65.0146,-41.7368,0.2895],[-65.0218,-41.7354,9.155],[-65.0196,-41.734,2.7721],[-65.0193,-41.7285,0.0],[-65.0207,-41.7249,0.2531],[-65.024,-41.726,9.5652],[-65.0254,-41.7235,5.6976],[-65.0251,-41.721,6.7911],[-65.0215,-41.7185,0.0],[-65.0204,-41.7121,0.3011],[-65.0224,-41.7115,6.2031],[-65.0193,-41.7085,0.0],[-65.0235,-41.7049,1.6729],[-65.0212,-41.6987,0.3181],[-65.006,-41.6976,0.0],[-65.0132,-41.6968,0.0],[-65.0132,-41.6951,0.0],[-65.0149,-41.6946,0.568],[-65.0232,-41.6954,3.3073],[-65.0257,-41.6932,2.1998],[-65.0263,-41.6907,8.3765],[-65.0237,-41.6901,0.5934],[-65.0237,-41.6835,0.0],[-65.0249,-41.6768,0.0],[-65.0268,-41.6738,0.0],[-65.0287,-41.6738,11.3597],[-65.0287,-41.6721,8.6568],[-65.0257,-41.6715,0.0],[-65.0235,-41.6679,0.0],[-65.0232,-41.6501,0.0],[-65.0207,-41.6443,0.0],[-65.0226,-41.6424,0.0],[-65.021,-41.6351,0.0],[-65.0224,-41.6326,0.0],[-65.0268,-41.631,6.4391],[-65.0232,-41.6207,1.5654],[-65.0287,-41.616,5.5531],[-65.0265,-41.6154,0.0],[-65.0282,-41.6115,2.7179],[-65.0263,-41.6099,1.948],[-65.0201,-41.6126,0.9124],[-65.0157,-41.6113,0.0],[-65.0124,-41.6079,0.3432],[-65.0085,-41.5951,0.0],[-65.0004,-41.5804,3.4306],[-64.9968,-41.5782,0.0],[-64.9882,-41.579,0.2396],[-64.986,-41.5776,0.2413],[-64.9868,-41.5762,0.0],[-64.9907,-41.5762,0.0],[-64.9926,-41.5735,0.0],[-65.0004,-41.5732,3.3858],[-65.0054,-41.5635,1.5192],[-65.0043,-41.5604,0.2322],[-65.0065,-41.5582,0.6409],[-65.0085,-41.5585,4.5076],[-65.0062,-41.5524,4.3376],[-65.0051,-41.551,1.437],[-65.0035,-41.5515,0.3965],[-65.0049,-41.5493,4.5467],[-65.0032,-41.5485,4.5467],[-65.0032,-41.5462,7.8145],[-65.001,-41.5471,0.0],[-65.0004,-41.5501,0.0],[-64.9965,-41.5482,0.0],[-64.9935,-41.5499,0.0],[-64.9924,-41.5429,0.0],[-64.9896,-41.539,0.4087],[-64.9893,-41.5243,1.2805],[-64.9865,-41.5229,0.0],[-64.9885,-41.5215,0.4338],[-64.9882,-41.5185,0.0],[-64.9907,-41.5143,0.0],[-64.9899,-41.5112,0.0],[-64.9921,-41.5099,0.3904],[-64.9907,-41.5068,0.0],[-64.991,-41.5043,0.2659],[-64.9929,-41.5035,5.0624],[-64.9918,-41.5007,0.0],[-64.9946,-41.4965,0.5012],[-64.9971,-41.496,0.435],[-64.9971,-41.4912,0.7379],[-64.9951,-41.4907,0.0],[-64.9971,-41.4901,0.7379],[-65.0013,-41.4837,0.0],[-65.0088,-41.4826,0.0],[-65.0132,-41.4749,0.1886],[-65.0174,-41.476,0.2411],[-65.0168,-41.4729,0.0],[-65.0218,-41.4715,0.0],[-65.0246,-41.4726,0.0],[-65.0257,-41.4663,0.0],[-65.0326,-41.4629,0.0],[-65.0232,-41.4624,0.0],[-65.0196,-41.4612,0.0],[-65.0201,-41.4601,0.0],[-65.0274,-41.4596,0.3336],[-65.0299,-41.461,0.0],[-65.0338,-41.4593,0.0],[-65.0357,-41.4612,0.0],[-65.0351,-41.4574,0.0],[-65.0379,-41.4571,0.0],[-65.0407,-41.4593,0.0],[-65.0404,-41.4612,0.0],[-65.0335,-41.4635,0.0],[-65.0338,-41.4671,0.6435],[-65.0407,-41.4624,0.0],[-65.0432,-41.4596,0.0],[-65.0424,-41.4576,0.0],[-65.039,-41.4557,0.0],[-65.0385,-41.4535,0.0],[-65.0351,-41.4532,0.0],[-65.0332,-41.4496,0.0],[-65.0338,-41.4465,0.0],[-65.0365,-41.4437,0.0],[-65.0312,-41.4451,0.0],[-65.031,-41.4426,0.8922],[-65.0279,-41.4401,1.3888],[-65.0299,-41.4362,0.0],[-65.0371,-41.4393,0.3644],[-65.0404,-41.439,0.8976],[-65.0365,-41.4362,0.0],[-65.0321,-41.4362,0.7469],[-65.0332,-41.434,0.0],[-65.0418,-41.4346,0.0],[-65.034,-41.4324,0.0],[-65.031,-41.4343,0.0],[-65.0332,-41.4315,0.0],[-65.0401,-41.4318,0.0],[-65.0393,-41.4299,0.3385],[-65.0329,-41.4276,0.0],[-65.0387,-41.426,4.1132],[-65.0415,-41.4226,0.0],[-65.0468,-41.4268,0.7752],[-65.0568,-41.4232,0.0],[-65.0604,-41.4201,0.0],[-65.061,-41.4174,0.0],[-65.069,-41.4132,0.0],[-65.0721,-41.4054,0.0],[-65.0751,-41.4021,2.5493],[-65.0718,-41.3963,0.0],[-65.076,-41.384,0.3563],[-65.0793,-41.3835,0.3486],[-65.0757,-41.3815,0.0],[-65.0779,-41.3785,0.9589],[-65.0776,-41.3721,0.0],[-65.0849,-41.366,0.0],[-65.0904,-41.3646,7.6946],[-65.0907,-41.3535,2.1725],[-65.0929,-41.3435,0.0],[-65.096,-41.3418,0.4197],[-65.0979,-41.3362,0.0],[-65.0993,-41.3354,0.0],[-65.1018,-41.3368,7.5713],[-65.1001,-41.3332,1.8024],[-65.0982,-41.3326,1.411],[-65.0985,-41.3229,2.0507],[-65.1035,-41.3168,0.0],[-65.1093,-41.3032,4.5419],[-65.1085,-41.2951,0.8736],[-65.1099,-41.294,0.0],[-65.1096,-41.2915,0.0],[-65.1118,-41.2907,0.0],[-65.1121,-41.2874,0.0],[-65.1165,-41.2843,5.252],[-65.1174,-41.2721,0.9656],[-65.1199,-41.2649,0.3906],[-65.1182,-41.2599,0.0],[-65.1201,-41.2568,0.0],[-65.1171,-41.2529,0.0],[-65.1207,-41.2454,0.0],[-65.119,-41.2421,0.0],[-65.1212,-41.2421,0.0],[-65.1204,-41.2385,0.0],[-65.1268,-41.2212,0.0],[-65.1301,-41.2038,0.0],[-65.1338,-41.1971,0.0],[-65.1332,-41.1949,0.0],[-65.1349,-41.194,0.0],[-65.1357,-41.1862,0.0],[-65.1396,-41.1835,0.0],[-65.1404,-41.1762,0.0],[-65.1443,-41.1751,0.0],[-65.1435,-41.1721,0.0],[-65.1449,-41.1707,0.0],[-65.1413,-41.1576,0.0],[-65.1432,-41.1557,0.0],[-65.1418,-41.1499,0.0],[-65.144,-41.1493,0.0],[-65.1451,-41.1463,0.0],[-65.144,-41.1424,0.0],[-65.1462,-41.1393,0.0],[-65.1454,-41.1343,0.0],[-65.1474,-41.1335,0.0],[-65.1451,-41.1307,0.0],[-65.149,-41.1251,0.0],[-65.1487,-41.1188,0.0],[-65.1471,-41.1162,0.0],[-65.1487,-41.1087,0.0],[-65.1462,-41.1043,0.0],[-65.1462,-41.101,0.0],[-65.1504,-41.0979,0.0],[-65.149,-41.0957,0.0],[-65.1513,-41.094,0.0],[-65.1524,-41.0865,0.0],[-65.1543,-41.0857,0.0],[-65.1532,-41.0804,0.0],[-65.1557,-41.0801,0.0],[-65.1557,-41.0768,0.0],[-65.1576,-41.0754,0.0],[-65.1557,-41.0732,0.0],[-65.1574,-41.0585,0.0],[-65.1518,-41.0554,0.0],[-65.1493,-41.0474,0.0],[-65.1515,-41.0418,0.0],[-65.1504,-41.0368,0.0],[-65.1524,-41.0343,0.0],[-65.1493,-41.0329,0.0],[-65.1487,-41.0296,0.0],[-65.1515,-41.0199,0.0],[-65.154,-41.0174,0.0],[-65.1535,-41.0085,0.0],[-65.149,-41.0054,0.0],[-65.1518,-41.0043,0.0],[-65.1513,-41.0007,0.0],[-65.154,-41.0004,0.0],[-65.1496,-40.9943,0.0],[-65.1496,-40.9901,0.0],[-65.1507,-40.9882,0.0],[-65.1532,-40.9882,0.0],[-65.1551,-40.9837,0.0],[-65.1537,-40.9824,0.0],[-65.1601,-40.9751,0.0],[-65.1574,-40.971,0.0],[-65.1588,-40.9637,0.0],[-65.1562,-40.9621,0.0],[-65.1551,-40.956,0.0],[-65.1551,-40.9529,0.0],[-65.1576,-40.9538,0.0],[-65.1582,-40.9512,0.0],[-65.151,-40.9429,0.0],[-65.154,-40.9401,0.0],[-65.1532,-40.9379,0.0],[-65.1496,-40.9374,0.0],[-65.1521,-40.9315,0.0],[-65.1513,-40.9287,0.0],[-65.1471,-40.926,0.0],[-65.146,-40.9224,0.0],[-65.1479,-40.9199,0.0],[-65.1474,-40.9126,0.0],[-65.1399,-40.9024,0.0],[-65.1374,-40.8957,0.0],[-65.1304,-40.8896,0.0],[-65.1304,-40.8876,0.0],[-65.1218,-40.8851,0.0],[-65.1218,-40.8818,0.0],[-65.119,-40.8776,0.0],[-65.1232,-40.8754,0.0],[-65.1237,-40.8707,0.0],[-65.1157,-40.8668,0.0],[-65.1204,-40.8665,0.0],[-65.1201,-40.8632,0.0],[-65.1224,-40.8626,0.0],[-65.121,-40.8599,0.0],[-65.1232,-40.8593,0.0],[-65.1246,-40.8549,0.0],[-65.1235,-40.8529,0.0],[-65.1204,-40.8521,0.0],[-65.1201,-40.8499,0.0],[-65.1168,-40.8493,0.0],[-65.1143,-40.8432,0.0],[-65.1104,-40.8421,0.0],[-65.1126,-40.8385,0.0],[-65.1104,-40.8362,0.0],[-65.111,-40.8346,0.0],[-65.1012,-40.8265,0.0],[-65.0968,-40.8265,0.0],[-65.0976,-40.8246,0.0],[-65.0954,-40.8215,0.0],[-65.0876,-40.8162,0.0],[-65.0882,-40.8146,0.0],[-65.0907,-40.8151,0.0],[-65.0896,-40.8126,18.3687],[-65.0865,-40.8107,6.9022],[-65.0829,-40.811,0.0],[-65.071,-40.8074,0.0],[-65.0629,-40.8029,0.0],[-65.0524,-40.7957,0.0],[-65.0488,-40.7907,0.0],[-65.0437,-40.789,0.0],[-65.0429,-40.7871,0.0],[-65.0399,-40.786,0.0],[-65.0399,-40.7843,0.0],[-65.0249,-40.7746,0.0],[-65.0193,-40.7687,0.0],[-65.021,-40.7674,0.0],[-65.0207,-40.7649,0.7145],[-65.0176,-40.7651,0.0],[-65.0124,-40.7624,3.484],[-64.994,-40.7576,11.8914],[-64.9546,-40.7554,3.0931],[-64.9274,-40.7576,7.3538],[-64.909,-40.7626,3.1935],[-64.9054,-40.7621,4.012],[-64.9051,-40.7637,0.0],[-64.9088,-40.7643,0.0],[-64.9099,-40.7674,0.0],[-64.9049,-40.7668,0.0],[-64.9007,-40.7615,0.0],[-64.8999,-40.7624,0.0],[-64.9007,-40.7643,0.0],[-64.899,-40.7646,0.0],[-64.8962,-40.7562,0.0],[-64.9001,-40.7443,0.0],[-64.9015,-40.7443,0.0],[-64.901,-40.7415,0.0],[-64.9035,-40.7404,0.0],[-64.9107,-40.729,0.0],[-64.9199,-40.7271,0.0],[-64.9221,-40.7243,0.0],[-64.9112,-40.7271,0.0],[-64.9015,-40.7393,0.0],[-64.8965,-40.7412,0.0],[-64.8993,-40.7435,0.0],[-64.8965,-40.7482,0.0],[-64.8974,-40.7518,0.0],[-64.896,-40.754,0.0],[-64.8951,-40.7493,0.0],[-64.8932,-40.7565,0.0],[-64.8938,-40.7604,0.0],[-64.8874,-40.7607,0.0],[-64.8865,-40.7624,0.0],[-64.8851,-40.761,0.0],[-64.8865,-40.7593,0.0],[-64.886,-40.7546,0.0],[-64.8829,-40.7493,0.0],[-64.876,-40.7493,0.0],[-64.8746,-40.7474,0.0],[-64.8785,-40.7449,0.0],[-64.8785,-40.7421,0.0],[-64.8904,-40.7415,0.0],[-64.8901,-40.7343,0.0],[-64.8926,-40.7326,0.0],[-64.8918,-40.729,0.0],[-64.884,-40.7299,0.0],[-64.8732,-40.7349,0.0],[-64.8674,-40.731,0.0],[-64.8704,-40.7276,0.0],[-64.8632,-40.7282,0.0],[-64.8618,-40.7271,0.0],[-64.861,-40.7282,0.0],[-64.8651,-40.7307,0.0],[-64.8624,-40.7299,0.0],[-64.8593,-40.731,0.0],[-64.8582,-40.7332,0.0],[-64.8596,-40.7382,0.0],[-64.864,-40.741,0.0],[-64.8585,-40.7426,0.0],[-64.8538,-40.7421,0.0],[-64.8518,-40.7515,0.0],[-64.846,-40.7543,0.0],[-64.8379,-40.7501,0.0],[-64.8343,-40.7504,0.0],[-64.8374,-40.751,0.0],[-64.8446,-40.7571,0.0],[-64.8396,-40.7582,0.0],[-64.8393,-40.7562,0.0],[-64.8362,-40.7546,0.0],[-64.8279,-40.7657,0.0],[-64.8304,-40.7668,0.0],[-64.8296,-40.7696,0.0],[-64.8357,-40.7718,0.0],[-64.8376,-40.7743,0.0],[-64.8365,-40.7749,0.0],[-64.824,-40.7679,0.0],[-64.8238,-40.771,0.0],[-64.8213,-40.7704,0.0],[-64.8215,-40.7721,0.0],[-64.8249,-40.7737,0.0],[-64.8238,-40.7768,0.4313],[-64.8343,-40.7774,0.0],[-64.834,-40.7785,0.0],[-64.8224,-40.7788,0.0],[-64.8132,-40.7821,0.0],[-64.8049,-40.781,0.0],[-64.7965,-40.7835,0.0],[-64.7865,-40.7829,0.0],[-64.779,-40.7871,0.0],[-64.7804,-40.7879,0.0],[-64.7757,-40.791,0.0],[-64.7768,-40.7924,0.0],[-64.7793,-40.7918,1.4767],[-64.7799,-40.7896,0.0],[-64.7846,-40.7863,0.5438],[-64.8001,-40.7865,0.9529],[-64.8107,-40.7837,0.0],[-64.8154,-40.7837,0.0],[-64.8199,-40.786,0.0],[-64.8187,-40.7882,0.0],[-64.824,-40.7879,0.0],[-64.8251,-40.7863,0.0],[-64.8412,-40.7843,0.811],[-64.8426,-40.7804,0.0],[-64.8465,-40.7799,0.0],[-64.8468,-40.7812,0.0],[-64.8512,-40.7812,0.0],[-64.8649,-40.786,0.0],[-64.8707,-40.7896,0.0],[-64.8704,-40.791,0.0],[-64.8651,-40.7901,0.0],[-64.8662,-40.7912,0.0],[-64.8774,-40.7935,0.0],[-64.8779,-40.7954,1.115],[-64.8829,-40.7971,0.0],[-64.8893,-40.796,0.0],[-64.8863,-40.7985,1.0644],[-64.9024,-40.8024,0.0],[-64.9071,-40.8057,0.0],[-64.9074,-40.8087,0.0],[-64.8996,-40.8171,4.91],[-64.8774,-40.8315,0.0],[-64.8401,-40.8268,0.7635],[-64.8346,-40.8274,0.0],[-64.8343,-40.826,2.6962],[-64.8268,-40.8243,5.9437],[-64.7887,-40.8193,5.4101],[-64.7471,-40.8185,1.4468],[-64.7407,-40.8199,0.0],[-64.741,-40.824,0.0],[-64.7387,-40.8235,0.0],[-64.7376,-40.8251,0.0],[-64.731,-40.8262,0.0],[-64.7235,-40.8324,0.0],[-64.7176,-40.8321,0.0],[-64.716,-40.8354,0.0],[-64.7143,-40.8335,0.0],[-64.7112,-40.8349,0.0],[-64.7074,-40.834,0.0],[-64.7015,-40.8379,0.0],[-64.6982,-40.8365,0.0],[-64.6982,-40.8379,0.0],[-64.6957,-40.8371,0.0],[-64.6951,-40.8385,0.0],[-64.6876,-40.8399,0.0],[-64.6818,-40.839,0.0],[-64.6721,-40.8432,0.0],[-64.6696,-40.8401,0.0],[-64.6651,-40.8424,0.0],[-64.6615,-40.8396,0.0],[-64.659,-40.8396,0.0],[-64.6499,-40.8418,0.4761],[-64.6496,-40.8446,0.0],[-64.6387,-40.8471,0.0],[-64.6315,-40.8474,0.0],[-64.6296,-40.8457,2.0313],[-64.6232,-40.849,0.0],[-64.616,-40.8485,0.0],[-64.6154,-40.8504,0.0],[-64.6146,-40.8488,0.0],[-64.6104,-40.849,2.7917],[-64.611,-40.851,0.0],[-64.6085,-40.849,4.316],[-64.6058,-40.8499,0.0],[-64.6067,-40.4395,116.3626],[-65.1906,-40.4331,-72.5],[-65.1903,-39.9995,136.6666],[-65.1937,-39.9843,137.7827],[-65.2852,-39.9256,130.1692],[-65.7763,-39.927,186.5305],[-65.7896,-41.1709,430.1804],[-65.7497,-41.244,284.4847],[-65.7265,-42.0027,305.8809],[-65.1832,-41.9989,81.5679]]],
[[[-64.9999,-40.9999,0.0],[-65.0001,-40.9999,0.0],[-65.0001,-41.0001,0.0],[-64.9999,-41.0001,0.0],[-64.9999,-40.9999,0.0]]],
[[[-64.8385,-40.779,0.0],[-64.8404,-40.7785,0.0],[-64.8399,-40.7801,0.0],[-64.8354,-40.7801,0.0],[-64.8324,-40.7829,0.0],[-64.8257,-40.7826,0.0],[-64.8265,-40.7812,0.0],[-64.8385,-40.779,0.0]]],
[[[-64.8538,-40.7718,0.0],[-64.861,-40.7724,0.0],[-64.859,-40.7735,0.0],[-64.8601,-40.7749,0.0],[-64.8579,-40.7749,0.0],[-64.8562,-40.7774,0.0],[-64.8493,-40.779,0.0],[-64.841,-40.7779,0.0],[-64.8412,-40.7765,0.0],[-64.8521,-40.7749,0.0],[-64.8538,-40.7718,0.0]]],
[[[-64.8374,-40.7585,0.0],[-64.8396,-40.7582,0.0],[-64.8351,-40.7612,0.0],[-64.8351,-40.7593,0.0],[-64.8374,-40.7585,0.0]]]]}
,"properties": {"GID_2": "ARG.16.11_1","GID_0": "ARG","country": "Argentina","GID_1": "ARG.16_1","state": "RíoNegro","NL_NAME_1": "NA","county": "SanAntonio","VARNAME_2": "SanAntonioOeste","NL_NAME_2": "NA","TYPE_2": "Departamento","ENGTYPE_2": "Department","CC_2": "NA","HASC_2": "AR.RN.SA","name": "SanAntonio.county","area_km2": 14370.34,"hist_schema_id": "Elevation0-9000","hist_area_km2": {"-75": 249.17,"-50": 269.1,"-25": 329.52,"0": 725.18,"25": 870.96,"50": 769.32,"75": 743.78,"100": 785.5,"125": 902.46,"150": 1752.66,"175": 2453.1,"200": 1215.72,"225": 787.4,"250": 660.64,"275": 544.83,"300": 523.2,"325": 330.21,"350": 224.12,"375": 150.95,"400": 61.75,"425": 15.08,"450": 3.63,"475": 1.4,"500": 0.53,"525": 0.14}}}