{"type":"Feature","properties":{"GID_2":"ARG.22.5_1","GID_0":"ARG","country":"Argentina","GID_1":"ARG.22_1","state":"SantiagodelEstero","NL_NAME_1":"NA","county":"Banda","VARNAME_2":"LaBanda","NL_NAME_2":"NA","TYPE_2":"Departamento","ENGTYPE_2":"Department","CC_2":"NA","HASC_2":"AR.SE.BA","name":"Banda.county"},
"geometry":{"type": "MultiPolygon","coordinates": [[[[-64.2267,-27.8153,182.1387],[-64.1133,-27.7674,181.2955],[-64.1121,-27.7749,175.8613],[-63.9529,-27.7589,164.9131],[-63.9474,-27.7152,162.7124],[-63.9321,-27.716,162.0401],[-63.9236,-27.7014,160.5741],[-63.9089,-27.7009,160.2612],[-63.9137,-27.6883,159.1506],[-63.8931,-27.6863,159.455],[-63.8946,-27.6783,159.0341],[-63.9322,-27.6824,162.2347],[-63.9844,-27.5836,162.4288],[-63.9664,-27.5204,157.9911],[-63.9438,-27.4269,156.1855],[-63.9563,-27.421,157.2887],[-63.9951,-27.4253,155.9441],[-63.9855,-27.3599,157.6544],[-64.0022,-27.3576,158.219],[-63.9928,-27.2716,158.8871],[-63.9337,-27.2711,162.5882],[-63.9316,-27.2307,166.7414],[-63.9781,-27.2305,161.8654],[-63.9768,-27.194,164.4595],[-63.956,-27.1939,162.0876],[-63.9543,-27.0551,177.9134],[-64.0389,-27.0558,183.0201],[-64.0414,-27.0997,178.625],[-64.1082,-27.1002,170.2368],[-64.1118,-27.1349,174.4822],[-64.1903,-27.1342,185.2947],[-64.194,-27.2206,169.6985],[-64.3271,-27.1973,246.3473],[-64.3344,-27.2077,249.8036],[-64.4463,-27.1884,290.898],[-64.4494,-27.2025,288.0715],[-64.4624,-27.2023,273.8009],[-64.4498,-27.2807,280.6473],[-64.4821,-27.2788,244.2013],[-64.4901,-27.3199,243.8039],[-64.4959,-27.3187,243.5895],[-64.5096,-27.3829,244.4739],[-64.5242,-27.3834,250.9931],[-64.5856,-27.338,273.8349],[-64.5693,-27.3147,266.8784],[-64.6167,-27.2995,285.3035],[-64.628,-27.4672,242.3213],[-64.612,-27.4646,235.9665],[-64.6022,-27.4686,228.1129],[-64.5916,-27.4795,236.2445],[-64.5842,-27.4923,238.393],[-64.568,-27.5051,236.6958],[-64.5584,-27.5094,235.2819],[-64.537,-27.5122,222.2845],[-64.5227,-27.5187,220.5971],[-64.5133,-27.5304,218.0034],[-64.4852,-27.5597,217.9953],[-64.4683,-27.5952,225.284],[-64.4519,-27.6078,227.7258],[-64.4422,-27.6118,226.9123],[-64.4111,-27.6388,219.9778],[-64.3979,-27.6469,219.1099],[-64.3916,-27.6547,216.6686],[-64.3756,-27.6852,210.4656],[-64.368,-27.692,211.2217],[-64.3409,-27.7081,209.6251],[-64.3374,-27.7119,207.1685],[-64.3311,-27.7302,202.5157],[-64.3214,-27.7418,201.8565],[-64.2819,-27.7672,190.9744],[-64.2383,-27.81,184.4359],[-64.2267,-27.8153,182.1387]]]]}}