{"type":"Feature","properties":{"GID_2":"ARG.16.7_1","GID_0":"ARG","country":"Argentina","GID_1":"ARG.16_1","state":"RíoNegro","NL_NAME_1":"NA","county":"Ñorquinco","VARNAME_2":"NA","NL_NAME_2":"NA","TYPE_2":"Departamento","ENGTYPE_2":"Department","CC_2":"NA","HASC_2":"AR.RN.NO","name":"Ñorquinco.county"},
"geometry":{"type": "MultiPolygon","coordinates": [[[[-69.4284,-42.0066,1264.9578],[-69.3851,-42.0067,1328.3062],[-69.7424,-41.5054,984.1453],[-70.2655,-41.4143,1871.4946],[-70.6186,-41.4144,1406.2478],[-70.6942,-41.4424,996.0012],[-70.8091,-41.5236,1271.519],[-70.9212,-41.4316,1074.0779],[-71.0294,-41.5507,1405.6914],[-71.226,-41.507,2071.447],[-71.2214,-41.6692,1262.7789],[-71.3006,-41.8211,1884.3561],[-71.2208,-41.8577,1529.5554],[-71.2365,-41.9518,987.4509],[-71.1699,-41.9995,724.4816],[-70.5001,-41.9964,951.3522],[-70.4043,-41.9991,764.9333],[-70.1147,-42.0022,929.6296],[-69.4284,-42.0066,1264.9578]]]]}}