{"type":"Feature","properties":{"GID_2":"ARG.1.87_1","GID_0":"ARG","country":"Argentina","GID_1":"ARG.1_1","state":"BuenosAires","NL_NAME_1":"NA","county":"Patagones","VARNAME_2":"CarmendePatagones","NL_NAME_2":"NA","TYPE_2":"Partido","ENGTYPE_2":"Part","CC_2":"NA","HASC_2":"AR.BA.PA","name":"Patagones.county"},
"geometry":{"type": "MultiPolygon","coordinates": [[[[-62.1324,-40.1813,0.4033],[-62.1324,-40.1765,0.7488],[-62.1332,-40.1762,0.5699],[-62.1338,-40.1815,0.0],[-62.1324,-40.1813,0.4033]]],
[[[-62.2429,-40.1799,0.3892],[-62.2412,-40.1796,0.257],[-62.2418,-40.1774,0.0],[-62.2446,-40.1779,0.0],[-62.244,-40.1801,0.1378],[-62.2429,-40.1799,0.3892]]],
[[[-62.0421,-40.154,0.5317],[-62.0438,-40.1515,0.1793],[-62.0435,-40.1549,0.5261],[-62.0357,-40.1579,0.4444],[-62.0374,-40.1543,0.07],[-62.0421,-40.154,0.5317]]],
[[[-62.0571,-40.1776,1.099],[-62.0593,-40.1765,0.8742],[-62.061,-40.1801,0.6067],[-62.0587,-40.1799,0.393],[-62.0571,-40.1776,1.099]]],
[[[-62.0668,-40.1726,1.2755],[-62.0674,-40.1704,0.2391],[-62.0701,-40.1724,0.2976],[-62.0718,-40.1785,0.3642],[-62.0699,-40.179,0.4886],[-62.0685,-40.1776,0.6306],[-62.0668,-40.1726,1.2755]]],
[[[-62.0662,-40.1671,1.0247],[-62.0668,-40.1649,0.8652],[-62.0693,-40.1649,0.3239],[-62.0657,-40.1685,0.3833],[-62.0651,-40.1671,1.0247],[-62.0662,-40.1671,1.0247]]],
[[[-62.0701,-40.1596,0.5923],[-62.0715,-40.1579,0.0],[-62.0715,-40.1615,0.1705],[-62.0696,-40.1629,0.0],[-62.0687,-40.1615,0.0],[-62.0701,-40.1596,0.5923]]],
[[[-62.0937,-40.136,1.0416],[-62.0962,-40.1349,1.0678],[-62.099,-40.1365,1.1467],[-62.1051,-40.1443,0.6261],[-62.1032,-40.1474,0.5042],[-62.099,-40.1457,1.1039],[-62.0985,-40.1524,0.7018],[-62.1035,-40.156,1.1578],[-62.1043,-40.1518,0.1307],[-62.106,-40.1521,0.0],[-62.1068,-40.1546,0.1084],[-62.1037,-40.1574,1.1961],[-62.1076,-40.1596,0.0],[-62.1046,-40.161,0.7994],[-62.1043,-40.1654,0.0],[-62.1068,-40.1685,0.1168],[-62.1015,-40.1707,0.258],[-62.1007,-40.1682,1.2621],[-62.0974,-40.1676,1.6338],[-62.1001,-40.171,0.258],[-62.0971,-40.1732,0.0],[-62.0968,-40.1701,0.9043],[-62.0932,-40.1685,0.9483],[-62.0954,-40.174,1.0883],[-62.0849,-40.179,0.2314],[-62.0862,-40.174,0.8475],[-62.0768,-40.1762,0.0],[-62.0751,-40.1688,1.3759],[-62.0729,-40.1701,1.1819],[-62.0715,-40.1685,0.0],[-62.0735,-40.1632,1.2975],[-62.0724,-40.1585,0.9427],[-62.0754,-40.1574,1.1701],[-62.0757,-40.1512,1.1122],[-62.0743,-40.1482,0.423],[-62.0796,-40.1443,0.0],[-62.079,-40.1465,1.2491],[-62.0851,-40.1485,0.8422],[-62.0829,-40.1524,0.9299],[-62.0849,-40.1521,0.9497],[-62.0865,-40.149,0.5731],[-62.089,-40.1512,0.7143],[-62.0885,-40.1529,0.8498],[-62.0901,-40.1529,0.6412],[-62.0899,-40.151,0.191],[-62.0932,-40.1526,0.0],[-62.0896,-40.1487,0.2994],[-62.0896,-40.1463,0.7138],[-62.0865,-40.1449,0.0],[-62.0887,-40.1454,0.7819],[-62.0874,-40.1418,0.2221],[-62.0904,-40.141,1.1404],[-62.0915,-40.1368,1.3358],[-62.0937,-40.136,1.0416]]],
[[[-62.0576,-40.1485,0.2867],[-62.0571,-40.1454,0.2457],[-62.0585,-40.1451,0.4486],[-62.0596,-40.1476,0.4135],[-62.0576,-40.1485,0.2867]]],
[[[-62.074,-40.1401,0.819],[-62.0757,-40.139,0.0747],[-62.0751,-40.1415,0.0],[-62.0713,-40.144,0.8609],[-62.0699,-40.1407,0.9455],[-62.0679,-40.1418,0.2365],[-62.0685,-40.139,0.2386],[-62.074,-40.1401,0.819]]],
[[[-62.0668,-40.1474,1.1223],[-62.0665,-40.1454,0.6576],[-62.0707,-40.1476,0.9556],[-62.0707,-40.1526,1.0562],[-62.0685,-40.1551,0.0],[-62.064,-40.1554,0.527],[-62.0624,-40.1543,0.3734],[-62.061,-40.1479,0.511],[-62.0618,-40.1465,0.511],[-62.0654,-40.1474,0.8496],[-62.0657,-40.1499,0.972],[-62.0671,-40.1501,1.0403],[-62.0668,-40.1474,1.1223]]],
[[[-62.0612,-40.1432,0.4949],[-62.0615,-40.1404,-0.1641],[-62.0626,-40.1435,0.3005],[-62.0599,-40.1454,0.4486],[-62.0612,-40.1432,0.4949]]],
[[[-62.1043,-40.1304,1.2012],[-62.1093,-40.1301,0.2233],[-62.1093,-40.1326,0.1564],[-62.1068,-40.1346,1.5623],[-62.1057,-40.1382,0.2049],[-62.1035,-40.1379,0.3437],[-62.1012,-40.134,0.7161],[-62.1043,-40.1304,1.2012]]],
[[[-62.1007,-40.1287,0.2366],[-62.1057,-40.1279,0.0755],[-62.1021,-40.1287,0.6587],[-62.1012,-40.131,0.4169],[-62.0996,-40.1301,0.4169],[-62.1007,-40.1287,0.2366]]],
[[[-62.2935,-40.0949,1.1079],[-62.3043,-40.0937,0.0],[-62.3135,-40.0976,0.0],[-62.3176,-40.1012,0.3061],[-62.3171,-40.1174,1.3401],[-62.3138,-40.1229,0.2605],[-62.2996,-40.1246,0.0],[-62.2965,-40.121,1.1609],[-62.2921,-40.1199,0.0],[-62.2915,-40.1171,1.0801],[-62.2879,-40.1149,0.0],[-62.2871,-40.1099,1.4205],[-62.2846,-40.1076,0.2529],[-62.2849,-40.1035,1.3304],[-62.2874,-40.0985,0.2707],[-62.2935,-40.0949,1.1079]]],
[[[-62.239,-40.0801,0.1495],[-62.2385,-40.0785,0.0],[-62.2479,-40.0835,0.0],[-62.2468,-40.0838,0.3515],[-62.239,-40.0801,0.1495]]],
[[[-62.2676,-40.0751,0.2879],[-62.2663,-40.0743,0.3138],[-62.2707,-40.0743,0.1161],[-62.2704,-40.0751,0.6229],[-62.2676,-40.0751,0.2879]]],
[[[-62.3154,-40.0457,0.0],[-62.3196,-40.0449,0.8441],[-62.3185,-40.049,0.3979],[-62.314,-40.0515,0.7391],[-62.3146,-40.0557,0.5842],[-62.3126,-40.0563,0.0],[-62.309,-40.0532,0.0],[-62.309,-40.0515,0.0],[-62.3107,-40.0468,0.2069],[-62.3154,-40.0457,0.0]]],
[[[-62.2721,-40.0346,0.1527],[-62.2735,-40.0335,0.2234],[-62.2746,-40.0337,0.0],[-62.2715,-40.0365,0.0],[-62.2721,-40.0346,0.1527]]],
[[[-62.1232,-40.0274,0.0],[-62.1304,-40.0262,0.4656],[-62.1374,-40.0274,0.0],[-62.1404,-40.0312,0.4476],[-62.149,-40.0332,0.204],[-62.1496,-40.0349,1.2778],[-62.1571,-40.031,0.0],[-62.1618,-40.0326,0.3626],[-62.1571,-40.0368,0.0],[-62.1338,-40.0371,0.0],[-62.1279,-40.0351,0.0],[-62.1254,-40.0285,0.546],[-62.1232,-40.0274,0.0]]],
[[[-62.1649,-40.0243,0.4883],[-62.1682,-40.0229,0.0],[-62.1685,-40.0285,0.0],[-62.164,-40.0315,0.0],[-62.1601,-40.0304,1.2223],[-62.1646,-40.0288,0.9285],[-62.1649,-40.0243,0.4883]]],
[[[-62.2479,-40.0337,0.2173],[-62.2471,-40.0329,0.0],[-62.2474,-40.0307,0.0],[-62.2504,-40.0329,0.0],[-62.2479,-40.0337,0.2173]]],
[[[-62.2149,-40.0051,0.3462],[-62.2174,-40.004,0.6187],[-62.2182,-40.006,0.5543],[-62.2168,-40.0065,0.0],[-62.2149,-40.0051,0.3462]]],
[[[-62.0971,-39.9976,0.1391],[-62.0979,-39.996,0.0],[-62.0971,-39.9999,0.7616],[-62.1096,-39.9999,0.9224],[-62.1085,-39.9987,0.5773],[-62.1104,-39.9985,0.0],[-62.1104,-40.0035,0.0],[-62.1093,-40.004,0.3846],[-62.1085,-40.0024,1.0583],[-62.1093,-40.0001,0.9224],[-62.0971,-40.0001,0.7616],[-62.0976,-40.0018,0.8402],[-62.0921,-40.0068,0.5677],[-62.0904,-40.0021,0.5227],[-62.0943,-40.0021,0.6929],[-62.0971,-39.9976,0.1391]]],
[[[-62.2729,-39.9938,0.3298],[-62.2751,-39.9924,0.6583],[-62.2765,-39.9982,0.0],[-62.2721,-39.9965,0.0],[-62.2729,-39.9938,0.3298]]],
[[[-62.2707,-39.9904,0.321],[-62.2729,-39.9893,0.0],[-62.2743,-39.9904,1.0972],[-62.2713,-39.9951,0.1656],[-62.2696,-39.9935,0.0],[-62.2707,-39.9904,0.321]]],
[[[-62.3054,-39.979,0.7012],[-62.306,-39.9774,0.0],[-62.3082,-39.979,0.5376],[-62.3101,-39.9776,0.2361],[-62.3085,-39.9815,0.3703],[-62.3054,-39.979,0.7012]]],
[[[-62.2476,-39.969,0.466],[-62.2449,-39.9685,0.3387],[-62.2449,-39.9679,0.0],[-62.2485,-39.9682,0.0],[-62.2476,-39.969,0.466]]],
[[[-62.2043,-39.9721,0.1804],[-62.2038,-39.9724,0.1804],[-62.2021,-39.9724,0.0],[-62.206,-39.9715,0.0],[-62.2043,-39.9721,0.1804]]],
[[[-62.2965,-39.9851,0.6494],[-62.2971,-39.9826,0.0],[-62.2996,-39.9821,0.4179],[-62.3026,-39.9868,0.0],[-62.301,-39.9929,1.8242],[-62.2979,-39.9951,0.0],[-62.2957,-39.9954,0.0],[-62.294,-39.9938,0.615],[-62.2863,-39.9974,0.4221],[-62.284,-39.996,1.3169],[-62.2812,-39.9976,1.0009],[-62.2768,-39.9971,0.1907],[-62.2762,-39.9899,0.3197],[-62.2837,-39.9912,0.0],[-62.289,-39.9899,1.285],[-62.2965,-39.9851,0.6494]]],
[[[-62.236,-39.984,0.8858],[-62.2357,-39.9824,0.2578],[-62.2404,-39.9826,0.3044],[-62.2415,-39.984,1.0178],[-62.246,-39.9829,0.1611],[-62.2501,-39.9885,0.0],[-62.2404,-39.9935,0.0],[-62.2387,-39.9863,0.0],[-62.236,-39.984,0.8858]]],
[[[-62.2593,-39.9826,0.2169],[-62.264,-39.9826,0.2201],[-62.2657,-39.9915,1.1999],[-62.2579,-39.9924,0.7008],[-62.2551,-39.9912,0.0],[-62.2585,-39.9871,1.3748],[-62.2593,-39.9826,0.2169]]],
[[[-62.249,-39.9851,0.668],[-62.2493,-39.984,0.1214],[-62.2562,-39.984,0.2079],[-62.2568,-39.986,0.9201],[-62.2537,-39.9885,0.0],[-62.249,-39.9851,0.668]]],
[[[-62.2296,-39.9796,0.5231],[-62.2365,-39.9796,0.1662],[-62.234,-39.9824,0.295],[-62.2357,-39.9871,0.0],[-62.2296,-39.9865,0.0],[-62.2296,-39.9796,0.5231]]],
[[[-62.2062,-39.9724,0.0],[-62.2126,-39.9718,0.0],[-62.2201,-39.979,0.4839],[-62.2174,-39.9796,0.8639],[-62.2171,-39.9818,0.0],[-62.2101,-39.9821,0.0],[-62.2035,-39.976,0.0],[-62.2062,-39.9724,0.0]]],
[[[-62.2687,-40.0093,0.9135],[-62.271,-40.0082,0.3053],[-62.2713,-40.0101,0.1868],[-62.2699,-40.0107,0.2803],[-62.2687,-40.0093,0.9135]]],
[[[-62.2513,-39.9921,0.2455],[-62.2543,-39.991,0.0],[-62.2576,-39.9929,0.7008],[-62.266,-39.9921,1.1999],[-62.2668,-39.996,0.6534],[-62.264,-39.9999,1.0856],[-62.2671,-39.9979,1.2668],[-62.2687,-39.9943,0.0],[-62.2749,-40.0013,0.0],[-62.2707,-40.0071,0.2045],[-62.2668,-40.0085,0.2936],[-62.2657,-40.0062,1.3047],[-62.2621,-40.0046,0.0],[-62.2646,-40.0001,0.3061],[-62.2599,-40.0029,0.3458],[-62.2585,-40.0001,1.1091],[-62.2474,-40.0001,1.3709],[-62.2499,-40.0071,0.0],[-62.2468,-40.0076,0.2606],[-62.2438,-40.0035,0.4818],[-62.2454,-39.999,0.0],[-62.2582,-39.9999,1.1091],[-62.2513,-39.9921,0.2455]]],
[[[-62.316,-39.9262,0.8283],[-62.316,-39.9238,0.4116],[-62.3185,-39.9238,0.9204],[-62.3176,-39.926,0.8283],[-62.319,-39.9276,1.0333],[-62.3154,-39.931,0.0],[-62.3171,-39.9274,0.3326],[-62.316,-39.9262,0.8283]]],
[[[-62.219,-39.9232,1.2127],[-62.221,-39.9226,0.9662],[-62.2199,-39.9268,0.2032],[-62.2149,-39.9304,0.0],[-62.2129,-39.9346,0.0],[-62.2088,-39.9351,0.3022],[-62.2074,-39.9324,0.5515],[-62.2096,-39.9329,1.4147],[-62.2079,-39.9304,0.4836],[-62.2096,-39.9249,0.4411],[-62.2171,-39.926,1.2633],[-62.219,-39.9232,1.2127]]],
[[[-62.2424,-39.9176,0.3041],[-62.2449,-39.9162,0.0],[-62.2468,-39.9182,1.123],[-62.2474,-39.9226,1.4279],[-62.2532,-39.9226,1.1395],[-62.2549,-39.9257,0.7407],[-62.2282,-39.9354,0.0],[-62.2229,-39.9357,0.0],[-62.2218,-39.9321,1.1536],[-62.219,-39.9337,0.6041],[-62.2215,-39.9287,0.2013],[-62.224,-39.9274,0.4433],[-62.2365,-39.9254,0.3882],[-62.2407,-39.9215,1.2982],[-62.2424,-39.9176,0.3041]]],
[[[-62.256,-39.9199,0.992],[-62.2576,-39.919,1.0688],[-62.2596,-39.9196,1.1587],[-62.2593,-39.9207,1.1587],[-62.256,-39.9199,0.992]]],
[[[-62.314,-39.914,0.2404],[-62.3171,-39.9126,0.5371],[-62.3187,-39.9157,1.0598],[-62.3168,-39.9162,0.4922],[-62.314,-39.914,0.2404]]],
[[[-62.2337,-39.914,0.5629],[-62.2371,-39.914,0.9108],[-62.2376,-39.9121,0.6589],[-62.2387,-39.9129,0.6589],[-62.2393,-39.9154,1.8452],[-62.2365,-39.9204,0.7632],[-62.2254,-39.924,1.1498],[-62.2235,-39.921,1.1251],[-62.2257,-39.919,1.1472],[-62.2229,-39.9171,0.2952],[-62.2285,-39.9146,0.9263],[-62.229,-39.9162,0.9263],[-62.2318,-39.916,1.0659],[-62.2337,-39.914,0.5629]]],
[[[-62.2026,-39.9132,0.4607],[-62.2035,-39.9118,0.7287],[-62.206,-39.9126,0.77],[-62.2068,-39.9154,0.7512],[-62.2096,-39.9168,0.9757],[-62.2096,-39.9193,0.7352],[-62.2065,-39.9188,0.0],[-62.2026,-39.9132,0.4607]]],
[[[-62.196,-39.9101,0.3206],[-62.2012,-39.909,0.3075],[-62.2024,-39.9115,0.5121],[-62.1968,-39.9121,0.5173],[-62.196,-39.9101,0.3206]]],
[[[-62.284,-39.9107,0.0],[-62.2854,-39.9074,0.0],[-62.2854,-39.9107,0.0],[-62.284,-39.9115,0.0],[-62.284,-39.9107,0.0]]],
[[[-62.1688,-39.8295,2.1237],[-62.1696,-39.8298,1.5411],[-62.1688,-39.8299,0.8202],[-62.1688,-39.8295,2.1237]]],
[[[-62.1626,-39.8751,0.0],[-62.1637,-39.8743,0.4182],[-62.1685,-39.8749,0.2645],[-62.1643,-39.8757,0.3223],[-62.1626,-39.8751,0.0]]],
[[[-62.1615,-39.8746,0.0],[-62.1629,-39.8726,0.732],[-62.1674,-39.8729,0.3315],[-62.1626,-39.874,0.6111],[-62.1624,-39.8751,0.0],[-62.1615,-39.8746,0.0]]],
[[[-62.2604,-39.8696,1.5405],[-62.2632,-39.869,0.0],[-62.2651,-39.8724,0.2593],[-62.2626,-39.8718,0.693],[-62.2593,-39.874,0.5708],[-62.2526,-39.874,0.1918],[-62.2546,-39.8715,0.3858],[-62.2604,-39.8696,1.5405]]],
[[[-62.2532,-39.891,0.0],[-62.2554,-39.8901,0.6184],[-62.2596,-39.8921,0.3124],[-62.2593,-39.896,0.3703],[-62.254,-39.8957,0.6692],[-62.2499,-39.8929,1.0298],[-62.2532,-39.891,0.0]]],
[[[-62.1857,-39.8921,0.1457],[-62.1851,-39.8913,0.1457],[-62.1904,-39.8907,0.5411],[-62.191,-39.8929,1.2977],[-62.1932,-39.8924,1.0654],[-62.1926,-39.8935,1.2996],[-62.194,-39.8935,1.2996],[-62.194,-39.8918,1.0654],[-62.1993,-39.8926,0.5489],[-62.199,-39.8951,0.9368],[-62.2018,-39.8929,0.6271],[-62.2038,-39.8943,0.653],[-62.2029,-39.8976,1.1352],[-62.204,-39.8982,1.2189],[-62.2062,-39.8963,1.0941],[-62.2107,-39.8987,0.8458],[-62.2107,-39.8971,0.1263],[-62.2129,-39.8963,0.4999],[-62.2129,-39.9001,0.7806],[-62.219,-39.9029,0.7621],[-62.2249,-39.9026,0.3936],[-62.2254,-39.9071,0.2007],[-62.221,-39.9096,0.9678],[-62.2154,-39.9093,1.6889],[-62.2124,-39.9071,1.0446],[-62.2046,-39.9074,1.0088],[-62.1951,-39.8996,0.9532],[-62.1918,-39.8987,0.2392],[-62.189,-39.8926,1.3884],[-62.1857,-39.8921,0.1457]]],
[[[-62.2629,-39.8929,0.0],[-62.2654,-39.8921,0.3376],[-62.269,-39.8937,0.5953],[-62.2751,-39.8937,0.1306],[-62.2788,-39.8974,0.0],[-62.279,-39.9054,0.7938],[-62.2604,-39.9074,2.3637],[-62.2607,-39.9087,0.5567],[-62.2579,-39.9099,0.4706],[-62.2551,-39.9074,1.6402],[-62.2521,-39.9079,1.1291],[-62.2501,-39.9051,1.2778],[-62.2501,-39.8993,0.4079],[-62.2537,-39.896,0.1816],[-62.2568,-39.8979,0.2245],[-62.2596,-39.8976,0.1614],[-62.2629,-39.8929,0.0]]],
[[[-62.2579,-39.8829,0.0],[-62.2599,-39.8821,0.5176],[-62.2607,-39.8835,1.1875],[-62.2635,-39.8835,0.884],[-62.2632,-39.8901,0.8362],[-62.2588,-39.8885,0.7718],[-62.2604,-39.8843,1.1875],[-62.2579,-39.8829,0.0]]],
[[[-62.1507,-39.8737,0.3006],[-62.1521,-39.8721,0.7381],[-62.1585,-39.8721,0.1883],[-62.1596,-39.8765,0.0],[-62.1554,-39.8763,0.5453],[-62.1532,-39.8779,0.4569],[-62.1449,-39.8785,0.5906],[-62.1451,-39.8768,0.9062],[-62.1507,-39.8737,0.3006]]],
[[[-62.2418,-39.891,0.2921],[-62.2438,-39.8899,0.3362],[-62.2468,-39.8921,0.8749],[-62.2429,-39.8935,0.9737],[-62.2424,-39.8957,0.0],[-62.2365,-39.894,0.0],[-62.2379,-39.8918,0.5805],[-62.2418,-39.891,0.2921]]],
[[[-62.2462,-39.8904,0.2883],[-62.2457,-39.8893,0.0],[-62.2474,-39.8887,0.0],[-62.2518,-39.8899,1.2763],[-62.249,-39.8935,0.2964],[-62.2526,-39.8954,0.1816],[-62.2521,-39.8968,0.7196],[-62.244,-39.896,0.8517],[-62.2443,-39.8943,0.3243],[-62.2482,-39.8929,0.4274],[-62.2462,-39.8904,0.2883]]],
[[[-62.1476,-39.8824,0.5512],[-62.149,-39.8804,0.4363],[-62.1535,-39.8815,0.0],[-62.1362,-39.8904,0.1536],[-62.1315,-39.891,0.4648],[-62.1332,-39.8915,0.0],[-62.1321,-39.8929,0.3119],[-62.1237,-39.8943,0.1139],[-62.1349,-39.8862,0.2187],[-62.1457,-39.8851,0.3882],[-62.1476,-39.8824,0.5512]]],
[[[-62.1946,-39.8868,0.136],[-62.1957,-39.8857,0.165],[-62.1982,-39.8862,0.3422],[-62.1976,-39.8871,0.484],[-62.1946,-39.8868,0.136]]],
[[[-62.1771,-39.8874,0.1899],[-62.1768,-39.8818,0.1445],[-62.1843,-39.886,0.3346],[-62.1821,-39.8879,0.7065],[-62.1771,-39.8874,0.1899]]],
[[[-62.154,-39.8779,0.4569],[-62.1593,-39.8771,0.0],[-62.1543,-39.8812,0.471],[-62.1526,-39.8801,0.1745],[-62.1476,-39.8801,0.2619],[-62.1454,-39.8846,0.3882],[-62.1354,-39.8851,0.2187],[-62.1268,-39.8907,0.0],[-62.131,-39.8865,0.3398],[-62.144,-39.8793,0.0],[-62.154,-39.8779,0.4569]]],
[[[-62.269,-39.9468,0.4638],[-62.2721,-39.9463,0.9874],[-62.2701,-39.9496,1.6259],[-62.2746,-39.9529,0.7703],[-62.2707,-39.9546,1.0053],[-62.2685,-39.9524,1.3453],[-62.2668,-39.9549,0.8917],[-62.264,-39.9551,0.0],[-62.2646,-39.9518,0.0],[-62.269,-39.9468,0.4638]]],
[[[-62.1649,-39.9465,0.18],[-62.1632,-39.9435,0.4344],[-62.1651,-39.9424,0.3878],[-62.1662,-39.9457,0.8982],[-62.1649,-39.9465,0.18]]],
[[[-62.1087,-39.9276,0.3766],[-62.1101,-39.9262,0.7249],[-62.1137,-39.9293,0.5154],[-62.1174,-39.9293,0.3659],[-62.1168,-39.9335,0.4565],[-62.1201,-39.9365,1.0616],[-62.1188,-39.9393,1.125],[-62.1207,-39.9396,1.0519],[-62.1199,-39.9401,1.0324],[-62.1204,-39.9432,1.2985],[-62.114,-39.9476,1.5263],[-62.1118,-39.946,1.3935],[-62.114,-39.9426,1.4815],[-62.1171,-39.9432,1.4226],[-62.1179,-39.9399,1.5462],[-62.116,-39.9365,1.6467],[-62.1135,-39.9357,1.4315],[-62.1146,-39.9329,1.1774],[-62.1129,-39.9326,1.0827],[-62.1121,-39.9296,0.984],[-62.1087,-39.9276,0.3766]]],
[[[-62.1843,-39.9029,0.5241],[-62.1843,-39.8996,0.5132],[-62.1862,-39.8987,0.6674],[-62.1918,-39.9079,0.7445],[-62.1879,-39.9087,0.617],[-62.1974,-39.9135,0.4721],[-62.1974,-39.9151,0.8297],[-62.1943,-39.9151,1.0406],[-62.1974,-39.9201,0.1654],[-62.1932,-39.9271,1.1536],[-62.1954,-39.9276,1.1119],[-62.1985,-39.924,1.3369],[-62.2021,-39.9157,0.5172],[-62.2068,-39.9226,0.0],[-62.2032,-39.926,1.6426],[-62.2021,-39.9332,0.8768],[-62.2001,-39.9337,1.6473],[-62.2007,-39.9362,0.3457],[-62.1918,-39.941,1.4361],[-62.1899,-39.944,0.2267],[-62.1718,-39.9457,0.6695],[-62.1685,-39.9474,0.1188],[-62.1685,-39.9449,1.0156],[-62.1818,-39.9435,1.0983],[-62.1779,-39.9429,1.8046],[-62.1738,-39.9437,1.1371],[-62.1699,-39.9421,1.2332],[-62.1721,-39.9393,0.8245],[-62.1818,-39.9399,1.6205],[-62.1829,-39.9374,0.6274],[-62.1801,-39.9329,1.6655],[-62.1715,-39.9329,0.8111],[-62.1699,-39.9301,1.4461],[-62.179,-39.9232,1.1748],[-62.179,-39.9212,1.5467],[-62.1751,-39.9193,0.2845],[-62.1762,-39.9151,0.2469],[-62.1787,-39.9143,0.1766],[-62.1813,-39.9185,0.6943],[-62.1793,-39.9126,1.37],[-62.1771,-39.9115,0.0],[-62.1757,-39.9082,0.8175],[-62.1785,-39.9057,1.2939],[-62.1782,-39.9007,0.9924],[-62.1807,-39.9007,0.0],[-62.1807,-39.9021,0.2729],[-62.1851,-39.9046,1.0185],[-62.1843,-39.9029,0.5241]]],
[[[-62.164,-39.9421,0.3878],[-62.1632,-39.9424,0.8252],[-62.1629,-39.9443,0.4344],[-62.1643,-39.9465,0.18],[-62.1601,-39.9493,1.1117],[-62.1582,-39.9485,1.0465],[-62.1576,-39.9504,0.8092],[-62.151,-39.9518,0.6196],[-62.1512,-39.9476,0.7819],[-62.1524,-39.9493,0.9311],[-62.1587,-39.9476,1.15],[-62.1524,-39.9482,0.9311],[-62.151,-39.9463,1.0784],[-62.1501,-39.9485,0.9055],[-62.1476,-39.9485,0.6473],[-62.1479,-39.951,0.7639],[-62.1457,-39.9515,0.3301],[-62.1463,-39.9538,0.5247],[-62.1454,-39.9521,0.3301],[-62.141,-39.9535,1.4848],[-62.1413,-39.956,1.7273],[-62.1393,-39.9574,1.8674],[-62.136,-39.9579,2.4427],[-62.1335,-39.9554,1.5227],[-62.1304,-39.9557,1.4615],[-62.131,-39.9579,1.1786],[-62.134,-39.9588,1.2675],[-62.1338,-39.9612,0.8315],[-62.1318,-39.9607,0.5227],[-62.1282,-39.9574,1.5608],[-62.1296,-39.9521,1.6194],[-62.1324,-39.951,1.4327],[-62.1318,-39.9474,1.3122],[-62.1299,-39.9463,1.6495],[-62.131,-39.9454,1.4504],[-62.1212,-39.9457,1.4463],[-62.1207,-39.9376,0.6267],[-62.1224,-39.9349,1.1609],[-62.1204,-39.9357,0.8664],[-62.1176,-39.9335,0.4565],[-62.1193,-39.9282,0.4576],[-62.1137,-39.9276,0.2653],[-62.1082,-39.9246,0.4914],[-62.1074,-39.921,1.0874],[-62.109,-39.9171,1.2218],[-62.106,-39.916,1.0524],[-62.1054,-39.9135,0.5676],[-62.111,-39.9101,1.116],[-62.1113,-39.9085,0.8118],[-62.1151,-39.9096,1.1627],[-62.1165,-39.9074,0.3923],[-62.116,-39.9101,1.1627],[-62.1193,-39.9115,0.6193],[-62.1212,-39.9182,0.9707],[-62.121,-39.9115,1.1073],[-62.1176,-39.9101,0.0],[-62.1171,-39.9068,0.3923],[-62.1182,-39.906,1.6653],[-62.1174,-39.9038,1.2517],[-62.1221,-39.8985,0.2037],[-62.1271,-39.9029,0.0],[-62.1318,-39.9149,1.1943],[-62.1351,-39.9174,0.4324],[-62.1354,-39.9196,0.957],[-62.1332,-39.9199,0.9268],[-62.1324,-39.9229,1.6348],[-62.1307,-39.9235,0.5165],[-62.1315,-39.9274,0.845],[-62.1296,-39.9285,1.1171],[-62.1318,-39.9285,0.4925],[-62.1312,-39.9238,0.5165],[-62.1326,-39.9238,0.8306],[-62.1335,-39.9204,0.9268],[-62.1362,-39.9201,0.957],[-62.1362,-39.9171,0.4324],[-62.1329,-39.9151,0.2094],[-62.131,-39.911,0.1953],[-62.1299,-39.9001,0.2106],[-62.1257,-39.8996,0.3291],[-62.1249,-39.8965,0.0],[-62.1387,-39.8918,0.8543],[-62.1429,-39.8882,0.144],[-62.1499,-39.8871,0.4262],[-62.1629,-39.8785,1.1433],[-62.1629,-39.8768,0.2121],[-62.1676,-39.8763,0.9838],[-62.1724,-39.8782,0.1439],[-62.174,-39.881,0.0],[-62.1729,-39.886,0.685],[-62.174,-39.8893,0.0],[-62.1807,-39.8921,0.0],[-62.1793,-39.8963,1.2986],[-62.1743,-39.896,0.8778],[-62.1757,-39.8971,1.4165],[-62.1771,-39.9057,0.9718],[-62.1738,-39.9087,0.8175],[-62.1749,-39.9113,0.7297],[-62.174,-39.9182,0.2845],[-62.1751,-39.9201,1.3536],[-62.1776,-39.9212,0.6997],[-62.1754,-39.9243,1.6397],[-62.1696,-39.9276,0.4744],[-62.1685,-39.9315,1.4106],[-62.1715,-39.9337,0.9116],[-62.1801,-39.934,0.5882],[-62.1821,-39.9385,0.5285],[-62.1693,-39.9388,1.2652],[-62.1671,-39.9404,1.0903],[-62.1688,-39.9432,1.0478],[-62.1665,-39.9437,0.9454],[-62.1668,-39.9407,1.0903],[-62.164,-39.9421,0.3878]]],
[[[-62.7962,-41.0254,4.821],[-62.7954,-41.023,5.4706],[-62.7989,-41.0246,8.1528],[-62.7986,-41.0271,3.6244],[-62.7971,-41.0268,1.8684],[-62.7962,-41.0254,4.821]]],
[[[-62.1751,-40.6271,1.8129],[-62.1749,-40.6251,1.3992],[-62.1776,-40.6279,1.2125],[-62.176,-40.6279,1.2125],[-62.1751,-40.6271,1.8129]]],
[[[-62.2421,-40.6099,0.9293],[-62.2415,-40.6068,0.2141],[-62.2485,-40.6118,0.4843],[-62.2429,-40.6149,0.4485],[-62.2438,-40.6165,0.0],[-62.241,-40.6229,0.2293],[-62.2457,-40.6243,0.2393],[-62.246,-40.6287,0.1429],[-62.241,-40.6312,0.4237],[-62.2401,-40.6274,0.8191],[-62.2374,-40.6249,0.405],[-62.2396,-40.6226,0.2293],[-62.2396,-40.6185,0.9721],[-62.2418,-40.6174,0.5926],[-62.2421,-40.6099,0.9293]]],
[[[-62.1015,-40.5535,2.429],[-62.101,-40.5518,2.0844],[-62.1026,-40.5515,2.5354],[-62.1057,-40.5546,2.7374],[-62.1029,-40.5551,2.6817],[-62.1015,-40.5535,2.429]]],
[[[-62.0993,-40.551,2.4023],[-62.0962,-40.549,1.9166],[-62.0951,-40.544,2.539],[-62.1001,-40.5471,1.398],[-62.101,-40.5501,2.1552],[-62.0993,-40.551,2.4023]]],
[[[-62.316,-40.5246,0.2286],[-62.3174,-40.5232,0.0],[-62.321,-40.5265,0.0],[-62.3179,-40.5351,0.0],[-62.2735,-40.5443,5.187],[-62.2701,-40.546,3.7933],[-62.271,-40.5499,0.0],[-62.2676,-40.5526,0.1006],[-62.2607,-40.5535,0.3886],[-62.2615,-40.5512,3.1404],[-62.2593,-40.551,2.948],[-62.256,-40.5546,1.0113],[-62.2562,-40.5579,0.7737],[-62.2582,-40.5585,0.0],[-62.259,-40.561,0.0],[-62.2549,-40.5604,1.0325],[-62.2562,-40.5646,0.0],[-62.2526,-40.5668,1.8221],[-62.2524,-40.569,0.6914],[-62.2565,-40.5737,0.8841],[-62.2585,-40.5735,0.0],[-62.2582,-40.5779,0.1116],[-62.2565,-40.5804,0.5386],[-62.2529,-40.581,1.2223],[-62.2482,-40.5854,0.0],[-62.2468,-40.5849,2.0549],[-62.2454,-40.5921,1.239],[-62.2412,-40.596,1.8194],[-62.241,-40.6171,0.1327],[-62.2387,-40.6185,0.7283],[-62.2385,-40.6221,0.352],[-62.236,-40.6246,0.405],[-62.2365,-40.6268,0.4403],[-62.2399,-40.6287,0.8518],[-62.2387,-40.631,0.6706],[-62.2407,-40.6338,0.6559],[-62.2485,-40.6413,0.0],[-62.2479,-40.644,0.3004],[-62.2374,-40.646,1.2616],[-62.2201,-40.6435,0.2383],[-62.2068,-40.6326,3.4857],[-62.1949,-40.6293,2.7938],[-62.1932,-40.6307,2.6645],[-62.1835,-40.6243,3.6565],[-62.1832,-40.6215,4.9913],[-62.1801,-40.6232,2.0301],[-62.1776,-40.621,2.9013],[-62.1721,-40.6043,3.9591],[-62.1729,-40.5887,3.1848],[-62.1715,-40.5887,0.0],[-62.1715,-40.5865,0.0],[-62.1787,-40.5793,0.5959],[-62.1921,-40.5732,4.7556],[-62.1963,-40.5732,2.5746],[-62.1971,-40.5704,3.5522],[-62.2212,-40.5551,1.4656],[-62.2307,-40.5529,0.0],[-62.241,-40.5449,2.2813],[-62.2562,-40.5385,2.4764],[-62.2893,-40.534,1.0407],[-62.316,-40.5246,0.2286]]],
[[[-62.1693,-40.4415,0.0],[-62.1665,-40.4388,0.0],[-62.1824,-40.4404,0.0],[-62.1829,-40.4435,0.2393],[-62.1804,-40.4435,0.2171],[-62.1824,-40.4449,0.3477],[-62.184,-40.444,0.0],[-62.1851,-40.446,0.6852],[-62.1826,-40.4524,0.2838],[-62.1785,-40.4535,0.0],[-62.1721,-40.4521,0.5946],[-62.171,-40.4485,0.6434],[-62.176,-40.4482,1.406],[-62.1724,-40.4479,2.9774],[-62.1693,-40.4415,0.0]]],
[[[-62.1299,-40.429,0.0],[-62.1312,-40.4268,0.7302],[-62.1338,-40.4268,1.4791],[-62.1426,-40.4304,1.4402],[-62.1437,-40.4332,1.4115],[-62.146,-40.4332,1.4223],[-62.1463,-40.4404,1.3581],[-62.1515,-40.4451,1.4288],[-62.1532,-40.4551,0.5137],[-62.1551,-40.4479,1.576],[-62.1579,-40.4476,1.864],[-62.1729,-40.4538,0.8551],[-62.1865,-40.4549,0.2888],[-62.1843,-40.4576,1.2177],[-62.1796,-40.4568,1.0496],[-62.1813,-40.4596,1.7917],[-62.186,-40.459,0.0],[-62.1893,-40.4562,1.7801],[-62.1901,-40.4507,0.0],[-62.1937,-40.4479,0.0],[-62.1993,-40.4474,0.9822],[-62.196,-40.4454,0.0],[-62.196,-40.4437,0.0],[-62.2024,-40.4468,0.0],[-62.2012,-40.4496,0.5474],[-62.2035,-40.451,0.0],[-62.2018,-40.4532,2.1867],[-62.2046,-40.4549,0.0],[-62.2026,-40.4576,0.8078],[-62.2024,-40.469,5.7213],[-62.2051,-40.4721,0.0],[-62.2057,-40.4754,1.1436],[-62.2112,-40.4804,3.0572],[-62.214,-40.4807,0.0],[-62.2201,-40.4929,0.7116],[-62.2265,-40.4949,0.0],[-62.2287,-40.4996,1.8031],[-62.2321,-40.5013,0.0],[-62.2324,-40.5035,0.5156],[-62.2357,-40.5037,0.0],[-62.2374,-40.5104,0.2812],[-62.2363,-40.5118,0.0],[-62.2307,-40.511,1.908],[-62.2262,-40.5124,2.2969],[-62.2201,-40.5199,1.4059],[-62.2199,-40.5271,-0.3735],[-62.2182,-40.5293,0.2018],[-62.211,-40.5293,0.4189],[-62.2099,-40.531,-0.1345],[-62.2096,-40.5285,0.0314],[-62.2074,-40.5282,-0.1138],[-62.1979,-40.5349,-0.0778],[-62.1932,-40.536,0.0704],[-62.1901,-40.5357,0.0],[-62.1888,-40.5321,0.1422],[-62.1846,-40.5307,0.0453],[-62.1879,-40.5354,-0.0783],[-62.1862,-40.5354,-0.0783],[-62.1807,-40.5446,0.2733],[-62.1754,-40.544,0.0],[-62.1679,-40.5243,0.0305],[-62.1635,-40.5057,-0.0546],[-62.1629,-40.4774,0.669],[-62.1615,-40.474,1.4125],[-62.156,-40.4687,0.4407],[-62.151,-40.4671,0.0613],[-62.154,-40.4693,-0.0022],[-62.1543,-40.4738,0.0],[-62.1521,-40.4757,-0.0135],[-62.1543,-40.4774,-0.1728],[-62.1535,-40.4813,0.171],[-62.1557,-40.4865,-0.0087],[-62.1535,-40.4901,0.1146],[-62.1518,-40.4879,0.9509],[-62.1443,-40.4887,0.4355],[-62.1424,-40.4904,0.7337],[-62.1424,-40.4938,0.5296],[-62.1476,-40.499,0.3702],[-62.154,-40.5013,0.0793],[-62.1554,-40.5037,-0.2824],[-62.1535,-40.5051,-0.0942],[-62.1546,-40.5074,0.0114],[-62.151,-40.5085,0.3241],[-62.1551,-40.5115,0.1552],[-62.1554,-40.5149,0.0],[-62.1535,-40.5157,0.0071],[-62.1557,-40.516,0.0],[-62.156,-40.5187,-0.1157],[-62.1524,-40.5196,0.1016],[-62.1507,-40.5124,0.5524],[-62.149,-40.5118,0.5524],[-62.1482,-40.5187,-0.0193],[-62.1543,-40.521,0.0431],[-62.1568,-40.5237,-0.0325],[-62.159,-40.5285,0.0592],[-62.1574,-40.5304,0.0045],[-62.1576,-40.5332,0.2113],[-62.1626,-40.536,-0.2605],[-62.1651,-40.5418,0.3991],[-62.1704,-40.5462,0.0],[-62.1643,-40.5449,0.0],[-62.1585,-40.5387,0.8127],[-62.1501,-40.5332,0.0],[-62.1487,-40.5288,0.5866],[-62.1437,-40.5282,0.0],[-62.1393,-40.521,0.7146],[-62.1343,-40.5196,0.0],[-62.1349,-40.5151,1.3032],[-62.1421,-40.5126,0.6082],[-62.1418,-40.5101,1.0852],[-62.1382,-40.5065,0.0],[-62.1404,-40.5057,0.2278],[-62.1429,-40.5074,0.886],[-62.1454,-40.5024,0.8933],[-62.1437,-40.5021,0.6536],[-62.1426,-40.4993,1.0644],[-62.1357,-40.4965,0.6895],[-62.1401,-40.481,0.0],[-62.1371,-40.4779,0.1767],[-62.1354,-40.4732,0.9081],[-62.1376,-40.4665,1.0521],[-62.1357,-40.4579,0.7992],[-62.1335,-40.4549,0.0914],[-62.1335,-40.4443,0.0],[-62.1299,-40.4335,0.4645],[-62.1299,-40.429,0.0]]],
[[[-62.1893,-40.4432,0.0],[-62.1904,-40.441,0.0],[-62.1949,-40.4424,0.0],[-62.1926,-40.4446,0.0],[-62.1893,-40.4432,0.0]]],
[[[-62.196,-40.439,0.0],[-62.2004,-40.4379,0.0],[-62.2021,-40.4404,0.0],[-62.1976,-40.4429,0.0],[-62.1987,-40.4415,0.0],[-62.196,-40.439,0.0]]],
[[[-62.4479,-40.3115,0.0],[-62.4468,-40.3093,0.0],[-62.4518,-40.3149,0.0],[-62.4504,-40.3151,0.0],[-62.4479,-40.3115,0.0]]],
[[[-62.4265,-40.2985,0.0],[-62.426,-40.2968,0.0],[-62.4299,-40.3001,0.0],[-62.4374,-40.3015,0.0],[-62.4376,-40.3032,0.9052],[-62.4412,-40.3024,0.0],[-62.4401,-40.3076,0.1587],[-62.4424,-40.311,0.0],[-62.4371,-40.3076,0.0],[-62.4351,-40.3035,0.1903],[-62.4315,-40.3032,0.0],[-62.4265,-40.2985,0.0]]],
[[[-62.4093,-40.3112,0.2987],[-62.4087,-40.3079,0.0],[-62.4099,-40.3074,0.0],[-62.4143,-40.311,0.0],[-62.4101,-40.3124,0.0],[-62.4093,-40.3112,0.2987]]],
[[[-62.0365,-40.2938,0.0],[-62.0374,-40.2915,0.0],[-62.0393,-40.2932,0.2941],[-62.0376,-40.2954,0.0],[-62.0365,-40.2938,0.0]]],
[[[-62.0429,-40.2915,0.7116],[-62.0432,-40.2901,0.1452],[-62.0449,-40.2904,0.488],[-62.0404,-40.2946,0.346],[-62.0401,-40.2929,0.0],[-62.0429,-40.2915,0.7116]]],
[[[-62.2599,-40.2918,0.3385],[-62.2629,-40.2907,0.153],[-62.266,-40.2938,0.0],[-62.2632,-40.2921,0.395],[-62.2601,-40.2929,0.3385],[-62.2599,-40.2918,0.3385]]],
[[[-62.2101,-40.3138,0.0],[-62.2115,-40.3126,0.0],[-62.2135,-40.3129,0.0],[-62.2112,-40.3149,0.0],[-62.2101,-40.3138,0.0]]],
[[[-62.2215,-40.3007,0.2128],[-62.2243,-40.2996,0.7613],[-62.231,-40.3018,0.5178],[-62.2249,-40.3035,0.0],[-62.221,-40.3021,0.0],[-62.2215,-40.3007,0.2128]]],
[[[-62.3785,-40.3124,0.1886],[-62.3776,-40.311,0.0],[-62.3799,-40.3112,0.0],[-62.3807,-40.3138,0.0],[-62.3799,-40.314,0.0],[-62.3785,-40.3124,0.1886]]],
[[[-62.246,-40.311,0.4159],[-62.2457,-40.3082,0.3862],[-62.2471,-40.3079,0.0],[-62.249,-40.3118,0.0],[-62.2476,-40.3126,0.0],[-62.246,-40.311,0.4159]]],
[[[-62.2265,-40.3096,0.0],[-62.2235,-40.3099,0.0],[-62.2238,-40.3065,0.4426],[-62.2315,-40.3065,0.0],[-62.2315,-40.3085,0.0],[-62.2265,-40.3079,0.9488],[-62.2265,-40.3096,0.0]]],
[[[-62.3957,-40.2879,0.0],[-62.3985,-40.2879,0.0],[-62.3999,-40.2965,0.0],[-62.3985,-40.2979,0.0],[-62.396,-40.2957,0.0],[-62.3957,-40.2879,0.0]]],
[[[-62.0788,-40.2676,0.0],[-62.0799,-40.2665,0.6839],[-62.0812,-40.2665,0.0],[-62.0793,-40.2693,0.174],[-62.0788,-40.2676,0.0]]],
[[[-62.0776,-40.2657,0.3053],[-62.079,-40.264,0.1243],[-62.0821,-40.2646,0.0],[-62.0793,-40.266,0.7764],[-62.0776,-40.2657,0.3053]]],
[[[-62.034,-40.2551,0.0],[-62.0337,-40.2532,0.0],[-62.0374,-40.2549,0.671],[-62.0415,-40.259,0.409],[-62.0412,-40.2604,0.0],[-62.0396,-40.2612,0.0],[-62.0365,-40.259,0.0],[-62.0363,-40.2554,0.671],[-62.034,-40.2551,0.0]]],
[[[-62.0885,-40.2496,0.4704],[-62.0876,-40.249,0.35],[-62.0871,-40.2474,0.6113],[-62.0904,-40.2479,0.4177],[-62.0885,-40.2496,0.4704]]],
[[[-62.2743,-40.2404,0.0],[-62.2757,-40.2376,0.3198],[-62.2757,-40.2407,0.1527],[-62.274,-40.2418,0.1351],[-62.2743,-40.2404,0.0]]],
[[[-62.0924,-40.246,0.6671],[-62.0926,-40.2432,0.8286],[-62.0965,-40.2438,0.9205],[-62.0935,-40.2465,0.8785],[-62.0924,-40.246,0.6671]]],
[[[-62.0854,-40.2438,0.307],[-62.0851,-40.2426,0.1489],[-62.0901,-40.2429,0.1525],[-62.0899,-40.2438,0.3507],[-62.0854,-40.2438,0.307]]],
[[[-62.0849,-40.2401,0.164],[-62.0846,-40.239,0.203],[-62.0882,-40.2396,0.6557],[-62.0907,-40.2415,0.1525],[-62.0882,-40.2418,0.2819],[-62.0849,-40.2401,0.164]]],
[[[-62.0935,-40.2071,0.8885],[-62.0943,-40.2057,0.0],[-62.0965,-40.2068,0.0],[-62.0951,-40.2082,0.1717],[-62.0935,-40.2071,0.8885]]],
[[[-62.0568,-40.1926,0.1324],[-62.0624,-40.1915,0.7779],[-62.0604,-40.1982,0.7132],[-62.0563,-40.1968,0.0589],[-62.0568,-40.1926,0.1324]]],
[[[-62.0954,-40.2115,0.0],[-62.0951,-40.2096,0.0],[-62.0985,-40.2088,0.2674],[-62.1015,-40.2121,0.3605],[-62.1015,-40.216,0.7264],[-62.0962,-40.2151,0.0],[-62.0954,-40.2115,0.0]]],
[[[-62.0593,-40.2268,0.7972],[-62.0599,-40.2235,0.3219],[-62.0618,-40.2235,0.6716],[-62.0651,-40.2274,1.5189],[-62.0654,-40.2262,0.5807],[-62.0685,-40.2265,0.9393],[-62.0812,-40.236,0.1058],[-62.0818,-40.2399,0.0721],[-62.0715,-40.2351,0.0],[-62.0676,-40.2315,0.5024],[-62.0626,-40.2296,0.4163],[-62.0574,-40.2299,0.5226],[-62.0626,-40.2304,0.4163],[-62.0735,-40.2379,0.0],[-62.081,-40.2404,0.5662],[-62.086,-40.2454,0.2612],[-62.0851,-40.251,1.0399],[-62.0874,-40.2496,0.4704],[-62.0887,-40.2521,1.2645],[-62.0874,-40.2543,0.7037],[-62.0826,-40.2526,1.1352],[-62.0851,-40.2565,-0.0133],[-62.0812,-40.2621,0.6124],[-62.0785,-40.2635,0.1243],[-62.076,-40.2632,0.0],[-62.0737,-40.2607,1.5826],[-62.0749,-40.2557,0.8968],[-62.0737,-40.2537,1.8444],[-62.0699,-40.2549,0.2372],[-62.0701,-40.2588,0.4642],[-62.0685,-40.2582,0.8408],[-62.0679,-40.2601,0.4049],[-62.0649,-40.2588,1.0389],[-62.0643,-40.254,1.6329],[-62.0626,-40.2557,0.426],[-62.0599,-40.2543,1.4218],[-62.0596,-40.2557,1.5088],[-62.0618,-40.2571,0.6428],[-62.0579,-40.2593,0.6144],[-62.0599,-40.2646,0.0],[-62.0549,-40.2663,0.0],[-62.0546,-40.2687,0.0],[-62.0504,-40.2696,0.0],[-62.0496,-40.2721,0.0],[-62.0468,-40.2724,0.0],[-62.0429,-40.2696,0.0],[-62.0412,-40.2643,0.0],[-62.0435,-40.259,0.0],[-62.0443,-40.2635,1.1569],[-62.0457,-40.2626,0.2554],[-62.0471,-40.2588,1.0206],[-62.0465,-40.254,0.6115],[-62.049,-40.2532,0.6718],[-62.0468,-40.2524,1.1199],[-62.0476,-40.2501,1.0072],[-62.044,-40.2521,0.0],[-62.041,-40.249,0.6189],[-62.0449,-40.246,0.787],[-62.0429,-40.2454,0.945],[-62.0399,-40.2474,0.1131],[-62.0424,-40.244,0.579],[-62.0454,-40.2446,0.787],[-62.0454,-40.2407,1.0162],[-62.0426,-40.2404,0.8862],[-62.0424,-40.2424,0.878],[-62.0407,-40.2415,0.4347],[-62.0368,-40.2454,0.0],[-62.0335,-40.2385,0.0586],[-62.036,-40.2379,0.1494],[-62.0365,-40.241,0.4881],[-62.039,-40.2374,0.0],[-62.0443,-40.2374,0.463],[-62.0465,-40.2365,1.1386],[-62.0476,-40.2335,0.5301],[-62.0501,-40.2332,0.5777],[-62.049,-40.2346,1.0705],[-62.0524,-40.2354,0.2406],[-62.0549,-40.2435,0.9665],[-62.0585,-40.2443,1.9426],[-62.0549,-40.2401,0.2564],[-62.0546,-40.2357,0.5367],[-62.0596,-40.2365,1.1447],[-62.0576,-40.239,1.256],[-62.0604,-40.2382,1.5283],[-62.0604,-40.2363,1.1447],[-62.0526,-40.2301,0.0224],[-62.0568,-40.2293,0.4589],[-62.0593,-40.2268,0.7972]]],
[[[-62.0974,-40.2371,0.1559],[-62.1007,-40.2357,0.2368],[-62.1026,-40.2374,0.0],[-62.0949,-40.2393,0.5647],[-62.0974,-40.2371,0.1559]]],
[[[-62.0432,-40.2335,0.0],[-62.0426,-40.231,0.1157],[-62.0446,-40.2307,0.4292],[-62.046,-40.2337,0.5839],[-62.0432,-40.2335,0.0]]],
[[[-62.1068,-40.2329,0.0],[-62.1079,-40.231,0.3156],[-62.1118,-40.2321,0.0],[-62.1093,-40.2335,0.6268],[-62.1099,-40.236,0.0],[-62.1049,-40.2374,0.4369],[-62.1007,-40.2349,0.2368],[-62.1018,-40.234,0.0],[-62.1046,-40.2357,0.2624],[-62.1043,-40.2343,0.1285],[-62.1068,-40.2329,0.0]]],
[[[-62.1099,-40.2274,0.5993],[-62.1085,-40.2257,0.239],[-62.1118,-40.2265,0.5993],[-62.1118,-40.231,0.1908],[-62.1104,-40.2299,0.1908],[-62.1107,-40.2271,0.5993],[-62.1099,-40.2274,0.5993]]],
[[[-62.0462,-40.1985,0.9166],[-62.0465,-40.196,0.0],[-62.0507,-40.1954,0.1127],[-62.0518,-40.199,1.0934],[-62.0549,-40.1993,0.1372],[-62.0557,-40.2049,0.5299],[-62.0574,-40.2046,0.9197],[-62.0576,-40.2026,0.0],[-62.0587,-40.2035,0.3953],[-62.0571,-40.2088,0.45],[-62.0551,-40.206,0.5299],[-62.0537,-40.2074,1.1557],[-62.054,-40.211,1.3251],[-62.0576,-40.2146,0.0],[-62.0571,-40.2179,0.1647],[-62.0604,-40.221,1.1759],[-62.0574,-40.2249,0.0204],[-62.0488,-40.2243,0.0],[-62.0485,-40.2196,0.0],[-62.044,-40.2174,0.0],[-62.0407,-40.2129,0.9529],[-62.0387,-40.2129,0.1952],[-62.0401,-40.2062,1.074],[-62.0368,-40.2018,0.0],[-62.0376,-40.1996,0.0],[-62.0399,-40.1999,0.3665],[-62.0446,-40.2071,0.3601],[-62.0446,-40.2112,0.3465],[-62.0462,-40.2137,0.8017],[-62.0474,-40.2132,0.8017],[-62.0457,-40.2112,0.3465],[-62.0462,-40.2065,1.2846],[-62.0421,-40.2021,0.5091],[-62.0432,-40.1974,0.2351],[-62.0485,-40.201,0.6271],[-62.0462,-40.1985,0.9166]]],
[[[-62.0721,-40.189,0.7823],[-62.0724,-40.1871,1.0284],[-62.0768,-40.1885,0.7019],[-62.0782,-40.1929,1.0213],[-62.0765,-40.1935,1.223],[-62.0815,-40.1979,0.0],[-62.0804,-40.216,1.4383],[-62.0821,-40.2193,0.6943],[-62.0818,-40.2254,0.0],[-62.0701,-40.2218,0.0],[-62.0651,-40.2163,0.3372],[-62.0654,-40.2129,0.4306],[-62.0679,-40.2124,1.5018],[-62.0665,-40.1996,0.3543],[-62.0685,-40.1985,0.3533],[-62.0657,-40.1951,0.6348],[-62.0682,-40.1932,0.1249],[-62.0629,-40.189,0.139],[-62.0674,-40.1879,0.6573],[-62.0762,-40.1932,1.223],[-62.0721,-40.189,0.7823]]],
[[[-62.2921,-40.3885,0.0],[-62.2912,-40.3865,0.0],[-62.2929,-40.3862,0.0],[-62.2938,-40.3924,0.0],[-62.2918,-40.3913,0.0],[-62.2921,-40.3885,0.0]]],
[[[-62.2779,-40.3874,0.0],[-62.2771,-40.386,0.0],[-62.2785,-40.3857,0.0],[-62.2837,-40.3904,0.0],[-62.2804,-40.3899,0.0],[-62.2796,-40.3924,0.0],[-62.2776,-40.3918,0.0],[-62.2768,-40.3899,0.1005],[-62.2793,-40.3887,0.0],[-62.2779,-40.3874,0.0]]],
[[[-62.2349,-40.3496,0.2731],[-62.2365,-40.3476,0.7497],[-62.239,-40.3488,0.564],[-62.2357,-40.3515,0.0],[-62.2343,-40.3515,0.0],[-62.2349,-40.3496,0.2731]]],
[[[-62.2371,-40.3454,0.1361],[-62.2396,-40.3449,0.8928],[-62.2393,-40.3435,0.0],[-62.2429,-40.3435,0.4922],[-62.246,-40.3462,0.0],[-62.2446,-40.3485,0.0],[-62.2407,-40.3499,0.0],[-62.2401,-40.3462,0.8928],[-62.2337,-40.3474,0.323],[-62.2318,-40.3449,0.3976],[-62.2371,-40.3454,0.1361]]],
[[[-62.2226,-40.3418,0.0],[-62.2254,-40.3407,0.0],[-62.2265,-40.3426,0.0],[-62.2229,-40.3426,0.0],[-62.2226,-40.3418,0.0]]],
[[[-62.2176,-40.3374,0.1938],[-62.2207,-40.3365,0.3732],[-62.2226,-40.3387,0.0],[-62.2187,-40.3393,0.274],[-62.2176,-40.3374,0.1938]]],
[[[-62.2232,-40.3204,0.8879],[-62.2254,-40.3193,0.0],[-62.2262,-40.3235,0.0],[-62.2218,-40.3232,0.0],[-62.2232,-40.3204,0.8879]]],
[[[-62.2088,-40.3168,0.469],[-62.2082,-40.3154,0.0],[-62.2107,-40.316,0.1275],[-62.214,-40.321,0.0],[-62.2115,-40.3218,0.0],[-62.2088,-40.3168,0.469]]],
[[[-62.1218,-40.3765,0.2378],[-62.1246,-40.3754,0.2169],[-62.1271,-40.3768,0.2581],[-62.1326,-40.3765,0.5062],[-62.1326,-40.3779,0.5062],[-62.1235,-40.379,0.157],[-62.1279,-40.3799,0.3314],[-62.1304,-40.3785,0.3599],[-62.1315,-40.3818,0.062],[-62.1301,-40.3838,0.0798],[-62.126,-40.3821,0.5314],[-62.1243,-40.3851,0.9816],[-62.1199,-40.3829,0.8443],[-62.1265,-40.3885,0.7704],[-62.1251,-40.3926,1.6419],[-62.1301,-40.3913,0.6193],[-62.1324,-40.394,0.1194],[-62.131,-40.3954,0.8467],[-62.1335,-40.3965,0.6055],[-62.1326,-40.401,0.6731],[-62.1296,-40.4038,1.7588],[-62.1296,-40.4065,0.8384],[-62.1268,-40.4074,0.9543],[-62.1271,-40.4087,0.477],[-62.119,-40.4043,1.892],[-62.1179,-40.4012,1.9172],[-62.1121,-40.3957,1.8269],[-62.109,-40.3876,1.5479],[-62.1065,-40.3874,1.3556],[-62.106,-40.3887,1.184],[-62.1085,-40.3904,1.0899],[-62.1068,-40.3918,1.0736],[-62.111,-40.3943,0.0],[-62.1101,-40.3968,0.4372],[-62.1085,-40.3987,1.1789],[-62.1054,-40.3971,0.432],[-62.104,-40.399,1.1047],[-62.1026,-40.3974,0.2538],[-62.1004,-40.3976,0.2175],[-62.1012,-40.3968,0.2175],[-62.0979,-40.3926,0.803],[-62.0913,-40.3918,0.0],[-62.0904,-40.3901,0.4572],[-62.0879,-40.3907,0.8716],[-62.0826,-40.3876,0.0],[-62.0826,-40.3857,0.0],[-62.0893,-40.3871,0.455],[-62.0943,-40.3862,0.8651],[-62.0949,-40.3829,1.2041],[-62.0932,-40.3815,0.3796],[-62.0996,-40.3787,0.0],[-62.1193,-40.3785,0.6046],[-62.1218,-40.3765,0.2378]]],
[[[-62.2665,-40.3835,0.6236],[-62.2674,-40.3824,0.0],[-62.2704,-40.3835,0.0],[-62.2699,-40.3854,0.4585],[-62.2726,-40.3862,0.0],[-62.2704,-40.3876,0.0],[-62.266,-40.3874,0.0],[-62.2665,-40.3835,0.6236]]],
[[[-62.2865,-40.3785,0.0],[-62.2857,-40.3746,0.0],[-62.2874,-40.374,0.0],[-62.2915,-40.3857,0.0],[-62.2896,-40.3849,0.12],[-62.2865,-40.3785,0.0]]],
[[[-62.1621,-40.3654,0.4827],[-62.1637,-40.3643,1.5386],[-62.1637,-40.361,0.0],[-62.1699,-40.3632,0.0],[-62.174,-40.3688,0.0],[-62.1768,-40.3777,2.0804],[-62.186,-40.3862,0.8686],[-62.1915,-40.4012,1.3364],[-62.1949,-40.4043,0.496],[-62.1968,-40.404,0.0],[-62.1951,-40.4104,2.8182],[-62.1999,-40.4335,0.0],[-62.1979,-40.4374,0.6834],[-62.1899,-40.4362,2.8518],[-62.1901,-40.4374,1.4108],[-62.1699,-40.4382,0.0],[-62.1635,-40.4349,1.8516],[-62.1599,-40.4313,1.4238],[-62.161,-40.4285,1.8456],[-62.1587,-40.4274,2.2981],[-62.1487,-40.4251,1.3737],[-62.1479,-40.4268,1.3549],[-62.1437,-40.4274,1.2882],[-62.1396,-40.4229,0.8516],[-62.1365,-40.4162,1.2776],[-62.1349,-40.4162,1.2776],[-62.1304,-40.4115,0.3006],[-62.1324,-40.4021,1.1132],[-62.1362,-40.4007,0.1662],[-62.1354,-40.4096,0.3474],[-62.1421,-40.416,0.5643],[-62.1415,-40.4135,0.5842],[-62.1374,-40.4099,0.269],[-62.1371,-40.4004,1.1527],[-62.1301,-40.3907,0.1532],[-62.1307,-40.3871,0.4515],[-62.1329,-40.3882,0.3919],[-62.1315,-40.391,0.5647],[-62.134,-40.3915,1.0963],[-62.1354,-40.3951,1.1675],[-62.1371,-40.3899,1.3201],[-62.1424,-40.3929,0.3256],[-62.1426,-40.3951,1.1244],[-62.1393,-40.3982,1.0336],[-62.1401,-40.4007,1.0851],[-62.1443,-40.3965,0.8017],[-62.1454,-40.3979,0.951],[-62.1485,-40.3937,0.1445],[-62.1512,-40.396,0.0],[-62.1507,-40.3926,2.0942],[-62.1482,-40.3926,0.3955],[-62.146,-40.3885,0.9498],[-62.1415,-40.3868,0.629],[-62.1413,-40.3835,0.2021],[-62.1449,-40.3793,1.7858],[-62.1449,-40.3774,0.3672],[-62.1476,-40.376,0.0],[-62.1504,-40.376,0.4687],[-62.1518,-40.3807,0.8621],[-62.1554,-40.3815,1.2476],[-62.1524,-40.3801,0.8621],[-62.1524,-40.3782,0.1879],[-62.1551,-40.3776,0.0],[-62.1571,-40.3793,0.4692],[-62.1554,-40.3746,1.0499],[-62.159,-40.3693,0.0],[-62.1618,-40.3685,2.683],[-62.1621,-40.3654,0.4827]]],
[[[-62.2574,-40.3785,0.0],[-62.2579,-40.3763,0.0],[-62.2626,-40.3774,0.0],[-62.2626,-40.3812,0.0],[-62.259,-40.3818,0.0],[-62.2574,-40.3785,0.0]]],
[[[-62.1321,-40.374,-0.0336],[-62.1351,-40.3726,0.0773],[-62.1382,-40.3754,0.4323],[-62.1429,-40.3757,0.0],[-62.1443,-40.3787,0.0],[-62.1379,-40.3843,0.38],[-62.1357,-40.3843,0.451],[-62.134,-40.379,0.2128],[-62.1346,-40.3751,0.3891],[-62.1321,-40.374,-0.0336]]],
[[[-62.2649,-40.371,0.0],[-62.2715,-40.3704,0.1935],[-62.2721,-40.3735,0.0],[-62.264,-40.3735,0.0],[-62.2649,-40.371,0.0]]],
[[[-62.3601,-40.3526,0.0],[-62.3649,-40.3515,0.2313],[-62.3665,-40.3526,0.0],[-62.3654,-40.3535,0.0],[-62.3657,-40.3599,0.1448],[-62.3571,-40.3649,0.0],[-62.356,-40.3635,0.0],[-62.3576,-40.3593,0.9581],[-62.3551,-40.3568,0.2384],[-62.3587,-40.3551,0.0],[-62.3601,-40.3526,0.0]]],
[[[-62.2582,-40.366,0.0932],[-62.2604,-40.3649,0.2218],[-62.2612,-40.3671,0.2542],[-62.2635,-40.3671,0.1325],[-62.2635,-40.369,0.1488],[-62.256,-40.3746,0.0],[-62.2507,-40.3729,0.0],[-62.251,-40.3676,0.0],[-62.2571,-40.3674,0.3163],[-62.2582,-40.366,0.0932]]],
[[[-62.2713,-40.3654,0.0],[-62.2735,-40.3643,0.0],[-62.2776,-40.366,0.0],[-62.2718,-40.3676,0.1572],[-62.2713,-40.3654,0.0]]],
[[[-62.2499,-40.3621,0.6259],[-62.2496,-40.3607,0.0],[-62.2513,-40.3601,0.3771],[-62.2521,-40.3621,0.2924],[-62.2565,-40.3629,0.2895],[-62.2513,-40.3657,0.5292],[-62.2499,-40.3696,0.1319],[-62.2468,-40.3707,0.0],[-62.2487,-40.366,0.1473],[-62.2521,-40.3632,0.7539],[-62.2499,-40.3621,0.6259]]],
[[[-62.2635,-40.3662,0.3605],[-62.2629,-40.3649,0.3605],[-62.2651,-40.3649,0.1336],[-62.2651,-40.3676,0.0],[-62.2637,-40.3676,0.1325],[-62.2635,-40.3662,0.3605]]],
[[[-62.2426,-40.3535,0.0],[-62.2451,-40.3512,0.0],[-62.2451,-40.3532,0.6546],[-62.2504,-40.356,0.0],[-62.2485,-40.3607,0.0],[-62.2435,-40.3621,0.0],[-62.2446,-40.3596,0.2539],[-62.2407,-40.3582,0.1682],[-62.2426,-40.3535,0.0]]],
[[[-62.3001,-40.1846,0.1025],[-62.3004,-40.1826,0.0],[-62.3046,-40.184,0.2954],[-62.3093,-40.1874,0.8959],[-62.3146,-40.1946,0.9253],[-62.321,-40.194,0.2599],[-62.3237,-40.1979,0.3298],[-62.3315,-40.1999,0.808],[-62.3424,-40.2065,1.3851],[-62.3518,-40.2099,0.8303],[-62.3579,-40.2154,0.0],[-62.3585,-40.2199,0.0],[-62.3568,-40.2196,0.8499],[-62.356,-40.2224,0.5555],[-62.3532,-40.2235,0.3004],[-62.3365,-40.2129,2.0174],[-62.3332,-40.2129,1.8216],[-62.334,-40.2179,1.5873],[-62.331,-40.2179,1.946],[-62.3307,-40.2196,0.0],[-62.3276,-40.2201,1.495],[-62.3276,-40.2221,1.2203],[-62.3224,-40.2224,1.581],[-62.3187,-40.2257,1.4043],[-62.3218,-40.2265,1.3344],[-62.3221,-40.2301,0.8448],[-62.3268,-40.2313,1.7202],[-62.3293,-40.2301,1.6138],[-62.3293,-40.234,1.2365],[-62.3279,-40.2371,1.4781],[-62.3257,-40.2379,1.5868],[-62.3262,-40.2393,1.4507],[-62.3296,-40.2399,1.6953],[-62.3304,-40.2376,1.4672],[-62.3354,-40.2363,1.822],[-62.3393,-40.2396,1.4639],[-62.3399,-40.2443,0.9817],[-62.3385,-40.2462,0.5],[-62.341,-40.2465,1.3351],[-62.3443,-40.246,0.5],[-62.3426,-40.2421,1.2394],[-62.3432,-40.2407,0.9633],[-62.346,-40.2407,0.7369],[-62.3488,-40.2513,1.5357],[-62.3518,-40.2521,1.5485],[-62.3521,-40.251,1.7013],[-62.354,-40.2537,1.5807],[-62.3557,-40.2518,1.6178],[-62.3532,-40.2487,1.5658],[-62.3579,-40.2482,2.2221],[-62.3599,-40.2421,2.5194],[-62.356,-40.2326,2.0982],[-62.3601,-40.2321,2.2598],[-62.3585,-40.2287,1.6947],[-62.3512,-40.2282,0.4606],[-62.349,-40.2251,0.621],[-62.356,-40.2243,0.7887],[-62.3593,-40.2224,0.0],[-62.3646,-40.2285,0.6246],[-62.361,-40.2293,1.2694],[-62.3618,-40.2315,2.176],[-62.366,-40.2326,0.5327],[-62.366,-40.2296,0.708],[-62.3718,-40.2329,1.0784],[-62.3896,-40.2537,1.4417],[-62.3904,-40.2604,0.0],[-62.389,-40.2646,0.689],[-62.3846,-40.2624,1.4257],[-62.3874,-40.2596,0.7068],[-62.3871,-40.2562,1.5257],[-62.3835,-40.256,0.9742],[-62.3829,-40.2599,1.9082],[-62.3799,-40.2599,2.1475],[-62.3812,-40.2582,1.8983],[-62.3801,-40.256,1.7985],[-62.3843,-40.2554,1.4143],[-62.3874,-40.2529,0.0],[-62.3871,-40.2513,0.0],[-62.3763,-40.2446,1.2922],[-62.3735,-40.246,1.3707],[-62.3724,-40.2529,1.592],[-62.3696,-40.254,4.8492],[-62.3704,-40.256,2.4081],[-62.3635,-40.2565,1.9389],[-62.3665,-40.2596,1.969],[-62.3662,-40.2612,1.969],[-62.3679,-40.2612,1.8739],[-62.3671,-40.2646,1.5186],[-62.3712,-40.2679,1.4078],[-62.3704,-40.2726,1.5522],[-62.3724,-40.2751,1.5203],[-62.3768,-40.2765,1.3561],[-62.3732,-40.2776,1.3164],[-62.3699,-40.2754,0.4799],[-62.3674,-40.2693,1.4232],[-62.3626,-40.2679,0.9691],[-62.3643,-40.2657,1.3912],[-62.3507,-40.2529,1.5485],[-62.3415,-40.2513,1.2592],[-62.3435,-40.2568,1.3544],[-62.3465,-40.2574,1.1284],[-62.346,-40.259,0.6166],[-62.3443,-40.259,0.0],[-62.3237,-40.2501,0.233],[-62.3276,-40.2543,1.4144],[-62.3432,-40.2615,0.9144],[-62.3462,-40.2663,0.5757],[-62.3474,-40.2751,0.0],[-62.346,-40.2754,0.7441],[-62.3454,-40.2721,0.0],[-62.3426,-40.2749,0.7288],[-62.3451,-40.2865,0.6684],[-62.3429,-40.2949,2.2978],[-62.346,-40.2999,1.5058],[-62.346,-40.3063,2.4217],[-62.3507,-40.3065,0.7255],[-62.3526,-40.3118,1.6107],[-62.3504,-40.329,1.3839],[-62.3535,-40.3288,0.0],[-62.354,-40.3329,0.5898],[-62.3557,-40.3343,0.0],[-62.3576,-40.3257,0.252],[-62.359,-40.3343,0.0],[-62.3615,-40.3374,0.0],[-62.3596,-40.3429,0.0],[-62.3615,-40.3476,0.0],[-62.3593,-40.3476,0.0],[-62.359,-40.3493,0.0],[-62.3565,-40.3479,0.0],[-62.3546,-40.336,1.1164],[-62.3529,-40.3338,1.163],[-62.3488,-40.334,1.3663],[-62.3479,-40.3324,1.7418],[-62.3471,-40.3457,1.1872],[-62.3449,-40.3493,0.7606],[-62.3382,-40.3443,1.1524],[-62.3379,-40.3429,1.1489],[-62.3404,-40.3424,1.2517],[-62.3399,-40.3401,0.6336],[-62.3346,-40.3401,0.3264],[-62.3332,-40.344,0.4171],[-62.3288,-40.3426,1.3644],[-62.331,-40.3449,0.6329],[-62.331,-40.3476,0.2186],[-62.3362,-40.3518,1.3446],[-62.3382,-40.356,1.505],[-62.3518,-40.3593,0.0],[-62.3512,-40.3635,0.7777],[-62.3454,-40.3657,1.9322],[-62.3454,-40.3685,1.5623],[-62.3429,-40.3699,1.9365],[-62.3432,-40.3726,1.9078],[-62.3465,-40.3712,1.3993],[-62.3468,-40.3679,1.2765],[-62.3532,-40.3665,0.9714],[-62.3549,-40.3679,0.0],[-62.3415,-40.3846,0.0],[-62.3307,-40.3885,0.0],[-62.329,-40.3874,0.0],[-62.3349,-40.3838,1.3024],[-62.3376,-40.384,0.5005],[-62.3415,-40.3785,0.0],[-62.3449,-40.3779,0.0],[-62.3451,-40.3765,0.0],[-62.3421,-40.376,0.5478],[-62.3385,-40.3793,0.0],[-62.3393,-40.381,0.0],[-62.3332,-40.384,1.1689],[-62.3249,-40.3824,0.8341],[-62.3176,-40.3787,0.0],[-62.3035,-40.3629,1.1975],[-62.3029,-40.3604,0.2261],[-62.3054,-40.3585,1.0937],[-62.2954,-40.3432,0.356],[-62.2868,-40.3371,0.0],[-62.2835,-40.3312,2.5832],[-62.2776,-40.326,1.8615],[-62.2721,-40.324,0.0],[-62.2685,-40.3199,0.0],[-62.2687,-40.3182,1.4351],[-62.2671,-40.3179,1.5624],[-62.264,-40.3118,0.0],[-62.2651,-40.3096,0.3252],[-62.2626,-40.3071,0.5297],[-62.2615,-40.3029,0.0],[-62.266,-40.2962,0.0],[-62.2676,-40.2988,1.3268],[-62.274,-40.3004,0.3585],[-62.2832,-40.2999,1.9685],[-62.2801,-40.2979,0.0],[-62.2926,-40.2904,0.0],[-62.2918,-40.2879,0.0],[-62.2993,-40.2863,0.7278],[-62.3018,-40.2796,0.9543],[-62.3104,-40.279,1.2049],[-62.3082,-40.2746,0.0],[-62.3085,-40.2704,0.0],[-62.3101,-40.269,1.2542],[-62.3071,-40.2649,0.3091],[-62.3029,-40.2651,0.0],[-62.2965,-40.2621,1.1083],[-62.2949,-40.2632,0.0],[-62.2899,-40.2599,0.0],[-62.2896,-40.2579,0.0],[-62.2915,-40.2562,0.5613],[-62.2874,-40.2462,0.3141],[-62.2915,-40.2435,0.478],[-62.2876,-40.2424,0.2849],[-62.2871,-40.2387,1.1654],[-62.2832,-40.2376,1.2021],[-62.2832,-40.2357,1.154],[-62.2807,-40.2363,0.9182],[-62.2782,-40.2343,0.8025],[-62.2788,-40.2329,1.0569],[-62.2757,-40.2285,0.7337],[-62.2757,-40.2249,1.0272],[-62.2785,-40.2243,0.7816],[-62.276,-40.221,0.9408],[-62.2765,-40.2187,0.904],[-62.2715,-40.2174,0.0],[-62.2687,-40.2129,1.3059],[-62.269,-40.2096,1.0893],[-62.2726,-40.2085,0.7068],[-62.2749,-40.209,0.0],[-62.2749,-40.2107,0.2207],[-62.2768,-40.211,1.0254],[-62.2785,-40.2082,0.2427],[-62.2815,-40.2101,0.6686],[-62.2835,-40.2068,0.3699],[-62.286,-40.2065,1.0642],[-62.2901,-40.2021,0.0],[-62.2938,-40.2043,0.0],[-62.2915,-40.2062,0.7125],[-62.294,-40.2068,0.71],[-62.2965,-40.2115,1.0257],[-62.2971,-40.2004,0.0],[-62.299,-40.1996,0.7885],[-62.2968,-40.1993,0.2131],[-62.2951,-40.1963,0.5709],[-62.2957,-40.1896,0.8452],[-62.3012,-40.1874,0.0],[-62.3001,-40.1846,0.1025]]],
[[[-62.0326,-40.1818,0.847],[-62.034,-40.1799,0.0],[-62.034,-40.1824,0.0],[-62.0315,-40.1837,0.6842],[-62.0326,-40.1818,0.847]]],
[[[-62.3204,-40.1835,0.9142],[-62.321,-40.1824,0.1471],[-62.3282,-40.1854,0.8101],[-62.3301,-40.1918,1.0588],[-62.3335,-40.1926,1.0124],[-62.3357,-40.1963,0.903],[-62.3396,-40.1979,0.9306],[-62.3413,-40.2015,0.5282],[-62.3374,-40.2021,0.243],[-62.3349,-40.1999,0.0],[-62.3249,-40.1976,0.3264],[-62.3187,-40.1904,0.972],[-62.3199,-40.1854,0.9991],[-62.3221,-40.186,1.2156],[-62.3204,-40.1835,0.9142]]],
[[[-62.3057,-40.184,0.8484],[-62.3046,-40.1818,0.5154],[-62.306,-40.1813,0.6891],[-62.3074,-40.1832,0.8484],[-62.314,-40.1835,0.1316],[-62.3176,-40.1879,0.4945],[-62.3193,-40.1935,0.7331],[-62.3151,-40.1943,0.2954],[-62.3099,-40.1868,1.2728],[-62.3057,-40.184,0.8484]]],
[[[-62.0363,-40.1835,0.7033],[-62.0396,-40.1826,0.5609],[-62.0368,-40.1865,0.6856],[-62.0351,-40.1851,0.6381],[-62.0363,-40.1835,0.7033]]],
[[[-62.0815,-40.1907,0.9135],[-62.0812,-40.1885,0.0],[-62.0876,-40.1943,0.0],[-62.0879,-40.1965,0.2078],[-62.084,-40.1963,0.0],[-62.0815,-40.1907,0.9135]]],
[[[-62.1715,-39.8312,1.5411],[-62.1696,-39.8298,1.5411],[-62.1971,-39.838,1.6341],[-62.2102,-39.8386,1.6518],[-62.2261,-39.8304,1.6245],[-62.231,-39.8238,1.0788],[-62.231,-39.8184,1.6035],[-62.2339,-39.8153,2.1505],[-62.256,-39.816,2.92],[-62.2653,-39.8082,1.0547],[-62.2944,-39.7967,3.8902],[-62.3161,-39.7972,4.7441],[-62.3389,-39.8007,4.1535],[-62.3556,-39.7871,4.9882],[-62.3593,-39.7823,5.8243],[-62.3643,-39.7807,5.3559],[-62.3691,-39.7743,5.0447],[-62.3728,-39.7761,6.616],[-62.3759,-39.7804,6.0355],[-62.387,-39.7795,5.6057],[-62.3914,-39.7733,5.1232],[-62.3791,-39.7619,6.9868],[-62.3813,-39.7593,7.4132],[-62.3928,-39.7543,5.6366],[-62.3992,-39.7408,8.6306],[-62.4101,-39.7238,8.5379],[-62.43,-39.7228,8.8341],[-62.4484,-39.7122,9.721],[-62.4671,-39.6975,9.9273],[-62.4709,-39.6924,9.7655],[-62.4858,-39.6665,10.4101],[-62.4789,-39.651,13.2516],[-62.4807,-39.6397,7.5],[-62.4749,-39.6315,11.0119],[-62.4805,-39.6243,10.7014],[-62.4923,-39.6192,12.4109],[-62.492,-39.6111,13.5129],[-62.4957,-39.6002,12.0329],[-62.5177,-39.5867,11.8868],[-62.5401,-39.5664,12.1485],[-62.5689,-39.5627,13.8837],[-62.5795,-39.558,13.797],[-62.6018,-39.5435,15.9808],[-62.6218,-39.5383,15.4809],[-62.6245,-39.5357,16.852],[-62.6221,-39.5302,19.6378],[-62.6257,-39.5235,15.3158],[-62.6341,-39.5244,15.6543],[-62.6394,-39.5271,16.1454],[-62.6438,-39.5254,16.9993],[-62.6479,-39.52,23.8306],[-62.6575,-39.518,17.7019],[-62.6774,-39.5197,21.0171],[-62.682,-39.5212,19.1584],[-62.6926,-39.5286,27.0312],[-62.6967,-39.5259,26.6886],[-62.7188,-39.5225,23.4334],[-62.7231,-39.5204,17.5377],[-62.7325,-39.5089,18.5328],[-62.7538,-39.5008,18.9768],[-62.7702,-39.5056,19.7119],[-62.7833,-39.5032,21.1904],[-62.8126,-39.5064,21.1832],[-62.8221,-39.5112,21.2146],[-62.8368,-39.513,21.3353],[-62.8417,-39.5163,21.7284],[-62.8461,-39.5243,20.733],[-62.8683,-39.5199,34.3072],[-62.8831,-39.5074,30.8753],[-62.8992,-39.5029,35.3576],[-62.9285,-39.4999,23.6003],[-62.9504,-39.5109,25.2161],[-62.9575,-39.5118,25.5184],[-62.9629,-39.5089,25.1825],[-62.9679,-39.5024,24.6616],[-62.975,-39.5006,26.0312],[-62.9952,-39.4998,26.8526],[-63.0043,-39.4948,27.0504],[-63.0158,-39.4999,27.0712],[-63.0206,-39.4975,26.8016],[-63.0174,-39.4947,27.0395],[-63.0159,-39.4879,24.9184],[-63.0194,-39.4824,27.5455],[-63.0255,-39.4835,27.8111],[-63.0277,-39.487,27.7066],[-63.0331,-39.4866,25.5952],[-63.0323,-39.482,26.446],[-63.0357,-39.478,28.2384],[-63.053,-39.4815,26.822],[-63.059,-39.475,28.2409],[-63.0698,-39.4721,30.5058],[-63.0757,-39.4684,29.6001],[-63.0743,-39.4641,30.3837],[-63.0661,-39.459,30.3657],[-63.065,-39.4557,28.6299],[-63.0853,-39.4545,30.5225],[-63.0865,-39.4588,30.2266],[-63.0932,-39.4651,29.9124],[-63.1012,-39.4662,29.7679],[-63.1034,-39.4631,28.5],[-63.0998,-39.4572,31.2464],[-63.0934,-39.4532,31.236],[-63.0932,-39.4488,33.0063],[-63.0965,-39.4459,31.7135],[-63.1023,-39.4468,33.4887],[-63.1109,-39.4511,30.9339],[-63.1151,-39.4491,32.2135],[-63.1083,-39.4428,31.2146],[-63.1053,-39.4374,32.3911],[-63.1027,-39.4296,31.6795],[-63.1034,-39.4206,45.1844],[-63.1079,-39.4164,33.2104],[-63.1137,-39.4142,31.5945],[-63.1244,-39.3986,32.4623],[-63.1301,-39.3962,33.2179],[-63.1368,-39.3892,43.6344],[-63.1483,-39.389,50.3818],[-63.1578,-39.3946,33.2947],[-63.1593,-39.3988,35.8758],[-63.1719,-39.4058,36.3663],[-63.1844,-39.3943,43.4218],[-63.1918,-39.3909,44.9022],[-63.2013,-39.3812,57.7386],[-63.2117,-39.3809,53.4041],[-63.2327,-39.3699,41.2588],[-63.2408,-39.3597,60.5576],[-63.2723,-39.3479,66.9626],[-63.2792,-39.3432,66.5894],[-63.2949,-39.3365,58.6893],[-63.3225,-39.3314,56.3299],[-63.3602,-39.327,50.5225],[-63.3694,-39.3244,41.1822],[-63.3888,-39.3254,41.2294],[-63.3902,-39.3684,52.9073],[-63.3908,-39.9976,39.9002],[-63.3852,-40.2104,52.1293],[-63.3875,-40.7066,9.6078],[-63.3708,-40.7016,11.1182],[-63.3675,-40.7018,7.9527],[-63.3634,-40.7065,11.7285],[-63.3649,-40.7114,6.0041],[-63.3632,-40.7164,5.9803],[-63.3598,-40.7182,13.2739],[-63.3251,-40.7079,8.2107],[-63.3071,-40.7061,22.0879],[-63.2962,-40.7105,17.4484],[-63.2959,-40.7194,8.5746],[-63.292,-40.7235,7.2671],[-63.2869,-40.7241,5.6058],[-63.2751,-40.7207,15.8673],[-63.1936,-40.7158,10.2149],[-63.1611,-40.7282,8.2395],[-63.1411,-40.7387,3.3686],[-63.1231,-40.7405,42.1569],[-63.118,-40.7428,25.441],[-63.1026,-40.7574,5.8011],[-63.0976,-40.7596,3.3019],[-63.0738,-40.7639,6.896],[-63.0512,-40.7708,0.6459],[-63.0418,-40.7763,9.2351],[-63.0262,-40.7907,3.4094],[-63.0211,-40.7931,0.0],[-62.9976,-40.7968,1.3899],[-62.9736,-40.8111,5.0942],[-62.9569,-40.8174,2.6472],[-62.949,-40.8235,2.8931],[-62.9442,-40.8372,0.0],[-62.9289,-40.8449,4.3438],[-62.9252,-40.8483,2.247],[-62.9191,-40.8615,0.0],[-62.9127,-40.8692,0.0],[-62.8898,-40.8845,0.0],[-62.8743,-40.8987,0.0],[-62.8504,-40.9254,0.4682],[-62.8432,-40.943,0.0],[-62.8075,-40.9747,0.0],[-62.8029,-40.9831,0.0],[-62.7953,-41.0103,0.0],[-62.7904,-41.0207,0.0],[-62.794,-41.0224,0.0],[-62.7877,-41.0224,0.4164],[-62.7824,-41.0257,1.4079],[-62.7582,-41.0335,0.0],[-62.7396,-41.0332,1.4669],[-62.7326,-41.0354,1.5592],[-62.7307,-41.0332,1.4587],[-62.7235,-41.034,1.4367],[-62.7101,-41.0318,1.9962],[-62.7082,-41.0293,2.3039],[-62.7099,-41.0285,2.2769],[-62.7104,-41.0246,2.5579],[-62.7174,-41.0262,2.3039],[-62.719,-41.024,2.3557],[-62.711,-41.0229,2.9407],[-62.7062,-41.0165,2.0636],[-62.7004,-41.0149,2.0615],[-62.7004,-41.0118,2.565],[-62.6912,-41.0112,4.3568],[-62.6826,-41.0085,2.5861],[-62.6815,-41.0068,3.1556],[-62.6749,-41.0065,2.1656],[-62.6635,-40.9996,4.0211],[-62.6449,-40.9979,2.2671],[-62.6043,-40.9829,5.4602],[-62.5549,-40.9604,0.6576],[-62.5176,-40.9468,0.6823],[-62.5096,-40.9454,0.0],[-62.4829,-40.936,4.1295],[-62.4415,-40.9268,3.1692],[-62.434,-40.9265,0.0],[-62.416,-40.9215,0.2914],[-62.3843,-40.9093,2.5197],[-62.3676,-40.9004,0.4398],[-62.3574,-40.8929,4.4533],[-62.324,-40.8785,0.0],[-62.3112,-40.871,1.1684],[-62.3037,-40.8576,0.8167],[-62.2952,-40.8268,2.6627],[-62.2907,-40.8199,0.0],[-62.2899,-40.8151,1.3056],[-62.2774,-40.7896,0.2569],[-62.2737,-40.7804,0.0],[-62.2746,-40.7788,6.7539],[-62.2624,-40.761,3.5697],[-62.2568,-40.7396,0.8665],[-62.251,-40.7301,3.9402],[-62.2363,-40.7124,0.1763],[-62.2337,-40.706,0.0],[-62.2346,-40.6949,0.0],[-62.2313,-40.6879,2.2217],[-62.234,-40.684,1.909],[-62.2224,-40.6685,1.5987],[-62.2232,-40.666,1.6015],[-62.2204,-40.6624,1.4483],[-62.2082,-40.6529,1.5135],[-62.206,-40.6485,1.5303],[-62.2012,-40.6449,1.6929],[-62.2018,-40.6435,1.7726],[-62.1954,-40.6385,1.6453],[-62.1949,-40.6326,1.3128],[-62.1996,-40.6321,2.254],[-62.2065,-40.6354,1.3276],[-62.2115,-40.6401,1.2306],[-62.2121,-40.6432,2.6179],[-62.234,-40.6538,0.7276],[-62.244,-40.6524,1.4261],[-62.2468,-40.6496,0.9772],[-62.2562,-40.649,0.5303],[-62.2593,-40.6474,0.3045],[-62.2699,-40.6496,3.9251],[-62.2782,-40.6463,0.5027],[-62.2932,-40.6463,0.1528],[-62.2924,-40.651,0.3843],[-62.2893,-40.6529,0.3668],[-62.2832,-40.6529,0.4627],[-62.284,-40.6557,0.0],[-62.2871,-40.6538,0.3781],[-62.2885,-40.6554,1.4479],[-62.2918,-40.6549,2.5157],[-62.3001,-40.6468,0.2356],[-62.3112,-40.6435,1.3167],[-62.3129,-40.6396,0.2604],[-62.3232,-40.639,0.0],[-62.3215,-40.641,0.6401],[-62.3182,-40.6404,1.3117],[-62.3126,-40.6426,0.5692],[-62.3126,-40.6437,1.2456],[-62.3229,-40.6432,1.955],[-62.3318,-40.6404,1.5414],[-62.3326,-40.6382,1.4234],[-62.3362,-40.6393,1.3341],[-62.3357,-40.6365,0.9369],[-62.3385,-40.6368,2.7398],[-62.3404,-40.6351,2.7369],[-62.3415,-40.6324,0.4893],[-62.3404,-40.6296,0.2],[-62.3457,-40.6257,0.2797],[-62.341,-40.6232,0.0582],[-62.3418,-40.6196,0.1683],[-62.3374,-40.6182,0.3199],[-62.3368,-40.6157,0.7633],[-62.3385,-40.614,0.5026],[-62.3454,-40.6151,0.6988],[-62.3437,-40.6129,0.3998],[-62.3471,-40.6113,0.5607],[-62.3532,-40.6137,0.6733],[-62.3535,-40.6115,0.5073],[-62.3565,-40.6113,0.7125],[-62.3518,-40.6079,0.5283],[-62.3435,-40.6065,0.1572],[-62.3435,-40.6018,0.3906],[-62.3468,-40.5999,0.387],[-62.3587,-40.604,0.6725],[-62.3599,-40.6032,0.5465],[-62.3537,-40.599,0.3331],[-62.3468,-40.5993,0.0182],[-62.3424,-40.5962,0.5524],[-62.3338,-40.5946,0.1546],[-62.3329,-40.5904,0.3154],[-62.3318,-40.5954,0.3444],[-62.3288,-40.5999,0.0],[-62.3288,-40.616,0.0],[-62.3168,-40.6254,0.1838],[-62.3007,-40.6343,2.1894],[-62.2965,-40.639,0.6931],[-62.296,-40.6418,0.0],[-62.2749,-40.6449,0.0],[-62.2496,-40.6451,0.3977],[-62.2526,-40.6407,2.0979],[-62.2443,-40.6312,0.2379],[-62.2493,-40.6282,2.8454],[-62.2537,-40.6226,0.772],[-62.2551,-40.611,1.5486],[-62.2526,-40.6115,1.0641],[-62.2532,-40.6212,1.2693],[-62.2487,-40.6265,1.0394],[-62.2454,-40.6224,0.1366],[-62.2454,-40.6193,0.1127],[-62.2471,-40.616,1.0412],[-62.251,-40.6137,0.9039],[-62.251,-40.6107,0.7704],[-62.2443,-40.6063,0.0],[-62.2451,-40.6018,0.0],[-62.2435,-40.5988,0.0],[-62.2496,-40.5943,0.6959],[-62.2485,-40.5904,0.4269],[-62.2496,-40.5876,0.132],[-62.261,-40.579,0.9139],[-62.2615,-40.5713,0.2598],[-62.2585,-40.5696,0.5075],[-62.2615,-40.5635,0.5695],[-62.2607,-40.561,0.1675],[-62.2637,-40.559,0.4041],[-62.2626,-40.5621,0.7222],[-62.2649,-40.564,1.0151],[-62.2679,-40.5629,0.3993],[-62.2707,-40.5654,1.1116],[-62.2701,-40.5629,0.3845],[-62.274,-40.564,0.7042],[-62.2721,-40.5615,0.6468],[-62.2737,-40.556,0.4614],[-62.2699,-40.5565,0.4994],[-62.2676,-40.5604,0.3806],[-62.2651,-40.5596,0.4912],[-62.264,-40.5568,0.4001],[-62.2612,-40.5568,0.3538],[-62.2604,-40.559,0.2714],[-62.2599,-40.5565,0.0981],[-62.2615,-40.5543,0.3886],[-62.2687,-40.5537,0.2635],[-62.2718,-40.5504,0.0],[-62.2713,-40.546,0.8339],[-62.2735,-40.5451,0.1998],[-62.2782,-40.5457,0.0],[-62.2843,-40.5429,0.1875],[-62.2943,-40.5415,0.0],[-62.2932,-40.5443,0.0],[-62.2943,-40.5454,0.0],[-62.2879,-40.5496,0.1967],[-62.2893,-40.5504,0.4753],[-62.294,-40.5476,0.2352],[-62.2954,-40.5432,0.2729],[-62.3001,-40.5396,0.0],[-62.3096,-40.5396,2.8049],[-62.3174,-40.5376,0.0],[-62.3207,-40.5346,2.6852],[-62.3215,-40.5246,0.0],[-62.3232,-40.5226,0.0],[-62.3218,-40.5187,0.0],[-62.316,-40.5176,0.0],[-62.3135,-40.5149,0.0],[-62.3132,-40.5118,0.0],[-62.3176,-40.5057,0.0],[-62.3446,-40.4904,0.0],[-62.3563,-40.4943,0.0],[-62.3624,-40.4943,0.0],[-62.3724,-40.491,0.0],[-62.3812,-40.4849,0.0],[-62.3824,-40.4826,0.0],[-62.3804,-40.4821,0.0],[-62.3846,-40.4765,0.0],[-62.3932,-40.4729,0.0],[-62.3937,-40.4701,0.0],[-62.3976,-40.4668,0.0],[-62.4062,-40.4663,0.0],[-62.406,-40.4646,0.0],[-62.4171,-40.4526,0.0],[-62.419,-40.4487,0.0],[-62.4188,-40.4451,0.0],[-62.4212,-40.4454,0.3686],[-62.4193,-40.4365,0.0],[-62.4229,-40.4282,1.5624],[-62.426,-40.4243,0.0],[-62.4329,-40.4218,0.0],[-62.4412,-40.4113,0.8044],[-62.4421,-40.4046,0.0],[-62.4474,-40.3963,0.0],[-62.4457,-40.3951,0.0],[-62.446,-40.391,0.0],[-62.4476,-40.3915,0.0],[-62.4465,-40.3876,0.0],[-62.4518,-40.3779,0.0],[-62.4562,-40.3746,0.0],[-62.4599,-40.364,0.0],[-62.4626,-40.3643,0.9236],[-62.4621,-40.3593,0.4409],[-62.4635,-40.3582,0.4409],[-62.4607,-40.3579,0.0],[-62.4646,-40.3571,0.8346],[-62.4651,-40.349,0.0],[-62.4724,-40.3435,1.7121],[-62.476,-40.344,1.7002],[-62.4765,-40.3393,1.9855],[-62.4796,-40.3382,1.9866],[-62.4818,-40.3346,1.9699],[-62.4818,-40.3315,2.1296],[-62.4799,-40.3307,1.7554],[-62.4818,-40.3262,1.8084],[-62.4837,-40.3268,2.0745],[-62.4821,-40.321,1.4957],[-62.4843,-40.321,1.9882],[-62.4824,-40.3132,2.1834],[-62.4863,-40.3124,2.356],[-62.4863,-40.3071,2.4421],[-62.4851,-40.301,2.6097],[-62.4813,-40.2943,2.835],[-62.4665,-40.2826,2.5025],[-62.4646,-40.2771,2.9525],[-62.4529,-40.269,2.672],[-62.454,-40.2657,2.7498],[-62.4482,-40.2551,2.463],[-62.4415,-40.2476,3.1488],[-62.4374,-40.2465,2.2541],[-62.4371,-40.2443,3.1923],[-62.4329,-40.2435,-0.2974],[-62.4221,-40.2346,1.7438],[-62.4193,-40.2354,1.3963],[-62.4135,-40.2329,2.4688],[-62.3926,-40.2313,0.2506],[-62.3862,-40.2279,1.4645],[-62.3824,-40.2238,1.6391],[-62.366,-40.2229,0.7853],[-62.3618,-40.2193,0.0],[-62.3601,-40.214,0.0],[-62.3446,-40.2021,1.2239],[-62.3443,-40.1999,1.0437],[-62.3471,-40.2004,1.1457],[-62.3526,-40.2051,1.5379],[-62.3574,-40.2065,1.2131],[-62.344,-40.1965,0.6966],[-62.3418,-40.1901,1.3874],[-62.3396,-40.189,1.3144],[-62.3251,-40.1671,0.0],[-62.3165,-40.1485,0.0],[-62.319,-40.1379,0.0],[-62.3229,-40.1324,0.432],[-62.3213,-40.1312,0.0],[-62.324,-40.1251,0.9973],[-62.3218,-40.1221,0.0],[-62.3271,-40.1082,0.2539],[-62.3274,-40.1012,0.0],[-62.3318,-40.0979,0.0],[-62.3385,-40.084,1.3136],[-62.341,-40.0621,0.7464],[-62.3357,-40.0421,0.0],[-62.3351,-40.0279,0.0],[-62.3296,-40.0126,0.0],[-62.329,-39.9957,1.4789],[-62.3246,-39.984,0.0],[-62.3246,-39.9732,0.2013],[-62.3304,-39.9654,1.2781],[-62.3274,-39.9626,0.0],[-62.3296,-39.9624,0.9929],[-62.3304,-39.9585,1.2352],[-62.3274,-39.9557,0.0],[-62.3243,-39.9412,2.2791],[-62.319,-39.9404,1.99],[-62.3207,-39.9421,1.1605],[-62.3176,-39.9426,0.5927],[-62.3135,-39.9393,0.0],[-62.3149,-39.9362,0.0],[-62.3221,-39.9315,1.1165],[-62.324,-39.9321,1.5275],[-62.3235,-39.9337,1.3771],[-62.3176,-39.9376,1.3917],[-62.3182,-39.939,1.6521],[-62.3257,-39.9371,1.728],[-62.3271,-39.9337,2.064],[-62.3207,-39.9282,0.7714],[-62.3229,-39.9224,1.1392],[-62.3221,-39.9176,1.3487],[-62.3235,-39.9157,1.5914],[-62.3296,-39.9137,2.3962],[-62.324,-39.9104,1.7393],[-62.3221,-39.9057,1.9266],[-62.3229,-39.9043,1.9978],[-62.3207,-39.9026,2.0954],[-62.319,-39.9029,2.481],[-62.319,-39.9046,1.4172],[-62.3213,-39.9057,1.8011],[-62.3213,-39.9085,1.5988],[-62.3254,-39.9132,1.9083],[-62.3221,-39.9137,1.6649],[-62.3213,-39.916,1.3669],[-62.3185,-39.9135,1.204],[-62.3165,-39.9074,0.4125],[-62.3176,-39.906,0.8329],[-62.3154,-39.9021,1.0186],[-62.3126,-39.901,0.5357],[-62.3135,-39.8937,0.4228],[-62.3129,-39.8885,0.9919],[-62.3104,-39.8843,1.3376],[-62.3101,-39.8746,0.8922],[-62.3071,-39.8724,1.0909],[-62.306,-39.874,0.7217],[-62.3029,-39.8732,0.5908],[-62.3015,-39.8704,1.1287],[-62.3021,-39.8729,0.6575],[-62.3004,-39.8754,0.8441],[-62.3018,-39.8754,1.4628],[-62.3024,-39.8735,0.5908],[-62.304,-39.874,0.6092],[-62.304,-39.8799,0.0],[-62.2974,-39.8815,0.8327],[-62.2962,-39.8849,0.0837],[-62.2926,-39.8832,0.2314],[-62.2921,-39.8801,0.3147],[-62.289,-39.8785,0.6023],[-62.2949,-39.8785,0.9485],[-62.2968,-39.8746,0.5137],[-62.2943,-39.8779,1.1761],[-62.2882,-39.8776,1.137],[-62.2863,-39.8793,1.2142],[-62.2837,-39.8765,0.5168],[-62.2851,-39.8799,0.669],[-62.2904,-39.8801,0.9047],[-62.2887,-39.8851,0.7309],[-62.2751,-39.884,1.1329],[-62.2751,-39.8862,0.0],[-62.2732,-39.8874,0.1438],[-62.2643,-39.8857,1.1551],[-62.264,-39.8835,0.884],[-62.2679,-39.8838,0.6729],[-62.2721,-39.8804,0.64],[-62.2746,-39.8804,1.217],[-62.2718,-39.8799,0.64],[-62.2665,-39.8832,0.6729],[-62.2646,-39.8829,1.0949],[-62.2649,-39.881,1.1657],[-62.264,-39.8801,1.4881],[-62.2646,-39.8824,1.0949],[-62.261,-39.8832,1.1875],[-62.261,-39.8779,1.0654],[-62.269,-39.8746,0.6697],[-62.2624,-39.8763,0.4857],[-62.2601,-39.8776,1.4398],[-62.2596,-39.8804,0.2742],[-62.2535,-39.881,0.0],[-62.2543,-39.8746,0.621],[-62.2604,-39.8749,1.2926],[-62.2629,-39.8724,0.693],[-62.266,-39.8729,0.2593],[-62.2776,-39.8721,0.726],[-62.2801,-39.8735,1.2224],[-62.2796,-39.8721,0.6482],[-62.2782,-39.8715,0.726],[-62.274,-39.8718,0.2303],[-62.2732,-39.8676,0.8028],[-62.2682,-39.8613,0.1657],[-62.2646,-39.8599,0.0],[-62.2663,-39.8576,1.9117],[-62.2651,-39.8532,0.3969],[-62.271,-39.8496,1.5369],[-62.2771,-39.8504,1.5342],[-62.2837,-39.8446,1.5183],[-62.2779,-39.8493,0.9692],[-62.2704,-39.849,0.6985],[-62.2651,-39.8521,1.579],[-62.2646,-39.8557,0.9008],[-62.2654,-39.8568,1.4564],[-62.2635,-39.8593,0.7936],[-62.2626,-39.8565,0.9708],[-62.2618,-39.8585,0.5798],[-62.2576,-39.8585,1.2775],[-62.2604,-39.8596,0.642],[-62.26120340080972,-39.865662024291517,0.6257],[-62.2612,-39.8657,0.6257],[-62.261216406249993,-39.865760156249962,0.6257],[-62.2615,-39.8679,0.0],[-62.2529,-39.8688,1.0376],[-62.2493,-39.8749,0.4646],[-62.2465,-39.8749,1.1983],[-62.2496,-39.8754,0.4646],[-62.249,-39.8779,0.6148],[-62.2446,-39.8787,1.1967],[-62.2371,-39.8849,0.4355],[-62.2118,-39.8835,0.3289],[-62.2115,-39.8818,0.9455],[-62.2043,-39.8821,0.1332],[-62.201,-39.8804,0.4998],[-62.1904,-39.8815,0.0],[-62.1901,-39.8799,0.6196],[-62.184,-39.8793,0.8049],[-62.1821,-39.8757,1.0931],[-62.1768,-39.8757,0.1419],[-62.1762,-39.8729,1.0668],[-62.1726,-39.8701,1.0786],[-62.164,-39.8699,0.5642],[-62.1676,-39.8668,0.8375],[-62.1693,-39.861,0.8367],[-62.1793,-39.856,0.6475],[-62.1918,-39.8529,0.8158],[-62.1943,-39.8582,0.5509],[-62.1932,-39.8532,0.2656],[-62.1901,-39.8524,0.6428],[-62.1813,-39.8546,0.3218],[-62.1685,-39.8601,0.8367],[-62.166,-39.8668,0.0],[-62.1615,-39.8704,0.0],[-62.1518,-39.8715,0.7381],[-62.1443,-39.8763,0.0],[-62.1435,-39.879,0.0],[-62.1285,-39.8859,0.1946],[-62.1338,-39.8804,0.7887],[-62.1368,-39.8793,0.9301],[-62.1332,-39.8746,0.8501],[-62.1362,-39.879,0.645],[-62.1332,-39.8799,0.7887],[-62.1293,-39.8832,0.3567],[-62.1279,-39.8846,0.5489],[-62.1282,-39.8868,0.1972],[-62.1246,-39.8879,1.4942],[-62.1237,-39.881,2.8493],[-62.121,-39.8799,2.2988],[-62.1168,-39.8729,3.1781],[-62.116,-39.8626,0.0],[-62.1235,-39.8629,2.1363],[-62.1215,-39.8599,2.0664],[-62.1185,-39.859,2.0647],[-62.1196,-39.8568,1.8239],[-62.1162,-39.856,1.928],[-62.1188,-39.8537,1.8719],[-62.1193,-39.8499,1.1057],[-62.124,-39.8537,0.8604],[-62.1251,-39.8582,1.1494],[-62.1271,-39.8593,0.0],[-62.1338,-39.8596,1.2311],[-62.1385,-39.8574,0.2484],[-62.1413,-39.8576,0.3266],[-62.1421,-39.8593,0.4917],[-62.1451,-39.859,1.1142],[-62.149,-39.8546,1.2922],[-62.1482,-39.8515,0.3774],[-62.1501,-39.8479,1.0951],[-62.156,-39.8424,0.8779],[-62.1621,-39.8404,1.4128],[-62.1654,-39.8354,0.5076],[-62.1657,-39.8304,1.0098],[-62.1685,-39.8301,0.8202],[-62.1729,-39.8329,1.0801],[-62.1715,-39.8312,1.5411]]],
[[[-62.261216406249993,-39.865760156249962,0.6257],[-62.26120340080972,-39.865662024291517,0.6257],[-62.2618,-39.859,0.5798],[-62.2674,-39.8624,0.1657],[-62.2726,-39.8704,0.0],[-62.2679,-39.8713,0.0],[-62.2646,-39.8685,0.2324],[-62.2646,-39.8657,0.5967],[-62.2615,-39.8668,0.0],[-62.261216406249993,-39.865760156249962,0.6257]]],
[[[-62.1087,-40.126,0.3608],[-62.1079,-40.1249,0.3608],[-62.1099,-40.1246,0.67],[-62.1174,-40.1287,0.0],[-62.1207,-40.1393,0.2086],[-62.1249,-40.1451,1.5915],[-62.1271,-40.154,0.2397],[-62.1296,-40.1562,0.0],[-62.1315,-40.1701,1.0576],[-62.129,-40.1929,0.2162],[-62.1243,-40.2015,0.0],[-62.1176,-40.2093,2.1404],[-62.1157,-40.2154,1.0958],[-62.1126,-40.2182,0.8175],[-62.114,-40.221,0.5774],[-62.1129,-40.226,0.0],[-62.1107,-40.2238,0.7716],[-62.1115,-40.2201,0.5903],[-62.1043,-40.219,0.4218],[-62.1024,-40.216,0.7878],[-62.1021,-40.2104,0.6352],[-62.0971,-40.2054,0.0],[-62.0976,-40.2018,0.6446],[-62.1001,-40.199,0.0],[-62.1051,-40.1993,0.0],[-62.1063,-40.2018,0.2345],[-62.1051,-40.2035,1.4176],[-62.1101,-40.2015,1.8367],[-62.1115,-40.1968,0.495],[-62.1099,-40.1963,0.495],[-62.1096,-40.1921,0.0],[-62.1135,-40.1935,0.5691],[-62.1121,-40.1915,0.1841],[-62.1132,-40.1885,0.2504],[-62.111,-40.1865,0.4505],[-62.1057,-40.186,0.0],[-62.1043,-40.1815,0.6171],[-62.1096,-40.1751,0.6667],[-62.114,-40.1757,0.1834],[-62.1143,-40.1721,0.4992],[-62.1165,-40.1718,1.9471],[-62.1154,-40.1674,0.0],[-62.1199,-40.1651,0.4422],[-62.1154,-40.1629,0.0],[-62.116,-40.1585,0.0],[-62.1196,-40.156,1.4729],[-62.1174,-40.1562,1.3232],[-62.1154,-40.1535,1.4688],[-62.1118,-40.1524,0.2456],[-62.1124,-40.1504,0.7243],[-62.1162,-40.1496,1.7684],[-62.1126,-40.1471,0.2616],[-62.116,-40.1429,0.4931],[-62.1132,-40.141,0.5745],[-62.1168,-40.1382,1.8254],[-62.1165,-40.1326,0.6858],[-62.1115,-40.1268,0.2351],[-62.1087,-40.126,0.3608]]]]}}