{"type":"Feature","properties":{"GID_2":"ARG.1.6_1","GID_0":"ARG","country":"Argentina","GID_1":"ARG.1_1","state":"BuenosAires","NL_NAME_1":"NA","county":"Arrecifes","VARNAME_2":"BartolomeMitre","NL_NAME_2":"NA","TYPE_2":"Partido","ENGTYPE_2":"Part","CC_2":"NA","HASC_2":"AR.BA.BM","name":"Arrecifes.county"},
"geometry":{"type": "MultiPolygon","coordinates": [[[[-59.7831,-34.0124,20.2985],[-59.7966,-34.0055,29.4258],[-60.0246,-33.8317,39.9222],[-60.0402,-33.8333,41.0694],[-60.0559,-33.8304,41.9225],[-60.0713,-33.8214,43.0151],[-60.0903,-33.8135,45.2367],[-60.0975,-33.8175,45.9401],[-60.0979,-33.8202,46.406],[-60.1111,-33.8206,47.3266],[-60.1567,-33.748,53.2837],[-60.1934,-33.8157,60.8569],[-60.2355,-33.867,62.6709],[-60.2388,-34.0143,37.4098],[-60.2295,-34.0247,43.9315],[-60.2064,-34.0389,35.0296],[-60.1975,-34.0512,33.0834],[-60.1929,-34.0544,32.0126],[-60.1681,-34.0633,30.7099],[-60.1739,-34.0696,31.9257],[-60.1791,-34.0874,31.081],[-60.1872,-34.1063,32.9517],[-60.1865,-34.1122,31.2251],[-60.1898,-34.1169,34.4943],[-60.1898,-34.1203,34.3039],[-60.1853,-34.1304,32.1223],[-60.186,-34.1333,34.2844],[-60.1947,-34.141,35.8847],[-60.1952,-34.1448,32.9357],[-60.2066,-34.1661,37.5934],[-60.2093,-34.1873,37.5151],[-60.2042,-34.2023,34.8724],[-60.0762,-34.2512,60.548],[-60.0802,-34.2549,60.3749],[-60.0551,-34.2665,59.4934],[-60.0344,-34.2723,57.2159],[-60.0077,-34.247,49.5427],[-60.0076,-34.2312,47.8083],[-60.0053,-34.2227,51.0801],[-59.9973,-34.2103,45.5806],[-59.992,-34.1923,46.2247],[-59.9931,-34.1774,39.181399999999996],[-59.9917,-34.1708,43.0662],[-59.994,-34.1545,34.287],[-59.99,-34.1408,39.6176],[-59.9912,-34.1332,40.1697],[-59.9963,-34.1203,28.9926],[-59.9885,-34.0904,23.7332],[-59.9736,-34.0866,22.1969],[-59.9658,-34.0884,23.2998],[-59.959,-34.0835,19.9497],[-59.9457,-34.079,20.7562],[-59.9192,-34.0792,20.3399],[-59.9117,-34.0816,20.3633],[-59.9018,-34.078,18.2923],[-59.893,-34.0723,19.0063],[-59.8783,-34.0669,19.8065],[-59.8547,-34.0552,16.8173],[-59.8523,-34.0493,26.3203],[-59.8475,-34.0445,28.3258],[-59.8388,-34.038,16.6824],[-59.8356,-34.0383,15.4142],[-59.8252,-34.0317,15.6697],[-59.8222,-34.0187,18.815],[-59.8126,-34.0159,19.3512],[-59.8025,-34.0185,13.5123],[-59.7963,-34.0179,13.8586],[-59.7831,-34.0124,20.2985]]]]}}