{"type":"Feature","properties":{"GID_2":"ARG.13.12_1","GID_0":"ARG","country":"Argentina","GID_1":"ARG.13_1","state":"Mendoza","NL_NAME_1":"NA","county":"Rivadavia","VARNAME_2":"NA","NL_NAME_2":"NA","TYPE_2":"Departamento","ENGTYPE_2":"Department","CC_2":"NA","HASC_2":"AR.MZ.RI","name":"Rivadavia.county"},
"geometry":{"type": "MultiPolygon","coordinates": [[[[-68.6711,-33.2264,718.6494],[-68.6836,-33.2489,728.5925],[-68.6798,-33.253,729.6759],[-68.6798,-33.2582,740.8429],[-68.6829,-33.2628,733.4767],[-68.698,-33.2759,745.292],[-68.7054,-33.2902,752.9022],[-68.711,-33.2965,772.1645],[-68.7142,-33.3093,791.8951],[-68.7153,-33.325,783.5],[-68.7235,-33.336,783.5],[-68.7655,-33.371,786.4119],[-68.7817,-33.39,787.0374],[-68.7954,-33.3963,788.5996],[-68.8057,-33.3959,789.9019],[-68.8187,-33.4034,791.6809],[-68.8484,-33.4132,798.219],[-68.8631,-33.4236,807.8313],[-68.8799,-33.4443,812.1337],[-68.8872,-33.4507,814.676],[-68.9119,-33.4617,820.8365],[-68.9217,-33.4624,828.1442],[-68.9316,-33.466,834.6451],[-68.9505,-33.4804,839.7027],[-68.983,-33.4975,841.7313],[-68.9886,-33.503,843.4047],[-68.9934,-33.5109,857.6443],[-69.0029,-33.5467,853.2704],[-68.568,-33.733,1060.153],[-68.6031,-33.4891,1109.093],[-68.2866,-33.478,698.5575],[-68.2862,-33.3293,622.3986],[-68.2917,-33.3216,623.3315],[-68.2864,-33.3105,623.1893],[-68.2908,-33.2313,627.603],[-68.327,-33.2236,636.1385],[-68.3638,-33.2107,642.4569],[-68.378,-33.2074,645.4457],[-68.4068,-33.1878,648.9903],[-68.406,-33.1863,649.5215],[-68.4117,-33.1812,650.6036],[-68.4268,-33.1725,653.8225],[-68.4423,-33.1604,658.9924],[-68.4504,-33.159,658.1351],[-68.4787,-33.1483,664.5599],[-68.4919,-33.1515,666.994],[-68.4914,-33.1489,666.4169],[-68.5102,-33.1514,670.2827],[-68.5492,-33.1525,677.2284],[-68.5757,-33.1663,684.8095],[-68.5969,-33.1723,688.5778],[-68.607,-33.1723,690.4483],[-68.6429,-33.1922,703.8432],[-68.6373,-33.2006,703.7052],[-68.6626,-33.217,714.0257],[-68.6667,-33.2337,719.9183],[-68.6711,-33.2264,718.6494]]]]}}