{"type":"Feature","properties":{"GID_2":"ARG.18.7_1","GID_0":"ARG","country":"Argentina","GID_1":"ARG.18_1","state":"SanJuan","NL_NAME_1":"NA","county":"Iglesia","VARNAME_2":"Rodeo","NL_NAME_2":"NA","TYPE_2":"Departamento","ENGTYPE_2":"Department","CC_2":"NA","HASC_2":"AR.SJ.IG","name":"Iglesia.county"},
"geometry":{"type": "MultiPolygon","coordinates": [[[[-68.9669,-28.9643,3790.5735],[-68.964,-28.9598,3809.4766],[-68.9529,-28.9553,3913.6597],[-68.95,-28.9499,3856.1538],[-68.9552,-28.9345,3882.4163],[-68.9511,-28.9248,3793.3513],[-68.9493,-28.9142,3686.8098],[-69.0932,-28.7868,3501.3123],[-69.1423,-28.7399,3488.6355],[-69.1556,-28.7045,3754.8535],[-69.1791,-28.6557,3671.4338],[-69.1842,-28.6404,3839.9043],[-69.1971,-28.6164,3851.0925],[-69.199,-28.6059,3680.5479],[-69.1979,-28.5899,3465.3721],[-69.3523,-28.4351,3880.1729],[-69.3827,-28.4455,3957.7854],[-69.3947,-28.446,4025.1611],[-69.4,-28.4484,3932.2524],[-69.4121,-28.4491,3944.4814],[-69.4353,-28.4437,3985.2307],[-69.4474,-28.4432,4004.5388],[-69.4513,-28.4396,4017.8179],[-69.4536,-28.4346,3998.4277],[-69.4586,-28.4322,4060.113],[-69.4663,-28.4239,4136.0933],[-69.475,-28.4101,4069.7595],[-69.4838,-28.4026,4087.3157],[-69.4892,-28.4008,4089.4492],[-69.5074,-28.401,4118.6494],[-69.5245,-28.4056,4503.3296],[-69.5303,-28.405,4483.1055],[-69.5652,-28.3968,4436.417],[-69.5928,-28.3841,5345.939],[-69.597,-28.3924,5332.5107],[-69.6096,-28.3941,5382.9863],[-69.6206,-28.3868,5574.5264],[-69.6241,-28.3786,5693.5156],[-69.6287,-28.3787,5691.835],[-69.6347,-28.3839,5678.0654],[-69.63,-28.394,5847.6235],[-69.6375,-28.3886,5782.9951],[-69.6397,-28.3927,5760.5015],[-69.6495,-28.3963,5581.5684],[-69.6479,-28.4051,5427.2241],[-69.6512,-28.4106,5451.4004],[-69.6563,-28.4132,5571.3521],[-69.6528,-28.418,5483.751],[-69.6491,-28.4169,5507.771],[-69.6428,-28.424,5408.666],[-69.6331,-28.43,5487.1699],[-69.6376,-28.4344,5443.1709],[-69.6393,-28.4426,5240.7769],[-69.6488,-28.4431,5382.2324],[-69.6532,-28.445,5527.0972],[-69.6585,-28.4443,5603.0713],[-69.6599,-28.447,5656.4517],[-69.665,-28.4498,5615.4009],[-69.6677,-28.456,5600.0264],[-69.6723,-28.4579,5486.1147],[-69.6741,-28.4702,5336.8042],[-69.6808,-28.4711,5424.1348],[-69.6749,-28.4773,5280.5708],[-69.6658,-28.4806,5344.7891],[-69.6661,-28.4976,5163.9668],[-69.6558,-28.5029,5397.1787],[-69.6651,-28.5112,5398.5225],[-69.6657,-28.5148,5361.4351],[-69.6628,-28.5179,5403.2822],[-69.6637,-28.5226,5280.2432],[-69.652,-28.5311,5162.875],[-69.6523,-28.5354,5284.2314],[-69.6503,-28.5386,5260.4712],[-69.6535,-28.5415,5242.4243],[-69.6599,-28.5402,5094.3022],[-69.6652,-28.5499,5112.6772],[-69.6644,-28.5549,5142.7354],[-69.6695,-28.5546,5137.6396],[-69.6657,-28.5611,5026.3882],[-69.6704,-28.5646,4993.1719],[-69.6701,-28.5737,4920.9688],[-69.6666,-28.5788,4911.1143],[-69.6614,-28.5829,4921.2983],[-69.6687,-28.5848,4961.8867],[-69.6689,-28.5897,4951.5752],[-69.6765,-28.5915,5114.7354],[-69.6826,-28.5872,5052.3887],[-69.6939,-28.5949,5013.8423],[-69.6954,-28.5998,5024.4644],[-69.6875,-28.6035,5105.7329],[-69.6884,-28.6053,5084.71],[-69.6949,-28.6078,4925.4219],[-69.7036,-28.6208,4758.4604],[-69.6986,-28.6261,4868.561],[-69.699,-28.6304,4902.1875],[-69.704,-28.6335,4876.6543],[-69.7015,-28.6371,4832.042],[-69.7016,-28.6402,4812.5762],[-69.7072,-28.6446,4869.5327],[-69.7104,-28.6506,4893.0513],[-69.72,-28.6605,4910.9307],[-69.7266,-28.6703,4864.1519],[-69.7273,-28.6763,4931.0303],[-69.7306,-28.6792,4954.6445],[-69.7316,-28.6856,5089.6909],[-69.7276,-28.6922,5100.582],[-69.7325,-28.7024,5068.1836],[-69.7308,-28.7066,5019.147],[-69.7246,-28.7083,5004.981],[-69.7308,-28.7225,5196.7695],[-69.7273,-28.7237,5250.0801],[-69.724,-28.729,5190.8359],[-69.7298,-28.7377,5052.9297],[-69.7206,-28.7416,4791.7129],[-69.7187,-28.7446,4728.209],[-69.7157,-28.7441,4725.6782],[-69.7009,-28.7515,4673.9756],[-69.6966,-28.7599,4593.8174],[-69.6971,-28.7636,4576.0845],[-69.6932,-28.7721,4830.5215],[-69.6989,-28.7802,4596.9487],[-69.7026,-28.7786,4563.2456],[-69.7063,-28.7805,4586.6348],[-69.709,-28.7894,4598.8203],[-69.7087,-28.7968,4759.2749],[-69.7069,-28.7982,4730.8843],[-69.7055,-28.8052,4775.5557],[-69.7086,-28.8074,4807.0352],[-69.7089,-28.815,4659.1377],[-69.7115,-28.817,4500.3066],[-69.7156,-28.8265,4574.6367],[-69.7221,-28.8317,4641.2847],[-69.7229,-28.8414,4656.333],[-69.7265,-28.8441,4747.3354],[-69.7274,-28.847,4777.3857],[-69.732,-28.8461,4584.2471],[-69.733,-28.8483,4562.333],[-69.7362,-28.847,4546.5176],[-69.7453,-28.8498,4667.376],[-69.7417,-28.8587,4714.5625],[-69.7412,-28.8654,4717.4819],[-69.7435,-28.8677,4715.5674],[-69.7499,-28.8685,4682.7007],[-69.7507,-28.8699,4641.1733],[-69.7473,-28.8758,4627.9521],[-69.7462,-28.8819,4801.6377],[-69.7495,-28.8838,4806.7925],[-69.7502,-28.8869,4781.4419],[-69.754,-28.8868,4811.8057],[-69.7591,-28.8894,4940.3643],[-69.7661,-28.8995,5081.771],[-69.7654,-28.9027,5086.0518],[-69.7619,-28.9048,5076.7939],[-69.7676,-28.9103,5238.9355],[-69.7668,-28.9252,5334.9043],[-69.7587,-28.9308,5141.1289],[-69.7539,-28.9369,5308.8467],[-69.7557,-28.9477,5320.9526],[-69.7538,-28.9581,5750.083],[-69.7628,-28.9654,5631.5728],[-69.7617,-28.9695,5601.353],[-69.7629,-28.9742,5408.4858],[-69.7546,-28.9821,5269.5054],[-69.7545,-28.9842,5340.375],[-69.7683,-28.99,5313.791],[-69.7708,-28.9983,5359.9917],[-69.7774,-29.0055,5332.7588],[-69.7775,-29.0136,5278.2769],[-69.7851,-29.0152,5366.0684],[-69.7812,-29.0191,5365.6255],[-69.7858,-29.0267,5455.1323],[-69.7876,-29.0271,5451.3857],[-69.7876,-29.033,5536.3584],[-69.7859,-29.0366,5560.9839],[-69.7897,-29.0393,5539.4287],[-69.7879,-29.043,5576.8848],[-69.7898,-29.0477,5607.4639],[-69.7938,-29.05,5494.251],[-69.7924,-29.054,5571.6377],[-69.7947,-29.0574,5632.4141],[-69.7907,-29.0645,5772.0205],[-69.7945,-29.069,5724.9863],[-69.7932,-29.0789,5712.606],[-69.7965,-29.0816,5890.2397],[-69.7914,-29.0868,5800.8091],[-69.7856,-29.0998,5956.9956],[-69.7868,-29.106,5933.8101],[-69.7914,-29.1118,5979.8027],[-69.7885,-29.1195,6013.0488],[-69.7872,-29.1298,6124.0205],[-69.7892,-29.1332,6018.8813],[-69.7925,-29.1348,5718.3745],[-69.8389,-29.1291,4627.8979],[-69.8457,-29.1341,4564.21],[-69.8583,-29.1333,4379.1719],[-69.8639,-29.1355,4383.7891],[-69.8679,-29.1392,4393.2695],[-69.8759,-29.1388,4462.8604],[-69.8836,-29.144,4469.0156],[-69.8892,-29.152,4485.1289],[-69.8893,-29.1556,4548.4473],[-69.894,-29.1582,4347.0952],[-69.9015,-29.1596,4450.5073],[-69.9051,-29.1696,4675.6182],[-69.9215,-29.1816,4894.3491],[-69.9238,-29.1862,5135.9307],[-69.9316,-29.1885,5295.5884],[-69.943,-29.1886,5327.3574],[-69.944,-29.1869,5363.9307],[-69.9527,-29.1888,5466.6064],[-69.9443,-29.2045,5025.2598],[-69.9512,-29.2119,4585.2891],[-69.952,-29.2167,4685.3516],[-69.9461,-29.23,4541.9258],[-69.9401,-29.2314,4542.7012],[-69.9387,-29.2427,4667.5645],[-69.9364,-29.245,4809.1152],[-69.9372,-29.2481,4687.2393],[-69.951,-29.2661,4555.0586],[-69.9658,-29.2708,4833.5366],[-69.9709,-29.274,4925.0864],[-69.9831,-29.2753,5248.7959],[-69.995,-29.283,5413.1338],[-70.0008,-29.2932,5587.269],[-69.9998,-29.2978,5448.583],[-69.9962,-29.3015,5277.1465],[-69.9968,-29.305,5163.4551],[-70.0026,-29.3091,5051.0649],[-70.0063,-29.3096,5014.6826],[-70.0061,-29.3128,4991.876],[-70.0105,-29.3145,4947.1631],[-70.0125,-29.3191,4973.4214],[-70.016,-29.3191,4986.3931],[-70.0189,-29.3211,5083.665],[-70.0209,-29.3287,5226.4883],[-70.021,-29.3304,5244.4141],[-70.0191,-29.3307,5240.3496],[-70.0136,-29.3372,5265.8477],[-70.0121,-29.3412,5336.6753],[-70.0179,-29.3424,5379.4395],[-70.0101,-29.353,5239.7671],[-70.0113,-29.3548,5243.8057],[-70.0179,-29.3544,5116.4175],[-70.0217,-29.3586,5122.2988],[-70.0173,-29.3616,5075.25],[-70.0164,-29.3663,5077.3447],[-70.0118,-29.3696,5066.4175],[-70.0188,-29.3782,5296.5845],[-70.0212,-29.3844,5329.519],[-70.0149,-29.3882,5382.3496],[-70.015,-29.3912,5355.4512],[-70.0106,-29.3943,5106.9023],[-69.9973,-29.3969,4873.6421],[-69.9906,-29.4007,4672.1504],[-69.981,-29.4014,4560.1343],[-69.9774,-29.4034,4572.4771],[-69.9738,-29.4086,4526.8442],[-69.9708,-29.4087,4571.0791],[-69.9671,-29.4124,4572.7847],[-69.9692,-29.4232,4513.5815],[-69.967,-29.427,4498.4111],[-69.9735,-29.4331,4560.2891],[-69.972,-29.4381,4491.5615],[-69.9728,-29.4409,4502.9893],[-69.9814,-29.4516,4938.4673],[-69.9784,-29.4538,4858.106],[-69.9731,-29.4547,4777.9966],[-69.9687,-29.4605,4744.7324],[-69.9549,-29.4634,4677.752],[-69.9549,-29.4661,4774.689],[-69.9587,-29.4687,4749.1372],[-69.9574,-29.4766,4787.3843],[-69.9509,-29.481,4798.0615],[-69.9466,-29.488,4853.9956],[-69.9525,-29.5023,4889.0483],[-69.9465,-29.5121,4792.3418],[-69.9475,-29.5156,4763.7202],[-69.9463,-29.5193,4749.2632],[-69.9486,-29.5273,4776.3691],[-69.9541,-29.5302,4934.5913],[-69.9542,-29.5334,4950.5703],[-69.9565,-29.5346,4916.7251],[-69.9475,-29.5449,4702.9863],[-69.9462,-29.5541,4713.5332],[-69.9429,-29.5554,4675.8203],[-69.9393,-29.559,4727.7168],[-69.9391,-29.5616,4763.4385],[-69.9357,-29.564,4727.9839],[-69.9331,-29.5747,4807.5664],[-69.9342,-29.5809,4787.6855],[-69.9319,-29.584,4739.7222],[-69.9339,-29.5857,4717.5576],[-69.933,-29.5881,4717.6792],[-69.935,-29.5952,4708.3833],[-69.9338,-29.5991,4677.0859],[-69.9412,-29.6113,4492.9224],[-69.9383,-29.6171,4535.3477],[-69.9378,-29.6226,4700.7417],[-69.9414,-29.6455,4800.228],[-69.9398,-29.6546,4753.6714],[-69.9358,-29.6586,4787.3018],[-69.9331,-29.6658,4697.4238],[-69.9296,-29.666,4692.4175],[-69.9237,-29.6699,4892.3486],[-69.9232,-29.676,4899.2876],[-69.9208,-29.6805,4894.6353],[-69.9217,-29.685,4823.459],[-69.9122,-29.6909,4656.1133],[-69.9099,-29.6989,4495.4941],[-69.9022,-29.6968,4502.6406],[-69.8974,-29.6931,4528.0791],[-69.8935,-29.694,4492.2715],[-69.891,-29.6994,4538.0391],[-69.8824,-29.7089,4904.1914],[-69.8862,-29.7134,4827.4663],[-69.8862,-29.7183,5018.6494],[-69.8877,-29.7209,5019.1543],[-69.8775,-29.7265,4863.5474],[-69.8797,-29.7279,4879.5078],[-69.8797,-29.7337,5011.8174],[-69.8861,-29.7374,5013.3022],[-69.8912,-29.748,5036.8447],[-69.8975,-29.753,4833.1069],[-69.8965,-29.7569,4777.0347],[-69.8938,-29.7597,4730.6528],[-69.8932,-29.7671,4756.7852],[-69.8982,-29.7727,4768.8838],[-69.907,-29.7885,4804.7485],[-69.9117,-29.7914,4815.8677],[-69.9114,-29.7959,4771.0527],[-69.9137,-29.8002,4762.4282],[-69.9131,-29.8073,4812.5059],[-69.8998,-29.8108,4847.8711],[-69.9,-29.8148,4778.7305],[-69.8901,-29.822,4736.8584],[-69.8966,-29.8244,4770.9487],[-69.8982,-29.8296,4743.2583],[-69.8964,-29.8333,4803.9111],[-69.9002,-29.8394,4780.6973],[-69.9001,-29.844,4779.7261],[-69.8941,-29.853,5041.1011],[-69.8868,-29.8533,5078.9614],[-69.8832,-29.8585,4849.6675],[-69.8767,-29.8624,4786.9707],[-69.8847,-29.8721,5036.6279],[-69.8965,-29.8787,5335.5811],[-69.8921,-29.8843,5222.8975],[-69.8881,-29.886,5108.6255],[-69.8898,-29.8906,5006.9136],[-69.8955,-29.8952,5012.1099],[-69.8906,-29.8985,4882.2559],[-69.8883,-29.9045,4892.665],[-69.9043,-29.9184,5165.8101],[-69.9047,-29.9224,5254.7202],[-69.9087,-29.9284,5478.5669],[-69.909,-29.9344,5794.9668],[-69.9066,-29.9393,6099.1177],[-69.9033,-29.9371,5938.2451],[-69.8962,-29.9363,5996.9175],[-69.8962,-29.9446,5948.0527],[-69.9005,-29.9522,5756.5356],[-69.8989,-29.959,5496.4307],[-69.9081,-29.9698,5436.7002],[-69.9088,-29.9773,5205.9199],[-69.9135,-29.9791,5147.6938],[-69.9207,-29.9859,4926.0293],[-69.923,-29.996,4830.7969],[-69.9268,-30.0029,4832.5757],[-69.9242,-30.0115,4997.9673],[-69.9204,-30.0151,5131.1929],[-69.9141,-30.0255,5056.9868],[-69.9204,-30.0297,4960.75],[-69.9234,-30.0381,5088.8062],[-69.9326,-30.0453,5161.2817],[-69.9345,-30.0518,5406.3804],[-69.9419,-30.053,5159.0957],[-69.9438,-30.058,5101.9219],[-69.9536,-30.0669,4932.2158],[-69.9619,-30.0684,5085.2324],[-69.9633,-30.073,5153.7441],[-69.9589,-30.0748,5081.4839],[-69.958,-30.0777,5054.627],[-69.9601,-30.083,5141.2749],[-69.9655,-30.0854,5267.3232],[-69.9638,-30.0883,5248.3594],[-69.9606,-30.0877,5213.4209],[-69.9597,-30.0903,5156.8467],[-69.9553,-30.0925,5177.2383],[-69.9445,-30.0933,5083.1719],[-69.9419,-30.1057,5074.6797],[-69.9451,-30.1124,5207.6191],[-69.9427,-30.1169,5243.3989],[-69.937,-30.1202,5431.0684],[-69.9297,-30.1198,5491.0649],[-69.9231,-30.1162,5274.9717],[-69.918,-30.111,5540.9805],[-69.9112,-30.1106,5544.4062],[-69.9099,-30.1083,5523.5234],[-69.9052,-30.106,5524.2588],[-69.8918,-30.1096,5209.9629],[-69.8827,-30.1092,5070.4072],[-69.8698,-30.1127,5175.1108],[-69.8576,-30.1238,5020.2764],[-69.8531,-30.1237,4996.7402],[-69.8476,-30.13,5085.5117],[-69.8398,-30.1293,4951.8726],[-69.8318,-30.1253,4933.2383],[-69.8182,-30.1274,5015.4595],[-69.818,-30.1347,5074.0967],[-69.8152,-30.1362,5106.5654],[-69.8096,-30.1446,5234.1758],[-69.8118,-30.1505,5251.835],[-69.8096,-30.1545,5286.0063],[-69.82,-30.1571,5208.9238],[-69.8213,-30.1609,5186.9004],[-69.8289,-30.1619,5103.8867],[-69.8218,-30.1712,5004.2739],[-69.8237,-30.174,4962.0596],[-69.8174,-30.1793,4947.647],[-69.8228,-30.1831,4921.3662],[-69.823,-30.1844,4921.3662],[-69.8193,-30.1869,4996.896],[-69.8207,-30.1894,4866.8623],[-69.8263,-30.1927,4761.7642],[-69.8325,-30.2092,5317.3271],[-69.8325,-30.2138,5528.292],[-69.8356,-30.2192,5702.6665],[-69.8414,-30.2199,5714.9854],[-69.8531,-30.2178,5747.3315],[-69.8673,-30.2115,5741.9434],[-69.876,-30.213,5213.4897],[-69.8849,-30.2181,5353.5244],[-69.8876,-30.2243,5265.7598],[-69.8845,-30.236,5176.1587],[-69.8878,-30.2382,5265.9663],[-69.8853,-30.2434,5485.7686],[-69.8872,-30.2472,5564.7764],[-69.8792,-30.2578,5818.8228],[-69.8844,-30.2678,5970.5396],[-69.8837,-30.2724,5989.8374],[-69.8887,-30.2742,6068.6846],[-69.8633,-30.2846,5028.9521],[-69.8624,-30.2834,5057.4092],[-69.8548,-30.2887,4953.7778],[-69.8475,-30.2995,5046.7412],[-69.8475,-30.3183,5102.3516],[-69.8571,-30.342,4540.7607],[-69.8458,-30.3719,4279.5039],[-69.8426,-30.3938,5140.5142],[-69.8401,-30.3997,4979.7905],[-69.8345,-30.4077,5282.4473],[-69.8178,-30.42,5167.187],[-69.7957,-30.4305,5632.6636],[-69.7872,-30.4408,5922.0962],[-69.7812,-30.4588,5537.0127],[-69.7801,-30.484,5205.5957],[-69.7819,-30.4996,4900.1709],[-69.7794,-30.512,5146.9136],[-69.7652,-30.534,5218.1216],[-69.7459,-30.5528,4946.4478],[-69.7382,-30.5635,5155.9023],[-69.72,-30.6047,4911.6089],[-69.7214,-30.6108,4863.6582],[-69.72,-30.617,4635.6025],[-69.7133,-30.6247,4670.6641],[-69.7036,-30.6278,4669.0469],[-69.6779,-30.6254,4156.0156],[-69.6535,-30.632,3985.8687],[-69.6477,-30.6356,3945.5979],[-69.6303,-30.6518,4077.2534],[-69.6003,-30.6696,3817.4141],[-69.5731,-30.6784,3448.718],[-69.5659,-30.6796,3397.6838],[-69.555,-30.6786,3312.0989],[-69.5386,-30.672,3146.8074],[-69.5313,-30.6711,3098.5771],[-69.4529,-30.6847,2647.6709],[-69.4311,-30.6849,2583.2302],[-69.4169,-30.6878,2544.0317],[-69.4044,-30.6942,2508.6343],[-69.3936,-30.7068,2478.9131],[-69.3559,-30.7366,2457.9087],[-69.2867,-30.7645,2494.5303],[-69.2467,-30.7646,2490.8115],[-69.2109,-30.7702,2566.7808],[-69.1818,-30.7707,2628.7688],[-69.1279,-30.7789,3024.6482],[-69.1044,-30.7857,3194.1865],[-69.1009,-30.7731,3042.833],[-69.0996,-30.7571,2885.0127],[-69.092,-30.7334,2724.6326],[-69.0921,-30.7221,2707.8047],[-69.0943,-30.7135,2692.7859],[-69.1065,-30.6924,2596.115],[-69.1068,-30.6802,2626.8572],[-69.1156,-30.6592,2658.2246],[-69.1158,-30.6398,2608.8774],[-69.1118,-30.6357,2797.1904],[-69.0981,-30.6369,2680.3188],[-69.0932,-30.6346,2685.3384],[-69.0851,-30.6344,2610.0156],[-69.056,-30.6362,2720.6104],[-69.0576,-30.6334,2738.4048],[-69.058,-30.6201,2770.6157],[-69.0642,-30.6003,2712.071],[-69.0699,-30.5479,2824.6914],[-69.0684,-30.5352,2853.5625],[-68.9952,-30.5393,3121.7922],[-69.0133,-30.4979,3254.2832],[-69.0161,-30.4791,3095.832],[-69.0248,-30.4485,2695.4082],[-69.0473,-30.4127,2676.2144],[-69.0462,-30.4034,2587.8667],[-69.039,-30.3925,2619.3855],[-69.0353,-30.3771,2468.8193],[-69.0383,-30.3682,2473.8296],[-69.0503,-30.3566,2561.3105],[-69.0514,-30.3503,2412.7979],[-69.0473,-30.3417,2516.4268],[-69.0378,-30.3322,2497.2932],[-69.0338,-30.3234,2463.3345],[-69.0329,-30.3171,2356.7681],[-69.0381,-30.2988,2349.9985],[-69.0457,-30.2881,2339.8774],[-69.0498,-30.2793,2217.6421],[-69.0527,-30.2638,2217.6206],[-69.0541,-30.2072,1539.6527],[-69.0505,-30.179,1598.6714],[-69.0394,-30.1264,1857.4875],[-69.0383,-30.0792,2046.7074],[-69.04,-30.0699,2074.6626],[-69.0513,-30.0433,2117.2512],[-69.0533,-30.0277,2204.9023],[-69.0517,-30.0151,2217.9165],[-69.045,-30.0078,2260.8479],[-69.0406,-29.9991,2242.7444],[-69.035,-29.9842,2317.1313],[-69.0339,-29.9748,2439.3232],[-69.0346,-29.959,2537.9604],[-69.0407,-29.9184,2851.604],[-69.0453,-29.8399,2964.3486],[-69.0433,-29.8307,3038.9617],[-69.0369,-29.816,3441.0908],[-69.031,-29.7659,3995.6482],[-69.0249,-29.7348,4043.4944],[-69.0249,-29.675,4469.9243],[-69.0207,-29.6629,4566.7837],[-69.0162,-29.6381,4697.7363],[-69.0039,-29.6139,4021.3853],[-69.0162,-29.5884,4365.6362],[-69.0181,-29.5566,4426.8105],[-69.0291,-29.5318,4806.2646],[-69.031,-29.5212,4718.2407],[-69.0241,-29.5061,4450.4175],[-69.0089,-29.4834,4709.498],[-69.0001,-29.4761,4823.5542],[-68.9893,-29.4714,4615.4336],[-68.9749,-29.4542,4663.3315],[-68.9566,-29.443,4425.4487],[-68.9563,-29.4394,4340.1025],[-68.9773,-29.4189,4360.6172],[-68.9868,-29.4121,4085.7249],[-68.9932,-29.4031,4060.3118],[-68.9927,-29.3978,3979.4146],[-68.9869,-29.3827,3901.8037],[-68.9756,-29.3639,3948.8914],[-68.9746,-29.3587,4007.6763],[-68.9772,-29.3428,3884.5166],[-68.976,-29.3322,4046.9167],[-68.9731,-29.3277,3944.3113],[-68.9529,-29.3077,4089.1282],[-68.9521,-29.2917,4134.8984],[-68.956,-29.2818,4283.5059],[-68.9686,-29.2703,4082.8274],[-68.9723,-29.2493,3801.4019],[-68.9778,-29.234,4020.9075],[-68.9789,-29.2183,3851.5691],[-68.9809,-29.2132,3754.8796],[-68.9858,-29.2101,3804.2971],[-68.9887,-29.2051,3855.314],[-68.9718,-29.1953,3783.1641],[-68.9714,-29.19,3828.8167],[-68.9932,-29.1715,4270.4385],[-69.0088,-29.1645,4019.1938],[-69.0065,-29.1485,3852.5623],[-69.0043,-29.1433,3704.4824],[-69.0001,-29.1399,3960.2866],[-68.994,-29.139,4094.208],[-68.9902,-29.135,4197.5269],[-68.9814,-29.1209,4059.2778],[-68.9739,-29.1125,3975.5166],[-68.9685,-29.1119,4136.1313],[-68.9637,-29.1155,4402.2666],[-68.9573,-29.1243,4309.3843],[-68.952,-29.127,4249.5698],[-68.94,-29.1277,4213.2314],[-68.9346,-29.1253,4222.1152],[-68.9305,-29.1215,4251.8613],[-68.9259,-29.1116,4412.1377],[-68.9083,-29.09,4368.6729],[-68.9036,-29.0583,4386.6172],[-68.9055,-29.0478,4245.646],[-68.9176,-29.0295,4099.5566],[-68.9248,-29.0148,3925.8181],[-68.9317,-29.006,4091.2698],[-68.9456,-28.9963,3925.4612],[-68.9449,-28.9855,3884.7732],[-68.9466,-28.9804,3832.4995],[-68.9563,-28.9742,3903.8394],[-68.9666,-28.97,3749.4229],[-68.9669,-28.9643,3790.5735]]]]}}