{"type":"Feature","properties":{"GID_2":"ARG.18.6_1","GID_0":"ARG","country":"Argentina","GID_1":"ARG.18_1","state":"SanJuan","NL_NAME_1":"NA","county":"Chimbas","VARNAME_2":"NA","NL_NAME_2":"NA","TYPE_2":"Departamento","ENGTYPE_2":"Department","CC_2":"NA","HASC_2":"AR.SJ.CH","name":"Chimbas.county"},
"geometry":{"type": "MultiPolygon","coordinates": [[[[-68.6261,-31.5025,700.5608],[-68.5983,-31.5027,688.9802],[-68.5922,-31.5011,679.8607],[-68.5666,-31.5027,662.6848],[-68.5394,-31.4983,645.5773],[-68.5158,-31.4979,632.9801],[-68.4763,-31.4819,611.0439],[-68.4602,-31.4856,604.0812],[-68.4319,-31.495,597.3216],[-68.4465,-31.4709,600.9495],[-68.4666,-31.4544,609.3483],[-68.4744,-31.4516,610.6549],[-68.4808,-31.4521,612.0862],[-68.498,-31.4485,617.126],[-68.5068,-31.4485,619.6127],[-68.5126,-31.4492,620.4285],[-68.5307,-31.4576,628.192],[-68.5502,-31.4631,640.5729],[-68.5667,-31.4737,655.4637],[-68.5865,-31.4809,671.0718],[-68.5968,-31.4888,681.2429],[-68.6108,-31.4933,695.0674],[-68.6214,-31.501,697.0092],[-68.6261,-31.5025,700.5608]]]]}}