{"type": "Feature","bbox": [-55.8531,-28.1322,-55.4879,-27.6924],"geometry": {"type": "MultiPolygon","coordinates": [[[[-55.8199,-27.9484,98.2418],[-55.8087,-27.962,94.3004],[-55.8054,-27.9723,92.2459],[-55.7936,-27.9847,98.7483],[-55.7841,-27.9915,90.0523],[-55.7667,-27.997,116.9576],[-55.7622,-28.0005,105.5762],[-55.7512,-28.0047,128.0994],[-55.747,-28.0084,110.5402],[-55.7397,-28.0168,110.0204],[-55.7375,-28.0245,101.1753],[-55.7438,-28.0392,88.2403],[-55.7427,-28.0444,108.0239],[-55.739,-28.0486,100.845],[-55.7338,-28.0512,98.6428],[-55.7191,-28.0533,87.1244],[-55.7135,-28.0556,84.3276],[-55.7122,-28.0576,77.2917],[-55.712,-28.0683,84.8031],[-55.7102,-28.0734,108.0328],[-55.7062,-28.0774,108.3437],[-55.6981,-28.0808,95.9989],[-55.689,-28.0802,91.3013],[-55.6773,-28.0882,70.1391],[-55.6723,-28.0974,82.3009],[-55.6665,-28.0962,86.455],[-55.6619,-28.1031,84.3722],[-55.643,-28.1157,88.9993],[-55.6332,-28.1255,76.4038],[-55.6271,-28.1264,74.0036],[-55.6163,-28.1322,64.5505],[-55.6101,-28.1252,68.8825],[-55.5984,-28.1205,69.3873],[-55.5906,-28.1195,63.0],[-55.5816,-28.0989,94.3761],[-55.5862,-28.0923,95.117],[-55.584,-28.0905,80.7568],[-55.5727,-28.0911,66.5049],[-55.5692,-28.0867,70.8992],[-55.5695,-28.082,84.2237],[-55.5678,-28.0797,77.6269],[-55.5654,-28.0781,68.6878],[-55.5624,-28.0786,73.7249],[-55.5605,-28.0745,73.2801],[-55.5558,-28.0713,94.4814],[-55.5553,-28.0687,106.763],[-55.5591,-28.0596,81.3595],[-55.5562,-28.059,99.9801],[-55.5571,-28.0519,79.9914],[-55.552,-28.0455,92.3047],[-55.554,-28.0354,77.9059],[-55.5504,-28.0311,87.0365],[-55.551,-28.0233,99.992],[-55.5481,-28.0189,99.082],[-55.5518,-28.0092,106.3154],[-55.5538,-27.988,126.7693],[-55.5593,-27.9701,118.1853],[-55.5588,-27.9651,119.9825],[-55.5632,-27.9582,113.3903],[-55.5645,-27.9503,133.4547],[-55.573,-27.9429,153.2682],[-55.5726,-27.9375,140.5657],[-55.6251,-27.937,124.7163],[-55.5531,-27.8261,155.5497],[-55.5209,-27.7571,267.8125],[-55.4955,-27.7599,319.5818],[-55.4879,-27.7031,226.6518],[-55.6144,-27.6924,188.896],[-55.6162,-27.7084,260.0555],[-55.6573,-27.7062,142.0833],[-55.6621,-27.7439,162.6238],[-55.6924,-27.7409,176.4205],[-55.6923,-27.7381,177.4897],[-55.6942,-27.7363,170.1987],[-55.7165,-27.7229,163.3625],[-55.7183,-27.715699999999998,159.0889],[-55.7218,-27.7111,174.0646],[-55.7448,-27.7169,220.5413],[-55.7561,-27.7011,171.5982],[-55.7662,-27.6939,161.3],[-55.7736,-27.7146,215.7305],[-55.769,-27.7287,186.0533],[-55.7853,-27.7331,153.7905],[-55.7895,-27.7296,150.6188],[-55.8024,-27.734,129.0019],[-55.802,-27.7394,128.107],[-55.8531,-27.7572,183.2092],[-55.8313,-27.8044,192.3266],[-55.833,-27.8124,157.4496],[-55.8404,-27.821,165.3215],[-55.8448,-27.8281,135.9829],[-55.846,-27.8334,128.5706],[-55.8447,-27.8387,127.3151],[-55.8321,-27.8573,137.5303],[-55.8356,-27.8732,119.8435],[-55.8358,-27.8895,105.0467],[-55.8333,-27.8972,105.8717],[-55.8224,-27.9103,100.8464],[-55.8185,-27.9236,104.0782],[-55.8188,-27.9287,115.8439],[-55.8236,-27.9417,103.3983],[-55.8199,-27.9484,98.2418]]]]}
,"properties": {"GID_2": "ARG.14.1_1","GID_0": "ARG","country": "Argentina","GID_1": "ARG.14_1","state": "Misiones","NL_NAME_1": "NA","county": "Apóstoles","VARNAME_2": "NA","NL_NAME_2": "NA","TYPE_2": "Departamento","ENGTYPE_2": "Department","CC_2": "NA","HASC_2": "AR.MN.AP","name": "Apóstoles.county","area_km2": 1044.8703,"hist_schema_id": "Elevation0-9000","hist_area_km2": {"50": 1.739,"75": 80.3503,"100": 156.1705,"125": 191.9266,"150": 213.8528,"175": 171.1955,"200": 103.0208,"225": 44.3852,"250": 29.4362,"275": 36.0406,"300": 13.5824,"325": 3.1329,"350": 0.0375}}}