{"type": "Feature","bbox": [-62.0536,-36.5206,-61.2716,-36.0181],"geometry": {"type": "MultiPolygon","coordinates": [[[[-61.2716,-36.0713,89.5992],[-61.3386,-36.0181,89.31],[-61.3965,-36.0677,92.1159],[-61.4362,-36.0371,91.3999],[-61.4593,-36.0552,92.5491],[-61.4957,-36.0257,90.6157],[-61.5996,-36.1087,95.4654],[-61.6158,-36.0944,95.457],[-61.6345,-36.1097,98.1354],[-61.6388,-36.1072,94.4642],[-61.6583,-36.1234,97.7453],[-61.6621,-36.1209,95.1969],[-61.6926,-36.145,100.4576],[-61.7065,-36.1349,96.5719],[-61.7435,-36.1648,97.6373],[-61.7718,-36.1414,96.1682],[-61.8115,-36.1709,96.8385],[-61.8151,-36.1677,97.0007],[-61.9475,-36.2702,102.0547],[-61.9253,-36.2884,103.4033],[-61.9479,-36.3086,105.0022],[-61.9399,-36.3154,105.1673],[-61.9502,-36.3254,105.0384],[-61.9599,-36.3176,104.8318],[-61.9658,-36.324,106.2799],[-61.9625,-36.3256,105.6924],[-61.9776,-36.3371,106.1091],[-62.0186,-36.3051,110.0773],[-62.0536,-36.3326,104.0597],[-61.9592,-36.4104,112.1918],[-61.9389,-36.3948,108.2018],[-61.9319,-36.4013,108.8863],[-61.9099,-36.3875,111.424],[-61.8551,-36.4307,111.1915],[-61.8638,-36.4383,111.7064],[-61.7644,-36.5206,114.5409],[-61.4072,-36.2385,98.0942],[-61.4397,-36.2134,98.7492],[-61.4039,-36.1833,96.869],[-61.4093,-36.1806,97.7024],[-61.3819,-36.1569,95.623],[-61.3782,-36.1594,94.5366],[-61.2716,-36.0713,89.5992]]]]}
,"properties": {"GID_2": "ARG.1.59_1","GID_0": "ARG","country": "Argentina","GID_1": "ARG.1_1","state": "BuenosAires","NL_NAME_1": "NA","county": "HipólitoYrigoyen","VARNAME_2": "Henderson","NL_NAME_2": "NA","TYPE_2": "Partido","ENGTYPE_2": "Part","CC_2": "NA","HASC_2": "AR.BA.HY","name": "HipólitoYrigoyen.county","area_km2": 1622.899,"hist_schema_id": "Elevation0-9000","hist_area_km2": {"100": 1547.343,"125": 75.437,"150": 0.119}}}