{"type": "Feature","bbox": [-59.7803,-37.8297,-58.6111,-36.8479],"geometry": {"type": "MultiPolygon","coordinates": [[[[-59.0908,-37.0632,123.3721],[-59.2205,-36.9652,120.77],[-59.216,-36.9594,120.0331],[-59.3626,-36.8479,113.0037],[-59.3671,-36.8538,114.1147],[-59.3662,-36.8578,114.3521],[-59.3679,-36.8612,115.0818],[-59.3652,-36.8658,115.6469],[-59.3616,-36.8877,118.4913],[-59.3641,-36.9027,120.0729],[-59.3686,-36.9073,120.9623],[-59.3879,-36.9456,127.418],[-59.3966,-36.9509,127.6796],[-59.3966,-36.956,128.4207],[-59.4044,-36.973,132.0921],[-59.4229,-36.9969,135.6327],[-59.4314,-37.0005,136.8085],[-59.4338,-37.0055,137.5807],[-59.4342,-37.0117,138.9304],[-59.4382,-37.017,137.6427],[-59.4372,-37.0244,139.4795],[-59.4455,-37.0316,140.763],[-59.4565,-37.0327,141.9257],[-59.46,-37.0315,142.5116],[-59.4763,-37.042,146.4819],[-59.4849,-37.0456,145.831],[-59.5137,-37.0752,150.9994],[-59.5203,-37.0841,151.9979],[-59.5286,-37.0846,152.6125],[-59.5382,-37.0825,154.0222],[-59.5451,-37.0834,153.8876],[-59.551,-37.097,155.3615],[-59.5674,-37.1025,157.7623],[-59.581,-37.1186,160.9718],[-59.5856,-37.126,162.0012],[-59.5833,-37.1335,166.8226],[-59.6016,-37.1473,167.019],[-59.6204,-37.1562,169.5809],[-59.6414,-37.1781,182.0127],[-59.6618,-37.183,176.3056],[-59.6653,-37.1853,177.0432],[-59.6719,-37.1945,179.9945],[-59.6723,-37.1981,182.2416],[-59.686,-37.2044,183.6672],[-59.6958,-37.2187,188.6877],[-59.7077,-37.2282,192.6689],[-59.7259,-37.2364,194.9701],[-59.7403,-37.2369,192.8474],[-59.7539,-37.242,196.5192],[-59.7803,-37.2467,202.8771],[-59.5581,-37.416,231.2608],[-59.5544,-37.4127,231.7423],[-59.2248,-37.6544,293.4698],[-59.1847,-37.6196,233.3055],[-59.1749,-37.628,226.5539],[-59.1667,-37.6322,224.1191],[-59.1558,-37.6482,218.7687],[-59.1527,-37.663,217.5066],[-59.1591,-37.6757,212.9077],[-59.1691,-37.706,205.2295],[-59.1662,-37.7214,199.5575],[-59.1653,-37.7422,194.8806],[-59.159,-37.747,193.6346],[-59.159,-37.7516,198.7337],[-59.1492,-37.7523,192.8064],[-59.1413,-37.7593,192.3394],[-59.1318,-37.7713,183.4349],[-59.1282,-37.7818,180.4585],[-59.1227,-37.789,182.5738],[-59.1141,-37.795,175.9632],[-59.1108,-37.8066,174.2336],[-59.1108,-37.8297,169.3414],[-58.6111,-37.4145,107.8059],[-58.986,-37.136,126.0493],[-59.0018,-37.1302,127.182],[-59.0908,-37.0632,123.3721]]]]}
,"properties": {"GID_2": "ARG.1.115_1","GID_0": "ARG","country": "Argentina","GID_1": "ARG.1_1","state": "BuenosAires","NL_NAME_1": "NA","county": "Tandil","VARNAME_2": "NA","NL_NAME_2": "NA","TYPE_2": "Partido","ENGTYPE_2": "Part","CC_2": "NA","HASC_2": "AR.BA.TD","name": "Tandil.county","area_km2": 4846.546,"hist_schema_id": "Elevation0-9000","hist_area_km2": {"100": 6.096,"125": 870.671,"150": 985.041,"175": 609.621,"200": 552.948,"225": 637.689,"250": 576.17,"275": 322.368,"300": 143.276,"325": 68.389,"350": 34.67,"375": 17.54,"400": 11.084,"425": 7.67,"450": 2.389,"475": 0.673,"500": 0.252}}}