{"type": "Feature","id": "1300","bbox": [-69.13406,-30.14018,-64.88247,-25.16],"geometry": {"type": "Polygon","coordinates": [[[-67.80686,-25.28321,4454.5801],[-68.48579,-25.16239,5139.2192],[-68.49647,-25.16,5263.5493],[-68.51605,-25.18358,5238.1895],[-68.55423,-25.29119,4856.9766],[-68.60596,-25.437,4952.1821],[-68.60994,-25.47421,4502.5635],[-68.60824,-25.49291,4315.4502],[-68.60291,-25.51069,4534.5342],[-68.56659,-25.55172,4597.9746],[-68.55501,-25.5726,4611.4971],[-68.56881,-25.58779,4566.2886],[-68.55961,-25.60856,4935.9927],[-68.56095,-25.63523,4803.7734],[-68.55935,-25.66303,4138.3081],[-68.54132,-25.68732,4225.7109],[-68.52189,-25.70561,4381.4448],[-68.50757,-25.72887,4940.6768],[-68.49848,-25.75491,4715.3091],[-68.48638,-25.83656,3984.6929],[-68.41709,-26.0936,4918.7031],[-68.40902,-26.14424,5082.2695],[-68.41988,-26.17928,5155.4512],[-68.54612,-26.26909,4829.6313],[-68.57516,-26.30351,4366.6592],[-68.58736,-26.33803,4384.7056],[-68.59392,-26.37865,4294.5166],[-68.59532,-26.4573,5149.9731],[-68.58741,-26.50825,5699.9014],[-68.57015,-26.55063,4949.5361],[-68.54421,-26.58928,4677.5293],[-68.51021,-26.62907,4563.0742],[-68.32014,-26.87009,4735.27],[-68.30536,-26.898,4892.8496],[-68.30211,-26.92662,4898.2275],[-68.30743,-26.94461,4839.502],[-68.32381,-26.98099,4909.959],[-68.32913,-27.00011,4909.9863],[-68.33115,-27.0122,5222.1963],[-68.32841,-27.03742,5429.2109],[-68.33048,-27.04496,5322.7979],[-68.33776,-27.04558,5177.1714],[-68.36649,-27.04352,5385.0781],[-68.37735,-27.04445,5920.085],[-68.42215,-27.06202,5713.0923],[-68.44308,-27.06667,5551.4902],[-68.49424,-27.06863,6026.7988],[-68.51801,-27.0769,5550.3647],[-68.53977,-27.09033,5881.0859],[-68.55739,-27.10739,6378.3511],[-68.56917,-27.12951,6326.4194],[-68.57537,-27.14935,5884.606],[-68.58586,-27.16279,5760.6338],[-68.61072,-27.16568,5522.9062],[-68.64947,-27.15121,5573.124],[-68.68286,-27.12692,5271.5059],[-68.71862,-27.10666,5954.6094],[-68.7643,-27.1046,5915.7324],[-68.80109,-27.11276,5727.1499],[-68.81432,-27.12031,5506.8057],[-68.82902,-27.13602,5392.0981],[-68.87075,-27.19844,4824.9678],[-68.87972,-27.22149,4633.5146],[-68.88137,-27.23906,4676.1504],[-68.87931,-27.27854,4659.9004],[-68.88305,-27.29497,4754.3125],[-68.93145,-27.39523,4522.8345],[-68.94263,-27.40887,4596.501],[-68.95863,-27.42106,4644.2876],[-68.99359,-27.4377,4797.9858],[-69.01015,-27.44887,4555.3657],[-69.01741,-27.46044,4620.2563],[-69.02051,-27.47336,4647.4219],[-69.01989,-27.4869,4706.3311],[-69.01627,-27.50013,4714.624],[-69.01901,-27.52431,4669.9385],[-69.02857,-27.55129,4826.2896],[-69.05387,-27.59966,4972.751],[-69.06299,-27.60999,5008.1689],[-69.08555,-27.62932,4683.7539],[-69.09234,-27.64017,4806.1099],[-69.09322,-27.6565,4654.0728],[-69.08746,-27.66921,4836.5063],[-69.08002,-27.68151,4882.8213],[-69.07583,-27.69619,4840.1123],[-69.0811,-27.70384,4881.4424],[-69.10834,-27.71583,4696.751],[-69.11821,-27.72213,4671.1807],[-69.12433,-27.73443,4676.6533],[-69.13406,-27.77234,4789.7021],[-69.12048,-27.77412,4791.229],[-68.84962,-27.79345,5386.5474],[-68.78249,-27.77691,6399.8052],[-68.76285,-27.76807,6257.3623],[-68.75319,-27.76559,6110.9004],[-68.68265,-27.75758,4879.082],[-68.6571,-27.75205,4493.5903],[-68.64666,-27.75174,4532.0557],[-68.63813,-27.75278,4493.9326],[-68.63172,-27.75479,4510.8765],[-68.60973,-27.76642,4886.8018],[-68.60108,-27.76936,4848.2603],[-68.58589,-27.77246,4820.7769],[-68.57669,-27.77277,4786.54],[-68.56906,-27.7721,4573.957],[-68.55361,-27.76626,4640.0146],[-68.54901,-27.76373,4685.1274],[-68.54064,-27.75727,4874.1865],[-68.53315,-27.74988,4821.249],[-68.52101,-27.74182,4752.6475],[-68.5093,-27.73779,4693.96],[-68.49917,-27.73577,4760.6416],[-68.45315,-27.74006,4260.1025],[-68.4423,-27.74306,4340.8506],[-68.43502,-27.74663,4407.8945],[-68.43207,-27.75066,4396.3193],[-68.4299,-27.75526,4454.9043],[-68.42856,-27.76022,4478.1357],[-68.42799,-27.7658,4588.6538],[-68.42791,-27.77153,4553.8501],[-68.42975,-27.78404,4628.5674],[-68.4461,-27.83174,4968.4507],[-68.44755,-27.83809,4853.8408],[-68.44866,-27.85029,4885.2432],[-68.44812,-27.86161,4994.2627],[-68.44556,-27.87179,4857.0137],[-68.44334,-27.87628,4694.8604],[-68.43279,-27.89344,4384.7017],[-68.43099,-27.89799,4346.6553],[-68.42993,-27.90336,4292.3271],[-68.43024,-27.90925,4292.1821],[-68.43135,-27.91556,4309.9858],[-68.44548,-27.96635,4268.854],[-68.44726,-27.97938,4238.0366],[-68.44695,-27.98511,4165.8286],[-68.44595,-27.99028,4161.1055],[-68.44287,-27.99808,4197.6069],[-68.44223,-27.99943,4197.6069],[-68.44036,-28.00118,4213.3828],[-68.42716,-28.00971,4394.04],[-68.41941,-28.01204,4590.481],[-68.41202,-28.01307,4513.7744],[-68.39951,-28.01204,4220.0952],[-68.38127,-28.01235,4251.728],[-68.36507,-28.01426,3936.1021],[-68.35569,-28.01664,3914.5691],[-68.34843,-28.01943,3943.2585],[-68.33879,-28.02532,3904.7808],[-68.33004,-28.03193,3948.2944],[-68.3158,-28.04676,3954.5623],[-68.30521,-28.06371,4073.75],[-68.29577,-28.07451,4333.8716],[-68.28541,-28.08242,4320.895],[-68.27727,-28.08624,4199.1758],[-68.26921,-28.08857,4305.9019],[-68.26221,-28.08919,4358.979],[-68.23084,-28.08655,4117.7339],[-68.2049,-28.09027,3960.7874],[-68.16136,-28.1017,4043.8657],[-68.15152,-28.10562,4076.0898],[-68.1464,-28.10836,4115.6074],[-68.13824,-28.11518,4318.0083],[-68.12819,-28.12681,4439.188],[-68.12545,-28.131,4382.8418],[-68.11439,-28.14231,4148.1924],[-68.10126,-28.15099,4106.043],[-68.09209,-28.15435,3928.5029],[-68.08437,-28.15523,4028.5686],[-68.07292,-28.15285,4399.8086],[-68.05225,-28.14541,4002.6558],[-68.03318,-28.13575,3848.3706],[-68.01739,-28.13032,3502.7129],[-68.01163,-28.12945,3491.5847],[-67.9961,-28.12945,3520.9802],[-67.98572,-28.12821,3376.5906],[-67.96995,-28.12076,3494.5837],[-67.96218,-28.11844,3543.1177],[-67.94853,-28.11766,3795.5583],[-67.93841,-28.12035,4063.1267],[-67.93195,-28.12407,4312.8809],[-67.92931,-28.12898,4272.9688],[-67.92923,-28.13487,4389.624],[-67.93244,-28.15435,4419.085],[-67.93249,-28.16024,4399.9561],[-67.92846,-28.17539,4211.3511],[-67.92533,-28.2145,3657.3218],[-67.9144,-28.24892,3544.7949],[-67.9121,-28.25342,3462.2373],[-67.86513,-28.31316,3486.8279],[-67.8505,-28.32793,3549.1267],[-67.84412,-28.33584,3693.0029],[-67.84174,-28.34008,3654.0476],[-67.84007,-28.34504,3660.2456],[-67.83717,-28.3609,3310.186],[-67.83275,-28.37052,3131.5288],[-67.8241,-28.3824,3341.792],[-67.80875,-28.38028,3281.4216],[-67.78343,-28.36013,2690.5649],[-67.767,-28.35346,2849.0889],[-67.70416,-28.33925,1685.9972],[-67.26013,-28.35832,1097.2897],[-67.18711,-28.35631,1079.569],[-67.112,-28.3453,1034.4598],[-67.09859,-28.34147,1005.0457],[-67.08975,-28.33574,979.7211],[-67.08179,-28.32886,961.985],[-67.06456,-28.31062,939.8023],[-67.06014,-28.30447,937.1514],[-67.05787,-28.29962,934.8378],[-67.055,-28.29481,928.7487],[-67.05205,-28.29083,928.6964],[-67.04867,-28.28804,930.158],[-67.04265,-28.28422,932.7983],[-67.03074,-28.27936,922.2012],[-67.00838,-28.26773,895.394],[-66.97616,-28.26742,870.7945],[-66.77948,-28.33062,786.0146],[-66.58435,-28.40416,726.9844],[-66.55027,-28.4439,720.7521],[-66.51834,-28.46751,710.3645],[-66.50963,-28.48023,709.4576],[-66.50237,-28.4888,714.9116],[-66.49862,-28.49428,723.0245],[-66.49596,-28.49914,725.4612],[-66.48632,-28.53314,756.0193],[-66.47395,-28.61412,1151.8955],[-66.4647,-28.63107,745.1707],[-66.4294,-28.67541,788.5372],[-66.39674,-28.70336,921.027],[-66.37863,-28.71546,1051.806],[-66.37313,-28.7184,1055.283],[-66.35163,-28.72708,1196.5966],[-66.33757,-28.73571,1556.1392],[-66.33553,-28.74067,1533.9626],[-66.33367,-28.74899,1761.2076],[-66.33499,-28.7554,1643.7328],[-66.33731,-28.76109,1727.2401],[-66.35623,-28.78816,1294.9585],[-66.36486,-28.79721,1362.8859],[-66.37008,-28.80413,1315.3597],[-66.37757,-28.81679,1176.5217],[-66.37933,-28.82444,972.6516],[-66.37894,-28.83085,948.2172],[-66.37703,-28.83566,908.1153],[-66.3623,-28.85452,725.0897],[-66.35333,-28.86248,496.3426],[-66.3344,-28.87452,443.1607],[-66.1657,-28.94381,333.0117],[-66.12182,-28.97063,318.6136],[-66.00067,-29.08065,299.4096],[-65.9794,-29.08959,296.9028],[-65.97036,-29.09492,296.383],[-65.79244,-29.2501,267.6346],[-65.76074,-29.29966,270.7187],[-65.75539,-29.3148,270.5316],[-65.75332,-29.32544,267.8739],[-65.75231,-29.37232,257.625],[-65.75347,-29.39045,260.4363],[-65.75291,-29.40342,258.0132],[-65.74079,-29.46533,262.1485],[-65.7295,-29.50218,267.8457],[-65.6664,-29.6353,241.5684],[-65.60532,-29.75136,209.8801],[-65.56883,-29.84278,201.6022],[-65.40189,-30.14018,185.0805],[-65.18819,-30.08685,181.7769],[-65.13819,-30.06307,181.5786],[-65.05163,-29.98463,180.624],[-64.94339,-29.87833,178.9432],[-64.93316,-29.86154,178.3313],[-64.93133,-29.84216,178.7692],[-64.96164,-29.61049,179.4774],[-64.95115,-29.57897,180.3459],[-64.88247,-29.55711,178.3506],[-64.90391,-29.53169,179.127],[-64.91461,-29.51024,180.2252],[-64.91753,-29.50559,180.3209],[-64.92696,-29.48606,181.6384],[-64.99197,-29.38503,195.0587],[-65.03543,-29.29268,242.5428],[-65.0793,-29.00014,256.2814],[-65.07507,-28.91772,263.5322],[-65.09258,-28.72135,311.705],[-65.0962,-28.70621,314.0146],[-65.0985,-28.70078,316.6283],[-65.10225,-28.69489,317.5762],[-65.12251,-28.67866,321.6295],[-65.16436,-28.65794,329.7314],[-65.17271,-28.65618,331.6879],[-65.1763,-28.65448,334.2091],[-65.17888,-28.65034,335.4948],[-65.18,-28.64507,336.0392],[-65.18067,-28.60988,339.804],[-65.17927,-28.60415,345.3894],[-65.17563,-28.59893,345.2372],[-65.15886,-28.59154,347.3353],[-65.15227,-28.58689,350.3341],[-65.1407,-28.56301,359.2462],[-65.12674,-28.54461,367.451],[-65.10323,-28.52151,370.2709],[-65.09067,-28.50627,375.235],[-65.07827,-28.48152,386.7158],[-65.07222,-28.42405,398.9168],[-65.0791,-28.2746,469.6862],[-65.16909,-27.90967,361.6067],[-65.19684,-27.92119,371.8524],[-65.21542,-27.92445,375.9449],[-65.22759,-27.92351,377.8462],[-65.24258,-27.91948,378.0312],[-65.26415,-27.90951,371.5333],[-65.28322,-27.89768,375.6955],[-65.30353,-27.88078,371.5266],[-65.31802,-27.87122,366.5498],[-65.33342,-27.86357,356.3454],[-65.34213,-27.86223,357.3947],[-65.34895,-27.86326,359.3651],[-65.43267,-27.90941,390.959],[-65.46385,-27.93742,415.305],[-65.49695,-27.96124,442.3143],[-65.50256,-27.96646,446.5254],[-65.52778,-27.99762,499.9206],[-65.52941,-28.0002,503.7565],[-65.55142,-28.04568,545.4009],[-65.55801,-28.05436,538.5803],[-65.57069,-28.05023,535.6144],[-65.65508,-27.95767,1166.1951],[-65.66457,-27.94517,1312.5916],[-65.67927,-27.90693,1295.8408],[-65.68893,-27.85365,1399.1957],[-65.69916,-27.82424,1495.3523],[-65.70304,-27.81789,1492.8584],[-65.71324,-27.80957,1163.9204],[-65.75828,-27.78838,1450.0374],[-65.77443,-27.78838,1443.3312],[-65.78327,-27.79407,1130.804],[-65.79538,-27.79954,1006.689],[-65.82107,-27.80569,1480.5519],[-65.84045,-27.79458,1685.3744],[-65.84476,-27.78947,1580.9028],[-65.85083,-27.78016,1472.2224],[-65.85497,-27.76781,1459.0226],[-65.85908,-27.74663,1495.6887],[-65.87225,-27.70678,1646.302],[-65.87786,-27.69722,1740.5737],[-65.88375,-27.69107,1770.9995],[-65.89739,-27.68487,2008.5967],[-65.90605,-27.6794,2149.4553],[-65.91915,-27.66766,2333.04],[-65.9253,-27.66053,2154.6165],[-65.92933,-27.65433,2140.2251],[-65.93238,-27.64431,2352.0],[-65.93969,-27.60157,2413.5403],[-65.95217,-27.57759,2227.5291],[-65.98685,-27.42995,1636.173],[-65.977,-27.40618,1386.5543],[-65.97778,-27.40076,1367.2487],[-65.98188,-27.39383,1412.7991],[-65.98829,-27.39151,1500.1798],[-65.99418,-27.39037,1606.3711],[-66.02382,-27.38763,1731.7756],[-66.09547,-27.34996,3038.8594],[-66.10645,-27.34551,3709.5383],[-66.14053,-27.34272,4132.7427],[-66.16236,-27.33781,4897.1201],[-66.18218,-27.33063,5175.8271],[-66.19055,-27.32521,5285.9932],[-66.19464,-27.31937,5253.3584],[-66.19347,-27.31404,5172.9248],[-66.19115,-27.30903,4850.5703],[-66.16546,-27.2743,4870.231],[-66.148,-27.23767,4636.2681],[-66.11593,-27.20588,4706.9492],[-66.09475,-27.19012,4603.9155],[-66.07426,-27.17095,4876.249],[-66.06762,-27.1618,4945.1401],[-66.06482,-27.157,5000.7275],[-66.06069,-27.14584,4697.2046],[-66.05715,-27.13292,4809.1499],[-66.03821,-27.10382,4443.5723],[-66.01421,-27.07607,4338.7925],[-65.98049,-27.04347,4488.1123],[-65.91078,-26.98063,4862.7734],[-65.88378,-26.94027,4309.0322],[-65.87233,-26.91644,4401.3223],[-65.8683,-26.90079,4334.3701],[-65.86719,-26.88931,4211.7231],[-65.86853,-26.8319,4038.425],[-65.86698,-26.81878,4005.3423],[-65.85205,-26.76167,3832.8438],[-65.85096,-26.75279,3699.9094],[-65.85083,-26.74033,3530.1733],[-65.85202,-26.73036,3298.1072],[-65.85352,-26.72317,3403.3657],[-65.85566,-26.71806,3372.1914],[-65.85802,-26.71367,3425.2068],[-65.86419,-26.70576,3079.8616],[-65.8682,-26.70235,2991.6536],[-65.87256,-26.69915,2933.9929],[-65.91688,-26.67992,2202.5217],[-65.98157,-26.63197,1959.7089],[-66.01584,-26.60075,1821.8495],[-66.03093,-26.59186,1818.042],[-66.05297,-26.5823,1835.0908],[-66.07836,-26.57507,1940.4761],[-66.09885,-26.57285,2279.4612],[-66.12058,-26.56809,2537.4912],[-66.13606,-26.55812,3036.7212],[-66.15203,-26.53786,3621.8184],[-66.15655,-26.52463,3731.2004],[-66.15784,-26.51316,3757.0122],[-66.15552,-26.49719,3737.9834],[-66.1387,-26.44893,3985.9807],[-66.11565,-26.40624,3988.7395],[-66.10627,-26.37849,4043.1863],[-66.10198,-26.35751,4026.2205],[-66.10208,-26.34134,4139.1499],[-66.10017,-26.32155,3953.4976],[-66.09389,-26.30764,3475.386],[-66.0795,-26.29235,3177.533],[-66.06855,-26.28258,3334.2041],[-66.06196,-26.27571,3452.2158],[-66.05382,-26.25349,3505.0464],[-66.09632,-26.23323,4188.9775],[-66.12162,-26.20796,4269.5732],[-66.14384,-26.17809,4223.7148],[-66.15704,-26.16988,4354.8613],[-66.17384,-26.16553,4362.9199],[-66.19187,-26.16388,4395.0498],[-66.20905,-26.16574,4639.5781],[-66.22482,-26.17096,4755.4619],[-66.23536,-26.17814,4776.9385],[-66.24401,-26.18786,4829.1294],[-66.26241,-26.22191,4500.9507],[-66.28982,-26.23535,4773.1235],[-66.29417,-26.23819,4943.957],[-66.30158,-26.24563,4905.9189],[-66.31329,-26.26429,4667.2388],[-66.35845,-26.36614,4673.9478],[-66.3623,-26.37203,4640.127],[-66.36775,-26.37777,4640.0854],[-66.37804,-26.385,4544.626],[-66.38574,-26.38764,4508.0845],[-66.39302,-26.38857,4401.9414],[-66.39935,-26.38733,4406.6328],[-66.40519,-26.38531,4488.5693],[-66.41059,-26.38273,4621.1572],[-66.41979,-26.37668,4593.6924],[-66.44997,-26.34847,4219.0605],[-66.51482,-26.28268,4963.6621],[-66.53327,-26.26,5013.5117],[-66.57159,-26.17737,4851.2568],[-66.59665,-26.15262,4634.9497],[-66.6049,-26.14068,4569.3403],[-66.61936,-26.09686,4712.0889],[-66.69995,-26.00492,4410.9219],[-66.78173,-25.8949,4657.3203],[-66.80287,-25.8592,4745.3115],[-66.81584,-25.81248,4608.3872],[-66.81695,-25.77191,4624.98],[-66.81462,-25.74577,4563.2173],[-66.81253,-25.73646,4541.4424],[-66.80997,-25.73016,4503.1753],[-66.80682,-25.72504,4451.1016],[-66.79925,-25.71791,4374.2759],[-66.79057,-25.71233,4334.0083],[-66.78584,-25.70985,4306.6211],[-66.76923,-25.6975,4234.9351],[-66.75016,-25.68029,4312.1084],[-66.74571,-25.6774,4382.4863],[-66.74068,-25.67549,4362.1152],[-66.73538,-25.67399,4356.2588],[-66.67019,-25.67399,4368.0996],[-66.62916,-25.6682,4849.833],[-66.58826,-25.67011,3999.0833],[-66.57668,-25.66841,4067.1895],[-66.57128,-25.66712,4165.437],[-66.56128,-25.66308,3972.7832],[-66.5125,-25.63089,3136.8347],[-66.49873,-25.6159,2781.2585],[-66.49503,-25.60851,2709.8428],[-66.49338,-25.60174,2731.8105],[-66.49358,-25.59616,2788.2021],[-66.49565,-25.58572,2727.3445],[-66.49485,-25.57673,2799.9312],[-66.471,-25.49813,3576.2573],[-66.46945,-25.4878,3430.6621],[-66.46924,-25.47979,3508.7993],[-66.47041,-25.47462,3661.988],[-66.47459,-25.46553,4074.5571],[-66.48578,-25.44899,4392.1406],[-66.50322,-25.42966,4393.7231],[-66.51759,-25.41039,4232.5454],[-66.51984,-25.40584,4235.8828],[-66.52332,-25.39633,4252.2134],[-66.52464,-25.39121,4253.8066],[-66.53454,-25.31525,4155.2959],[-66.53746,-25.30533,4179.7993],[-66.54598,-25.28724,4431.6948],[-66.55157,-25.27903,4442.23],[-66.55511,-25.27546,4363.7017],[-66.56035,-25.27236,4275.3032],[-66.56836,-25.27003,4199.4902],[-66.60102,-25.2691,4280.7349],[-67.80686,-25.28321,4454.5801]]]}
,"properties": {"ISO3166-1-Alpha-3": "ARG","country": "Argentina","fill": "#F0F","name": "Catamarca","area_km2": 101572.55,"hist_schema_id": "Elevation0-9000","hist_area_km2": {"175": 1814.83,"200": 1998.77,"225": 901.97,"250": 855.85,"275": 802.61,"300": 994.87,"325": 918.46,"350": 675.0,"375": 659.77,"400": 632.07,"425": 573.7,"450": 530.64,"475": 511.42,"500": 497.11,"525": 410.99,"550": 275.81,"575": 218.42,"600": 210.4,"625": 199.07,"650": 190.1,"675": 184.11,"700": 186.45,"725": 1191.86,"750": 1247.03,"775": 1019.5,"800": 904.12,"825": 873.77,"850": 729.19,"875": 557.66,"900": 459.96,"925": 450.63,"950": 423.08,"975": 429.91,"1000": 462.74,"1025": 468.74,"1050": 556.52,"1075": 577.44,"1100": 551.53,"1125": 502.51,"1150": 400.11,"1175": 372.06,"1200": 390.46,"1225": 402.96,"1250": 366.58,"1275": 325.25,"1300": 317.0,"1325": 312.49,"1350": 302.36,"1375": 290.52,"1400": 285.78,"1425": 296.14,"1450": 287.23,"1475": 291.48,"1500": 287.0,"1525": 269.19,"1550": 267.73,"1575": 264.03,"1600": 256.14,"1625": 259.59,"1650": 294.29,"1675": 320.42,"1700": 322.83,"1725": 329.08,"1750": 342.08,"1775": 342.31,"1800": 338.22,"1825": 334.81,"1850": 336.6,"1875": 342.13,"1900": 333.12,"1925": 326.63,"1950": 319.79,"1975": 313.5,"2000": 299.06,"2025": 292.6,"2050": 291.68,"2075": 287.12,"2100": 289.62,"2125": 287.58,"2150": 291.22,"2175": 287.79,"2200": 289.22,"2225": 431.38,"2250": 501.72,"2275": 414.3,"2300": 386.29,"2325": 365.48,"2350": 351.55,"2375": 356.54,"2400": 350.66,"2425": 329.73,"2450": 322.03,"2475": 318.38,"2500": 312.38,"2525": 297.83,"2550": 285.28,"2575": 279.66,"2600": 274.64,"2625": 264.81,"2650": 255.77,"2675": 253.59,"2700": 250.93,"2725": 245.71,"2750": 243.29,"2775": 239.38,"2800": 236.73,"2825": 227.38,"2850": 228.7,"2875": 225.86,"2900": 221.25,"2925": 223.65,"2950": 224.82,"2975": 224.66,"3000": 345.15,"3025": 334.85,"3050": 354.21,"3075": 342.91,"3100": 323.1,"3125": 306.51,"3150": 302.0,"3175": 298.35,"3200": 494.77,"3225": 458.07,"3250": 367.68,"3275": 407.38,"3300": 361.67,"3325": 1142.75,"3350": 508.03,"3375": 471.84,"3400": 456.63,"3425": 455.92,"3450": 474.29,"3475": 454.61,"3500": 474.17,"3525": 449.02,"3550": 436.2,"3575": 428.2,"3600": 450.06,"3625": 471.99,"3650": 495.03,"3675": 525.78,"3700": 553.24,"3725": 583.99,"3750": 583.28,"3775": 600.45,"3800": 615.46,"3825": 620.4,"3850": 645.75,"3875": 635.33,"3900": 629.75,"3925": 629.57,"3950": 653.66,"3975": 1271.58,"4000": 799.17,"4025": 807.36,"4050": 765.04,"4075": 855.66,"4100": 793.57,"4125": 791.02,"4150": 827.17,"4175": 823.43,"4200": 840.89,"4225": 880.95,"4250": 909.27,"4275": 930.72,"4300": 928.99,"4325": 934.52,"4350": 885.65,"4375": 857.35,"4400": 809.79,"4425": 802.3,"4450": 801.34,"4475": 789.11,"4500": 778.7,"4525": 760.32,"4550": 785.72,"4575": 779.09,"4600": 759.88,"4625": 739.62,"4650": 726.66,"4675": 680.89,"4700": 639.34,"4725": 616.56,"4750": 588.41,"4775": 573.39,"4800": 529.35,"4825": 496.17,"4850": 475.02,"4875": 457.02,"4900": 446.46,"4925": 412.52,"4950": 369.4,"4975": 333.92,"5000": 312.0,"5025": 290.05,"5050": 273.03,"5075": 250.97,"5100": 234.84,"5125": 211.04,"5150": 196.63,"5175": 185.78,"5200": 167.54,"5225": 148.76,"5250": 144.3,"5275": 134.71,"5300": 118.77,"5325": 111.09,"5350": 101.27,"5375": 94.61,"5400": 88.49,"5425": 77.28,"5450": 71.31,"5475": 68.84,"5500": 65.22,"5525": 60.19,"5550": 56.63,"5575": 53.91,"5600": 49.64,"5625": 46.89,"5650": 40.87,"5675": 38.74,"5700": 33.99,"5725": 31.76,"5750": 29.9,"5775": 27.17,"5800": 27.16,"5825": 25.39,"5850": 23.18,"5875": 23.22,"5900": 20.66,"5925": 18.12,"5950": 16.79,"5975": 15.46,"6000": 14.14,"6025": 11.78,"6050": 9.7,"6075": 9.7,"6100": 9.77,"6125": 8.09,"6150": 6.88,"6175": 6.71,"6200": 6.5,"6225": 5.48,"6250": 6.01,"6275": 5.4,"6300": 4.51,"6325": 4.35,"6350": 3.76,"6375": 3.81,"6400": 3.64,"6425": 3.3,"6450": 2.71,"6475": 2.41,"6500": 2.32,"6525": 1.49,"6550": 1.84,"6575": 1.24,"6600": 1.2,"6625": 1.17,"6650": 1.24,"6675": 0.88,"6700": 1.03}}}