{"type":"Feature","properties":{"GID_1":"ARG.2_1","GID_0":"ARG","country":"Argentina","state":"Catamarca","VARNAME_1":"NA","NL_NAME_1":"NA","TYPE_1":"Provincia","ENGTYPE_1":"Province","CC_1":"NA","HASC_1":"AR.CT","ISO_1":"AR-K","name":"Catamarca.state"},
"geometry":{"type": "MultiPolygon","coordinates": [[[[-65.1458,-28.6656,326.7974],[-65.1809,-28.6531,333.8315],[-65.1811,-28.6006,345.7687],[-65.1789,-28.6004,345.4722],[-65.1669,-28.6082,341.4133],[-65.1257,-28.6091,340.959],[-65.0994,-28.4695,390.3565],[-65.1113,-28.3071,481.2049],[-65.1169,-28.1916,488.1035],[-65.1502,-28.0602,436.7302],[-65.1703,-27.9739,387.0199],[-65.1834,-27.9355,372.8937],[-65.3676,-27.8411,346.5242],[-65.3941,-27.8488,356.6021],[-65.414,-27.8598,364.3004],[-65.4723,-27.8996,408.6862],[-65.5011,-27.9234,430.6086],[-65.5098,-27.9451,441.3184],[-65.5224,-27.9854,481.8205],[-65.5364,-27.9985,490.0865],[-65.5495,-28.0034,493.591],[-65.5722,-28.0023,503.2],[-65.5931,-27.9976,578.5696],[-65.6022,-27.9908,721.0714],[-65.6188,-27.9692,727.9407],[-65.6514,-27.9678,1202.6801],[-65.6601,-27.9596,1260.5198],[-65.6884,-27.8918,1446.7031],[-65.6961,-27.85,1519.3647],[-65.7012,-27.8303,1468.2589],[-65.7132,-27.8108,1061.0104],[-65.7282,-27.7948,1654.3713],[-65.7502,-27.7756,1732.156],[-65.7837,-27.7863,1178.1558],[-65.7826,-27.7966,1126.9902],[-65.7848,-27.8099,1232.9347],[-65.7888,-27.8169,1216.6965],[-65.7953,-27.8235,1420.302],[-65.8027,-27.8508,1819.0148],[-65.8077,-27.8561,1781.6111],[-65.8155,-27.8588,1496.6904],[-65.8247,-27.8536,1271.9637],[-65.8307,-27.8431,1232.2134],[-65.832,-27.8334,1254.7896],[-65.8367,-27.792,1679.3],[-65.8372,-27.7608,1629.8372],[-65.843,-27.7407,1563.7371],[-65.857,-27.7085,1725.2902],[-65.8659,-27.6826,1696.3091],[-65.8742,-27.6805,1774.301],[-65.9056,-27.6856,2128.3325],[-65.9202,-27.6678,2333.04],[-65.9238,-27.6575,2292.6765],[-65.9245,-27.6259,2278.5422],[-65.9314,-27.6149,2350.0215],[-65.9361,-27.5946,2280.9292],[-65.954,-27.5753,2215.7314],[-65.9597,-27.5604,2234.3638],[-65.9688,-27.5462,2279.8921],[-65.9664,-27.5141,2285.377],[-65.9758,-27.4859,2362.5293],[-65.9724,-27.4567,2144.0117],[-65.9769,-27.444,2118.1111],[-65.9752,-27.4308,2033.3789],[-65.9696,-27.4151,1674.2415],[-65.9673,-27.3987,1321.2469],[-65.9729,-27.3645,1664.4006],[-65.9844,-27.3333,1616.3322],[-65.9895,-27.3127,1858.5544],[-65.9955,-27.3048,1864.6692],[-66.0027,-27.3041,2068.6116],[-66.0134,-27.2972,2119.0586],[-66.0303,-27.2909,2585.2864],[-66.0533,-27.2865,2823.1372],[-66.0705,-27.2809,3393.6558],[-66.0912,-27.2787,3561.2959],[-66.1033,-27.2663,4103.8716],[-66.1178,-27.2563,4809.6875],[-66.1273,-27.2524,5183.875],[-66.1334,-27.248,5332.624],[-66.1467,-27.2432,4866.9878],[-66.1364,-27.2298,4811.8672],[-66.1216,-27.22,5014.9092],[-66.1017,-27.2106,5258.2515],[-66.0959,-27.2038,4926.0908],[-66.083,-27.1864,4969.5439],[-66.0766,-27.1552,4776.8203],[-66.0665,-27.155,4911.4771],[-66.0646,-27.1458,4569.8604],[-66.0432,-27.1166,4634.2266],[-66.0352,-27.1093,4653.1499],[-66.0134,-27.1057,4730.1416],[-66.0052,-27.1027,4884.6714],[-65.9994,-27.0966,4652.0171],[-65.9841,-27.0711,4611.2764],[-65.9673,-27.0375,4558.0503],[-65.9153,-27.0082,4771.2178],[-65.9061,-26.9999,4522.6064],[-65.9059,-26.995,4614.7798],[-65.9093,-26.9893,4743.9399],[-65.894,-26.9707,4685.9727],[-65.8896,-26.9632,4596.7974],[-65.8882,-26.956,4462.5566],[-65.884,-26.9497,4405.77],[-65.8749,-26.9433,4213.6216],[-65.8694,-26.9311,4418.9268],[-65.8587,-26.9287,4553.0312],[-65.8576,-26.905,4458.311],[-65.8701,-26.8941,4324.7588],[-65.8758,-26.8816,4195.0176],[-65.8824,-26.8742,4078.9124],[-65.8971,-26.8681,4055.2988],[-65.8922,-26.8516,4059.0713],[-65.8934,-26.8454,4077.7693],[-65.8983,-26.8413,4063.8774],[-65.898,-26.8355,4079.897],[-65.8938,-26.829,4080.28],[-65.8745,-26.8225,4141.0713],[-65.8646,-26.7914,4082.6875],[-65.8577,-26.7823,4010.7532],[-65.8535,-26.7712,3927.605],[-65.854,-26.7617,3901.2192],[-65.8608,-26.7486,3582.646],[-65.8735,-26.7359,3354.293],[-65.8872,-26.7273,3283.4443],[-65.9223,-26.7113,2514.2222],[-65.9553,-26.6895,2129.7173],[-65.9851,-26.66,1922.5914],[-66.0003,-26.649,1899.838],[-66.0545,-26.6201,1836.7178],[-66.0607,-26.6147,1963.3281],[-66.1184,-26.6131,2311.7539],[-66.1458,-26.6102,3038.21],[-66.1531,-26.6046,3386.9368],[-66.1597,-26.5951,3167.5042],[-66.1623,-26.5875,3159.2932],[-66.1567,-26.5724,3223.8523],[-66.1556,-26.5283,3717.4983],[-66.1576,-26.5181,3837.2129],[-66.1505,-26.4972,3704.4065],[-66.1504,-26.492,3433.0522],[-66.1538,-26.4849,3231.7903],[-66.1555,-26.4758,3828.2065],[-66.16,-26.4685,3985.8135],[-66.1572,-26.4573,4113.9624],[-66.153,-26.4492,4218.4307],[-66.1475,-26.444,4168.2441],[-66.1408,-26.441,3861.2148],[-66.1488,-26.4043,4474.3906],[-66.1389,-26.3996,4071.2593],[-66.1033,-26.3955,3843.249],[-66.1111,-26.3871,4128.6807],[-66.1136,-26.3754,4202.8354],[-66.1014,-26.3508,3934.5042],[-66.099,-26.3386,3975.999],[-66.1012,-26.3238,3974.4463],[-66.1037,-26.2769,3613.4248],[-66.0936,-26.2688,3630.0811],[-66.0811,-26.2626,3886.5986],[-66.0784,-26.255,4093.6704],[-66.0797,-26.2444,3860.3098],[-66.0854,-26.2351,3606.3262],[-66.0838,-26.2181,3949.23],[-66.0816,-26.2194,3859.1345],[-66.0854,-26.2111,4118.8994],[-66.0911,-26.2068,4230.3613],[-66.0959,-26.2071,4331.6304],[-66.1025,-26.2103,4365.9829],[-66.1046,-26.2092,4334.6201],[-66.1161,-26.187,4234.4033],[-66.1333,-26.168,4259.3652],[-66.1341,-26.1635,4266.6631],[-66.132,-26.1548,4196.9194],[-66.1339,-26.1483,4285.7119],[-66.1475,-26.1387,4485.3818],[-66.1522,-26.1372,4539.292],[-66.1769,-26.1356,4893.1865],[-66.1811,-26.1375,4898.0474],[-66.1917,-26.1497,4556.4551],[-66.2039,-26.1467,4805.5352],[-66.2132,-26.1493,5272.6353],[-66.2237,-26.1553,5047.0977],[-66.2348,-26.1643,5038.3604],[-66.2465,-26.1814,4959.2109],[-66.259,-26.1953,4549.7646],[-66.2688,-26.2159,4625.4448],[-66.2806,-26.2355,4721.6377],[-66.2973,-26.2487,4931.4629],[-66.3231,-26.2788,5183.0547],[-66.3299,-26.2908,5209.5293],[-66.334,-26.306,4993.8374],[-66.345,-26.3285,4869.7632],[-66.357,-26.3764,4548.2783],[-66.3701,-26.3959,4640.5117],[-66.3734,-26.3983,4679.751],[-66.3756,-26.3978,4664.7437],[-66.3875,-26.3931,4492.6353],[-66.4109,-26.3803,4639.9595],[-66.4276,-26.3764,4536.6196],[-66.4566,-26.3592,4392.9033],[-66.4787,-26.3351,4493.1343],[-66.4857,-26.3232,4224.7446],[-66.4881,-26.3147,4279.3662],[-66.4958,-26.309,4373.4292],[-66.509,-26.3025,4472.481],[-66.5141,-26.2977,4601.5352],[-66.5374,-26.2661,5003.4927],[-66.5553,-26.2316,4686.6045],[-66.5775,-26.1993,4887.8389],[-66.5854,-26.1806,4699.6167],[-66.5942,-26.1697,4610.2559],[-66.6053,-26.1608,4574.8955],[-66.6091,-26.155,4663.7344],[-66.6165,-26.1313,4641.3521],[-66.6189,-26.1091,4776.8228],[-66.6237,-26.0988,4657.2988],[-66.6312,-26.0931,4611.1362],[-66.6435,-26.0908,4753.9966],[-66.6491,-26.087,4749.8999],[-66.6598,-26.0667,4839.5093],[-66.6782,-26.0456,4657.0601],[-66.6917,-26.0242,4476.3662],[-66.7191,-25.9984,4411.2261],[-66.7224,-25.9883,4402.4585],[-66.7369,-25.9738,4451.5132],[-66.7604,-25.9443,4569.3857],[-66.7736,-25.9327,4673.3994],[-66.7947,-25.9051,4717.2979],[-66.8001,-25.895,4752.564],[-66.8028,-25.8842,4728.625],[-66.8096,-25.8286,4626.4678],[-66.814,-25.8095,4609.0547],[-66.8171,-25.7789,4621.4111],[-66.8157,-25.7423,4561.3599],[-66.7922,-25.7186,4368.9946],[-66.7855,-25.7093,4302.2505],[-66.7739,-25.7,4212.7407],[-66.7685,-25.6976,4243.3906],[-66.7408,-25.6961,4370.7305],[-66.7183,-25.6871,4338.9922],[-66.6747,-25.6901,4377.2344],[-66.6275,-25.6796,4592.1772],[-66.6152,-25.6786,4378.2119],[-66.5958,-25.6807,4074.1965],[-66.5906,-25.6795,3894.5034],[-66.5871,-25.6757,3839.0884],[-66.5764,-25.6484,4217.0444],[-66.5584,-25.6129,3914.9773],[-66.5439,-25.5615,3291.9729],[-66.5339,-25.5149,4250.9639],[-66.5309,-25.4927,4516.9546],[-66.5294,-25.4591,4432.0718],[-66.5321,-25.4341,4315.1265],[-66.5465,-25.3741,4264.6567],[-66.548,-25.3294,4273.6938],[-66.5571,-25.2746,4331.4795],[-66.6336,-25.2779,4545.6216],[-66.9373,-25.279,4025.7244],[-67.3683,-25.2655,4407.1943],[-67.4983,-25.2596,3382.0532],[-67.5716,-25.2599,4211.5542],[-67.9854,-25.2397,4338.873],[-68.158,-25.2124,3910.8428],[-68.4833,-25.1563,5149.6479],[-68.4876,-25.163,5152.1299],[-68.4987,-25.1613,5341.6147],[-68.5051,-25.1652,5644.4985],[-68.5081,-25.1726,5629.543],[-68.5087,-25.1988,5438.1709],[-68.504,-25.2107,5367.0273],[-68.5064,-25.2171,5324.959],[-68.5042,-25.2182,5296.5483],[-68.5034,-25.221,5287.7871],[-68.51,-25.2274,5192.9834],[-68.5086,-25.2315,5168.7891],[-68.5106,-25.2342,5156.0542],[-68.5147,-25.2317,5116.4819],[-68.5214,-25.2324,5105.5283],[-68.5259,-25.2308,5101.2104],[-68.5276,-25.2345,5105.7778],[-68.5357,-25.2373,5184.1108],[-68.5354,-25.2473,5196.4316],[-68.5411,-25.2515,5194.5195],[-68.5438,-25.2513,5189.2051],[-68.5441,-25.2588,5161.5254],[-68.5429,-25.2607,5200.5605],[-68.55,-25.2613,5263.3345],[-68.5419,-25.2723,5240.333],[-68.5421,-25.2757,5225.123],[-68.533,-25.2824,5036.0181],[-68.5317,-25.2878,4967.7793],[-68.5288,-25.289,4996.5044],[-68.5301,-25.2913,5060.7666],[-68.5359,-25.2934,5106.1123],[-68.5392,-25.2983,5228.3325],[-68.5455,-25.2989,5410.3628],[-68.5441,-25.3138,5063.4248],[-68.5358,-25.321,5220.7134],[-68.5319,-25.3193,5200.1494],[-68.5303,-25.3201,5189.4458],[-68.5213,-25.3296,5355.1592],[-68.5221,-25.3322,5396.2397],[-68.5205,-25.3352,5452.8076],[-68.5218,-25.3368,5454.0317],[-68.5189,-25.3398,5384.7329],[-68.5191,-25.3422,5366.9673],[-68.5209,-25.3479,5365.833],[-68.5253,-25.3492,5340.8828],[-68.5272,-25.352,5256.9712],[-68.5244,-25.3597,5145.8408],[-68.5269,-25.3628,5171.2612],[-68.5249,-25.3649,5163.3345],[-68.5251,-25.3669,5126.9146],[-68.5284,-25.3701,5044.6924],[-68.523,-25.375,5072.0425],[-68.5234,-25.3771,5147.4268],[-68.5292,-25.3817,5217.5845],[-68.5359,-25.3786,5108.2134],[-68.5459,-25.3855,5028.8145],[-68.552,-25.3936,5239.7119],[-68.5485,-25.3948,5239.7344],[-68.5495,-25.3993,5205.2935],[-68.5549,-25.4019,5092.1406],[-68.557,-25.4065,5094.1562],[-68.5635,-25.4074,5139.9707],[-68.5668,-25.4097,5166.54],[-68.5711,-25.4146,5327.0361],[-68.5707,-25.4178,5342.5073],[-68.578,-25.4194,5274.7378],[-68.5842,-25.4145,5345.1885],[-68.5903,-25.4156,5350.0498],[-68.5879,-25.4236,5278.5811],[-68.5886,-25.4378,5078.4443],[-68.587,-25.4416,5096.8818],[-68.5895,-25.4484,5096.0229],[-68.5818,-25.4589,4790.3818],[-68.574,-25.4754,4707.5967],[-68.5745,-25.4785,4692.0967],[-68.5697,-25.4817,4655.9043],[-68.5717,-25.4878,4724.0952],[-68.5702,-25.4921,4839.501],[-68.5711,-25.4986,4999.0088],[-68.5654,-25.4998,4968.9043],[-68.564,-25.5014,4891.7075],[-68.5654,-25.5029,4904.7666],[-68.5626,-25.5059,4842.9854],[-68.5544,-25.5043,4739.0913],[-68.5514,-25.5068,4742.2144],[-68.5471,-25.5065,4752.4814],[-68.5435,-25.5087,4759.0757],[-68.5413,-25.5071,4768.0366],[-68.5389,-25.5092,4761.0635],[-68.5431,-25.5233,4638.54],[-68.5482,-25.527,4710.4668],[-68.5438,-25.5304,4728.4736],[-68.5436,-25.5354,4772.9736],[-68.5375,-25.5431,4917.603],[-68.5399,-25.5475,4869.8057],[-68.543,-25.5492,4904.9604],[-68.5382,-25.5538,4830.6201],[-68.5257,-25.5578,4893.7319],[-68.5262,-25.5668,4816.8257],[-68.5186,-25.5724,5099.9673],[-68.5322,-25.5814,4852.7793],[-68.5337,-25.5855,4835.5938],[-68.5325,-25.588,4770.7715],[-68.541,-25.5969,5013.8335],[-68.5409,-25.6057,5090.2227],[-68.5387,-25.6111,5249.5532],[-68.5452,-25.6174,5327.563],[-68.5462,-25.6294,5025.0684],[-68.5446,-25.6341,4972.3604],[-68.5395,-25.6402,5049.6846],[-68.5241,-25.6439,4934.3843],[-68.5115,-25.6722,5651.1406],[-68.5048,-25.671,5601.2559],[-68.4999,-25.6729,5638.9678],[-68.4982,-25.6789,5620.0967],[-68.4948,-25.6785,5630.9365],[-68.4927,-25.6803,5615.5254],[-68.4919,-25.6861,5567.0913],[-68.4841,-25.6995,5662.1157],[-68.4797,-25.699,5691.0723],[-68.4769,-25.7025,5729.9502],[-68.4785,-25.706,5756.0063],[-68.4403,-25.8928,4829.4585],[-68.4198,-25.9765,4591.6108],[-68.4042,-26.0659,4987.5098],[-68.3811,-26.1779,6030.082],[-68.5574,-26.2865,5401.292],[-68.5651,-26.3171,4339.5552],[-68.588,-26.4921,6103.6309],[-68.4373,-26.7021,4816.0552],[-68.3643,-26.8002,5888.1035],[-68.3477,-26.814,5791.8574],[-68.2995,-26.8733,4749.4697],[-68.3015,-26.8763,4760.9023],[-68.2996,-26.8844,4755.8521],[-68.2913,-26.8872,4891.8984],[-68.2904,-26.8914,5007.4883],[-68.2848,-26.8988,5147.812],[-68.2817,-26.9,5215.1279],[-68.2806,-26.9044,5235.4746],[-68.2689,-26.9087,5719.7104],[-68.268,-26.9124,5840.355],[-68.2631,-26.919,6024.457],[-68.2666,-26.9232,5889.998],[-68.274,-26.9265,5586.5186],[-68.2789,-26.9265,5426.3296],[-68.283,-26.9234,5259.7988],[-68.2899,-26.9243,5181.2319],[-68.2937,-26.9299,5175.5107],[-68.291,-26.9487,4943.2476],[-68.2944,-26.9593,5031.1587],[-68.3011,-26.9677,5047.9805],[-68.3064,-26.9689,4937.8735],[-68.3155,-26.9749,4969.0718],[-68.3192,-26.9817,4934.9585],[-68.318,-26.985,4934.5747],[-68.3128,-26.9899,4996.5938],[-68.3151,-26.9984,5137.9097],[-68.3125,-27.0,5158.9692],[-68.3088,-27.0084,5368.249],[-68.2998,-27.0168,5903.874],[-68.2972,-27.0256,6410.6592],[-68.2931,-27.0277,6424.0293],[-68.2955,-27.0333,6586.1426],[-68.2944,-27.0384,6510.2803],[-68.3081,-27.0412,6033.9829],[-68.3263,-27.0347,5551.877],[-68.3469,-27.033,5210.4185],[-68.3502,-27.0364,5166.5522],[-68.3604,-27.039,5201.4619],[-68.3681,-27.0458,5459.7021],[-68.3797,-27.047,6014.4121],[-68.3839,-27.0558,5806.6689],[-68.3926,-27.0565,5392.4009],[-68.3996,-27.0616,5268.1963],[-68.4037,-27.0676,5352.9922],[-68.4056,-27.0648,5382.0449],[-68.4105,-27.0633,5379.3125],[-68.4184,-27.0701,5508.6709],[-68.4275,-27.0672,5885.2192],[-68.4286,-27.0637,5970.7773],[-68.4317,-27.0675,5907.3491],[-68.4299,-27.07,5920.3916],[-68.442,-27.0784,5601.3506],[-68.4438,-27.0863,5669.542],[-68.4507,-27.0949,5950.188],[-68.4574,-27.0943,5880.7837],[-68.4654,-27.0912,5679.457],[-68.4677,-27.0875,5615.5151],[-68.4755,-27.0839,5526.6055],[-68.4755,-27.077,5727.0586],[-68.4791,-27.0707,5938.1748],[-68.4813,-27.0605,6395.6992],[-68.4841,-27.0574,6461.9863],[-68.4723,-27.1108,5955.1914],[-68.4807,-27.1154,5876.8306],[-68.4794,-27.1192,5906.3428],[-68.4817,-27.1287,6070.3315],[-68.4847,-27.1283,6083.3325],[-68.4904,-27.1346,5800.4473],[-68.4942,-27.1362,5683.3843],[-68.5106,-27.1291,5816.0557],[-68.5162,-27.1306,5831.0708],[-68.5163,-27.1271,5811.4121],[-68.5186,-27.1244,5899.0967],[-68.5404,-27.1097,6838.3242],[-68.5456,-27.1139,6709.3042],[-68.5487,-27.1132,6688.3613],[-68.5579,-27.1155,6667.4375],[-68.56,-27.1242,6562.769],[-68.5557,-27.1277,6495.772],[-68.5547,-27.1334,6445.3857],[-68.5566,-27.1375,6437.4902],[-68.563,-27.1402,6206.5576],[-68.5673,-27.1519,6009.5498],[-68.5704,-27.1542,6074.5186],[-68.5677,-27.1585,6178.8774],[-68.5675,-27.1625,6154.3643],[-68.573,-27.1663,6127.6602],[-68.5748,-27.1754,6411.4985],[-68.5773,-27.1755,6366.8774],[-68.601,-27.1587,5615.2773],[-68.6064,-27.1588,5592.644],[-68.6102,-27.1639,5552.9419],[-68.6165,-27.1658,5483.7188],[-68.6196,-27.1694,5510.5498],[-68.6217,-27.1692,5502.167],[-68.6231,-27.1642,5468.2686],[-68.6295,-27.164,5583.1587],[-68.6333,-27.1618,5704.0664],[-68.6388,-27.1483,5795.7627],[-68.6375,-27.1438,5688.6519],[-68.6513,-27.1389,5748.1802],[-68.6545,-27.1363,5873.2373],[-68.6559,-27.1245,5773.9702],[-68.6633,-27.1206,5845.9614],[-68.6661,-27.1066,5578.4878],[-68.6703,-27.0987,5413.396],[-68.6829,-27.1063,5321.1904],[-68.6927,-27.0986,5656.9458],[-68.7039,-27.0992,5986.1445],[-68.7122,-27.1044,6171.4062],[-68.7173,-27.1051,6086.6958],[-68.7374,-27.1012,5505.4551],[-68.7448,-27.1045,5520.1001],[-68.7513,-27.1114,5972.1021],[-68.7621,-27.1046,5886.0898],[-68.7679,-27.1036,6125.5654],[-68.7782,-27.0981,6729.896],[-68.7879,-27.1037,6347.0742],[-68.7934,-27.1202,5623.9248],[-68.7994,-27.1238,5465.5728],[-68.7987,-27.1293,5420.418],[-68.8083,-27.1458,5828.751],[-68.8073,-27.1525,5895.1787],[-68.8168,-27.1463,5524.8501],[-68.8245,-27.1466,5432.3389],[-68.8313,-27.1503,5385.1562],[-68.8342,-27.1566,5302.5132],[-68.8435,-27.1597,5317.8447],[-68.8437,-27.1623,5316.1733],[-68.8414,-27.1636,5255.8643],[-68.8406,-27.1666,5224.3662],[-68.8471,-27.1778,5125.9546],[-68.8527,-27.1824,4953.8833],[-68.8587,-27.1913,4899.3281],[-68.8554,-27.1969,4846.4399],[-68.8569,-27.2048,4800.6948],[-68.8522,-27.2098,4811.1987],[-68.853,-27.215699999999998,4783.7822],[-68.8594,-27.2214,4772.1221],[-68.8561,-27.2251,4768.6118],[-68.8563,-27.2316,4736.707],[-68.8663,-27.2358,4770.3403],[-68.8693,-27.2395,4787.9927],[-68.8709,-27.2454,4801.1479],[-68.8695,-27.2469,4778.8418],[-68.8684,-27.2626,5057.8813],[-68.8593,-27.266,5041.9795],[-68.8584,-27.2705,5059.624],[-68.8549,-27.2734,5035.8408],[-68.8501,-27.2734,5060.5298],[-68.8436,-27.276,5078.8384],[-68.8408,-27.2803,5205.9673],[-68.8288,-27.2878,5953.1948],[-68.8251,-27.2938,5831.4336],[-68.8137,-27.2963,6138.2256],[-68.8085,-27.2993,6205.6187],[-68.8086,-27.3011,6215.8892],[-68.8292,-27.2986,5565.9814],[-68.848,-27.3152,4928.8057],[-68.8569,-27.3161,4877.6172],[-68.8615,-27.3181,4928.5435],[-68.8695,-27.3174,5038.2681],[-68.8714,-27.3192,5013.1733],[-68.8739,-27.3285,4982.4556],[-68.8805,-27.331,5007.3477],[-68.8839,-27.3374,5112.0596],[-68.8834,-27.3395,5119.8721],[-68.8795,-27.3385,5154.5303],[-68.8782,-27.3397,5149.7729],[-68.8874,-27.3495,5127.769],[-68.8887,-27.3533,5274.1123],[-68.8914,-27.3527,5284.4531],[-68.8934,-27.3558,5258.375],[-68.8932,-27.3615,5328.0742],[-68.889,-27.3746,5298.2578],[-68.8902,-27.3774,5308.0029],[-68.8966,-27.3792,5321.0708],[-68.8959,-27.3849,5338.3374],[-68.8927,-27.3926,5335.3779],[-68.8868,-27.3983,5188.2549],[-68.8899,-27.4004,5192.3838],[-68.8953,-27.3994,5121.042],[-68.9076,-27.4008,4821.0713],[-68.9133,-27.403,4734.0195],[-68.9191,-27.4086,4692.7539],[-68.9308,-27.4093,4725.1406],[-68.9315,-27.4134,4695.6064],[-68.926,-27.4176,4693.6953],[-68.9256,-27.4206,4672.7534],[-68.928,-27.4311,4609.9248],[-68.9313,-27.4318,4598.3149],[-68.933,-27.4357,4668.3867],[-68.9317,-27.4416,4678.4102],[-68.9357,-27.445,4656.2241],[-68.9372,-27.4456,4656.2241],[-68.9433,-27.4425,4660.6289],[-68.945,-27.4393,4646.5156],[-68.9553,-27.4357,4643.124],[-68.9601,-27.4299,4667.4209],[-68.9703,-27.4289,4685.6074],[-68.981,-27.4316,4710.5278],[-68.9801,-27.437,4718.9512],[-68.9843,-27.4443,4888.2339],[-68.9883,-27.4471,4936.2437],[-68.9888,-27.453,4897.9746],[-68.9817,-27.4543,4924.6846],[-68.9821,-27.4572,4913.4111],[-68.9786,-27.4599,4904.1865],[-68.9782,-27.4627,4897.916],[-68.97,-27.469,4917.8472],[-68.9603,-27.4715,4934.5278],[-68.9635,-27.4751,4926.1025],[-68.9634,-27.4772,4933.4453],[-68.9575,-27.4839,4883.0425],[-68.9492,-27.488,4948.9668],[-68.9508,-27.5005,4914.7573],[-68.9425,-27.5067,4938.126],[-68.943,-27.5134,4995.1821],[-68.9414,-27.5181,4995.9941],[-68.9454,-27.5281,5071.7759],[-68.9474,-27.5296,5078.6621],[-68.962,-27.525,5173.4316],[-68.9876,-27.5245,5511.9287],[-68.9819,-27.5333,5296.7539],[-68.9777,-27.5362,5302.9307],[-68.9774,-27.5413,5479.7334],[-68.9731,-27.543,5611.9746],[-68.9727,-27.5475,5464.8091],[-68.9756,-27.56,5155.6196],[-68.9843,-27.5684,5107.1611],[-68.993,-27.572,5123.3145],[-68.9937,-27.576,5123.5796],[-69.0012,-27.583,5094.752],[-69.0062,-27.585,5116.833],[-69.0137,-27.5842,5057.6494],[-69.0232,-27.5865,5079.728],[-69.0254,-27.5889,5060.895],[-69.0251,-27.5929,5017.5645],[-69.0274,-27.5947,4862.21],[-69.0395,-27.595,4973.8696],[-69.0452,-27.6094,5044.9907],[-69.0517,-27.6167,4987.1846],[-69.0561,-27.6502,4914.0566],[-69.0602,-27.6624,4893.2271],[-69.0598,-27.6638,4878.7065],[-69.0553,-27.665,4774.0376],[-69.0558,-27.6702,4836.3374],[-69.0534,-27.6741,4888.5],[-69.0421,-27.6799,5101.6021],[-69.0442,-27.6871,4993.2969],[-69.0438,-27.6958,5049.7983],[-69.0451,-27.6993,5083.2754],[-69.0496,-27.7006,5099.2749],[-69.0519,-27.703,5100.4023],[-69.064,-27.708,4966.4214],[-69.0741,-27.7099,4913.4834],[-69.0846,-27.7148,4985.9448],[-69.0846,-27.7182,5020.2896],[-69.0898,-27.7215,5049.2808],[-69.09,-27.7249,5052.6821],[-69.0829,-27.7273,5123.0601],[-69.0846,-27.736,5165.9434],[-69.0882,-27.7393,5159.5024],[-69.085,-27.7467,5285.3901],[-69.0868,-27.7531,5394.7549],[-69.0854,-27.7554,5404.2207],[-69.0897,-27.7662,5392.8765],[-69.089,-27.773,5463.6577],[-68.8456,-27.7805,5430.2021],[-68.804,-27.7608,6668.4639],[-68.7366,-27.7582,5404.1377],[-68.6446,-27.7498,4534.5718],[-68.553,-27.7108,5448.5977],[-68.492,-27.7338,4653.4932],[-68.5087,-27.787,4700.4629],[-68.5094,-27.7929,4724.582],[-68.5056,-27.8045,4627.9971],[-68.4973,-27.8162,4399.7422],[-68.4877,-27.8214,4462.5723],[-68.4624,-27.8298,4902.1655],[-68.4539,-27.8363,5017.5908],[-68.4501,-27.8412,4841.2705],[-68.4445,-27.8625,4831.354],[-68.4404,-27.8673,4814.2734],[-68.4316,-27.8733,4594.0811],[-68.4275,-27.8827,4464.335],[-68.4285,-27.9027,4303.6919],[-68.4352,-27.9238,4223.8276],[-68.4392,-27.9596,4228.1934],[-68.4565,-28.0011,4340.9053],[-68.4552,-28.0063,4222.8633],[-68.4473,-28.0176,4282.1245],[-68.4456,-28.0229,4336.8892],[-68.4346,-28.0263,4360.8237],[-68.4227,-28.0249,4237.9175],[-68.4128,-28.0111,4670.4214],[-68.4083,-28.0088,4562.6846],[-68.3617,-28.0202,3858.5198],[-68.3497,-28.0216,3943.2317],[-68.3387,-28.0257,3904.7808],[-68.3028,-28.0242,4260.5059],[-68.2994,-28.0284,4361.646],[-68.2979,-28.0337,4396.2012],[-68.3027,-28.049,4199.9038],[-68.2999,-28.0675,4149.459],[-68.2965,-28.0746,4251.3564],[-68.2833,-28.0861,4265.7285],[-68.2809,-28.0874,4219.2412],[-68.2748,-28.0871,4243.8965],[-68.2624,-28.0757,4312.5024],[-68.2567,-28.0749,4442.71],[-68.2181,-28.0813,4015.6917],[-68.2103,-28.0851,3998.6855],[-68.1997,-28.0947,3921.9104],[-68.1858,-28.0896,3948.137],[-68.1802,-28.091,4010.9673],[-68.1759,-28.0947,4027.2817],[-68.1688,-28.1062,4063.6831],[-68.1635,-28.1072,4186.6182],[-68.1542,-28.1049,4065.8433],[-68.1483,-28.1053,4138.4849],[-68.129,-28.1174,4284.667],[-68.1253,-28.13,4382.8418],[-68.1164,-28.1408,4130.499],[-68.1185,-28.1507,4238.2363],[-68.1141,-28.1549,4153.9253],[-68.1034,-28.1597,4102.3237],[-68.0763,-28.16,4289.2656],[-68.0566,-28.1439,4190.0283],[-68.0454,-28.1401,4029.8867],[-68.0304,-28.1394,3883.4727],[-68.0262,-28.1357,3865.6226],[-68.0203,-28.1264,3803.1575],[-68.0175,-28.1251,3548.4199],[-68.0094,-28.1281,3512.8589],[-67.9975,-28.1288,3570.3943],[-67.9738,-28.1169,3479.584],[-67.9176,-28.122,4769.7612],[-67.9152,-28.1271,4572.5933],[-67.9157,-28.132,4329.2852],[-67.932,-28.1553,4453.8818],[-67.9317,-28.1565,4441.6992],[-67.9219,-28.1568,4368.6069],[-67.9198,-28.1585,4330.6875],[-67.9182,-28.1637,4281.8765],[-67.9234,-28.1952,3646.4685],[-67.9238,-28.2085,3630.186],[-67.9222,-28.2134,3545.9575],[-67.9091,-28.2109,3766.1604],[-67.9017,-28.214,3900.3645],[-67.9016,-28.2198,3797.6804],[-67.9091,-28.2274,3730.24],[-67.9011,-28.2631,3467.4529],[-67.8949,-28.2781,3328.3735],[-67.8869,-28.2893,3444.7397],[-67.8786,-28.2971,3369.6787],[-67.8663,-28.3047,3466.2129],[-67.8446,-28.3142,3661.3909],[-67.8428,-28.3219,3769.2844],[-67.8475,-28.3345,3701.1621],[-67.8464,-28.3425,3655.7847],[-67.8361,-28.3555,3492.0537],[-67.8286,-28.3757,3089.7188],[-67.8176,-28.3865,3874.8047],[-67.8095,-28.3504,3327.7466],[-67.7665,-28.3453,2505.9951],[-67.7388,-28.3401,2441.1914],[-67.6786,-28.316,1587.7703],[-67.6549,-28.3128,1503.4575],[-67.6427,-28.3129,1483.4624],[-67.6235,-28.3173,1627.8845],[-67.5718,-28.32,1243.4977],[-67.5005,-28.3321,1204.0022],[-67.4182,-28.3718,1165.4053],[-67.3827,-28.3814,1144.1799],[-67.2824,-28.3822,1143.4999],[-67.1604,-28.3801,1138.6477],[-67.0911,-28.2792,935.1112],[-66.9964,-28.2427,910.9586],[-66.5795,-28.3202,734.7021],[-66.5178,-28.4529,713.3508],[-66.5162,-28.4635,711.356],[-66.516,-28.4847,708.0701],[-66.5205,-28.4946,706.4534],[-66.5199,-28.5049,706.8285],[-66.526,-28.5128,704.1617],[-66.5249,-28.5226,703.5338],[-66.5277,-28.5301,704.3698],[-66.5235,-28.537,708.554],[-66.5227,-28.5412,708.0268],[-66.4893,-28.5445,754.2319],[-66.4876,-28.5795,805.3894],[-66.4896,-28.6407,743.0667],[-66.3778,-28.7128,1032.6349],[-66.3396,-28.7288,1350.6326],[-66.3334,-28.7346,1596.6752],[-66.331,-28.7395,1741.1342],[-66.3315,-28.7448,1767.0745],[-66.3351,-28.7523,1494.0564],[-66.3552,-28.7575,1237.6729],[-66.3612,-28.7631,1147.8721],[-66.3662,-28.7894,1242.7821],[-66.3739,-28.8095,1202.3792],[-66.4018,-28.8408,704.9709],[-66.4034,-28.854,613.3402],[-66.398,-28.8636,573.7488],[-66.3892,-28.8708,542.4114],[-66.3806,-28.8735,537.3109],[-66.3354,-28.8755,444.6998],[-66.3126,-28.8829,411.6165],[-66.2925,-28.8945,392.4069],[-66.2783,-28.8991,382.3991],[-66.2635,-28.9017,376.0123],[-66.2484,-28.9014,374.961],[-66.2365,-28.8992,373.6946],[-66.2199,-28.8898,379.7755],[-66.1695,-28.9111,352.0109],[-66.1098,-28.9408,323.7824],[-65.8286,-29.1809,280.1783],[-65.829,-29.2534,270.0891],[-65.7526,-29.2773,263.6662],[-65.7201,-29.3555,252.8081],[-65.6347,-29.5759,227.1523],[-65.5857,-29.693,215.2415],[-65.5468,-29.7964,204.6823],[-65.4913,-29.9234,191.2454],[-65.4593,-30.0026,187.4279],[-65.4389,-30.0606,186.0147],[-65.4137,-30.1224,185.1929],[-65.1253,-30.0656,181.6305],[-65.086,-30.0373,180.7152],[-65.0285,-30.0007,180.0353],[-64.9073,-29.9066,178.0933],[-64.9238,-29.827,178.607],[-64.9697,-29.5856,180.775],[-64.8506,-29.565,178.3107],[-64.8278,-29.563,178.6048],[-64.8299,-29.5367,180.6759],[-64.8374,-29.5193,178.7101],[-64.8349,-29.5088,178.8746],[-64.8298,-29.4993,179.3168],[-64.8346,-29.4622,179.4432],[-64.8354,-29.433,179.8702],[-64.8384,-29.4254,180.1126],[-64.8483,-29.412,180.755],[-64.8646,-29.3834,181.9166],[-64.886,-29.361,191.0149],[-64.8905,-29.351,195.5182],[-64.8917,-29.3431,199.4365],[-64.8902,-29.3352,204.4347],[-64.885,-29.3287,207.3819],[-64.8659,-29.3204,219.5595],[-64.8512,-29.3166,233.9668],[-64.8473,-29.3129,232.4668],[-64.848,-29.3073,225.6328],[-64.8518,-29.3035,225.4121],[-64.8659,-29.2979,217.5754],[-64.8781,-29.2969,219.5194],[-64.8835,-29.2949,215.6855],[-64.8892,-29.2886,213.6812],[-64.8903,-29.2807,212.0817],[-64.8852,-29.2654,205.7683],[-64.8586,-29.2206,188.1392],[-64.8528,-29.1999,200.8653],[-64.8539,-29.1839,200.1087],[-64.8524,-29.1761,205.5515],[-64.8474,-29.1663,208.1154],[-64.8346,-29.1483,226.043],[-64.8257,-29.1256,221.1127],[-64.8247,-29.1151,223.8951],[-64.8274,-29.0858,235.4079],[-64.8306,-29.0728,234.6532],[-64.8314,-29.0488,233.045],[-64.8368,-29.0394,224.6171],[-64.8764,-28.9922,224.5752],[-64.8945,-28.9615,235.2119],[-64.9003,-28.9437,241.3362],[-64.9066,-28.8961,245.9075],[-64.9129,-28.8782,252.0203],[-64.9185,-28.8689,255.8602],[-64.9292,-28.8594,268.9655],[-64.9536,-28.8435,268.0447],[-64.9598,-28.8379,270.7483],[-64.9905,-28.7982,279.4308],[-65.0012,-28.7733,288.3854],[-65.0254,-28.7495,296.8826],[-65.1324,-28.7174,317.2568],[-65.1441,-28.6663,326.8273],[-65.1458,-28.6656,326.7974]]]]}}