{"type": "Feature","bbox": [-59.1328,-30.2992,-58.4514,-29.6547],"geometry": {"type": "MultiPolygon","coordinates": [[[[-58.7385,-29.6633,45.535],[-58.7423,-29.6684,45.5124],[-58.7559,-29.6761,44.5537],[-58.7633,-29.6792,44.3126],[-58.7714,-29.6794,44.5813],[-58.7791,-29.6817,43.1897],[-58.7972,-29.6959,43.5306],[-58.8319,-29.7144,40.9485],[-58.8401,-29.7224,41.0568],[-58.8437,-29.724,41.2878],[-58.8474,-29.7229,42.8773],[-58.8506,-29.7164,47.0722],[-58.854,-29.7176,47.404],[-58.8555,-29.7281,41.5655],[-58.8524,-29.7528,40.4899],[-58.8549,-29.7594,40.2823],[-58.8666,-29.7692,39.8512],[-58.8806,-29.7764,39.5477],[-58.8968,-29.7873,39.3483],[-58.9341,-29.82,38.855],[-58.9633,-29.8392,38.1991],[-58.9746,-29.8431,38.7519],[-58.9868,-29.8523,38.1499],[-59.0417,-29.8653,37.5518],[-59.0795,-30.1385,35.9893],[-59.0673,-30.1433,34.8529],[-59.0725,-30.1548,34.7147],[-59.0723,-30.169,40.0335],[-59.0759,-30.1753,42.0806],[-59.0883,-30.1845,47.8725],[-59.1046,-30.1951,43.7719],[-59.1328,-30.2089,47.4858],[-59.1288,-30.2992,38.348],[-59.1219,-30.2956,39.6852],[-59.1187,-30.2918,39.839],[-59.1224,-30.2786,39.4345],[-59.1218,-30.2764,39.2318],[-59.1125,-30.2695,40.2466],[-59.1065,-30.2605,41.0202],[-59.0944,-30.2605,41.3556],[-59.0833,-30.2566,40.3142],[-59.0775,-30.2505,40.3089],[-59.076,-30.2402,45.0223],[-59.0702,-30.2341,46.2823],[-59.0644,-30.2343,41.4125],[-59.053,-30.238,44.7449],[-59.041,-30.2369,42.3881],[-59.029,-30.2293,43.2564],[-59.0206,-30.2188,43.6072],[-58.9906,-30.2163,45.3597],[-58.9818,-30.2141,44.905],[-58.9709,-30.2173,45.6713],[-58.9651,-30.2158,45.2328],[-58.9558,-30.2225,45.8837],[-58.9319,-30.2336,44.9074],[-58.9177,-30.2367,46.8109],[-58.9137,-30.241,46.8872],[-58.8808,-30.2399,48.5218],[-58.8728,-30.2325,48.8164],[-58.864,-30.2336,48.7106],[-58.8568,-30.2299,49.3916],[-58.854,-30.2312,49.4271],[-58.8492,-30.2286,49.5829],[-58.8371,-30.2299,49.6938],[-58.8315,-30.2286,50.2684],[-58.8237,-30.2249,50.0903],[-58.8212,-30.2205,50.8886],[-58.8152,-30.2197,50.342],[-58.8084,-30.2109,51.1659],[-58.797,-30.2136,50.9102],[-58.7858,-30.2109,51.4227],[-58.7813,-30.2142,51.338],[-58.7733,-30.2101,51.467],[-58.7663,-30.2145,51.5557],[-58.7602,-30.2138,52.0662],[-58.7381,-30.1963,52.476],[-58.7209,-30.1857,53.2459],[-58.7093,-30.1834,52.7369],[-58.6994,-30.1775,53.5778],[-58.6853,-30.1724,53.9948],[-58.6854,-30.1674,54.1154],[-58.6815,-30.1645,55.7462],[-58.6724,-30.1632,54.8022],[-58.667,-30.1655,57.4691],[-58.6493,-30.1632,55.9439],[-58.6333,-30.1791,55.4398],[-58.628,-30.18,55.7226],[-58.6078,-30.1742,56.1188],[-58.5961,-30.1689,56.6474],[-58.5907,-30.1633,56.6993],[-58.5796,-30.1589,57.1664],[-58.5513,-30.1585,58.7011],[-58.542,-30.1516,56.8363],[-58.5211,-30.1298,60.0824],[-58.5175,-30.1281,59.8666],[-58.5123,-30.1326,61.441],[-58.5002,-30.1336,61.2871],[-58.4845,-30.131,62.0573],[-58.4777,-30.1271,61.3548],[-58.4514,-30.105,67.3833],[-58.4557,-30.0805,65.7905],[-58.4636,-30.0641,70.7859],[-58.4682,-30.0504,71.9058],[-58.4701,-30.0221,77.6017],[-58.4735,-30.0046,77.1329],[-58.4952,-29.9836,73.9124],[-58.5146,-29.9708,71.9112],[-58.5305,-29.9502,70.1498],[-58.5386,-29.934,71.0876],[-58.542,-29.9237,70.1574],[-58.5456,-29.8921,67.3783],[-58.5599,-29.8796,65.5594],[-58.5673,-29.8767,70.2725],[-58.5765,-29.8695,66.9858],[-58.5903,-29.8622,64.4102],[-58.5982,-29.854,63.9462],[-58.6015,-29.8476,60.63],[-58.6166,-29.8423,61.2218],[-58.6272,-29.8473,59.9711],[-58.6598,-29.8486,61.1195],[-58.676,-29.8473,59.373],[-58.6994,-29.8418,55.4744],[-58.7266,-29.8633,62.1099],[-58.7383,-29.8657,61.2641],[-58.7493,-29.8642,55.664],[-58.7432,-29.8508,58.341],[-58.7347,-29.8388,57.1583],[-58.7054,-29.8046,59.5963],[-58.7036,-29.7942,58.1914],[-58.7064,-29.7802,62.7817],[-58.7128,-29.7672,68.832],[-58.7259,-29.7536,62.4492],[-58.73,-29.7437,47.4241],[-58.7206,-29.6804,44.9669],[-58.7199,-29.6555,47.0853],[-58.7226,-29.6547,46.8597],[-58.7385,-29.6633,45.535]]]]}
,"properties": {"GID_2": "ARG.7.25_1","GID_0": "ARG","country": "Argentina","GID_1": "ARG.7_1","state": "Corrientes","NL_NAME_1": "NA","county": "Sauce","VARNAME_2": "NA","NL_NAME_2": "NA","TYPE_2": "Departamento","ENGTYPE_2": "Department","CC_2": "NA","HASC_2": "AR.CN.SA","name": "Sauce.county","area_km2": 2421.812,"hist_schema_id": "Elevation0-9000","hist_area_km2": {"25": 52.433,"50": 1319.642,"75": 1049.736}}}