{"type":"Feature","properties":{"GID_2":"ARG.21.18_1","GID_0":"ARG","country":"Argentina","GID_1":"ARG.21_1","state":"SantaFe","NL_NAME_1":"NA","county":"SanMartín","VARNAME_2":"Sastre","NL_NAME_2":"NA","TYPE_2":"Departamento","ENGTYPE_2":"Department","CC_2":"NA","HASC_2":"AR.SF.SM","name":"SanMartín.county"},
"geometry":{"type": "MultiPolygon","coordinates": [[[[-62.0097,-32.3431,90.0136],[-61.9333,-32.3235,113.0537],[-61.9372,-32.308,112.0138],[-61.8509,-32.3271,110.3173],[-61.724,-32.3467,101.1603],[-61.5112,-32.3854,70.1901],[-61.4623,-32.1993,48.3322],[-61.4137,-32.2105,48.7102],[-61.378,-32.0818,43.2929],[-61.3978,-31.9977,47.603],[-61.3612,-31.863,52.0933],[-61.3756,-31.8611,48.2795],[-61.3809,-31.8663,51.3125],[-61.3901,-31.8644,48.3265],[-61.4001,-31.8705,51.1064],[-61.403,-31.8803,54.0263],[-61.5681,-31.854,69.0839],[-61.5489,-31.7725,64.8682],[-61.6242,-31.7611,70.3468],[-61.626,-31.7685,71.6168],[-61.7223,-31.7485,96.7219],[-61.7226,-31.7305,96.1017],[-61.8682,-31.7089,106.3376],[-62.0327,-31.6793,103.9084],[-62.0239,-31.6417,103.702],[-62.1449,-31.6188,104.7489],[-62.2496,-31.7016,101.4721],[-62.2354,-31.7218,101.2729],[-62.2235,-31.743,100.5873],[-62.2184,-31.7607,100.4741],[-62.215,-31.7815,101.0939],[-62.2146,-31.797,101.4013],[-62.2275,-31.8321,100.4868],[-62.231,-31.8474,100.0732],[-62.2321,-31.8657,99.5657],[-62.2296,-31.8867,99.1241],[-62.2243,-31.8986,98.873],[-62.2015,-31.9201,98.8891],[-62.1929,-31.9308,98.5926],[-62.1794,-31.96,97.7315],[-62.1761,-31.9727,97.7104],[-62.1749,-31.997,97.5443],[-62.1824,-32.0467,97.8602],[-62.1772,-32.0554,97.6703],[-62.1948,-32.1171,96.7247],[-62.1767,-32.1585,96.0136],[-62.1273,-32.2083,93.5568],[-62.0393,-32.2575,90.6646],[-62.0097,-32.3431,90.0136]]]]}}