{"type":"Feature","properties":{"GID_2":"ARG.1.34_1","GID_0":"ARG","country":"Argentina","GID_1":"ARG.1_1","state":"BuenosAires","NL_NAME_1":"NA","county":"Daireaux","VARNAME_2":"NA","NL_NAME_2":"NA","TYPE_2":"Partido","ENGTYPE_2":"Part","CC_2":"NA","HASC_2":"AR.BA.DA","name":"Daireaux.county"},
"geometry":{"type": "MultiPolygon","coordinates": [[[[-61.7209,-36.4864,114.7917],[-61.7644,-36.5206,114.5409],[-61.8638,-36.4383,111.7064],[-61.8551,-36.4307,111.1915],[-61.9099,-36.3875,111.424],[-61.9319,-36.4013,108.8863],[-61.9389,-36.3948,108.2018],[-61.9592,-36.4104,112.1918],[-62.0536,-36.3326,104.0597],[-62.0457,-36.3264,103.8713],[-62.1433,-36.2483,100.886],[-62.1699,-36.2694,99.675],[-62.2022,-36.2412,100.2837],[-62.4125,-36.4022,110.5307],[-62.4042,-36.4093,113.2049],[-62.4668,-36.4578,115.9539],[-62.4105,-36.5076,118.2658],[-62.3841,-36.4888,117.841],[-62.222,-36.6272,121.4455],[-62.2475,-36.6472,122.7305],[-62.2027,-36.6836,124.7345],[-62.1772,-36.6636,120.6255],[-62.003,-36.8073,115.4382],[-61.9864,-36.806,107.179],[-61.9963,-36.8111,106.7527],[-62.0041,-36.8192,106.5],[-62.0157,-36.8174,107.1676],[-62.0239,-36.8195,106.5],[-62.0238,-36.8228,107.0084],[-62.0197,-36.8254,106.5],[-62.0096,-36.8428,106.5],[-62.0049,-36.8465,106.5],[-61.9973,-36.8494,108.5005],[-61.9957,-36.8537,106.5],[-62.0057,-36.8594,106.5],[-61.9459,-36.9124,117.4045],[-61.9493,-36.9158,117.7251],[-61.9285,-36.9354,120.7823],[-61.9219,-36.9456,122.764],[-61.8621,-36.9942,137.0235],[-61.7824,-36.9302,128.5082],[-61.7595,-36.9468,132.9394],[-61.7084,-36.9063,129.7274],[-61.5971,-36.999,145.4249],[-61.2584,-36.7342,111.3619],[-61.3774,-36.639,109.4959],[-61.5043,-36.7381,113.45],[-61.6596,-36.6136,111.0365],[-61.6045,-36.5701,109.147],[-61.6369,-36.5445,111.5917],[-61.6438,-36.5471,112.7293],[-61.672,-36.5253,112.3148],[-61.6807,-36.5322,111.7243],[-61.6936,-36.521,113.0092],[-61.6856,-36.5151,112.5462],[-61.7209,-36.4864,114.7917]]]]}}