{"type": "Feature","bbox": [-68.5109,-31.566,-68.4077,-31.482],"geometry": {"type": "MultiPolygon","coordinates": [[[[-68.4077,-31.5275,595.3459],[-68.4217,-31.5124,595.231],[-68.4319,-31.495,597.3216],[-68.4602,-31.4856,604.0812],[-68.4773,-31.482,611.3967],[-68.503,-31.4918,621.3667],[-68.5109,-31.4969,627.4915],[-68.5082,-31.5063,627.3503],[-68.5038,-31.5088,625.6629],[-68.5041,-31.518,624.5718],[-68.5011,-31.5287,620.8862],[-68.5015,-31.5332,624.448],[-68.505,-31.5408,623.8751],[-68.4984,-31.5402,621.8354],[-68.4941,-31.5427,617.4029],[-68.4812,-31.5416,611.8457],[-68.4762,-31.5431,607.9564],[-68.471,-31.5464,605.5551],[-68.4662,-31.5555,605.5721],[-68.4564,-31.5639,600.3933],[-68.4436,-31.566,596.5623],[-68.4389,-31.5524,596.4339],[-68.4328,-31.5435,594.0477],[-68.4292,-31.5406,595.8502],[-68.4153,-31.5409,591.764],[-68.4077,-31.5275,595.3459]]]]}
,"properties": {"GID_2": "ARG.18.13_1","GID_0": "ARG","country": "Argentina","GID_1": "ARG.18_1","state": "SanJuan","NL_NAME_1": "NA","county": "SantaLucía","VARNAME_2": "NA","NL_NAME_2": "NA","TYPE_2": "Departamento","ENGTYPE_2": "Department","CC_2": "NA","HASC_2": "AR.SJ.SL","name": "SantaLucía.county","area_km2": 54.89069,"hist_schema_id": "Elevation0-9000","hist_area_km2": {"575": 0.05422,"600": 42.54521,"625": 12.29126}}}