{"type":"Feature","properties":{"GID_2":"ARG.1.37_1","GID_0":"ARG","country":"Argentina","GID_1":"ARG.1_1","state":"BuenosAires","NL_NAME_1":"NA","county":"Escobar","VARNAME_2":"BelendeEscobar","NL_NAME_2":"NA","TYPE_2":"Partido","ENGTYPE_2":"Part","CC_2":"NA","HASC_2":"AR.BA.ES","name":"Escobar.county"},
"geometry":{"type": "MultiPolygon","coordinates": [[[[-58.9029,-34.3195,2.8306],[-58.8428,-34.3958,21.2402],[-58.8373,-34.3943,20.5965],[-58.816,-34.4233,13.4608],[-58.8068,-34.4185,11.9137],[-58.798,-34.417,16.724],[-58.7915,-34.4085,9.2647],[-58.7904,-34.4047,7.2686],[-58.7744,-34.4107,17.8771],[-58.7367,-34.4617,27.6282],[-58.7064,-34.4454,12.0272],[-58.7351,-34.4087,17.0461],[-58.7163,-34.3986,7.9971],[-58.7208,-34.3965,8.7285],[-58.7154,-34.3945,5.5169],[-58.7059,-34.3794,2.3836],[-58.7218,-34.371,1.5713],[-58.7209,-34.3693,2.3337],[-58.691,-34.3536,7.6397],[-58.6884,-34.35,10.4134],[-58.6608,-34.2691,8.3655],[-58.7251,-34.2503,5.5248],[-58.7858,-34.24,8.3181],[-58.8008,-34.2314,6.5279],[-58.8005,-34.2506,1.6802],[-58.7902,-34.2652,2.376],[-58.788,-34.2731,2.0018],[-58.7779,-34.2828,6.2175],[-58.7728,-34.2905,4.9941],[-58.7721,-34.2978,2.9886],[-58.7817,-34.2957,7.8634],[-58.7838,-34.2909,3.5807],[-58.8038,-34.2834,1.8489],[-58.81,-34.287,1.8819],[-58.8263,-34.2803,1.4838],[-58.8336,-34.2792,1.5692],[-58.8523,-34.2701,1.415],[-58.8577,-34.2696,1.7974],[-58.8611,-34.2721,2.213],[-58.862,-34.2849,1.9709],[-58.8699,-34.2851,1.8701],[-58.8745,-34.2833,2.3299],[-58.8796,-34.2905,6.0205],[-58.8804,-34.2944,4.2657],[-58.884,-34.2947,4.1721],[-58.8827,-34.3059,3.14],[-58.8896,-34.3076,2.8413],[-58.8923,-34.3116,2.5334],[-58.8971,-34.3137,2.3731],[-58.9029,-34.3195,2.8306]]]]}}