{"type":"Feature","properties":{"GID_2":"ARG.17.13_1","GID_0":"ARG","country":"Argentina","GID_1":"ARG.17_1","state":"Salta","NL_NAME_1":"NA","county":"LaPoma","VARNAME_2":"Poma","NL_NAME_2":"NA","TYPE_2":"Departamento","ENGTYPE_2":"Department","CC_2":"NA","HASC_2":"AR.SA.LP","name":"LaPoma.county"},
"geometry":{"type": "MultiPolygon","coordinates": [[[[-66.284,-23.3931,3693.9792],[-66.2969,-23.3916,3684.4617],[-66.3066,-23.3856,3734.1301],[-66.3207,-23.3722,3738.3167],[-66.336,-23.3679,3734.6108],[-66.3461,-23.3784,3716.7224],[-66.3627,-23.3855,3713.3843],[-66.3947,-23.5393,3743.2393],[-66.3694,-23.6186,3904.5967],[-66.349,-23.6758,3916.0095],[-66.341,-23.7054,3673.1653],[-66.3327,-23.7207,3673.7251],[-66.3281,-23.7243,3611.384],[-66.3307,-23.7399,3608.4819],[-66.3375,-23.7487,3694.8933],[-66.335,-23.7593,3766.8621],[-66.3334,-23.7809,3646.8579],[-66.3366,-23.8186,3710.1824],[-66.3351,-23.8294,3714.4722],[-66.3409,-23.8502,3706.8301],[-66.3394,-23.8772,3874.1711],[-66.3462,-23.8923,4021.4895],[-66.3445,-23.915,3965.7986],[-66.1539,-24.0139,3851.3784],[-66.2319,-24.4457,4883.6309],[-66.5002,-24.2436,4850.5],[-66.5041,-24.2604,5125.6357],[-66.5016,-24.2833,4961.7568],[-66.5022,-24.289,4981.4785],[-66.5104,-24.3107,4949.5039],[-66.5177,-24.3206,5076.4609],[-66.5184,-24.3254,4862.3462],[-66.4873,-24.3541,4787.5737],[-66.4867,-24.3599,4735.0254],[-66.4894,-24.377,5113.0947],[-66.4861,-24.388,4927.0229],[-66.4748,-24.3929,4675.0073],[-66.4685,-24.3931,4691.2422],[-66.4624,-24.3919,4747.0425],[-66.4513,-24.3864,4930.3838],[-66.4451,-24.3858,4822.5107],[-66.4341,-24.391,4718.7676],[-66.4246,-24.3986,4671.981],[-66.4198,-24.4091,4564.481],[-66.4185,-24.4321,4690.2773],[-66.4051,-24.458,4600.5708],[-66.404,-24.4693,4571.3379],[-66.3986,-24.4797,4556.1704],[-66.3715,-24.5185,4863.3252],[-66.3596,-24.545,5127.5674],[-66.3553,-24.5677,5163.9126],[-66.3562,-24.5792,5096.1445],[-66.3587,-24.5845,5028.8281],[-66.363,-24.5886,5014.042],[-66.383,-24.6024,5156.4463],[-66.3899,-24.612,5199.8848],[-66.3947,-24.6287,5208.2402],[-66.3949,-24.6461,5047.772],[-66.4098,-24.6711,5183.1548],[-66.4144,-24.6937,5414.7202],[-66.4152,-24.7166,5735.8589],[-66.4181,-24.7336,5801.771],[-66.4175,-24.7509,5806.7969],[-66.4106,-24.7668,6045.9082],[-66.4082,-24.784,5833.4375],[-66.4082,-24.8069,5823.4766],[-66.4046,-24.8238,5886.0122],[-66.4,-24.8345,5989.457],[-66.3962,-24.8391,5748.0176],[-66.391,-24.8422,5594.4248],[-66.3848,-24.8431,5291.209],[-66.3542,-24.8382,4345.5312],[-66.3439,-24.8451,4375.2153],[-66.3204,-24.8531,4055.2341],[-66.3016,-24.8513,3991.772],[-66.2827,-24.8524,4172.0762],[-66.2704,-24.85,3960.6189],[-66.2585,-24.853,4137.3218],[-66.2539,-24.8572,3964.3296],[-66.2532,-24.88,3729.4263],[-66.2448,-24.8886,3728.166],[-66.2349,-24.8957,3507.2932],[-66.2279,-24.9052,3371.2109],[-66.2044,-24.9242,3481.0142],[-66.2018,-24.9295,3277.646],[-66.1962,-24.9326,3151.7554],[-66.1901,-24.9325,2814.9448],[-66.1467,-24.9247,2629.9575],[-66.1314,-24.9146,2716.5571],[-66.1189,-24.9134,2692.4614],[-66.1088,-24.9067,2839.8691],[-66.1065,-24.9014,2801.092],[-66.1061,-24.8898,2959.595],[-66.1025,-24.879,3170.7363],[-66.1021,-24.8559,3293.5479],[-66.0905,-24.8172,3723.9553],[-66.0917,-24.8058,3859.3506],[-66.0967,-24.7952,4148.8105],[-66.0985,-24.7839,4277.0654],[-66.1067,-24.7603,4223.2788],[-66.1233,-24.754,4762.709],[-66.1159,-24.739,4874.1792],[-66.133,-24.6959,4625.3569],[-66.1374,-24.6041,4568.0508],[-66.1346,-24.5871,5222.4678],[-66.132,-24.5818,5301.125],[-66.1275,-24.5778,5307.9814],[-66.122,-24.5614,5167.5845],[-66.1236,-24.5501,5274.5771],[-66.1456,-24.5153,4775.771],[-66.1516,-24.4871,4770.5093],[-66.1602,-24.4595,4570.5615],[-66.1651,-24.45,4642.1577],[-66.1964,-24.4498,4409.8262],[-66.1603,-24.4212,5615.0068],[-66.1651,-24.4107,5470.0332],[-66.1654,-24.3992,4933.5391],[-66.1596,-24.3828,4508.8862],[-66.1584,-24.3715,4370.8491],[-66.1655,-24.3498,4192.0088],[-66.1584,-24.3337,4089.3267],[-66.1569,-24.3167,4012.823],[-66.1632,-24.3003,3982.7957],[-66.1638,-24.2947,3970.4021],[-66.1587,-24.2842,4015.936],[-66.1514,-24.2749,4071.2766],[-66.146,-24.2646,4037.7073],[-66.1402,-24.2482,4105.9214],[-66.1324,-24.2145,4087.3687],[-66.1266,-24.1981,4055.1064],[-66.1066,-24.1689,4170.0039],[-66.1102,-24.1461,4019.1699],[-66.1086,-24.1406,4061.1934],[-66.103,-24.1303,4131.7949],[-66.0951,-24.1213,4203.9624],[-66.0841,-24.1161,4260.6577],[-66.0585,-24.0998,4465.0405],[-66.0406,-24.0838,4515.9795],[-66.0218,-24.0412,4187.6475],[-66.0106,-24.0274,3962.6997],[-65.9951,-24.0024,4223.4473],[-65.9828,-23.9894,4325.8882],[-65.9759,-23.978,4519.3066],[-65.9789,-23.9769,4386.8965],[-65.9811,-23.9666,4334.6562],[-65.999,-23.9526,4185.6177],[-66.0004,-23.9245,3869.0352],[-65.9974,-23.9182,3783.1748],[-65.9972,-23.9101,3762.7725],[-66.0031,-23.8891,3708.0811],[-66.0242,-23.8297,3470.8665],[-66.0253,-23.8199,3459.321],[-66.0219,-23.8095,3444.1541],[-66.0085,-23.7855,3416.8286],[-66.0072,-23.7787,3412.447],[-66.0037,-23.7078,3406.1519],[-65.9982,-23.6654,3408.8169],[-65.9987,-23.646,3411.6758],[-65.9901,-23.5154,3430.082],[-66.037,-23.4984,3442.2834],[-66.0613,-23.4834,3450.7146],[-66.0772,-23.4764,3456.9319],[-66.1278,-23.4396,3477.5454],[-66.1477,-23.428,3485.4512],[-66.159,-23.4253,3489.0105],[-66.1882,-23.4232,3521.1506],[-66.2045,-23.4287,3548.5225],[-66.216,-23.4275,3548.209],[-66.2212,-23.4251,3533.2205],[-66.2287,-23.4167,3568.1768],[-66.237799999999993,-23.4098,3526.9658],[-66.2399,-23.405,3558.2314],[-66.2532,-23.3942,3675.7725],[-66.2632,-23.3885,3743.4548],[-66.284,-23.3931,3693.9792]]]]}}