{"type":"Feature","properties":{"GID_2":"ARG.6.21_1","GID_0":"ARG","country":"Argentina","GID_1":"ARG.6_1","state":"Córdoba","NL_NAME_1":"NA","county":"SantaMaría","VARNAME_2":"AltaGracia","NL_NAME_2":"NA","TYPE_2":"Departamento","ENGTYPE_2":"Department","CC_2":"NA","HASC_2":"AR.CB.SM","name":"SantaMaría.county"},
"geometry":{"type": "MultiPolygon","coordinates": [[[[-64.2561,-32.0129,517.4553],[-64.0929,-32.006,409.6154],[-64.0911,-31.956,401.7065],[-63.9818,-31.9548,358.3687],[-63.9821,-31.9986,360.1945],[-63.9693,-31.9996,352.4826],[-63.9507,-32.0042,349.6738],[-63.9267,-32.0125,341.8383],[-63.9216,-32.009,339.9055],[-63.9226,-31.9264,335.155],[-63.9275,-31.863,336.0824],[-63.9539,-31.8633,344.9763],[-63.9556,-31.7676,351.2202],[-63.9585,-31.7626,355.0389],[-63.9769,-31.7589,359.9577],[-63.9821,-31.7557,361.152],[-63.9944,-31.7523,366.4373],[-64.0007,-31.7521,368.9704],[-64.0133,-31.7546,372.396],[-64.0177,-31.7586,374.379],[-64.025,-31.7574,377.4543],[-64.0194,-31.6622,356.5403],[-64.0149,-31.6595,357.1006],[-64.0085,-31.6587,357.7852],[-63.9958,-31.6603,358.5273],[-63.9868,-31.6597,359.3136],[-64.0229,-31.6112,362.0229],[-63.958,-31.5666,341.6898],[-63.9681,-31.5568,342.837],[-63.9655,-31.4619,354.9009],[-63.9871,-31.46,365.2961],[-63.993,-31.4581,367.3941],[-64.0247,-31.4396,375.1385],[-64.0501,-31.4375,380.294],[-64.0595,-31.4407,386.9905],[-64.058,-31.5277,387.1827],[-64.3165,-31.5272,555.9018],[-64.3174,-31.3475,528.0148],[-64.326,-31.3482,595.5775],[-64.3353,-31.3555,490.5511],[-64.3475,-31.3586,540.4443],[-64.3663,-31.3555,539.2686],[-64.3743,-31.347,641.8514],[-64.3802,-31.3472,654.3901],[-64.3914,-31.3523,632.3545],[-64.4026,-31.3535,562.5365],[-64.4228,-31.3532,754.4563],[-64.4295,-31.3503,857.5852],[-64.4413,-31.3538,857.623],[-64.4387,-31.3675,741.2659],[-64.44,-31.3728,665.7485],[-64.4436,-31.3774,730.7573],[-64.4736,-31.398,658.4618],[-64.4846,-31.4037,649.4041],[-64.4941,-31.4112,645.6433],[-64.4974,-31.4158,645.7844],[-64.511,-31.4407,680.718],[-64.5169,-31.4564,676.6056],[-64.5302,-31.5159,759.1516],[-64.5454,-31.5401,995.9341],[-64.5524,-31.5555,1055.5048],[-64.5579,-31.5824,1035.1394],[-64.5518,-31.6038,1049.0854],[-64.5432,-31.6246,1217.5333],[-64.5437,-31.6299,1177.3206],[-64.5464,-31.635,1145.8347],[-64.5461,-31.6405,1136.7535],[-64.5512,-31.6502,1178.6509],[-64.5436,-31.6653,1152.6626],[-64.5428,-31.6707,1117.3323],[-64.5431,-31.6817,893.4902],[-64.5493,-31.6973,831.0872],[-64.5669,-31.7037,807.9137],[-64.5937,-31.7189,939.6735],[-64.5999,-31.7205,956.7301],[-64.6063,-31.7201,928.9103],[-64.6124,-31.7183,945.9612],[-64.6169,-31.7144,968.6664],[-64.6203,-31.7038,1001.0508],[-64.6237,-31.6993,1002.0246],[-64.6296,-31.6969,998.8802],[-64.6359,-31.6961,968.3038],[-64.6615,-31.698,1372.5856],[-64.6807,-31.6965,1521.439],[-64.6868,-31.6949,1733.413],[-64.7012,-31.684,1889.7344],[-64.7287,-31.6795,1871.0542],[-64.7495,-31.7066,2006.7622],[-64.7521,-31.7166,2000.9808],[-64.7479,-31.7374,2075.7075],[-64.7475,-31.7493,1993.0182],[-64.7408,-31.7626,1865.6824],[-64.7414,-31.7701,1857.3132],[-64.7564,-31.7874,1970.7993],[-64.7585,-31.7925,1986.5488],[-64.7574,-31.8145,1879.0776],[-64.7632,-31.8242,1474.6824],[-64.7735,-31.8307,1773.6864],[-64.831,-31.8351,2156.9458],[-64.8502,-31.834,2281.125],[-64.8562,-31.8362,2311.9182],[-64.8786,-31.856,2197.7549],[-64.8862,-31.8649,2248.1084],[-64.9033,-31.9004,2265.146],[-64.9095,-31.9062,2286.5833],[-64.8956,-31.9094,2248.6006],[-64.8912,-31.9134,2192.0493],[-64.8849,-31.9132,2175.9692],[-64.8745,-31.9068,2159.5408],[-64.8623,-31.9031,2151.845],[-64.84,-31.892,1983.6932],[-64.8274,-31.89,1858.4236],[-64.8081,-31.8914,1598.0635],[-64.7911,-31.8991,1538.677],[-64.7783,-31.8978,1424.5262],[-64.7599,-31.8931,1300.2009],[-64.7084,-31.8947,1211.2139],[-64.6636,-31.8996,1071.5674],[-64.6386,-31.8948,931.4395],[-64.5936,-31.8945,857.3906],[-64.5817,-31.8902,825.1627],[-64.5714,-31.8836,786.1906],[-64.5647,-31.8743,788.9368],[-64.5638,-31.8689,793.632],[-64.5588,-31.8588,780.7079],[-64.5567,-31.848,789.6325],[-64.5572,-31.8315,786.0955],[-64.5607,-31.8269,784.8948],[-64.5671,-31.8283,765.1365],[-64.5789,-31.8266,788.4808],[-64.5739,-31.8225,811.4966],[-64.5624,-31.8169,779.4828],[-64.5495,-31.817,764.5],[-64.5444,-31.8143,766.7319],[-64.5374,-31.7994,764.5],[-64.5318,-31.7982,764.5],[-64.5274,-31.8023,764.5],[-64.5258,-31.8076,764.5],[-64.5213,-31.8114,764.5],[-64.5149,-31.8124,764.5],[-64.498,-31.8202,864.6993],[-64.4967,-31.8256,758.9689],[-64.4975,-31.8475,689.1407],[-64.4958,-31.8529,792.9844],[-64.4835,-31.8555,745.6636],[-64.4773,-31.8548,825.7984],[-64.465,-31.8518,577.2723],[-64.4604,-31.8475,611.59],[-64.4553,-31.8493,628.3454],[-64.4533,-31.8546,594.7109],[-64.4485,-31.8582,661.4716],[-64.4368,-31.8627,621.9371],[-64.4261,-31.8567,484.6672],[-64.4197,-31.8573,498.6256],[-64.412,-31.8498,479.4301],[-64.3931,-31.8485,469.6474],[-64.3892,-31.8447,458.6296],[-64.3896,-31.8337,475.115],[-64.3886,-31.8282,484.3541],[-64.3856,-31.8234,461.0992],[-64.381,-31.8195,468.4523],[-64.3567,-31.8121,450.2168],[-64.3336,-31.793,436.5574],[-64.3296,-31.8378,472.6926],[-64.3004,-31.8383,496.9198],[-64.3,-31.9528,557.0379],[-64.2846,-31.9423,541.7017],[-64.2829,-31.9175,507.2726],[-64.2269,-31.9161,481.8035],[-64.2271,-31.9346,496.2281],[-64.2336,-31.956,493.2822],[-64.2481,-31.9865,499.3975],[-64.2561,-32.0129,517.4553]]]]}}