{"type": "Feature","bbox": [-61.7254,-38.9904,-60.5137,-38.2909],"geometry": {"type": "MultiPolygon","coordinates": [[[[-61.4575,-38.9442,12.9308],[-61.4575,-38.9186,14.0891],[-61.3383,-38.9193,13.389099999999999],[-61.3167,-38.9476,13.9517],[-61.0849,-38.9474,12.4812],[-61.0846,-38.9904,1.9032],[-61.0101,-38.9818,0.7303],[-60.9504,-38.981,0.8211],[-60.9154,-38.9821,0.0],[-60.8476,-38.9796,0.0],[-60.8013,-38.9685,0.3013],[-60.7224,-38.9543,0.0266],[-60.6429,-38.9443,0.9664],[-60.5776,-38.9388,0.0],[-60.554,-38.9351,0.0],[-60.554,-38.934,0.6775],[-60.5137,-38.9313,0.0],[-60.5137,-38.9285,-0.1976],[-60.5179,-38.9276,1.4284],[-60.5179,-38.9229,0.0],[-60.5157,-38.9215,0.0],[-60.5303,-38.9127,0.8856],[-60.5304,-38.906,8.0189],[-60.525,-38.8925,9.0567],[-60.5263,-38.8874,10.6863],[-60.5244,-38.8826,9.6672],[-60.5314,-38.8696,7.6736],[-60.5402,-38.8439,25.32],[-60.5401,-38.8368,22.8424],[-60.5367,-38.8329,11.6364],[-60.5471,-38.8062,26.182],[-60.5476,-38.7965,23.6564],[-60.5532,-38.7898,29.8556],[-60.56,-38.7771,20.7554],[-60.5686,-38.743,29.5041],[-60.5802,-38.7274,41.4012],[-60.5778,-38.7158,41.2254],[-60.5835,-38.6984,47.5636],[-60.5839,-38.6871,45.9492],[-60.5883,-38.677,48.4647],[-60.5939,-38.6698,54.0358],[-60.5945,-38.6589,52.2429],[-60.6062,-38.6367,62.0343],[-60.6076,-38.6302,66.9735],[-60.6152,-38.625,68.4393],[-60.6159,-38.6011,80.3312],[-60.6183,-38.5902,74.7402],[-60.6096,-38.5844,75.6917],[-60.598,-38.5699,78.1482],[-60.5966,-38.5597,79.9287],[-60.598,-38.5493,82.3564],[-60.6025,-38.5409,84.489],[-60.6045,-38.5211,87.2498],[-60.6185,-38.4913,93.5517],[-60.6205,-38.4824,95.2235],[-60.624,-38.4793,94.9062],[-60.6219,-38.4707,95.5827],[-60.6338,-38.466,98.2593],[-60.6472,-38.4501,98.7454],[-60.6564,-38.4426,102.3889],[-60.67,-38.4374,101.209],[-60.6785,-38.4316,105.2481],[-60.6854,-38.4256,105.6777],[-60.6878,-38.4177,109.2496],[-60.7013,-38.4021,111.7999],[-60.7108,-38.3983,111.3723],[-60.7324,-38.3785,117.1302],[-60.7424,-38.372,119.3692],[-60.7446,-38.3689,119.0289],[-60.7419,-38.3466,123.0283],[-60.738,-38.34,124.4567],[-60.74,-38.3332,125.8892],[-60.8049,-38.3834,123.7629],[-60.8105,-38.3806,124.8084],[-60.8377,-38.4026,125.1886],[-60.8441,-38.4009,125.5074],[-60.8666,-38.3786,130.1817],[-60.8822,-38.3679,133.4093],[-60.932,-38.3496,140.4647],[-60.9627,-38.3261,148.4374],[-60.9736,-38.3227,151.079],[-60.9793,-38.3172,152.7827],[-60.9834,-38.3155,153.7025],[-60.9881,-38.3099,158.9492],[-60.995,-38.3075,157.7398],[-61.009,-38.306,159.8028],[-61.0362,-38.2971,165.5294],[-61.0427,-38.2934,168.312],[-61.0731,-38.2932,175.9202],[-61.0803,-38.2911,178.9702],[-61.1007,-38.2934,183.0767],[-61.1059,-38.2962,183.1499],[-61.1182,-38.2979,192.0926],[-61.1332,-38.3039,192.2426],[-61.1474,-38.3032,198.922],[-61.1972,-38.2909,220.0354],[-61.2183,-38.3092,240.0318],[-61.2151,-38.3123,240.7103],[-61.2763,-38.3608,263.6746],[-61.2818,-38.3591,261.7553],[-61.3221,-38.3912,212.4844],[-61.3294,-38.3755,219.5915],[-61.465,-38.4839,164.8593],[-61.4761,-38.4746,170.6298],[-61.5149,-38.505,214.3876],[-61.5261,-38.4956,217.6579],[-61.5872,-38.5441,203.7692],[-61.5906,-38.5418,202.9218],[-61.6474,-38.588,156.6887],[-61.6393,-38.5942,154.1203],[-61.6562,-38.6092,139.614],[-61.6539,-38.6128,138.5486],[-61.7254,-38.6665,78.0938],[-61.7206,-38.6762,79.3789],[-61.7226,-38.687,78.6612],[-61.7144,-38.7035,71.2589],[-61.7139,-38.7139,69.5902],[-61.7211,-38.7243,68.6748],[-61.7218,-38.7477,68.6626],[-61.7159,-38.7534,64.3023],[-61.7135,-38.762,60.995],[-61.7077,-38.7725,58.4035],[-61.7028,-38.7755,58.508],[-61.7018,-38.7817,56.3341],[-61.695,-38.7917,54.7435],[-61.6933,-38.8029,54.8288],[-61.6971,-38.8048,52.3719],[-61.6988,-38.8089,53.9647],[-61.699,-38.8144,50.2166],[-61.6974,-38.8171,49.5091],[-61.6904,-38.8233,51.0456],[-61.6803,-38.8275,46.831],[-61.6779,-38.8305,46.7928],[-61.674,-38.8312,49.9484],[-61.6726,-38.8401,50.2722],[-61.6667,-38.8454,57.5154],[-61.6624,-38.8528,48.2467],[-61.6479,-38.8616,41.3484],[-61.6431,-38.8603,44.679],[-61.6362,-38.8635,46.4523],[-61.6282,-38.8699,46.3085],[-61.6256,-38.8747,36.3221],[-61.6021,-38.879,40.6716],[-61.5854,-38.8869,33.2711],[-61.5641,-38.8928,31.6469],[-61.5448,-38.9049,25.6876],[-61.5222,-38.9093,22.8251],[-61.519,-38.9142,21.2519],[-61.5072,-38.9225,20.5264],[-61.4991,-38.9317,17.2599],[-61.4868,-38.9397,14.6751],[-61.4719,-38.9442,13.6259],[-61.4681,-38.9472,16.9077],[-61.4575,-38.9442,12.9308]]]]}
,"properties": {"GID_2": "ARG.1.31_1","GID_0": "ARG","country": "Argentina","GID_1": "ARG.1_1","state": "BuenosAires","NL_NAME_1": "NA","county": "CoronelDorrego","VARNAME_2": "NA","NL_NAME_2": "NA","TYPE_2": "Partido","ENGTYPE_2": "Part","CC_2": "NA","HASC_2": "AR.BA.CD","name": "CoronelDorrego.county","area_km2": 5823.302,"hist_schema_id": "Elevation0-9000","hist_area_km2": {"0": 329.015,"25": 687.58,"50": 895.867,"75": 703.121,"100": 671.059,"125": 903.468,"150": 537.55,"175": 414.939,"200": 353.806,"225": 250.03,"250": 61.136,"275": 15.114,"300": 0.615}}}