{"type":"Feature","properties":{"GID_2":"ARG.8.12_1","GID_0":"ARG","country":"Argentina","GID_1":"ARG.8_1","state":"EntreRíos","NL_NAME_1":"NA","county":"Nogoyá","VARNAME_2":"NA","NL_NAME_2":"NA","TYPE_2":"Departamento","ENGTYPE_2":"Department","CC_2":"NA","HASC_2":"AR.ER.NO","name":"Nogoyá.county"},
"geometry":{"type": "MultiPolygon","coordinates": [[[[-60.1882,-32.1968,104.0885],[-60.183,-32.1987,108.6566],[-60.1806,-32.2016,112.0597],[-60.18,-32.2057,111.6434],[-60.1831,-32.2127,110.6314],[-60.1799,-32.2195,109.5255],[-60.1662,-32.2217,113.2788],[-60.1619,-32.2153,115.3196],[-60.1514,-32.2277,97.8432],[-60.1468,-32.2271,104.3338],[-60.1374,-32.2189,95.317],[-60.1328,-32.2182,97.993],[-60.125,-32.2222,90.5724],[-60.1177,-32.232,97.3235],[-60.1169,-32.2474,97.0741],[-60.1132,-32.2545,102.1869],[-60.0969,-32.268,97.0146],[-60.0845,-32.273,96.536],[-60.0736,-32.28,95.3403],[-60.0589,-32.2999,87.9834],[-60.0593,-32.3031,85.0691],[-60.0733,-32.3133,87.8718],[-60.0722,-32.3167,88.8051],[-60.0538,-32.317,84.9916],[-60.0329,-32.3248,96.6522],[-60.0241,-32.3422,87.8416],[-60.021,-32.3614,93.6887],[-60.0265,-32.4115,86.43],[-60.0235,-32.458,60.1589],[-60.009,-32.4822,85.4427],[-59.9958,-32.498,93.1165],[-59.985,-32.5053,85.7],[-59.9718,-32.508,68.8763],[-59.9636,-32.5116,61.7122],[-59.9365,-32.5089,55.8143],[-59.9092,-32.5119,51.584],[-59.9011,-32.5155,52.8843],[-59.889,-32.5269,43.4786],[-59.8569,-32.5281,40.719],[-59.8342,-32.531,37.5795],[-59.8075,-32.5256,45.7896],[-59.7894,-32.5275,35.8811],[-59.7784,-32.5343,27.5337],[-59.7753,-32.5416,29.8902],[-59.7773,-32.5571,29.0557],[-59.7827,-32.5719,28.2191],[-59.7817,-32.5835,25.6318],[-59.7791,-32.59,27.0366],[-59.7696,-32.583,27.719],[-59.7604,-32.5826,26.6609],[-59.6965,-32.6039,39.3715],[-59.6784,-32.6018,48.9717],[-59.6613,-32.5888,55.4991],[-59.6538,-32.585,53.4695],[-59.6353,-32.5856,63.1407],[-59.622,-32.5824,75.6931],[-59.6119,-32.5694,83.184],[-59.6035,-32.5514,74.6616],[-59.595,-32.5423,68.2136],[-59.5774,-32.538,75.824],[-59.532,-32.5342,56.1156],[-59.5176,-32.5249,60.5442],[-59.5049,-32.5204,56.7535],[-59.4912,-32.5196,48.9022],[-59.479,-32.5209,48.9374],[-59.4698,-32.5014,64.1073],[-59.4648,-32.4949,61.7464],[-59.461,-32.4798,69.0338],[-59.4622,-32.4721,60.8975],[-59.4655,-32.4649,67.0358],[-59.4816,-32.4511,63.0179],[-59.4923,-32.4341,68.556],[-59.5039,-32.4278,66.445],[-59.5049,-32.4085,84.0461],[-59.5006,-32.37,79.6002],[-59.498,-32.3622,82.5489],[-59.5006,-32.3603,83.5273],[-59.5146,-32.3615,73.2451],[-59.5283,-32.3593,82.4522],[-59.5324,-32.3578,82.8967],[-59.535,-32.3545,81.8002],[-59.5348,-32.3509,77.7111],[-59.5244,-32.338,81.1479],[-59.5197,-32.323,75.0477],[-59.5225,-32.2843,75.7706],[-59.5166,-32.2696,75.4214],[-59.5149,-32.2581,67.0897],[-59.5072,-32.2357,77.2552],[-59.4984,-32.2016,75.8852],[-59.4801,-32.1537,63.9234],[-59.4793,-32.1266,62.5281],[-59.4773,-32.119,63.1121],[-59.4726,-32.1124,66.165],[-59.4455,-32.0916,57.8699],[-59.4301,-32.0773,56.5957],[-59.4039,-32.0456,53.23],[-59.3895,-32.0216,53.3539],[-59.3802,-32.0131,56.042],[-59.3723,-32.0092,55.5039],[-59.3602,-31.9976,51.1298],[-59.3565,-31.9864,49.1132],[-59.3426,-31.9664,48.5956],[-59.3379,-31.9396,47.4162],[-59.3328,-31.9331,47.7694],[-59.3191,-31.9229,46.0737],[-59.3148,-31.9138,48.9698],[-59.3176,-31.915,46.7092],[-59.3358,-31.9139,49.3039],[-59.363,-31.916,60.7198],[-59.3816,-31.9266,49.9857],[-59.3996,-31.9284,51.6088],[-59.4168,-31.9334,56.2181],[-59.4207,-31.9352,62.0231],[-59.4268,-31.941,62.9465],[-59.4397,-31.9615,54.8387],[-59.4518,-31.9669,56.0827],[-59.4653,-31.9688,60.7852],[-59.4969,-31.9684,70.7695],[-59.5061,-31.9705,73.1672],[-59.509,-31.9687,79.6444],[-59.5144,-31.9571,68.169],[-59.5174,-31.9548,70.3199],[-59.5222,-31.9557,71.4285],[-59.5323,-31.9632,74.779],[-59.5567,-31.9529,80.2559],[-59.5671,-31.9451,75.98],[-59.5686,-31.9419,79.2501],[-59.5667,-31.938,79.6262],[-59.5366,-31.9142,69.5523],[-59.5352,-31.9109,67.0998],[-59.54,-31.8996,69.895],[-59.5587,-31.8889,78.246],[-59.5755,-31.876,68.6488],[-59.6087,-31.8632,62.2899],[-59.6311,-31.8601,63.9634],[-59.6445,-31.8617,67.5396],[-59.6615,-31.8672,75.474],[-59.6711,-31.8754,71.5538],[-59.6885,-31.8802,69.9736],[-59.702,-31.8817,74.9865],[-59.7299,-31.8947,71.4657],[-59.7445,-31.9041,82.8816],[-59.7486,-31.9056,79.2085],[-59.7623,-31.9061,76.1869],[-59.8188,-31.8918,87.6806],[-59.8471,-31.8795,91.3984],[-59.86,-31.8756,91.5914],[-59.8915,-31.8719,91.991],[-59.9053,-31.873,95.6072],[-59.9079,-31.8757,97.2839],[-59.9257,-31.9117,98.2297],[-59.9419,-31.9306,103.7724],[-59.9488,-31.9355,99.5111],[-59.9775,-31.9474,94.583],[-59.9926,-31.9562,93.2828],[-59.9989,-31.9616,95.9713],[-60.0079,-31.9795,94.5119],[-60.0095,-31.9988,98.0326],[-60.0132,-32.0101,100.9752],[-60.0151,-32.0135,100.5975],[-60.029,-32.0236,100.9328],[-60.0334,-32.0245,100.3066],[-60.0507,-32.0196,88.281],[-60.0624,-32.0137,94.5268],[-60.0709,-32.0045,84.8866],[-60.0783,-32.0,91.6486],[-60.0867,-31.9969,92.7817],[-60.1045,-31.994,92.7391],[-60.1323,-31.9807,92.1069],[-60.1372,-31.9743,99.231],[-60.1417,-31.963,95.9492],[-60.1649,-31.9863,96.4948],[-60.1734,-32.0042,96.7687],[-60.2086,-32.0114,97.456],[-60.2237,-32.02,99.8745],[-60.2514,-32.0401,103.2178],[-60.2594,-32.044,107.5274],[-60.2659,-32.0447,103.4344],[-60.2632,-32.0544,111.836],[-60.2567,-32.0646,113.1049],[-60.2423,-32.0741,113.8527],[-60.2393,-32.0771,112.2617],[-60.2378,-32.0847,114.4249],[-60.2237,-32.0943,105.8998],[-60.2206,-32.1016,108.5687],[-60.2215,-32.1131,110.7758],[-60.219,-32.1246,115.0534],[-60.2125,-32.1347,113.5051],[-60.2088,-32.1373,115.7744],[-60.2047,-32.1377,111.4007],[-60.1782,-32.1313,101.5897],[-60.1653,-32.1258,100.2944],[-60.1629,-32.1272,97.2856],[-60.1591,-32.1392,88.958],[-60.1449,-32.164,100.9036],[-60.1459,-32.1672,101.232],[-60.1539,-32.1713,101.5088],[-60.1802,-32.1774,108.8975],[-60.1879,-32.1815,109.8346],[-60.1936,-32.1877,117.1548],[-60.1933,-32.1913,110.4696],[-60.1882,-32.1968,104.0885]]]]}}