{"type": "Feature","bbox": [-59.3449,-34.8101,-58.961,-34.3819],"geometry": {"type": "MultiPolygon","coordinates": [[[[-59.2039,-34.3819,23.3507],[-59.2177,-34.4002,21.9477],[-59.248,-34.425,27.4265],[-59.2264,-34.4539,35.2982],[-59.3449,-34.5146,42.2717],[-59.2708,-34.6221,24.6919],[-59.2855,-34.63,25.136],[-59.2462,-34.6813,39.6566],[-59.2621,-34.6905,40.1823],[-59.1702,-34.8101,38.3957],[-59.1549,-34.7901,35.7534],[-59.1446,-34.7823,34.9439],[-59.1314,-34.7641,33.2637],[-59.1168,-34.7512,31.6781],[-59.105,-34.7321,31.155],[-59.0947,-34.7214,29.5462],[-59.1457,-34.6641,32.6547],[-59.119,-34.6483,30.9107],[-59.121,-34.6446,32.2024],[-59.1012,-34.6352,32.2326],[-59.0979,-34.6388,31.8057],[-59.0624,-34.6211,33.9823],[-59.0736,-34.608,34.1946],[-59.0491,-34.5942,34.0008],[-59.0315,-34.599,32.9038],[-58.994,-34.5819,33.7659],[-58.9983,-34.5757,32.8321],[-58.987,-34.5704,32.3977],[-58.9915,-34.5632,31.8381],[-58.961,-34.5508,30.0798],[-58.962,-34.5404,29.9966],[-58.9643,-34.5347,28.3991],[-58.9759,-34.5234,25.2607],[-59.0024,-34.4897,8.8376],[-59.0165,-34.4945,10.395],[-59.0578,-34.4378,29.861],[-59.0689,-34.4435,33.4556],[-59.0697,-34.4419,33.5024],[-59.0732,-34.4434,33.4596],[-59.0733,-34.4457,31.0541],[-59.077,-34.4475,32.6259],[-59.0739,-34.4536,31.6575],[-59.0976,-34.4685,33.3892],[-59.1307,-34.4246,39.5363],[-59.1386,-34.4276,36.4388],[-59.2039,-34.3819,23.3507]]]]}
,"properties": {"GID_2": "ARG.1.72_1","GID_0": "ARG","country": "Argentina","GID_1": "ARG.1_1","state": "BuenosAires","NL_NAME_1": "NA","county": "Luján","VARNAME_2": "NA","NL_NAME_2": "NA","TYPE_2": "Partido","ENGTYPE_2": "Part","CC_2": "NA","HASC_2": "AR.BA.LU","name": "Luján.county","area_km2": 769.4793,"hist_schema_id": "Elevation0-9000","hist_area_km2": {"0": 4.438,"25": 639.1967,"50": 125.7922,"75": 0.0524}}}