{"type":"Feature","properties":{"GID_2":"ARG.1.36_1","GID_0":"ARG","country":"Argentina","GID_1":"ARG.1_1","state":"BuenosAires","NL_NAME_1":"NA","county":"Ensenada","VARNAME_2":"NA","NL_NAME_2":"NA","TYPE_2":"Partido","ENGTYPE_2":"Part","CC_2":"NA","HASC_2":"AR.BA.EN","name":"Ensenada.county"},
"geometry":{"type": "MultiPolygon","coordinates": [[[[-58.0854,-34.8388,8.8588],[-57.999,-34.8722,3.0632],[-58.0002,-34.8754,4.446],[-57.9948,-34.8792,4.4516],[-57.9865,-34.8793,3.8546],[-57.9786,-34.8724,3.5062],[-57.936,-34.9004,9.0585],[-57.9048,-34.8724,4.0311],[-57.8934,-34.8499,1.7765],[-57.8963,-34.8496,7.8765],[-57.8988,-34.8465,1.26],[-57.9115,-34.8449,4.7008],[-57.9199,-34.8396,2.4263],[-57.9268,-34.8401,0.9896],[-57.926,-34.8371,0.6907],[-57.9224,-34.8363,0.0],[-57.9096,-34.8432,0.0],[-57.8996,-34.8443,6.2748],[-57.8923,-34.8474,2.7832],[-57.8835,-34.8282,1.3047],[-57.9032,-34.8285,1.8847],[-57.9265,-34.8326,0.3359],[-57.946,-34.8307,0.2183],[-57.9476,-34.8326,1.5442],[-57.9463,-34.8288,0.0],[-57.9521,-34.8293,1.432],[-57.9593,-34.8257,0.0],[-57.9715,-34.8154,1.5937],[-57.9754,-34.814,0.9399],[-57.9765,-34.8112,0.0],[-57.9837,-34.8057,0.0],[-58.0007,-34.7871,1.2421],[-58.0148,-34.7804,1.0609],[-58.0854,-34.8388,8.8588]]]]}}