{"type": "Feature","bbox": [-71.7637,-43.9399,-69.5053,-42.5962],"geometry": {"type": "MultiPolygon","coordinates": [[[[-70.5847,-42.8665,517.8115],[-70.5746,-42.8777,546.4101],[-70.5734,-42.8811,552.105],[-70.5744,-42.8904,558.4858],[-70.5793,-42.899,567.0745],[-70.5809,-42.9062,568.3593],[-70.5641,-42.9222,584.5122],[-70.5658,-42.9259,585.2983],[-70.5741,-42.9326,545.7866],[-70.5769,-42.9418,535.5438],[-70.5806,-42.9465,534.1638],[-70.589,-42.9507,535.3553],[-70.603,-42.9549,537.873],[-70.6281,-42.9671,542.9915],[-70.6633,-42.9673,548.2715],[-70.6982,-42.9703,571.0016],[-70.7083,-42.9892,639.6063],[-70.7176,-42.9979,644.8989],[-70.7342,-43.0023,654.6913],[-70.7437,-43.0082,661.9081],[-70.7748,-43.0151,754.6676],[-70.7854,-43.0201,582.7249],[-70.7921,-43.0258,581.3327],[-70.7855,-43.0492,588.5186],[-70.7867,-43.0566,614.3268],[-70.7938,-43.0762,592.4237],[-70.7943,-43.0873,588.2438],[-70.7924,-43.0983,589.9431],[-70.7942,-43.1036,591.1063],[-70.7992,-43.1102,592.3774],[-70.8143,-43.1227,595.8159],[-70.8217,-43.1364,598.7588],[-70.8236,-43.1567,653.0726],[-70.8279,-43.173,642.5134],[-70.8272,-43.1952,610.7947],[-70.8238,-43.206,638.466],[-70.8254,-43.2244,796.2985],[-70.8294,-43.2312,662.1277],[-70.8498,-43.25,629.4988],[-70.8539,-43.2568,636.9173],[-70.8576,-43.2695,653.2479],[-70.8769,-43.2912,625.5338],[-70.886,-43.3085,627.5408],[-70.8856,-43.3139,628.9147],[-70.8799,-43.3263,631.8809],[-70.8699,-43.3326,681.5629],[-70.8662,-43.3394,699.8142],[-70.8627,-43.3615,640.4598],[-70.8654,-43.3743,653.424],[-70.8644,-43.3928,651.1924],[-70.8584,-43.4069,649.7261],[-70.862,-43.4138,651.045],[-70.8619,-43.4212,651.9484],[-70.8544,-43.4328,673.0233],[-70.8508,-43.4417,712.8264],[-70.8451,-43.448,744.3669],[-70.845,-43.4514,688.6405],[-70.8486,-43.4586,658.5993],[-70.8634,-43.4713,659.7335],[-70.8735,-43.4841,669.1202],[-70.8842,-43.5069,669.5724],[-70.8924,-43.5204,674.6382],[-70.9114,-43.5401,682.7772],[-70.932,-43.5508,796.1801],[-70.9627,-43.5597,712.3527],[-70.973,-43.5651,702.0726],[-70.9879,-43.5752,705.7416],[-71.0122,-43.6012,787.5626],[-71.0214,-43.6075,794.1072],[-71.0416,-43.6153,724.7612],[-71.1081,-43.6337,788.1085],[-71.1325,-43.628,803.6385],[-71.1415,-43.6216,792.6326],[-71.1505,-43.6182,756.6574],[-71.1625,-43.6063,764.1877],[-71.1832,-43.59,775.8296],[-71.2134,-43.5885,824.0894],[-71.2249,-43.5845,883.765],[-71.2385,-43.5764,914.539],[-71.2614,-43.5745,931.6385],[-71.2855,-43.5686,1046.6746],[-71.2965,-43.5641,1131.5554],[-71.3071,-43.5561,1246.9504],[-71.3187,-43.5523,1448.3564],[-71.3339,-43.5521,1484.9971],[-71.3605,-43.5582,1504.5392],[-71.4455,-43.5698,396.2757],[-71.4528,-43.5682,396.0998],[-71.4586,-43.5601,391.1147],[-71.4685,-43.5543,387.4715],[-71.4735,-43.5478,409.9842],[-71.4844,-43.5401,417.6948],[-71.4965,-43.5375,426.019],[-71.5199,-43.5264,438.3831],[-71.5395,-43.53,406.629],[-71.5496,-43.5303,349.8837],[-71.5681,-43.5205,338.8514],[-71.5729,-43.52,335.1629],[-71.5857,-43.5211,408.3934],[-71.6001,-43.5249,361.6986],[-71.619,-43.5202,430.877],[-71.6329,-43.5241,438.756],[-71.6579,-43.5207,436.853],[-71.6679,-43.5219,439.3914],[-71.6734,-43.5255,354.0624],[-71.6734,-43.533,350.4055],[-71.6766,-43.538,439.2186],[-71.689,-43.5474,423.9915],[-71.6913,-43.548,406.6171],[-71.7044,-43.5425,511.6803],[-71.7135,-43.5415,518.8539],[-71.7305,-43.5493,348.5991],[-71.7427,-43.5637,292.7388],[-71.749,-43.5685,298.4453],[-71.7543,-43.5766,337.1772],[-71.7555,-43.5836,486.1353],[-71.7535,-43.5852,422.8511],[-71.7411,-43.5855,257.3332],[-71.7328,-43.5796,321.0872],[-71.7212,-43.5777,327.0486],[-71.7184,-43.5789,325.7688],[-71.7189,-43.5768,317.5564],[-71.7172,-43.5764,325.8283],[-71.7155,-43.5803,341.1308],[-71.7076,-43.5844,349.8839],[-71.7076,-43.5891,374.6953],[-71.7054,-43.5897,366.4025],[-71.7084,-43.5915,368.5324],[-71.7071,-43.5933,391.6529],[-71.7087,-43.5955,378.8909],[-71.7075,-43.6007,382.7194],[-71.7096,-43.6028,393.7133],[-71.7072,-43.604,404.1969],[-71.7075,-43.6073,402.6606],[-71.7023,-43.6148,419.5908],[-71.7032,-43.623,430.952],[-71.7015,-43.6236,432.2191],[-71.703,-43.6255,444.3893],[-71.6986,-43.6246,455.4727],[-71.6911,-43.6269,465.4066],[-71.6793,-43.6242,569.9484],[-71.674,-43.6253,595.1698],[-71.6621,-43.6212,679.3745],[-71.6519,-43.6209,668.6648],[-71.6268,-43.6238,770.67],[-71.6224,-43.6264,823.151],[-71.61,-43.6283,813.695],[-71.6019,-43.633,838.3531],[-71.5967,-43.634,826.7112],[-71.5941,-43.6371,838.5372],[-71.5909,-43.638,837.3481],[-71.5889,-43.6439,868.5092],[-71.5812,-43.6518,868.4991],[-71.5823,-43.6574,888.736],[-71.581,-43.6595,884.7897],[-71.5854,-43.6644,898.9422],[-71.5862,-43.6715,924.8267],[-71.5883,-43.6754,954.7842],[-71.5963,-43.6767,1226.3826],[-71.612,-43.676,1631.7029],[-71.6098,-43.6833,1642.7599],[-71.602,-43.6875,1660.7965],[-71.5998,-43.6974,1684.5017],[-71.6065,-43.7007,1450.4326],[-71.6135,-43.7014,1515.2744],[-71.6306,-43.6992,1737.8896],[-71.6315,-43.7008,1722.7803],[-71.6303,-43.7061,1699.9601],[-71.632,-43.7087,1830.782],[-71.6377,-43.7037,1614.4177],[-71.6447,-43.7032,1602.7344],[-71.6484,-43.701,1587.8553],[-71.6566,-43.7007,1625.0923],[-71.6618,-43.704,1733.4792],[-71.6611,-43.7065,1638.6562],[-71.6629,-43.7104,1692.9214],[-71.661,-43.7114,1650.8676],[-71.6598,-43.7174,1609.8055],[-71.6624,-43.7214,1516.8464],[-71.6686,-43.7234,1493.5559],[-71.6835,-43.7218,1000.9082],[-71.6979,-43.7273,924.7467],[-71.7019,-43.738,742.4019],[-71.73,-43.7628,1690.7693],[-71.7341,-43.7698,1722.8],[-71.7359,-43.7785,1782.8698],[-71.7445,-43.7811,1787.8911],[-71.7538,-43.7879,1588.1785],[-71.7537,-43.7902,1633.3994],[-71.7506,-43.793,1609.7263],[-71.7496,-43.8089,1699.8646],[-71.7566,-43.8146,1355.75],[-71.7521,-43.8215,1471.2371],[-71.7594,-43.8231,1596.512],[-71.759,-43.8304,1654.1045],[-71.7606,-43.835,1588.7107],[-71.7631,-43.836,1609.1273],[-71.7637,-43.8408,1592.0801],[-71.7587,-43.8451,1681.4478],[-71.7405,-43.8513,1685.7878],[-71.7322,-43.8598,1578.3488],[-71.7177,-43.8546,1171.8823],[-71.7082,-43.8549,1542.3986],[-71.7102,-43.8612,1402.963],[-71.7049,-43.8675,1700.918],[-71.706,-43.8723,1730.5524],[-71.7034,-43.8777,1729.0192],[-71.7072,-43.8811,1680.8027],[-71.7057,-43.8845,1724.0687],[-71.708,-43.8883,1673.8806],[-71.7063,-43.8908,1721.0433],[-71.7069,-43.8946,1669.1128],[-71.6984,-43.8958,1758.8926],[-71.6963,-43.8983,1682.7782],[-71.6964,-43.9022,1732.1958],[-71.6938,-43.904,1810.3623],[-71.6761,-43.905,1839.5143],[-71.6701,-43.9019,1740.7994],[-71.6655,-43.9022,1803.5613],[-71.656,-43.9145,1394.5847],[-71.6511,-43.9177,1202.65],[-71.6497,-43.9347,922.5],[-71.5991,-43.9285,922.5],[-71.5485,-43.926,922.5],[-71.5181,-43.9263,922.5],[-71.4783,-43.9201,922.5],[-71.4689,-43.9177,922.5],[-71.4341,-43.9026,922.5],[-71.3938,-43.8805,916.3881],[-71.3839,-43.8789,932.2799],[-71.3693,-43.8831,914.6257],[-71.3717,-43.9354,941.9786],[-71.1177,-43.9399,956.2578],[-71.1162,-43.8493,990.2336],[-70.9959,-43.8507,1380.1281],[-70.9923,-43.7609,938.1827],[-69.9997,-43.7791,953.4431],[-69.5314,-43.7847,689.311],[-69.5588,-43.3349,1290.5366],[-69.5053,-42.7968,800.8283],[-69.5257,-42.7785,560.7658],[-69.535,-42.7675,743.0426],[-69.538,-42.7624,578.1488],[-69.5415,-42.7478,837.4537],[-69.5677,-42.7121,903.9642],[-69.596,-42.6937,731.8694],[-69.6136,-42.6866,516.7013],[-69.6286,-42.686,415.8174],[-69.6653,-42.6796,399.9023],[-69.6725,-42.6801,411.8672],[-69.6791,-42.683,449.7756],[-69.6941,-42.684,430.7074],[-69.7192,-42.6839,463.709],[-69.7364,-42.681399999999996,494.2307],[-69.7487,-42.675,405.3873],[-69.7702,-42.6571,533.166],[-69.7781,-42.6525,658.5925],[-69.7956,-42.6453,776.0453],[-69.8102,-42.644,427.5387],[-69.8159,-42.6402,434.4591],[-69.8206,-42.6337,514.8177],[-69.8372,-42.6295,464.5258],[-69.8451,-42.6249,495.7291],[-69.85,-42.624,482.6069],[-69.8649,-42.6244,437.9986],[-69.8739,-42.628,426.5259],[-69.8833,-42.6342,418.5612],[-69.8903,-42.6359,419.7124],[-69.9228,-42.637,577.34],[-69.9594,-42.632,535.3226],[-69.9665,-42.6372,425.3232],[-69.9887,-42.6407,424.6662],[-69.9916,-42.6454,425.0704],[-70.0009,-42.6516,426.6335],[-70.017,-42.6725,428.8139],[-70.0393,-42.6733,502.8736],[-70.0535,-42.6698,543.6205],[-70.072,-42.6547,920.2964],[-70.0934,-42.6419,598.6401],[-70.1072,-42.6376,658.1919],[-70.1483,-42.6293,674.1727],[-70.1733,-42.6274,643.7664],[-70.1927,-42.6239,608.4154],[-70.2103,-42.624,604.3488],[-70.2198,-42.6261,579.394],[-70.2278,-42.6307,446.0275],[-70.2444,-42.6348,448.5282],[-70.2563,-42.6414,448.7834],[-70.2663,-42.6413,450.7081],[-70.2937,-42.6325,456.0887],[-70.2933,-42.6255,493.6064],[-70.2968,-42.6206,516.2094],[-70.3054,-42.617,509.7759],[-70.306,-42.6116,532.0723],[-70.308,-42.6104,538.284],[-70.3086,-42.6036,617.2808],[-70.3164,-42.6034,624.0665],[-70.3186,-42.6024,601.8639],[-70.3201,-42.5989,592.5458],[-70.3267,-42.5963,548.3586],[-70.3459,-42.6017,459.0947],[-70.3475,-42.6012,460.8528],[-70.348,-42.5968,467.5724],[-70.3514,-42.5962,472.6318],[-70.3682,-42.6015,462.4786],[-70.3724,-42.6072,462.4521],[-70.3886,-42.6158,464.4478],[-70.3959,-42.6276,467.5953],[-70.3992,-42.6303,468.8549],[-70.4367,-42.649,474.4324],[-70.4573,-42.6806,481.0661],[-70.4705,-42.6917,483.5485],[-70.5153,-42.7361,497.78],[-70.5367,-42.7633,497.2748],[-70.5583,-42.8144,505.7726],[-70.5726,-42.834,509.4745],[-70.5851,-42.8456,512.4604],[-70.5885,-42.8506,513.8661],[-70.5883,-42.8579,515.4437],[-70.5847,-42.8665,517.8115]]]]}
,"properties": {"GID_2": "ARG.4.8_1","GID_0": "ARG","country": "Argentina","GID_1": "ARG.4_1","state": "Chubut","NL_NAME_1": "NA","county": "Languiñeo","VARNAME_2": "Tecka","NL_NAME_2": "NA","TYPE_2": "Departamento","ENGTYPE_2": "Department","CC_2": "NA","HASC_2": "AR.CH.LA","name": "Languiñeo.county","area_km2": 14757.48,"hist_schema_id": "Elevation0-9000","hist_area_km2": {"225": 0.22,"250": 0.8,"275": 2.23,"300": 3.32,"325": 8.19,"350": 8.3,"375": 21.3,"400": 57.57,"425": 68.95,"450": 79.29,"475": 79.66,"500": 92.4,"525": 93.04,"550": 111.38,"575": 140.52,"600": 465.53,"625": 421.94,"650": 347.49,"675": 356.52,"700": 403.95,"725": 513.51,"750": 547.08,"775": 605.3,"800": 693.27,"825": 724.85,"850": 709.77,"875": 697.23,"900": 658.19,"925": 710.85,"950": 664.01,"975": 688.12,"1000": 642.78,"1025": 531.48,"1050": 454.57,"1075": 405.57,"1100": 364.38,"1125": 328.57,"1150": 286.24,"1175": 253.8,"1200": 219.53,"1225": 194.38,"1250": 165.61,"1275": 142.5,"1300": 123.59,"1325": 105.52,"1350": 88.87,"1375": 73.6,"1400": 62.13,"1425": 53.32,"1450": 40.99,"1475": 33.28,"1500": 28.95,"1525": 25.92,"1550": 23.55,"1575": 22.03,"1600": 18.21,"1625": 16.36,"1650": 14.57,"1675": 13.27,"1700": 10.06,"1725": 8.6,"1750": 7.95,"1775": 5.68,"1800": 4.57,"1825": 3.71,"1850": 2.61,"1875": 1.9,"1900": 1.29,"1925": 0.86,"1950": 0.78,"1975": 0.51,"2000": 0.2,"2025": 0.21}}}