{"type":"Feature","properties":{"GID_2":"ARG.13.17_1","GID_0":"ARG","country":"Argentina","GID_1":"ARG.13_1","state":"Mendoza","NL_NAME_1":"NA","county":"Tunuyán","VARNAME_2":"NA","NL_NAME_2":"NA","TYPE_2":"Departamento","ENGTYPE_2":"Department","CC_2":"NA","HASC_2":"AR.MZ.TN","name":"Tunuyán.county"},
"geometry":{"type": "MultiPolygon","coordinates": [[[[-69.0029,-33.5467,853.2704],[-69.0255,-33.5442,868.0656],[-69.0616,-33.5358,895.5994],[-69.0923,-33.5232,924.5066],[-69.1306,-33.512,965.3116],[-69.1956,-33.4842,1071.5867],[-69.2093,-33.4808,1104.9591],[-69.2279,-33.4793,1151.472],[-69.2395,-33.4753,1186.2422],[-69.2493,-33.469,1222.3041],[-69.2723,-33.4477,1324.7837],[-69.3067,-33.4357,1437.2148],[-69.3533,-33.4052,1636.9823],[-69.7709,-33.3594,6543.5127],[-69.7782,-33.3838,5321.8491],[-69.7869,-33.3929,5266.4536],[-69.7952,-33.3969,5440.2471],[-69.8157,-33.3911,5520.312],[-69.8072,-33.3966,5658.8037],[-69.8001,-33.4053,5634.7148],[-69.7971,-33.4127,5789.1187],[-69.7977,-33.4173,5856.793],[-69.796,-33.4229,5811.2793],[-69.7985,-33.4244,5877.6987],[-69.8072,-33.4242,5719.7827],[-69.8186,-33.4301,5687.5811],[-69.8186,-33.4353,5630.6367],[-69.8146,-33.4398,5558.7529],[-69.8145,-33.4429,5538.9941],[-69.8192,-33.4515,5820.1997],[-69.8213,-33.4527,5889.5742],[-69.8213,-33.4602,5918.1338],[-69.8151,-33.4694,6076.5952],[-69.8176,-33.4719,5916.6055],[-69.826,-33.4745,5980.876],[-69.8294,-33.479,5693.6074],[-69.8325,-33.4951,5630.7446],[-69.8326,-33.5077,5711.1411],[-69.8354,-33.5154,5956.6626],[-69.8386,-33.5181,5858.4775],[-69.8481,-33.5208,5533.1519],[-69.8562,-33.5256,5186.9941],[-69.8604,-33.5326,5056.249],[-69.8715,-33.5395,5316.542],[-69.8718,-33.5476,5210.2412],[-69.8741,-33.5555,4789.2344],[-69.8691,-33.5649,4736.5186],[-69.8691,-33.572,4471.8418],[-69.8656,-33.5868,4233.5068],[-69.8675,-33.5958,4344.0122],[-69.874,-33.6006,4276.7168],[-69.8752,-33.6079,4369.1133],[-69.8809,-33.6186,4178.2773],[-69.875,-33.6241,4102.4604],[-69.8761,-33.6305,4047.7419],[-69.8738,-33.6366,4050.8481],[-69.8775,-33.6461,4216.7236],[-69.87,-33.6519,4267.6289],[-69.8754,-33.6582,4303.8989],[-69.8793,-33.6586,4422.2891],[-69.8843,-33.6838,4863.3354],[-69.878,-33.6884,4811.9453],[-69.8734,-33.6944,4919.2422],[-69.8692,-33.7091,5429.3389],[-69.8643,-33.7165,5968.4629],[-69.8777,-33.7336,5981.4658],[-69.8769,-33.7386,5999.9082],[-69.8965,-33.7557,5101.2842],[-69.8998,-33.7608,5199.8496],[-69.9006,-33.7663,5618.8906],[-69.9039,-33.7704,5680.3486],[-69.9034,-33.7787,5697.1099],[-69.8984,-33.782,5761.8379],[-69.8936,-33.7913,5793.936],[-69.8954,-33.7989,5554.1758],[-69.8931,-33.8075,5088.2656],[-69.8967,-33.8139,4786.1382],[-69.8967,-33.8215,4435.1982],[-69.8947,-33.8238,4350.4346],[-69.8947,-33.8274,4307.4985],[-69.8977,-33.8304,4411.9741],[-69.8955,-33.8354,4181.4668],[-69.8877,-33.8341,4064.0503],[-69.8624,-33.8384,3744.3274],[-69.8281,-33.853,3345.458],[-69.7945,-33.8581,2654.2178],[-69.7734,-33.8548,2624.2375],[-69.7511,-33.8486,2547.0442],[-69.7383,-33.8481,2581.1851],[-69.7255,-33.8497,2969.5901],[-69.7069,-33.8584,2621.3022],[-69.6863,-33.8634,2701.3335],[-69.6731,-33.8571,2604.9551],[-69.6656,-33.8597,2677.4395],[-69.6437,-33.8527,2451.4312],[-69.6117,-33.8505,2631.9399],[-69.5775,-33.8529,2739.552],[-69.5288,-33.8662,2562.4648],[-69.4346,-33.8491,1953.626],[-69.4071,-33.8532,2165.5979],[-69.3839,-33.8621,1692.5961],[-69.3708,-33.8633,1574.5564],[-69.3583,-33.8614,1567.0829],[-69.3503,-33.8578,1531.1581],[-69.3446,-33.8528,1465.3315],[-69.3406,-33.8351,1457.8479],[-69.3307,-33.8172,1406.0084],[-69.3027,-33.7925,1292.1439],[-69.2892,-33.7871,1420.8811],[-69.2495,-33.7804,1210.5093],[-69.23,-33.7729,1173.2842],[-69.2032,-33.7551,1112.7791],[-69.1651,-33.7237,1050.2205],[-69.1315,-33.7016,1002.5624],[-69.1155,-33.6927,981.973],[-69.0899,-33.6837,953.0696],[-69.062,-33.6644,924.2891],[-69.0463,-33.6454,902.4521],[-69.024,-33.6286,891.7321],[-69.0043,-33.603,876.7182],[-69.0029,-33.5961,872.1243],[-69.0029,-33.5467,853.2704]]]]}}