{"type": "Feature","bbox": [-61.5681,-31.8841,-60.7804,-30.6139],"geometry": {"type": "MultiPolygon","coordinates": [[[[-61.5489,-31.7725,64.8682],[-61.5681,-31.854,69.0839],[-61.403,-31.8803,54.0263],[-61.4001,-31.8705,51.1064],[-61.3901,-31.8644,48.3265],[-61.3809,-31.8663,51.3125],[-61.3756,-31.8611,48.2795],[-61.2068,-31.8841,34.3433],[-61.1975,-31.8789,29.8675],[-61.1989,-31.8739,30.9077],[-61.2032,-31.8683,30.5964],[-61.2148,-31.838,32.9604],[-61.2157,-31.8252,31.4098],[-61.0237,-31.8588,33.3744],[-60.9999,-31.8646,34.8299],[-60.9786,-31.7715,29.2658],[-60.9508,-31.7275,37.4118],[-60.9187,-31.7314,25.888],[-60.912,-31.6989,25.1266],[-60.8544,-31.6594,27.1637],[-60.8326,-31.6418,23.647],[-60.8365,-31.6239,28.5088],[-60.8534,-31.5811,29.2365],[-60.8478,-31.5798,29.2411],[-60.8312,-31.5813,29.2522],[-60.8106,-31.5893,21.0561],[-60.7808,-31.5933,16.1351],[-60.7804,-31.5917,16.6376],[-60.7939,-31.5688,18.2866],[-60.8043,-31.5594,18.2763],[-60.8072,-31.5537,18.2911],[-60.8063,-31.5474,16.3178],[-60.8003,-31.5434,14.325],[-60.7973,-31.5375,14.1072],[-60.802,-31.5325,16.0596],[-60.8086,-31.5295,19.7765],[-60.8133,-31.5249,24.1266],[-60.8139,-31.5183,25.1654],[-60.8108,-31.5126,22.1337],[-60.8051,-31.5095,18.1328],[-60.8025,-31.4845,21.3226],[-60.7855,-31.4629,19.2789],[-60.7913,-31.4611,19.367],[-60.795,-31.4562,18.9593],[-60.7966,-31.4434,18.1017],[-60.8002,-31.431,16.6712],[-60.8128,-31.415,15.9328],[-60.8197,-31.3967,25.332],[-60.8206,-31.3774,23.0522],[-60.811,-31.3685,22.8542],[-60.8098,-31.3625,21.090699999999998],[-60.8192,-31.3524,17.2948],[-60.8267,-31.3522,17.6849],[-60.8341,-31.3538,24.147],[-60.846,-31.3537,22.301],[-60.8514,-31.3585,21.5835],[-60.8721,-31.3658,21.0691],[-60.8781,-31.37,18.1108],[-60.8846,-31.3713,20.1176],[-60.8917,-31.3686,21.4845],[-60.9136,-31.3693,20.5485],[-60.9169,-31.3648,18.9817],[-60.9298,-31.3598,20.8339],[-60.9415,-31.3518,20.6767],[-60.9459,-31.3395,29.7906],[-60.9454,-31.3333,34.7772],[-60.9416,-31.3276,33.4455],[-60.9385,-31.315,38.0319],[-60.9276,-31.3064,28.703],[-60.9261,-31.3,25.0588],[-60.9348,-31.2899,32.3338],[-60.9354,-31.2772,33.5967],[-60.924,-31.2698,22.7232],[-60.9086,-31.2558,24.1694],[-60.9,-31.2455,25.142],[-60.8859,-31.2414,21.8898],[-60.8805,-31.2374,26.1696],[-60.8677,-31.2216,35.6387],[-60.847,-31.2027,24.4906],[-60.8486,-31.1974,24.0643],[-60.8599,-31.1888,27.4613],[-60.8588,-31.1759,28.7353],[-60.8497,-31.1656,27.2106],[-60.8468,-31.1599,27.2607],[-60.8468,-31.1533,27.3848],[-60.8436,-31.148,28.2843],[-60.833,-31.139,26.1846],[-60.8277,-31.1272,32.8353],[-60.805,-31.1016,27.6902],[-60.8047,-31.0954,24.6685],[-60.8069,-31.0885,27.0055],[-60.812,-31.0843,28.926],[-60.8268,-31.0819,25.4868],[-60.8344,-31.0826,26.4045],[-60.8416,-31.0716,26.4708],[-60.8499,-31.054,26.6357],[-60.8491,-31.0477,27.2397],[-60.8456,-31.0419,29.0653],[-60.8255,-31.022,32.2376],[-60.8255,-31.0175,28.9186],[-60.8426,-31.0048,28.6938],[-60.8575,-31.0033,28.8294],[-60.8646,-31.0066,29.5517],[-60.8662,-31.0017,28.5766],[-60.8651,-30.9948,27.295],[-60.8518,-30.9886,28.6357],[-60.8443,-30.9802,28.8959],[-60.8485,-30.9624,33.6541],[-60.8437,-30.9578,29.08],[-60.8455,-30.9389,29.9892],[-60.8436,-30.9328,31.7823],[-60.839,-30.9278,30.6489],[-60.8374,-30.9215,30.8195],[-60.8443,-30.9201,29.9346],[-60.8613,-30.9074,31.1253],[-60.8586,-30.9026,35.2188],[-60.8456,-30.8963,30.4958],[-60.8308,-30.8978,30.0434],[-60.8185,-30.8916,30.6005],[-60.7964,-30.8927,31.5813],[-60.793,-30.8876,30.9915],[-60.8045,-30.8635,34.7094],[-60.8204,-30.8444,31.8081],[-60.8213,-30.8381,31.8063],[-60.8246,-30.8323,31.9647],[-60.8303,-30.8291,32.1925],[-60.8363,-30.8191,32.288],[-60.8408,-30.8149,31.1415],[-60.8383,-30.8087,32.1179],[-60.8319,-30.8004,32.7224],[-60.8428,-30.7957,32.4426],[-60.8549,-30.7881,36.3803],[-60.8591,-30.783,33.007],[-60.861,-30.7769,31.6935],[-60.8674,-30.7735,32.5176],[-60.8816,-30.7698,33.4104],[-60.9021,-30.7516,36.8296],[-60.9062,-30.7393,37.1602],[-60.9078,-30.7266,38.3807],[-60.9107,-30.7207,38.1576],[-60.9183,-30.7097,35.8444],[-60.928,-30.7,38.3857],[-60.9044,-30.6755,45.0727],[-61.0057,-30.65,48.6391],[-61.0056,-30.6422,57.8108],[-61.189,-30.6139,70.8772],[-61.2483,-30.8708,68.9119],[-61.2776,-31.0087,67.7431],[-61.3432,-31.2715,66.4413],[-61.4044,-31.5465,63.7621],[-61.4454,-31.5432,68.8763],[-61.4567,-31.5961,64.6369],[-61.5078,-31.59,74.5992],[-61.5473,-31.7517,69.4794],[-61.5489,-31.7725,64.8682]]]]}
,"properties": {"GID_2": "ARG.21.10_1","GID_0": "ARG","country": "Argentina","GID_1": "ARG.21_1","state": "SantaFe","NL_NAME_1": "NA","county": "LasColonias","VARNAME_2": "Esperanza","NL_NAME_2": "NA","TYPE_2": "Departamento","ENGTYPE_2": "Department","CC_2": "NA","HASC_2": "AR.SF.LC","name": "LasColonias.county","area_km2": 6323.573,"hist_schema_id": "Elevation0-9000","hist_area_km2": {"25": 1024.227,"50": 4576.481,"75": 722.865}}}