{"type": "Feature","bbox": [-61.0354,-28.0,-60.2249,-27.3917],"geometry": {"type": "MultiPolygon","coordinates": [[[[-61.0065,-27.4036,86.0887],[-61.0074,-27.4658,83.455],[-61.0337,-27.4654,83.8325],[-61.0334,-27.6591,77.366],[-61.0354,-27.7789,72.9855],[-60.9248,-27.7845,73.2708],[-60.9271,-27.9994,66.4464],[-60.3884,-28.0,64.0839],[-60.2258,-27.9989,60.673],[-60.2249,-27.7307,65.3283],[-60.5394,-27.7276,69.6489],[-60.5359,-27.6322,72.5065],[-60.4847,-27.6316,72.2027],[-60.4817,-27.4556,75.5262],[-60.926,-27.452,87.2767],[-60.9226,-27.3948,85.4906],[-61.0063,-27.3917,86.2782],[-61.0065,-27.4036,86.0887]]]]}
,"properties": {"GID_2": "ARG.3.14_1","GID_0": "ARG","country": "Argentina","GID_1": "ARG.3_1","state": "Chaco","NL_NAME_1": "NA","county": "MayorLuisJ.Fontana","VARNAME_2": "VillaAngela|MayorLuisJ.Fonta","NL_NAME_2": "NA","TYPE_2": "Departamento","ENGTYPE_2": "Department","CC_2": "NA","HASC_2": "AR.CC.MF","name": "MayorLuisJ.Fontana.county","area_km2": 3789.064,"hist_schema_id": "Elevation0-9000","hist_area_km2": {"50": 103.786,"75": 3669.903,"100": 15.375}}}