{"type":"Feature","properties":{"GID_2":"ARG.9.4_1","GID_0":"ARG","country":"Argentina","GID_1":"ARG.9_1","state":"Formosa","NL_NAME_1":"NA","county":"Matacos","VARNAME_2":"IngenieroJuarez","NL_NAME_2":"NA","TYPE_2":"Departamento","ENGTYPE_2":"Department","CC_2":"NA","HASC_2":"AR.FM.MA","name":"Matacos.county"},
"geometry":{"type": "MultiPolygon","coordinates": [[[[-61.8348,-24.3154,165.5],[-61.8338,-24.0068,183.4813],[-61.8438,-23.495,193.3356],[-62.3459,-23.4958,203.2422],[-62.3459,-23.9962,194.6983],[-62.3476,-24.1102,192.2305],[-62.3118,-24.0931,188.1353],[-62.3082,-24.0974,196.0956],[-62.3163,-24.1058,190.3866],[-62.3216,-24.109,192.0684],[-62.3215,-24.1134,188.6817],[-62.3119,-24.1126,186.2763],[-62.2998,-24.114,195.1714],[-62.2984,-24.1198,188.5788],[-62.2949,-24.1244,182.5],[-62.29,-24.1271,183.1016],[-62.2884,-24.1323,195.8365],[-62.2762,-24.1339,189.8581],[-62.2703,-24.1321,184.3266],[-62.2673,-24.1367,187.199],[-62.2552,-24.1391,187.696],[-62.2433,-24.1358,191.3467],[-62.2352,-24.1357,186.4978],[-62.2282,-24.1452,186.8439],[-62.2099,-24.1473,186.8367],[-62.2048,-24.1505,188.8416],[-62.1929,-24.1539,181.193],[-62.1875,-24.159,187.9255],[-62.1964,-24.1668,192.2706],[-62.1944,-24.1717,187.8941],[-62.1881,-24.1713,186.3522],[-62.1829,-24.168,187.1452],[-62.1766,-24.167,182.157],[-62.1719,-24.1713,185.7111],[-62.1743,-24.1769,180.2223],[-62.1725,-24.1872,186.7457],[-62.1763,-24.1919,184.1297],[-62.1779,-24.2084,189.8347],[-62.1718,-24.2105,188.8054],[-62.1675,-24.2068,184.3409],[-62.1579,-24.1922,189.9444],[-62.153,-24.1888,189.0246],[-62.1469,-24.1875,186.1392],[-62.1461,-24.1926,186.6473],[-62.1498,-24.1973,181.6229],[-62.1413,-24.2034,186.1832],[-62.1399,-24.209,181.3226],[-62.1368,-24.2136,187.8148],[-62.1307,-24.214,180.8949],[-62.1043,-24.1988,187.1791],[-62.0959,-24.1906,183.3323],[-62.0912,-24.1963,182.2039],[-62.1045,-24.21,186.8137],[-62.1054,-24.2147,182.8269],[-62.1002,-24.2179,186.2739],[-62.0769,-24.2253,180.2434],[-62.0459,-24.2239,184.7529],[-62.0409,-24.2271,180.9876],[-62.0389,-24.2385,181.1106],[-62.0339,-24.241,175.0497],[-62.0282,-24.2388,177.9505],[-62.0187,-24.2313,181.6331],[-62.0074,-24.2355,181.9938],[-61.989,-24.2377,179.7837],[-61.9797,-24.2306,176.5956],[-61.9734,-24.2299,179.3412],[-61.9696,-24.2331,172.9892],[-61.9698,-24.2391,183.9676],[-61.9679,-24.2443,179.869],[-61.9582,-24.2514,178.8704],[-61.9117,-24.2667,179.5568],[-61.9078,-24.2776,173.3955],[-61.9035,-24.2818,178.8432],[-61.8986,-24.2854,179.6344],[-61.8871,-24.2895,180.8832],[-61.8829,-24.2937,170.0299],[-61.8806,-24.3044,170.2339],[-61.8763,-24.3123,176.3696],[-61.8704,-24.3138,172.367],[-61.8677,-24.3095,173.1375],[-61.8669,-24.3038,178.9195],[-61.8614,-24.3045,177.652],[-61.8515,-24.3115,175.7422],[-61.8348,-24.3154,165.5]]]]}}