{"type":"Feature","properties":{"featurecla":"River","scalerank":2,"rivernum":36,"dissolve":"36River","name":"Paraguay3","name_alt":null,"note":null,"min_zoom":2.1,"strokeweig":0.4,"name_en":"Paraguay","min_label":3.1},
"geometry":{"type": "LineString","coordinates": [[-57.13037109375,-24.63958098750588,67.1001],[-57.13037109375,-24.63958098750588,67.1001],[-57.13037109375,-24.63958098750588,67.1001],[-57.13037109375,-24.63958098750588,67.1001],[-57.13037109375,-24.63958098750588,67.1001],[-57.11328125,-24.64910247188088,66.6073],[-57.09765625,-24.66155364375588,66.6666],[-57.0908203125,-24.677569268755889,66.8832],[-57.1123046875,-24.71746184688088,66.2723],[-57.116796874999991,-24.73650481563088,66.1844],[-57.122412109374991,-24.751983331255886,65.9448],[-57.137792968749991,-24.762530206255889,65.9439],[-57.149511718749991,-24.76311614375588,65.9318],[-57.158251953124989,-24.75969817500588,66.0997],[-57.166918945312489,-24.75774505000588,65.8559],[-57.178759765624989,-24.762530206255889,65.969],[-57.182080078125,-24.76946380000588,65.945],[-57.197314453124989,-24.826690362505886,66.3408],[-57.248779296875,-24.891436456255889,61.1799],[-57.248583984374989,-24.897295831255889,57.0],[-57.240234375,-24.90642669063088,61.4353],[-57.231298828124991,-24.90740325313088,64.0397],[-57.22265625,-24.901885675005886,57.0],[-57.216113281249989,-24.901397393755886,57.0],[-57.213549804687489,-24.91692473750588,70.9371],[-57.215747070312489,-24.928252862505886,65.6955],[-57.219091796874991,-24.93743255000588,64.989],[-57.218847656249991,-24.946612237505889,64.8855],[-57.210131835937489,-24.95794036250588,64.8235],[-57.198583984374991,-24.969756768755886,59.0491],[-57.194921874999991,-24.978057550005886,77.809],[-57.199658203125,-24.98430755000588,93.2554],[-57.213549804687489,-24.989092706255889,118.9168],[-57.234790039062489,-24.986358331255886,75.9077],[-57.262011718749989,-24.980010675005886,61.1487],[-57.285498046874991,-24.982452081255886,65.5587],[-57.295507812499991,-25.00603606563088,72.4453],[-57.343847656249991,-25.064776300005889,60.8742],[-57.354248046875,-25.07195403438088,59.7034],[-57.366259765624989,-25.07854583125588,70.6981],[-57.378076171874994,-25.083330987505889,83.2193],[-57.387988281249989,-25.08513762813088,102.4037],[-57.396337890624991,-25.08953215938088,85.9492],[-57.414965820312489,-25.108233331255889,64.0589],[-57.422412109374989,-25.11248137813088,59.8306],[-57.48388671875,-25.11248137813088,72.7163],[-57.511889648437489,-25.106963800005886,58.7598],[-57.52392578125,-25.109209893755889,55.0],[-57.528857421874989,-25.12273528438088,64.9044],[-57.532397460937489,-25.14812590938088,58.5866],[-57.54169921875,-25.17571380000588,55.0],[-57.554736328124989,-25.201690362505886,64.9425],[-57.56982421875,-25.22234465938088,54.0],[-57.58359375,-25.234405206255886,54.0],[-57.595996093749989,-25.24016692500588,54.5399],[-57.624438476562489,-25.24846770625588,58.356],[-57.639257812499991,-25.256182550005889,60.2551],[-57.650683593749989,-25.26555755000588,54.0],[-57.672216796874991,-25.28997161250588,54.0],[-57.641943359374991,-25.360381768755886,71.4587],[-57.641528320312489,-25.372588800005886,57.9007],[-57.579443359374991,-25.41668059688088,54.0],[-57.566015624999991,-25.43035247188088,54.0],[-57.558837890625,-25.44353606563088,54.7303],[-57.557666015624989,-25.459795831255889,54.0],[-57.570727539062489,-25.54656340938088,53.5],[-57.576025390624991,-25.56438567500588,53.5],[-57.587890625,-25.57561614375588,62.3383],[-57.601367187499989,-25.57878997188088,61.4338],[-57.612402343749991,-25.58587005000588,56.7624],[-57.616992187499989,-25.60906340938088,58.9111],[-57.623779296875,-25.615264581255886,55.8344],[-57.639453124999989,-25.615752862505886,56.4864],[-57.668798828124991,-25.61223723750588,57.9036],[-57.670751953124991,-25.61687590938088,56.0163],[-57.675927734374994,-25.639190362505886,55.0157],[-57.6796875,-25.64690520625588,57.9068],[-57.6890625,-25.652666925005889,55.7047],[-57.698876953124994,-25.65349700313088,53.2392],[-57.709399414062489,-25.652862237505886,52.0],[-57.720629882812489,-25.65374114375588,56.1446],[-57.742041015624991,-25.66179778438088,55.7596],[-57.754443359374989,-25.672686456255889,52.0],[-57.775244140624991,-25.70159270625588,58.9495],[-57.769140624999991,-25.70989348750588,55.5051],[-57.761279296874989,-25.715655206255889,56.0961],[-57.751806640624991,-25.71941497188088,55.5543],[-57.741137695312489,-25.72210051875588,55.8843],[-57.751806640624991,-25.73479583125588,52.0],[-57.768603515624989,-25.750518487505886,52.0],[-57.787939453124991,-25.76409270625588,54.2986],[-57.806323242187489,-25.769854425005889,54.1924],[-57.821337890624989,-25.77825286250588,52.0],[-57.81787109375,-25.797393487505886,55.1004],[-57.802587890624991,-25.83123137813088,52.2432],[-57.813574218749991,-25.84514739375588,51.5],[-57.833984375,-25.858721612505889,55.862],[-57.85498046875,-25.86882903438088,54.5059],[-57.876074218749991,-25.876006768755886,56.3627],[-57.87890625,-25.883135675005889,56.39],[-57.876074218749991,-25.890166925005886,57.1793],[-57.853125,-25.89788176875588,57.3685],[-57.85205078125,-25.90837981563088,59.299],[-57.857861328125,-25.91985442500588,52.5394],[-57.864013671875,-25.92742278438088,51.5],[-57.898974609374989,-25.953448175005889,53.3629],[-57.906591796874991,-25.968584893755889,55.4445],[-57.8603515625,-25.98088958125588,51.0],[-57.860400390624989,-25.994170831255886,52.6948],[-57.873461914062489,-26.01018645625588,54.2553],[-57.988940429687489,-26.088409112505886,51.0],[-58.022265624999989,-26.10564544063088,51.0],[-58.087255859374991,-26.12712981563088,56.0978],[-58.097412109375,-26.13665130000588,54.667],[-58.10703125,-26.170245050005889,55.1241],[-58.115966796875,-26.19085051875588,57.0581],[-58.124755859375,-26.20183684688088,53.5504],[-58.128344726562489,-26.19451262813088,56.8835],[-58.134033203125,-26.18889739375588,56.8874],[-58.141894531249989,-26.184600518755886,57.788],[-58.152026367187489,-26.18132903438088,53.6979],[-58.149658203125,-26.199248956255886,58.2048],[-58.137866210937489,-26.20940520625588,53.5813],[-58.121997070312489,-26.216631768755889,54.7335],[-58.107348632812489,-26.22600676875588,50.0],[-58.106738281249989,-26.23943450313088,50.0],[-58.1240234375,-26.25139739375588,59.1174],[-58.146728515625,-26.25994231563088,54.2139],[-58.16259765625,-26.263213800005886,49.875],[-58.170703124999989,-26.270342706255889,49.5],[-58.170751953124991,-26.286455987505889,49.5],[-58.165698242187489,-26.31853606563088,54.4014],[-58.168310546874991,-26.334991143755886,55.3429],[-58.1734375,-26.349151300005886,53.6483],[-58.206884765624991,-26.402666925005889,50.9257],[-58.2138671875,-26.41863372188088,51.4702],[-58.210400390625,-26.431182550005886,56.0461],[-58.186132812499991,-26.451690362505886,50.9779],[-58.189379882812489,-26.461944268755886,49.9279],[-58.203417968749989,-26.471514581255889,56.3276],[-58.206640624999991,-26.479327081255889,54.5276],[-58.20947265625,-26.496905206255889,49.0],[-58.21484375,-26.512237237505886,51.8464],[-58.218017578125,-26.52752044063088,53.3062],[-58.214111328125,-26.54436614375588,53.4953],[-58.208740234375,-26.550127862505889,49.8169],[-58.186132812499991,-26.564971612505886,55.5868],[-58.180029296874991,-26.572588800005889,56.5833],[-58.171240234374991,-26.586748956255889,51.8826],[-58.165698242187489,-26.59221770625588,49.6484],[-58.172216796874991,-26.59856536250588,51.1281],[-58.189257812499989,-26.609698175005889,52.9008],[-58.19296875,-26.61272551875588,52.941],[-58.192797851562489,-26.624541925005886,49.2881],[-58.187939453125,-26.63347747188088,49.4902],[-58.18212890625,-26.64153411250588,58.0825],[-58.179296874999991,-26.65056731563088,56.2464],[-58.1845703125,-26.65667083125588,54.9932],[-58.196459960937489,-26.65740325313088,58.8388],[-58.227880859374991,-26.651885675005886,49.0],[-58.232958984374989,-26.64861419063088,49.0],[-58.236328125,-26.649737237505889,49.0],[-58.241381835937489,-26.66106536250588,52.0561],[-58.245849609375,-26.68010833125588,56.4224],[-58.248632812499991,-26.758135675005889,49.5265],[-58.25244140625,-26.76311614375588,51.4504],[-58.2599609375,-26.76433684688088,49.0],[-58.272143554687489,-26.76409270625588,50.4606],[-58.288671874999991,-26.76848723750588,51.5503],[-58.287280273437489,-26.778643487505889,49.0],[-58.279223632812489,-26.790069268755886,50.0687],[-58.275561523437489,-26.79827239375588,56.179],[-58.289306640625,-26.81145598750588,56.8109],[-58.306201171874989,-26.80901458125588,49.0],[-58.324072265624991,-26.803741143755886,50.6397],[-58.340747070312489,-26.80852630000588,51.7139],[-58.353076171874989,-26.830401300005889,50.7431],[-58.341113281249989,-26.844268487505886,54.8239],[-58.322851562499991,-26.856768487505889,49.0],[-58.316503906249991,-26.87395598750588,56.7358],[-58.329638671874989,-26.884112237505889,55.8232],[-58.37548828125,-26.887530206255889,52.5392],[-58.385351562499991,-26.897002862505886,51.1792],[-58.394628906249991,-26.90960051875588,55.8168],[-58.416259765625,-26.917510675005886,53.4682],[-58.460498046874989,-26.928057550005889,49.0],[-58.476171874999991,-26.93792083125588,56.8445],[-58.484423828124989,-26.950518487505889,49.7498],[-58.482348632812489,-26.96379973750588,49.0],[-58.467333984374989,-26.97576262813088,56.5235],[-58.475268554687489,-26.990069268755889,51.015],[-58.493017578124991,-27.00969817500588,49.7851],[-58.502124023437489,-27.02361419063088,52.3894],[-58.505541992187489,-27.03142669063088,48.5],[-58.507421874999991,-27.03850676875588,53.3475],[-58.50830078125,-27.055010675005889,51.1333],[-58.512255859374989,-27.05999114375588,48.0],[-58.5205078125,-27.058428643755889,48.0],[-58.52783203125,-27.05413176875588,50.6166],[-58.52880859375,-27.051592706255889,51.6769],[-58.528759765625,-27.047686456255889,50.2866],[-58.531201171875,-27.04045989375588,51.9245],[-58.53671875,-27.03606536250588,47.5],[-58.546142578125,-27.04094817500588,58.0204],[-58.552416992187489,-27.048174737505889,54.3105],[-58.55712890625,-27.05535247188088,47.5],[-58.560498046875,-27.063311456255889,57.0576],[-58.562939453125,-27.072100518755889,58.3536],[-58.563085937499991,-27.090166925005889,54.7184],[-58.561279296875,-27.10540130000588,57.2065],[-58.566210937499989,-27.11589934688088,54.3433],[-58.616870117187489,-27.12371184688088,54.7396],[-58.639501953124991,-27.135772393755886,52.3982],[-58.654052734375,-27.15618255000588,54.4798],[-58.659106445312489,-27.18499114375588,47.1358],[-58.653125,-27.19793059688088,49.4353],[-58.639404296875,-27.209991143755886,48.9216],[-58.61474609375,-27.226592706255886,53.485],[-58.602294921875,-27.24553801875588,47.0],[-58.600683593749991,-27.26604583125588,50.356],[-58.60498046875,-27.316241143755889,45.5228]]}}