{"type":"Feature","properties":{"featurecla":"River","scalerank":8,"rivernum":858,"dissolve":"858River","name":"Bermejo2","name_alt":null,"note":null,"min_zoom":7.0,"strokeweig":0.25,"name_en":"Bermejo","min_label":8.0},
"geometry":{"type": "LineString","coordinates": [[-61.485766601562489,-24.58831145625588,157.1087],[-61.466894531249991,-24.60637786250588,156.4977],[-61.450366210937489,-24.61614348750588,157.8851],[-61.406909179687489,-24.62590911250588,156.5487],[-61.401123046875,-24.62542083125588,155.6113],[-61.392675781249991,-24.619659112505886,157.4266],[-61.387060546874991,-24.61907317500588,154.877],[-61.381689453124991,-24.62175872188088,154.8942],[-61.371997070312489,-24.63005950313088,154.0412],[-61.365966796875,-24.63274505000588,156.8372],[-61.345019531249989,-24.63713958125588,150.7183],[-61.27734375,-24.64324309688088,153.3477],[-61.235595703125,-24.65325286250588,152.2491],[-61.215673828124991,-24.66179778438088,151.3198],[-61.2046875,-24.67229583125588,146.84],[-61.194628906249989,-24.68572356563088,150.6538],[-61.177587890624991,-24.704131768755886,149.6045],[-61.151416015624989,-24.71746184688088,149.3061],[-61.146826171874991,-24.718096612505889,148.9404],[-61.1484375,-24.75212981563088,140.0],[-61.146826171874991,-24.762530206255889,139.5],[-61.141772460937489,-24.77361419063088,146.6509],[-61.135009765625,-24.781768487505886,148.5432],[-61.101977539062489,-24.812041925005886,145.8627],[-61.098437499999989,-24.81707122188088,144.2022],[-61.09716796875,-24.826006768755889,145.2924],[-61.099951171874991,-24.82976653438088,145.397],[-61.103930664062489,-24.83342864375588,140.5271],[-61.105883789062489,-24.841631768755889,145.3304],[-61.105639648437489,-24.853350518755889,144.5688],[-61.103808593749989,-24.86199309688088,143.9507],[-61.098730468749991,-24.870635675005886,142.4122],[-61.088476562499991,-24.88250090938088,141.2689],[-61.074877929687489,-24.89397551875588,141.3763],[-61.065576171874994,-24.894854425005889,142.2581],[-61.056640625,-24.89226653438088,143.9523],[-61.043798828124991,-24.89275481563088,145.356],[-61.010107421874991,-24.90886809688088,138.1113],[-60.855029296874989,-25.02312590938088,137.6558],[-60.84521484375,-25.02678801875588,138.2316],[-60.836181640625,-25.04461028438088,135.8365],[-60.814990234374989,-25.061553643755886,135.5332],[-60.721777343749991,-25.11541106563088,128.3684],[-60.70458984375,-25.11931731563088,127.5985],[-60.6884765625,-25.125518487505886,125.4802],[-60.651416015624989,-25.15593840938088,129.2214],[-60.632910156249991,-25.16716887813088,120.823],[-60.581958007812489,-25.18254973750588,127.3333],[-60.567724609374991,-25.19133880000588,121.7709],[-60.55341796875,-25.19768645625588,128.68],[-60.51953125,-25.20037200313088,122.5801],[-60.502539062499991,-25.208819268755889,122.6074],[-60.466796875,-25.26018645625588,118.5931],[-60.454345703125,-25.28728606563088,119.0981],[-60.419140625,-25.32170989375588,122.8695],[-60.360205078124991,-25.36663176875588,119.3295],[-60.355126953124994,-25.372588800005886,118.0731],[-60.354418945312489,-25.37639739375588,119.7135],[-60.34814453125,-25.38445403438088,117.4297],[-60.341162109374991,-25.39153411250588,117.5794],[-60.338134765625,-25.39251067500588,115.0769],[-60.34033203125,-25.402666925005889,118.9651],[-60.352587890624989,-25.411163018755886,113.1015],[-60.351806640625,-25.42034270625588,115.8102],[-60.338427734374989,-25.43206145625588,115.532],[-60.320166015624991,-25.43547942500588,115.6237],[-60.304052734374991,-25.44255950313088,117.6251],[-60.297119140625,-25.46502044063088,111.7005],[-60.290209960937489,-25.480791925005889,114.6605],[-60.253271484374991,-25.48455169063088,115.6793],[-60.235644531249989,-25.496123956255886,115.7987],[-60.23974609375,-25.497881768755889,116.4278],[-60.240527343749989,-25.49822356563088,109.382],[-60.240576171874991,-25.49920012813088,109.382],[-60.242529296874991,-25.50237395625588,114.1156],[-60.23125,-25.50969817500588,110.9302],[-60.230273437499989,-25.517413018755889,113.7592],[-60.233740234374991,-25.524444268755886,111.0181],[-60.235644531249989,-25.53020598750588,110.4379],[-60.2373046875,-25.529131768755889,110.2854],[-60.239697265625,-25.533038018755889,110.1113],[-60.241748046874989,-25.538897393755889,112.1358],[-60.242529296874991,-25.54387786250588,109.1192],[-60.240039062499989,-25.549639581255889,107.5389],[-60.230883789062489,-25.560381768755889,109.9049],[-60.226489257812489,-25.57854583125588,108.5535],[-60.220556640624991,-25.58977630000588,106.7555],[-60.196826171874989,-25.61809661250588,102.0],[-60.193896484374989,-25.62664153438088,109.2695],[-60.19189453125,-25.635772393755886,102.8976],[-60.187255859375,-25.64690520625588,105.2448],[-60.173388671874989,-25.662920831255889,106.7756],[-60.162524414062489,-25.661163018755886,111.3038],[-60.151220703124991,-25.65667083125588,109.8805],[-60.121142578124989,-25.672393487505886,105.744],[-60.064379882812489,-25.68792083125588,103.1345],[-60.044726562499989,-25.69817473750588,101.0],[-60.036474609374991,-25.70745208125588,104.7671],[-60.03095703125,-25.71819426875588,100.8249],[-60.019384765624991,-25.73284270625588,102.3038],[-60.012158203125,-25.73577239375588,104.5459],[-59.964599609375,-25.74627044063088,106.1677],[-59.95849609375,-25.755205987505889,102.5456],[-59.9546875,-25.76653411250588,103.3495],[-59.947680664062489,-25.776690362505889,102.3378],[-59.931811523437489,-25.78484465938088,94.1839],[-59.892675781249991,-25.796221612505889,102.2955],[-59.875341796874991,-25.80730559688088,99.5558],[-59.862231445312489,-25.82756926875588,99.6253],[-59.8609375,-25.843096612505889,91.7004],[-59.857470703124989,-25.856963800005886,93.6194],[-59.837817382812489,-25.872881768755889,101.8035],[-59.794238281249989,-25.90007903438088,107.6833],[-59.75927734375,-25.931182550005886,99.6409],[-59.704345703125,-26.00628020625588,90.8553],[-59.69287109375,-26.01165130000588,89.7871],[-59.682910156249989,-26.010577081255889,87.7598],[-59.675927734374994,-26.01238372188088,94.4881],[-59.66650390625,-26.078936456255889,92.853],[-59.672949218749991,-26.120440362505889,86.1908],[-59.669921875,-26.126788018755889,90.4984],[-59.660253906249991,-26.12957122188088,87.3464],[-59.650244140624991,-26.13445403438088,92.1408],[-59.638916015625,-26.13543059688088,88.8591],[-59.625537109374989,-26.126788018755889,91.2085],[-59.55341796875,-26.15154387813088,85.6985],[-59.447314453124989,-26.16375090938088,83.8181],[-59.431445312499989,-26.17253997188088,84.0226],[-59.420996093749991,-26.18743255000588,78.3792],[-59.41328125,-26.20867278438088,84.6035],[-59.40498046875,-26.24993255000588,82.9319],[-59.396289062499989,-26.265166925005886,80.423],[-59.378515624999991,-26.270830987505889,84.2852],[-59.392871093749989,-26.285967706255889,83.0961],[-59.388427734375,-26.306475518755889,78.1699],[-59.374755859375,-26.32439544063088,78.3875],[-59.361425781249991,-26.33220794063088,74.5266],[-59.3564453125,-26.333038018755886,83.6705],[-59.346923828125,-26.337432550005886,82.6622],[-59.340991210937489,-26.338409112505886,79.8653],[-59.335205078125,-26.33635833125588,71.0128],[-59.326171875,-26.32732512813088,75.0926],[-59.320483398437489,-26.32537200313088,70.0796],[-59.310302734375,-26.328448175005889,69.0],[-59.289404296874991,-26.342120050005889,74.4194],[-59.276123046875,-26.345245050005886,77.9455],[-59.253955078124989,-26.34221770625588,68.0],[-59.230517578124989,-26.33416106563088,77.7135],[-59.208544921874989,-26.322295831255886,76.4492],[-59.168261718749989,-26.29265715938088,78.9347],[-59.152587890625,-26.29509856563088,70.9763],[-59.125292968749989,-26.32537200313088,84.1168],[-59.090087890625,-26.34905364375588,75.2204],[-58.967626953124991,-26.39299895625588,66.0277]]}}