{"type":"Feature","properties":{"featurecla":"River","scalerank":8,"rivernum":858,"dissolve":"858River","name":"Bermejo1","name_alt":null,"note":null,"min_zoom":7.0,"strokeweig":0.2,"name_en":"Bermejo","min_label":8.0},
"geometry":{"type": "LineString","coordinates": [[-64.562841796874991,-22.31975676875588,772.2041],[-64.57275390625,-22.343096612505889,828.8098],[-64.559619140624989,-22.36052825313088,806.043],[-64.538623046874989,-22.37420012813088,763.6544],[-64.525244140624991,-22.38518645625588,756.3159],[-64.524023437499991,-22.396026300005886,763.1948],[-64.531835937499991,-22.415362237505889,823.7865],[-64.532080078124991,-22.425616143755889,830.0369],[-64.526464843749991,-22.43279387813088,737.3666],[-64.508544921875,-22.44378020625588,628.3553],[-64.504736328124991,-22.449737237505886,780.1245],[-64.498876953124991,-22.47258880000588,665.1632],[-64.484472656249991,-22.49114348750588,783.3938],[-64.429052734374991,-22.542315362505889,716.3661],[-64.430517578124991,-22.556963800005889,709.972],[-64.438037109374989,-22.56731536250588,762.9861],[-64.4462890625,-22.57610442500588,620.8202],[-64.4501953125,-22.586944268755886,627.6485],[-64.451220703124989,-22.597002862505889,585.5522],[-64.455908203124991,-22.616534112505889,675.1981],[-64.45703125,-22.62786223750588,808.3156],[-64.454443359374991,-22.64275481563088,562.0835],[-64.447924804687489,-22.64861419063088,529.8948],[-64.43896484375,-22.65178801875588,519.2562],[-64.429052734374991,-22.65886809688088,538.9424],[-64.402441406249991,-22.712237237505889,561.1465],[-64.391455078124991,-22.72039153438088,441.4415],[-64.369726562499991,-22.72966887813088,535.9144],[-64.356494140624989,-22.75188567500588,475.6498],[-64.353076171874989,-22.77898528438088,419.1696],[-64.360766601562489,-22.80291106563088,400.9842],[-64.348486328124991,-22.81682708125588,384.8853],[-64.344677734375,-22.86345794063088,358.7372],[-64.326025390624991,-22.871905206255889,351.3604],[-64.322851562499991,-22.89617278438088,343.4453],[-64.334326171874991,-22.95256926875588,341.7646],[-64.326025390624991,-22.981768487505889,339.2294],[-64.337646484375,-22.997881768755889,330.9778],[-64.34716796875,-23.015166925005886,338.6971],[-64.329199218749991,-23.01506926875588,328.2165],[-64.315380859375,-23.01921965938088,328.8817],[-64.303564453124991,-23.02654387813088,333.6163],[-64.291845703124991,-23.035674737505886,334.3466],[-64.296240234374991,-23.03777434688088,333.4413],[-64.301025390625,-23.04070403438088,332.5471],[-64.305517578124991,-23.042510675005886,331.8382],[-64.294848632812489,-23.04778411250588,331.3738],[-64.2833984375,-23.049639581255889,330.4643],[-64.258349609374989,-23.049346612505886,388.2905],[-64.258349609374989,-23.05559661250588,331.0568],[-64.262548828124991,-23.06511809688088,326.886],[-64.242773437499991,-23.083819268755889,318.7255],[-64.2373046875,-23.09710051875588,314.0],[-64.214111328125,-23.08928801875588,313.2188],[-64.208105468749991,-23.09783294063088,312.045],[-64.208178710937489,-23.114580987505889,317.6795],[-64.203125,-23.13128020625588,306.5],[-64.2,-23.12908294063088,311.8398],[-64.189453125,-23.125030206255886,352.7429],[-64.189453125,-23.13128020625588,324.7859],[-64.193212890624991,-23.135088800005889,321.6449],[-64.199023437499989,-23.14202239375588,326.5059],[-64.203125,-23.145538018755886,318.9125],[-64.1962890625,-23.152373956255886,313.933],[-64.1826171875,-23.145538018755886,399.4373],[-64.191992187499991,-23.17498137813088,320.4978],[-64.1884765625,-23.18401458125588,322.1631],[-64.168994140624989,-23.186553643755886,324.5696],[-64.168994140624989,-23.193389581255886,299.3092],[-64.182421874999989,-23.19231536250588,299.6296],[-64.208056640624989,-23.18084075313088,318.3824],[-64.216796875,-23.17962005000588,317.431],[-64.225341796875,-23.188311456255889,336.0722],[-64.221923828125,-23.19768645625588,300.3688],[-64.2099609375,-23.21038176875588,305.454],[-64.205664062499991,-23.21379973750588,307.609],[-64.1962890625,-23.21868255000588,301.7456],[-64.186865234374991,-23.226397393755889,297.9754],[-64.1826171875,-23.23796965938088,299.9987],[-64.181884765625,-23.24944426875588,288.0],[-64.178808593749991,-23.256182550005889,294.6475],[-64.172607421875,-23.259795831255886,292.4541],[-64.162158203124989,-23.26165130000588,290.9229],[-64.158251953124989,-23.259795831255886,290.2117],[-64.147631835937489,-23.250811456255889,289.3375],[-64.141650390624989,-23.248565362505886,282.625],[-64.135058593749989,-23.249346612505889,282.25],[-64.112963867187489,-23.25750090938088,287.8059],[-64.104833984374991,-23.261553643755889,287.8779],[-64.07177734375,-23.28582122188088,279.0909],[-64.052050781249989,-23.29607512813088,280.6494],[-64.011328124999991,-23.309405206255889,273.1025],[-63.968554687499989,-23.316436456255886,276.9553],[-63.880957031249991,-23.315459893755886,275.7127],[-63.823095703124991,-23.307940362505889,272.3537],[-63.767675781249991,-23.309405206255889,266.1675],[-63.75751953125,-23.313799737505889,265.389],[-63.7392578125,-23.33294036250588,261.2871],[-63.733569335937489,-23.33733489375588,259.5],[-63.725683593749991,-23.34026458125588,260.3473],[-63.635546874999989,-23.40203215938088,253.5413],[-63.627124023437489,-23.41619231563088,254.3116],[-63.616308593749991,-23.41961028438088,252.0],[-63.558837890625,-23.44719817500588,250.8212],[-63.513525390624991,-23.46062590938088,246.5],[-63.491552734374991,-23.470049737505889,245.3571],[-63.473193359374989,-23.48503997188088,245.1582],[-63.441259765624991,-23.505401300005886,245.4666],[-63.438720703125,-23.50920989375588,244.5687],[-63.431738281249991,-23.51238372188088,244.4983],[-63.427783203124989,-23.51995208125588,245.4365],[-63.425097656249989,-23.528838800005886,248.3279],[-63.421679687499989,-23.53655364375588,246.0162],[-63.393237304687489,-23.559893487505889,242.5436],[-63.314453125,-23.59783294063088,241.2389],[-63.284521484374991,-23.62468840938088,236.4281],[-63.279833984374989,-23.63420989375588,234.5762],[-63.275244140624991,-23.651397393755886,232.9792],[-63.271484375,-23.65886809688088,233.2539],[-63.263598632812489,-23.66570403438088,232.8951],[-63.242968749999989,-23.67620208125588,238.1488],[-63.216162109374991,-23.69622161250588,227.5],[-63.197509765625,-23.703643487505886,227.5135],[-63.107470703124989,-23.72576262813088,225.9879],[-63.083300781249989,-23.73455169063088,225.685],[-63.072851562499991,-23.745147393755886,221.6585],[-63.061865234374991,-23.751983331255886,221.9609],[-62.990283203124989,-23.76873137813088,225.2078],[-62.973486328124991,-23.784014581255889,223.9705],[-62.967138671874991,-23.80339934688088,223.4607],[-62.962939453124989,-23.823565362505889,222.7156],[-62.952441406249989,-23.84099700313088,220.1296],[-62.942919921874989,-23.84685637813088,216.5056],[-62.934985351562489,-23.84832122188088,221.7246],[-62.928027343749989,-23.85027434688088,219.6956],[-62.92138671875,-23.85808684688088,221.5574],[-62.917822265624991,-23.87151458125588,218.7024],[-62.9201171875,-23.894366143755889,214.8226],[-62.914599609374989,-23.906573175005889,213.7173],[-62.90771484375,-23.899737237505889,214.0642],[-62.898120117187489,-23.910967706255889,215.4487],[-62.882177734374991,-23.936553643755886,214.2036],[-62.870166015624989,-23.95086028438088,211.4638],[-62.861083984375,-23.965850518755886,210.5562],[-62.857275390624991,-23.97918059688088,217.478],[-62.848803710937489,-23.98748137813088,210.7372],[-62.82578125,-23.98845794063088,211.0035],[-62.822265625,-23.986163018755889,209.4304],[-62.818212890624991,-23.981475518755886,214.9587],[-62.81201171875,-23.976885675005889,212.9865],[-62.801928710937489,-23.97478606563088,211.318],[-62.797778320312489,-23.978350518755889,212.072],[-62.786547851562489,-23.99456145625588,211.3867],[-62.784228515624989,-23.99895598750588,211.6587],[-62.77978515625,-24.01555755000588,213.3925],[-62.76953125,-24.033526300005889,211.0984],[-62.758056640625,-24.041827081255889,210.3397],[-62.750097656249991,-24.030108331255889,209.1623],[-62.736425781249991,-24.03630950313088,208.9085],[-62.733496093749991,-24.05071380000588,209.8635],[-62.720996093749989,-24.064971612505886,208.7599],[-62.707690429687489,-24.068682550005889,204.0255],[-62.702246093749991,-24.05046965938088,205.3203],[-62.679980468749989,-24.06878020625588,208.1664],[-62.640380859375,-24.08660247188088,202.7035],[-62.602465820312489,-24.097491143755889,204.1357],[-62.585620117187489,-24.09490325313088,205.6033],[-62.58251953125,-24.08660247188088,203.4004],[-62.56884765625,-24.076202081255886,201.386],[-62.565722656249989,-24.06731536250588,200.9074],[-62.560546875,-24.06243255000588,201.8163],[-62.549487304687489,-24.066729425005889,201.3799],[-62.539599609374989,-24.07390715938088,200.0163],[-62.537841796875,-24.07781340938088,194.802],[-62.502001953124989,-24.066436456255886,196.8743],[-62.486669921874991,-24.06926848750588,199.5944],[-62.476367187499989,-24.09148528438088,190.5],[-62.445654296874991,-24.10076262813088,198.8973],[-62.367431640625,-24.101104425005886,197.7655],[-62.345996093749989,-24.118194268755886,196.5902],[-62.124853515624991,-24.19768645625588,189.2205],[-62.058837890625,-24.20281340938088,182.3844],[-62.039599609374989,-24.20720794063088,182.9291],[-62.02392578125,-24.214385675005886,185.3629],[-62.013916015625,-24.224151300005886,183.4435],[-62.002294921874991,-24.24675872188088,182.0945],[-61.99658203125,-24.25530364375588,180.3081],[-61.985400390624989,-24.263213800005886,182.5708],[-61.961962890624989,-24.272491143755886,182.0285],[-61.952197265624989,-24.279620050005889,182.689],[-61.937304687499989,-24.29387786250588,178.0125],[-61.920751953124991,-24.30632903438088,179.4269],[-61.88671875,-24.324248956255886,178.9203],[-61.848242187499991,-24.33416106563088,177.1776],[-61.808203124999991,-24.337920831255886,172.3293],[-61.796875,-24.33635833125588,166.1768],[-61.789721679687489,-24.334014581255886,167.1596],[-61.783251953124989,-24.334502862505886,175.7603],[-61.773730468749989,-24.34124114375588,173.3111],[-61.735888671874989,-24.37883880000588,169.4092],[-61.732714843749989,-24.379717706255889,169.0557],[-61.719091796874991,-24.37883880000588,172.7784],[-61.712817382812489,-24.38079192500588,162.8135],[-61.7099609375,-24.385577081255889,165.819],[-61.708178710937489,-24.39128997188088,162.7984],[-61.705175781249991,-24.39617278438088,169.3147],[-61.700366210937489,-24.402373956255886,166.4084],[-61.671875,-24.46135833125588,167.3528],[-61.661230468749991,-24.477569268755886,166.0523],[-61.647143554687489,-24.48870208125588,164.744],[-61.646289062499989,-24.474639581255886,165.4814],[-61.643017578125,-24.47161223750588,165.1953],[-61.63837890625,-24.47380950313088,167.1637],[-61.633471679687489,-24.47503020625588,167.8156],[-61.588818359375,-24.47503020625588,165.0995],[-61.573583984374991,-24.48162200313088,162.4101],[-61.565039062499991,-24.497881768755889,155.0639],[-61.557177734374989,-24.518096612505886,160.7354],[-61.544140625,-24.537139581255886,161.7265],[-61.485766601562489,-24.58831145625588,157.1087]]}}