{"type":"Feature","properties":{"featurecla":"River","scalerank":8,"rivernum":858,"dissolve":"858River","name":"Bermejo3","name_alt":null,"note":null,"min_zoom":7.0,"strokeweig":0.3,"name_en":"Bermejo","min_label":8.0},
"geometry":{"type": "LineString","coordinates": [[-58.967626953124991,-26.39299895625588,66.0277],[-58.93916015625,-26.41521575313088,74.8289],[-58.925585937499989,-26.428545831255889,69.0231],[-58.911865234375,-26.453448175005889,78.936],[-58.872802734375,-26.497588800005886,65.2502],[-58.8583984375,-26.510284112505886,65.2504],[-58.848559570312489,-26.514971612505889,66.6743],[-58.816748046874991,-26.523955987505886,62.8934],[-58.783007812499989,-26.547393487505886,63.3252],[-58.779223632812489,-26.551299737505886,62.8106],[-58.770849609374991,-26.557940362505889,62.7633],[-58.741503906249989,-26.588897393755886,61.9518],[-58.727392578124991,-26.59905364375588,62.2373],[-58.708740234375,-26.59050872188088,60.8389],[-58.693701171874991,-26.597979425005889,63.8847],[-58.663623046874989,-26.63689544063088,59.9921],[-58.653857421874989,-26.64519622188088,59.3326],[-58.597216796874989,-26.675811456255886,57.3371],[-58.57080078125,-26.69500090938088,57.5831],[-58.550878906249991,-26.71868255000588,56.0144],[-58.543066406249991,-26.74675872188088,56.3605],[-58.535498046874991,-26.75579192500588,53.5],[-58.502197265625,-26.772002862505886,62.9125],[-58.490087890624991,-26.785967706255889,55.8876],[-58.463916015624989,-26.82903411250588,60.0277],[-58.447119140624991,-26.84026458125588,58.7775],[-58.430419921875,-26.84270598750588,55.6338],[-58.395361328124991,-26.83928801875588,50.0],[-58.378710937499989,-26.844756768755886,53.333],[-58.374438476562489,-26.87127044063088,49.0],[-58.358081054687489,-26.880205987505889,59.291]]}}