{"type":"Feature","properties":{"GID_2":"ARG.18.16_1","GID_0":"ARG","country":"Argentina","GID_1":"ARG.18_1","state":"SanJuan","NL_NAME_1":"NA","county":"ValleFértil","VARNAME_2":"SanAgustindelValleFert|Valle","NL_NAME_2":"NA","TYPE_2":"Departamento","ENGTYPE_2":"Department","CC_2":"NA","HASC_2":"AR.SJ.VF","name":"ValleFértil.county"},
"geometry":{"type": "MultiPolygon","coordinates": [[[[-68.2691,-29.7402,1287.4127],[-68.2724,-29.7441,1323.2699],[-68.2905,-29.7544,1339.4023],[-68.3266,-29.7805,905.2696],[-68.3492,-29.792,896.9345],[-68.3531,-29.7959,894.0366],[-68.3383,-29.8054,892.9451],[-68.3335,-29.8101,890.119],[-68.3118,-29.8352,876.3884],[-68.2909,-29.8647,862.2422],[-68.2771,-29.907,851.2207],[-68.2507,-29.9621,835.6176],[-68.2361,-30.0042,822.4937],[-68.2251,-30.0166,817.1322],[-68.2198,-30.013,816.5139],[-68.2128,-30.005,825.3405],[-68.2026,-29.9884,843.5471],[-68.1725,-29.957,893.0215],[-68.1592,-29.9279,936.6464],[-68.1502,-29.9175,962.1703],[-68.1297,-29.9467,1207.051],[-68.111,-29.9659,1436.903],[-68.1046,-29.9771,1297.1307],[-68.0865,-29.9925,1766.4641],[-68.0746,-30.012,1597.9871],[-68.0675,-30.019,1592.1038],[-68.0474,-30.0628,1623.6224],[-68.0321,-30.0877,1474.7455],[-68.026,-30.1058,1577.0337],[-68.0167,-30.1619,1308.6735],[-68.0057,-30.1816,1676.9071],[-67.9982,-30.1885,1645.9475],[-67.9921,-30.1917,1604.9021],[-67.9529,-30.198,1489.4055],[-67.946,-30.2,1471.0271],[-67.9373,-30.2056,1435.2461],[-67.9207,-30.2262,1490.6158],[-67.9151,-30.2378,1540.6635],[-67.8796,-30.2814,1794.9188],[-67.8651,-30.3068,1924.9971],[-67.8497,-30.3281,1888.0098],[-67.8284,-30.3453,1925.8478],[-67.8121,-30.352,2096.854],[-67.8036,-30.3579,2104.6077],[-67.7993,-30.3796,2098.8523],[-67.8011,-30.4172,2139.6536],[-67.7968,-30.4325,2230.373],[-67.7895,-30.4503,2127.125],[-67.772,-30.4814,2089.3975],[-67.7563,-30.4987,2153.4282],[-67.7507,-30.5102,1866.234],[-67.7489,-30.5731,1687.6512],[-67.745,-30.5884,1576.8082],[-67.7427,-30.6292,1605.2471],[-67.7357,-30.6504,1948.5615],[-67.7083,-30.6984,1745.6117],[-67.6899,-30.7179,1733.9227],[-67.6656,-30.7492,1734.3245],[-67.6369,-30.7686,1597.3824],[-67.6266,-30.7775,1873.7325],[-67.6131,-30.7962,1603.7256],[-67.6013,-30.8082,1495.5068],[-67.5753,-30.8414,1655.3649],[-67.5621,-30.8464,1692.1904],[-67.5572,-30.8509,1720.9956],[-67.5331,-30.8787,1679.9996],[-67.5222,-30.8951,1742.4667],[-67.5047,-30.911,1800.7924],[-67.4929,-30.9305,2060.6047],[-67.4792,-30.941,1825.8408],[-67.4696,-30.9452,1876.6709],[-67.4634,-30.953,1797.6613],[-67.4589,-30.9649,2065.2356],[-67.4603,-30.9742,2085.5623],[-67.4756,-30.9919,2180.9346],[-67.4884,-31.003,2363.3328],[-67.4946,-31.0146,2492.0835],[-67.4932,-31.0171,2522.7683],[-67.4867,-31.0204,2496.7046],[-67.4761,-31.0227,2517.1863],[-67.4536,-31.0329,2374.551],[-67.4399,-31.0434,2170.5403],[-67.4252,-31.0574,2268.3467],[-67.4247,-31.0635,2005.6084],[-67.4322,-31.0701,1958.8287],[-67.4368,-31.0822,2133.0928],[-67.4312,-31.097,2438.0334],[-67.4134,-31.1243,2157.2129],[-67.4074,-31.1458,2057.1609],[-67.4071,-31.1583,1917.2676],[-67.4113,-31.1704,2069.4153],[-67.4136,-31.186,2032.6543],[-67.4133,-31.2142,1725.3081],[-67.4064,-31.2288,1633.056],[-67.3967,-31.2421,1642.0958],[-67.3826,-31.2778,1221.0189],[-67.3727,-31.2981,1086.8564],[-67.3592,-31.3406,995.254],[-67.3508,-31.358,1112.1145],[-67.3488,-31.3768,954.3982],[-67.3462,-31.3827,812.3262],[-67.3325,-31.4013,785.2465],[-67.3207,-31.4134,630.3468],[-67.293,-31.4385,545.5929],[-67.2818,-31.4468,528.3242],[-67.275,-31.4489,523.2023],[-67.2675,-31.4493,515.6177],[-67.2537,-31.4453,501.151],[-67.2175,-31.4401,468.5363],[-67.1152,-31.4336,411.5385],[-67.0818,-31.4345,404.7591],[-67.0885,-31.4223,407.0277],[-67.0923,-31.4042,408.3842],[-67.1001,-31.3875,416.3515],[-67.0623,-31.0858,495.248],[-67.1164,-31.0209,531.9758],[-67.0771,-30.9272,552.7673],[-67.0763,-30.8871,568.2808],[-67.0941,-30.8649,582.8823],[-67.1429,-30.7913,625.8629],[-67.1589,-30.7643,639.0303],[-67.1798,-30.7225,662.8489],[-67.1869,-30.7163,667.4638],[-67.2071,-30.704,680.9711],[-67.2357,-30.6817,697.0239],[-67.2761,-30.6321,733.5614],[-67.3055,-30.6063,753.0644],[-67.3282,-30.5756,784.3447],[-67.3399,-30.5644,793.9774],[-67.3621,-30.5497,829.9264],[-67.3927,-30.535,866.1534],[-67.4137,-30.5189,891.5601],[-67.4319,-30.5098,898.3887],[-67.4604,-30.4717,921.0574],[-67.4734,-30.4576,933.8815],[-67.4843,-30.4504,936.0261],[-67.5026,-30.441,951.4855],[-67.5074,-30.44,953.1484],[-67.5512,-30.4074,1000.715],[-67.5632,-30.3899,1034.0771],[-67.5779,-30.3734,1058.3323],[-67.5795,-30.3683,1055.0889],[-67.5792,-30.363,1055.0955],[-67.5736,-30.3539,1058.9456],[-67.5698,-30.3439,1054.4138],[-67.5695,-30.3388,1058.7098],[-67.5764,-30.3078,1096.3082],[-67.5792,-30.3037,1101.3184],[-67.5953,-30.2964,1116.7799],[-67.6211,-30.2644,1218.2817],[-67.6379,-30.2496,1187.4922],[-67.6565,-30.2364,1214.8396],[-67.6603,-30.2322,1225.052],[-67.6698,-30.2131,1254.9558],[-67.676,-30.2042,1270.9189],[-67.6949,-30.1839,1287.816],[-67.7037,-30.1768,1296.856],[-67.7524,-30.1462,1352.9956],[-67.7903,-30.1252,1374.8369],[-67.7987,-30.1176,1382.9834],[-67.8009,-30.1129,1387.7788],[-67.8024,-30.0971,1412.4263],[-67.806,-30.0935,1423.1278],[-67.8344,-30.0843,1431.7325],[-67.855,-30.0736,1456.7983],[-67.8719,-30.0685,1502.4235],[-67.895,-30.0518,1563.0347],[-67.9491,-30.0066,1674.735],[-67.9706,-29.9824,1751.6982],[-67.9828,-29.981,1801.1503],[-68.0044,-29.9711,1525.4561],[-68.0084,-29.9673,1475.3188],[-68.0249,-29.9387,1535.571],[-68.0317,-29.9298,1369.8521],[-68.066,-29.9075,1091.3899],[-68.0777,-29.9046,1092.1299],[-68.0826,-29.9013,1115.0664],[-68.0956,-29.8715,1393.1208],[-68.1033,-29.8457,1297.738],[-68.1081,-29.843,1287.1964],[-68.1143,-29.8428,1279.2355],[-68.1387,-29.8446,1279.9526],[-68.1684,-29.8505,1108.4696],[-68.1736,-29.8476,1092.1805],[-68.1851,-29.8289,1406.4362],[-68.1935,-29.8089,1193.4506],[-68.195,-29.8037,1430.1785],[-68.194,-29.7922,1522.4673],[-68.1957,-29.788,1417.2437],[-68.2041,-29.786,1595.4982],[-68.2293,-29.7849,1260.4373],[-68.2401,-29.7802,1389.0167],[-68.2486,-29.7726,1421.6398],[-68.2555,-29.7637,1486.8484],[-68.2691,-29.7402,1287.4127]]]]}}