{"type": "Feature","bbox": [-69.031,-29.9778,-67.6125,-28.9643],"geometry": {"type": "MultiPolygon","coordinates": [[[[-67.8536,-29.0786,5110.3408],[-68.2453,-29.2243,1202.2117],[-68.723,-29.0543,2650.26],[-68.9669,-28.9643,3790.5735],[-68.9666,-28.97,3749.4229],[-68.9563,-28.9742,3903.8394],[-68.9466,-28.9804,3832.4995],[-68.9449,-28.9855,3884.7732],[-68.9456,-28.9963,3925.4612],[-68.9317,-29.006,4091.2698],[-68.9248,-29.0148,3925.8181],[-68.9176,-29.0295,4099.5566],[-68.9055,-29.0478,4245.646],[-68.9036,-29.0583,4386.6172],[-68.9083,-29.09,4368.6729],[-68.9259,-29.1116,4412.1377],[-68.9305,-29.1215,4251.8613],[-68.9346,-29.1253,4222.1152],[-68.94,-29.1277,4213.2314],[-68.952,-29.127,4249.5698],[-68.9573,-29.1243,4309.3843],[-68.9637,-29.1155,4402.2666],[-68.9685,-29.1119,4136.1313],[-68.9739,-29.1125,3975.5166],[-68.9814,-29.1209,4059.2778],[-68.9902,-29.135,4197.5269],[-68.994,-29.139,4094.208],[-69.0001,-29.1399,3960.2866],[-69.0043,-29.1433,3704.4824],[-69.0065,-29.1485,3852.5623],[-69.0088,-29.1645,4019.1938],[-68.9932,-29.1715,4270.4385],[-68.9714,-29.19,3828.8167],[-68.9718,-29.1953,3783.1641],[-68.9887,-29.2051,3855.314],[-68.9858,-29.2101,3804.2971],[-68.9809,-29.2132,3754.8796],[-68.9789,-29.2183,3851.5691],[-68.9778,-29.234,4020.9075],[-68.9723,-29.2493,3801.4019],[-68.9686,-29.2703,4082.8274],[-68.956,-29.2818,4283.5059],[-68.9521,-29.2917,4134.8984],[-68.9529,-29.3077,4089.1282],[-68.9731,-29.3277,3944.3113],[-68.976,-29.3322,4046.9167],[-68.9772,-29.3428,3884.5166],[-68.9746,-29.3587,4007.6763],[-68.9756,-29.3639,3948.8914],[-68.9869,-29.3827,3901.8037],[-68.9927,-29.3978,3979.4146],[-68.9932,-29.4031,4060.3118],[-68.9868,-29.4121,4085.7249],[-68.9773,-29.4189,4360.6172],[-68.9563,-29.4394,4340.1025],[-68.9566,-29.443,4425.4487],[-68.9749,-29.4542,4663.3315],[-68.9893,-29.4714,4615.4336],[-69.0001,-29.4761,4823.5542],[-69.0089,-29.4834,4709.498],[-69.0241,-29.5061,4450.4175],[-69.031,-29.5212,4718.2407],[-69.0291,-29.5318,4806.2646],[-69.0181,-29.5566,4426.8105],[-69.0172,-29.5832,4386.9253],[-69.0097,-29.6033,4226.3374],[-69.0029,-29.6154,4027.9519],[-68.9913,-29.6239,3688.0515],[-68.9859,-29.6263,3768.3496],[-68.9739,-29.6283,3561.2419],[-68.9571,-29.6347,3546.4736],[-68.9509,-29.635,3562.0334],[-68.9448,-29.6343,3511.8701],[-68.9399,-29.6316,3648.3352],[-68.9336,-29.6222,3911.5344],[-68.9307,-29.6109,3323.3752],[-68.9132,-29.6158,3212.6289],[-68.8974,-29.6144,3534.0703],[-68.8924,-29.6121,3642.2878],[-68.8887,-29.6078,3873.2798],[-68.8798,-29.5934,3639.0483],[-68.8753,-29.5939,3404.5073],[-68.8647,-29.6015,3103.3677],[-68.8413,-29.614,2870.3496],[-68.8297,-29.6164,2973.5005],[-68.8176,-29.6144,2650.5154],[-68.7933,-29.6152,2864.771],[-68.769,-29.6132,2427.3787],[-68.7489,-29.6197,2146.7173],[-68.7433,-29.6188,2252.7075],[-68.705,-29.6015,1622.1335],[-68.6929,-29.6011,1543.7932],[-68.6838,-29.6024,1522.1941],[-68.6729,-29.6068,1498.3131],[-68.6311,-29.6289,1517.2239],[-68.6142,-29.6403,1344.8154],[-68.6022,-29.641,1279.0414],[-68.5861,-29.6378,1222.7854],[-68.5749,-29.6336,1180.2483],[-68.5689,-29.6334,1160.8678],[-68.5326,-29.6385,1053.9364],[-68.5085,-29.6368,1001.8426],[-68.491,-29.6413,981.0293],[-68.4667,-29.6429,962.2399],[-68.4389,-29.6536,939.8587],[-68.4049,-29.6605,1001.0541],[-68.3692,-29.6652,1038.5603],[-68.334,-29.6762,1257.8628],[-68.3312,-29.692,1125.2651],[-68.3227,-29.7119,970.312],[-68.3188,-29.716,951.162],[-68.3135,-29.7185,948.8752],[-68.3013,-29.7186,953.6033],[-68.2892,-29.7206,1032.3774],[-68.2839,-29.723,1059.1633],[-68.2724,-29.7355,1189.0291],[-68.2555,-29.7637,1486.8484],[-68.2448,-29.7767,1384.3585],[-68.2293,-29.7849,1260.4373],[-68.2041,-29.786,1595.4982],[-68.1957,-29.788,1417.2437],[-68.194,-29.7922,1522.4673],[-68.195,-29.8037,1430.1785],[-68.1935,-29.8089,1193.4506],[-68.1851,-29.8289,1406.4362],[-68.1736,-29.8476,1092.1805],[-68.1684,-29.8505,1108.4696],[-68.1387,-29.8446,1279.9526],[-68.1143,-29.8428,1279.2355],[-68.1081,-29.843,1287.1964],[-68.1033,-29.8457,1297.738],[-68.0956,-29.8715,1393.1208],[-68.0826,-29.9013,1115.0664],[-68.0777,-29.9046,1092.1299],[-68.066,-29.9075,1091.3899],[-68.0361,-29.9262,1563.2434],[-68.0249,-29.9387,1535.571],[-68.0084,-29.9673,1475.3188],[-68.0044,-29.9711,1525.4561],[-67.9906,-29.9778,1863.1877],[-67.9598,-29.9469,1625.9893],[-67.9403,-29.9224,1398.02],[-67.8945,-29.8723,1298.481],[-67.8574,-29.8383,1341.5411],[-67.8426,-29.8272,1473.7603],[-67.817,-29.8013,1548.0088],[-67.7235,-29.7263,1714.4854],[-67.6791,-29.6998,2009.675],[-67.6125,-29.656,2825.9172],[-67.6863,-29.5285,2827.7625],[-67.6941,-29.5085,2857.3337],[-67.6945,-29.5,2906.0391],[-67.7139,-29.465699999999998,2555.5735],[-67.7227,-29.4413,2690.0493],[-67.7442,-29.4182,2699.9143],[-67.7542,-29.4036,2560.6323],[-67.7613,-29.3877,2674.8979],[-67.765,-29.3624,2491.2434],[-67.7679,-29.3542,2305.8181],[-67.7881,-29.3357,2231.7554],[-67.8001,-29.3223,2412.2476],[-67.8226,-29.2895,2645.0403],[-67.8304,-29.2738,2432.49],[-67.8512,-29.2129,3093.7783],[-67.8512,-29.2043,3476.9224],[-67.8564,-29.1706,4083.7405],[-67.8582,-29.1408,4733.4141],[-67.8559,-29.1239,4969.0537],[-67.8558,-29.094,5195.4209],[-67.8536,-29.0786,5110.3408]]]]}
,"properties": {"GID_2": "ARG.12.6_1","GID_0": "ARG","country": "Argentina","GID_1": "ARG.12_1","state": "LaRioja","NL_NAME_1": "NA","county": "CoronelFelipeVarela","VARNAME_2": "VillaUnion|GeneralLavalle","NL_NAME_2": "NA","TYPE_2": "Departamento","ENGTYPE_2": "Department","CC_2": "NA","HASC_2": "NA","name": "CoronelFelipeVarela.county","area_km2": 8148.136,"hist_schema_id": "Elevation0-9000","hist_area_km2": {"950": 17.1,"975": 54.667,"1000": 88.004,"1025": 111.552,"1050": 141.427,"1075": 161.931,"1100": 183.115,"1125": 205.255,"1150": 221.623,"1175": 226.166,"1200": 229.085,"1225": 243.787,"1250": 259.05,"1275": 248.764,"1300": 245.751,"1325": 214.337,"1350": 179.893,"1375": 166.173,"1400": 147.718,"1425": 123.465,"1450": 116.838,"1475": 119.482,"1500": 122.82,"1525": 120.727,"1550": 122.621,"1575": 123.28,"1600": 123.985,"1625": 123.14,"1650": 125.387,"1675": 117.131,"1700": 112.083,"1725": 100.601,"1750": 93.06,"1775": 85.501,"1800": 78.29,"1825": 73.024,"1850": 72.682,"1875": 68.549,"1900": 65.634,"1925": 63.006,"1950": 62.575,"1975": 60.056,"2000": 59.167,"2025": 59.98,"2050": 59.388,"2075": 61.884,"2100": 58.487,"2125": 58.248,"2150": 57.915,"2175": 56.625,"2200": 54.703,"2225": 55.535,"2250": 51.322,"2275": 48.852,"2300": 47.861,"2325": 46.293,"2350": 47.015,"2375": 46.109,"2400": 45.097,"2425": 42.582,"2450": 41.489,"2475": 39.158,"2500": 37.772,"2525": 36.959,"2550": 34.778,"2575": 33.906,"2600": 32.853,"2625": 33.9,"2650": 31.684,"2675": 29.999,"2700": 29.353,"2725": 28.964,"2750": 26.319,"2775": 27.779,"2800": 28.865,"2825": 26.704,"2850": 27.29,"2875": 26.702,"2900": 24.709,"2925": 24.726,"2950": 24.338,"2975": 24.391,"3000": 23.58,"3025": 23.784,"3050": 24.874,"3075": 22.155,"3100": 22.306,"3125": 21.697,"3150": 21.403,"3175": 19.981,"3200": 19.76,"3225": 18.687,"3250": 18.355,"3275": 18.411,"3300": 17.748,"3325": 17.525,"3350": 17.322,"3375": 16.655,"3400": 15.955,"3425": 15.975,"3450": 15.565,"3475": 15.808,"3500": 14.123,"3525": 14.587,"3550": 13.59,"3575": 14.627,"3600": 14.607,"3625": 15.125,"3650": 14.516,"3675": 13.906,"3700": 13.704,"3725": 13.799,"3750": 12.8,"3775": 14.113,"3800": 12.856,"3825": 13.337,"3850": 13.523,"3875": 13.874,"3900": 13.545,"3925": 14.488,"3950": 12.785,"3975": 12.953,"4000": 13.156,"4025": 12.232,"4050": 11.75,"4075": 12.049,"4100": 12.567,"4125": 10.958,"4150": 10.012,"4175": 10.029,"4200": 9.956,"4225": 10.974,"4250": 12.476,"4275": 11.623,"4300": 9.735,"4325": 8.958,"4350": 9.44,"4375": 7.773,"4400": 6.386,"4425": 6.236,"4450": 4.627,"4475": 4.089,"4500": 3.515,"4525": 3.219,"4550": 3.348,"4575": 2.997,"4600": 2.7,"4625": 2.588,"4650": 2.089,"4675": 1.83,"4700": 1.738,"4725": 1.516,"4750": 0.962,"4775": 1.24,"4800": 1.036,"4825": 0.741,"4850": 0.722,"4875": 0.852,"4900": 0.556,"4925": 0.611,"4950": 0.667,"4975": 0.463,"5000": 0.463,"5025": 0.685,"5050": 0.593,"5075": 0.463,"5100": 0.463,"5125": 0.537,"5150": 0.37,"5175": 0.389,"5200": 0.389,"5225": 0.389,"5250": 0.315,"5275": 0.259,"5300": 0.259,"5325": 0.241,"5350": 0.148,"5375": 0.185}}}