{"type":"Feature","properties":{"ISO3166-1-Alpha-3":"ARG","country":"Argentina","fill":"#FF0","id":"1308","name":"Corrientes"},
"geometry":{"type": "Polygon","coordinates": [[[-58.12882,-27.26965,46.25],[-58.23822,-27.25704,46.0],[-58.51076,-27.27844,46.0],[-58.60017,-27.31296,47.5769],[-58.6042,-27.31626,45.0],[-58.615,-27.31828,45.0],[-58.64326,-27.32552,44.5],[-58.65597,-27.33115,44.5],[-58.69086,-27.35786,49.0716],[-58.76496,-27.39952,50.3425],[-58.7684,-27.40582,46.1423],[-58.77589,-27.41254,44.0],[-58.87901,-27.47595,43.0],[-58.88653,-27.47894,48.1989],[-58.88885,-27.51496,44.3644],[-58.88811,-27.53294,43.0],[-58.88475,-27.55057,43.0],[-58.87813,-27.56674,48.0388],[-58.8501,-27.61072,46.2145],[-58.834,-27.64415,42.5],[-58.82232,-27.67991,42.5],[-58.81573,-27.71686,42.5],[-58.81496,-27.75391,42.0],[-58.8179,-27.77257,42.0],[-58.8385,-27.82316,42.0],[-58.84374,-27.84161,46.4935],[-58.84446,-27.85975,43.6067],[-58.8409,-27.89706,41.5],[-58.84157,-27.91633,45.1638],[-58.86475,-27.99932,43.3391],[-58.87702,-28.04335,43.3912],[-58.89472,-28.07079,42.4343],[-58.9203,-28.09482,40.6551],[-58.95048,-28.11239,41.1058],[-58.98187,-28.12014,47.7198],[-59.022,-28.11983,41.4525],[-59.04205,-28.122,43.1758],[-59.05993,-28.12945,38.0],[-59.07223,-28.14154,38.0],[-59.08138,-28.15756,37.5],[-59.08752,-28.17523,37.5],[-59.09073,-28.19223,37.5],[-59.09042,-28.21078,37.5],[-59.08329,-28.24691,42.311],[-59.08205,-28.2653,37.0],[-59.09099,-28.32194,36.5],[-59.08768,-28.34096,42.2718],[-59.06797,-28.38447,36.0],[-59.06621,-28.40137,36.4191],[-59.09081,-28.53128,37.7382],[-59.08569,-28.60787,37.2862],[-59.08696,-28.62709,38.08],[-59.09166,-28.64611,34.0],[-59.0991,-28.66419,37.7435],[-59.13706,-28.72894,40.5987],[-59.14292,-28.74579,37.9861],[-59.14251,-28.7631,33.5],[-59.14078,-28.77147,33.5],[-59.14018,-28.78057,33.0],[-59.14101,-28.78972,33.0],[-59.15044,-28.82444,32.5],[-59.15256,-28.84888,32.0],[-59.16008,-28.86785,31.5],[-59.18204,-28.9019,31.0],[-59.19031,-28.92051,35.5836],[-59.19439,-28.92139,37.1188],[-59.19271,-28.98841,35.7668],[-59.19744,-29.02205,29.5],[-59.21336,-29.04846,29.5],[-59.22726,-29.05823,29.5],[-59.27413,-29.08014,30.713],[-59.30322,-29.10065,33.6181],[-59.32994,-29.12442,33.5183],[-59.35888,-29.14349,29.0],[-59.45577,-29.17522,32.8181],[-59.48497,-29.18917,32.2995],[-59.51127,-29.20757,32.057],[-59.53282,-29.23088,31.9266],[-59.54768,-29.25956,31.8283],[-59.5829,-29.37779,27.6057],[-59.58907,-29.41118,32.6033],[-59.59109,-29.61499,31.135],[-59.62698,-29.75059,30.2175],[-59.63258,-29.76459,27.7117],[-59.6648,-29.81906,23.0],[-59.67279,-29.84712,24.7238],[-59.6648,-29.87833,25.5417],[-59.63023,-29.93006,25.8193],[-59.59907,-30.01269,22.0],[-59.59535,-30.04917,25.6795],[-59.59713,-30.0671,22.0],[-59.60253,-30.08483,22.0],[-59.63126,-30.1331,21.5],[-59.6384,-30.15036,25.626],[-59.64178,-30.16886,25.3786],[-59.64423,-30.20684,21.5],[-59.64759,-30.22549,21.5],[-59.66671,-30.27608,23.8671],[-59.6693,-30.29386,24.4853],[-59.66152,-30.33691,21.7592],[-59.58003,-30.33427,23.3266],[-59.56812,-30.33257,22.8219],[-59.50411,-30.31029,46.6536],[-59.49866,-30.30905,30.3073],[-59.49499,-30.30936,30.1594],[-59.48996,-30.31029,30.2375],[-59.46391,-30.31918,31.8775],[-59.45587,-30.3198,24.7691],[-59.38854,-30.30595,32.1709],[-59.33692,-30.31272,33.336],[-59.24131,-30.34347,41.2243],[-59.16587,-30.30575,39.23],[-59.1453,-30.29138,39.3586],[-59.13848,-30.28105,42.8762],[-59.09869,-30.2504,43.5274],[-59.04489,-30.22007,42.266],[-59.02045,-30.20922,44.2511],[-59.005,-30.2041,49.7651],[-58.97311,-30.20735,47.4944],[-58.91593,-30.22363,50.7739],[-58.88594,-30.2272,53.5371],[-58.87617,-30.22699,52.036],[-58.79364,-30.21164,51.2908],[-58.77475,-30.20611,51.8974],[-58.75687,-30.19717,52.4746],[-58.62975,-30.15227,57.5258],[-58.60174,-30.15144,59.0296],[-58.58714,-30.15304,56.6131],[-58.5736,-30.15609,56.7578],[-58.56275,-30.1609,58.4668],[-58.54006,-30.17635,60.5219],[-58.53495,-30.17888,60.9503],[-58.52211,-30.18302,60.8596],[-58.50136,-30.1855,66.2604],[-58.45488,-30.184,66.5848],[-58.26075,-30.23071,72.85],[-58.22964,-30.25299,72.9416],[-58.22039,-30.26363,73.5073],[-58.21789,-30.27035,70.9745],[-58.2082,-30.29076,61.0343],[-58.19347,-30.31551,58.659],[-58.17223,-30.34058,61.8021],[-58.11366,-30.38977,59.0378],[-58.068,-30.42073,49.531],[-58.05542,-30.44067,49.1607],[-58.05152,-30.45328,55.0076],[-58.04433,-30.49907,56.5522],[-58.03699,-30.52175,47.4635],[-57.99679,-30.59033,62.4749],[-57.98726,-30.60351,52.4449],[-57.87034,-30.70789,46.898],[-57.81675,-30.74427,33.5],[-57.80923,-30.74712,33.5],[-57.80866,-30.74733,33.5],[-57.81789,-30.71203,40.4472],[-57.82621,-30.6897,55.1392],[-57.84853,-30.64795,33.5],[-57.86331,-30.62862,37.1974],[-57.88579,-30.58986,33.5],[-57.88977,-30.5508,33.5],[-57.87711,-30.51483,33.5],[-57.84962,-30.48527,34.7832],[-57.65273,-30.3291,46.1455],[-57.63108,-30.29706,35.0],[-57.62374,-30.2581,37.7761],[-57.63795,-30.21511,36.0],[-57.64245,-30.19309,42.477],[-57.63397,-30.18358,41.435],[-57.6117,-30.18296,42.589],[-57.56865,-30.17655,39.2137],[-57.5486,-30.17004,44.0085],[-57.50618,-30.14431,37.5],[-57.41145,-30.03961,40.5802],[-57.32515,-29.98101,43.3113],[-57.31874,-29.96551,41.5918],[-57.30851,-29.84851,41.0],[-57.29151,-29.81513,45.9422],[-57.26257,-29.7926,48.0763],[-57.21963,-29.77834,41.5],[-57.17746,-29.77286,51.8406],[-57.13338,-29.77214,42.0],[-57.11287,-29.76604,42.0],[-57.09416,-29.75198,51.0274],[-57.02093,-29.68336,43.2553],[-57.0136,-29.67312,42.0],[-57.00884,-29.66258,42.0],[-56.97939,-29.63499,47.8169],[-56.96579,-29.60088,42.0],[-56.95164,-29.58631,42.375],[-56.91241,-29.5584,47.5652],[-56.90435,-29.54962,61.9808],[-56.89727,-29.53566,43.0],[-56.81903,-29.475,61.0749],[-56.81495,-29.46704,58.338],[-56.81294,-29.45712,59.2091],[-56.80756,-29.44471,55.5716],[-56.79984,-29.43396,61.0749],[-56.78343,-29.4258,45.53],[-56.78203,-29.4166,45.0],[-56.78255,-29.40544,45.0],[-56.78082,-29.39531,48.42],[-56.77578,-29.38642,45.0],[-56.76994,-29.37908,45.0],[-56.76271,-29.37288,45.0],[-56.75356,-29.36741,45.0],[-56.71814,-29.35149,51.0889],[-56.7055,-29.34374,47.4267],[-56.68865,-29.32958,45.0],[-56.67703,-29.31335,45.0],[-56.66065,-29.27087,50.6881],[-56.65047,-29.25134,45.5],[-56.65729,-29.2379,45.5],[-56.6563,-29.22343,45.5],[-56.65067,-29.20907,45.5],[-56.64367,-29.19615,45.5],[-56.61729,-29.16091,53.9229],[-56.58422,-29.13228,49.6505],[-56.5483,-29.10995,52.2931],[-56.51332,-29.09373,46.0],[-56.44428,-29.07812,47.0],[-56.42797,-29.06985,48.0],[-56.41575,-29.05135,47.5],[-56.41193,-29.03182,50.0711],[-56.41092,-28.9913,59.5062],[-56.39162,-28.95224,52.2373],[-56.32307,-28.91648,54.8446],[-56.301,-28.88144,48.4358],[-56.29483,-28.79576,59.9744],[-56.28615,-28.78015,54.9089],[-56.26548,-28.77199,54.5335],[-56.21845,-28.76413,53.9703],[-56.18471,-28.74419,54.8681],[-56.103,-28.64807,56.5489],[-56.04081,-28.609,57.3843],[-56.0219,-28.58575,68.7899],[-56.0205,-28.54627,54.4569],[-56.02296,-28.52828,61.2308],[-56.02143,-28.5104,65.2898],[-56.01159,-28.49655,56.9351],[-55.97914,-28.48922,57.9819],[-55.95159,-28.47671,56.4997],[-55.91909,-28.4734,58.479],[-55.91067,-28.47051,58.4852],[-55.90204,-28.46513,77.27],[-55.89806,-28.46069,87.6068],[-55.89692,-28.45346,64.491],[-55.89666,-28.40684,65.5347],[-55.90038,-28.39847,53.0],[-55.9056,-28.37801,69.9792],[-55.88736,-28.36333,67.9299],[-55.84235,-28.34638,59.0969],[-55.81253,-28.3532,62.4913],[-55.77119,-28.35754,59.8093],[-55.7346,-28.36592,60.8898],[-55.71884,-28.38452,78.3315],[-55.71497,-28.40447,81.4162],[-55.70569,-28.40767,101.1037],[-55.69424,-28.40013,65.629],[-55.68406,-28.38803,63.5383],[-55.67737,-28.37387,63.9632],[-55.6636,-28.32654,78.3154],[-55.67722,-28.30184,94.8508],[-55.68722,-28.29006,104.0759],[-55.70145,-28.28499,97.7137],[-55.71471,-28.28189,87.287],[-55.7546,-28.26566,85.9376],[-55.76659,-28.2576,75.2101],[-55.77253,-28.23197,70.7586],[-55.74794,-28.21574,73.0464],[-55.68406,-28.19621,81.2045],[-55.642,-28.16035,79.297],[-55.63254,-28.15466,67.9502],[-55.62384,-28.14619,61.0],[-55.62304,-28.14435,61.0],[-55.62352,-28.14386,61.0],[-55.62634,-28.14102,61.0],[-55.70587,-28.09126,74.2789],[-55.73695,-28.06599,80.222],[-55.75016,-28.05116,86.7431],[-55.75793,-28.03989,100.8037],[-55.76383,-28.02883,113.2459],[-55.76636,-28.0185,108.8094],[-55.7683,-28.0001,117.9655],[-55.7683,-27.99943,117.9924],[-55.77308,-27.98754,92.453],[-55.78204,-27.97194,124.2525],[-55.79243,-27.95964,125.6776],[-55.82343,-27.9307,127.5616],[-55.83266,-27.9184,113.5996],[-55.83863,-27.90662,125.6718],[-55.84356,-27.85907,163.0162],[-55.85116,-27.7858,173.1141],[-55.8586,-27.75329,189.2663],[-55.87328,-27.71578,142.9588],[-56.01732,-27.45155,148.0511],[-56.01906,-27.44132,121.0109],[-56.01887,-27.41812,105.7057],[-56.01735,-27.40541,126.1315],[-56.01448,-27.39378,118.1727],[-56.00056,-27.3604,85.6498],[-55.99831,-27.35709,82.2295],[-55.99298,-27.35125,80.0],[-55.9666,-27.3327,80.0],[-55.96609,-27.33172,80.0],[-55.98485,-27.33228,80.0],[-56.00689,-27.32825,80.0],[-56.00689,-27.32825,80.0],[-56.07376,-27.3049,80.0],[-56.07425,-27.30481,80.0],[-56.09895,-27.30055,80.0],[-56.12455,-27.2989,80.0],[-56.14998,-27.31182,80.0],[-56.16889,-27.32474,80.0],[-56.20543,-27.36215,80.0],[-56.22801,-27.37125,80.0],[-56.25677,-27.37828,80.0],[-56.27984,-27.38964,80.0],[-56.28532,-27.41135,80.0],[-56.28147,-27.43863,80.0],[-56.28532,-27.46096,80.0],[-56.297,-27.48091,80.0],[-56.31648,-27.50044,80.0],[-56.33599,-27.52566,80.0],[-56.34966,-27.55635,80.0],[-56.36754,-27.58064,80.0],[-56.39973,-27.58684,80.0],[-56.4003,-27.58664,80.0],[-56.43136,-27.57537,80.0],[-56.46148,-27.55387,80.0],[-56.48732,-27.52721,80.0],[-56.50621,-27.50013,80.0],[-56.54644,-27.45507,80.0],[-56.54693,-27.455,80.0],[-56.613,-27.44639,80.0],[-56.63802,-27.45291,80.0],[-56.68312,-27.46468,80.0],[-56.73423,-27.50044,55.0],[-56.77116,-27.50674,68.7527],[-56.77151,-27.50655,68.7527],[-56.80746,-27.4868,60.5419],[-56.86926,-27.4315,60.5016],[-56.90435,-27.41869,55.0],[-56.90445,-27.4187,55.0],[-56.94099,-27.4221,54.125],[-56.97732,-27.43533,53.5],[-57.07623,-27.48401,53.5],[-57.10899,-27.49062,53.5],[-57.14816,-27.48897,57.7981],[-57.15669,-27.48773,59.4566],[-57.1801,-27.48731,57.0879],[-57.18045,-27.48721,57.0879],[-57.19121,-27.48421,61.9522],[-57.20041,-27.47894,57.4666],[-57.22707,-27.45868,54.7704],[-57.2371,-27.45424,54.5193],[-57.23759,-27.45412,53.5],[-57.28303,-27.44301,55.5586],[-57.29249,-27.4407,53.5],[-57.30298,-27.43553,53.5],[-57.31012,-27.42921,53.5],[-57.32629,-27.41486,53.5],[-57.33523,-27.40949,53.5],[-57.35647,-27.40434,52.0],[-57.3604,-27.40339,52.0],[-57.3867,-27.40349,59.1614],[-57.48767,-27.41641,56.1748],[-57.51336,-27.41414,54.9244],[-57.51994,-27.4121,54.7477],[-57.53568,-27.40721,54.5816],[-57.69779,-27.33352,49.5],[-57.69818,-27.3334,49.5],[-57.70937,-27.3298,49.5],[-57.81158,-27.31068,51.1714],[-57.81191,-27.31058,51.1714],[-57.85478,-27.29756,49.0],[-57.85509,-27.2975,49.0],[-57.8995,-27.28896,52.3568],[-57.91339,-27.28629,52.5269],[-57.94403,-27.27461,52.8804],[-57.94436,-27.27455,55.3193],[-58.00366,-27.2633,49.0],[-58.02196,-27.25983,48.0],[-58.02205,-27.25983,48.0],[-58.05353,-27.25901,47.5],[-58.11399,-27.26893,46.75],[-58.12882,-27.26965,46.25]]]}}