{"type": "Feature","bbox": [-59.6889,-30.7554,-55.6163,-27.2477],"geometry": {"type": "MultiPolygon","coordinates": [[[[-57.6451,-30.1935,36.0],[-57.6449,-30.1853,36.0],[-57.6415,-30.1801,36.0],[-57.6342,-30.1766,36.0],[-57.618,-30.1792,36.5],[-57.6091,-30.179,36.5],[-57.5779,-30.1736,36.5],[-57.5597,-30.1683,37.0],[-57.5048,-30.1431,37.5],[-57.4667,-30.1158,38.0],[-57.4577,-30.1067,38.0],[-57.4424,-30.0739,38.5],[-57.412,-30.0407,40.5802],[-57.4007,-30.0319,42.6884],[-57.3815,-30.0206,39.5],[-57.3585,-30.0125,39.5],[-57.3467,-30.006,40.0],[-57.342,-30.0012,40.0],[-57.3286,-29.9818,40.0],[-57.3212,-29.9561,40.5],[-57.3193,-29.9165,44.7287],[-57.322,-29.8861,47.1419],[-57.3183,-29.8676,41.0],[-57.3065,-29.8489,41.0],[-57.2828,-29.8199,41.0],[-57.2529,-29.7915,41.5],[-57.236,-29.7784,41.5],[-57.2179,-29.773,41.5],[-57.164,-29.7752,41.5],[-57.1364,-29.7658,42.0],[-57.1045,-29.749,42.0],[-57.0556,-29.7041,42.0],[-57.0432,-29.6902,42.0],[-57.0194,-29.657,45.1661],[-56.9889,-29.6401,47.6339],[-56.9788,-29.6365,47.8872],[-56.9726,-29.6359,51.7073],[-56.9709,-29.6374,55.7844],[-56.967,-29.6237,45.5162],[-56.9705,-29.6059,42.0],[-56.9594,-29.5919,42.0],[-56.9003,-29.5378,43.0],[-56.8891,-29.5185,43.25],[-56.8817,-29.512,46.6921],[-56.8738,-29.5086,43.5],[-56.8664,-29.5076,43.5],[-56.8556,-29.5003,46.3508],[-56.8554,-29.5027,43.5],[-56.8287,-29.489,44.0],[-56.816,-29.4766,44.0],[-56.8086,-29.4617,49.1678],[-56.7998,-29.4488,44.5],[-56.7836,-29.4355,44.5],[-56.7808,-29.4202,45.0],[-56.7787,-29.4197,45.0],[-56.7796,-29.402,45.0],[-56.7755,-29.3928,45.0],[-56.7652,-29.3803,45.0],[-56.7516,-29.3738,45.0],[-56.7302,-29.3709,45.0],[-56.7199,-29.3679,45.0],[-56.7084,-29.3619,45.0],[-56.6757,-29.3212,45.0],[-56.6561,-29.2806,45.5],[-56.6562,-29.2706,45.5],[-56.6519,-29.248,45.5],[-56.6497,-29.2192,45.5],[-56.6456,-29.2079,45.5],[-56.6277,-29.175,45.5],[-56.6132,-29.1579,47.4344],[-56.5973,-29.1267,45.5],[-56.5966,-29.1276,45.5],[-56.5931,-29.123,45.5],[-56.5863,-29.1199,45.5],[-56.5761,-29.1169,45.5],[-56.5395,-29.1098,46.0],[-56.5125,-29.0963,52.4035],[-56.4963,-29.0901,46.5],[-56.4521,-29.0854,47.0],[-56.4348,-29.08,47.0],[-56.4248,-29.0729,53.2908],[-56.4173,-29.0627,47.0],[-56.4147,-29.0527,47.5],[-56.4054,-29.0358,47.5],[-56.4015,-29.0207,47.5],[-56.4028,-29.0142,48.0],[-56.4124,-28.9985,56.4582],[-56.4102,-28.9766,48.0],[-56.3907,-28.9566,48.0],[-56.3803,-28.9499,48.0],[-56.3374,-28.9335,48.0],[-56.3238,-28.9244,48.0],[-56.3225,-28.9252,48.0],[-56.314,-28.916,48.0],[-56.3058,-28.8983,49.7611],[-56.3011,-28.8769,48.0],[-56.3006,-28.8572,48.0],[-56.3039,-28.83,58.3318],[-56.3028,-28.8239,48.0],[-56.2974,-28.8085,48.0],[-56.2843,-28.791,48.0],[-56.2669,-28.7818,48.0],[-56.2481,-28.7764,48.5],[-56.2268,-28.7732,54.2815],[-56.1917,-28.7727,48.5],[-56.1842,-28.7679,49.6783],[-56.172,-28.7555,49.0],[-56.1622,-28.7348,50.538],[-56.1394,-28.7007,55.5489],[-56.0597,-28.6327,50.5],[-56.0454,-28.623,51.0],[-56.0285,-28.6162,51.0],[-56.0154,-28.6078,63.3378],[-56.0122,-28.6042,56.8167],[-56.0066,-28.5908,61.9702],[-56.0079,-28.5782,63.7633],[-56.0238,-28.539,51.5],[-56.0236,-28.5329,51.5],[-56.0216,-28.5224,51.5],[-56.0184,-28.5167,51.5],[-56.0107,-28.5091,51.5],[-55.999,-28.5031,51.5],[-55.9641,-28.4959,52.0],[-55.9451,-28.4938,52.0],[-55.9331,-28.4908,52.0],[-55.9135,-28.483,52.0],[-55.8935,-28.4813,53.0],[-55.888,-28.4792,57.7413],[-55.8839,-28.4686,66.312],[-55.8844,-28.4625,53.0],[-55.8899,-28.4399,53.0],[-55.9011,-28.4066,53.0],[-55.9004,-28.4005,53.0],[-55.885,-28.3729,53.0],[-55.874,-28.3594,53.0],[-55.8677,-28.3538,57.6786],[-55.8588,-28.3528,59.8267],[-55.8477,-28.3538,53.0],[-55.8063,-28.3627,75.0818],[-55.7696,-28.367,55.0],[-55.7484,-28.3728,55.5],[-55.7327,-28.3811,67.1462],[-55.729,-28.3857,55.5],[-55.7229,-28.4028,56.0],[-55.7113,-28.4205,71.9462],[-55.7038,-28.4248,56.5],[-55.6988,-28.4243,56.5],[-55.6949,-28.4224,56.5],[-55.6898,-28.4154,56.5],[-55.6829,-28.386,64.3638],[-55.6706,-28.3557,65.9102],[-55.6683,-28.3371,57.5],[-55.6699,-28.3303,57.5],[-55.676,-28.3209,61.4341],[-55.6886,-28.3117,61.6946],[-55.7461,-28.2833,59.0],[-55.7567,-28.2746,72.1211],[-55.7651,-28.2718,71.73],[-55.7731,-28.2614,68.9268],[-55.7748,-28.2478,59.5],[-55.7724,-28.2441,59.5],[-55.7562,-28.2331,60.0],[-55.7101,-28.2215,72.4146],[-55.6926,-28.2153,60.5],[-55.6632,-28.1908,61.0],[-55.635,-28.1768,61.0],[-55.619,-28.159,61.0],[-55.617,-28.1489,64.094],[-55.6194,-28.1413,65.8652],[-55.6163,-28.1322,64.5505],[-55.6271,-28.1264,74.0036],[-55.6332,-28.1255,76.4038],[-55.643,-28.1157,88.9993],[-55.6619,-28.1031,84.3722],[-55.6665,-28.0962,86.455],[-55.6723,-28.0974,82.3009],[-55.6773,-28.0882,70.1391],[-55.689,-28.0802,91.3013],[-55.6981,-28.0808,95.9989],[-55.7085,-28.0756,109.1901],[-55.712,-28.0683,84.8031],[-55.7122,-28.0576,77.2917],[-55.7135,-28.0556,84.3276],[-55.7191,-28.0533,87.1244],[-55.7338,-28.0512,98.6428],[-55.739,-28.0486,100.845],[-55.743899999999996,-28.0419,97.1336],[-55.7431,-28.0366,90.5755],[-55.7377,-28.0272,114.8215],[-55.7397,-28.0168,110.0204],[-55.7512,-28.0047,128.0994],[-55.7739,-27.9939,95.5273],[-55.7841,-27.9915,90.0523],[-55.7936,-27.9847,98.7483],[-55.8054,-27.9723,92.2459],[-55.8101,-27.9596,96.3019],[-55.8228,-27.9442,101.5211],[-55.8233,-27.9391,114.2339],[-55.8188,-27.9287,115.8439],[-55.8185,-27.9236,104.0782],[-55.8224,-27.9103,100.8464],[-55.8333,-27.8972,105.8717],[-55.8358,-27.8895,105.0467],[-55.8356,-27.8732,119.8435],[-55.8321,-27.8573,137.5303],[-55.8447,-27.8387,127.3151],[-55.846,-27.8334,128.5706],[-55.8448,-27.8281,135.9829],[-55.8404,-27.821,165.3215],[-55.833,-27.8124,157.4496],[-55.8313,-27.8044,192.3266],[-55.8504,-27.7616,197.1899],[-55.8658,-27.7364,174.4942],[-55.8946,-27.6972,116.9535],[-55.9339,-27.6174,158.87],[-55.9564,-27.5787,176.6596],[-55.9749,-27.5595,167.6711],[-55.9857,-27.5422,159.1564],[-55.9869,-27.5378,140.9738],[-56.0003,-27.5269,124.2332],[-56.0153,-27.5178,130.4639],[-56.0215,-27.5086,114.427],[-56.0283,-27.5033,110.3113],[-56.0423,-27.4705,113.7219],[-56.0579,-27.4578,107.5955],[-56.0596,-27.4282,107.8742],[-56.0585,-27.4257,98.2127],[-56.0511,-27.421,88.7447],[-56.0453,-27.4147,86.2564],[-56.0421,-27.3988,80.0],[-56.0345,-27.3871,80.0],[-56.034,-27.3735,80.0],[-56.0374,-27.3691,80.0],[-56.0395,-27.3534,80.0],[-56.0285,-27.3445,80.0],[-56.0284,-27.3205,80.0],[-56.0413,-27.3122,80.0],[-56.0596,-27.3044,80.0],[-56.1021,-27.3041,80.0],[-56.1435,-27.3125,80.0],[-56.17,-27.3286,80.0],[-56.2173,-27.3768,80.0],[-56.2285,-27.3844,80.0],[-56.2375,-27.3884,80.0],[-56.267,-27.3982,80.0],[-56.2827,-27.4085,80.0],[-56.2866,-27.4161,80.0],[-56.2885,-27.431,80.0],[-56.283,-27.4507,80.0],[-56.2841,-27.4721,80.0],[-56.2896,-27.488,80.0],[-56.3181,-27.5143,80.0],[-56.3399,-27.5298,80.0],[-56.3515,-27.5439,80.0],[-56.3574,-27.558,80.0],[-56.3556,-27.5696,80.0],[-56.3577,-27.5845,80.0],[-56.3641,-27.5958,80.0],[-56.3832,-27.6044,80.0],[-56.3921,-27.6057,80.0],[-56.4248,-27.6035,80.0],[-56.4336,-27.5984,80.0],[-56.445,-27.5858,91.5016],[-56.4527,-27.5808,80.0],[-56.4582,-27.5789,80.0],[-56.4712,-27.5822,80.0],[-56.4822,-27.5784,80.0],[-56.4873,-27.5728,80.0],[-56.4929,-27.5626,80.0],[-56.5037,-27.5382,80.0],[-56.5087,-27.5211,80.0],[-56.519,-27.5031,80.0],[-56.548,-27.4694,80.0],[-56.5574,-27.461,80.0],[-56.5714,-27.4528,80.0],[-56.5929,-27.446,80.0],[-56.5981,-27.4451,80.0],[-56.6075,-27.4464,80.0],[-56.6545,-27.4588,80.0],[-56.6676,-27.4604,80.0],[-56.6875,-27.4572,80.0],[-56.7033,-27.4591,80.0],[-56.7077,-27.4616,80.0],[-56.7161,-27.47,80.0],[-56.7188,-27.4754,80.0],[-56.7211,-27.4896,55.0],[-56.7179,-27.5151,55.0],[-56.7196,-27.5222,55.0],[-56.7373,-27.5595,56.9355],[-56.7484,-27.5683,57.0375],[-56.7925,-27.5812,54.5],[-56.8063,-27.5896,54.5],[-56.8333,-27.6011,54.5],[-56.85,-27.6042,54.5],[-56.8685,-27.5996,64.5532],[-56.8899,-27.5918,54.0],[-56.9138,-27.5744,54.0],[-56.9394,-27.5451,60.8625],[-56.9562,-27.5301,53.5],[-56.9848,-27.5158,55.2357],[-57.0,-27.5106,53.5],[-57.0,-27.4648,53.5],[-57.0159,-27.4729,53.5],[-57.0336,-27.4787,53.5],[-57.0759,-27.4871,53.5],[-57.1222,-27.4795,53.5],[-57.1621,-27.4671,53.5],[-57.1774,-27.4593,53.5],[-57.1956,-27.4525,53.5],[-57.2503,-27.4374,55.4252],[-57.2883,-27.4216,53.5],[-57.3081,-27.4163,53.5],[-57.3258,-27.4141,53.5],[-57.3866,-27.4167,50.0],[-57.4534,-27.4294,53.7751],[-57.4927,-27.4405,50.0],[-57.5109,-27.439,50.0],[-57.5456,-27.4303,50.0],[-57.5554,-27.4252,50.0],[-57.569,-27.4109,50.0],[-57.5812,-27.4036,50.0],[-57.5999,-27.3956,50.0],[-57.6425,-27.3689,49.5],[-57.6514,-27.3656,49.5],[-57.7025,-27.3336,49.5],[-57.7157,-27.3275,49.5],[-57.7253,-27.3249,49.5],[-57.7336,-27.325,49.5],[-57.7669,-27.3328,49.0],[-57.7792,-27.3337,49.0],[-57.8014,-27.3319,49.0],[-57.8098,-27.3283,49.0],[-57.8521,-27.2964,49.0],[-57.8737,-27.2897,49.0],[-57.9087,-27.2892,52.1914],[-57.9435,-27.2828,49.0],[-57.9864,-27.2684,49.0],[-58.0069,-27.2637,48.5],[-58.0712,-27.2682,47.0],[-58.0973,-27.2726,47.0],[-58.1224,-27.269,46.5],[-58.1514,-27.2689,46.0],[-58.1605,-27.2665,46.0],[-58.1881,-27.2498,46.0],[-58.2046,-27.2477,46.0],[-58.2434,-27.2491,46.0],[-58.2817,-27.2544,46.0],[-58.3117,-27.2608,46.0],[-58.34,-27.2706,50.5286],[-58.3764,-27.279,46.0],[-58.3911,-27.2793,46.0],[-58.4178,-27.2731,46.0],[-58.4333,-27.2728,46.0],[-58.4515,-27.2787,46.0],[-58.4618,-27.2786,46.0],[-58.475,-27.2754,46.0],[-58.4856,-27.2748,46.0],[-58.5055,-27.2788,46.0],[-58.5266,-27.2908,46.0],[-58.54,-27.2956,45.0],[-58.5788,-27.3008,45.0],[-58.5965,-27.3012,45.0],[-58.602,-27.2993,45.0],[-58.6064,-27.2953,45.0],[-58.6174,-27.3176,45.0],[-58.6203,-27.3282,44.5],[-58.6312,-27.3409,44.5],[-58.6359,-27.3444,44.5],[-58.6465,-27.3495,44.5],[-58.6683,-27.3564,44.5],[-58.6905,-27.3593,46.3219],[-58.7192,-27.3682,44.5],[-58.7388,-27.3809,44.0],[-58.7507,-27.3826,44.0],[-58.7626,-27.3804,47.4954],[-58.7686,-27.3812,48.3992],[-58.7821,-27.3921,46.108],[-58.8023,-27.4122,43.5],[-58.8159,-27.4334,47.4034],[-58.8359,-27.4536,43.5],[-58.8561,-27.4658,43.0],[-58.8725,-27.4727,43.0],[-58.8872,-27.4822,43.6861],[-58.889,-27.4873,47.6092],[-58.8882,-27.5036,48.4189],[-58.8802,-27.5182,43.0],[-58.8733,-27.5271,44.9147],[-58.8688,-27.5484,45.3365],[-58.87,-27.5536,46.5078],[-58.8778,-27.5683,47.5918],[-58.8796,-27.6008,43.0],[-58.8777,-27.6058,43.0],[-58.8625,-27.6229,49.3623],[-58.8532,-27.6297,44.3418],[-58.8392,-27.6538,42.5],[-58.825,-27.6714,42.5],[-58.8175,-27.7414,42.0],[-58.8114,-27.7735,42.0],[-58.8127,-27.7951,42.0],[-58.8161,-27.8055,42.0],[-58.8236,-27.8202,42.0],[-58.825,-27.8472,41.5],[-58.8305,-27.8569,41.5],[-58.8431,-27.8687,41.5],[-58.8509,-27.8834,41.5],[-58.8543,-27.8993,46.782],[-58.8541,-27.9156,41.0],[-58.856,-27.9253,41.0],[-58.8746,-27.9664,42.8393],[-58.8777,-27.9768,40.5],[-58.8814,-27.9837,40.5],[-58.8918,-27.9955,44.1325],[-58.893,-27.9993,45.104],[-58.8808,-28.0073,44.7634],[-58.8774,-28.0202,40.0],[-58.8708,-28.0326,42.6572],[-58.8796,-28.0423,42.9664],[-58.8906,-28.0698,40.0],[-58.904,-28.0906,39.5],[-58.9132,-28.1011,39.5],[-58.9264,-28.112,38.875],[-58.9484,-28.1204,38.0],[-58.9574,-28.1211,42.2201],[-58.9721,-28.1187,44.127],[-58.9842,-28.1194,47.0692],[-59.0096,-28.1273,38.0],[-59.0326,-28.1223,44.7285],[-59.0446,-28.1225,42.8938],[-59.0533,-28.1245,42.5582],[-59.0601,-28.1299,38.0],[-59.0671,-28.1414,38.0],[-59.0669,-28.1706,39.5],[-59.0685,-28.1757,40.6628],[-59.0721,-28.18,38.8886],[-59.0817,-28.1863,42.7519],[-59.0915,-28.1965,37.5],[-59.0972,-28.2115,37.5],[-59.1017,-28.2378,42.4197],[-59.095,-28.2771,40.1444],[-59.0948,-28.2958,36.5],[-59.098,-28.3142,36.5],[-59.1002,-28.3434,36.125],[-59.0945,-28.3556,44.0951],[-59.0834,-28.3681,39.9241],[-59.0811,-28.373,36.7643],[-59.0752,-28.3991,36.0],[-59.0745,-28.4125,39.076],[-59.0748,-28.4177,38.2593],[-59.0807,-28.4269,35.0],[-59.0803,-28.4375,38.621],[-59.0722,-28.4574,34.5],[-59.0593,-28.4754,37.8894],[-59.0569,-28.483,39.3231],[-59.0602,-28.4954,34.0],[-59.0849,-28.5356,34.0],[-59.0921,-28.5531,39.2658],[-59.1002,-28.5815,34.0],[-59.1081,-28.5958,34.0],[-59.1095,-28.6064,34.0],[-59.1082,-28.6143,34.0],[-59.1039,-28.6213,34.0],[-59.08,-28.6373,37.1452],[-59.0771,-28.6447,38.484],[-59.0811,-28.6576,34.0],[-59.0879,-28.6624,34.0],[-59.0974,-28.6727,40.1495],[-59.1034,-28.7015,34.0],[-59.1101,-28.7064,38.8348],[-59.1213,-28.7189,39.9359],[-59.1227,-28.7295,34.0],[-59.1286,-28.7446,34.0],[-59.14,-28.7603,33.5],[-59.1546,-28.7695,33.5],[-59.1612,-28.7783,43.3421],[-59.1588,-28.802,36.9505],[-59.1601,-28.8126,39.337],[-59.1657,-28.8332,35.7065],[-59.162,-28.8516,32.0],[-59.164,-28.8728,31.5],[-59.1861,-28.9392,37.1441],[-59.1894,-28.9603,34.7556],[-59.192,-28.9948,29.5],[-59.1975,-29.0182,29.5],[-59.2075,-29.0489,29.5],[-59.2134,-29.0611,31.4971],[-59.2205,-29.0698,37.2608],[-59.2296,-29.0768,35.7256],[-59.2481,-29.0857,29.5],[-59.2773,-29.0912,29.5],[-59.3136,-29.0922,35.2792],[-59.3221,-29.0949,35.6417],[-59.3293,-29.0999,34.2312],[-59.3324,-29.1044,36.2421],[-59.3353,-29.1228,30.0093],[-59.3395,-29.1328,35.5266],[-59.3547,-29.1457,29.0],[-59.3696,-29.1657,29.0],[-59.3713,-29.1788,34.2025],[-59.3778,-29.1909,30.1435],[-59.3991,-29.2099,33.816],[-59.44,-29.2192,28.9031],[-59.4793,-29.2195,32.9937],[-59.488,-29.2218,27.5],[-59.4929,-29.2251,28.4275],[-59.5025,-29.2416,27.0],[-59.5089,-29.2838,28.3472],[-59.5254,-29.3181,33.7697],[-59.5355,-29.3314,33.2259],[-59.5462,-29.3408,30.445],[-59.5688,-29.3543,31.7034],[-59.5901,-29.3644,32.6264],[-59.5971,-29.3763,26.5],[-59.6091,-29.4037,26.5],[-59.6091,-29.4089,26.5],[-59.6063,-29.4166,26.5],[-59.5951,-29.4412,26.5],[-59.6059,-29.4881,26.5],[-59.6084,-29.5066,30.5835],[-59.6086,-29.5465,29.6896],[-59.606,-29.5703,25.5],[-59.6086,-29.578,25.5],[-59.6147,-29.5873,30.9029],[-59.6158,-29.5925,29.2024],[-59.6154,-29.5978,27.5908],[-59.6089,-29.6127,25.5],[-59.603,-29.6469,26.5],[-59.6054,-29.6545,26.1971],[-59.6101,-29.6614,29.2778],[-59.6264,-29.6772,28.3261],[-59.6345,-29.6885,25.5],[-59.6373,-29.6988,30.6483],[-59.6363,-29.7067,28.5508],[-59.6293,-29.7243,25.0],[-59.6272,-29.7348,25.0],[-59.6181,-29.7518,24.5],[-59.6182,-29.7543,24.5],[-59.6248,-29.7664,24.5],[-59.6333,-29.7774,24.5],[-59.6723,-29.811,28.3342],[-59.6785,-29.8201,28.3636],[-59.6801,-29.8307,29.9626],[-59.6721,-29.8507,22.5],[-59.6296,-29.8766,22.5],[-59.6239,-29.8828,22.5],[-59.6157,-29.9029,27.681],[-59.6134,-29.916,23.7418],[-59.5996,-29.9623,22.0],[-59.5938,-29.9746,22.0],[-59.593,-29.9852,22.0],[-59.5883,-30.0,22.0],[-59.5861,-30.0021,22.0],[-59.5661,-30.0051,22.0],[-59.5637,-30.0153,22.0],[-59.563,-30.0284,22.0],[-59.5657,-30.0357,22.0],[-59.5716,-30.0418,22.0],[-59.5915,-30.0469,24.5871],[-59.5995,-30.061,23.0087],[-59.6,-30.066,22.0],[-59.5942,-30.0837,24.0329],[-59.5927,-30.0967,26.0418],[-59.6011,-30.1162,21.5],[-59.6194,-30.1432,22.4649],[-59.624,-30.161,25.4022],[-59.6249,-30.1688,21.5],[-59.623,-30.1949,23.0498],[-59.6182,-30.2098,23.7605],[-59.6224,-30.228,24.534],[-59.6296,-30.2359,26.3312],[-59.648,-30.2451,21.9373],[-59.6808,-30.268,26.9368],[-59.6866,-30.274,22.8135],[-59.6889,-30.2789,23.1171],[-59.6889,-30.2841,23.4358],[-59.6867,-30.2889,23.2923],[-59.6722,-30.3057,21.0],[-59.6583,-30.316,22.0],[-59.6552,-30.3202,23.1781],[-59.655,-30.3253,23.3724],[-59.6608,-30.3486,21.0],[-59.6388,-30.3554,25.2099],[-59.6316,-30.3604,23.9831],[-59.628,-30.3673,24.0286],[-59.6277,-30.3857,21.871],[-59.6202,-30.4,24.0868],[-59.614,-30.4177,21.7643],[-59.608,-30.4231,22.7955],[-59.5959,-30.4256,21.235],[-59.5884,-30.4217,21.6097],[-59.5819,-30.4127,21.0],[-59.5696,-30.3749,21.7079],[-59.5693,-30.3619,22.9777],[-59.5669,-30.3514,22.8727],[-59.5642,-30.3472,22.7607],[-59.5607,-30.3472,22.6618],[-59.5595,-30.337,23.2305],[-59.5545,-30.3341,24.2666],[-59.5483,-30.333,23.0259],[-59.5459,-30.3378,23.2901],[-59.5436,-30.338,24.4673],[-59.5378,-30.3355,23.4459],[-59.5319,-30.3353,30.0354],[-59.5119,-30.3411,23.7038],[-59.4758,-30.3385,24.1076],[-59.4685,-30.3344,24.9106],[-59.4601,-30.3338,25.2494],[-59.4579,-30.3283,25.0815],[-59.456,-30.3273,27.1252],[-59.45,-30.3293,24.7384],[-59.4444,-30.3273,24.7996],[-59.4385,-30.328,24.2899],[-59.434,-30.3245,23.6402],[-59.428,-30.3244,25.2071],[-59.4171,-30.3198,26.656],[-59.4064,-30.3236,25.8554],[-59.3977,-30.3207,26.1766],[-59.3782,-30.3271,27.8146],[-59.3515,-30.3288,29.099],[-59.3278,-30.3487,28.9429],[-59.3096,-30.3477,33.3541],[-59.2975,-30.3552,31.1013],[-59.2919,-30.357,34.931399999999996],[-59.2768,-30.3578,33.3174],[-59.2652,-30.3546,44.3051],[-59.2487,-30.3607,34.3184],[-59.2394,-30.3609,33.4134],[-59.235,-30.3581,34.7276],[-59.2281,-30.3491,35.764],[-59.2123,-30.3415,34.799],[-59.2043,-30.3304,39.482],[-59.1836,-30.3285,35.2055],[-59.1709,-30.3213,35.5644],[-59.1493,-30.3122,36.7628],[-59.1219,-30.2956,39.6852],[-59.1187,-30.2918,39.839],[-59.1224,-30.2786,39.4345],[-59.1218,-30.2764,39.2318],[-59.1125,-30.2695,40.2466],[-59.1065,-30.2605,41.0202],[-59.0914,-30.26,38.9952],[-59.081,-30.2548,40.0743],[-59.0775,-30.2505,40.3089],[-59.076,-30.2402,45.0223],[-59.0702,-30.2341,46.2823],[-59.0644,-30.2343,41.4125],[-59.053,-30.238,44.7449],[-59.041,-30.2369,42.3881],[-59.029,-30.2293,43.2564],[-59.0206,-30.2188,43.6072],[-58.9906,-30.2163,45.3597],[-58.9818,-30.2141,44.905],[-58.9709,-30.2173,45.6713],[-58.9651,-30.2158,45.2328],[-58.9558,-30.2225,45.8837],[-58.9319,-30.2336,44.9074],[-58.9177,-30.2367,46.8109],[-58.9137,-30.241,46.8872],[-58.8808,-30.2399,48.5218],[-58.8728,-30.2325,48.8164],[-58.864,-30.2336,48.7106],[-58.8568,-30.2299,49.3916],[-58.854,-30.2312,49.4271],[-58.8492,-30.2286,49.5829],[-58.8371,-30.2299,49.6938],[-58.8315,-30.2286,50.2684],[-58.8237,-30.2249,50.0903],[-58.8212,-30.2205,50.8886],[-58.8152,-30.2197,50.342],[-58.8084,-30.2109,51.1659],[-58.797,-30.2136,50.9102],[-58.7858,-30.2109,51.4227],[-58.7813,-30.2142,51.338],[-58.7733,-30.2101,51.467],[-58.7663,-30.2145,51.5557],[-58.7602,-30.2138,52.0662],[-58.7381,-30.1963,52.476],[-58.7209,-30.1857,53.2459],[-58.7093,-30.1834,52.7369],[-58.6994,-30.1775,53.5778],[-58.6853,-30.1724,53.9948],[-58.6854,-30.1674,54.1154],[-58.6815,-30.1645,55.7462],[-58.6724,-30.1632,54.8022],[-58.667,-30.1655,57.4691],[-58.6493,-30.1632,55.9439],[-58.6308,-30.1801,55.392],[-58.6133,-30.1763,56.1299],[-58.5859,-30.1648,56.8856],[-58.5807,-30.1658,58.1457],[-58.5681,-30.1807,62.3878],[-58.5574,-30.1899,61.7751],[-58.5485,-30.1907,60.9071],[-58.5412,-30.1953,61.25],[-58.5294,-30.1937,59.6574],[-58.5111,-30.2009,60.0996],[-58.4956,-30.2128,65.3925],[-58.4869,-30.2158,62.2869],[-58.4813,-30.2155,63.3351],[-58.4726,-30.2081,62.0647],[-58.4636,-30.2068,62.1393],[-58.4373,-30.2281,63.954],[-58.4149,-30.2356,64.5172],[-58.3824,-30.2493,70.0555],[-58.3602,-30.2626,69.7544],[-58.3244,-30.2673,67.4602],[-58.3027,-30.2533,70.7595],[-58.2894,-30.2471,70.898],[-58.2805,-30.2455,71.0532],[-58.2718,-30.2476,75.7214],[-58.2615,-30.2531,74.048],[-58.2577,-30.2631,70.2572],[-58.2518,-30.269,68.8647],[-58.2443,-30.2734,70.5424],[-58.2328,-30.2769,65.9144],[-58.222,-30.2859,66.1016],[-58.2035,-30.2944,60.1518],[-58.1975,-30.3036,59.8286],[-58.196,-30.3166,58.2721],[-58.1925,-30.3238,58.2204],[-58.1867,-30.3298,57.9815],[-58.1764,-30.3352,63.1682],[-58.1722,-30.3421,63.0456],[-58.1655,-30.3595,59.9886],[-58.1366,-30.3924,57.4679],[-58.1031,-30.4105,48.7891],[-58.0835,-30.4172,45.5908],[-58.0707,-30.4195,44.3432],[-58.0669,-30.4222,47.5153],[-58.0712,-30.4667,42.5022],[-58.0517,-30.5105,53.7931],[-58.0587,-30.5304,40.5229],[-58.0582,-30.5435,40.3319],[-58.0479,-30.5594,39.4741],[-58.0265,-30.5739,38.9844],[-58.0224,-30.5891,37.8807],[-58.0161,-30.598,37.5067],[-58.0034,-30.6092,37.1081],[-57.9823,-30.6195,53.6286],[-57.9632,-30.6362,43.9077],[-57.9445,-30.6448,42.0549],[-57.9053,-30.6585,33.5],[-57.8773,-30.6823,33.5],[-57.8571,-30.687,37.2765],[-57.8336,-30.7036,68.4356],[-57.8278,-30.7094,40.0193],[-57.8227,-30.719,33.5],[-57.8162,-30.7471,33.5],[-57.8079,-30.7554,33.5],[-57.8104,-30.7357,33.5],[-57.8038,-30.7092,33.5],[-57.8093,-30.6944,33.5],[-57.8164,-30.6821,33.5],[-57.831,-30.6711,33.5],[-57.8336,-30.6667,33.5],[-57.841,-30.6293,33.5],[-57.8471,-30.6126,33.5],[-57.8596,-30.6022,33.5],[-57.8781,-30.5924,33.5],[-57.8852,-30.5858,33.5],[-57.887,-30.5819,33.5],[-57.8885,-30.5742,33.5],[-57.8854,-30.5631,36.2178],[-57.8857,-30.5549,33.5],[-57.8865,-30.5458,33.5],[-57.8927,-30.5205,33.5],[-57.8922,-30.513,33.5],[-57.8856,-30.501,33.5],[-57.8592,-30.477,33.5],[-57.7988,-30.4505,33.5],[-57.7919,-30.4458,33.5],[-57.7726,-30.4236,34.0],[-57.7067,-30.3929,34.5],[-57.6689,-30.3671,34.5],[-57.6478,-30.349,35.0],[-57.6369,-30.332,35.0],[-57.6284,-30.2888,35.0],[-57.6182,-30.2635,35.5],[-57.6156,-30.2525,35.5],[-57.62,-30.2417,35.5],[-57.6414,-30.217,36.0],[-57.6473,-30.2076,37.6513],[-57.6492,-30.1989,36.0],[-57.6474,-30.1948,36.0],[-57.6451,-30.1935,36.0]]]]}
,"properties": {"GID_1": "ARG.7_1","GID_0": "ARG","country": "Argentina","state": "Corrientes","VARNAME_1": "NA","NL_NAME_1": "NA","TYPE_1": "Provincia","ENGTYPE_1": "Province","CC_1": "NA","HASC_1": "AR.CN","ISO_1": "AR-W","name": "Corrientes.state","area_km2": 89081.62,"hist_schema_id": "Elevation0-9000","hist_area_km2": {"25": 4932.08,"50": 26636.01,"75": 50694.49,"100": 4921.5,"125": 1205.74,"150": 481.4,"175": 180.3,"200": 29.87}}}