{"type": "Feature","bbox": [-66.0253,-24.1216,-65.2125,-23.413],"geometry": {"type": "MultiPolygon","coordinates": [[[[-65.2125,-23.8736,1763.6102],[-65.2299,-23.8385,2388.6501],[-65.2352,-23.8206,2621.8757],[-65.2456,-23.8197,2274.353],[-65.2593,-23.8159,2167.614],[-65.2948,-23.7937,2890.7427],[-65.3235,-23.7802,3285.7388],[-65.3311,-23.7734,3609.9939],[-65.3438,-23.7573,3905.6833],[-65.3362,-23.687,4485.4072],[-65.3732,-23.6838,3841.8291],[-65.4064,-23.7126,3736.3796],[-65.4901,-23.6848,3270.6577],[-65.506,-23.6425,3544.6309],[-65.5196,-23.6121,3317.4856],[-65.5612,-23.5429,4512.6084],[-65.5454,-23.473,4685.0996],[-65.5708,-23.4656,4215.3755],[-65.6083,-23.4464,4022.0151],[-65.6312,-23.4307,3781.3293],[-65.6469,-23.4228,3722.0916],[-65.6634,-23.4167,3683.4551],[-65.6808,-23.413,3636.98],[-65.8374,-23.4382,3416.5483],[-65.8419,-23.4641,3410.4404],[-65.8398,-23.4805,3409.7859],[-65.8402,-23.497,3412.0461],[-65.8372,-23.5166,3413.9116],[-65.8431,-23.5285,3409.5576],[-65.8459,-23.538,3407.415],[-65.8489,-23.5677,3406.3174],[-65.8585,-23.5711,3405.8525],[-65.8672,-23.5816,3405.999],[-65.8761,-23.6066,3405.999],[-65.8848,-23.6247,3405.9568],[-65.8893,-23.6296,3406.0466],[-65.8959,-23.6321,3406.1235],[-65.91,-23.634,3409.4426],[-65.922,-23.6413,3409.2734],[-65.9302,-23.6476,3407.5847],[-65.9516,-23.6697,3406.0715],[-65.9581,-23.6723,3406.1804],[-65.9796,-23.6741,3406.7188],[-66.0013,-23.6895,3405.9233],[-66.0037,-23.7078,3406.1519],[-66.0072,-23.7787,3412.447],[-66.0085,-23.7855,3416.8286],[-66.0219,-23.8095,3444.1541],[-66.0253,-23.8199,3459.321],[-66.0242,-23.8297,3470.8665],[-66.0031,-23.8891,3708.0811],[-65.9972,-23.9101,3762.7725],[-65.9974,-23.9182,3783.1748],[-66.0004,-23.9245,3869.0352],[-65.999,-23.9526,4185.6177],[-65.9811,-23.9666,4334.6562],[-65.9789,-23.9769,4386.8965],[-65.9735,-23.9788,4552.7886],[-65.9616,-23.9787,4535.5791],[-65.9559,-23.9778,4621.6924],[-65.9454,-23.9726,4848.7422],[-65.9396,-23.9724,4940.1304],[-65.9259,-23.9824,4688.6406],[-65.9205,-23.9844,4413.0869],[-65.8961,-23.9859,4059.3696],[-65.8756,-23.9777,3834.0811],[-65.8403,-23.9927,3782.3279],[-65.8294,-23.9994,3971.8308],[-65.7698,-24.0743,5254.0596],[-65.7688,-24.0853,4741.7236],[-65.7723,-24.0958,4472.7788],[-65.7712,-24.1011,4286.0137],[-65.7665,-24.1044,4327.1548],[-65.7573,-24.1043,4573.7197],[-65.7518,-24.1064,4419.3594],[-65.7415,-24.1163,4405.8306],[-65.7384,-24.1216,4326.0459],[-65.7163,-24.0727,4752.1816],[-65.7016,-24.0514,4629.1953],[-65.6923,-24.0311,4422.6895],[-65.6857,-24.0232,4420.9727],[-65.6725,-23.9944,4054.1033],[-65.6632,-23.9845,3873.4084],[-65.6588,-23.9755,4201.4414],[-65.6375,-23.8984,3950.8879],[-65.581,-23.9231,4156.269],[-65.5601,-23.941,3831.0842],[-65.5476,-23.9609,3847.791],[-65.5349,-23.9672,3663.9238],[-65.4973,-23.9772,2692.2888],[-65.4809,-23.9838,2220.7273],[-65.4633,-23.995,2302.6411],[-65.4381,-24.0228,1668.0256],[-65.4318,-24.0257,1660.7952],[-65.4246,-24.0259,1956.9352],[-65.4001,-24.0206,1877.5819],[-65.3921,-24.0142,1889.5645],[-65.3916,-24.0077,1896.6681],[-65.3993,-23.9966,2014.1536],[-65.392,-23.9418,2193.1382],[-65.3894,-23.9348,2136.4629],[-65.3762,-23.9297,1948.9663],[-65.3443,-23.9254,1772.4398],[-65.33,-23.926,1704.9991],[-65.314,-23.9331,1899.1354],[-65.3033,-23.9327,2094.231],[-65.2719,-23.9172,1677.124],[-65.2476,-23.8977,1842.925],[-65.2263,-23.8857,1863.8745],[-65.2125,-23.8736,1763.6102]]]]}
,"properties": {"GID_2": "ARG.10.14_1","GID_0": "ARG","country": "Argentina","GID_1": "ARG.10_1","state": "Jujuy","NL_NAME_1": "NA","county": "Tumbaya","VARNAME_2": "NA","NL_NAME_2": "NA","TYPE_2": "Departamento","ENGTYPE_2": "Department","CC_2": "NA","HASC_2": "AR.JY.TU","name": "Tumbaya.county","area_km2": 3387.544,"hist_schema_id": "Elevation0-9000","hist_area_km2": {"1475": 0.078,"1500": 0.233,"1525": 0.194,"1550": 0.233,"1575": 0.446,"1600": 0.64,"1625": 0.678,"1650": 0.737,"1675": 1.57,"1700": 1.957,"1725": 2.151,"1750": 2.752,"1775": 3.295,"1800": 3.198,"1825": 3.818,"1850": 4.904,"1875": 4.613,"1900": 4.884,"1925": 5.602,"1950": 5.853,"1975": 7.152,"2000": 6.338,"2025": 7.54,"2050": 8.373,"2075": 16.921,"2100": 16.536,"2125": 14.055,"2150": 14.074,"2175": 14.231,"2200": 13.572,"2225": 15.143,"2250": 15.376,"2275": 16.713,"2300": 15.512,"2325": 16.966,"2350": 17.064,"2375": 17.161,"2400": 17.064,"2425": 16.231,"2450": 15.999,"2475": 16.193,"2500": 14.041,"2525": 13.536,"2550": 13.072,"2575": 12.024,"2600": 12.723,"2625": 12.102,"2650": 11.89,"2675": 11.638,"2700": 11.697,"2725": 10.455,"2750": 10.92,"2775": 10.92,"2800": 10.96,"2825": 11.464,"2850": 10.571,"2875": 10.319,"2900": 10.708,"2925": 10.398,"2950": 10.999,"2975": 10.029,"3000": 10.98,"3025": 11.116,"3050": 10.923,"3075": 11.854,"3100": 10.787,"3125": 11.428,"3150": 10.962,"3175": 11.874,"3200": 10.962,"3225": 11.447,"3250": 11.04,"3275": 11.079,"3300": 10.575,"3325": 10.595,"3350": 10.536,"3375": 10.303,"3400": 240.696,"3425": 180.105,"3450": 106.361,"3475": 85.635,"3500": 75.872,"3525": 69.539,"3550": 72.391,"3575": 70.978,"3600": 71.58,"3625": 65.534,"3650": 65.529,"3675": 64.746,"3700": 62.31,"3725": 58.067,"3750": 55.424,"3775": 52.825,"3800": 51.445,"3825": 49.407,"3850": 48.575,"3875": 49.586,"3900": 54.012,"3925": 55.023,"3950": 56.436,"3975": 55.927,"4000": 54.176,"4025": 53.771,"4050": 48.957,"4075": 47.133,"4100": 44.295,"4125": 41.035,"4150": 35.795,"4175": 35.445,"4200": 34.26,"4225": 31.486,"4250": 29.487,"4275": 28.245,"4300": 27.993,"4325": 26.208,"4350": 23.607,"4375": 22.617,"4400": 19.125,"4425": 17.943,"4450": 15.168,"4475": 14.584,"4500": 12.16,"4525": 11.635,"4550": 11.518,"4575": 11.827,"4600": 9.112,"4625": 8.276,"4650": 6.976,"4675": 5.696,"4700": 5.696,"4725": 5.463,"4750": 4.901,"4775": 4.901,"4800": 4.377,"4825": 4.377,"4850": 4.261,"4875": 3.583,"4900": 3.447,"4925": 3.583,"4950": 2.769,"4975": 2.73,"5000": 2.827,"5025": 2.537,"5050": 2.537,"5075": 2.73,"5100": 1.994,"5125": 2.246,"5150": 1.994,"5175": 1.975,"5200": 2.014,"5225": 1.452,"5250": 1.801,"5275": 1.181,"5300": 1.549,"5325": 1.394,"5350": 1.297,"5375": 1.065,"5400": 1.355,"5425": 0.716,"5450": 0.619,"5475": 0.716,"5500": 0.6,"5525": 0.484,"5550": 0.523,"5575": 0.407,"5600": 0.329,"5625": 0.31,"5650": 0.252,"5675": 0.213,"5700": 0.232,"5725": 0.174,"5750": 0.116,"5775": 0.058,"5800": 0.097,"5825": 0.058,"5875": 0.077}}}