{"type": "Feature","bbox": [-69.9847,-34.6955,-68.2816,-33.478],"geometry": {"type": "MultiPolygon","coordinates": [[[[-69.0029,-33.5467,853.2704],[-69.0029,-33.5961,872.1243],[-69.0043,-33.603,876.7182],[-69.024,-33.6286,891.7321],[-69.0463,-33.6454,902.4521],[-69.062,-33.6644,924.2891],[-69.0899,-33.6837,953.0696],[-69.1155,-33.6927,981.973],[-69.1315,-33.7016,1002.5624],[-69.1651,-33.7237,1050.2205],[-69.2032,-33.7551,1112.7791],[-69.23,-33.7729,1173.2842],[-69.2495,-33.7804,1210.5093],[-69.2892,-33.7871,1420.8811],[-69.3027,-33.7925,1292.1439],[-69.3307,-33.8172,1406.0084],[-69.3406,-33.8351,1457.8479],[-69.3446,-33.8528,1465.3315],[-69.3503,-33.8578,1531.1581],[-69.3583,-33.8614,1567.0829],[-69.3708,-33.8633,1574.5564],[-69.3839,-33.8621,1692.5961],[-69.4071,-33.8532,2165.5979],[-69.4367,-33.8491,1906.8601],[-69.5267,-33.8661,2650.9294],[-69.535,-33.8656,2524.3164],[-69.5775,-33.8529,2739.552],[-69.616,-33.8504,2619.4451],[-69.6458,-33.8531,2290.6855],[-69.6656,-33.8597,2677.4395],[-69.6731,-33.8571,2604.9551],[-69.6824,-33.8623,2534.759],[-69.6884,-33.8634,2809.5615],[-69.7049,-33.8591,2608.0693],[-69.7236,-33.8503,2969.5901],[-69.7318,-33.8486,2815.3372],[-69.7511,-33.8486,2547.0442],[-69.7734,-33.8548,2624.2375],[-69.7945,-33.8581,2654.2178],[-69.8281,-33.853,3345.458],[-69.8564,-33.8402,3643.7974],[-69.8666,-33.8376,3825.8132],[-69.8877,-33.8341,4064.0503],[-69.8955,-33.8354,4181.4668],[-69.898,-33.8399,4088.7302],[-69.8982,-33.8479,4320.8691],[-69.8863,-33.8504,3912.0645],[-69.8845,-33.8552,3825.7224],[-69.8732,-33.8608,4076.8037],[-69.8695,-33.8681,3971.3325],[-69.8695,-33.8758,3979.9282],[-69.8676,-33.8812,4240.9067],[-69.8568,-33.8857,4400.2578],[-69.8554,-33.8922,4417.668],[-69.8728,-33.9071,4050.1941],[-69.8755,-33.9142,4139.8765],[-69.884,-33.916,4084.269],[-69.8907,-33.9213,4164.1587],[-69.8921,-33.9251,4220.1021],[-69.8916,-33.9316,4306.3164],[-69.8941,-33.9357,4318.855],[-69.8924,-33.9409,4443.0596],[-69.9007,-33.9494,4337.2568],[-69.9005,-33.9561,4323.1631],[-69.9059,-33.9635,4777.7207],[-69.9055,-33.9647,4788.3286],[-69.8996,-33.9715,4977.2578],[-69.8904,-33.9753,5054.5737],[-69.8824,-33.9766,5297.8633],[-69.8805,-33.9758,5366.1523],[-69.8775,-33.9673,4840.9395],[-69.8742,-33.9646,4748.5747],[-69.8535,-33.9635,5300.0122],[-69.8549,-33.9655,5228.2344],[-69.853,-33.9742,4854.4302],[-69.8457,-33.9819,4868.0396],[-69.8409,-33.9926,4768.1733],[-69.8424,-33.9992,4493.0732],[-69.8397,-34.0072,4547.0068],[-69.8239,-34.0105,4397.1074],[-69.8216,-34.0156,4349.541],[-69.828,-34.0245,4210.4014],[-69.8422,-34.035,4387.8774],[-69.8467,-34.0413,4432.7236],[-69.8496,-34.0511,4721.3486],[-69.8542,-34.0564,4649.6699],[-69.8485,-34.0684,4636.937],[-69.8451,-34.0702,4527.8652],[-69.8324,-34.0718,4776.0625],[-69.8341,-34.0772,4551.0957],[-69.834,-34.0863,4398.6318],[-69.8371,-34.0877,4288.6553],[-69.8372,-34.091,4232.2842],[-69.8422,-34.0958,4370.1074],[-69.8531,-34.0992,4505.9209],[-69.8599,-34.1037,4360.0488],[-69.8562,-34.1135,4146.4575],[-69.864,-34.1217,3851.9434],[-69.8708,-34.1249,4027.918],[-69.8732,-34.133,3951.8057],[-69.8702,-34.1359,3870.5723],[-69.8699,-34.1411,3870.9651],[-69.8652,-34.1419,3805.6946],[-69.8637,-34.1404,3811.1003],[-69.8606,-34.1419,3901.8713],[-69.8557,-34.1473,4019.4905],[-69.8365,-34.1585,5059.1108],[-69.8346,-34.1613,5198.9028],[-69.8345,-34.1656,5203.6812],[-69.8313,-34.168,5108.9814],[-69.8271,-34.1684,5009.0845],[-69.8158,-34.177,4406.1758],[-69.8109,-34.1857,4054.9712],[-69.8011,-34.1935,3824.6602],[-69.7992,-34.2056,3540.4587],[-69.7972,-34.2086,3515.123],[-69.8005,-34.2165,3448.3325],[-69.7987,-34.2198,3445.6653],[-69.8013,-34.2225,3446.5427],[-69.8017,-34.2255,3440.2163],[-69.8054,-34.2267,3439.9976],[-69.805,-34.2312,3436.3726],[-69.8023,-34.2346,3431.3687],[-69.8066,-34.2481,3830.6155],[-69.8163,-34.2472,3806.3274],[-69.8233,-34.2489,3967.8396],[-69.8269,-34.2522,4136.4653],[-69.8275,-34.2558,4221.4873],[-69.83,-34.257,4245.5635],[-69.8463,-34.2573,3903.7134],[-69.8537,-34.256,4018.4773],[-69.8565,-34.2614,3920.8232],[-69.8591,-34.2608,3958.7791],[-69.8614,-34.2641,3914.885],[-69.8643,-34.2635,3925.0747],[-69.8717,-34.2667,4009.8313],[-69.8787,-34.2669,4068.8799],[-69.8842,-34.2636,4311.1436],[-69.8868,-34.2652,4366.4941],[-69.8966,-34.2656,4598.5347],[-69.8995,-34.2707,4708.8418],[-69.8978,-34.2847,4685.1733],[-69.9094,-34.2907,4371.6782],[-69.9222,-34.2896,3968.386],[-69.9238,-34.2848,3985.9111],[-69.9272,-34.2827,3871.5818],[-69.9402,-34.2798,3835.9353],[-69.9412,-34.2737,3735.1489],[-69.9469,-34.2673,3714.4883],[-69.9546,-34.2597,3837.4722],[-69.9685,-34.2508,4137.9858],[-69.9735,-34.2498,4124.9268],[-69.9835,-34.2543,4016.2964],[-69.9847,-34.2566,4075.4541],[-69.9665,-34.2756,3235.2708],[-69.9438,-34.3033,3110.0569],[-69.9133,-34.325,2942.7349],[-69.898,-34.3413,2758.6123],[-69.884,-34.3514,2538.7175],[-69.862799999999993,-34.3703,2673.4543],[-69.8115,-34.3941,2551.7578],[-69.7867,-34.4135,2293.1089],[-69.7797,-34.4248,2201.9609],[-69.7776,-34.4427,2137.199],[-69.7734,-34.4578,2166.2927],[-69.77,-34.4651,2195.6157],[-69.7662,-34.4691,2261.9341],[-69.7502,-34.4769,2089.916],[-69.7346,-34.4767,2072.2361],[-69.7136,-34.4812,2056.8699],[-69.6927,-34.4922,2054.0198],[-69.6457,-34.5368,2034.5565],[-69.6107,-34.558,2052.1069],[-69.6063,-34.5649,2296.3398],[-69.6007,-34.5794,2102.8752],[-69.5789,-34.5979,1880.6199],[-69.5597,-34.6111,1923.0209],[-69.5527,-34.6252,2275.5088],[-69.5428,-34.6315,1998.5614],[-69.53,-34.646,1713.4126],[-69.5091,-34.6615,1816.2935],[-69.5022,-34.6702,1683.749],[-69.4829,-34.678,1651.7039],[-69.4647,-34.688,1645.7462],[-69.4286,-34.6955,1635.0968],[-69.3851,-34.6929,1557.8473],[-69.3479,-34.6799,1595.2388],[-69.3167,-34.6631,1499.0455],[-69.2279,-34.639,1425.0723],[-69.2158,-34.6367,1424.5924],[-69.2033,-34.6365,1389.4257],[-69.1891,-34.6315,1447.24],[-69.1648,-34.627,1454.9086],[-69.1546,-34.6212,1420.8932],[-69.1459,-34.6183,1422.4121],[-69.1369,-34.6204,1338.217],[-69.1348,-34.6194,1333.5419],[-69.1303,-34.612,1331.9689],[-69.1245,-34.6131,1335.0381],[-69.1154,-34.6113,1328.0],[-69.0347,-34.3186,1748.4576],[-68.8384,-34.331,1600.0792],[-68.8315,-34.321,1653.756],[-68.7509,-34.3279,1302.3136],[-68.7138,-34.2475,1179.8304],[-68.7097,-34.2447,1174.9304],[-68.6534,-34.2306,1124.425],[-68.6348,-34.2305,1113.5836],[-68.6266,-34.2339,1094.6968],[-68.603,-34.2278,1075.7294],[-68.5875,-34.2269,1044.1119],[-68.5442,-34.2129,1013.3495],[-68.5319,-34.2126,995.9673],[-68.5115,-34.2062,967.2357],[-68.5058,-34.2072,957.1411],[-68.486,-34.2156,920.2891],[-68.4703,-34.208,910.6682],[-68.4465,-34.2144,896.0766],[-68.431,-34.2139,885.7385],[-68.4192,-34.2109,855.2225],[-68.4113,-34.2068,841.6761],[-68.4003,-34.1978,858.9022],[-68.3777,-34.191,807.1605],[-68.3771,-34.02,834.6144],[-68.3617,-34.0198,822.0687],[-68.3478,-34.0143,815.6793],[-68.3358,-34.0116,800.8544],[-68.3131,-34.0192,778.3104],[-68.2979,-34.0216,763.1864],[-68.2816,-34.0131,749.9813],[-68.2866,-33.478,698.5575],[-68.6031,-33.4891,1109.093],[-68.568,-33.733,1060.153],[-69.0029,-33.5467,853.2704]]]]}
,"properties": {"GID_2": "ARG.13.13_1","GID_0": "ARG","country": "Argentina","GID_1": "ARG.13_1","state": "Mendoza","NL_NAME_1": "NA","county": "SanCarlos","VARNAME_2": "NA","NL_NAME_2": "NA","TYPE_2": "Departamento","ENGTYPE_2": "Department","CC_2": "NA","HASC_2": "AR.MZ.SC","name": "SanCarlos.county","area_km2": 11589.176,"hist_schema_id": "Elevation0-9000","hist_area_km2": {"700": 2.652,"725": 18.564,"750": 88.55,"775": 124.086,"800": 122.207,"825": 117.646,"850": 132.083,"875": 139.559,"900": 173.363,"925": 202.735,"950": 283.092,"975": 281.465,"1000": 290.949,"1025": 278.253,"1050": 256.004,"1075": 248.021,"1100": 237.08,"1125": 236.868,"1150": 214.829,"1175": 206.531,"1200": 189.438,"1225": 198.263,"1250": 203.789,"1275": 259.075,"1300": 317.874,"1325": 279.93,"1350": 209.158,"1375": 152.72,"1400": 115.13,"1425": 110.08,"1450": 106.827,"1475": 89.031,"1500": 74.604,"1525": 80.367,"1550": 82.274,"1575": 90.953,"1600": 97.119,"1625": 94.199,"1650": 90.704,"1675": 96.918,"1700": 90.231,"1725": 91.893,"1750": 88.369,"1775": 89.901,"1800": 107.682,"1825": 100.256,"1850": 72.575,"1875": 67.705,"1900": 66.898,"1925": 59.504,"1950": 59.064,"1975": 53.677,"2000": 49.328,"2025": 48.361,"2050": 46.578,"2075": 44.671,"2100": 45.23,"2125": 44.026,"2150": 40.738,"2175": 40.652,"2200": 40.359,"2225": 38.54,"2250": 39.028,"2275": 40.484,"2300": 39.327,"2325": 39.309,"2350": 38.209,"2375": 35.34,"2400": 36.256,"2425": 36.032,"2450": 34.368,"2475": 35.846,"2500": 35.674,"2525": 34.868,"2550": 35.818,"2575": 34.488,"2600": 34.808,"2625": 34.67,"2650": 35.112,"2675": 34.794,"2700": 34.432,"2725": 35.239,"2750": 34.421,"2775": 36.457,"2800": 35.49,"2825": 36.984,"2850": 36.234,"2875": 36.5,"2900": 36.602,"2925": 36.098,"2950": 38.168,"2975": 38.768,"3000": 40.415,"3025": 39.069,"3050": 42.485,"3075": 41.263,"3100": 43.349,"3125": 44.561,"3150": 43.861,"3175": 44.743,"3200": 45.499,"3225": 47.045,"3250": 47.306,"3275": 62.483,"3300": 68.869,"3325": 67.939,"3350": 70.236,"3375": 68.85,"3400": 66.899,"3425": 67.445,"3450": 61.779,"3475": 60.985,"3500": 59.11,"3525": 57.847,"3550": 58.833,"3575": 58.598,"3600": 55.525,"3625": 54.652,"3650": 57.012,"3675": 54.118,"3700": 52.956,"3725": 50.396,"3750": 49.27,"3775": 46.446,"3800": 46.816,"3825": 46.17,"3850": 45.437,"3875": 41.663,"3900": 41.913,"3925": 40.964,"3950": 37.421,"3975": 37.44,"4000": 36.159,"4025": 32.752,"4050": 32.386,"4075": 28.807,"4100": 28.264,"4125": 25.648,"4150": 24.822,"4175": 21.526,"4200": 20.859,"4225": 19.438,"4250": 16.7,"4275": 16.138,"4300": 14.912,"4325": 13.158,"4350": 12.194,"4375": 11.104,"4400": 10.703,"4425": 9.123,"4450": 8.3,"4475": 7.684,"4500": 7.282,"4525": 6.474,"4550": 5.439,"4575": 5.632,"4600": 4.649,"4625": 4.685,"4650": 3.702,"4675": 3.298,"4700": 2.597,"4725": 2.755,"4750": 2.246,"4775": 1.667,"4800": 1.738,"4825": 1.545,"4850": 1.106,"4875": 0.737,"4900": 0.895,"4925": 0.772,"4950": 0.737,"4975": 0.632,"5000": 0.509,"5025": 0.58,"5050": 0.404,"5075": 0.351,"5100": 0.141,"5125": 0.193,"5150": 0.228,"5175": 0.141,"5200": 0.158,"5225": 0.123,"5250": 0.123,"5300": 0.106}}}