{"type": "Feature","bbox": [-57.5374,-29.5027,-56.5357,-28.2241],"geometry": {"type": "MultiPolygon","coordinates": [[[[-56.5621,-28.421,73.7913],[-56.5582,-28.4076,75.3855],[-56.5449,-28.4,68.6771],[-56.5429,-28.3971,72.4588],[-56.5426,-28.3901,74.9705],[-56.5375,-28.3846,75.1255],[-56.5357,-28.3741,69.4579],[-56.5373,-28.3672,60.7923],[-56.5483,-28.3443,70.2956],[-56.5516,-28.3269,67.0233],[-56.5609,-28.3111,71.5],[-56.5688,-28.3033,72.812],[-56.6651,-28.2745,73.5238],[-56.6591,-28.2565,73.6869],[-56.7125,-28.2503,72.9521],[-56.729,-28.2624,75.5009],[-56.7544,-28.2576,67.7048],[-56.8049,-28.2417,66.4043],[-56.8413,-28.2468,66.2483],[-56.8572,-28.245,66.2324],[-56.8875,-28.2356,66.3227],[-56.9019,-28.2296,66.1754],[-56.9067,-28.2241,66.5997],[-56.9477,-28.2602,65.2574],[-56.9907,-28.3072,64.4467],[-57.0162,-28.3299,63.6483],[-57.0321,-28.3407,63.4546],[-57.0577,-28.3681,63.1465],[-57.0715,-28.3754,62.9141],[-57.0924,-28.3921,62.8158],[-57.1089,-28.4023,62.511],[-57.1396,-28.4254,62.1919],[-57.1599,-28.4368,62.1149],[-57.1812,-28.4531,61.9297],[-57.2078,-28.4692,61.8691],[-57.2268,-28.4875,61.6242],[-57.241,-28.4971,61.5485],[-57.2253,-28.514,62.0349],[-57.2002,-28.5545,64.0355],[-57.191,-28.5743,63.7505],[-57.1836,-28.6092,63.879],[-57.1849,-28.6234,64.1924],[-57.1806,-28.6407,64.5471],[-57.1795,-28.6585,63.0],[-57.1807,-28.6798,64.9978],[-57.1765,-28.7294,65.1277],[-57.1807,-28.7754,64.6993],[-57.183,-28.7821,64.5003],[-57.1879,-28.7878,64.849],[-57.1968,-28.8112,64.709],[-57.1918,-28.8285,64.3833],[-57.1934,-28.8354,64.3608],[-57.1993,-28.84,64.4564],[-57.2108,-28.8422,66.849],[-57.2265,-28.8712,64.3688],[-57.2427,-28.8871,65.8868],[-57.2466,-28.897,67.9476],[-57.2648,-28.9162,67.1315],[-57.2783,-28.9236,63.2473],[-57.2979,-28.9626,63.6781],[-57.3116,-28.9754,63.7306],[-57.323,-28.9923,63.0874],[-57.3525,-29.0166,61.0184],[-57.3742,-29.0374,59.9381],[-57.3813,-29.0408,59.594],[-57.4054,-29.0597,59.1477],[-57.4252,-29.0718,58.5234],[-57.4446,-29.0943,57.284],[-57.4594,-29.1154,57.4345],[-57.468,-29.123,57.3213],[-57.4779,-29.129,57.1191],[-57.486,-29.1369,57.241],[-57.5005,-29.143,62.1952],[-57.5033,-29.1456,59.5964],[-57.5156,-29.1598,61.7786],[-57.5374,-29.1902,62.9866],[-57.5182,-29.1859,55.4681],[-57.4899,-29.1855,57.8296],[-57.4794,-29.1905,64.9023],[-57.4649,-29.2076,65.0383],[-57.4497,-29.2194,65.7486],[-57.4318,-29.2275,63.8169],[-57.4125,-29.2329,63.9675],[-57.3923,-29.2329,65.7369],[-57.3526,-29.2399,68.0379],[-57.3324,-29.2419,69.4998],[-57.1535,-29.2407,70.7451],[-57.1254,-29.2575,70.277],[-57.0617,-29.2364,68.9646],[-57.051,-29.2314,68.8217],[-57.0385,-29.2223,67.4288],[-57.0238,-29.2164,66.2734],[-57.0039,-29.2132,64.5971],[-56.9773,-29.2047,61.0535],[-56.9619,-29.2089,60.1187],[-56.9418,-29.2115,59.0418],[-56.9063,-29.2048,57.3949],[-56.8865,-29.2066,56.5048],[-56.8724,-29.2138,55.7877],[-56.8664,-29.2186,55.0904],[-56.8634,-29.2324,55.5735],[-56.8657,-29.2537,54.602],[-56.8708,-29.2781,63.7011],[-56.8663,-29.3026,58.2326],[-56.8655,-29.3169,51.9324],[-56.8693,-29.3664,50.2251],[-56.8724,-29.3804,51.6039],[-56.8654,-29.4184,77.1194],[-56.8705,-29.4429,46.2167],[-56.8769,-29.4559,51.1015],[-56.8759,-29.4593,49.3707],[-56.8689,-29.4629,44.6211],[-56.8669,-29.4659,44.7381],[-56.8633,-29.4759,51.1862],[-56.8592,-29.4762,50.0621],[-56.856,-29.4783,52.4736],[-56.8547,-29.4815,50.2947],[-56.8567,-29.4882,49.4445],[-56.8554,-29.5027,43.5],[-56.8287,-29.489,44.0],[-56.816,-29.4766,44.0],[-56.8086,-29.4617,49.1678],[-56.7998,-29.4488,44.5],[-56.7836,-29.4355,44.5],[-56.7808,-29.4202,45.0],[-56.7787,-29.4197,45.0],[-56.7796,-29.402,45.0],[-56.7755,-29.3928,45.0],[-56.7652,-29.3803,45.0],[-56.7516,-29.3738,45.0],[-56.7302,-29.3709,45.0],[-56.7199,-29.3679,45.0],[-56.7084,-29.3619,45.0],[-56.6757,-29.3212,45.0],[-56.6561,-29.2806,45.5],[-56.6562,-29.2706,45.5],[-56.6519,-29.248,45.5],[-56.6497,-29.2192,45.5],[-56.6456,-29.2079,45.5],[-56.6277,-29.175,45.5],[-56.6132,-29.1579,47.4344],[-56.5973,-29.1267,45.5],[-56.6102,-29.1071,50.4966],[-56.6165,-29.1026,50.2452],[-56.6237,-29.1007,50.1797],[-56.6247,-29.0972,50.2348],[-56.622,-29.0907,50.0529],[-56.614,-29.0898,49.5082],[-56.6152,-29.0832,48.3893],[-56.6123,-29.0766,49.728],[-56.6016,-29.0718,49.5791],[-56.5993,-29.069,49.9805],[-56.5998,-29.0584,46.0],[-56.5972,-29.044,49.1674],[-56.5991,-29.0419,48.7363],[-56.615,-29.0453,48.8135],[-56.6234,-29.045,48.3447],[-56.6257,-29.0432,48.1559],[-56.625,-29.0286,48.4075],[-56.6193,-29.0192,48.7131],[-56.619,-29.0159,47.5953],[-56.626,-29.0119,48.0168],[-56.6272,-29.0087,47.4368],[-56.6249,-28.9946,46.2757],[-56.6309,-28.985,49.167],[-56.6338,-28.9832,49.1192],[-56.6406,-28.9867,47.5531],[-56.6417,-28.9975,48.9306],[-56.645,-28.9989,46.867],[-56.6528,-28.9984,48.1644],[-56.6684,-28.9821,59.1987],[-56.6696,-28.9787,59.987],[-56.6676,-28.9679,47.5931],[-56.679,-28.9666,54.2002],[-56.6822,-28.9645,59.0959],[-56.6836,-28.9611,52.2934],[-56.6854,-28.9507,49.5482],[-56.6825,-28.9333,50.6515],[-56.6888,-28.9203,50.9139],[-56.6916,-28.8991,50.229],[-56.6891,-28.8889,50.2784],[-56.6917,-28.8822,50.2669],[-56.6916,-28.8754,49.8574],[-56.6936,-28.8687,50.1805],[-56.6895,-28.8588,49.4755],[-56.6915,-28.8558,50.3547],[-56.699,-28.8532,50.8854],[-56.7012,-28.8467,50.9968],[-56.7114,-28.8423,51.1195],[-56.7118,-28.8351,51.2447],[-56.7189,-28.8329,51.5914],[-56.7212,-28.8301,51.8101],[-56.7202,-28.8195,52.3703],[-56.7109,-28.808,52.1489],[-56.7151,-28.7982,53.0424],[-56.7126,-28.7877,52.6424],[-56.7192,-28.7749,63.8059],[-56.7173,-28.7679,57.5632],[-56.7111,-28.7588,52.2842],[-56.7123,-28.7376,72.4202],[-56.7192,-28.7339,67.5499],[-56.72,-28.731,67.8352],[-56.7103,-28.7195,61.2012],[-56.7074,-28.7129,64.3718],[-56.6978,-28.7063,52.7999],[-56.6894,-28.6943,53.5402],[-56.6771,-28.685,53.8134],[-56.6726,-28.6714,54.3274],[-56.662,-28.6564,54.3698],[-56.6623,-28.6528,54.1503],[-56.6668,-28.6469,53.9652],[-56.6672,-28.6433,54.6789],[-56.6625,-28.6224,54.758],[-56.6617,-28.6118,55.9983],[-56.6633,-28.6086,55.0646],[-56.6726,-28.6017,55.5026],[-56.6774,-28.596,59.6387],[-56.6783,-28.5927,68.5641],[-56.6751,-28.5824,63.8647],[-56.6778,-28.5648,68.9441],[-56.6735,-28.5549,69.5151],[-56.6579,-28.5437,56.3038],[-56.6439,-28.5308,57.0461],[-56.6402,-28.5304,57.0446],[-56.6206,-28.5348,57.0975],[-56.6139,-28.5312,57.3138],[-56.6095,-28.5252,57.5929],[-56.6041,-28.5118,58.3164],[-56.6053,-28.505,64.7692],[-56.6116,-28.4958,64.8521],[-56.6105,-28.4888,67.1299],[-56.5988,-28.4745,71.2803],[-56.5942,-28.4573,74.9796],[-56.5889,-28.4477,71.5281],[-56.5621,-28.421,73.7913]]]]}
,"properties": {"GID_2": "ARG.7.21_1","GID_0": "ARG","country": "Argentina","GID_1": "ARG.7_1","state": "Corrientes","NL_NAME_1": "NA","county": "SanMartín","VARNAME_2": "LaCruz","NL_NAME_2": "NA","TYPE_2": "Departamento","ENGTYPE_2": "Department","CC_2": "NA","HASC_2": "AR.CN.SM","name": "SanMartín.county","area_km2": 6702.839,"hist_schema_id": "Elevation0-9000","hist_area_km2": {"50": 845.297,"75": 5821.741,"100": 33.69,"125": 1.76,"150": 0.259,"175": 0.093}}}