{"type":"Feature","properties":{"GID_2":"ARG.1.124_1","GID_0":"ARG","country":"Argentina","GID_1":"ARG.1_1","state":"BuenosAires","NL_NAME_1":"NA","county":"VeinticincodeMayo","VARNAME_2":"25deMayo","NL_NAME_2":"NA","TYPE_2":"Partido","ENGTYPE_2":"Part","CC_2":"NA","HASC_2":"AR.BA.VM","name":"VeinticincodeMayo.county"},
"geometry":{"type": "MultiPolygon","coordinates": [[[[-60.3255,-35.23,58.5185],[-60.5282,-35.4105,57.6898],[-60.4417,-35.4766,56.0651],[-60.5233,-35.5464,62.2054],[-60.528,-35.5444,62.2504],[-60.8683,-35.841,77.3248],[-60.789,-35.905,75.6647],[-60.7866,-35.9022,76.8105],[-60.7011,-35.9678,73.2694],[-60.6424,-35.9198,69.9566],[-60.5341,-36.0008,68.5168],[-60.5292,-35.9901,68.786],[-60.5241,-35.985,69.001],[-60.5026,-35.9923,68.5239],[-60.4839,-35.984,66.6081],[-60.4679,-35.9729,65.89],[-60.4608,-35.9651,65.4292],[-60.4658,-35.961,65.592],[-60.466,-35.9521,66.5306],[-60.4632,-35.9483,66.1134],[-60.4069,-35.9118,64.3661],[-60.3939,-35.8992,64.4254],[-60.3896,-35.8913,61.3523],[-60.3674,-35.8826,60.945],[-60.37,-35.8687,62.4921],[-60.3561,-35.8629,64.3489],[-60.3532,-35.86,64.6433],[-60.3453,-35.8637,59.978],[-60.3297,-35.8519,59.3859],[-60.3299,-35.8449,61.0355],[-60.3235,-35.8385,60.274],[-60.305,-35.8277,58.447],[-60.2211,-35.755,55.9426],[-60.2244,-35.7525,54.176],[-60.1232,-35.6648,48.0277],[-60.0676,-35.7068,45.6755],[-60.063,-35.7042,45.898],[-60.0521,-35.7025,45.8248],[-60.0395,-35.7023,45.6581],[-60.0369,-35.6983,45.6507],[-60.0372,-35.6932,45.4706],[-60.0357,-35.6894,45.1609],[-60.0427,-35.6844,45.0278],[-60.0302,-35.6752,43.9449],[-60.0198,-35.6643,44.5793],[-60.0166,-35.6574,45.807],[-60.0294,-35.6618,45.3892],[-60.0346,-35.6614,44.8214],[-60.0344,-35.6505,45.8443],[-60.0324,-35.6454,46.0712],[-60.0332,-35.6412,45.6841],[-60.0387,-35.6351,45.8676],[-60.04,-35.6304,44.2562],[-60.0333,-35.6195,44.1448],[-60.0233,-35.6139,43.2917],[-60.0131,-35.6028,42.9154],[-60.0142,-35.5987,43.2339],[-60.0101,-35.5827,42.6701],[-60.0185,-35.5752,43.1538],[-60.0199,-35.5706,43.1682],[-60.0265,-35.5672,42.7206],[-60.0281,-35.5596,42.8459],[-60.0259,-35.553,42.8425],[-60.0128,-35.5446,42.2777],[-60.0114,-35.5401,42.3335],[-60.0078,-35.5363,41.7567],[-60.0032,-35.5365,41.3604],[-59.9344,-35.495,39.9534],[-59.9154,-35.4925,38.8204],[-59.9052,-35.4837,37.5121],[-59.893,-35.4827,37.6711],[-59.8862,-35.4839,38.4227],[-59.8825,-35.49,38.9409],[-59.8701,-35.4929,38.4322],[-59.8656,-35.4962,38.31],[-59.8544,-35.4965,38.1559],[-59.8465,-35.502,38.5445],[-59.8368,-35.5034,37.8327],[-59.8283,-35.5033,37.5754],[-59.8189,-35.4993,37.1052],[-59.8035,-35.4967,36.8643],[-59.7955,-35.4877,36.2094],[-59.7892,-35.4843,36.0431],[-59.7812,-35.4826,35.7798],[-59.7733,-35.4542,36.5446],[-59.8269,-35.4104,37.0127],[-59.7581,-35.3504,38.0406],[-59.7165,-35.3829,50.3571],[-59.6477,-35.3229,37.5249],[-59.6211,-35.3443,36.9475],[-59.6169,-35.341,37.9254],[-59.5886,-35.3623,36.795],[-59.502,-35.2922,29.5784],[-59.5181,-35.2903,31.1229],[-59.5221,-35.2932,32.1381],[-59.5457,-35.2845,32.1409],[-59.5573,-35.2665,36.9103],[-59.558,-35.2507,31.3899],[-59.5516,-35.2415,31.2513],[-59.547,-35.2379,30.9486],[-59.5451,-35.2319,31.0061],[-59.5533,-35.2196,31.6701],[-59.5494,-35.2161,31.2593],[-59.5504,-35.2121,31.498],[-59.5554,-35.2089,31.9025],[-59.5582,-35.204,32.3126],[-59.5652,-35.2013,33.2492],[-59.5699,-35.1952,31.844],[-59.5776,-35.1936,31.692],[-59.5793,-35.1905,31.8151],[-59.5874,-35.1867,31.8273],[-59.5899,-35.1922,32.0137],[-59.5956,-35.1922,32.0522],[-59.6083,-35.196,32.9269],[-59.625,-35.2054,33.5505],[-59.6291,-35.2037,33.2407],[-59.6417,-35.206,33.6136],[-59.6525,-35.2174,35.2104],[-59.6626,-35.214,34.2742],[-59.6674,-35.2174,34.4305],[-59.667,-35.2212,33.8828],[-59.6696,-35.2292,35.9367],[-59.672,-35.2312,36.6637],[-59.6987,-35.2221,35.82],[-59.7013,-35.2187,35.1543],[-59.7052,-35.2187,34.851],[-59.7123,-35.2271,37.2186],[-59.7173,-35.2271,36.1275],[-59.7217,-35.2299,36.569],[-59.7268,-35.2292,35.8377],[-59.7497,-35.2059,36.4661],[-59.7609,-35.206,36.535],[-59.7675,-35.2031,36.6533],[-59.7655,-35.1991,36.12],[-59.7709,-35.1908,36.857],[-59.7813,-35.1851,36.4806],[-59.7991,-35.1889,36.9088],[-59.8105,-35.1858,37.1669],[-59.8156,-35.1875,37.2301],[-59.8298,-35.1822,37.4516],[-59.8325,-35.176,36.9295],[-59.8372,-35.171,37.5294],[-59.8389,-35.1647,37.286],[-59.8441,-35.1627,37.2991],[-59.8698,-35.1599,38.0002],[-59.8754,-35.1554,38.3466],[-59.8767,-35.1488,38.566],[-59.8819,-35.1403,38.8309],[-59.8888,-35.1371,39.2486],[-59.8961,-35.1317,39.7661],[-59.8972,-35.1278,39.0336],[-59.9064,-35.1225,39.2265],[-59.9222,-35.1218,39.5154],[-59.9302,-35.1255,40.6548],[-59.9367,-35.124,41.2527],[-59.943,-35.1272,43.5957],[-59.9511,-35.1279,39.8174],[-59.9736,-35.1387,40.6079],[-59.9882,-35.1378,40.6003],[-60.0066,-35.1238,40.6566],[-60.0324,-35.1117,41.2611],[-60.2397,-35.2948,53.2397],[-60.3255,-35.23,58.5185]]]]}}