{"type": "Feature","bbox": [-68.6081,-31.835,-68.3769,-31.5361],"geometry": {"type": "MultiPolygon","coordinates": [[[[-68.4436,-31.566,596.5623],[-68.4583,-31.563,599.86],[-68.4668,-31.5548,608.1191],[-68.471,-31.5464,605.5551],[-68.4802,-31.5417,610.4241],[-68.4941,-31.5427,617.4029],[-68.5016,-31.5401,622.6222],[-68.505,-31.5408,623.8751],[-68.5056,-31.544,622.9576],[-68.5094,-31.5473,622.3993],[-68.5142,-31.5455,626.8031],[-68.5176,-31.5478,626.0251],[-68.5259,-31.5497,631.4966],[-68.5462,-31.5443,647.2629],[-68.5506,-31.552,648.0625],[-68.5549,-31.5546,652.4001],[-68.567,-31.5515,660.7164],[-68.5991,-31.537,686.2133],[-68.6057,-31.5361,689.5652],[-68.6081,-31.5385,692.8651],[-68.6015,-31.564,686.4904],[-68.5507,-31.5777,643.7125],[-68.5226,-31.5864,621.4164],[-68.5208,-31.5886,619.3778],[-68.5251,-31.6084,614.5216],[-68.5269,-31.6132,614.0463],[-68.5306,-31.6171,614.9892],[-68.5311,-31.6218,614.4556],[-68.5202,-31.6262,604.0081],[-68.506,-31.6293,594.7029],[-68.5164,-31.6474,594.0497],[-68.5182,-31.6549,590.3193],[-68.5229,-31.6641,590.7683],[-68.524,-31.6741,587.6033],[-68.5094,-31.7178,574.8903],[-68.5065,-31.7353,573.8909],[-68.4976,-31.7673,570.6675],[-68.4941,-31.7742,568.8698],[-68.476,-31.7909,564.9121],[-68.4489,-31.8105,562.3596],[-68.4348,-31.8234,560.8707],[-68.3932,-31.835,559.7009],[-68.3934,-31.8208,559.429],[-68.3807,-31.8097,559.96],[-68.3769,-31.797,560.3291],[-68.3802,-31.7905,561.614],[-68.3829,-31.7788,564.0899],[-68.3827,-31.7623,564.7252],[-68.388,-31.7533,565.3378],[-68.3892,-31.747,566.1929],[-68.4092,-31.7116,569.7831],[-68.4142,-31.6873,571.4052],[-68.415,-31.6735,577.1885],[-68.4259,-31.641,580.7791],[-68.429,-31.6237,581.7003],[-68.4429,-31.593,588.0958],[-68.4436,-31.566,596.5623]]]]}
,"properties": {"GID_2": "ARG.18.10_1","GID_0": "ARG","country": "Argentina","GID_1": "ARG.18_1","state": "SanJuan","NL_NAME_1": "NA","county": "Rawson","VARNAME_2": "VillaKrause","NL_NAME_2": "NA","TYPE_2": "Departamento","ENGTYPE_2": "Department","CC_2": "NA","HASC_2": "AR.SJ.RA","name": "Rawson.county","area_km2": 298.7543,"hist_schema_id": "Elevation0-9000","hist_area_km2": {"550": 21.8381,"575": 177.9272,"600": 60.82,"625": 18.6234,"650": 9.9348,"675": 8.4548,"700": 1.1019,"725": 0.0541}}}