{"type": "Feature","bbox": [-65.9468,-28.5518,-65.726,-28.1934],"geometry": {"type": "MultiPolygon","coordinates": [[[[-65.9277,-28.3291,1771.8081],[-65.9404,-28.3449,2259.9561],[-65.9468,-28.3592,2515.9739],[-65.9443,-28.3847,2704.6106],[-65.9447,-28.3949,2373.699],[-65.9362,-28.4195,2081.4026],[-65.9334,-28.4238,2124.7993],[-65.9141,-28.4352,1691.9524],[-65.9091,-28.4445,1753.0953],[-65.9047,-28.4594,1877.1736],[-65.8971,-28.4733,1583.4268],[-65.8874,-28.486,1301.9043],[-65.872,-28.5013,845.1996],[-65.8553,-28.5156,584.5216],[-65.8234,-28.5379,488.5787],[-65.7942,-28.5518,474.8212],[-65.7814,-28.5266,479.6431],[-65.7756,-28.5068,485.9556],[-65.7652,-28.4883,497.1815],[-65.7578,-28.4806,504.9518],[-65.7439,-28.4711,512.2563],[-65.7376,-28.4626,512.7197],[-65.726,-28.4177,545.0282],[-65.7265,-28.392,594.6602],[-65.7297,-28.3819,601.4704],[-65.7326,-28.3776,642.1763],[-65.7379,-28.376,684.8914],[-65.7496,-28.3759,741.0198],[-65.7542,-28.3728,862.5159],[-65.7598,-28.3638,906.3031],[-65.7758,-28.3252,1069.1345],[-65.7814,-28.3,1140.6052],[-65.79,-28.2811,1141.2336],[-65.7915,-28.2709,1207.3922],[-65.7919,-28.2401,1065.8806],[-65.7995,-28.2155,1244.2432],[-65.8006,-28.1934,952.6609],[-65.8104,-28.2015,1131.0374],[-65.8339,-28.231,1256.0071],[-65.8357,-28.2356,1299.0098],[-65.8289,-28.2554,1230.6316],[-65.8279,-28.2606,1193.075],[-65.8293,-28.2653,1204.5338],[-65.8478,-28.2852,1449.1348],[-65.8732,-28.3194,1801.1379],[-65.884,-28.323,1935.6941],[-65.9014,-28.3234,1467.239],[-65.9277,-28.3291,1771.8081]]]]}
,"properties": {"GID_2": "ARG.2.7_1","GID_0": "ARG","country": "Argentina","GID_1": "ARG.2_1","state": "Catamarca","NL_NAME_1": "NA","county": "Capital","VARNAME_2": "Capital(Catamarca)|Catamarca","NL_NAME_2": "NA","TYPE_2": "Departamento","ENGTYPE_2": "Department","CC_2": "NA","HASC_2": "AR.CT.CT","name": "Capital.county","area_km2": 439.7574,"hist_schema_id": "Elevation0-9000","hist_area_km2": {"475": 6.9851,"500": 22.7318,"525": 18.5447,"550": 19.9085,"575": 17.6916,"600": 15.5864,"625": 12.1938,"650": 9.9007,"675": 8.9314,"700": 8.2422,"725": 8.1118,"750": 7.571,"775": 6.7692,"800": 6.3404,"825": 5.632,"850": 5.0725,"875": 5.5764,"900": 4.8863,"925": 5.1477,"950": 5.4831,"975": 5.3528,"1000": 5.633,"1025": 5.1668,"1050": 5.8203,"1075": 7.0899,"1100": 7.3698,"1125": 8.5087,"1150": 8.7334,"1175": 9.836,"1200": 10.7696,"1225": 10.4146,"1250": 10.1167,"1275": 8.492,"1300": 8.1731,"1325": 7.2398,"1350": 7.4634,"1375": 6.8101,"1400": 6.3804,"1425": 5.9884,"1450": 5.2233,"1475": 5.4288,"1500": 6.2872,"1525": 5.5042,"1550": 5.2614,"1575": 4.067,"1600": 4.4402,"1625": 4.0295,"1650": 3.1902,"1675": 3.3207,"1700": 3.5632,"1725": 3.5446,"1750": 3.2088,"1775": 2.6863,"1800": 2.2201,"1825": 2.2386,"1850": 2.2761,"1875": 2.2386,"1900": 1.7536,"1925": 1.7163,"1950": 1.455,"1975": 1.1193,"2000": 1.5297,"2025": 1.4364,"2050": 1.5856,"2075": 1.0633,"2100": 1.3058,"2125": 1.1566,"2150": 1.2313,"2175": 1.0074,"2200": 1.0074,"2225": 0.7089,"2250": 0.5783,"2275": 0.7089,"2300": 0.6716,"2325": 0.6716,"2350": 0.485,"2375": 0.4477,"2400": 0.3544,"2425": 0.4104,"2450": 0.3544,"2475": 0.3171,"2500": 0.2239,"2525": 0.3544,"2550": 0.2239,"2575": 0.1119,"2600": 0.1679,"2625": 0.0933,"2650": 0.0746,"2675": 0.0373}}}