{"type":"Feature","properties":{"GID_2":"ARG.1.38_1","GID_0":"ARG","country":"Argentina","GID_1":"ARG.1_1","state":"BuenosAires","NL_NAME_1":"NA","county":"EstebanEcheverría","VARNAME_2":"EstebanEcheverri","NL_NAME_2":"NA","TYPE_2":"Partido","ENGTYPE_2":"Part","CC_2":"NA","HASC_2":"AR.BA.EB","name":"EstebanEcheverría.county"},
"geometry":{"type": "MultiPolygon","coordinates": [[[[-58.4312,-34.8204,24.457],[-58.5035,-34.7248,5.1494],[-58.5056,-34.7254,11.334],[-58.508,-34.7349,6.0972],[-58.5135,-34.7437,6.2212],[-58.5228,-34.7446,5.5439],[-58.5322,-34.7493,6.0264],[-58.5392,-34.7504,13.6878],[-58.5392,-34.7546,22.9047],[-58.5363,-34.7588,14.8143],[-58.5382,-34.7606,16.4839],[-58.5466,-34.7626,5.7013],[-58.5483,-34.7576,7.1482],[-58.5517,-34.7563,15.253],[-58.5524,-34.7542,20.7656],[-58.5575,-34.7605,8.4905],[-58.5598,-34.7595,12.971],[-58.5676,-34.7611,16.2913],[-58.5701,-34.7654,10.8889],[-58.5681,-34.769,11.2912],[-58.5742,-34.7699,18.6526],[-58.5756,-34.7719,6.5979],[-58.5744,-34.7745,9.4116],[-58.5759,-34.7762,7.1802],[-58.5732,-34.7767,19.319],[-58.573,-34.7783,5.687],[-58.5782,-34.7814,14.9266],[-58.5816,-34.7795,11.8603],[-58.5868,-34.7831,9.634],[-58.5849,-34.7856,21.3244],[-58.5885,-34.7898,17.4286],[-58.5878,-34.7959,18.1714],[-58.5914,-34.7988,16.005],[-58.5905,-34.8016,19.8078],[-58.5931,-34.8023,19.3022],[-58.5965,-34.8067,17.8104],[-58.5951,-34.8087,13.7827],[-58.598,-34.808,8.567],[-58.6004,-34.8144,7.1508],[-58.6039,-34.8129,6.0243],[-58.6069,-34.8139,6.1372],[-58.6162,-34.8213,13.0948],[-58.6183,-34.8315,9.0819],[-58.6257,-34.8466,7.6234],[-58.6294,-34.8496,9.8599],[-58.6311,-34.8554,16.5995],[-58.6371,-34.8614,10.3206],[-58.6405,-34.8658,12.8647],[-58.6402,-34.8683,8.8698],[-58.6435,-34.8712,10.6011],[-58.6473,-34.8909,10.5275],[-58.6512,-34.8931,11.007],[-58.6065,-34.9509,18.0857],[-58.6208,-34.9626,19.3671],[-58.5551,-35.0097,23.9527],[-58.5535,-35.0083,23.7934],[-58.5372,-35.0227,23.0768],[-58.535,-35.0232,23.0664],[-58.5351,-34.9941,24.3024],[-58.5548,-34.977,23.2613],[-58.5341,-34.9611,24.2042],[-58.5309,-34.9638,24.0263],[-58.4923,-34.9307,26.8953],[-58.4757,-34.9435,25.4272],[-58.4527,-34.9267,24.121],[-58.446,-34.9365,24.5157],[-58.3974,-34.9121,28.2059],[-58.4167,-34.8858,26.8207],[-58.4095,-34.8822,26.8878],[-58.4485,-34.8291,20.1982],[-58.4312,-34.8204,24.457]]]]}}