{"type": "Feature","bbox": [-67.3875,-32.7388,-65.6979,-31.8685],"geometry": {"type": "MultiPolygon","coordinates": [[[[-65.7783,-31.8852,339.4717],[-65.8063,-31.8872,337.5761],[-65.8729,-31.8961,342.5944],[-65.9048,-31.8984,343.7866],[-65.9187,-31.8969,344.0037],[-65.9487,-31.8866,342.3908],[-65.9553,-31.886,341.6793],[-66.0176,-31.9212,352.9722],[-66.0604,-31.9429,362.728],[-66.0682,-31.9494,367.5498],[-66.0723,-31.9554,371.4391],[-66.0722,-31.9704,376.7934],[-66.0729,-31.9725,377.858],[-66.0753,-31.9728,378.4258],[-66.0857,-31.9678,378.0077],[-66.1107,-31.9507,375.4474],[-66.1239,-31.9459,377.7657],[-66.1308,-31.9467,379.651],[-66.1372,-31.9498,382.7601],[-66.1409,-31.9547,384.4999],[-66.1475,-31.9698,389.3387],[-66.1532,-31.9705,391.3212],[-66.2532,-31.9465,454.6548],[-66.2813,-31.9427,485.3522],[-66.3064,-31.9426,608.037],[-66.3161,-31.9457,587.821],[-66.3279,-31.9529,568.8229],[-66.3348,-31.9597,543.0942],[-66.3432,-31.9732,520.282],[-66.3426,-32.0025,486.2364],[-66.3885,-32.0008,507.2206],[-66.5596,-31.9769,415.1264],[-66.5579,-31.9573,403.1992],[-66.5632,-31.9555,400.0512],[-66.6103,-31.9529,367.4162],[-66.6277,-31.9495,367.0657],[-66.6407,-31.9449,366.5504],[-66.6833,-31.9176,366.2416],[-66.6994,-31.8976,366.1519],[-66.7131,-31.8872,366.069],[-66.7403,-31.887,367.0632],[-66.7526,-31.8931,367.2061],[-66.7663,-31.8963,367.937],[-66.8157,-31.9006,377.8707],[-66.8727,-31.9017,410.2613],[-66.8797,-31.9012,412.6273],[-66.8916,-31.8958,417.7509],[-66.9306,-31.899,436.353],[-66.9803,-31.9003,465.5874],[-67.0582,-31.8961,522.858],[-67.0941,-31.8982,564.663],[-67.101,-31.8925,565.7555],[-67.1024,-31.8894,564.6846],[-67.113,-31.8824,570.896],[-67.1415,-31.8793,600.2596],[-67.1841,-31.8794,649.0249],[-67.2367,-31.8869,774.3505],[-67.2435,-31.8865,785.1878],[-67.2637,-31.8801,563.6974],[-67.2911,-31.8738,528.3527],[-67.3261,-31.8685,527.5886],[-67.3472,-31.8686,529.5947],[-67.3861,-31.8746,529.4756],[-67.3875,-31.8794,529.3828],[-67.3724,-31.9302,522.4583],[-67.3718,-31.9514,519.6066],[-67.3601,-31.9734,518.6496],[-67.362,-31.9912,517.4844],[-67.3562,-32.0023,515.2523],[-67.3717,-32.0551,510.7039],[-67.3763,-32.0763,507.8447],[-67.3771,-32.0967,507.6657],[-67.3808,-32.1221,505.6675],[-67.3738,-32.1468,504.5735],[-67.3681,-32.1557,503.4207],[-67.3667,-32.1608,502.5621],[-67.3651,-32.1862,501.4862],[-67.3579,-32.2111,498.9446],[-67.3568,-32.2636,494.8676],[-67.3242,-32.2963,492.6192],[-67.2872,-32.3594,491.0737],[-67.3693,-32.359,491.2507],[-67.3672,-32.376,490.333],[-67.3566,-32.3943,490.0298],[-67.3398,-32.3992,488.8531],[-67.3325,-32.4072,489.0627],[-67.33,-32.4119,489.3922],[-67.3238,-32.4391,486.8469],[-67.3198,-32.4485,486.1182],[-66.4263,-32.4348,594.2531],[-66.2157,-32.4661,659.8212],[-66.2152,-32.4852,671.5519],[-66.2106,-32.499,683.1609],[-66.2127,-32.5084,689.467],[-66.2191,-32.5217,693.9415],[-66.2262,-32.5449,703.8687],[-66.2227,-32.5878,928.9209],[-66.2253,-32.602,1031.5807],[-66.2338,-32.6298,914.108],[-66.2301,-32.6583,1174.7114],[-66.2273,-32.7109,1002.3242],[-66.231,-32.7295,1025.0515],[-66.2249,-32.7376,1172.6447],[-66.2197,-32.7388,1439.7662],[-66.2084,-32.7374,1537.4613],[-66.1604,-32.7121,1574.7544],[-66.1203,-32.6856,1420.3912],[-66.0924,-32.6692,1356.6017],[-66.0662,-32.651,1425.5513],[-66.0319,-32.6072,1639.1436],[-65.9997,-32.5738,1489.4263],[-65.986,-32.5476,1585.8506],[-65.9797,-32.5292,1548.4545],[-65.9685,-32.5073,1534.0623],[-65.9451,-32.4691,1461.1064],[-65.9267,-32.445,1202.5947],[-65.8857,-32.4121,1152.0903],[-65.8728,-32.3964,1116.8673],[-65.8643,-32.3903,910.9951],[-65.8505,-32.3752,909.4767],[-65.834,-32.3621,1062.963],[-65.8232,-32.3454,959.9593],[-65.7933,-32.3167,890.8242],[-65.755,-32.2885,798.802],[-65.7232,-32.269,848.5356],[-65.7049,-32.2604,759.3901],[-65.6981,-32.2605,791.7241],[-65.6979,-31.8887,344.0338],[-65.7425,-31.8852,342.7145],[-65.7783,-31.8852,339.4717]]]]}
,"properties": {"GID_2": "ARG.19.1_1","GID_0": "ARG","country": "Argentina","GID_1": "ARG.19_1","state": "SanLuis","NL_NAME_1": "NA","county": "Ayacucho","VARNAME_2": "SanFco.delMontedeOro","NL_NAME_2": "NA","TYPE_2": "Departamento","ENGTYPE_2": "Department","CC_2": "NA","HASC_2": "AR.SL.AY","name": "Ayacucho.county","area_km2": 9422.651,"hist_schema_id": "Elevation0-9000","hist_area_km2": {"350": 182.302,"375": 838.418,"400": 655.311,"425": 700.432,"450": 636.138,"475": 648.612,"500": 1082.34,"525": 818.132,"550": 586.249,"575": 590.936,"600": 533.229,"625": 535.042,"650": 447.946,"675": 307.921,"700": 203.649,"725": 120.858,"750": 84.477,"775": 59.225,"800": 40.711,"825": 26.915,"850": 25.945,"875": 28.528,"900": 25.896,"925": 24.643,"950": 21.048,"975": 20.402,"1000": 16.471,"1025": 15.719,"1050": 14.7,"1075": 12.788,"1100": 11.912,"1125": 11.68,"1150": 10.036,"1175": 8.18,"1200": 6.682,"1225": 5.557,"1250": 5.467,"1275": 5.932,"1300": 5.236,"1325": 4.735,"1350": 3.841,"1375": 4.056,"1400": 3.842,"1425": 3.664,"1450": 2.323,"1475": 2.305,"1500": 2.841,"1525": 3.307,"1550": 3.2,"1575": 2.591,"1600": 2.788,"1625": 2.377,"1650": 2.127,"1675": 1.252,"1700": 0.877,"1725": 0.626,"1750": 0.161}}}