{"type":"Feature","properties":{"GID_2":"ARG.8.2_1","GID_0":"ARG","country":"Argentina","GID_1":"ARG.8_1","state":"EntreRíos","NL_NAME_1":"NA","county":"Concordia","VARNAME_2":"NA","NL_NAME_2":"NA","TYPE_2":"Departamento","ENGTYPE_2":"Department","CC_2":"NA","HASC_2":"AR.ER.CC","name":"Concordia.county"},
"geometry":{"type": "MultiPolygon","coordinates": [[[[-58.0311,-31.7093,3.5],[-58.0129,-31.6842,3.5],[-58.0087,-31.6688,4.0],[-58.008,-31.6596,4.0],[-58.0016,-31.6453,4.0],[-57.9947,-31.6208,4.0],[-57.9819,-31.5909,4.0],[-57.9806,-31.5784,4.0],[-57.9881,-31.5612,4.0],[-58.0046,-31.5423,4.0],[-58.003,-31.5351,4.0],[-58.004,-31.529,4.0],[-58.0278,-31.5127,4.0],[-58.0649,-31.4982,4.5],[-58.0768,-31.4903,4.5],[-58.0806,-31.4848,4.75],[-58.0826,-31.4776,5.0],[-58.0834,-31.4674,5.0],[-58.082,-31.4565,5.5],[-58.079,-31.4516,5.5],[-58.0585,-31.4345,6.0],[-58.0355,-31.4219,6.5],[-58.0178,-31.4147,7.0],[-57.9955,-31.4001,7.0],[-57.9803,-31.3877,7.0],[-57.9782,-31.3817,7.0],[-57.979,-31.3797,7.0],[-57.9874,-31.3718,7.5],[-57.9914,-31.3648,7.5],[-57.9959,-31.3636,7.5],[-57.9968,-31.361,9.8769],[-57.982,-31.3359,7.5],[-57.9811,-31.3191,7.5],[-57.9574,-31.2974,8.0],[-57.9392,-31.2761,10.7835],[-57.9291,-31.2516,33.5],[-57.9093,-31.2162,33.5],[-57.9278,-31.2073,34.7476],[-57.9339,-31.2017,43.4077],[-57.9616,-31.1573,46.7354],[-57.9694,-31.1477,35.4188],[-58.0143,-31.1153,48.8097],[-58.0371,-31.1027,48.7411],[-58.0504,-31.0924,41.7903],[-58.0695,-31.0821,79.6004],[-58.1062,-31.0672,60.0976],[-58.1668,-31.0524,61.0981],[-58.2034,-31.0375,55.9026],[-58.2141,-31.0306,66.2897],[-58.2195,-31.02,67.8809],[-58.222,-30.989,68.3537],[-58.2209,-30.958,58.8358],[-58.2276,-30.9316,63.1133],[-58.2497,-30.9024,60.6326],[-58.266,-30.8893,69.9803],[-58.2715,-30.8746,70.5841],[-58.2733,-30.8552,64.0664],[-58.278,-30.8487,63.37],[-58.2854,-30.8443,63.4164],[-58.3025,-30.8398,66.417],[-58.3292,-30.8374,63.7964],[-58.3405,-30.8313,66.8309],[-58.3756,-30.825,59.3193],[-58.3845,-30.8261,60.3286],[-58.3951,-30.8332,59.6577],[-58.4032,-30.8359,57.3016],[-58.4195,-30.8492,58.5774],[-58.4212,-30.8528,59.0914],[-58.4211,-30.8606,58.5488],[-58.4283,-30.8703,58.1646],[-58.4282,-30.8741,58.7043],[-58.4259,-30.8775,58.5005],[-58.4312,-30.8919,57.6868],[-58.4467,-30.8998,55.2826],[-58.4559,-30.9174,56.8894],[-58.4567,-30.9247,56.7827],[-58.4679,-30.9313,57.5873],[-58.4698,-30.9347,58.7739],[-58.4913,-30.9774,55.8704],[-58.4875,-30.9845,55.2013],[-58.4815,-30.9904,55.7352],[-58.4823,-30.9981,55.7025],[-58.479,-31.0091,56.351],[-58.4882,-31.0226,54.2975],[-58.5105,-31.0347,55.9428],[-58.5508,-31.037,60.4977],[-58.5592,-31.0397,53.7725],[-58.5677,-31.0488,53.4852],[-58.572,-31.0598,53.3729],[-58.5721,-31.0637,53.1596],[-58.5657,-31.0781,55.6078],[-58.5557,-31.0909,57.4731],[-58.5404,-31.105,59.7835],[-58.5236,-31.128,58.7701],[-58.502,-31.1478,63.5995],[-58.4874,-31.1568,59.8471],[-58.4714,-31.1704,57.1277],[-58.4588,-31.1748,58.1413],[-58.4188,-31.1803,65.8625],[-58.4141,-31.1818,67.1353],[-58.4136,-31.1848,66.9013],[-58.4376,-31.2134,67.8242],[-58.4499,-31.2343,68.0604],[-58.4528,-31.2371,67.5138],[-58.4613,-31.2399,65.0356],[-58.4453,-31.2586,69.0051],[-58.4339,-31.2754,66.5046],[-58.4223,-31.3006,62.0655],[-58.4139,-31.3097,58.64],[-58.4071,-31.3283,68.8355],[-58.4064,-31.3359,68.8077],[-58.4128,-31.3462,66.9545],[-58.4197,-31.3512,66.6544],[-58.4321,-31.356,65.764],[-58.4455,-31.3561,62.5948],[-58.451,-31.3621,66.862],[-58.4495,-31.3736,66.5972],[-58.439,-31.4073,69.4162],[-58.4438,-31.4181,70.025],[-58.4519,-31.421,69.5571],[-58.4602,-31.4184,68.6828],[-58.4647,-31.4195,68.662],[-58.4712,-31.4246,64.7302],[-58.4888,-31.428,67.0111],[-58.496,-31.4378,68.9607],[-58.5022,-31.4564,69.4119],[-58.5045,-31.4757,67.8795],[-58.5029,-31.4873,66.2021],[-58.493899999999996,-31.5092,64.7924],[-58.4937,-31.5208,62.918],[-58.4976,-31.532,65.4348],[-58.5095,-31.5438,61.9307],[-58.5194,-31.5578,65.474],[-58.5064,-31.5547,65.0429],[-58.4524,-31.5514,48.3194],[-58.4325,-31.5605,50.2099],[-58.4226,-31.5685,50.7926],[-58.4095,-31.5717,50.2565],[-58.3959,-31.5716,43.8808],[-58.3754,-31.5797,49.0633],[-58.3655,-31.5874,54.5313],[-58.3625,-31.5948,52.0665],[-58.3532,-31.6032,48.5171],[-58.3503,-31.6106,47.2818],[-58.3451,-31.617,44.4094],[-58.313,-31.6386,39.9318],[-58.2896,-31.6503,42.2293],[-58.2726,-31.6732,48.2238],[-58.2501,-31.6922,55.0728],[-58.2453,-31.7031,43.2206],[-58.2403,-31.7095,40.2135],[-58.2217,-31.7207,45.5795],[-58.2129,-31.722,28.1701],[-58.1947,-31.7208,56.3485],[-58.1819,-31.7245,45.0601],[-58.1683,-31.7246,48.6225],[-58.1556,-31.7207,25.324],[-58.1242,-31.7052,29.9746],[-58.1159,-31.7074,29.0171],[-58.1025,-31.7083,20.403],[-58.081,-31.7025,43.0167],[-58.0644,-31.7088,37.9884],[-58.0464,-31.7076,28.9795],[-58.0311,-31.7093,3.5]]]]}}