{"type":"Feature","properties":{"GID_2":"ARG.14.17_1","GID_0":"ARG","country":"Argentina","GID_1":"ARG.14_1","state":"Misiones","NL_NAME_1":"NA","county":"VeinticincodeMayo","VARNAME_2":"AlbaPose|25deMayo","NL_NAME_2":"NA","TYPE_2":"Departamento","ENGTYPE_2":"Department","CC_2":"NA","HASC_2":"AR.MN.VM","name":"VeinticincodeMayo.county"},
"geometry":{"type": "MultiPolygon","coordinates": [[[[-54.9187,-27.3571,255.0023],[-54.9157,-27.3598,287.0121],[-54.9167,-27.3677,193.7807],[-54.9121,-27.3711,247.0498],[-54.9145,-27.3776,192.0992],[-54.9085,-27.3789,267.4226],[-54.9078,-27.3813,258.8028],[-54.9102,-27.3862,188.6026],[-54.9157,-27.3864,281.6022],[-54.9173,-27.3887,282.6016],[-54.9174,-27.3933,175.8413],[-54.9146,-27.3942,188.3889],[-54.9136,-27.3968,263.1012],[-54.9148,-27.4019,170.4235],[-54.923,-27.4015,227.3794],[-54.9241,-27.404,211.7808],[-54.9236,-27.4064,175.2136],[-54.9209,-27.4078,188.7716],[-54.9204,-27.4131,177.6017],[-54.9159,-27.416,242.8613],[-54.9152,-27.4184,187.7647],[-54.9191,-27.4223,172.7042],[-54.9178,-27.4246,172.5094],[-54.9121,-27.426,245.4705],[-54.9165,-27.4327,155.028],[-54.9213,-27.4301,155.987],[-54.924,-27.4312,173.2427],[-54.9256,-27.4391,153.8192],[-54.9294,-27.4429,169.3106],[-54.9295,-27.4482,148.8414],[-54.9272,-27.4531,143.5898],[-54.9246,-27.4546,184.3654],[-54.9196,-27.4527,261.9107],[-54.9166,-27.4534,313.4398],[-54.9154,-27.4558,320.2772],[-54.9187,-27.4634,159.5223],[-54.9178,-27.465,152.7304],[-54.9059,-27.4655,162.3741],[-54.902,-27.4692,231.1151],[-54.9025,-27.4743,136.6049],[-54.9101,-27.4784,236.4204],[-54.9125,-27.4834,133.3841],[-54.9101,-27.4848,123.7653],[-54.8954,-27.4838,189.1813],[-54.8911,-27.4876,228.9619],[-54.8828,-27.4901,151.2865],[-54.8768,-27.4991,124.794],[-54.8682,-27.501,215.8249],[-54.8665,-27.5032,203.906],[-54.8682,-27.5082,115.501],[-54.8748,-27.5135,121.8984],[-54.8738,-27.5157,117.6093],[-54.8639,-27.5218,182.7628],[-54.8607,-27.5264,154.8033],[-54.8601,-27.5317,150.6246],[-54.8658,-27.5377,122.6842],[-54.8662,-27.54,121.0887],[-54.8616,-27.5434,147.9541],[-54.8607,-27.546,130.3817],[-54.8682,-27.5489,148.3526],[-54.8799,-27.548,119.2453],[-54.8813,-27.5503,128.847],[-54.8757,-27.5564,147.9077],[-54.8611,-27.5545,144.9617],[-54.8581,-27.5549,172.1246],[-54.854,-27.5587,209.0743],[-54.8522,-27.5638,188.0007],[-54.8534,-27.5662,113.9922],[-54.8584,-27.5687,122.7065],[-54.8685,-27.5786,109.6293],[-54.8684,-27.5865,115.9306],[-54.8588,-27.5928,153.6032],[-54.8579,-27.5953,126.4633],[-54.8605,-27.6,103.6421],[-54.8656,-27.6029,107.6812],[-54.8674,-27.6079,107.5022],[-54.8624,-27.6097,125.5181],[-54.8509,-27.6065,127.5252],[-54.8483,-27.6077,118.1147],[-54.8462,-27.6201,97.0],[-54.84,-27.6105,97.5],[-54.817,-27.5399,99.5],[-54.808,-27.533,118.2578],[-54.8038,-27.5331,120.9927],[-54.7942,-27.5402,100.5],[-54.7924,-27.5541,101.0],[-54.7864,-27.5692,101.5],[-54.7881,-27.5778,102.0],[-54.7845,-27.584,112.2388],[-54.7811,-27.5865,143.3973],[-54.7751,-27.588,158.419],[-54.7639,-27.5846,103.0],[-54.7521,-27.5734,103.0],[-54.737,-27.5649,116.2048],[-54.723,-27.567,106.6923],[-54.7233,-27.5637,103.0],[-54.6884,-27.5731,103.0],[-54.6749,-27.5705,103.5],[-54.6702,-27.5682,104.2208],[-54.6683,-27.5617,104.0],[-54.6758,-27.5297,106.0],[-54.6772,-27.5134,108.8431],[-54.6747,-27.5113,128.3114],[-54.6705,-27.5107,149.1795],[-54.6652,-27.5122,184.2184],[-54.66,-27.5161,113.1327],[-54.6564,-27.5203,108.0],[-54.6479,-27.5408,108.125],[-54.6435,-27.5467,155.9506],[-54.6387,-27.5499,154.698],[-54.6238,-27.5499,214.8778],[-54.6204,-27.548,178.0842],[-54.614,-27.5383,118.5443],[-54.6051,-27.5119,118.258],[-54.591,-27.486,109.5],[-54.5842,-27.463,148.7566],[-54.5764,-27.4583,148.5325],[-54.5667,-27.4581,110.0],[-54.5594,-27.4623,112.9637],[-54.5421,-27.4861,110.0],[-54.5311,-27.5049,110.0],[-54.5269,-27.5068,110.0],[-54.5214,-27.5061,112.7341],[-54.5154,-27.5033,121.0909],[-54.4957,-27.4833,126.0345],[-54.4819,-27.4796,111.0],[-54.4581,-27.4798,111.5],[-54.4496,-27.4765,111.5],[-54.447,-27.4725,113.1342],[-54.4444,-27.4637,124.819],[-54.4478,-27.4546,112.0],[-54.4604,-27.4455,114.0655],[-54.4697,-27.4353,112.5],[-54.4716,-27.4304,113.9525],[-54.4705,-27.4291,112.5],[-54.4637,-27.4269,126.6449],[-54.4374,-27.424,113.0],[-54.4199,-27.4138,123.0449],[-54.4107,-27.4118,134.5663],[-54.4019,-27.414,138.2386],[-54.391,-27.4218,113.5],[-54.3688,-27.4594,127.7284],[-54.3645,-27.4637,172.4307],[-54.3532,-27.4675,114.0],[-54.3455,-27.4681,122.0952],[-54.3403,-27.4656,115.0],[-54.3369,-27.4613,120.411],[-54.3387,-27.4616,115.125],[-54.3362,-27.4584,115.5],[-54.3355,-27.4515,115.5],[-54.3362,-27.4429,116.0],[-54.3437,-27.4271,131.7552],[-54.3439,-27.4107,116.5],[-54.3425,-27.4077,116.5],[-54.339,-27.4055,123.0758],[-54.3345,-27.4054,128.7817],[-54.3278,-27.4084,147.9406],[-54.3202,-27.4035,172.8925],[-54.3102,-27.4093,185.2046],[-54.3014,-27.4082,180.9316],[-54.2997,-27.4063,148.7196],[-54.298,-27.3986,131.1654],[-54.2979,-27.3959,188.2964],[-54.2997,-27.3938,198.3128],[-54.3099,-27.3979,135.409],[-54.3128,-27.3933,131.1283],[-54.32,-27.3888,138.9602],[-54.3192,-27.3865,127.0322],[-54.3105,-27.3868,137.3593],[-54.2933,-27.3834,141.7896],[-54.2928,-27.3782,175.954],[-54.3165,-27.3769,141.5378],[-54.3234,-27.372,217.5185],[-54.3217,-27.3699,218.2196],[-54.3104,-27.3701,139.1383],[-54.3036,-27.3649,189.2075],[-54.3009,-27.3601,176.7486],[-54.3019,-27.3576,170.8],[-54.3135,-27.3571,173.8183],[-54.3207,-27.349,207.0249],[-54.3178,-27.3359,200.2443],[-54.3206,-27.3312,176.1239],[-54.3213,-27.3262,167.6388],[-54.3244,-27.3258,176.8684],[-54.3251,-27.3237,180.5187],[-54.3204,-27.3174,237.2678],[-54.3195,-27.3095,179.9579],[-54.3205,-27.307,213.8415],[-54.3232,-27.3058,233.0844],[-54.3319,-27.3056,252.541],[-54.3375,-27.2993,273.2385],[-54.3375,-27.2944,230.9079],[-54.3287,-27.2937,193.4674],[-54.3271,-27.2921,226.5986],[-54.3338,-27.2881,235.2412],[-54.3435,-27.2781,194.74],[-54.3523,-27.2766,200.6976],[-54.3543,-27.2747,227.1248],[-54.3555,-27.2696,266.6102],[-54.3533,-27.2647,251.3797],[-54.3548,-27.2596,223.8883],[-54.365,-27.2541,266.6332],[-54.3684,-27.2497,295.5517],[-54.3671,-27.2476,253.2954],[-54.3641,-27.2476,237.7782],[-54.3533,-27.25,246.9789],[-54.3573,-27.243,238.0119],[-54.3634,-27.2427,317.6119],[-54.3638,-27.2403,355.003],[-54.3621,-27.238,314.7439],[-54.3568,-27.2357,266.213],[-54.3582,-27.2306,266.0839],[-54.3679,-27.2294,286.5824],[-54.5862,-27.2723,201.2072],[-54.5896,-27.2651,246.0327],[-54.5953,-27.2639,185.5449],[-54.6008,-27.2583,273.5848],[-54.6005,-27.2561,234.5086],[-54.5926,-27.2581,230.8073],[-54.5929,-27.2551,210.8224],[-54.588,-27.2538,236.709],[-54.5868,-27.2512,190.6223],[-54.5957,-27.2424,246.7497],[-54.605,-27.2365,193.0244],[-54.6056,-27.2339,211.2125],[-54.5939,-27.2219,216.9939],[-54.5924,-27.2143,237.8337],[-54.5984,-27.2137,311.6971],[-54.6043,-27.2194,283.7396],[-54.6131,-27.2181,222.7236],[-54.6124,-27.2159,248.4963],[-54.6057,-27.2107,254.0421],[-54.6075,-27.2089,296.8224],[-54.6222,-27.2099,260.1659],[-54.6243,-27.2083,225.9989],[-54.6261,-27.2032,284.5289],[-54.6261,-27.2004,269.0891],[-54.6237,-27.1989,304.1202],[-54.6151,-27.201,238.5763],[-54.6134,-27.1989,238.9559],[-54.614,-27.1937,278.4348],[-54.6216,-27.1912,284.3494],[-54.6156,-27.1852,230.5919],[-54.6163,-27.1806,299.5178],[-54.6145,-27.1783,301.3316],[-54.6035,-27.1748,261.7081],[-54.6025,-27.1724,280.6523],[-54.6052,-27.1676,375.1183],[-54.6109,-27.1669,262.3897],[-54.6129,-27.1622,294.2332],[-54.7174,-27.1634,382.4164],[-54.7154,-27.1708,402.5772],[-54.7111,-27.173,412.1308],[-54.7143,-27.177,345.9151],[-54.71,-27.1804,382.7684],[-54.7104,-27.1845,320.4333],[-54.7062,-27.1881,361.4281],[-54.705,-27.1926,326.4078],[-54.7009,-27.1965,344.1329],[-54.7053,-27.1996,322.4418],[-54.706,-27.2021,315.4529],[-54.7007,-27.2044,308.6296],[-54.7021,-27.2105,299.0281],[-54.8262,-27.2377,240.4537],[-54.8266,-27.2404,218.1615],[-54.8288,-27.2417,179.8032],[-54.837,-27.2434,243.1649],[-54.8317,-27.2556,174.8529],[-54.8241,-27.254,195.7173],[-54.8214,-27.2552,219.8521],[-54.8186,-27.2599,224.0363],[-54.8197,-27.2676,166.348],[-54.8257,-27.2681,211.0514],[-54.8309,-27.2705,262.7017],[-54.8331,-27.2718,211.7613],[-54.833,-27.2747,170.8276],[-54.8279,-27.2766,173.5972],[-54.8302,-27.2781,173.7698],[-54.8298,-27.2805,170.903],[-54.8247,-27.2872,184.4192],[-54.8198,-27.2898,225.4892],[-54.8231,-27.2969,178.3373],[-54.8225,-27.2995,162.1178],[-54.8138,-27.3067,186.7755],[-54.816,-27.3081,181.54],[-54.8278,-27.3069,228.5927],[-54.8302,-27.3116,218.4133],[-54.8291,-27.3138,163.6845],[-54.8233,-27.3152,225.9372],[-54.8218,-27.3176,216.8576],[-54.8163,-27.3171,269.6025],[-54.8141,-27.3187,240.0784],[-54.8126,-27.3239,158.0636],[-54.8134,-27.3266,148.8297],[-54.8206,-27.3226,154.3303],[-54.8231,-27.3224,154.7211],[-54.8238,-27.325,154.0623],[-54.8208,-27.3295,144.9319],[-54.8131,-27.3329,156.9716],[-54.8125,-27.3353,155.9282],[-54.821,-27.3379,147.1648],[-54.8241,-27.3425,182.9117],[-54.8227,-27.3474,143.2766],[-54.8171,-27.3498,144.9665],[-54.8171,-27.3524,151.0466],[-54.8228,-27.3536,171.0413],[-54.8307,-27.35,248.1519],[-54.8361,-27.3507,183.1707],[-54.8319,-27.3663,148.2924],[-54.8235,-27.3774,135.2858],[-54.8248,-27.3793,133.526],[-54.8334,-27.3823,195.1111],[-54.9229,-27.3494,254.8659],[-54.9224,-27.3546,230.8379],[-54.9187,-27.3571,255.0023]]]]}}