{"type": "Feature","bbox": [-64.1382,-28.4354,-63.5823,-27.9835],"geometry": {"type": "MultiPolygon","coordinates": [[[[-63.7886,-28.4354,124.4114],[-63.7216,-28.3833,123.6257],[-63.7345,-28.3748,126.4127],[-63.7307,-28.3525,127.6295],[-63.6607,-28.356,126.0073],[-63.6536,-28.3142,124.9496],[-63.6181,-28.3165,123.9872],[-63.6113,-28.2802,126.8339],[-63.5868,-28.2816,125.6225],[-63.5823,-28.2604,126.8168],[-63.6059,-28.2576,129.0773],[-63.6059,-28.2494,128.4318],[-63.6185,-28.2485,127.6638],[-63.6114,-28.2146,127.4904],[-63.6445,-28.211,131.4383],[-63.6369,-28.1644,132.3481],[-63.6829,-28.1587,134.5666],[-63.6676,-28.0678,136.0336],[-63.7557,-28.0073,141.8238],[-63.7598,-28.0145,143.4793],[-63.7795,-28.0131,144.8153],[-63.7837,-28.0189,143.859],[-63.8081,-28.006,146.1602],[-63.9518,-27.9835,153.6254],[-63.9579,-28.0214,150.3103],[-63.9466,-28.0246,150.0984],[-63.9512,-28.0543,148.504],[-63.9879,-28.0501,152.9446],[-63.985,-28.022,153.7269],[-64.0688,-28.0131,159.5263],[-64.0726,-27.9882,165.3896],[-64.1358,-28.0009,162.537],[-64.1382,-28.017,159.8558],[-64.1305,-28.0247,162.1058],[-64.1256,-28.0354,161.4467],[-64.0865,-28.1288,154.0911],[-64.0846,-28.2411,143.9019],[-64.0822,-28.2556,138.4979],[-64.0836,-28.26,139.3514],[-64.0897,-28.2684,145.8483],[-64.0905,-28.2724,142.0202],[-64.0811,-28.2899,143.5381],[-64.0799,-28.3042,139.6821],[-64.0692,-28.3045,138.2171],[-64.0643,-28.3067,140.9839],[-64.0632,-28.3113,140.0895],[-64.066,-28.3206,141.8014],[-64.0666,-28.3302,140.5811],[-64.0529,-28.351,136.9317],[-64.0299,-28.3638,135.675],[-64.0197,-28.363,135.9601],[-64.0181,-28.3676,135.6075],[-64.0096,-28.3718,135.6232],[-64.0062,-28.3755,134.9032],[-63.9962,-28.3783,133.8704],[-63.9764,-28.3948,131.6742],[-63.9619,-28.4007,132.32],[-63.946,-28.4007,129.4433],[-63.9316,-28.4072,129.6629],[-63.9149,-28.4115,128.3566],[-63.8881,-28.4048,127.9789],[-63.884,-28.4052,128.6728],[-63.8706,-28.4119,127.5341],[-63.8365,-28.4107,129.2727],[-63.8329,-28.4121,128.774],[-63.827,-28.4223,127.2001],[-63.8239,-28.4246,125.7242],[-63.7939,-28.432,129.6425],[-63.7886,-28.4354,124.4114]]]]}
,"properties": {"GID_2": "ARG.22.25_1","GID_0": "ARG","country": "Argentina","GID_1": "ARG.22_1","state": "SantiagodelEstero","NL_NAME_1": "NA","county": "SanMartín","VARNAME_2": "BeraPozo","NL_NAME_2": "NA","TYPE_2": "Departamento","ENGTYPE_2": "Department","CC_2": "NA","HASC_2": "AR.SE.SM","name": "SanMartín.county","area_km2": 1819.272,"hist_schema_id": "Elevation0-9000","hist_area_km2": {"125": 834.73,"150": 982.97,"175": 1.572}}}