{"type":"Feature","properties":{"GID_2":"ARG.2.9_1","GID_0":"ARG","country":"Argentina","GID_1":"ARG.2_1","state":"Catamarca","NL_NAME_1":"NA","county":"FrayMamertoEsquiú","VARNAME_2":"SanJose","NL_NAME_2":"NA","TYPE_2":"Departamento","ENGTYPE_2":"Department","CC_2":"NA","HASC_2":"AR.CT.FE","name":"FrayMamertoEsquiú.county"},
"geometry":{"type": "MultiPolygon","coordinates": [[[[-65.8006,-28.1934,952.6609],[-65.7995,-28.2155,1244.2432],[-65.7919,-28.2401,1065.8806],[-65.7915,-28.2709,1207.3922],[-65.79,-28.2811,1141.2336],[-65.7814,-28.3,1140.6052],[-65.7758,-28.3252,1069.1345],[-65.7575,-28.3685,896.0807],[-65.7496,-28.3759,741.0198],[-65.7379,-28.376,684.8914],[-65.7326,-28.3776,642.1763],[-65.7297,-28.3819,601.4704],[-65.7265,-28.392,594.6602],[-65.726,-28.4177,545.0282],[-65.7272,-28.4257,534.8204],[-65.7075,-28.4248,532.6398],[-65.7021,-28.4266,539.3661],[-65.6884,-28.4368,530.37],[-65.6824,-28.4366,625.7842],[-65.679,-28.4329,645.1841],[-65.6714,-28.4175,638.7258],[-65.6673,-28.3974,970.5529],[-65.668,-28.3872,842.7988],[-65.6754,-28.3678,1031.0231],[-65.6769,-28.3576,962.0875],[-65.6722,-28.3378,1109.4535],[-65.6732,-28.3173,1086.9209],[-65.6785,-28.2973,1177.46],[-65.6885,-28.2789,1254.0209],[-65.6881,-28.2584,1219.3247],[-65.6913,-28.2379,1267.0415],[-65.6938,-28.2335,1220.6741],[-65.7018,-28.226,1353.4645],[-65.7041,-28.2213,1374.327],[-65.7068,-28.2112,1453.2339],[-65.707,-28.201,1396.908],[-65.7106,-28.1912,1457.7894],[-65.7186,-28.1795,1454.1375],[-65.7299,-28.1797,1587.6732],[-65.7702,-28.1825,999.0249],[-65.8006,-28.1934,952.6609]]]]}}