{"type": "Feature","bbox": [-64.2321,-28.9289,-63.5534,-28.411],"geometry": {"type": "MultiPolygon","coordinates": [[[[-63.7886,-28.4354,124.4114],[-63.7939,-28.432,129.6425],[-63.8239,-28.4246,125.7242],[-63.8278,-28.4212,127.6476],[-63.8322,-28.413,127.9498],[-63.8352,-28.411,129.5366],[-63.8695,-28.412,127.5341],[-63.9128,-28.4436,128.9014],[-64.042,-28.523,126.3219],[-64.0515,-28.523,125.9061],[-64.0728,-28.6284,119.7732],[-64.1103,-28.6232,121.1486],[-64.1222,-28.6777,121.4787],[-64.1052,-28.6743,119.8097],[-64.0862,-28.7081,117.6594],[-64.0909,-28.7142,117.7166],[-64.1394,-28.7047,117.0107],[-64.1376,-28.6991,117.5963],[-64.2012,-28.687,117.8557],[-64.2116,-28.7314,116.8292],[-64.2182,-28.7307,116.2666],[-64.2321,-28.7915,115.3646],[-64.1876,-28.7984,114.2291],[-64.1893,-28.8051,114.1985],[-64.1704,-28.8117,113.8861],[-64.16,-28.8228,113.6092],[-64.1516,-28.8371,113.3733],[-64.1432,-28.8448,113.19],[-64.127,-28.8556,112.9132],[-64.1062,-28.8629,112.5604],[-64.0732,-28.8808,111.7165],[-64.0448,-28.8904,111.5245],[-64.0205,-28.9035,110.8663],[-64.0111,-28.9068,110.6605],[-63.9929,-28.9074,110.5763],[-63.9783,-28.9021,110.4883],[-63.9558,-28.9107,110.2782],[-63.9339,-28.9289,110.391],[-63.9277,-28.9286,110.5193],[-63.9127,-28.9198,109.7955],[-63.8947,-28.9167,109.3625],[-63.8642,-28.9163,109.0768],[-63.8359,-28.9138,109.6397],[-63.7953,-28.9145,110.6528],[-63.7888,-28.9169,111.4621],[-63.6666,-28.8164,112.126],[-63.6787,-28.7991,113.5651],[-63.5762,-28.7411,107.9564],[-63.59,-28.7221,108.2824],[-63.599,-28.7259,108.3669],[-63.6232,-28.6953,109.3751],[-63.5534,-28.6424,111.4176],[-63.5566,-28.6294,110.8954],[-63.5616,-28.6235,112.19],[-63.5658,-28.6115,114.2088],[-63.5747,-28.6035,112.5404],[-63.5976,-28.5937,114.1657],[-63.6114,-28.5916,114.2889],[-63.6183,-28.5871,115.1834],[-63.6281,-28.5869,114.1755],[-63.6418,-28.5779,114.5959],[-63.6457,-28.5772,116.1129],[-63.6527,-28.5786,114.7715],[-63.6567,-28.5773,114.576],[-63.6602,-28.5736,114.643],[-63.6587,-28.5688,115.3205],[-63.667,-28.5644,115.7],[-63.6696,-28.5572,115.5287],[-63.6719,-28.5554,116.1542],[-63.6743,-28.556,115.9802],[-63.6794,-28.5657,115.9427],[-63.6816,-28.5672,116.1006],[-63.6872,-28.5551,116.5307],[-63.7049,-28.5339,118.4899],[-63.7141,-28.5338,119.7023],[-63.7141,-28.5136,117.4718],[-63.7068,-28.4989,122.2097],[-63.7104,-28.4882,122.152],[-63.7222,-28.4816,124.5804],[-63.7332,-28.4719,122.5275],[-63.7454,-28.4693,123.4371],[-63.7524,-28.4628,124.3312],[-63.7601,-28.4651,125.497],[-63.7639,-28.4635,128.8927],[-63.7668,-28.4606,121.8005],[-63.7672,-28.4568,125.8067],[-63.7735,-28.4473,122.4715],[-63.7886,-28.4354,124.4114]]]]}
,"properties": {"GID_2": "ARG.22.3_1","GID_0": "ARG","country": "Argentina","GID_1": "ARG.22_1","state": "SantiagodelEstero","NL_NAME_1": "NA","county": "Atamisqui","VARNAME_2": "VillaAtamisqui","NL_NAME_2": "NA","TYPE_2": "Departamento","ENGTYPE_2": "Department","CC_2": "NA","HASC_2": "AR.SE.AT","name": "Atamisqui.county","area_km2": 2269.248,"hist_schema_id": "Elevation0-9000","hist_area_km2": {"100": 538.051,"125": 1726.213,"150": 4.983}}}