{"type": "Feature","bbox": [-63.4276,-26.6744,-60.7941,-24.8526],"geometry": {"type": "MultiPolygon","coordinates": [[[[-60.7985,-26.4287,111.3397],[-60.7941,-26.1243,115.5248],[-61.2559,-26.1216,135.2158],[-61.2532,-25.5847,139.9431],[-61.4298,-25.5827,146.4424],[-61.4295,-25.4921,147.1957],[-62.2151,-25.4945,188.5069],[-62.2195,-24.8586,185.088],[-62.737,-24.8526,219.5586],[-63.0253,-25.1904,246.4442],[-63.4276,-25.6519,267.316],[-63.0536,-25.6549,241.1752],[-61.7123,-25.6555,160.6295],[-61.7099,-25.9614,156.8953],[-61.7124,-26.6393,168.6418],[-60.9395,-26.6481,109.1981],[-60.9389,-26.6652,107.2067],[-60.9121,-26.6744,108.742],[-60.7985,-26.4287,111.3397]]]]}
,"properties": {"GID_2": "ARG.3.1_1","GID_0": "ARG","country": "Argentina","GID_1": "ARG.3_1","state": "Chaco","NL_NAME_1": "NA","county": "AlmiranteBrown","VARNAME_2": "PampadelInfierno","NL_NAME_2": "NA","TYPE_2": "Departamento","ENGTYPE_2": "Department","CC_2": "NA","HASC_2": "AR.CC.AB","name": "AlmiranteBrown.county","area_km2": 16835.44,"hist_schema_id": "Elevation0-9000","hist_area_km2": {"100": 310.25,"125": 3557.01,"150": 4350.65,"175": 852.98,"200": 3453.02,"225": 2755.68,"250": 1424.71,"275": 131.14}}}