{"type":"Feature","properties":{"GID_2":"ARG.6.19_1","GID_0":"ARG","country":"Argentina","GID_1":"ARG.6_1","state":"Córdoba","NL_NAME_1":"NA","county":"SanJavier","VARNAME_2":"VillaDolores","NL_NAME_2":"NA","TYPE_2":"Departamento","ENGTYPE_2":"Department","CC_2":"NA","HASC_2":"AR.CB.SV","name":"SanJavier.county"},
"geometry":{"type": "MultiPolygon","coordinates": [[[[-64.9095,-31.9062,2286.5833],[-64.921,-31.9064,2341.4346],[-64.9269,-31.9048,2364.0903],[-64.9485,-31.8927,1391.1703],[-64.9603,-31.8885,1185.8906],[-64.9756,-31.8785,1027.5908],[-65.0054,-31.868,887.3133],[-65.0182,-31.8692,840.5],[-65.0546,-31.8805,728.2993],[-65.0602,-31.8831,708.0887],[-65.0786,-31.8985,761.0992],[-65.0889,-31.9052,684.1157],[-65.1194,-31.9138,552.3855],[-65.1423,-31.9239,544.5007],[-65.1562,-31.9355,546.1397],[-65.1618,-31.938,541.4192],[-65.1941,-31.9376,518.2743],[-65.2518,-31.9418,494.46],[-65.2966,-31.9383,475.9406],[-65.3081,-31.9334,471.907],[-65.3207,-31.9311,465.9501],[-65.3592,-31.9281,450.7439],[-65.3645,-31.9254,446.5873],[-65.3668,-31.9203,445.4287],[-65.3678,-31.9091,441.6191],[-65.3704,-31.9045,439.8517],[-65.3893,-31.9004,430.2637],[-65.4086,-31.9008,425.3772],[-65.4468,-31.9058,410.2209],[-65.5177,-31.9033,381.3044],[-65.5563,-31.9051,374.605],[-65.5622,-31.9044,372.8713],[-65.5644,-31.8989,372.0256],[-65.57,-31.897,369.5958],[-65.6154,-31.8964,358.8217],[-65.6203,-31.9066,359.4426],[-65.4043,-32.0066,433.0894],[-65.3199,-32.0399,462.2667],[-65.29,-32.0567,472.8632],[-65.2781,-32.0745,479.7548],[-65.2573,-32.0928,490.2068],[-65.2559,-32.0978,491.8924],[-65.2485,-32.1088,496.4122],[-65.2486,-32.1138,500.0993],[-65.2526,-32.1177,497.7421],[-65.2518,-32.1252,505.3288],[-65.2433,-32.1354,510.3492],[-65.243,-32.1405,514.0715],[-65.2397,-32.1446,516.3861],[-65.2391,-32.1548,520.6937],[-65.2351,-32.1644,521.2164],[-65.2418,-32.1917,540.9689],[-65.2424,-32.2069,537.4795],[-65.2293,-32.2197,540.8143],[-65.2246,-32.2326,544.9863],[-65.2206,-32.2365,548.5519],[-65.217,-32.2434,552.3392],[-65.2122,-32.2608,554.022],[-65.2169,-32.2756,566.3925],[-65.2131,-32.3009,575.6088],[-65.2134,-32.3213,583.2797],[-65.0728,-32.3178,737.1082],[-65.059,-32.3223,754.6183],[-65.0179,-32.3161,857.0535],[-65.007,-32.3198,904.8976],[-64.9833,-32.3222,1073.1204],[-64.9763,-32.3173,1307.4126],[-64.9646,-32.3155,1468.9697],[-64.9487,-32.3077,2159.8169],[-64.9367,-32.3148,2178.3518],[-64.9446,-32.2924,2188.5034],[-64.9529,-32.2602,2396.5522],[-64.9549,-32.2218,2281.4016],[-64.9514,-32.1889,2321.3013],[-64.9567,-32.1731,2187.1489],[-64.9563,-32.1621,2176.2766],[-64.9528,-32.1403,2446.8052],[-64.9505,-32.1354,2444.1934],[-64.9488,-32.1024,2359.5635],[-64.943,-32.0698,2392.0803],[-64.9366,-32.0485,2684.9058],[-64.9372,-32.0431,2642.999],[-64.9424,-32.0331,2135.2256],[-64.9402,-32.0222,2642.1655],[-64.9445,-32.0119,2304.6624],[-64.9451,-32.0064,2322.0903],[-64.9425,-31.9957,2462.6514],[-64.9362,-31.9861,2701.4749],[-64.9353,-31.9807,2652.9961],[-64.937,-31.9477,2337.6382],[-64.936,-31.9312,2382.2854],[-64.9333,-31.9204,2289.3616],[-64.9191,-31.9099,2345.3179],[-64.9095,-31.9062,2286.5833]]]]}}