{"type": "Feature","bbox": [-64.9567,-32.6243,-64.2269,-31.793],"geometry": {"type": "MultiPolygon","coordinates": [[[[-64.9367,-32.3148,2178.3518],[-64.9246,-32.3219,2215.6211],[-64.9189,-32.3522,2167.5391],[-64.9194,-32.3573,2167.6882],[-64.9244,-32.3692,2086.9646],[-64.9232,-32.3715,2092.5854],[-64.915,-32.3727,2067.7639],[-64.9165,-32.3779,2052.7026],[-64.9261,-32.3877,2068.9536],[-64.9313,-32.3969,2039.7234],[-64.9343,-32.412,2020.5072],[-64.9374,-32.4192,1823.8528],[-64.938,-32.4345,1989.1556],[-64.9366,-32.4394,2020.1379],[-64.9298,-32.4477,1992.7817],[-64.93,-32.4681,1918.3269],[-64.925,-32.4773,1926.385],[-64.9152,-32.4828,1945.1626],[-64.9034,-32.4845,1917.6777],[-64.8949,-32.4916,1904.5266],[-64.8978,-32.499,1927.9344],[-64.9055,-32.5019,1928.6465],[-64.916,-32.5143,1927.9567],[-64.9109,-32.5236,1907.3945],[-64.9063,-32.5269,1867.7451],[-64.8882,-32.5278,1946.4474],[-64.8867,-32.5292,1952.812],[-64.8882,-32.5395,1948.4985],[-64.8957,-32.5472,1878.0394],[-64.8997,-32.554,1825.5254],[-64.8846,-32.5667,1806.6394],[-64.8811,-32.5734,1725.4092],[-64.884,-32.5808,1771.7861],[-64.8892,-32.587,1832.756],[-64.8947,-32.5983,1857.606],[-64.7139,-32.609,1017.2523],[-64.6948,-32.6122,922.1847],[-64.6706,-32.6201,894.1159],[-64.6578,-32.6217,831.7332],[-64.6189,-32.6192,753.8215],[-64.5865,-32.6202,727.1283],[-64.5543,-32.6243,699.7982],[-64.5351,-32.6212,689.2058],[-64.5294,-32.6189,686.1761],[-64.526,-32.6082,683.2837],[-64.5129,-32.5432,728.8953],[-64.4928,-32.5086,694.7991],[-64.4868,-32.4871,673.9617],[-64.4742,-32.4744,665.1318],[-64.4689,-32.4717,662.1575],[-64.4556,-32.4717,657.8218],[-64.4495,-32.4701,654.9683],[-64.4391,-32.4634,646.2229],[-64.4361,-32.4586,641.7738],[-64.4328,-32.4479,637.3907],[-64.4304,-32.4315,631.9991],[-64.4322,-32.4206,628.3175],[-64.4363,-32.4102,623.0968],[-64.4363,-32.4047,621.5396],[-64.4339,-32.3938,613.4207],[-64.4308,-32.3888,608.6738],[-64.4185,-32.3868,606.1309],[-64.3125,-32.3971,647.9089],[-64.3046,-32.3749,595.699],[-64.2402,-32.3872,541.3199],[-64.2382,-32.3261,511.9508],[-64.2638,-32.319,525.0117],[-64.28,-32.3195,537.8317],[-64.2855,-32.1881,417.1736],[-64.2705,-32.1765,406.3029],[-64.2702,-32.116,464.9135],[-64.2616,-32.0726,493.1311],[-64.2573,-32.0623,504.1783],[-64.2538,-32.046,517.9734],[-64.2566,-32.0242,534.4146],[-64.2561,-32.0132,519.9857],[-64.2481,-31.9865,499.3975],[-64.2336,-31.956,493.2822],[-64.2271,-31.9346,496.2281],[-64.2269,-31.9161,481.8035],[-64.2829,-31.9175,507.2726],[-64.2846,-31.9423,541.7017],[-64.3,-31.9528,557.0379],[-64.3004,-31.8383,496.9198],[-64.3296,-31.8378,472.6926],[-64.3336,-31.793,436.5574],[-64.3567,-31.8121,450.2168],[-64.381,-31.8195,468.4523],[-64.3856,-31.8234,461.0992],[-64.3886,-31.8282,484.3541],[-64.3896,-31.8337,475.115],[-64.3892,-31.8447,458.6296],[-64.3931,-31.8485,469.6474],[-64.412,-31.8498,479.4301],[-64.4197,-31.8573,498.6256],[-64.4261,-31.8567,484.6672],[-64.4368,-31.8627,621.9371],[-64.4485,-31.8582,661.4716],[-64.4533,-31.8546,594.7109],[-64.4553,-31.8493,628.3454],[-64.4604,-31.8475,611.59],[-64.465,-31.8518,577.2723],[-64.4773,-31.8548,825.7984],[-64.4835,-31.8555,745.6636],[-64.4958,-31.8529,792.9844],[-64.4975,-31.8475,689.1407],[-64.4967,-31.8256,758.9689],[-64.498,-31.8202,864.6993],[-64.5149,-31.8124,764.5],[-64.5213,-31.8114,764.5],[-64.5258,-31.8076,764.5],[-64.5274,-31.8023,764.5],[-64.5318,-31.7982,764.5],[-64.5374,-31.7994,764.5],[-64.5444,-31.8143,766.7319],[-64.5495,-31.817,764.5],[-64.5624,-31.8169,779.4828],[-64.5739,-31.8225,811.4966],[-64.5789,-31.8266,788.4808],[-64.5671,-31.8283,765.1365],[-64.5607,-31.8269,784.8948],[-64.5572,-31.8315,786.0955],[-64.5567,-31.848,789.6325],[-64.5588,-31.8588,780.7079],[-64.5638,-31.8689,793.632],[-64.5647,-31.8743,788.9368],[-64.5714,-31.8836,786.1906],[-64.5817,-31.8902,825.1627],[-64.5936,-31.8945,857.3906],[-64.6386,-31.8948,931.4395],[-64.6636,-31.8996,1071.5674],[-64.7084,-31.8947,1211.2139],[-64.7599,-31.8931,1300.2009],[-64.7783,-31.8978,1424.5262],[-64.7911,-31.8991,1538.677],[-64.8081,-31.8914,1598.0635],[-64.8274,-31.89,1858.4236],[-64.84,-31.892,1983.6932],[-64.8623,-31.9031,2151.845],[-64.8745,-31.9068,2159.5408],[-64.8849,-31.9132,2175.9692],[-64.8912,-31.9134,2192.0493],[-64.8956,-31.9094,2248.6006],[-64.908,-31.9062,2278.5369],[-64.9191,-31.9099,2345.3179],[-64.9333,-31.9204,2289.3616],[-64.936,-31.9312,2382.2854],[-64.937,-31.9477,2337.6382],[-64.9353,-31.9807,2652.9961],[-64.9362,-31.9861,2701.4749],[-64.9425,-31.9957,2462.6514],[-64.9451,-32.0064,2322.0903],[-64.9445,-32.0119,2304.6624],[-64.9402,-32.0222,2642.1655],[-64.9424,-32.0331,2135.2256],[-64.9372,-32.0431,2642.999],[-64.9366,-32.0485,2684.9058],[-64.943,-32.0698,2392.0803],[-64.9488,-32.1024,2359.5635],[-64.9505,-32.1354,2444.1934],[-64.9528,-32.1403,2446.8052],[-64.9567,-32.1676,2085.9641],[-64.9567,-32.1731,2187.1489],[-64.9514,-32.1889,2321.3013],[-64.9549,-32.2218,2281.4016],[-64.9529,-32.2602,2396.5522],[-64.9446,-32.2924,2188.5034],[-64.9367,-32.3148,2178.3518]]]]}
,"properties": {"GID_2": "ARG.6.1_1","GID_0": "ARG","country": "Argentina","GID_1": "ARG.6_1","state": "Córdoba","NL_NAME_1": "NA","county": "Calamuchita","VARNAME_2": "SanAgustin","NL_NAME_2": "NA","TYPE_2": "Departamento","ENGTYPE_2": "Department","CC_2": "NA","HASC_2": "AR.CB.CA","name": "Calamuchita.county","area_km2": 4669.349,"hist_schema_id": "Elevation0-9000","hist_area_km2": {"400": 5.06,"425": 18.704,"450": 53.717,"475": 72.895,"500": 116.593,"525": 231.302,"550": 247.928,"575": 206.453,"600": 203.219,"625": 187.399,"650": 166.461,"675": 139.812,"700": 136.959,"725": 126.741,"750": 133.593,"775": 137.852,"800": 119.953,"825": 108.489,"850": 95.527,"875": 91.545,"900": 90.178,"925": 89.683,"950": 88.337,"975": 87.446,"1000": 87.078,"1025": 86.192,"1050": 83.192,"1075": 83.951,"1100": 82.463,"1125": 81.51,"1150": 71.288,"1175": 57.437,"1200": 48.909,"1225": 41.327,"1250": 39.176,"1275": 35.839,"1300": 32.435,"1325": 32.431,"1350": 29.687,"1375": 26.259,"1400": 24.987,"1425": 23.533,"1450": 22.53,"1475": 21.471,"1500": 21.149,"1525": 22.188,"1550": 21.669,"1575": 20.233,"1600": 19.429,"1625": 19.105,"1650": 18.8,"1675": 18.352,"1700": 17.062,"1725": 16.937,"1750": 17.814,"1775": 17.708,"1800": 19.322,"1825": 20.433,"1850": 23.123,"1875": 24.175,"1900": 26.717,"1925": 29.729,"1950": 28.493,"1975": 23.451,"2000": 21.848,"2025": 19.198,"2050": 19.055,"2075": 18.927,"2100": 19.004,"2125": 17.271,"2150": 15.855,"2175": 14.289,"2200": 13.356,"2225": 11.06,"2250": 10.432,"2275": 9.393,"2300": 11.082,"2325": 10.687,"2350": 7.115,"2375": 6.362,"2400": 6.47,"2425": 6.291,"2450": 7.099,"2475": 6.631,"2500": 6.702,"2525": 4.151,"2550": 3.02,"2575": 2.409,"2600": 2.462,"2625": 2.606,"2650": 1.797,"2675": 0.953,"2700": 0.18,"2725": 0.108,"2750": 0.108}}}