{"type":"Feature","properties":{"GID_2":"ARG.1.63_1","GID_0":"ARG","country":"Argentina","GID_1":"ARG.1_1","state":"BuenosAires","NL_NAME_1":"NA","county":"LaPlata","VARNAME_2":"NA","NL_NAME_2":"NA","TYPE_2":"Partido","ENGTYPE_2":"Part","CC_2":"NA","HASC_2":"AR.BA.LT","name":"LaPlata.county"},
"geometry":{"type": "MultiPolygon","coordinates": [[[[-58.2124,-34.954,26.4774],[-58.2491,-34.9855,24.2677],[-58.2481,-34.9885,23.0854],[-58.2709,-35.0029,23.2185],[-58.2787,-35.0107,22.6843],[-58.2796,-35.0093,23.0177],[-58.2925,-35.0191,20.4509],[-58.2518,-35.0514,18.99],[-58.162,-34.9729,25.81],[-58.1185,-35.0019,29.0251],[-58.1737,-35.0517,19.4215],[-58.1327,-35.084,19.4675],[-58.1347,-35.0874,19.3863],[-58.1067,-35.1092,16.4538],[-58.0981,-35.1021,17.66],[-58.0165,-35.1653,19.3062],[-58.0721,-35.2152,15.3269],[-58.0529,-35.2288,16.5958],[-57.8289,-35.0337,9.3166],[-57.8249,-35.0348,7.194],[-57.7567,-34.9745,4.9714],[-57.7778,-34.9581,5.3974],[-57.8012,-34.9636,6.037],[-57.8407,-34.953,8.6121],[-57.8539,-34.9439,5.8049],[-57.8639,-34.9394,7.9027],[-57.8873,-34.934,7.7055],[-57.8997,-34.9288,7.0137],[-57.9353,-34.9009,9.0585],[-57.9786,-34.8724,3.5062],[-57.9865,-34.8793,3.8546],[-57.9948,-34.8792,4.4516],[-58.0002,-34.8754,4.446],[-57.999,-34.8722,3.0632],[-58.0854,-34.8388,8.8588],[-58.1494,-34.8904,24.8685],[-58.1481,-34.8913,22.3006],[-58.2095,-34.9443,27.0528],[-58.2051,-34.9477,26.5408],[-58.2124,-34.954,26.4774]]]]}}