{"type":"Feature","properties":{"GID_2":"ARG.22.1_1","GID_0":"ARG","country":"Argentina","GID_1":"ARG.22_1","state":"SantiagodelEstero","NL_NAME_1":"NA","county":"Aguirre","VARNAME_2":"Pinto","NL_NAME_2":"NA","TYPE_2":"Departamento","ENGTYPE_2":"Department","CC_2":"NA","HASC_2":"AR.SE.AG","name":"Aguirre.county"},
"geometry":{"type": "MultiPolygon","coordinates": [[[[-61.9592,-29.4486,73.8146],[-61.9716,-29.4513,73.8307],[-61.9827,-29.4508,73.87],[-61.9878,-29.4489,73.9445],[-61.9923,-29.4461,74.0645],[-62.0035,-29.4295,74.4908],[-62.0111,-29.4224,74.5995],[-62.0219,-29.4238,74.5077],[-62.0274,-29.4223,74.4561],[-62.0314,-29.4088,75.7935],[-62.03,-29.4044,75.7266],[-62.0409,-29.4052,77.2309],[-62.046,-29.3917,76.2157],[-62.0571,-29.3903,75.4983],[-62.0727,-29.3852,76.2585],[-62.089,-29.3855,75.8318],[-62.0942,-29.3835,76.0135],[-62.1216,-29.3818,76.6657],[-62.1233,-29.3773,76.8243],[-62.1339,-29.3765,77.0977],[-62.139,-29.3779,78.3499],[-62.1564,-29.3899,77.2497],[-62.166,-29.3945,78.5064],[-62.1713,-29.3929,78.8321],[-62.2043,-29.3972,77.5545],[-62.2091,-29.3959,77.9252],[-62.2166,-29.3885,78.3619],[-62.2218,-29.3872,78.6608],[-62.2272,-29.3887,79.1784],[-62.2356,-29.3947,79.6928],[-62.2606,-29.3885,79.2094],[-62.2657,-29.3859,79.3922],[-62.2622,-29.3834,79.4998],[-62.257,-29.3823,79.6571],[-62.2615,-29.3802,79.5699],[-62.2727,-29.38,79.0462],[-62.2775,-29.378,78.9433],[-62.285,-29.371,79.3142],[-62.2876,-29.3666,79.4543],[-62.2969,-29.364,79.5961],[-62.3004,-29.3548,80.0619],[-62.2994,-29.3499,80.3055],[-62.3008,-29.3455,80.161],[-62.311,-29.3432,80.6095],[-62.3127,-29.3391,81.1709],[-62.3025,-29.3352,81.1097],[-62.292,-29.3254,82.2999],[-62.2951,-29.321,82.7174],[-62.2958,-29.3164,82.8959],[-62.3015,-29.3167,80.4439],[-62.3059,-29.3149,80.8308],[-62.3102,-29.3057,81.2038],[-62.3168,-29.2979,82.0552],[-62.3216,-29.2958,81.8178],[-62.3327,-29.2962,80.9675],[-62.3337,-29.2918,81.1714],[-62.3386,-29.2894,83.2491],[-62.3495,-29.2881,82.38],[-62.3546,-29.2859,81.782],[-62.3573,-29.2818,81.3137],[-62.3566,-29.2771,81.7848],[-62.3529,-29.2732,82.6455],[-62.3567,-29.2706,82.8131],[-62.3677,-29.2684,82.7021],[-62.3731,-29.2696,82.7206],[-62.384,-29.2682,81.8009],[-62.3847,-29.2636,81.5231],[-62.3877,-29.2597,81.9016],[-62.3813,-29.2519,83.0698],[-62.3805,-29.2374,83.0585],[-62.4067,-29.2319,82.8874],[-62.4195,-29.2168,83.7261],[-62.4248,-29.2182,83.5626],[-62.4328,-29.2109,84.4518],[-62.4335,-29.207,84.521],[-62.4283,-29.2043,84.6201],[-62.427,-29.2007,84.9649],[-62.4631,-29.1895,85.0439],[-62.469,-29.1824,85.2657],[-62.4743,-29.1826,85.901],[-62.4888,-29.1682,85.1335],[-62.5108,-29.1691,85.4103],[-62.515,-29.1657,85.4219],[-62.5197,-29.1641,86.0564],[-62.5251,-29.1652,85.8419],[-62.5297,-29.162,86.6841],[-62.5344,-29.1627,86.7956],[-62.5396,-29.1712,86.1353],[-62.545,-29.1702,85.8196],[-62.559,-29.1623,86.8626],[-62.5613,-29.1581,87.7949],[-62.5719,-29.1576,86.6732],[-62.5747,-29.1495,86.4851],[-62.5904,-29.146,87.3645],[-62.5894,-29.142,87.7243],[-62.5836,-29.1403,88.7955],[-62.5878,-29.1388,88.2413],[-62.6041,-29.1384,88.5248],[-62.6088,-29.1358,87.7055],[-62.61,-29.1263,89.4018],[-62.6134,-29.1225,88.5556],[-62.628,-29.1158,88.2129],[-62.6367,-29.1157,90.8928],[-62.6388,-29.1116,90.5019],[-62.6446,-29.1115,89.9224],[-62.6492,-29.1092,90.4241],[-62.6497,-29.1044,90.039],[-62.657,-29.0993,89.0776],[-62.6582,-29.0945,91.6791],[-62.656,-29.0851,90.7305],[-62.653,-29.0816,89.8469],[-62.6473,-29.0812,91.7688],[-62.6448,-29.0773,88.9733],[-62.6474,-29.0683,89.0062],[-62.6458,-29.0609,88.1192],[-62.6516,-29.0621,89.0393],[-62.654,-29.0589,89.2937],[-62.6599,-29.0596,90.5812],[-62.6629,-29.0559,91.6166],[-62.6616,-29.0512,89.8293],[-62.6559,-29.0511,89.8594],[-62.653,-29.0486,89.9232],[-62.6552,-29.0439,90.3511],[-62.666,-29.0424,89.5775],[-62.675,-29.0372,89.7176],[-62.6767,-29.0228,90.3217],[-62.6829,-29.0156,90.6696],[-62.6772,-28.9969,89.0],[-62.6786,-28.992,93.0403],[-62.6831,-28.9916,90.8632],[-62.6854,-28.9872,91.1371],[-62.6829,-28.983,91.0766],[-62.6679,-28.9768,91.548],[-62.6653,-28.9732,91.1266],[-62.6641,-28.9682,89.9857],[-62.6664,-28.9647,92.9548],[-62.6718,-28.9631,90.4084],[-62.6792,-28.9705,89.8292],[-62.6818,-28.9672,93.3098],[-62.6821,-28.9575,93.0908],[-62.6776,-28.9487,94.1359],[-62.6723,-28.9498,94.2633],[-62.6691,-28.9474,90.5837],[-62.6686,-28.9424,92.3497],[-62.6711,-28.9377,91.1751],[-62.6619,-28.9337,91.7637],[-62.6565,-28.9208,92.395],[-62.657,-28.9063,92.7967],[-62.6515,-28.898,91.0],[-62.6514,-28.8933,92.614],[-62.6753,-28.882,95.8718],[-62.6782,-28.878,95.4317],[-62.68,-28.8734,95.357],[-62.6765,-28.8786,95.8204],[-62.6815,-28.8639,96.0215],[-62.6849,-28.8585,95.6905],[-62.9148,-28.8588,99.3123],[-62.9159,-28.903,96.6323],[-63.0941,-28.9036,98.0442],[-63.0947,-28.9875,94.3901],[-63.0049,-28.9882,95.6234],[-63.0058,-29.2203,89.9066],[-62.9148,-29.2193,89.0228],[-62.9165,-29.3045,87.6261],[-62.8133,-29.304,87.5266],[-62.8128,-29.3224,86.9397],[-62.765,-29.3229,87.7604],[-62.7651,-29.3828,85.8605],[-62.6269,-29.3826,85.4613],[-62.6266,-29.616,80.099],[-62.4459,-29.6144,77.3129],[-62.451,-29.6834,76.0763],[-61.9976,-29.6789,82.34],[-61.9592,-29.4486,73.8146]]]]}}