{"type":"Feature","properties":{"GID_2":"ARG.4.7_1","GID_0":"ARG","country":"Argentina","GID_1":"ARG.4_1","state":"Chubut","NL_NAME_1":"NA","county":"Gastre","VARNAME_2":"NA","NL_NAME_2":"NA","TYPE_2":"Departamento","ENGTYPE_2":"Department","CC_2":"NA","HASC_2":"AR.CH.GS","name":"Gastre.county"},
"geometry":{"type": "MultiPolygon","coordinates": [[[[-69.5053,-42.7968,800.8283],[-69.5585,-43.332,1261.4893],[-67.7676,-43.3388,348.8352],[-67.7739,-42.8826,668.1251],[-68.3816,-42.8828,1205.1038],[-68.3894,-42.0055,1315.5164],[-68.956,-42.0073,1354.9064],[-69.4284,-42.0066,1264.9578],[-69.5053,-42.7968,800.8283]]]]}}