{"type":"Feature","properties":{"featurecla":"River","scalerank":6,"rivernum":293,"dissolve":"293River","name":"Uruguay2","name_alt":null,"note":null,"min_zoom":5.0,"strokeweig":0.25,"name_en":"Uruguay","min_label":6.0},
"geometry":{"type": "LineString","coordinates": [[-55.582373046874991,-28.12102630000588,63.5],[-55.60546875,-28.11687590938088,61.0],[-55.617431640625,-28.129424737505886,61.0],[-55.624560546874989,-28.14617278438088,61.0],[-55.63330078125,-28.15447356563088,67.9822],[-55.642675781249991,-28.160186456255886,78.6859],[-55.684814453125,-28.196123956255889,81.2045],[-55.748632812499991,-28.215655206255889,73.0464],[-55.773242187499989,-28.23186614375588,70.7586],[-55.767333984375,-28.25750090938088,75.2101],[-55.755297851562489,-28.26555755000588,85.9376],[-55.715429687499991,-28.281768487505886,87.287],[-55.702197265624989,-28.28484465938088,92.6593],[-55.68798828125,-28.289873956255889,96.3323],[-55.677978515625,-28.301788018755886,89.0311],[-55.664306640625,-28.326495050005889,78.3154],[-55.678076171874991,-28.37371184688088,58.7485],[-55.684814453125,-28.38787200313088,60.481],[-55.694921874999991,-28.40007903438088,65.629],[-55.706396484374991,-28.40764739375588,97.8887],[-55.715673828124991,-28.40447356563088,81.4162],[-55.719531249999989,-28.38445403438088,78.3315],[-55.7353515625,-28.365752862505886,60.727],[-55.771899414062489,-28.357452081255886,59.8093],[-55.813232421875,-28.35320403438088,62.275],[-55.843066406249989,-28.346221612505886,59.7461],[-55.888110351562489,-28.36321380000588,67.9299],[-55.906298828124989,-28.37786223750588,75.4869],[-55.901123046875,-28.39837005000588,53.0],[-55.897387695312489,-28.406768487505886,65.5347],[-55.897631835937489,-28.45330169063088,71.109],[-55.898779296874991,-28.46062590938088,87.6068],[-55.902758789062489,-28.46502044063088,77.27],[-55.911376953125,-28.470538018755889,58.4852],[-55.919848632812489,-28.47332122188088,58.479],[-55.952319335937489,-28.476592706255886,56.4997],[-55.979833984374991,-28.48919036250588,57.9819],[-56.012304687499991,-28.496416925005889,56.9351],[-56.022143554687489,-28.510284112505886,65.2898],[-56.023681640625,-28.52825286250588,51.5],[-56.021240234375,-28.546221612505889,51.5],[-56.022558593749991,-28.58562590938088,68.7899],[-56.041552734374989,-28.608916925005886,57.3843],[-56.103759765625,-28.647979425005886,55.6806],[-56.185400390624991,-28.74407317500588,54.8681],[-56.21923828125,-28.76409270625588,53.3157],[-56.266162109374989,-28.77190520625588,54.6102],[-56.286914062499989,-28.77996184688088,55.0461],[-56.295507812499991,-28.795733331255889,59.9744],[-56.3017578125,-28.88128020625588,48.4358],[-56.323779296874989,-28.916338800005889,53.9059],[-56.392333984375,-28.952178643755886,52.2373],[-56.41162109375,-28.99114348750588,56.4668],[-56.412646484374989,-29.031768487505886,49.212],[-56.41650390625,-29.05120208125588,52.8216],[-56.4287109375,-29.06975676875588,48.3181],[-56.445068359375,-29.07805755000588,47.0],[-56.514013671874991,-29.09368255000588,46.0],[-56.548999023437489,-29.109893487505886,52.2931],[-56.5849609375,-29.13225676875588,49.7859],[-56.617968749999989,-29.16082122188088,51.3992],[-56.644384765624991,-29.196123956255889,45.5],[-56.651416015624989,-29.20891692500588,45.5],[-56.657031249999989,-29.22332122188088,45.5],[-56.658007812499989,-29.237823175005886,45.5],[-56.651220703124991,-29.251299737505889,45.5],[-56.661376953125,-29.270830987505889,49.845],[-56.677783203124989,-29.313311456255889,45.0],[-56.689379882812489,-29.32952239375588,45.0],[-56.706225585937489,-29.34368255000588,47.4267],[-56.718847656249991,-29.35149505000588,50.7833],[-56.754248046874991,-29.36736419063088,45.0],[-56.763427734375,-29.37273528438088,45.0],[-56.770605468749991,-29.378936456255886,45.0],[-56.776464843749991,-29.38640715938088,45.0],[-56.781542968749989,-29.395342706255889,48.42],[-56.783300781249991,-29.405303643755886,45.0],[-56.782763671874989,-29.416534112505886,45.0],[-56.7841796875,-29.42571380000588,45.53],[-56.800537109375,-29.433916925005889,61.0749],[-56.80830078125,-29.444659112505889,55.5716],[-56.813647460937489,-29.45696380000588,60.4876],[-56.815722656249989,-29.46697356563088,58.7297],[-56.819726562499994,-29.474932550005889,62.9217],[-56.89794921875,-29.53557708125588,43.0],[-56.905078124999989,-29.54949309688088,55.975],[-56.913134765624989,-29.558428643755889,47.5652],[-56.952392578125,-29.586260675005889,42.375],[-56.966552734375,-29.60076262813088,42.0],[-56.980126953124994,-29.634795831255886,47.8681],[-57.009570312499989,-29.66253020625588,42.0],[-57.014257812499991,-29.67302825313088,42.0],[-57.0216796875,-29.68328215938088,42.0],[-57.094897460937489,-29.75188567500588,51.0274],[-57.113623046874991,-29.76604583125588,42.0],[-57.134082031249989,-29.772002862505886,42.0],[-57.17822265625,-29.772784112505889,52.6601],[-57.220385742187489,-29.77825286250588,41.5],[-57.26328125,-29.792510675005886,48.0763],[-57.292285156249989,-29.814971612505886,45.9422],[-57.30927734375,-29.84832122188088,41.0],[-57.319506835937489,-29.965362237505886,48.3581],[-57.325927734375,-29.98088958125588,40.0],[-57.412158203124989,-30.039580987505886,39.0],[-57.506884765624989,-30.14421965938088,37.5],[-57.549365234374989,-30.16985442500588,44.0085],[-57.569384765624989,-30.17644622188088,39.2137],[-57.612402343749991,-30.182940362505889,42.589],[-57.634692382812489,-30.18352630000588,40.9468],[-57.643164062499991,-30.19304778438088,38.1845],[-57.638720703124989,-30.214873956255886,36.0],[-57.624438476562489,-30.25798919063088,44.903],[-57.631762695312489,-30.296905206255886,35.0],[-57.653417968749991,-30.32903411250588,49.4534],[-57.850341796875,-30.485186456255889,34.7832],[-57.877783203124991,-30.51482512813088,33.5],[-57.890478515624991,-30.55071380000588,33.5],[-57.886474609375,-30.58977630000588,33.5],[-57.864013671875,-30.62859465938088,37.1974],[-57.849291992187489,-30.64788176875588,33.5],[-57.826953124999989,-30.68962981563088,55.1392],[-57.818530273437489,-30.711944268755886,40.4472]]}}