{"type": "Feature","bbox": [-65.8641,-25.8892,-65.1614,-25.173],"geometry": {"type": "MultiPolygon","coordinates": [[[[-65.7161,-25.8822,1461.1744],[-65.7072,-25.8378,1398.8035],[-65.6976,-25.8166,1488.3293],[-65.6932,-25.7998,1461.3223],[-65.6915,-25.7827,1463.2396],[-65.6937,-25.754,1495.8048],[-65.6933,-25.7253,1333.9373],[-65.6877,-25.7088,1551.0995],[-65.6687,-25.6725,1330.8644],[-65.6561,-25.6525,1558.0186],[-65.6516,-25.6484,1485.9524],[-65.646,-25.6462,1541.0634],[-65.6333,-25.648,1920.6106],[-65.6276,-25.6454,1691.0323],[-65.6134,-25.634,1200.4703],[-65.5924,-25.6125,1201.4207],[-65.5729,-25.5978,1164.3954],[-65.5565,-25.5732,1167.174],[-65.5414,-25.5548,1141.8938],[-65.5309,-25.534,1100.1638],[-65.5265,-25.5298,1095.1105],[-65.5175,-25.5147,1086.4669],[-65.499,-25.4914,1069.874],[-65.4959,-25.4804,1066.0343],[-65.4851,-25.4742,1060.6691],[-65.4726,-25.4613,1058.2688],[-65.4683,-25.4505,1049.7183],[-65.4642,-25.4163,1037.2931],[-65.4563,-25.3945,1032.0],[-65.4454,-25.3737,1032.0],[-65.4364,-25.3228,1032.0],[-65.432,-25.312,1032.0],[-65.4164,-25.2939,1032.0],[-65.4072,-25.286,1032.0],[-65.396,-25.2799,1032.0],[-65.3912,-25.2817,1032.0],[-65.3787,-25.2951,1202.8851],[-65.3433,-25.3078,1222.6704],[-65.3429,-25.3134,1525.7994],[-65.3462,-25.3245,1563.1813],[-65.3462,-25.3475,1662.7223],[-65.3411,-25.3757,1741.1625],[-65.3358,-25.3923,1644.0967],[-65.3381,-25.4093,1650.0645],[-65.3378,-25.4264,1577.74],[-65.3371,-25.4323,1576.2942],[-65.3337,-25.4369,1587.7399],[-65.3278,-25.4388,1472.3549],[-65.3044,-25.4303,1722.4933],[-65.2684,-25.4199,1350.5337],[-65.2496,-25.4173,1906.8359],[-65.2199,-25.4077,2556.1748],[-65.1925,-25.3933,2726.5347],[-65.1741,-25.3775,2563.2676],[-65.1664,-25.3684,2749.0107],[-65.1614,-25.3579,2330.1802],[-65.1619,-25.3464,2701.5908],[-65.1684,-25.3303,2182.5327],[-65.1707,-25.319,2082.3188],[-65.1793,-25.3036,1597.533],[-65.1949,-25.294,1277.1708],[-65.2231,-25.2813,1070.6628],[-65.2345,-25.2674,906.3595],[-65.2403,-25.2684,954.8669],[-65.2457,-25.2714,946.5444],[-65.2583,-25.2722,1402.701],[-65.282,-25.2812,1359.0472],[-65.2854,-25.2804,1316.1221],[-65.2857,-25.2742,1593.3746],[-65.2755,-25.2351,1593.2013],[-65.2791,-25.2117,1914.2731],[-65.3027,-25.2174,1527.7776],[-65.3531,-25.2173,1292.2908],[-65.3718,-25.2146,1346.3534],[-65.3816,-25.2077,1262.905],[-65.3846,-25.1852,1262.562],[-65.3932,-25.1769,1176.4473],[-65.4051,-25.173,1082.5188],[-65.4111,-25.1732,1131.6213],[-65.4226,-25.187,1065.8871],[-65.4282,-25.1896,1032.0],[-65.4345,-25.1899,1032.0],[-65.4462,-25.1857,1092.2224],[-65.4588,-25.1862,1093.6927],[-65.4826,-25.1937,1146.0892],[-65.5071,-25.1993,1226.4944],[-65.5308,-25.2075,1368.3162],[-65.5431,-25.2095,1394.8873],[-65.5555,-25.2067,1610.6898],[-65.5649,-25.1992,1767.0826],[-65.5683,-25.1945,1875.6339],[-65.5735,-25.1772,1994.0203],[-65.5764,-25.1736,2137.7781],[-65.5909,-25.1856,2212.4492],[-65.602,-25.191,1954.927],[-65.6058,-25.1955,2064.0818],[-65.6075,-25.2014,2254.1968],[-65.6111,-25.2049,2144.7634],[-65.6175,-25.2035,2267.6997],[-65.6274,-25.1963,2319.5591],[-65.6329,-25.1943,2110.9426],[-65.6454,-25.1935,1926.3591],[-65.6733,-25.1802,2377.4019],[-65.7046,-25.1755,2328.2375],[-65.7107,-25.1768,2736.5413],[-65.7083,-25.1818,2721.7971],[-65.7079,-25.1875,2563.0166],[-65.7112,-25.2217,2905.2725],[-65.7111,-25.2389,2571.8992],[-65.7208,-25.2601,2555.4146],[-65.7276,-25.2821,2883.1311],[-65.738,-25.303,3058.6438],[-65.7452,-25.3125,2689.4346],[-65.755,-25.32,2652.1216],[-65.7605,-25.3189,2629.637],[-65.7835,-25.2991,2420.3708],[-65.7895,-25.2974,2564.2256],[-65.8085,-25.2977,2906.6189],[-65.823,-25.3015,2863.1428],[-65.8122,-25.3253,2743.991],[-65.7962,-25.35,2714.7874],[-65.796,-25.3673,2739.9624],[-65.7924,-25.3783,2764.5991],[-65.7871,-25.3811,2818.3188],[-65.7744,-25.3837,2952.8789],[-65.7744,-25.3884,3134.2039],[-65.7815,-25.4048,2988.8706],[-65.7867,-25.4273,2951.9023],[-65.7899,-25.4501,2725.9819],[-65.7887,-25.4615,2851.1001],[-65.7785,-25.4887,2526.1379],[-65.767,-25.5092,2510.8774],[-65.7563,-25.5362,2660.6318],[-65.7542,-25.5474,2853.9717],[-65.7491,-25.5575,2937.7012],[-65.7593,-25.5787,2661.2502],[-65.763,-25.5833,2854.5239],[-65.7734,-25.5895,3037.0566],[-65.7756,-25.595,2844.3772],[-65.7733,-25.606,2648.5444],[-65.759,-25.6317,2871.4231],[-65.7581,-25.6374,2683.7844],[-65.7647,-25.6534,2804.3604],[-65.7645,-25.6648,3034.5574],[-65.7665,-25.6703,2844.3159],[-65.7702,-25.6748,2668.29],[-65.7823,-25.6714,2568.1719],[-65.7883,-25.6715,2664.3162],[-65.8044,-25.6892,2671.3992],[-65.8374,-25.7063,2174.9409],[-65.8423,-25.7169,2119.4556],[-65.8479,-25.751,2033.7112],[-65.8554,-25.7669,1998.4958],[-65.8627,-25.7764,2046.7788],[-65.8641,-25.7816,2139.1733],[-65.8542,-25.7889,2059.814],[-65.8238,-25.7974,2512.8235],[-65.807,-25.8053,2841.9407],[-65.7885,-25.8103,2682.7986],[-65.7983,-25.8311,2712.8237],[-65.8009,-25.8654,2891.7732],[-65.7995,-25.8738,2818.0312],[-65.7945,-25.8789,2547.9185],[-65.7796,-25.8892,2139.1118],[-65.7643,-25.8792,1902.0797],[-65.7584,-25.8771,1841.3208],[-65.7526,-25.8786,1747.6223],[-65.7478,-25.8828,1596.4407],[-65.7373,-25.8772,1621.2686],[-65.7161,-25.8822,1461.1744]]]]}
,"properties": {"GID_2": "ARG.17.14_1","GID_0": "ARG","country": "Argentina","GID_1": "ARG.17_1","state": "Salta","NL_NAME_1": "NA","county": "LaViña","VARNAME_2": "NA","NL_NAME_2": "NA","TYPE_2": "Departamento","ENGTYPE_2": "Department","CC_2": "NA","HASC_2": "AR.SA.LV","name": "LaViña.county","area_km2": 2141.212,"hist_schema_id": "Elevation0-9000","hist_area_km2": {"900": 0.268,"925": 3.7,"950": 4.294,"975": 6.997,"1000": 7.399,"1025": 77.181,"1050": 73.813,"1075": 70.684,"1100": 75.117,"1125": 68.346,"1150": 62.468,"1175": 56.68,"1200": 50.072,"1225": 45.263,"1250": 42.503,"1275": 41.065,"1300": 37.615,"1325": 37.902,"1350": 35.01,"1375": 32.481,"1400": 30.467,"1425": 28.684,"1450": 26.595,"1475": 27.474,"1500": 27.532,"1525": 26.916,"1550": 27.455,"1575": 27.05,"1600": 27.47,"1625": 27.508,"1650": 27.047,"1675": 29.154,"1700": 28.92,"1725": 28.329,"1750": 28.345,"1775": 28.539,"1800": 28.08,"1825": 28.865,"1850": 28.27,"1875": 28.501,"1900": 28.71,"1925": 26.338,"1950": 26.261,"1975": 25.552,"2000": 25.897,"2025": 24.882,"2050": 25.8,"2075": 25.36,"2100": 25.358,"2125": 25.144,"2150": 23.233,"2175": 23.539,"2200": 21.489,"2225": 21.163,"2250": 20.97,"2275": 19.326,"2300": 18.447,"2325": 19.943,"2350": 17.682,"2375": 18.2,"2400": 17.607,"2425": 16.688,"2450": 15.904,"2475": 15.578,"2500": 15.923,"2525": 16.344,"2550": 15.175,"2575": 14.389,"2600": 13.223,"2625": 13.221,"2650": 13.259,"2675": 12.549,"2700": 11.65,"2725": 11.939,"2750": 12.286,"2775": 11.369,"2800": 9.529,"2825": 8.285,"2850": 7.845,"2875": 6.084,"2900": 5.05,"2925": 4.765,"2950": 4.094,"2975": 3.271,"3000": 2.965,"3025": 2.354,"3050": 1.857,"3075": 1.091,"3100": 1.092,"3125": 0.824,"3150": 0.555,"3175": 0.364,"3200": 0.364,"3225": 0.23,"3250": 0.077,"3275": 0.038,"3300": 0.019}}}