{"type": "Feature","bbox": [-64.3176,-31.5277,-64.058,-31.3141],"geometry": {"type": "MultiPolygon","coordinates": [[[[-64.3174,-31.3475,528.0148],[-64.3165,-31.5272,555.9018],[-64.058,-31.5277,387.1827],[-64.0617,-31.3153,402.5137],[-64.3176,-31.3141,489.0496],[-64.3174,-31.3475,528.0148]]]]}
,"properties": {"GID_2": "ARG.6.2_1","GID_0": "ARG","country": "Argentina","GID_1": "ARG.6_1","state": "Córdoba","NL_NAME_1": "NA","county": "Capital","VARNAME_2": "Cordoba|Capital(Córdoba)","NL_NAME_2": "NA","TYPE_2": "Departamento","ENGTYPE_2": "Department","CC_2": "NA","HASC_2": "AR.CB.CB","name": "Capital.county","area_km2": 577.7119,"hist_schema_id": "Elevation0-9000","hist_area_km2": {"350": 5.0485,"375": 23.7551,"400": 137.4796,"425": 124.3783,"450": 108.7184,"475": 82.853,"500": 59.8534,"525": 32.1001,"550": 3.5254}}}