{"type":"Feature","properties":{"GID_2":"ARG.3.16_1","GID_0":"ARG","country":"Argentina","GID_1":"ARG.3_1","state":"Chaco","NL_NAME_1":"NA","county":"O'Higgins","VARNAME_2":"SanBernardo|O.Higgins","NL_NAME_2":"NA","TYPE_2":"Departamento","ENGTYPE_2":"Department","CC_2":"NA","HASC_2":"AR.CC.OH","name":"O'Higgins.county"},
"geometry":{"type": "MultiPolygon","coordinates": [[[[-60.9226,-27.3948,85.4906],[-60.926,-27.452,87.2767],[-60.5338,-27.4552,75.6692],[-60.5265,-27.0076,89.5295],[-60.6261,-26.9725,91.663],[-60.6262,-27.0413,92.4277],[-60.834,-27.0425,94.9876],[-60.8364,-27.1855,89.7261],[-60.8576,-27.1652,93.2095],[-60.9202,-27.2407,90.6275],[-60.8358,-27.2998,87.4676],[-60.8393,-27.3703,84.0097],[-60.9226,-27.3948,85.4906]]]]}}