{"type": "Feature","bbox": [-68.7297,-33.1127,-67.1885,-32.0687],"geometry": {"type": "MultiPolygon","coordinates": [[[[-68.6152,-32.8162,621.9325],[-68.5867,-32.8185,619.7535],[-68.5915,-32.8309,621.7346],[-68.4636,-32.8713,623.714],[-68.4635,-32.8659,622.4205],[-68.4697,-32.8572,620.6726],[-68.4641,-32.8442,619.1094],[-68.4674,-32.8366,618.2447],[-68.4622,-32.8291,616.4384],[-68.4473,-32.8155,614.1373],[-68.4396,-32.7942,612.5276],[-68.4338,-32.7933,611.6256],[-68.428,-32.7955,612.3739],[-68.4213,-32.7903,610.7266],[-68.4064,-32.787,608.2455],[-68.4069,-32.7816,608.8251],[-68.4051,-32.7798,608.4657],[-68.3768,-32.7691,603.9454],[-68.3575,-32.7561,601.7773],[-68.3444,-32.7449,598.5944],[-68.3358,-32.7425,599.439],[-68.3332,-32.7379,598.6182],[-68.332,-32.7302,597.1501],[-68.321,-32.7259,596.2639],[-68.3182,-32.7216,596.6871],[-67.9613,-32.7373,576.2637],[-67.9543,-32.9847,582.9235],[-67.1963,-33.1127,457.1227],[-67.1984,-33.0916,457.3246],[-67.1948,-33.0742,461.8894],[-67.1976,-33.0669,460.8216],[-67.2031,-33.0611,461.5277],[-67.2033,-33.0562,461.2788],[-67.2098,-33.0508,460.7001],[-67.2119,-33.046,461.4352],[-67.2055,-33.0345,460.855],[-67.2019,-33.0221,459.2932],[-67.2023,-33.0145,459.5698],[-67.2065,-32.9996,464.3907],[-67.2019,-32.9903,462.8713],[-67.2,-32.9699,464.7724],[-67.2024,-32.9626,465.3768],[-67.2128,-32.95,467.4265],[-67.2198,-32.9358,466.3724],[-67.2162,-32.9261,466.3401],[-67.2149,-32.9159,467.6046],[-67.2057,-32.9028,468.2007],[-67.2052,-32.8875,468.2143],[-67.2016,-32.8751,468.8693],[-67.201,-32.8573,469.278],[-67.2116,-32.8255,470.6206],[-67.2118,-32.8153,471.8731],[-67.2027,-32.7965,471.8284],[-67.1988,-32.7927,471.6108],[-67.1886,-32.7871,471.7565],[-67.1885,-32.777,472.873],[-67.1923,-32.773,474.4307],[-67.1894,-32.7693,471.2852],[-67.1896,-32.7669,471.2139],[-67.204,-32.742,474.3785],[-67.2038,-32.7241,474.7632],[-67.2099,-32.7124,474.9408],[-67.2175,-32.7046,475.0342],[-67.2439,-32.6922,474.2856],[-67.249,-32.683,475.1673],[-67.2532,-32.6655,475.1852],[-67.262,-32.6492,475.8178],[-67.2604,-32.6366,476.7343],[-67.263,-32.6267,477.1266],[-67.2607,-32.6166,477.0501],[-67.2626,-32.6092,477.4317],[-67.2672,-32.5997,477.9126],[-67.2893,-32.5786,478.6215],[-67.2919,-32.5741,478.6226],[-67.2911,-32.5665,478.9075],[-67.2859,-32.5572,479.2364],[-67.2854,-32.5522,479.614],[-67.2989,-32.5267,480.9626],[-67.2984,-32.5114,481.8224],[-67.3025,-32.4991,483.0784],[-67.3061,-32.4763,484.221],[-67.3176,-32.4616,485.6222],[-67.3186,-32.4514,486.0607],[-67.3238,-32.4391,486.8469],[-67.3311,-32.4095,489.2156],[-67.3398,-32.3992,488.8531],[-67.3539,-32.3955,490.0865],[-67.3583,-32.3922,489.9954],[-67.3672,-32.376,490.333],[-67.3696,-32.3557,491.3554],[-67.3739,-32.3463,491.5228],[-67.3815,-32.3384,492.917],[-67.3869,-32.3363,494.0567],[-67.405,-32.3359,494.5376],[-67.4104,-32.334,494.3899],[-67.4187,-32.327,495.8713],[-67.4343,-32.3194,496.0259],[-67.4583,-32.3043,498.4123],[-67.464,-32.2953,498.3621],[-67.4706,-32.2758,498.9233],[-67.471,-32.2555,499.8659],[-67.4756,-32.2464,500.9705],[-67.4959,-32.2215,502.0543],[-67.4999,-32.2136,501.8918],[-67.5076,-32.2079,502.6622],[-67.511,-32.198,502.8469],[-67.5167,-32.1974,503.1803],[-67.5239,-32.2058,503.1045],[-67.5379,-32.2152,504.2662],[-67.5483,-32.2201,505.0816],[-67.5543,-32.2201,505.0155],[-67.5653,-32.2161,505.187],[-67.589,-32.2186,506.982],[-67.6051,-32.2126,507.0483],[-67.6112,-32.2132,506.8655],[-67.6275,-32.2192,509.7448],[-67.6395,-32.219,511.4335],[-67.6614,-32.2104,511.431],[-67.6734,-32.2208,512.455],[-67.6794,-32.2205,512.89],[-67.6836,-32.2168,514.9556],[-67.6892,-32.2154,516.327],[-67.6948,-32.217,519.0273],[-67.7021,-32.2249,518.7074],[-67.7081,-32.2249,515.3929],[-67.7136,-32.2233,520.6],[-67.725,-32.2116,519.0943],[-67.7303,-32.2092,518.386],[-67.7423,-32.2082,518.5862],[-67.751,-32.2113,520.0865],[-67.7563,-32.2113,520.7104],[-67.7799,-32.2074,522.8074],[-67.7913,-32.2097,519.7869],[-67.8214,-32.2097,520.1711],[-67.8267,-32.2084,519.4674],[-67.8345,-32.2005,521.457],[-67.8566,-32.1929,522.8237],[-67.8613,-32.1897,525.9853],[-67.865,-32.1752,524.417],[-67.8694,-32.1716,523.8852],[-67.881,-32.1687,524.7319],[-67.8869,-32.169,525.1201],[-67.8974,-32.1645,529.1168],[-67.9093,-32.1628,526.1202],[-67.9133,-32.1595,526.6981],[-67.9166,-32.1496,527.3901],[-67.9243,-32.1418,524.5962],[-67.9263,-32.1319,524.5447],[-67.9264,-32.1114,530.008],[-67.9288,-32.1073,530.5041],[-67.9553,-32.0979,530.8372],[-67.9589,-32.0778,531.8243],[-67.9689,-32.0728,532.9613],[-67.995,-32.0787,530.6459],[-68.0116,-32.0735,528.8992],[-68.0348,-32.0777,529.5486],[-68.0402,-32.0708,534.8564],[-68.052,-32.0716,529.5585],[-68.0569,-32.0687,530.9398],[-68.0628,-32.0693,532.7894],[-68.0665,-32.0733,534.5067],[-68.0681,-32.0782,535.3798],[-68.0727,-32.0815,538.5872],[-68.0783,-32.0825,535.8644],[-68.0819,-32.079,537.4678],[-68.088,-32.0799,539.0085],[-68.1007,-32.0907,539.1752],[-68.1493,-32.1105,537.984],[-68.179,-32.1146,537.3107],[-68.1966,-32.1126,537.7656],[-68.2143,-32.1156,538.9626],[-68.2317,-32.1118,538.0591],[-68.2377,-32.112,538.0272],[-68.2487,-32.1159,538.0032],[-68.2785,-32.1331,538.061],[-68.2899,-32.1362,538.7013],[-68.2953,-32.1344,538.3324],[-68.2983,-32.1302,538.8619],[-68.304,-32.1283,539.035],[-68.31,-32.1285,539.3847],[-68.3207,-32.1331,538.0568],[-68.3316,-32.1296,539.81],[-68.3375,-32.1293,539.8934],[-68.3674,-32.1319,539.3505],[-68.3793,-32.1308,538.0286],[-68.3846,-32.1283,539.366],[-68.3863,-32.124,540.5673],[-68.3841,-32.1139,539.708],[-68.3862,-32.1095,540.5436],[-68.3978,-32.1122,539.1022],[-68.4217,-32.1123,538.9563],[-68.4625,-32.1036,544.3304],[-68.4681,-32.104,545.2192],[-68.4742,-32.15,542.369],[-68.4794,-32.1646,543.6322],[-68.4881,-32.1781,543.9506],[-68.5104,-32.1945,546.7792],[-68.5155,-32.2074,547.2147],[-68.5244,-32.2569,550.431],[-68.5242,-32.2621,550.7773],[-68.52,-32.2747,550.6486],[-68.5197,-32.2851,550.921],[-68.5381,-32.3485,557.4432],[-68.5561,-32.3846,560.5979],[-68.5791,-32.4125,562.2261],[-68.5897,-32.4284,563.3244],[-68.6393,-32.5412,577.1777],[-68.6501,-32.5418,579.7738],[-68.6581,-32.5789,583.1802],[-68.6664,-32.5791,584.1329],[-68.6718,-32.6133,590.2948],[-68.659,-32.6591,603.7366],[-68.6644,-32.6959,611.8038],[-68.6753,-32.7173,616.9353],[-68.6838,-32.7188,620.0797],[-68.7124,-32.7891,632.3596],[-68.7131,-32.797,633.9762],[-68.7297,-32.8335,654.0984],[-68.6837,-32.8248,633.1902],[-68.6715,-32.8117,627.6154],[-68.6152,-32.8162,621.9325]]]]}
,"properties": {"GID_2": "ARG.13.8_1","GID_0": "ARG","country": "Argentina","GID_1": "ARG.13_1","state": "Mendoza","NL_NAME_1": "NA","county": "Lavalle","VARNAME_2": "Tulumaya","NL_NAME_2": "NA","TYPE_2": "Departamento","ENGTYPE_2": "Department","CC_2": "NA","HASC_2": "AR.MZ.LA","name": "Lavalle.county","area_km2": 10311.711,"hist_schema_id": "Elevation0-9000","hist_area_km2": {"450": 31.49,"475": 1673.272,"500": 1679.867,"525": 1537.955,"550": 2552.609,"575": 2037.355,"600": 613.865,"625": 180.381,"650": 4.918}}}