{"type":"Feature","properties":{"GID_2":"ARG.1.62_1","GID_0":"ARG","country":"Argentina","GID_1":"ARG.1_1","state":"BuenosAires","NL_NAME_1":"NA","county":"LaMatanza","VARNAME_2":"NA","NL_NAME_2":"NA","TYPE_2":"Partido","ENGTYPE_2":"Part","CC_2":"NA","HASC_2":"AR.BA.LM","name":"LaMatanza.county"},
"geometry":{"type": "MultiPolygon","coordinates": [[[[-58.6512,-34.8931,11.007],[-58.6473,-34.8909,10.5275],[-58.6435,-34.8712,10.6011],[-58.6402,-34.8683,8.8698],[-58.6405,-34.8658,12.8647],[-58.6371,-34.8614,10.3206],[-58.6311,-34.8554,16.5995],[-58.6294,-34.8496,9.8599],[-58.6257,-34.8466,7.6234],[-58.6183,-34.8315,9.0819],[-58.6162,-34.8213,13.0948],[-58.6069,-34.8139,6.1372],[-58.6039,-34.8129,6.0243],[-58.6004,-34.8144,7.1508],[-58.598,-34.808,8.567],[-58.5951,-34.8087,13.7827],[-58.5965,-34.8067,17.8104],[-58.5931,-34.8023,19.3022],[-58.5905,-34.8016,19.8078],[-58.5914,-34.7988,16.005],[-58.5878,-34.7959,18.1714],[-58.5885,-34.7898,17.4286],[-58.5849,-34.7856,21.3244],[-58.5868,-34.7831,9.634],[-58.5816,-34.7795,11.8603],[-58.5782,-34.7814,14.9266],[-58.573,-34.7783,5.687],[-58.5732,-34.7767,19.319],[-58.5759,-34.7762,7.1802],[-58.5744,-34.7745,9.4116],[-58.5756,-34.7719,6.5979],[-58.5742,-34.7699,18.6526],[-58.5681,-34.769,11.2912],[-58.5701,-34.7656,10.8889],[-58.5689,-34.7621,8.6106],[-58.56,-34.7595,12.971],[-58.5575,-34.7605,8.4905],[-58.5524,-34.7542,20.7656],[-58.5517,-34.7563,15.253],[-58.5483,-34.7576,7.1482],[-58.5466,-34.7626,5.7013],[-58.5382,-34.7606,16.4839],[-58.5363,-34.7588,14.8143],[-58.5392,-34.7546,22.9047],[-58.5393,-34.7505,13.6878],[-58.536,-34.749,9.0459],[-58.5322,-34.7493,6.0264],[-58.523,-34.7447,5.5439],[-58.5133,-34.7435,6.2212],[-58.508,-34.7349,6.0972],[-58.508,-34.7316,5.8432],[-58.5047,-34.7247,5.1494],[-58.4948,-34.7289,5.8046],[-58.4933,-34.7316,5.914],[-58.4851,-34.736,6.2869],[-58.4848,-34.731,3.5064],[-58.4617,-34.709,6.1726],[-58.5568,-34.6388,25.8088],[-58.5716,-34.6424,26.0154],[-58.5709,-34.6452,27.4418],[-58.5827,-34.6471,26.0857],[-58.5814,-34.6534,29.6215],[-58.6403,-34.7054,30.2196],[-58.6436,-34.7135,28.2308],[-58.6366,-34.7188,29.5677],[-58.6502,-34.7303,21.4333],[-58.6555,-34.7261,25.335],[-58.6756,-34.7431,17.9387],[-58.659,-34.7563,20.9716],[-58.6741,-34.7695,15.9995],[-58.6826,-34.7627,21.664],[-58.7045,-34.7818,16.5984],[-58.7291,-34.7626,16.0621],[-58.7508,-34.7805,24.0569],[-58.708,-34.8142,13.1059],[-58.711,-34.8146,13.2795],[-58.7133,-34.8174,13.8211],[-58.7203,-34.8208,14.3015],[-58.7345,-34.8203,14.9853],[-58.7397,-34.8259,15.3916],[-58.745,-34.828,15.6918],[-58.7499,-34.8276,15.9201],[-58.7562,-34.8301,16.8548],[-58.7698,-34.8296,17.7712],[-58.7745,-34.8309,17.8711],[-58.7508,-34.8495,19.0541],[-58.7634,-34.8606,21.1781],[-58.6939,-34.9141,13.5336],[-58.6868,-34.9135,12.761],[-58.6802,-34.9087,12.403],[-58.6693,-34.905,12.5298],[-58.6512,-34.8931,11.007]]]]}}