{"type": "Feature","bbox": [-68.2428,-38.3838,-67.0886,-36.8007],"geometry": {"type": "MultiPolygon","coordinates": [[[[-68.242,-36.811,844.0255],[-68.2428,-37.5779,468.0504],[-68.223,-37.5841,455.0809],[-68.2051,-37.5873,445.0033],[-68.1654,-37.5855,438.654],[-68.1441,-37.5871,435.0919],[-68.1232,-37.591,429.0028],[-68.0915,-37.5996,425.4615],[-68.0455,-37.6004,415.9022],[-67.9911,-37.6075,406.1293],[-67.8811,-37.6131,386.8524],[-67.8431,-37.6229,380.9717],[-67.8224,-37.6406,376.3927],[-67.7895,-37.6539,371.0275],[-67.784,-37.6594,368.7017],[-67.7677,-37.6832,363.6315],[-67.7645,-37.7147,360.1418],[-67.7472,-37.764,346.1817],[-67.7396,-37.7773,344.2699],[-67.7149,-37.8111,337.4727],[-67.7371,-37.8566,327.1629],[-67.7408,-37.8603,325.0406],[-67.7547,-37.8658,324.2706],[-67.7612,-37.8707,323.4739],[-67.7786,-37.9025,317.7934],[-67.7822,-37.9064,316.1002],[-67.7874,-37.9073,316.4737],[-67.8002,-37.906,315.2982],[-67.818,-37.9098,312.2032],[-67.8484,-37.9263,305.3513],[-67.8673,-37.9422,304.1604],[-67.8817,-37.961,301.4155],[-67.8889,-37.9744,299.8177],[-67.8965,-37.9822,298.5269],[-67.9003,-37.9913,296.6079],[-67.8991,-38.0007,297.7846],[-67.8879,-38.0227,297.1136],[-67.8738,-38.0336,293.7899],[-67.8628,-38.0443,291.4592],[-67.8552,-38.0547,290.6412],[-67.8437,-38.0653,288.1933],[-67.8252,-38.0713,288.934],[-67.8126,-38.0715,287.2615],[-67.7981,-38.0681,286.507],[-67.7811,-38.0606,285.1911],[-67.7758,-38.061,284.5644],[-67.7652,-38.0718,285.7401],[-67.7547,-38.0674,284.1276],[-67.7506,-38.0686,282.7143],[-67.7398,-38.0948,284.5544],[-67.7372,-38.0949,283.6242],[-67.7323,-38.0987,281.7863],[-67.7255,-38.1221,281.2161],[-67.7211,-38.1293,280.7316],[-67.7146,-38.1354,279.623],[-67.7101,-38.1372,278.9419],[-67.7052,-38.138,278.5032],[-67.6979,-38.1363,277.5],[-67.6914,-38.1384,278.064],[-67.6781,-38.1528,279.1039],[-67.6656,-38.1789,278.6315],[-67.6622,-38.1906,278.4586],[-67.6594,-38.1938,277.8937],[-67.6512,-38.1986,277.4857],[-67.6422,-38.2104,273.0],[-67.6345,-38.2156,273.0],[-67.6224,-38.2179,273.0],[-67.5942,-38.2266,273.0],[-67.5933,-38.2364,273.0],[-67.5912,-38.2417,273.0],[-67.5845,-38.2447,273.0],[-67.5746,-38.2466,273.0],[-67.5623,-38.2449,273.0],[-67.5549,-38.2464,273.0],[-67.5491,-38.2503,273.0],[-67.5444,-38.2515,273.0],[-67.5342,-38.2517,273.0],[-67.5222,-38.2486,273.0],[-67.5066,-38.2421,273.0],[-67.5013,-38.2379,273.0],[-67.4982,-38.2377,273.0],[-67.4955,-38.2384,273.0],[-67.4898,-38.245,273.0],[-67.4809,-38.2463,273.0],[-67.469,-38.2466,273.0],[-67.4331,-38.2435,273.0],[-67.404,-38.2497,273.0],[-67.389,-38.2496,273.0],[-67.3684,-38.2527,273.0],[-67.3147,-38.2467,273.0],[-67.2969,-38.2339,273.0],[-67.286,-38.2309,273.0],[-67.2761,-38.222,273.0],[-67.2672,-38.2206,273.0],[-67.2576,-38.2151,273.0],[-67.2215,-38.2165,273.0],[-67.1914,-38.2134,270.6268],[-67.1854,-38.2141,256.6906],[-67.1835,-38.2232,256.2374],[-67.1867,-38.257,245.4691],[-67.1817,-38.2617,241.9203],[-67.1626,-38.2652,250.2332],[-67.1616,-38.2705,263.2274],[-67.1635,-38.278,246.7904],[-67.1566,-38.2962,242.6662],[-67.1577,-38.3128,239.654],[-67.1539,-38.3267,241.1242],[-67.1549,-38.3386,240.8931],[-67.1517,-38.3555,237.7758],[-67.1456,-38.3582,238.2192],[-67.1296,-38.3574,239.0239],[-67.1243,-38.3683,237.3115],[-67.0886,-38.3838,250.8095],[-67.0979,-37.5504,286.2359],[-67.111,-36.8007,292.3663],[-68.242,-36.811,844.0255]]]]}
,"properties": {"GID_2": "ARG.11.16_1","GID_0": "ARG","country": "Argentina","GID_1": "ARG.11_1","state": "LaPampa","NL_NAME_1": "NA","county": "Puelén","VARNAME_2": "Colonia25deMayo|Pulen","NL_NAME_2": "NA","TYPE_2": "Departamento","ENGTYPE_2": "Department","CC_2": "NA","HASC_2": "AR.LP.PU","name": "Puelén.county","area_km2": 13211.54,"hist_schema_id": "Elevation0-9000","hist_area_km2": {"225": 2.41,"250": 421.7,"275": 847.85,"300": 921.48,"325": 893.67,"350": 1307.86,"375": 1396.48,"400": 1126.23,"425": 961.64,"450": 628.75,"475": 574.46,"500": 506.22,"525": 491.63,"550": 514.17,"575": 418.53,"600": 378.84,"625": 329.34,"650": 295.28,"675": 295.78,"700": 285.82,"725": 200.59,"750": 129.94,"775": 110.93,"800": 100.2,"825": 67.6,"850": 4.0,"875": 0.14}}}