{"type":"Feature","properties":{"GID_2":"ARG.12.15_1","GID_0":"ARG","country":"Argentina","GID_1":"ARG.12_1","state":"LaRioja","NL_NAME_1":"NA","county":"RosarioVeraPeñaloza","VARNAME_2":"Chepes","NL_NAME_2":"NA","TYPE_2":"Departamento","ENGTYPE_2":"Department","CC_2":"NA","HASC_2":"AR.LR.RP","name":"RosarioVeraPeñaloza.county"},
"geometry":{"type": "MultiPolygon","coordinates": [[[[-67.0637,-31.084,495.269],[-67.0623,-31.0858,495.248],[-67.1001,-31.3875,416.3515],[-67.0923,-31.4042,408.3842],[-67.0863,-31.428,405.3461],[-67.0743,-31.4432,404.0249],[-67.0688,-31.4534,402.5854],[-67.0611,-31.5296,397.3223],[-67.0571,-31.5474,397.5164],[-67.0518,-31.5587,397.8193],[-67.0388,-31.5731,398.274],[-67.0252,-31.5827,398.2559],[-66.9832,-31.6053,411.3708],[-66.9461,-31.6378,422.227],[-66.8695,-31.6381,405.0458],[-66.8602,-31.6608,395.3488],[-66.8581,-31.673,385.5466],[-66.8573,-31.7612,387.2139],[-66.5053,-31.7671,419.6301],[-66.3112,-31.8269,612.7195],[-66.2975,-31.8067,654.6458],[-66.2931,-31.7945,686.4136],[-66.291,-31.7819,706.4895],[-66.291,-31.7563,762.7913],[-66.2848,-31.7313,757.3541],[-66.275,-31.7116,832.5494],[-66.261,-31.694,861.7911],[-66.2608,-31.6855,867.2885],[-66.2663,-31.6603,929.4805],[-66.2785,-31.6418,912.7101],[-66.2847,-31.6256,878.3015],[-66.2867,-31.5745,836.7637],[-66.2931,-31.5366,752.0317],[-66.3026,-31.5168,661.8034],[-66.3207,-31.4914,632.7547],[-66.3436,-31.4634,622.8469],[-66.3568,-31.4312,627.6891],[-66.3411,-31.2581,626.995],[-66.3357,-31.2468,624.6801],[-66.2653,-31.2032,582.4485],[-66.3081,-31.1887,596.5951],[-66.4193,-31.1875,799.4797],[-66.4276,-31.1361,904.314],[-66.463,-31.096,999.0435],[-67.0637,-31.084,495.269]]]]}}