{"type": "Feature","bbox": [-58.6017,-35.2457,-58.2412,-34.8876],"geometry": {"type": "MultiPolygon","coordinates": [[[[-58.3974,-34.9121,28.2059],[-58.446,-34.9365,24.5157],[-58.4527,-34.9267,24.121],[-58.4757,-34.9435,25.4272],[-58.4923,-34.9307,26.8953],[-58.5309,-34.9638,24.0263],[-58.5341,-34.9611,24.2042],[-58.5548,-34.977,23.2613],[-58.5351,-34.9941,24.3024],[-58.5343,-35.0227,23.1503],[-58.5372,-35.0227,23.0768],[-58.5535,-35.0083,23.7934],[-58.6017,-35.0524,25.8454],[-58.5841,-35.0674,26.3887],[-58.5826,-35.1505,25.0841],[-58.5665,-35.1636,23.8034],[-58.571,-35.1678,24.3259],[-58.5415,-35.193,24.4018],[-58.5391,-35.1909,24.5299],[-58.4726,-35.2457,22.3962],[-58.3551,-35.1417,13.945],[-58.3428,-35.1493,15.0549],[-58.2412,-35.0599,19.5323],[-58.2925,-35.0191,20.4509],[-58.2796,-35.0093,23.0177],[-58.3025,-34.9735,22.4408],[-58.289,-34.9671,23.5992],[-58.3473,-34.8876,26.9774],[-58.3974,-34.9121,28.2059]]]]}
,"properties": {"GID_2": "ARG.1.113_1","GID_0": "ARG","country": "Argentina","GID_1": "ARG.1_1","state": "BuenosAires","NL_NAME_1": "NA","county": "SanVicente","VARNAME_2": "NA","NL_NAME_2": "NA","TYPE_2": "Partido","ENGTYPE_2": "Part","CC_2": "NA","HASC_2": "AR.BA.SE","name": "SanVicente.county","area_km2": 739.6267,"hist_schema_id": "Elevation0-9000","hist_area_km2": {"25": 739.3838,"50": 0.243}}}