{"type":"Feature","properties":{"GID_2":"ARG.1.10_1","GID_0":"ARG","country":"Argentina","GID_1":"ARG.1_1","state":"BuenosAires","NL_NAME_1":"NA","county":"BahíaBlanca","VARNAME_2":"NA","NL_NAME_2":"NA","TYPE_2":"Partido","ENGTYPE_2":"Part","CC_2":"NA","HASC_2":"AR.BA.BB","name":"BahíaBlanca.county"},
"geometry":{"type": "MultiPolygon","coordinates": [[[[-62.2174,-38.8357,1.3525],[-62.2176,-38.834,0.5188],[-62.219,-38.8343,0.0],[-62.2179,-38.8396,0.0],[-62.214,-38.844,0.907],[-62.2126,-38.8418,0.73],[-62.2149,-38.8407,1.5227],[-62.2149,-38.8362,1.2036],[-62.2174,-38.8357,1.3525]]],
[[[-62.2193,-38.8168,1.4318],[-62.2221,-38.816,0.9398],[-62.2235,-38.8176,0.4879],[-62.221,-38.8179,1.4318],[-62.2207,-38.8199,1.4017],[-62.2157,-38.8237,1.2862],[-62.2171,-38.8187,1.4877],[-62.2193,-38.8168,1.4318]]],
[[[-62.3651,-38.7493,0.0],[-62.3668,-38.7485,0.0],[-62.3679,-38.7515,0.0],[-62.3651,-38.7521,0.0],[-62.3651,-38.7493,0.0]]],
[[[-62.3546,-38.7212,0.5113],[-62.3574,-38.721,0.0],[-62.356,-38.726,2.0146],[-62.3599,-38.7251,1.2993],[-62.3632,-38.729,0.0],[-62.3613,-38.7301,0.5969],[-62.359,-38.7274,1.6381],[-62.3574,-38.7274,1.4595],[-62.3576,-38.7287,0.5441],[-62.3537,-38.7279,1.5365],[-62.3532,-38.7329,1.227],[-62.3507,-38.7313,0.3089],[-62.3482,-38.7346,1.1781],[-62.3474,-38.741,1.2438],[-62.3501,-38.7415,1.209],[-62.3512,-38.7435,1.1956],[-62.3454,-38.7443,1.376],[-62.3482,-38.7465,1.3391],[-62.3471,-38.7529,0.6095],[-62.3485,-38.7557,0.6107],[-62.3468,-38.7565,0.0],[-62.344,-38.7521,0.0],[-62.3454,-38.7462,1.3996],[-62.3418,-38.7451,0.7199],[-62.3346,-38.7465,0.0],[-62.334,-38.7446,0.0],[-62.3374,-38.741,0.0],[-62.3424,-38.7418,0.851],[-62.344,-38.7387,0.0],[-62.3421,-38.7368,0.0],[-62.3449,-38.7365,1.7947],[-62.3421,-38.7349,0.0],[-62.3443,-38.7337,0.3081],[-62.3429,-38.7307,0.0],[-62.3446,-38.7313,0.7513],[-62.3465,-38.7287,0.0],[-62.3488,-38.7293,0.8384],[-62.3482,-38.7271,0.0],[-62.351,-38.7279,0.3485],[-62.3507,-38.7262,0.0],[-62.3529,-38.7251,0.0],[-62.349,-38.7238,0.503],[-62.3546,-38.7212,0.5113]]],
[[[-62.3376,-38.7262,0.528],[-62.3393,-38.726,0.275],[-62.3387,-38.7313,0.0],[-62.3357,-38.7296,0.0],[-62.3376,-38.7262,0.528]]],
[[[-62.1912,-38.8271,1.0689],[-62.1929,-38.8265,1.3457],[-62.1929,-38.8282,1.2867],[-62.1904,-38.829,1.4255],[-62.1896,-38.8271,0.9599],[-62.1912,-38.8271,1.0689]]],
[[[-62.2054,-38.8268,1.5016],[-62.2079,-38.8262,1.171],[-62.2088,-38.8279,0.2642],[-62.2065,-38.8293,1.4452],[-62.2054,-38.8268,1.5016]]],
[[[-62.1854,-38.8149,1.0791],[-62.1879,-38.8146,1.5678],[-62.1876,-38.8168,1.5156],[-62.1835,-38.8193,1.3259],[-62.1835,-38.821,1.5996],[-62.1793,-38.8215,0.5799],[-62.1793,-38.8207,0.3996],[-62.1854,-38.8149,1.0791]]],
[[[-61.848,-38.656,108.5279],[-61.8212,-38.6772,105.2579],[-61.7642,-38.6304,121.0232],[-61.7559,-38.6305,111.4014],[-61.7472,-38.6234,87.2663],[-61.7508,-38.6203,88.6488],[-61.7559,-38.6107,90.8742],[-61.7511,-38.5925,94.4311],[-61.752,-38.5892,95.6134],[-61.7631,-38.5881,97.0823],[-61.7775,-38.5731,100.0847],[-61.7843,-38.5527,104.5654],[-61.7836,-38.5452,105.3478],[-61.7935,-38.5256,109.6763],[-61.7876,-38.5124,113.2114],[-61.7907,-38.5055,114.9421],[-61.7858,-38.4684,123.4604],[-61.7865,-38.4617,125.2122],[-61.7834,-38.4563,129.0044],[-61.7851,-38.4528,128.4648],[-61.7936,-38.4468,160.1779],[-61.8246,-38.4727,158.4952],[-61.8905,-38.4228,178.5425],[-61.9227,-38.4498,173.1881],[-61.931,-38.4308,182.3579],[-61.9321,-38.4182,182.048],[-61.9359,-38.4117,188.0197],[-61.987,-38.4514,179.5625],[-62.0093,-38.4323,188.6908],[-61.9992,-38.4235,191.5031],[-62.0205,-38.4078,200.4716],[-62.0168,-38.406,199.5479],[-62.0403,-38.3924,201.0869],[-62.0856,-38.3595,204.4837],[-62.2009,-38.4496,176.0467],[-62.2224,-38.4354,195.2139],[-62.2078,-38.4232,202.4759],[-62.2274,-38.408,212.4153],[-62.2076,-38.3921,234.6019],[-62.227,-38.3772,240.1924],[-62.221,-38.3732,243.6629],[-62.24,-38.353,233.3243],[-62.3461,-38.4376,178.2195],[-62.3874,-38.4065,205.4698],[-62.6136,-38.5907,58.8924],[-62.6103,-38.6097,54.5733],[-62.5961,-38.6216,51.1967],[-62.5814,-38.6214,48.8122],[-62.57,-38.6232,45.094],[-62.5597,-38.6301,43.3502],[-62.555,-38.6298,42.4376],[-62.548,-38.6343,40.7914],[-62.5099,-38.6442,32.4353],[-62.4976,-38.6533,37.8884],[-62.463,-38.6727,21.2087],[-62.4565,-38.6816,18.5591],[-62.4557,-38.6913,15.8407],[-62.4572,-38.6993,14.2677],[-62.4517,-38.7155,8.5784],[-62.4511,-38.7248,6.299],[-62.4421,-38.7313,3.8884],[-62.4404,-38.7412,2.4303],[-62.4388,-38.7435,0.4967],[-62.4332,-38.744,0.4102],[-62.4351,-38.7449,0.0],[-62.4357,-38.7499,0.0],[-62.4299,-38.7535,0.7167],[-62.4304,-38.7562,1.1298],[-62.4285,-38.7571,1.5342],[-62.4285,-38.7596,0.0],[-62.4168,-38.7579,1.0294],[-62.416,-38.7565,0.4191],[-62.4246,-38.7526,0.0],[-62.4257,-38.7487,0.4447],[-62.4274,-38.7482,1.9042],[-62.4268,-38.7465,0.9314],[-62.4299,-38.7465,1.3319],[-62.4313,-38.7421,1.2867],[-62.4268,-38.7457,0.0],[-62.4251,-38.7449,0.2631],[-62.4251,-38.7474,0.0],[-62.4212,-38.7485,1.0503],[-62.4224,-38.7513,0.0],[-62.416,-38.7521,0.6793],[-62.4143,-38.7554,0.8832],[-62.4113,-38.756,0.3578],[-62.4107,-38.7507,0.2761],[-62.4135,-38.7496,0.9536],[-62.4135,-38.7476,1.7719],[-62.406,-38.7499,0.0],[-62.401,-38.7476,0.944],[-62.4035,-38.7449,0.2179],[-62.4113,-38.7449,1.0177],[-62.4121,-38.7432,0.0],[-62.4149,-38.744,0.7323],[-62.414,-38.7454,1.9182],[-62.416,-38.7476,0.7497],[-62.4174,-38.7474,1.8044],[-62.4157,-38.7432,0.7323],[-62.4199,-38.7412,1.3682],[-62.4137,-38.7424,0.4865],[-62.4115,-38.7399,0.5269],[-62.4101,-38.7418,0.0],[-62.4101,-38.7382,1.046],[-62.4074,-38.7412,0.9229],[-62.406,-38.7401,2.1844],[-62.4051,-38.7438,0.7079],[-62.404,-38.744,0.0],[-62.4046,-38.7418,0.8039],[-62.4018,-38.7401,1.1821],[-62.3999,-38.7462,1.2473],[-62.396,-38.746,1.6278],[-62.3957,-38.7435,1.5825],[-62.394,-38.7449,0.618],[-62.3946,-38.7462,0.618],[-62.3899,-38.749,0.4131],[-62.3896,-38.7474,0.0],[-62.3918,-38.746,1.8481],[-62.3907,-38.744,0.0],[-62.3937,-38.7429,0.0],[-62.394,-38.7399,1.9295],[-62.3929,-38.7401,0.5679],[-62.3915,-38.7426,0.4228],[-62.3868,-38.7418,1.1993],[-62.3854,-38.7426,1.142],[-62.3876,-38.7446,1.3908],[-62.3862,-38.7479,0.3497],[-62.3851,-38.749,0.7367],[-62.3826,-38.7482,0.8419],[-62.3821,-38.7513,0.0],[-62.3796,-38.7518,0.0],[-62.3824,-38.7462,0.9451],[-62.3821,-38.7438,1.1033],[-62.3846,-38.7429,1.142],[-62.3818,-38.7412,1.427],[-62.3832,-38.7326,0.974],[-62.3812,-38.7315,0.7272],[-62.3799,-38.7351,0.516],[-62.3815,-38.7354,0.516],[-62.3804,-38.7379,0.301],[-62.3815,-38.7396,0.0],[-62.3757,-38.7412,1.8244],[-62.3765,-38.7429,0.4728],[-62.3787,-38.7426,0.0],[-62.3779,-38.7501,0.237],[-62.3749,-38.7499,0.3752],[-62.374,-38.7479,0.0],[-62.3751,-38.7485,0.9417],[-62.3754,-38.7462,1.8649],[-62.3735,-38.7457,0.8681],[-62.3732,-38.7424,1.6321],[-62.3707,-38.7404,0.0],[-62.3701,-38.7371,1.4718],[-62.3671,-38.736,0.3873],[-62.3662,-38.7324,0.0],[-62.3688,-38.7315,0.7166],[-62.3676,-38.7285,0.0],[-62.3779,-38.7262,1.5728],[-62.3779,-38.7235,1.2497],[-62.3754,-38.7229,2.8696],[-62.3751,-38.7254,0.7598],[-62.3735,-38.7204,2.8478],[-62.3718,-38.7204,2.3345],[-62.3715,-38.7229,1.9957],[-62.3685,-38.7251,0.2714],[-62.3685,-38.7229,1.7674],[-62.3662,-38.7221,1.4112],[-62.3685,-38.7215,1.7674],[-62.3676,-38.7199,2.0913],[-62.3565,-38.719,0.0],[-62.3582,-38.7146,0.3921],[-62.3554,-38.716,0.4202],[-62.3532,-38.7151,1.2983],[-62.3535,-38.7204,0.5113],[-62.3496,-38.7212,1.8871],[-62.3493,-38.7226,0.0],[-62.3465,-38.721,1.7862],[-62.3432,-38.7238,0.7204],[-62.3401,-38.7229,2.2506],[-62.3335,-38.7243,2.8003999999999998],[-62.3279,-38.7279,2.3461],[-62.3288,-38.7293,1.6102],[-62.3301,-38.7276,0.2627],[-62.3299,-38.7299,1.405],[-62.3351,-38.7349,1.0635],[-62.3329,-38.7368,0.3758],[-62.3299,-38.7376,1.0621],[-62.3312,-38.7335,1.0904],[-62.329,-38.7301,1.405],[-62.3254,-38.7299,1.0339],[-62.3229,-38.7318,0.6912],[-62.3226,-38.734,0.4656],[-62.3257,-38.7379,0.9056],[-62.3201,-38.7349,0.8549],[-62.3138,-38.7371,0.0],[-62.3174,-38.7429,1.1329],[-62.3196,-38.7415,0.7893],[-62.3185,-38.7449,3.5945],[-62.3251,-38.7487,2.1727],[-62.3271,-38.7546,0.8689],[-62.3329,-38.7526,0.0],[-62.3374,-38.7529,0.0],[-62.3371,-38.7546,1.0147],[-62.3385,-38.7537,0.0],[-62.3407,-38.7551,0.0],[-62.3393,-38.761,0.313],[-62.3357,-38.7612,1.3192],[-62.3365,-38.7646,0.0],[-62.3324,-38.7668,0.0],[-62.329,-38.7646,0.5756],[-62.329,-38.7674,0.0],[-62.3271,-38.7668,1.3328],[-62.3199,-38.7735,0.0],[-62.3121,-38.7762,0.9564],[-62.3093,-38.7726,0.1902],[-62.3143,-38.7665,0.9903],[-62.3171,-38.7654,0.0],[-62.3174,-38.7576,0.0],[-62.3207,-38.7554,0.0],[-62.3221,-38.7493,2.8354],[-62.3179,-38.7485,0.0],[-62.3179,-38.7471,3.3366],[-62.3168,-38.7479,1.6142],[-62.3182,-38.7518,0.8517],[-62.316,-38.756,1.6123],[-62.3129,-38.7526,1.4141],[-62.3138,-38.7651,0.0],[-62.3107,-38.7699,0.5296],[-62.309,-38.764,0.4712],[-62.3104,-38.761,1.7178],[-62.3093,-38.7588,1.9099],[-62.3101,-38.7543,2.2474],[-62.3093,-38.7504,1.0978],[-62.3076,-38.7504,1.0978],[-62.3065,-38.7532,1.9734],[-62.3082,-38.7549,0.6674],[-62.3087,-38.7615,0.7874],[-62.3063,-38.761,0.6547],[-62.306,-38.7621,0.766],[-62.309,-38.7704,1.5728],[-62.3071,-38.7749,0.0],[-62.3049,-38.7754,2.2592],[-62.3037,-38.7796,0.0],[-62.3076,-38.7826,0.0],[-62.3112,-38.7815,0.0],[-62.3107,-38.7832,0.0],[-62.3049,-38.7849,0.0],[-62.3065,-38.7829,0.0],[-62.3035,-38.7818,0.0],[-62.3018,-38.7851,0.0],[-62.299,-38.7857,0.0],[-62.2979,-38.7818,2.8864],[-62.2968,-38.7846,0.6087],[-62.2896,-38.7882,0.0],[-62.2863,-38.7879,3.5631],[-62.2857,-38.7896,0.0],[-62.281,-38.7885,0.5221],[-62.2785,-38.7904,0.0],[-62.2732,-38.7899,0.0],[-62.271,-38.7926,0.0],[-62.2637,-38.794,0.0],[-62.259,-38.7915,0.2689],[-62.259,-38.7954,0.0],[-62.2612,-38.796,0.0],[-62.2571,-38.7993,0.0],[-62.2551,-38.7988,0.5129],[-62.2574,-38.796,0.0],[-62.2551,-38.7949,0.1687],[-62.2571,-38.7929,0.0],[-62.2554,-38.7915,1.2198],[-62.2537,-38.7949,0.7023],[-62.2513,-38.7949,1.2101],[-62.251,-38.7968,2.03],[-62.2476,-38.8001,1.1859],[-62.2446,-38.8004,1.2987],[-62.2429,-38.8035,0.473],[-62.2374,-38.8043,0.4756],[-62.2357,-38.8063,0.0],[-62.214,-38.8138,1.2296],[-62.2137,-38.8162,0.5641],[-62.2107,-38.8165,1.6143],[-62.206,-38.8226,1.3263],[-62.2024,-38.8201,1.269],[-62.2038,-38.8174,1.2692],[-62.2007,-38.8176,1.3833],[-62.2054,-38.809,1.278],[-62.2012,-38.8107,1.2408],[-62.2032,-38.8032,1.2248],[-62.1993,-38.8018,1.694],[-62.1885,-38.8051,1.1069],[-62.1874,-38.8087,1.4216],[-62.1885,-38.8107,0.0],[-62.1868,-38.8121,0.4683],[-62.1851,-38.8112,1.9771],[-62.181,-38.8187,0.6843],[-62.1787,-38.8196,0.3996],[-62.179,-38.814,0.9974],[-62.1776,-38.8153,1.9157],[-62.0666,-38.7243,80.2479],[-62.065,-38.7129,72.0373],[-62.0229,-38.712,62.2333],[-62.0089,-38.7021,75.6353],[-61.9646,-38.7086,93.1992],[-61.9228,-38.7243,82.6625],[-61.8738,-38.6864,100.5544],[-61.8806,-38.6804,99.6775],[-61.848,-38.656,108.5279]]]]}}