{"type": "Feature","bbox": [-61.7209,-36.7381,-60.5341,-35.841],"geometry": {"type": "MultiPolygon","coordinates": [[[[-61.2716,-36.0713,89.5992],[-61.3782,-36.1594,94.5366],[-61.3819,-36.1569,95.623],[-61.4093,-36.1806,97.7024],[-61.4039,-36.1833,96.869],[-61.4397,-36.2134,98.7492],[-61.4072,-36.2385,98.0942],[-61.7209,-36.4864,114.7917],[-61.6856,-36.5151,112.5462],[-61.6936,-36.521,113.0092],[-61.6807,-36.5322,111.7243],[-61.672,-36.5253,112.3148],[-61.6438,-36.5471,112.7293],[-61.6369,-36.5445,111.5917],[-61.6045,-36.5701,109.147],[-61.6596,-36.6136,111.0365],[-61.5043,-36.7381,113.45],[-61.3774,-36.639,109.4959],[-61.2584,-36.7342,111.3619],[-60.8907,-36.4435,99.7364],[-60.923,-36.4175,98.804],[-60.8672,-36.3729,94.404],[-60.9071,-36.3418,92.9296],[-60.8946,-36.3402,92.65],[-60.8799,-36.3314,92.2321],[-60.868,-36.3277,91.1125],[-60.8394,-36.2987,90.0033],[-60.829,-36.2812,87.9046],[-60.8262,-36.2712,87.1929],[-60.8174,-36.2605,87.108],[-60.8074,-36.2535,86.3942],[-60.8055,-36.2416,85.9577],[-60.8011,-36.2313,87.348],[-60.8061,-36.2278,85.2537],[-60.8109,-36.2147,84.8898],[-60.801,-36.2009,83.7787],[-60.7784,-36.1854,81.6302],[-60.7799,-36.1784,81.2831],[-60.7729,-36.1698,80.2863],[-60.7619,-36.1606,79.4943],[-60.7429,-36.1533,79.8636],[-60.7263,-36.1402,78.8609],[-60.7108,-36.1375,77.7997],[-60.6948,-36.137,77.2938],[-60.6766,-36.1239,76.4258],[-60.6621,-36.1162,76.0536],[-60.6528,-36.1161,75.254],[-60.6454,-36.1138,75.1764],[-60.6338,-36.1071,73.9899],[-60.6262,-36.0964,73.8736],[-60.6164,-36.0923,73.4172],[-60.6126,-36.0875,73.2543],[-60.6119,-36.0796,72.3069],[-60.5928,-36.0638,73.6541],[-60.5847,-36.0505,72.9182],[-60.5765,-36.0458,70.8659],[-60.5722,-36.0287,70.1609],[-60.5642,-36.025,69.7977],[-60.5559,-36.0242,69.7575],[-60.5527,-36.0174,68.678],[-60.5474,-36.0161,70.2383],[-60.544,-36.0125,69.1333],[-60.5445,-36.0088,68.5971],[-60.5341,-36.0008,68.5168],[-60.6424,-35.9198,69.9566],[-60.7011,-35.9678,73.2694],[-60.7866,-35.9022,76.8105],[-60.789,-35.905,75.6647],[-60.8683,-35.841,77.3248],[-60.9702,-35.9299,80.5177],[-61.038,-35.8773,80.7262],[-61.2716,-36.0713,89.5992]]]]}
,"properties": {"GID_2": "ARG.1.16_1","GID_0": "ARG","country": "Argentina","GID_1": "ARG.1_1","state": "BuenosAires","NL_NAME_1": "NA","county": "Bolívar","VARNAME_2": "NA","NL_NAME_2": "NA","TYPE_2": "Partido","ENGTYPE_2": "Part","CC_2": "NA","HASC_2": "AR.BA.BO","name": "Bolívar.county","area_km2": 4911.452,"hist_schema_id": "Elevation0-9000","hist_area_km2": {"75": 1459.074,"100": 3335.106,"125": 117.221,"150": 0.051}}}