{"type": "Feature","bbox": [-70.1067,-37.7512,-68.2428,-36.6496],"geometry": {"type": "MultiPolygon","coordinates": [[[[-70.0323,-36.6496,1262.385],[-70.0355,-37.2098,2978.9805],[-70.0327,-37.2137,2992.21],[-70.0174,-37.2233,2887.5674],[-70.0146,-37.2275,2739.1826],[-70.0143,-37.2325,2497.6333],[-70.016,-37.2427,2579.8865],[-70.0202,-37.252,2313.7617],[-70.0401,-37.2715,2112.2861],[-70.0526,-37.2887,1997.9852],[-70.0672,-37.3218,1691.9928],[-70.0747,-37.3513,1341.9414],[-70.0894,-37.3733,1244.0751],[-70.0895,-37.3882,1122.3646],[-70.0815,-37.4124,1164.0647],[-70.0813,-37.4275,1156.0626],[-70.0876,-37.452,1102.0172],[-70.1057,-37.478,1099.5743],[-70.1067,-37.5077,958.4929],[-70.0854,-37.531,769.8321],[-70.0713,-37.5533,830.6033],[-70.0569,-37.5865,759.4423],[-70.0471,-37.6156,776.0148],[-70.0452,-37.6255,801.3796],[-70.0478,-37.6405,862.5226],[-70.0457,-37.6448,1066.7694],[-70.0364,-37.6521,802.6445],[-70.0252,-37.6569,741.9539],[-70.019,-37.6577,737.5],[-70.0065,-37.6549,736.5781],[-69.9776,-37.6738,814.1691],[-69.9338,-37.6801,771.5898],[-69.9222,-37.6836,732.0463],[-69.9131,-37.6904,740.0068],[-69.9019,-37.7028,727.1288],[-69.8829,-37.7391,739.2247],[-68.2431,-37.7512,504.3134],[-68.2428,-37.5779,468.0504],[-68.2844,-37.5619,458.445],[-68.2987,-37.5579,464.2432],[-68.3232,-37.5558,464.6542],[-68.3557,-37.5491,471.9462],[-68.3741,-37.5493,475.2089],[-68.3822,-37.5532,477.6618],[-68.3881,-37.5533,478.263],[-68.4216,-37.5486,483.7879],[-68.4299,-37.546,486.4023],[-68.4491,-37.5269,489.1224],[-68.4527,-37.5101,561.2625],[-68.4596,-37.4991,577.7111],[-68.4663,-37.4941,499.0259],[-68.4811,-37.493,564.134],[-68.4793,-37.4853,499.9192],[-68.4801,-37.4812,514.3455],[-68.4925,-37.4795,535.0499],[-68.4918,-37.4593,594.0151],[-68.4938,-37.4555,593.2284],[-68.5397,-37.451,508.9679],[-68.5575,-37.454,512.6816],[-68.5729,-37.454,524.3818],[-68.5893,-37.4477,558.2123],[-68.6067,-37.4373,557.0251],[-68.612,-37.438,518.3483],[-68.6315,-37.446,523.9767],[-68.6525,-37.4478,525.0369],[-68.6943,-37.4395,593.5946],[-68.6973,-37.4365,539.2186],[-68.6964,-37.4138,617.9469],[-68.6993,-37.4099,689.1906],[-68.7132,-37.4,538.0574],[-68.7156,-37.3898,561.8076],[-68.7181,-37.3861,558.1843],[-68.7333,-37.3847,546.1121],[-68.7394,-37.379,552.2199],[-68.7535,-37.3749,546.5037],[-68.7578,-37.3685,553.2527],[-68.7726,-37.364,558.6998],[-68.7808,-37.3647,552.5355],[-68.7864,-37.3709,551.0897],[-68.7937,-37.3753,568.1035],[-68.8294,-37.3891,560.2497],[-68.844,-37.3926,563.7922],[-68.8659,-37.3953,568.1317],[-68.8732,-37.3928,569.5422],[-68.8794,-37.3838,580.6366],[-68.8911,-37.3812,573.1469],[-68.8996,-37.3741,599.4902],[-68.9079,-37.3711,624.0354],[-68.92,-37.3699,589.1075],[-68.9565,-37.3732,584.8193],[-68.9748,-37.3733,589.8442],[-69.0158,-37.3632,608.0708],[-69.0228,-37.3589,605.6354],[-69.0407,-37.3361,607.3367],[-69.0427,-37.3044,613.6045],[-69.0401,-37.2899,617.1649],[-69.0408,-37.2778,619.1105],[-69.037,-37.2635,624.3964],[-69.0376,-37.2536,627.1298],[-69.0407,-37.2469,634.6935],[-69.0637,-37.2206,634.1496],[-69.0709,-37.2172,639.8074],[-69.0865,-37.2157,640.8798],[-69.0983,-37.2047,652.6478],[-69.1249,-37.1999,648.0608],[-69.1444,-37.1844,661.8495],[-69.1496,-37.1819,656.6619],[-69.1726,-37.1754,660.5402],[-69.2147,-37.1701,668.8362],[-69.2292,-37.1611,722.4167],[-69.2664,-37.1445,692.8328],[-69.2783,-37.1425,683.6458],[-69.2986,-37.1477,687.8254],[-69.3136,-37.146,694.9723],[-69.3318,-37.1478,696.6415],[-69.395,-37.1649,712.476],[-69.4565,-37.1644,729.2685],[-69.4617,-37.1659,730.3161],[-69.4645,-37.1729,728.468],[-69.4763,-37.175,733.4592],[-69.4888,-37.1747,736.346],[-69.5066,-37.1655,740.594],[-69.5217,-37.1638,748.3721],[-69.536,-37.1596,824.7424],[-69.5627,-37.1478,765.8054],[-69.6015,-37.1337,776.3582],[-69.6255,-37.1306,871.8467],[-69.6372,-37.1195,796.1186],[-69.651,-37.1146,791.4503],[-69.6622,-37.1028,810.8431],[-69.6673,-37.1008,829.8068],[-69.6857,-37.0986,811.2596],[-69.7021,-37.0923,821.4321],[-69.733,-37.0653,935.6684],[-69.734,-37.0458,935.0078],[-69.7361,-37.0362,984.8504],[-69.7431,-37.0284,1048.9377],[-69.7581,-37.0194,844.2137],[-69.7616,-37.0158,838.3279],[-69.7644,-36.9988,847.0483],[-69.7748,-36.9804,836.3171],[-69.7778,-36.9438,849.0172],[-69.7768,-36.9341,851.7836],[-69.7722,-36.9199,856.4567],[-69.7755,-36.9056,868.5381],[-69.7752,-36.9007,874.4724],[-69.7728,-36.891,877.2609],[-69.7692,-36.8844,880.8979],[-69.7578,-36.8761,873.5853],[-69.7576,-36.8714,880.3491],[-69.7602,-36.8665,876.8835],[-69.767,-36.8622,883.0253],[-69.8017,-36.8524,975.5389],[-69.8214,-36.841,957.6251],[-69.8448,-36.8359,964.5662],[-69.8594,-36.8269,1134.9257],[-69.8685,-36.8173,1098.4846],[-69.8715,-36.8026,1074.1545],[-69.8761,-36.8005,1059.2788],[-69.8946,-36.7974,987.4064],[-69.9044,-36.7911,1035.9584],[-69.9098,-36.7852,1068.9574],[-69.9117,-36.7785,1071.6869],[-69.9068,-36.7536,1222.5779],[-69.908,-36.7493,1115.5288],[-69.9343,-36.7287,1222.7327],[-69.9391,-36.7121,1262.9241],[-69.9501,-36.6975,1442.6194],[-69.9603,-36.6884,1548.4663],[-69.9724,-36.6811,1376.8086],[-69.9953,-36.6749,1724.293],[-70.0088,-36.6692,1386.9438],[-70.0323,-36.6496,1262.385]]]]}
,"properties": {"GID_2": "ARG.15.13_1","GID_0": "ARG","country": "Argentina","GID_1": "ARG.15_1","state": "Neuquén","NL_NAME_1": "NA","county": "Pehuenches","VARNAME_2": "ButaRanquil","NL_NAME_2": "NA","TYPE_2": "Departamento","ENGTYPE_2": "Department","CC_2": "NA","HASC_2": "AR.NQ.PE","name": "Pehuenches.county","area_km2": 9177.883,"hist_schema_id": "Elevation0-9000","hist_area_km2": {"450": 7.713,"475": 20.033,"500": 79.459,"525": 151.018,"550": 117.752,"575": 165.637,"600": 144.029,"625": 146.127,"650": 229.108,"675": 287.23,"700": 268.89,"725": 272.384,"750": 258.093,"775": 251.264,"800": 233.982,"825": 265.7,"850": 334.664,"875": 366.652,"900": 368.081,"925": 375.926,"950": 374.096,"975": 321.324,"1000": 287.718,"1025": 259.249,"1050": 241.811,"1075": 238.655,"1100": 226.986,"1125": 206.054,"1150": 188.331,"1175": 171.413,"1200": 157.961,"1225": 140.875,"1250": 129.169,"1275": 123.675,"1300": 121.254,"1325": 111.07,"1350": 103.704,"1375": 96.798,"1400": 89.159,"1425": 87.066,"1450": 82.017,"1475": 74.799,"1500": 66.213,"1525": 64.682,"1550": 68.427,"1575": 60.41,"1600": 56.776,"1625": 58.658,"1650": 52.418,"1675": 48.904,"1700": 38.976,"1725": 34.091,"1750": 28.825,"1775": 29.241,"1800": 26.94,"1825": 24.998,"1850": 27.255,"1875": 24.143,"1900": 19.691,"1925": 21.551,"1950": 17.394,"1975": 14.997,"2000": 15.289,"2025": 16.477,"2050": 16.428,"2075": 15.49,"2100": 12.411,"2125": 9.722,"2150": 8.18,"2175": 7.149,"2200": 6.66,"2225": 5.239,"2250": 5.476,"2275": 4.969,"2300": 4.445,"2325": 4.225,"2350": 3.549,"2375": 3.734,"2400": 3.345,"2425": 3.092,"2450": 3.109,"2475": 3.109,"2500": 3.193,"2525": 2.585,"2550": 2.433,"2575": 2.213,"2600": 2.315,"2625": 2.01,"2650": 2.146,"2675": 1.791,"2700": 1.673,"2725": 1.875,"2750": 1.673,"2775": 1.504,"2800": 2.044,"2825": 2.855,"2850": 3.058,"2875": 2.517,"2900": 2.855,"2925": 2.45,"2950": 2.467,"2975": 2.23,"3000": 2.146,"3025": 1.926,"3050": 1.943,"3075": 1.994,"3100": 1.622,"3125": 1.014,"3150": 1.081,"3175": 0.879,"3200": 0.558,"3225": 0.676,"3250": 0.676,"3275": 0.372,"3300": 0.423,"3325": 0.321,"3350": 0.27,"3375": 0.152,"3400": 0.254,"3425": 0.22,"3450": 0.118,"3475": 0.287,"3500": 0.135,"3525": 0.152,"3550": 0.186,"3575": 0.101,"3600": 0.101,"3625": 0.085,"3675": 0.186,"3750": 0.118,"3775": 0.085}}}