{"type":"Feature","properties":{"GID_2":"ARG.11.2_1","GID_0":"ARG","country":"Argentina","GID_1":"ARG.11_1","state":"LaPampa","NL_NAME_1":"NA","county":"CaleuCaleu","VARNAME_2":"RioColorado","NL_NAME_2":"NA","TYPE_2":"Departamento","ENGTYPE_2":"Department","CC_2":"NA","HASC_2":"AR.LP.CL","name":"CaleuCaleu.county"},
"geometry":{"type": "MultiPolygon","coordinates": [[[[-63.3893,-38.2571,154.1707],[-63.919,-38.2558,52.4977],[-64.5129,-38.2507,175.6487],[-64.515,-38.8534,97.3089],[-64.4922,-38.8613,91.2685],[-64.4806,-38.8552,94.6941],[-64.4566,-38.8582,104.4634],[-64.452,-38.8624,95.9307],[-64.4306,-38.8717,89.4526],[-64.4099,-38.8742,89.7803],[-64.3749,-38.8753,90.4814],[-64.3686,-38.8778,89.9314],[-64.3479,-38.8922,85.2422],[-64.3268,-38.8929,88.7578],[-64.3097,-38.902,85.5189],[-64.2957,-38.9028,83.6923],[-64.2719,-38.9076,92.5884],[-64.2468,-38.9177,86.4927],[-64.2296,-38.9271,84.1085],[-64.1885,-38.9426,108.3956],[-64.165,-38.9546,81.2607],[-64.1386,-38.9623,88.182],[-64.1138,-38.9727,87.5883],[-64.0714,-38.9865,94.1207],[-64.0689,-38.9883,87.3926],[-64.0673,-38.9965,77.4433],[-64.0602,-39.0023,76.2236],[-64.0499,-39.0041,75.7239],[-64.0184,-39.004,73.7103],[-64.0015,-39.0078,73.7066],[-63.9889,-39.0173,74.3655],[-63.9885,-39.0199,72.7286],[-63.9967,-39.0289,72.9293],[-63.9969,-39.0315,72.0924],[-63.9882,-39.0364,71.0553],[-63.9865,-39.0414,72.6443],[-63.9501,-39.0512,70.7068],[-63.9465,-39.059,71.9082],[-63.931,-39.0653,66.7209],[-63.9125,-39.078,66.0547],[-63.9046,-39.096,63.5],[-63.8889,-39.1023,67.4085],[-63.8687,-39.1068,63.8336],[-63.8442,-39.1082,61.8749],[-63.8291,-39.115,65.2132],[-63.8121,-39.1142,63.4639],[-63.7975,-39.1164,61.6552],[-63.766,-39.128,56.6572],[-63.7618,-39.1324,58.957],[-63.7539,-39.1477,58.5152],[-63.7375,-39.158,87.3577],[-63.7318,-39.1649,77.1783],[-63.7305,-39.1674,75.3438],[-63.7315,-39.1809,58.9144],[-63.7072,-39.1917,56.5455],[-63.6873,-39.203,55.4055],[-63.6741,-39.2068,54.9247],[-63.6643,-39.2177,53.3426],[-63.6545,-39.221,53.5575],[-63.6352,-39.2327,51.894],[-63.6314,-39.2401,52.8017],[-63.6288,-39.242,52.9741],[-63.6184,-39.2421,49.3546],[-63.5945,-39.2466,49.311],[-63.551,-39.2584,83.4346],[-63.5358,-39.2696,52.5779],[-63.5343,-39.2834,47.9471],[-63.5318,-39.2884,48.0316],[-63.5257,-39.2913,47.0031],[-63.5053,-39.296,46.5049],[-63.459,-39.3161,52.2018],[-63.4135,-39.3209,61.7156],[-63.3993,-39.3208,54.9692],[-63.3886,-39.3183,41.5025],[-63.3902,-39.2963,79.6035],[-63.3893,-38.2571,154.1707]]]]}}