{"type": "Feature","bbox": [-67.7318,-35.9989,-66.5023,-34.4988],"geometry": {"type": "MultiPolygon","coordinates": [[[[-66.6261,-35.9989,326.0932],[-66.6373,-35.9671,326.2385],[-66.6348,-35.9547,328.1402],[-66.6263,-35.9416,323.7884],[-66.6303,-35.9295,323.8161],[-66.6321,-35.9115,325.1537],[-66.6306,-35.9075,328.3479],[-66.6238,-35.9071,326.0146],[-66.6193,-35.9012,326.2305],[-66.6163,-35.8862,330.334],[-66.6195,-35.8715,328.2134],[-66.6158,-35.8467,330.3916],[-66.6024,-35.8187,328.5187],[-66.6012,-35.8088,334.9702],[-66.598,-35.7992,335.1315],[-66.5831,-35.7718,332.0175],[-66.5827,-35.7671,335.4001],[-66.5871,-35.7472,336.0419],[-66.582,-35.7356,333.943],[-66.5858,-35.7158,338.3834],[-66.5854,-35.7109,335.4615],[-66.5708,-35.6728,341.1658],[-66.5684,-35.6554,342.0519],[-66.5618,-35.647,341.0235],[-66.5591,-35.6398,340.7861],[-66.5605,-35.6325,340.9314],[-66.5697,-35.6261,345.394],[-66.5696,-35.6212,344.8737],[-66.5654,-35.6093,340.9593],[-66.5761,-35.6039,345.7051],[-66.5779,-35.5994,345.9072],[-66.5771,-35.5942,346.1501],[-66.5648,-35.5741,342.4208],[-66.5532,-35.5663,345.211],[-66.5399,-35.5495,343.5638],[-66.5391,-35.5372,342.9372],[-66.5337,-35.5255,344.1105],[-66.5313,-35.4931,344.747],[-66.527,-35.4735,346.5404],[-66.5272,-35.431,346.7232],[-66.53,-35.4137,347.9821],[-66.5207,-35.3952,349.9367],[-66.5211,-35.3827,355.8629],[-66.51,-35.3541,351.4111],[-66.507,-35.3315,352.8616],[-66.5085,-35.322,354.225],[-66.5201,-35.3042,357.1646],[-66.5245,-35.277,353.471],[-66.5226,-35.2725,353.4162],[-66.5152,-35.2643,353.6346],[-66.5126,-35.2546,354.6647],[-66.5045,-35.244,356.487],[-66.5023,-35.2343,356.323],[-66.5075,-35.1945,359.2882],[-66.5036,-35.1522,361.9736],[-66.5068,-35.1223,364.1283],[-66.5145,-35.1088,365.5566],[-66.5165,-35.0988,366.5399],[-66.528,-35.0873,367.2045],[-66.533,-35.0704,365.9997],[-66.5409,-35.059,369.0059],[-66.5422,-35.0522,368.6709],[-66.5413,-35.0373,368.6235],[-66.5503,-35.0214,370.9278],[-66.5478,-35.0091,370.2296],[-66.5528,-35.0001,370.9113],[-66.5553,-34.9903,371.2168],[-66.5524,-34.9726,370.5327],[-66.5398,-34.9588,369.2933],[-66.5387,-34.9489,370.4386],[-66.5479,-34.9332,373.2683],[-66.5528,-34.8984,369.9656],[-66.5619,-34.8826,376.4337],[-66.5675,-34.8632,376.337],[-66.5762,-34.8446,376.3293],[-66.5835,-34.8336,377.1042],[-66.5967,-34.82,377.1805],[-66.6045,-34.8092,378.2248],[-66.6191,-34.7966,378.6956],[-66.6275,-34.7833,379.7806],[-66.6551,-34.7471,380.2085],[-66.6533,-34.7429,378.8792],[-66.6424,-34.7338,377.3835],[-66.6376,-34.7275,377.2691],[-66.6373,-34.7199,381.5984],[-66.6422,-34.7107,392.4692],[-66.6503,-34.7035,390.6725],[-66.6846,-34.6877,380.9398],[-66.6964,-34.6701,381.6591],[-66.7045,-34.6486,380.8389],[-66.7194,-34.6362,384.3223],[-66.7265,-34.6281,385.9946],[-66.7335,-34.6117,387.1337],[-66.7504,-34.5879,385.0574],[-66.753,-34.5707,383.4424],[-66.7574,-34.5551,384.2604],[-66.7984,-34.54,387.9978],[-66.8193,-34.5287,390.0593],[-66.841,-34.524,391.0432],[-66.8704,-34.513,396.0664],[-66.9001,-34.5102,398.6223],[-66.9137,-34.5013,398.6767],[-66.9205,-34.4988,398.26],[-66.9327,-34.5003,398.2539],[-66.9542,-34.5144,401.6175],[-67.0384,-34.5396,414.1559],[-67.0816,-34.5556,417.5381],[-67.0944,-34.562,418.1379],[-67.1039,-34.5644,418.415],[-67.1307,-34.5594,422.7128],[-67.153,-34.56,424.8916],[-67.1656,-34.5535,426.4255],[-67.175,-34.5507,426.8063],[-67.2165,-34.5572,431.9453],[-67.2484,-34.5455,436.2914],[-67.2683,-34.5445,438.4446],[-67.2847,-34.5352,440.5761],[-67.2943,-34.5333,441.4023],[-67.3042,-34.5338,442.0993],[-67.3184,-34.538,444.0505],[-67.328,-34.5361,446.507],[-67.3353,-34.537,447.7351],[-67.3557,-34.5448,447.0247],[-67.3631,-34.5458,449.8009],[-67.3905,-34.5449,452.7242],[-67.4069,-34.5401,455.7094],[-67.4145,-34.5402,455.5687],[-67.4214,-34.5422,456.6698],[-67.4243,-34.5457,457.3791],[-67.4311,-34.5483,459.0019],[-67.4772,-34.5569,464.335],[-67.5086,-34.5535,467.3434],[-67.5199,-34.545,470.7651],[-67.5354,-34.5452,471.6626],[-67.5519,-34.5381,474.1489],[-67.5761,-34.5417,476.7],[-67.5946,-34.539,481.1261],[-67.6082,-34.5331,482.3483],[-67.6237,-34.5313,483.684],[-67.6358,-34.5334,486.9878],[-67.6465,-34.5388,488.5874],[-67.6529,-34.5444,487.949],[-67.6523,-34.5473,488.558],[-67.7318,-34.9487,475.7565],[-67.7221,-34.9553,474.2797],[-67.7192,-34.965,473.5115],[-67.7044,-34.9813,469.5855],[-67.7138,-35.0112,467.8695],[-67.7059,-35.0192,464.7943],[-67.7048,-35.0397,461.1215],[-67.7015,-35.0523,460.4574],[-67.7042,-35.0676,457.2741],[-67.7012,-35.0826,454.9896],[-67.7078,-35.0998,454.1802],[-67.709,-35.1075,452.9834],[-67.708,-35.1125,452.1113],[-67.7138,-35.1186,451.3093],[-67.7155,-35.1236,450.4089],[-67.7108,-35.1384,448.0789],[-67.7203,-35.1518,446.015],[-67.7217,-35.1593,443.988],[-67.7205,-35.1696,443.2427],[-67.7263,-35.1817,441.683],[-67.7218,-35.1964,440.3104],[-67.7238,-35.2168,436.5673],[-67.7212,-35.2242,436.9436],[-67.7087,-35.2322,434.5236],[-67.709,-35.2422,432.8673],[-67.707,-35.247,432.8076],[-67.6885,-35.2567,430.5222],[-67.6868,-35.2721,429.3901],[-67.6724,-35.2821,426.9639],[-67.6695,-35.2946,425.8279],[-67.6657,-35.3017,425.1168],[-67.6596,-35.3075,424.1069],[-67.6512,-35.3108,423.2766],[-67.644,-35.3193,423.6467],[-67.6439,-35.3216,423.3328],[-67.6511,-35.3269,421.6191],[-67.6531,-35.3318,421.9738],[-67.6493,-35.3388,422.0546],[-67.6481,-35.3464,419.9058],[-67.6525,-35.3745,416.8377],[-67.6501,-35.382,416.3374],[-67.6464,-35.3859,415.244],[-67.6378,-35.3893,413.994],[-67.6321,-35.3985,412.5302],[-67.6196,-35.406,411.7177],[-67.6133,-35.4177,410.7392],[-67.5986,-35.4273,407.9792],[-67.5914,-35.447,406.5063],[-67.583,-35.4546,404.4408],[-67.5742,-35.4575,405.1086],[-67.5693,-35.4695,403.1888],[-67.5575,-35.4781,402.0596],[-67.5552,-35.4856,400.7933],[-67.5551,-35.501,399.9016],[-67.5459,-35.5201,396.2197],[-67.5493,-35.5269,396.6915],[-67.5357,-35.5336,394.2229],[-67.5274,-35.5414,394.1829],[-67.5258,-35.5539,392.8844],[-67.5068,-35.598,386.682],[-67.4865,-35.6112,385.6239],[-67.4337,-35.6353,382.1343],[-67.4298,-35.6406,380.2895],[-67.4258,-35.6504,379.6082],[-67.4226,-35.6535,378.5518],[-67.4146,-35.6587,378.6644],[-67.3897,-35.6689,374.609],[-67.3861,-35.6716,373.5057],[-67.3742,-35.685,371.4406],[-67.3661,-35.6978,372.0077],[-67.3385,-35.7247,369.2775],[-67.3258,-35.7313,366.7585],[-67.3115,-35.7354,365.9339],[-67.2836,-35.7497,362.6772],[-67.2579,-35.7827,359.8959],[-67.2287,-35.7988,354.683],[-67.2245,-35.8039,354.9957],[-67.2121,-35.8288,351.7114],[-67.1995,-35.8415,351.4603],[-67.1935,-35.8551,349.3801],[-67.1835,-35.8718,347.9028],[-67.1558,-35.9013,344.8528],[-67.1497,-35.9317,342.5937],[-67.1436,-35.943,341.7377],[-67.135,-35.9475,341.5156],[-67.1237,-35.943,339.6064],[-67.1137,-35.9423,339.1508],[-67.0979,-35.9486,337.1987],[-67.0897,-35.9565,337.2413],[-67.0853,-35.964,336.2581],[-67.0818,-35.9842,333.8829],[-67.0746,-35.998,332.6673],[-66.6261,-35.9989,326.0932]]]]}
,"properties": {"GID_2": "ARG.13.2_1","GID_0": "ARG","country": "Argentina","GID_1": "ARG.13_1","state": "Mendoza","NL_NAME_1": "NA","county": "GeneralAlvear","VARNAME_2": "NA","NL_NAME_2": "NA","TYPE_2": "Departamento","ENGTYPE_2": "Department","CC_2": "NA","HASC_2": "AR.MZ.GA","name": "GeneralAlvear.county","area_km2": 14375.38,"hist_schema_id": "Elevation0-9000","hist_area_km2": {"325": 525.61,"350": 2257.05,"375": 3562.54,"400": 3438.51,"425": 2267.58,"450": 1460.78,"475": 827.37,"500": 35.94}}}