{"type":"Feature","properties":{"GID_2":"ARG.13.16_1","GID_0":"ARG","country":"Argentina","GID_1":"ARG.13_1","state":"Mendoza","NL_NAME_1":"NA","county":"SantaRosa","VARNAME_2":"NA","NL_NAME_2":"NA","TYPE_2":"Departamento","ENGTYPE_2":"Department","CC_2":"NA","HASC_2":"AR.MZ.ST","name":"SantaRosa.county"},
"geometry":{"type": "MultiPolygon","coordinates": [[[[-68.2908,-33.2313,627.603],[-68.2864,-33.3105,623.1893],[-68.2917,-33.3216,623.3315],[-68.2862,-33.3293,622.3986],[-68.2866,-33.4797,700.0278],[-68.2816,-34.0131,749.9813],[-68.2979,-34.0216,763.1864],[-68.3131,-34.0192,778.3104],[-68.3358,-34.0116,800.8544],[-68.3478,-34.0143,815.6793],[-68.3617,-34.0198,822.0687],[-68.3771,-34.02,834.6144],[-68.3777,-34.191,807.1605],[-68.366,-34.186,797.642],[-68.3406,-34.1712,769.2142],[-68.3287,-34.1687,763.5894],[-68.3102,-34.1678,751.611],[-68.2609,-34.1719,710.731],[-68.2375,-34.1786,700.0589],[-68.2075,-34.1918,679.9008],[-68.1686,-34.2,656.0863],[-68.0819,-34.1999,612.9757],[-68.039,-34.1945,598.5234],[-68.0269,-34.1963,592.3087],[-68.0183,-34.1941,587.5043],[-67.9982,-34.2007,577.0052],[-67.6389,-34.2104,479.3914],[-67.5948,-34.1244,475.3034],[-67.5253,-34.1198,469.7965],[-67.5266,-34.0505,470.9409],[-67.53,-33.9988,472.5942],[-67.5291,-33.7869,483.7975],[-67.71,-33.7828,512.265],[-67.6975,-33.4442,523.286],[-67.7052,-33.4413,526.6353],[-67.6834,-33.3478,525.0359],[-67.6753,-33.348,522.7806],[-67.6006,-33.0446,521.2357],[-67.9543,-32.9847,582.9235],[-67.9585,-32.8378,574.0163],[-68.1144,-32.8358,590.9896],[-68.1235,-32.9995,608.5406],[-68.1907,-32.9994,614.8469],[-68.2865,-33.0567,629.0339],[-68.2864,-33.1914,629.1497],[-68.2781,-33.1954,627.2783],[-68.2908,-33.2313,627.603]]]]}}