{"type": "Feature","bbox": [-61.7472,-37.9363,-60.876,-36.8713],"geometry": {"type": "MultiPolygon","coordinates": [[[[-61.1764,-37.681,214.8681],[-61.0699,-37.598,209.7925],[-61.0636,-37.6032,206.4557],[-60.876,-37.4529,199.7084],[-60.9675,-37.3767,193.2056],[-60.9646,-37.3738,193.381],[-60.9697,-37.3678,192.9127],[-60.8884,-37.3037,196.6204],[-61.4333,-36.8713,126.3889],[-61.5971,-36.999,145.4249],[-61.6059,-36.9917,144.9065],[-61.7335,-37.0893,158.1454],[-61.7307,-37.0946,159.1465],[-61.7324,-37.1082,163.1785],[-61.7251,-37.1142,164.8047],[-61.7155,-37.1391,170.1131],[-61.7183,-37.1529,172.9778],[-61.7111,-37.1679,175.4982],[-61.7021,-37.2148,184.4385],[-61.7085,-37.2299,186.4754],[-61.7148,-37.2371,188.1556],[-61.7202,-37.2532,190.4391],[-61.7283,-37.2568,191.2523],[-61.7399,-37.272,195.4417],[-61.7404,-37.2785,196.2914],[-61.744,-37.2804,196.4758],[-61.7472,-37.3027,200.7699],[-61.5364,-37.4834,209.6994],[-61.5936,-37.5289,221.0777],[-61.4837,-37.6172,230.1738],[-61.536,-37.6595,243.4964],[-61.4441,-37.734,252.0343],[-61.6021,-37.8567,294.2234],[-61.5088,-37.9363,279.1148],[-61.4032,-37.857,260.2123],[-61.1764,-37.681,214.8681]]]]}
,"properties": {"GID_2": "ARG.1.47_1","GID_0": "ARG","country": "Argentina","GID_1": "ARG.1_1","state": "BuenosAires","NL_NAME_1": "NA","county": "GeneralLaMadrid","VARNAME_2": "NA","NL_NAME_2": "NA","TYPE_2": "Partido","ENGTYPE_2": "Part","CC_2": "NA","HASC_2": "AR.BA.GM","name": "GeneralLaMadrid.county","area_km2": 4766.804,"hist_schema_id": "Elevation0-9000","hist_area_km2": {"125": 66.022,"150": 882.913,"175": 1376.022,"200": 1591.693,"225": 439.029,"250": 246.612,"275": 137.416,"300": 27.097}}}