{"type":"Feature","properties":{"GID_2":"ARG.2.15_1","GID_0":"ARG","country":"Argentina","GID_1":"ARG.2_1","state":"Catamarca","NL_NAME_1":"NA","county":"Tinogasta","VARNAME_2":"NA","NL_NAME_2":"NA","TYPE_2":"Departamento","ENGTYPE_2":"Department","CC_2":"NA","HASC_2":"AR.CT.TI","name":"Tinogasta.county"},
"geometry":{"type": "MultiPolygon","coordinates": [[[[-68.3634,-26.801,5888.1035],[-68.3477,-26.814,5791.8574],[-68.2995,-26.8733,4749.4697],[-68.3015,-26.8763,4760.9023],[-68.2996,-26.8844,4755.8521],[-68.2913,-26.8872,4891.8984],[-68.2904,-26.8914,5007.4883],[-68.2848,-26.8988,5147.812],[-68.2817,-26.9,5215.1279],[-68.2806,-26.9044,5235.4746],[-68.2689,-26.9087,5719.7104],[-68.2674,-26.9133,5835.3877],[-68.2631,-26.9186,6024.457],[-68.2666,-26.9232,5889.998],[-68.274,-26.9265,5586.5186],[-68.2789,-26.9265,5426.3296],[-68.283,-26.9234,5259.7988],[-68.2899,-26.9243,5181.2319],[-68.2937,-26.9299,5175.5107],[-68.291,-26.9487,4943.2476],[-68.2944,-26.9593,5031.1587],[-68.3011,-26.9677,5047.9805],[-68.3064,-26.9689,4937.8735],[-68.3155,-26.9749,4969.0718],[-68.3192,-26.9817,4934.9585],[-68.318,-26.985,4934.5747],[-68.3128,-26.9899,4996.5938],[-68.3151,-26.9984,5137.9097],[-68.3125,-27.0,5158.9692],[-68.3088,-27.0084,5368.249],[-68.2998,-27.0168,5903.874],[-68.2972,-27.0256,6410.6592],[-68.2931,-27.0277,6424.0293],[-68.2955,-27.0333,6586.1426],[-68.2939,-27.038,6510.2803],[-68.3081,-27.0412,6033.9829],[-68.3263,-27.0347,5551.877],[-68.3469,-27.033,5210.4185],[-68.3502,-27.0364,5166.5522],[-68.3604,-27.039,5201.4619],[-68.3681,-27.0458,5459.7021],[-68.3797,-27.047,6014.4121],[-68.3839,-27.0558,5806.6689],[-68.3926,-27.0565,5392.4009],[-68.3996,-27.0616,5268.1963],[-68.4037,-27.0676,5352.9922],[-68.4056,-27.0648,5382.0449],[-68.4105,-27.0633,5379.3125],[-68.4184,-27.0701,5508.6709],[-68.4275,-27.0672,5885.2192],[-68.4286,-27.0637,5970.7773],[-68.4317,-27.0675,5907.3491],[-68.4299,-27.07,5920.3916],[-68.442,-27.0784,5601.3506],[-68.4438,-27.0863,5669.542],[-68.4507,-27.0949,5950.188],[-68.4574,-27.0943,5880.7837],[-68.4654,-27.0912,5679.457],[-68.4677,-27.0875,5615.5151],[-68.4755,-27.0839,5526.6055],[-68.4755,-27.077,5727.0586],[-68.4791,-27.0707,5938.1748],[-68.4813,-27.0605,6395.6992],[-68.4841,-27.0574,6461.9863],[-68.4723,-27.1108,5955.1914],[-68.4807,-27.1154,5876.8306],[-68.4794,-27.1192,5906.3428],[-68.4817,-27.1287,6070.3315],[-68.4847,-27.1283,6083.3325],[-68.4904,-27.1346,5800.4473],[-68.4942,-27.1362,5683.3843],[-68.5106,-27.1291,5816.0557],[-68.5162,-27.1306,5831.0708],[-68.5163,-27.1271,5811.4121],[-68.5186,-27.1244,5899.0967],[-68.5404,-27.1097,6838.3242],[-68.5456,-27.1139,6709.3042],[-68.5487,-27.1132,6688.3613],[-68.5579,-27.1155,6667.4375],[-68.56,-27.1242,6562.769],[-68.5557,-27.1277,6495.772],[-68.5547,-27.1334,6445.3857],[-68.5566,-27.1375,6437.4902],[-68.563,-27.1402,6206.5576],[-68.5673,-27.1519,6009.5498],[-68.5704,-27.1542,6074.5186],[-68.5677,-27.1585,6178.8774],[-68.5675,-27.1625,6154.3643],[-68.5724,-27.1654,6132.6475],[-68.5749,-27.1712,6274.3564],[-68.5737,-27.1738,6346.8418],[-68.5762,-27.1759,6366.8774],[-68.601,-27.1587,5615.2773],[-68.6064,-27.1588,5592.644],[-68.6102,-27.1639,5552.9419],[-68.6165,-27.1658,5483.7188],[-68.6196,-27.1694,5510.5498],[-68.6217,-27.1692,5502.167],[-68.6231,-27.1642,5468.2686],[-68.6295,-27.164,5583.1587],[-68.6333,-27.1618,5704.0664],[-68.6388,-27.1483,5795.7627],[-68.6375,-27.1438,5688.6519],[-68.6513,-27.1389,5748.1802],[-68.6545,-27.1363,5873.2373],[-68.6559,-27.1245,5773.9702],[-68.6633,-27.1206,5845.9614],[-68.6661,-27.1066,5578.4878],[-68.6703,-27.0987,5413.396],[-68.6829,-27.1063,5321.1904],[-68.6927,-27.0986,5656.9458],[-68.7039,-27.0992,5986.1445],[-68.7122,-27.1044,6171.4062],[-68.7173,-27.1051,6086.6958],[-68.7374,-27.1012,5505.4551],[-68.7448,-27.1045,5520.1001],[-68.7513,-27.1114,5972.1021],[-68.7621,-27.1046,5886.0898],[-68.7679,-27.1036,6125.5654],[-68.7782,-27.0981,6729.896],[-68.7879,-27.1037,6347.0742],[-68.7916,-27.1118,5966.5732],[-68.7927,-27.1188,5678.7637],[-68.7994,-27.1238,5465.5728],[-68.7987,-27.1293,5420.418],[-68.8083,-27.1458,5828.751],[-68.8073,-27.1525,5895.1787],[-68.8168,-27.1463,5524.8501],[-68.8245,-27.1466,5432.3389],[-68.8313,-27.1503,5385.1562],[-68.8342,-27.1566,5302.5132],[-68.8415,-27.1582,5335.7041],[-68.8441,-27.1608,5317.8447],[-68.8406,-27.1666,5224.3662],[-68.8471,-27.1778,5125.9546],[-68.8527,-27.1824,4953.8833],[-68.8587,-27.1913,4899.3281],[-68.8554,-27.1969,4846.4399],[-68.8569,-27.2048,4800.6948],[-68.8522,-27.2098,4811.1987],[-68.8534,-27.2171,4773.1079],[-68.8594,-27.2214,4772.1221],[-68.8561,-27.2251,4768.6118],[-68.8561,-27.2309,4762.1938],[-68.8671,-27.2363,4767.4346],[-68.8709,-27.2454,4801.1479],[-68.8695,-27.2469,4778.8418],[-68.8684,-27.2626,5057.8813],[-68.8593,-27.266,5041.9795],[-68.8584,-27.2705,5059.624],[-68.8549,-27.2734,5035.8408],[-68.8501,-27.2734,5060.5298],[-68.8436,-27.276,5078.8384],[-68.8408,-27.2803,5205.9673],[-68.8288,-27.2878,5953.1948],[-68.8251,-27.2938,5831.4336],[-68.8137,-27.2963,6138.2256],[-68.8085,-27.2993,6205.6187],[-68.8086,-27.3011,6215.8892],[-68.8292,-27.2986,5565.9814],[-68.848,-27.3152,4928.8057],[-68.8569,-27.3161,4877.6172],[-68.8615,-27.3181,4928.5435],[-68.8695,-27.3174,5038.2681],[-68.8714,-27.3192,5013.1733],[-68.8739,-27.3285,4982.4556],[-68.8805,-27.331,5007.3477],[-68.8839,-27.3374,5112.0596],[-68.8834,-27.3395,5119.8721],[-68.8795,-27.3385,5154.5303],[-68.8782,-27.3397,5149.7729],[-68.8874,-27.3495,5127.769],[-68.8887,-27.3533,5274.1123],[-68.8914,-27.3527,5284.4531],[-68.8934,-27.3558,5258.375],[-68.8932,-27.3615,5328.0742],[-68.889,-27.3746,5298.2578],[-68.8902,-27.3774,5308.0029],[-68.8966,-27.3792,5321.0708],[-68.8959,-27.3849,5338.3374],[-68.8927,-27.3926,5335.3779],[-68.8868,-27.3983,5188.2549],[-68.8899,-27.4004,5192.3838],[-68.8953,-27.3994,5121.042],[-68.9076,-27.4008,4821.0713],[-68.9133,-27.403,4734.0195],[-68.9191,-27.4086,4692.7539],[-68.9308,-27.4093,4725.1406],[-68.9315,-27.4134,4695.6064],[-68.926,-27.4176,4693.6953],[-68.9256,-27.4206,4672.7534],[-68.928,-27.4311,4609.9248],[-68.9313,-27.4318,4598.3149],[-68.933,-27.4357,4668.3867],[-68.9317,-27.4416,4678.4102],[-68.9357,-27.445,4656.2241],[-68.9372,-27.4456,4656.2241],[-68.9433,-27.4425,4660.6289],[-68.945,-27.4393,4646.5156],[-68.9553,-27.4357,4643.124],[-68.9601,-27.4299,4667.4209],[-68.9703,-27.4289,4685.6074],[-68.981,-27.4316,4710.5278],[-68.9801,-27.437,4718.9512],[-68.9843,-27.4443,4888.2339],[-68.9883,-27.4471,4936.2437],[-68.9888,-27.453,4897.9746],[-68.9817,-27.4543,4924.6846],[-68.9821,-27.4572,4913.4111],[-68.9786,-27.4599,4904.1865],[-68.9782,-27.4627,4897.916],[-68.97,-27.469,4917.8472],[-68.9603,-27.4715,4934.5278],[-68.9635,-27.4751,4926.1025],[-68.9634,-27.4772,4933.4453],[-68.9575,-27.4839,4883.0425],[-68.9492,-27.488,4948.9668],[-68.9508,-27.5005,4914.7573],[-68.9425,-27.5067,4938.126],[-68.943,-27.5134,4995.1821],[-68.9414,-27.5181,4995.9941],[-68.9454,-27.5281,5071.7759],[-68.9474,-27.5296,5078.6621],[-68.962,-27.525,5173.4316],[-68.9876,-27.5245,5511.9287],[-68.9819,-27.5333,5296.7539],[-68.9777,-27.5362,5302.9307],[-68.9774,-27.5413,5479.7334],[-68.9731,-27.543,5611.9746],[-68.9727,-27.5475,5464.8091],[-68.9756,-27.56,5155.6196],[-68.9843,-27.5684,5107.1611],[-68.993,-27.572,5123.3145],[-68.9937,-27.576,5123.5796],[-69.0012,-27.583,5094.752],[-69.0062,-27.585,5116.833],[-69.0137,-27.5842,5057.6494],[-69.0232,-27.5865,5079.728],[-69.0254,-27.5889,5060.895],[-69.0251,-27.5929,5017.5645],[-69.0274,-27.5947,4862.21],[-69.0395,-27.595,4973.8696],[-69.0452,-27.6094,5044.9907],[-69.0517,-27.6167,4987.1846],[-69.0561,-27.6502,4914.0566],[-69.0602,-27.6624,4893.2271],[-69.0598,-27.6638,4878.7065],[-69.0553,-27.665,4774.0376],[-69.0558,-27.6702,4836.3374],[-69.0534,-27.6741,4888.5],[-69.0421,-27.6799,5101.6021],[-69.0442,-27.6871,4993.2969],[-69.0438,-27.6958,5049.7983],[-69.0451,-27.6993,5083.2754],[-69.0496,-27.7006,5099.2749],[-69.0519,-27.703,5100.4023],[-69.064,-27.708,4966.4214],[-69.0741,-27.7099,4913.4834],[-69.0846,-27.7148,4985.9448],[-69.0846,-27.7182,5020.2896],[-69.0898,-27.7215,5049.2808],[-69.09,-27.7249,5052.6821],[-69.0829,-27.7273,5123.0601],[-69.0846,-27.736,5165.9434],[-69.0882,-27.7393,5159.5024],[-69.085,-27.7467,5285.3901],[-69.0868,-27.7531,5394.7549],[-69.0854,-27.7554,5404.2207],[-69.0897,-27.7662,5392.8765],[-69.089,-27.773,5463.6577],[-68.8456,-27.7805,5430.2021],[-68.804,-27.7608,6668.4639],[-68.7366,-27.7582,5404.1377],[-68.6446,-27.7498,4534.5718],[-68.553,-27.7108,5448.5977],[-68.492,-27.7338,4653.4932],[-68.5087,-27.787,4700.4629],[-68.5094,-27.7929,4724.582],[-68.5056,-27.8045,4627.9971],[-68.4973,-27.8162,4399.7422],[-68.4877,-27.8214,4462.5723],[-68.4624,-27.8298,4902.1655],[-68.4539,-27.8363,5017.5908],[-68.4501,-27.8412,4841.2705],[-68.4445,-27.8625,4831.354],[-68.4404,-27.8673,4814.2734],[-68.4316,-27.8733,4594.0811],[-68.4275,-27.8827,4464.335],[-68.4285,-27.9027,4303.6919],[-68.4352,-27.9238,4223.8276],[-68.4392,-27.9596,4228.1934],[-68.4565,-28.0011,4340.9053],[-68.4552,-28.0063,4222.8633],[-68.4473,-28.0176,4282.1245],[-68.4456,-28.0229,4336.8892],[-68.4346,-28.0263,4360.8237],[-68.4227,-28.0249,4237.9175],[-68.4128,-28.0111,4670.4214],[-68.4083,-28.0088,4562.6846],[-68.3617,-28.0202,3858.5198],[-68.3497,-28.0216,3943.2317],[-68.3387,-28.0257,3904.7808],[-68.3028,-28.0242,4260.5059],[-68.2994,-28.0284,4361.646],[-68.2979,-28.0337,4396.2012],[-68.3027,-28.049,4199.9038],[-68.2999,-28.0675,4149.459],[-68.2965,-28.0746,4251.3564],[-68.2833,-28.0861,4265.7285],[-68.2809,-28.0874,4219.2412],[-68.2748,-28.0871,4243.8965],[-68.2624,-28.0757,4312.5024],[-68.2567,-28.0749,4442.71],[-68.2181,-28.0813,4015.6917],[-68.2103,-28.0851,3998.6855],[-68.1997,-28.0947,3921.9104],[-68.1858,-28.0896,3948.137],[-68.1802,-28.091,4010.9673],[-68.1759,-28.0947,4027.2817],[-68.1688,-28.1062,4063.6831],[-68.1635,-28.1072,4186.6182],[-68.1542,-28.1049,4065.8433],[-68.1483,-28.1053,4138.4849],[-68.129,-28.1174,4284.667],[-68.1253,-28.13,4382.8418],[-68.1164,-28.1408,4130.499],[-68.1185,-28.1507,4238.2363],[-68.1141,-28.1549,4153.9253],[-68.1034,-28.1597,4102.3237],[-68.0763,-28.16,4289.2656],[-68.0566,-28.1439,4190.0283],[-68.0454,-28.1401,4029.8867],[-68.0304,-28.1394,3883.4727],[-68.0262,-28.1357,3865.6226],[-68.0203,-28.1264,3803.1575],[-68.0175,-28.1251,3548.4199],[-68.0094,-28.1281,3512.8589],[-67.9975,-28.1288,3570.3943],[-67.9738,-28.1169,3479.584],[-67.9176,-28.122,4769.7612],[-67.9152,-28.1271,4572.5933],[-67.9157,-28.132,4329.2852],[-67.932,-28.1553,4453.8818],[-67.9317,-28.1565,4441.6992],[-67.9219,-28.1568,4368.6069],[-67.9198,-28.1585,4330.6875],[-67.9182,-28.1637,4281.8765],[-67.9234,-28.1952,3646.4685],[-67.9238,-28.2085,3630.186],[-67.9222,-28.2134,3545.9575],[-67.9091,-28.2109,3766.1604],[-67.9017,-28.214,3900.3645],[-67.9016,-28.2198,3797.6804],[-67.9091,-28.2274,3730.24],[-67.9011,-28.2631,3467.4529],[-67.8949,-28.2781,3328.3735],[-67.8869,-28.2893,3444.7397],[-67.8786,-28.2971,3369.6787],[-67.8663,-28.3047,3466.2129],[-67.8446,-28.3142,3661.3909],[-67.8428,-28.3219,3769.2844],[-67.8475,-28.3345,3701.1621],[-67.8464,-28.3425,3655.7847],[-67.8361,-28.3555,3492.0537],[-67.8286,-28.3757,3089.7188],[-67.8176,-28.3865,3874.8047],[-67.8095,-28.3504,3327.7466],[-67.7665,-28.3453,2505.9951],[-67.7388,-28.3401,2441.1914],[-67.6786,-28.316,1587.7703],[-67.6549,-28.3128,1503.4575],[-67.6427,-28.3129,1483.4624],[-67.6235,-28.3173,1627.8845],[-67.5718,-28.32,1243.4977],[-67.5005,-28.3321,1204.0022],[-67.4182,-28.3718,1165.4053],[-67.3827,-28.3814,1144.1799],[-67.2824,-28.3822,1143.4999],[-67.1604,-28.3801,1138.6477],[-67.0911,-28.2792,935.1112],[-67.0397,-28.2594,905.1449],[-67.0437,-28.2407,1039.272],[-67.0403,-28.2152,999.7874],[-67.0394,-28.1946,980.644],[-67.0335,-28.1859,970.0347],[-67.0219,-28.1742,952.3041],[-67.0084,-28.1647,937.1816],[-66.9606,-28.1463,892.0953],[-66.9212,-28.1247,860.8893],[-66.913,-28.1176,858.9578],[-66.9034,-28.1047,870.9839],[-66.8918,-28.0813,883.4977],[-66.8704,-28.0571,895.481],[-66.8504,-28.0468,889.1334],[-66.813,-28.0331,870.5138],[-66.7983,-28.0249,868.9121],[-66.79,-28.0162,865.2156],[-67.1923,-28.0113,1091.9905],[-67.2353,-28.0238,1638.655],[-67.3049,-28.0365,1760.1479],[-67.3243,-28.0345,1964.6896],[-67.3348,-28.0277,2061.1079],[-67.3385,-28.0231,2089.7998],[-67.3422,-28.0062,2393.6519],[-67.3439,-27.9832,2239.397],[-67.3347,-27.9381,2344.9177],[-67.3316,-27.9152,2337.2329],[-67.3348,-27.9043,2056.7466],[-67.356,-27.8687,2077.6116],[-67.361,-27.852,2490.6431],[-67.3605,-27.8405,2481.6372],[-67.3573,-27.8295,2215.8301],[-67.3444,-27.8095,1954.123],[-67.3368,-27.8002,2403.2393],[-67.315,-27.7791,2440.2471],[-67.2864,-27.7404,2489.6174],[-67.285,-27.7355,2593.1316],[-67.2932,-27.7197,2827.9673],[-67.3087,-27.7013,2422.583],[-67.3361,-27.6771,2811.0786],[-67.3477,-27.6704,3466.0576],[-67.3482,-27.6668,3711.6616],[-67.339,-27.6577,3491.1523],[-67.3245,-27.632,3426.1045],[-67.3177,-27.6041,3180.7949],[-67.3037,-27.5782,3091.6152],[-67.2973,-27.5561,3725.3271],[-67.2636,-27.4941,4361.0967],[-67.2427,-27.4724,4516.6089],[-67.2212,-27.4593,4144.8853],[-67.2397,-27.4555,4417.0078],[-67.2509,-27.4499,4074.196],[-67.2831,-27.422,4142.4746],[-67.2862,-27.4169,4313.4731],[-67.287,-27.4055,4548.084],[-67.2768,-27.3845,4573.5044],[-67.2751,-27.373,4699.9048],[-67.2769,-27.3678,4567.0996],[-67.2908,-27.3558,4621.791],[-67.2942,-27.3446,4342.4175],[-67.2942,-27.339,4324.0112],[-67.2768,-27.2897,4079.4241],[-67.2706,-27.2672,4143.478],[-67.2678,-27.2623,4232.7129],[-67.2473,-27.2485,3880.7009],[-67.2411,-27.2381,3922.2124],[-67.2402,-27.2327,3912.3464],[-67.2567,-27.2081,3895.9229],[-67.2625,-27.1916,3887.8267],[-67.2639,-27.1802,3898.7554],[-67.2635,-27.1343,3794.7644],[-67.2779,-27.0962,3994.0742],[-67.2788,-27.085,4118.1982],[-67.2766,-27.0795,4123.8789],[-67.2664,-27.0649,4106.4302],[-67.2617,-27.0423,4099.564],[-67.2601,-27.0021,3969.1626],[-67.251,-26.9746,4419.0469],[-67.2432,-26.9655,4277.7046],[-67.22,-26.946,4210.4766],[-67.1981,-26.9109,4612.7104],[-67.1939,-26.9,4533.6523],[-67.1911,-26.883,4502.5215],[-67.1944,-26.8603,4216.7549],[-67.2089,-26.8222,3920.3469],[-67.2413,-26.7729,3780.937],[-67.2566,-26.7413,3745.7847],[-67.2603,-26.7303,3797.4119],[-67.2606,-26.7247,3778.3264],[-67.282,-26.7322,3741.9614],[-67.3023,-26.7417,3782.6509],[-67.3263,-26.7556,3759.3425],[-67.3394,-26.7654,3766.5371],[-67.3788,-26.8027,4115.0537],[-67.4159,-26.8482,4108.8213],[-67.4241,-26.8617,4132.3047],[-67.4374,-26.8902,4288.96],[-67.4465,-26.9034,4319.8267],[-67.455,-26.9099,4456.1289],[-67.4717,-26.9139,4421.8564],[-67.483,-26.9122,4491.001],[-67.4938,-26.9084,4584.0835],[-67.5369,-26.8832,4495.8018],[-67.6227,-26.8422,3862.1311],[-67.6427,-26.8241,4058.2617],[-67.6693,-26.8047,4412.4028],[-67.6853,-26.7991,4215.3042],[-67.7022,-26.7959,4064.7795],[-67.7136,-26.7954,4080.0364],[-67.7305,-26.7977,4086.1982],[-67.7469,-26.8022,4195.7627],[-67.7732,-26.8123,4318.4946],[-67.8123,-26.82,4478.291],[-67.8407,-26.8226,4158.7534],[-67.9152,-26.8237,4608.7998],[-67.9433,-26.8215,4597.8423],[-67.9794,-26.8056,5137.6108],[-68.0123,-26.7969,5090.5459],[-68.0347,-26.7929,5120.7778],[-68.0632,-26.7906,5003.2158],[-68.0974,-26.7909,5139.2476],[-68.1486,-26.7953,4784.9453],[-68.177,-26.7928,4822.4604],[-68.1994,-26.7887,4954.0674],[-68.2103,-26.7913,5152.8911],[-68.2421,-26.8027,5140.4053],[-68.2588,-26.7993,5243.4917],[-68.2929,-26.8025,5483.6948],[-68.3634,-26.801,5888.1035]]]]}}