{"type": "Feature","bbox": [-59.0908,-37.5019,-57.7725,-36.4518],"geometry": {"type": "MultiPolygon","coordinates": [[[[-57.9435,-37.0122,22.0722],[-58.0188,-37.0803,30.5754],[-58.1207,-37.0093,34.6835],[-58.2889,-36.884,40.4917],[-58.1999,-36.8038,30.2708],[-58.2027,-36.8007,30.588],[-58.1607,-36.7644,25.4186],[-58.1561,-36.7664,25.1777],[-58.1216,-36.7354,21.9756],[-58.1583,-36.6951,23.3333],[-58.232,-36.6317,23.2301],[-58.2171,-36.6183,22.7722],[-58.4434,-36.4518,27.4521],[-58.7257,-36.7039,59.3407],[-58.6665,-36.743899999999996,54.7198],[-58.6881,-36.7444,56.9786],[-58.6995,-36.7464,58.3861],[-58.7252,-36.7571,63.2448],[-58.7466,-36.7745,63.4381],[-58.7958,-36.7959,79.5227],[-58.802,-36.8101,71.1253],[-58.8104,-36.816,71.7939],[-58.8154,-36.8171,72.6945],[-58.8196,-36.8229,73.4408],[-58.8328,-36.8304,75.2591],[-58.8373,-36.8351,74.285],[-58.8424,-36.838,76.3522],[-58.8526,-36.8345,77.7363],[-58.8712,-36.8461,80.4061],[-58.8776,-36.8579,81.0001],[-58.8825,-36.8629,81.3421],[-58.8886,-36.8652,82.2241],[-58.9024,-36.8756,84.6497],[-58.9139,-36.8804,85.8967],[-58.9151,-36.885,86.5004],[-58.9134,-36.8937,87.271],[-58.9161,-36.9015,87.8037],[-58.9241,-36.911,89.9565],[-58.9339,-36.9166,91.5399],[-58.9357,-36.9252,93.1864],[-58.9434,-36.9385,93.1464],[-58.9538,-36.9376,94.8363],[-58.9775,-36.9465,98.0002],[-58.9856,-36.9479,98.5682],[-59.0045,-36.9467,99.8666],[-59.013,-36.9527,101.9567],[-59.0256,-36.9634,103.8797],[-59.0326,-36.9802,106.4207],[-59.0358,-37.0022,110.2331],[-59.0411,-37.0069,111.3571],[-59.0431,-37.0238,113.5126],[-59.0491,-37.0315,115.8446],[-59.0601,-37.041,117.9913],[-59.0643,-37.0425,118.506],[-59.068,-37.0507,119.5455],[-59.0846,-37.0537,120.7016],[-59.0908,-37.0632,123.3721],[-59.0018,-37.1302,127.182],[-58.986,-37.136,126.0493],[-58.6111,-37.4145,107.8059],[-58.5788,-37.3874,100.1667],[-58.429,-37.5019,88.226],[-58.3566,-37.443,76.8115],[-58.2811,-37.493,72.6526],[-58.165,-37.3927,56.3507],[-58.1002,-37.4399,52.2499],[-57.7725,-37.1391,18.8271],[-57.9435,-37.0122,22.0722]]]]}
,"properties": {"GID_2": "ARG.1.8_1","GID_0": "ARG","country": "Argentina","GID_1": "ARG.1_1","state": "BuenosAires","NL_NAME_1": "NA","county": "Ayacucho","VARNAME_2": "NA","NL_NAME_2": "NA","TYPE_2": "Partido","ENGTYPE_2": "Part","CC_2": "NA","HASC_2": "AR.BA.AY","name": "Ayacucho.county","area_km2": 6748.285,"hist_schema_id": "Elevation0-9000","hist_area_km2": {"25": 1330.27,"50": 2388.808,"75": 1626.201,"100": 1069.783,"125": 333.206}}}