{"type": "Feature","bbox": [-65.1949,-26.8744,-64.4783,-26.2038],"geometry": {"type": "MultiPolygon","coordinates": [[[[-64.9961,-26.2392,1342.9662],[-65.0391,-26.3008,2309.8315],[-65.0449,-26.3232,2122.2642],[-65.0491,-26.33,2046.2015],[-65.0593,-26.3424,1927.4047],[-65.0709,-26.3507,1925.6417],[-65.0761,-26.3613,1845.4226],[-65.0866,-26.3706,1817.136],[-65.0945,-26.3812,1704.4183],[-65.0988,-26.394,1554.5381],[-65.1063,-26.4033,1529.0721],[-65.1107,-26.4338,1612.1238],[-65.1162,-26.4463,1584.1929],[-65.1145,-26.4537,1548.3647],[-65.1222,-26.4897,1455.6836],[-65.1225,-26.509,1510.3352],[-65.1243,-26.5165,1537.4939],[-65.1297,-26.5194,1452.8693],[-65.1397,-26.5165,1454.0171],[-65.1475,-26.5191,1514.8011],[-65.1544,-26.5264,1509.9303],[-65.1581,-26.5374,1410.3799],[-65.1663,-26.5434,1361.8657],[-65.1738,-26.5573,1332.3655],[-65.1783,-26.5934,806.5253],[-65.1758,-26.6007,790.5193],[-65.176,-26.6103,621.7234],[-65.1867,-26.6166,574.848],[-65.1874,-26.6204,586.1503],[-65.191,-26.6249,638.9526],[-65.1887,-26.6322,538.3217],[-65.1934,-26.6387,535.2994],[-65.1949,-26.6442,575.2274],[-65.1939,-26.65,573.6876],[-65.1852,-26.6583,542.9521],[-65.1811,-26.6692,541.1193],[-65.1804,-26.6788,532.0898],[-65.1832,-26.692,516.0516],[-65.1822,-26.6978,515.7079],[-65.169,-26.7173,496.0393],[-65.1703,-26.7267,500.152],[-65.1652,-26.7414,492.3103],[-65.1649,-26.753,481.2263],[-65.17,-26.7679,476.309],[-65.1631,-26.7664,458.399],[-65.1516,-26.7582,468.5267],[-65.1084,-26.7673,495.4273],[-65.1128,-26.7884,476.1263],[-64.9618,-26.8149,468.5156],[-64.9529,-26.7766,509.0182],[-64.8943,-26.7854,463.02],[-64.9008,-26.8126,428.7982],[-64.8211,-26.8253,377.8193],[-64.8247,-26.844,372.4873],[-64.7964,-26.8494,361.9628],[-64.7981,-26.8634,363.1899],[-64.7345,-26.8744,335.2122],[-64.7259,-26.8299,338.3857],[-64.7063,-26.8304,330.1388],[-64.688,-26.8351,324.0793],[-64.6772,-26.7905,341.7327],[-64.6229,-26.7981,327.1342],[-64.5948,-26.6645,361.7711],[-64.5014,-26.6837,312.9633],[-64.5146,-26.6233,336.2111],[-64.5076,-26.603,338.6],[-64.5144,-26.5889,343.4631],[-64.5105,-26.5853,341.3593],[-64.5197,-26.5634,353.6205],[-64.5115,-26.5621,349.4559],[-64.5179,-26.4882,373.0215],[-64.528,-26.4571,390.6311],[-64.5301,-26.4215,396.6546],[-64.5233,-26.3928,404.9193],[-64.5229,-26.3744,417.1815],[-64.5203,-26.3573,423.8792],[-64.4975,-26.3393,408.0991],[-64.4783,-26.3198,391.6151],[-64.4803,-26.3106,388.1106],[-64.4787,-26.3001,386.1194],[-64.4828,-26.272,390.8788],[-64.494,-26.232,409.4136],[-64.4981,-26.2243,415.1895],[-64.5044,-26.2201,418.9749],[-64.5328,-26.2193,442.1968],[-64.5537,-26.2232,440.8745],[-64.5645,-26.2232,451.575],[-64.574,-26.2225,456.7761],[-64.5895,-26.2142,470.2221],[-64.6569,-26.2265,516.6299],[-64.7232,-26.224,592.4539],[-64.7514,-26.2139,715.0829],[-64.7665,-26.2056,791.3345],[-64.7866,-26.2038,817.7883],[-64.8185,-26.2155,838.2342],[-64.8294,-26.2156,809.2313],[-64.8349,-26.2115,879.7126],[-64.8427,-26.2113,888.9069],[-64.8475,-26.2168,911.6167],[-64.852,-26.2256,872.6042],[-64.8602,-26.2311,925.2],[-64.8643,-26.2392,960.1133],[-64.8659,-26.2488,916.6788],[-64.8717,-26.255,976.8245],[-64.8836,-26.2613,1019.1061],[-64.8994,-26.2657,1094.6321],[-64.9068,-26.2703,1096.8517],[-64.9448,-26.2829,1717.8253],[-64.954,-26.2814,1511.395],[-64.9574,-26.276,1519.8468],[-64.9603,-26.2672,1467.3511],[-64.9598,-26.2578,1465.5977],[-64.9569,-26.2488,1489.8446],[-64.9624,-26.2409,1346.4758],[-64.983,-26.2354,1284.4915],[-64.9961,-26.2392,1342.9662]]]]}
,"properties": {"GID_2": "ARG.24.1_1","GID_0": "ARG","country": "Argentina","GID_1": "ARG.24_1","state": "Tucumán","NL_NAME_1": "NA","county": "Burruyacú","VARNAME_2": "NA","NL_NAME_2": "NA","TYPE_2": "Departamento","ENGTYPE_2": "Department","CC_2": "NA","HASC_2": "AR.TM.BU","name": "Burruyacú.county","area_km2": 3797.106,"hist_schema_id": "Elevation0-9000","hist_area_km2": {"325": 37.058,"350": 194.788,"375": 245.589,"400": 261.922,"425": 254.812,"450": 189.076,"475": 207.176,"500": 226.881,"525": 225.256,"550": 196.31,"575": 144.357,"600": 111.71,"625": 83.586,"650": 66.093,"675": 54.275,"700": 55.326,"725": 58.721,"750": 56.324,"775": 55.07,"800": 51.935,"825": 47.362,"850": 44.914,"875": 45.069,"900": 43.817,"925": 41.728,"950": 40.402,"975": 36.932,"1000": 37.296,"1025": 38.61,"1050": 37.417,"1075": 36.753,"1100": 35.066,"1125": 32.693,"1150": 31.537,"1175": 29.298,"1200": 27.932,"1225": 27.307,"1250": 23.908,"1275": 22.866,"1300": 23.969,"1325": 21.691,"1350": 20.799,"1375": 23.533,"1400": 23.457,"1425": 23.457,"1450": 22.221,"1475": 21.479,"1500": 18.574,"1525": 17.226,"1550": 14.434,"1575": 12.422,"1600": 10.58,"1625": 9.269,"1650": 7.978,"1675": 8.263,"1700": 6.288,"1725": 6.668,"1750": 6.174,"1775": 5.604,"1800": 5.148,"1825": 4.977,"1850": 4.977,"1875": 4.35,"1900": 3.743,"1925": 3.23,"1950": 2.033,"1975": 1.805,"2000": 1.425,"2025": 1.748,"2050": 0.988,"2075": 0.285,"2100": 0.342,"2125": 0.209,"2150": 0.152,"2175": 0.114,"2200": 0.133,"2225": 0.114}}}