{"type":"Feature","properties":{"GID_2":"ARG.12.16_1","GID_0":"ARG","country":"Argentina","GID_1":"ARG.12_1","state":"LaRioja","NL_NAME_1":"NA","county":"SanBlasdelosSauces","VARNAME_2":"SanBlas","NL_NAME_2":"NA","TYPE_2":"Departamento","ENGTYPE_2":"Department","CC_2":"NA","HASC_2":"AR.LR.SS","name":"SanBlasdelosSauces.county"},
"geometry":{"type": "MultiPolygon","coordinates": [[[[-67.0397,-28.2594,905.1449],[-67.0911,-28.2792,935.1112],[-67.1604,-28.3801,1138.6477],[-67.2824,-28.3822,1143.4999],[-67.3827,-28.3814,1144.1799],[-67.4182,-28.3718,1165.4053],[-67.4453,-28.3587,1239.7518],[-67.449,-28.3962,1212.4146],[-67.4457,-28.4078,1219.4316],[-67.4405,-28.4141,1220.2552],[-67.4235,-28.4281,1219.7832],[-67.4038,-28.4409,1206.0424],[-67.3287,-28.4808,1244.4934],[-67.3001,-28.4981,1271.2694],[-67.2765,-28.5177,1571.5815],[-67.2622,-28.5371,1646.2168],[-67.2557,-28.5555,1717.313],[-67.2535,-28.5757,1613.0588],[-67.2547,-28.6015,1665.228],[-67.2648,-28.6829,2014.1232],[-67.2642,-28.7046,2102.8525],[-67.258,-28.7381,2339.2954],[-67.2303,-28.8291,3161.1165],[-67.2255,-28.8502,3302.9612],[-67.2139,-28.8696,3450.0459],[-67.2057,-28.8789,3651.0989],[-67.1748,-28.9055,3864.5032],[-67.0687,-28.7186,3784.759],[-67.0647,-28.6526,2999.3857],[-67.0477,-28.6494,3295.2866],[-67.0268,-28.6386,3263.7837],[-67.0203,-28.6323,3398.6936],[-67.0138,-28.6209,3299.3137],[-67.0119,-28.6126,3083.5054],[-67.0127,-28.5699,3013.4612],[-66.9903,-28.5181,2098.0032],[-66.9877,-28.4798,2172.7783],[-66.9909,-28.4587,2086.7639],[-66.9995,-28.4297,2039.9397],[-67.0224,-28.3782,1663.8107],[-67.0228,-28.3569,1228.3235],[-67.0199,-28.3488,1093.5481],[-67.0119,-28.338,953.2147],[-66.9312,-28.2544,847.8948],[-66.9964,-28.2427,910.9586],[-67.0397,-28.2594,905.1449]]]]}}