{"type":"Feature","properties":{"GID_2":"ARG.2.11_1","GID_0":"ARG","country":"Argentina","GID_1":"ARG.2_1","state":"Catamarca","NL_NAME_1":"NA","county":"Paclín","VARNAME_2":"LaMerced","NL_NAME_2":"NA","TYPE_2":"Departamento","ENGTYPE_2":"Department","CC_2":"NA","HASC_2":"AR.CT.PA","name":"Paclín.county"},
"geometry":{"type": "MultiPolygon","coordinates": [[[[-65.7186,-28.1795,1454.1375],[-65.7085,-28.196,1401.6462],[-65.7041,-28.2213,1374.327],[-65.7018,-28.226,1353.4645],[-65.6938,-28.2335,1220.6741],[-65.6913,-28.2379,1267.0415],[-65.6881,-28.2584,1219.3247],[-65.6885,-28.2789,1254.0209],[-65.6806,-28.2926,1197.8591],[-65.6739,-28.3122,1140.2443],[-65.6722,-28.3378,1109.4535],[-65.6769,-28.3576,962.0875],[-65.6754,-28.3678,1031.0231],[-65.6672,-28.3923,969.2532],[-65.6702,-28.4143,634.947],[-65.5626,-28.4137,2029.5024],[-65.5643,-28.3896,1948.8796],[-65.5603,-28.3323,1708.3345],[-65.5611,-28.3151,1787.1062],[-65.5789,-28.2481,1196.7189],[-65.5813,-28.2252,1132.1567],[-65.5946,-28.1926,1155.7236],[-65.5966,-28.1757,1102.3674],[-65.594,-28.1643,1076.3351],[-65.589,-28.1535,925.6097],[-65.5794,-28.1462,973.9259],[-65.5675,-28.1412,787.3311],[-65.555,-28.1385,708.8652],[-65.5419,-28.1388,630.0123],[-65.5263,-28.1415,532.8748],[-65.5311,-28.1143,544.9177],[-65.5291,-28.1001,548.6672],[-65.5204,-28.0882,524.0089],[-65.5178,-28.0748,514.4124],[-65.5207,-28.0618,515.6807],[-65.5273,-28.04,537.4219],[-65.5397,-28.0356,526.4986],[-65.5438,-28.0013,488.4247],[-65.5495,-28.0034,493.591],[-65.5722,-28.0023,503.2],[-65.5931,-27.9976,578.5696],[-65.6022,-27.9908,721.0714],[-65.6188,-27.9692,727.9407],[-65.6514,-27.9678,1202.6801],[-65.6601,-27.9596,1260.5198],[-65.6884,-27.8918,1446.7031],[-65.6961,-27.85,1519.3647],[-65.7012,-27.8303,1468.2589],[-65.7132,-27.8108,1061.0104],[-65.7282,-27.7948,1654.3713],[-65.7502,-27.7756,1732.156],[-65.7814,-27.7855,1292.8352],[-65.7758,-27.8164,1309.9163],[-65.7716,-27.826,1470.2871],[-65.7712,-27.831,1478.2843],[-65.7724,-27.8413,1519.7698],[-65.7801,-27.866,1557.1222],[-65.7828,-27.8864,1664.6189],[-65.7824,-27.9069,1613.9871],[-65.7797,-27.9221,1801.3713],[-65.7761,-27.9319,1817.2311],[-65.7708,-27.9409,1793.9832],[-65.7633,-27.9488,1679.6196],[-65.759,-27.9584,1700.483],[-65.7549,-28.0043,1639.2347],[-65.7543,-28.0402,1540.2363],[-65.7689,-28.0681,1870.5293],[-65.7715,-28.0781,1693.5439],[-65.7705,-28.0831,1643.9204],[-65.7608,-28.096,1735.2186],[-65.7559,-28.1052,1909.6538],[-65.7506,-28.1199,1902.1708],[-65.7483,-28.1404,1789.0262],[-65.7451,-28.1501,1814.6019],[-65.7186,-28.1795,1454.1375]]]]}}