{"type": "Feature","id": "1312","bbox": [-56.01906,-28.14774,-53.66155,-25.49457],"geometry": {"type": "Polygon","coordinates": [[[-54.08964,-25.5974,212.0],[-54.09889,-25.5972,254.2033],[-54.10897,-25.59027,231.891],[-54.1177,-25.58056,208.0],[-54.12313,-25.57177,206.25],[-54.12597,-25.55203,205.3623],[-54.12018,-25.53549,222.4337],[-54.11186,-25.51937,246.6946],[-54.10716,-25.50056,225.7563],[-54.11145,-25.49591,200.0],[-54.11641,-25.49457,226.9557],[-54.12209,-25.49622,244.4661],[-54.12819,-25.50056,245.0949],[-54.15429,-25.52826,200.0],[-54.16509,-25.53436,250.9925],[-54.1777,-25.5358,224.5101],[-54.19671,-25.5296,242.1205],[-54.20694,-25.52795,220.2558],[-54.2148,-25.53146,255.739],[-54.1947,-25.5633,196.0],[-54.19025,-25.58076,201.9361],[-54.20994,-25.58221,202.4415],[-54.22896,-25.57704,222.5199],[-54.23511,-25.57673,194.0],[-54.24369,-25.57756,233.5837],[-54.24963,-25.59327,202.6862],[-54.25562,-25.59875,196.0604],[-54.26317,-25.59006,194.0],[-54.27366,-25.56877,193.5],[-54.28441,-25.55679,192.5],[-54.29924,-25.55265,214.1319],[-54.32172,-25.55513,228.3635],[-54.33309,-25.56195,219.2059],[-54.34968,-25.58242,252.648],[-54.36011,-25.58428,244.0544],[-54.37779,-25.57766,241.3153],[-54.38621,-25.57715,222.7346],[-54.39541,-25.58107,264.1025],[-54.40285,-25.59027,203.9931],[-54.40368,-25.60019,242.7806],[-54.4028,-25.61032,229.4753],[-54.40507,-25.61983,248.3827],[-54.41267,-25.62727,236.1154],[-54.43132,-25.63688,221.1287],[-54.43742,-25.64505,232.1712],[-54.43773,-25.65538,215.867],[-54.43313,-25.67657,205.6265],[-54.43732,-25.68525,208.8758],[-54.44734,-25.68918,184.9154],[-54.45354,-25.68319,182.0934],[-54.45654,-25.67264,189.9225],[-54.45701,-25.66314,184.3984],[-54.46057,-25.64205,183.1018],[-54.47303,-25.62582,192.5897],[-54.49106,-25.61404,174.656],[-54.51142,-25.60619,224.2411],[-54.5323,-25.61063,158.6864],[-54.53871,-25.60133,187.5569],[-54.54,-25.58676,180.918],[-54.54563,-25.57477,182.2122],[-54.56005,-25.57022,196.9909],[-54.6002,-25.57494,202.6771],[-54.60222,-25.59244,177.993],[-54.58625,-25.62469,175.6611],[-54.58336,-25.64484,171.2447],[-54.5985,-25.65383,202.7709],[-54.63371,-25.65208,174.1948],[-54.64289,-25.66158,105.0592],[-54.64315,-25.68794,194.0573],[-54.62493,-25.74024,183.7041],[-54.62206,-25.75998,190.0986],[-54.61715,-25.77352,205.7067],[-54.59452,-25.79873,213.0523],[-54.5879,-25.81083,184.1118],[-54.58956,-25.83294,129.5966],[-54.59922,-25.85072,164.0267],[-54.61007,-25.86653,167.5142],[-54.61524,-25.88286,153.3704],[-54.60733,-25.92793,182.4794],[-54.6064,-25.94663,172.4234],[-54.61524,-25.96172,166.2526],[-54.62369,-25.96431,127.6021],[-54.64795,-25.96565,203.3119],[-54.65619,-25.96916,176.055],[-54.66227,-25.97991,96.5],[-54.66159,-25.98994,192.5788],[-54.65826,-26.00038,225.6924],[-54.65333,-26.03076,230.3888],[-54.64253,-26.0628,175.4109],[-54.64315,-26.08523,96.375],[-54.66382,-26.1492,169.0252],[-54.65994,-26.1644,162.8376],[-54.64185,-26.18403,135.8706],[-54.63829,-26.19695,177.6839],[-54.6447,-26.20822,247.4986],[-54.65619,-26.223,201.5041],[-54.66433,-26.23623,189.6779],[-54.66497,-26.23886,181.6914],[-54.66614,-26.24367,159.0349],[-54.66366,-26.26331,201.7601],[-54.66366,-26.30837,188.2847],[-54.67906,-26.33989,153.4374],[-54.68043,-26.34526,135.6988],[-54.6834,-26.35085,148.2925],[-54.69307,-26.41193,151.8608],[-54.69766,-26.42815,103.9758],[-54.70648,-26.4418,129.402],[-54.73717,-26.47322,120.0639],[-54.76531,-26.49409,152.0417],[-54.78035,-26.51042,89.5],[-54.78983,-26.52851,106.5184],[-54.78877,-26.54256,162.187],[-54.7835,-26.55672,180.8715],[-54.78035,-26.57522,160.7599],[-54.78128,-26.59817,139.1051],[-54.78495,-26.62277,87.0],[-54.79306,-26.64499,142.9413],[-54.80701,-26.66121,86.25],[-54.81732,-26.66576,159.9748],[-54.82282,-26.66328,176.4936],[-54.82742,-26.65811,187.2928],[-54.83497,-26.65439,192.9092],[-54.87936,-26.65439,100.066],[-54.90334,-26.65987,110.9984],[-54.9199,-26.67413,142.5128],[-54.93073,-26.69398,169.2763],[-54.94388,-26.73997,86.0],[-54.95114,-26.75754,111.5703],[-54.96101,-26.77232,128.577],[-54.97527,-26.78782,129.149],[-54.99178,-26.79464,130.1103],[-55.04074,-26.79847,119.9173],[-55.0609,-26.80518,98.5348],[-55.12578,-26.86358,146.1747],[-55.13268,-26.88063,133.7357],[-55.11888,-26.92001,171.2074],[-55.12232,-26.94171,113.8275],[-55.13836,-26.9537,86.0],[-55.16156,-26.95732,86.0],[-55.2012,-26.95546,172.3384],[-55.21665,-26.95122,143.2988],[-55.23518,-26.94223,86.0],[-55.25654,-26.93458,99.4802],[-55.2806,-26.93427,143.5191],[-55.32941,-26.95846,96.8627],[-55.37623,-26.96383,86.0],[-55.39633,-26.96931,119.0508],[-55.414,-26.97985,108.4677],[-55.43085,-26.99639,96.9724],[-55.44276,-27.01551,85.5],[-55.44883,-27.03587,85.5],[-55.45131,-27.08207,84.5],[-55.46186,-27.09798,119.8809],[-55.4864,-27.10005,123.1983],[-55.514,-27.09747,118.9572],[-55.53384,-27.09943,83.0],[-55.54536,-27.11524,88.1773],[-55.54952,-27.13581,125.4297],[-55.55534,-27.15379,85.368],[-55.57175,-27.16155,82.5],[-55.59828,-27.16754,109.0952],[-55.59898,-27.18263,145.4623],[-55.57487,-27.22356,87.274],[-55.57058,-27.23534,81.5],[-55.56867,-27.24598,82.0804],[-55.57071,-27.25642,81.5],[-55.58407,-27.27678,81.5],[-55.58324,-27.2835,124.1647],[-55.58076,-27.29167,192.7734],[-55.58164,-27.30552,103.637],[-55.59133,-27.32836,81.0],[-55.60748,-27.34551,81.0],[-55.62872,-27.35637,81.0],[-55.65363,-27.36009,84.671],[-55.68171,-27.37941,81.0],[-55.7175,-27.41734,81.0],[-55.75473,-27.4437,80.0],[-55.81517,-27.41414,80.0],[-55.84209,-27.40742,80.0],[-55.85416,-27.40122,80.0],[-55.86279,-27.39109,80.0],[-55.87785,-27.35357,80.0],[-55.89284,-27.33487,80.0],[-55.91309,-27.32784,80.0],[-55.93637,-27.32825,80.0],[-55.96066,-27.33156,80.0],[-55.96609,-27.33172,80.0],[-55.9666,-27.3327,80.0],[-55.99298,-27.35125,80.0],[-55.99831,-27.35709,82.2295],[-56.00056,-27.3604,85.6498],[-56.01448,-27.39378,118.1727],[-56.01735,-27.40541,126.1315],[-56.01887,-27.41812,105.7057],[-56.01906,-27.44132,121.0109],[-56.01732,-27.45155,148.0511],[-55.87328,-27.71578,142.9588],[-55.8586,-27.75329,189.2663],[-55.85116,-27.7858,173.1141],[-55.84356,-27.85907,163.0162],[-55.83863,-27.90662,125.6718],[-55.83266,-27.9184,113.5996],[-55.82343,-27.9307,127.5616],[-55.79243,-27.95964,125.6776],[-55.78204,-27.97194,124.2525],[-55.77308,-27.98754,92.453],[-55.7683,-27.99943,117.9924],[-55.7683,-28.0001,117.9655],[-55.76636,-28.0185,108.8094],[-55.76383,-28.02883,113.2459],[-55.75793,-28.03989,100.8037],[-55.75016,-28.05116,86.7431],[-55.73695,-28.06599,80.222],[-55.70587,-28.09126,74.2789],[-55.62634,-28.14102,61.0],[-55.62352,-28.14386,61.0],[-55.62304,-28.14435,61.0],[-55.61665,-28.12955,61.0],[-55.60474,-28.11694,61.0],[-55.58164,-28.12107,63.5],[-55.57854,-28.12748,63.5],[-55.57932,-28.13637,77.6661],[-55.57709,-28.14433,77.4918],[-55.56487,-28.14774,80.9098],[-55.55348,-28.14557,78.1176],[-55.54973,-28.13988,64.5],[-55.54828,-28.13224,79.123],[-55.54376,-28.12417,64.5],[-55.53787,-28.11932,64.5],[-55.5248,-28.11063,80.0036],[-55.52022,-28.10681,77.0409],[-55.50991,-28.08397,83.8966],[-55.50594,-28.07891,86.8095],[-55.49296,-28.07394,65.5],[-55.48653,-28.07715,65.5],[-55.48232,-28.08314,85.4328],[-55.4755,-28.08635,66.9247],[-55.46485,-28.08511,77.7158],[-55.44075,-28.07891,80.6966],[-55.43509,-28.07074,69.1242],[-55.38984,-28.02423,104.7486],[-55.38338,-28.01421,95.0668],[-55.38142,-28.00873,89.8222],[-55.38243,-27.98733,73.0],[-55.38093,-27.97824,73.5],[-55.37643,-27.97318,76.0992],[-55.3691,-27.9708,73.5],[-55.35886,-27.97028,73.5],[-55.33791,-27.96315,74.0],[-55.33303,-27.94661,74.0],[-55.32987,-27.92811,74.5],[-55.31411,-27.91499,87.7467],[-55.30176,-27.91395,97.2269],[-55.28078,-27.92057,104.8527],[-55.27008,-27.92243,75.0],[-55.26024,-27.91922,75.0],[-55.22404,-27.8938,75.5],[-55.21231,-27.87716,89.7498],[-55.19774,-27.86062,76.0],[-55.17756,-27.8536,79.3899],[-55.16146,-27.85825,91.5886],[-55.1397,-27.87675,99.6487],[-55.11924,-27.88088,89.8485],[-55.11139,-27.85298,94.5818],[-55.1087,-27.84677,77.5],[-55.09994,-27.84378,77.5],[-55.0779,-27.84336,78.0],[-55.06772,-27.83933,103.6883],[-55.04581,-27.8507,100.9786],[-55.02963,-27.8507,86.1709],[-55.02581,-27.84016,91.404],[-55.04043,-27.81949,82.3032],[-55.07126,-27.79437,104.3528],[-55.08116,-27.77825,84.0],[-55.06431,-27.77102,84.5],[-55.04465,-27.77505,85.5],[-55.02759,-27.78301,102.0681],[-55.00912,-27.78838,119.5792],[-54.98519,-27.78528,107.4599],[-54.933,-27.74384,146.2931],[-54.91321,-27.73691,95.0],[-54.9069,-27.72709,95.5],[-54.90158,-27.70446,96.0],[-54.89646,-27.66115,148.0745],[-54.89827,-27.62364,138.763],[-54.8898,-27.62064,113.4498],[-54.86541,-27.62085,118.8325],[-54.8451,-27.61185,97.0],[-54.83701,-27.59046,98.0],[-54.83368,-27.56534,98.5],[-54.82753,-27.54509,117.1461],[-54.8189,-27.5362,99.5],[-54.80505,-27.52638,127.6133],[-54.79223,-27.52318,112.2109],[-54.78655,-27.53424,112.4736],[-54.78854,-27.53858,100.5],[-54.79213,-27.54426,100.5],[-54.79373,-27.54922,100.5],[-54.79001,-27.55129,101.0],[-54.78802,-27.55284,101.0],[-54.78169,-27.56007,147.8271],[-54.78035,-27.56214,160.0811],[-54.77394,-27.56379,165.7265],[-54.7319,-27.55129,162.3066],[-54.72195,-27.55098,144.7005],[-54.69968,-27.55305,176.5481],[-54.69033,-27.55129,245.3821],[-54.68113,-27.54643,138.365],[-54.6772,-27.54178,105.0],[-54.67645,-27.53424,105.5],[-54.67668,-27.52059,122.1127],[-54.67348,-27.50974,113.9606],[-54.66645,-27.50385,123.2707],[-54.65948,-27.50282,235.2899],[-54.65619,-27.50726,163.493],[-54.65123,-27.52586,108.0],[-54.63953,-27.52679,158.684],[-54.62591,-27.51532,178.4859],[-54.61524,-27.49672,129.2747],[-54.60981,-27.47853,140.1049],[-54.60532,-27.46799,279.9881],[-54.5985,-27.4591,125.2061],[-54.58945,-27.45259,120.5195],[-54.58382,-27.45207,110.0],[-54.57855,-27.45424,110.0],[-54.57054,-27.45569,110.0],[-54.56723,-27.45961,129.2424],[-54.55762,-27.4778,148.7065],[-54.5538,-27.48297,122.1021],[-54.54326,-27.487,110.0],[-54.53354,-27.48742,159.4312],[-54.46858,-27.47026,167.5424],[-54.44838,-27.45889,126.5487],[-54.44765,-27.44577,178.043],[-54.46455,-27.42334,112.5],[-54.46083,-27.41259,161.7803],[-54.44455,-27.40897,178.3141],[-54.40425,-27.40742,113.5],[-54.3889,-27.41114,126.6048],[-54.37872,-27.42272,203.2874],[-54.375,-27.44577,114.0],[-54.37159,-27.45445,129.1034],[-54.36347,-27.45352,128.9182],[-54.35433,-27.44628,179.3858],[-54.34771,-27.43584,134.0067],[-54.34611,-27.42654,116.0],[-54.34771,-27.3943,157.9952],[-54.33402,-27.40608,128.7817],[-54.32151,-27.41951,194.5698],[-54.30694,-27.42892,128.0133],[-54.28689,-27.4284,194.2202],[-54.28193,-27.42437,209.2492],[-54.2749,-27.4161,149.1891],[-54.26859,-27.40639,134.1041],[-54.2658,-27.39802,129.97],[-54.26126,-27.38871,201.7327],[-54.25071,-27.3852,131.3989],[-54.23924,-27.38386,184.6526],[-54.23165,-27.38055,212.7012],[-54.22958,-27.37197,179.4203],[-54.2318,-27.35151,231.7589],[-54.22793,-27.34303,260.2188],[-54.22255,-27.33683,223.4646],[-54.21816,-27.32929,143.0408],[-54.18953,-27.26087,199.6781],[-54.17702,-27.2434,276.398],[-54.16478,-27.25064,154.8864],[-54.15594,-27.25766,217.6532],[-54.15806,-27.27947,142.468],[-54.12819,-27.28888,227.3266],[-54.09176,-27.28516,267.285],[-54.01812,-27.21229,184.2348],[-54.01088,-27.194,292.6119],[-54.00515,-27.18821,342.2701],[-53.99729,-27.18728,267.964],[-53.99269,-27.19007,219.7476],[-53.98846,-27.19379,172.7761],[-53.98148,-27.19565,129.2261],[-53.96179,-27.19141,193.9154],[-53.96107,-27.18077,157.5984],[-53.96624,-27.16723,182.0877],[-53.96412,-27.154,197.4688],[-53.95089,-27.1478,193.0524],[-53.93854,-27.15545,145.332],[-53.92541,-27.16599,128.0],[-53.9095,-27.16826,230.0853],[-53.89942,-27.15844,270.4441],[-53.89084,-27.12713,312.7844],[-53.88221,-27.11989,237.8898],[-53.86877,-27.12589,142.0],[-53.85787,-27.14098,147.9923],[-53.84878,-27.15751,148.125],[-53.84201,-27.16351,149.5],[-53.83002,-27.15679,195.9677],[-53.81922,-27.13974,180.3205],[-53.81875,-27.13147,227.481],[-53.82826,-27.12175,338.1143],[-53.82873,-27.11442,319.3779],[-53.82433,-27.10935,312.3891],[-53.80976,-27.10098,172.5728],[-53.8049,-27.09437,234.5148],[-53.80325,-27.08062,178.6076],[-53.80501,-27.0522,281.4566],[-53.80092,-27.03907,210.1698],[-53.79581,-27.03587,204.7819],[-53.78005,-27.0338,218.1113],[-53.77317,-27.03018,233.9095],[-53.76847,-27.02409,368.5899],[-53.7246,-26.94047,454.9454],[-53.7125,-26.90451,345.0936],[-53.7107,-26.87381,382.0969],[-53.72243,-26.81438,421.0191],[-53.734,-26.77738,479.9546],[-53.73757,-26.77573,504.678],[-53.74966,-26.7749,432.0711],[-53.75292,-26.77325,351.4311],[-53.7539,-26.76312,433.0688],[-53.74728,-26.74906,457.7027],[-53.74785,-26.73914,332.3044],[-53.75245,-26.73594,338.3345],[-53.76108,-26.73284,382.5029],[-53.76966,-26.72664,422.0215],[-53.77431,-26.71434,405.8171],[-53.77173,-26.70369,504.4401],[-53.76361,-26.7008,439.1941],[-53.75374,-26.69956,339.2728],[-53.74604,-26.69387,514.3209],[-53.73953,-26.67558,452.504],[-53.73788,-26.65708,411.3704],[-53.74294,-26.61915,490.5061],[-53.74237,-26.60055,467.9243],[-53.72961,-26.56582,394.9159],[-53.72682,-26.54856,406.5495],[-53.72821,-26.55187,414.3176],[-53.73183,-26.54556,450.8533],[-53.7356,-26.53512,486.1144],[-53.73746,-26.5253,476.9879],[-53.73457,-26.51828,438.818],[-53.72744,-26.51135,427.8184],[-53.71292,-26.5005,486.221],[-53.71292,-26.50029,486.221],[-53.71276,-26.4696,451.8579],[-53.72444,-26.37606,512.6682],[-53.71586,-26.34671,589.2715],[-53.67323,-26.29255,756.824],[-53.66155,-26.25979,785.1263],[-53.66672,-26.21917,674.0771],[-53.68512,-26.18765,717.5554],[-53.73338,-26.12636,658.8719],[-53.74677,-26.09164,581.29],[-53.75348,-26.05867,521.6657],[-53.76501,-26.02807,498.905],[-53.79271,-26.00058,422.2453],[-53.79271,-26.00048,422.2453],[-53.79286,-26.00038,422.2453],[-53.82619,-25.97268,406.2794],[-53.83343,-25.96224,399.9837],[-53.83606,-25.94973,402.8397],[-53.83394,-25.94033,381.3124],[-53.83059,-25.93165,396.5978],[-53.8296,-25.92131,378.7574],[-53.84164,-25.86767,368.2689],[-53.8373,-25.80917,335.9681],[-53.84035,-25.7914,275.6801],[-53.84934,-25.7729,270.3654],[-53.85782,-25.76318,350.8132],[-53.87704,-25.74613,338.3858],[-53.88345,-25.73559,310.6658],[-53.88552,-25.72256,297.9356],[-53.88252,-25.71347,273.6808],[-53.87828,-25.70613,277.961],[-53.87647,-25.69786,294.8292],[-53.88753,-25.66127,232.5047],[-53.89813,-25.63947,253.3567],[-53.90996,-25.62924,237.1398],[-53.9481,-25.65063,224.6059],[-53.96773,-25.65321,237.6652],[-53.97621,-25.62758,253.7691],[-53.97828,-25.60701,218.4072],[-53.98499,-25.58934,215.1315],[-53.99745,-25.57498,233.3221],[-54.01652,-25.56505,212.0],[-54.03021,-25.56216,216.1131],[-54.03677,-25.56454,254.6878],[-54.04292,-25.56846,277.0891],[-54.05538,-25.57074,229.5635],[-54.07248,-25.55534,217.3405],[-54.08271,-25.55007,265.4897],[-54.08928,-25.55885,271.4398],[-54.08876,-25.56836,233.2966],[-54.08649,-25.57983,212.0],[-54.08576,-25.59058,212.0],[-54.08964,-25.5974,212.0]]]}
,"properties": {"ISO3166-1-Alpha-3": "ARG","country": "Argentina","fill": "#F0F","name": "Misiones","area_km2": 29483.01,"hist_schema_id": "Elevation0-9000","hist_area_km2": {"50": 2.8,"75": 408.81,"100": 943.79,"125": 1444.84,"150": 1725.76,"175": 1881.37,"200": 2334.92,"225": 2331.29,"250": 2196.91,"275": 2059.68,"300": 1774.97,"325": 1582.61,"350": 1311.96,"375": 1154.24,"400": 1079.15,"425": 1064.95,"450": 1079.01,"475": 1098.19,"500": 973.35,"525": 838.46,"550": 682.96,"575": 518.17,"600": 314.55,"625": 188.94,"650": 169.77,"675": 126.09,"700": 87.53,"725": 39.45,"750": 35.08,"775": 21.77,"800": 10.44,"825": 1.24}}}