{"type":"Feature","properties":{"GID_1":"ARG.14_1","GID_0":"ARG","country":"Argentina","state":"Misiones","VARNAME_1":"Missões","NL_NAME_1":"NA","TYPE_1":"Provincia","ENGTYPE_1":"Province","CC_1":"NA","HASC_1":"AR.MN","ISO_1":"AR-N","name":"Misiones.state"},
"geometry":{"type": "MultiPolygon","coordinates": [[[[-55.3227,-27.928,75.725],[-55.3072,-27.9242,74.5],[-55.2776,-27.9207,100.6796],[-55.2776,-27.9179,85.9183],[-55.26,-27.9149,80.9761],[-55.2533,-27.9107,84.6963],[-55.2374,-27.8931,75.5],[-55.2407,-27.8988,75.5],[-55.2227,-27.8813,75.5],[-55.203,-27.8666,89.2214],[-55.196,-27.8631,106.3514],[-55.1833,-27.8614,84.9761],[-55.1746,-27.862,76.5],[-55.1619,-27.8709,76.5],[-55.1544,-27.885,76.5],[-55.1489,-27.8902,102.0181],[-55.1338,-27.8954,77.0],[-55.1288,-27.8939,77.0],[-55.1252,-27.8899,77.0],[-55.1229,-27.8742,77.0],[-55.1245,-27.8611,77.5],[-55.117,-27.8532,83.2514],[-55.1,-27.8476,77.5],[-55.0908,-27.8465,78.0],[-55.0767,-27.8476,81.8578],[-55.062,-27.8537,84.5592],[-55.0434,-27.8556,80.0],[-55.0319,-27.8539,85.0049],[-55.0283,-27.8503,80.0],[-55.0262,-27.8446,81.4083],[-55.0255,-27.8309,80.0],[-55.0365,-27.8183,80.0],[-55.0536,-27.8082,81.5],[-55.0713,-27.8,82.5],[-55.0776,-27.7948,92.5995],[-55.0809,-27.7873,87.9767],[-55.0629,-27.7744,94.8591],[-55.0533,-27.7719,85.0],[-55.0469,-27.7728,85.5],[-55.0274,-27.7923,86.5],[-55.021,-27.7966,87.5],[-55.0138,-27.7975,88.125],[-55.008,-27.7956,93.8938],[-55.0,-27.7901,90.0],[-54.9944,-27.7831,90.0],[-54.9826,-27.7744,90.0],[-54.9775,-27.7739,90.5],[-54.978,-27.7768,130.3449],[-54.9734,-27.7776,104.326],[-54.9472,-27.78,92.0],[-54.9405,-27.7751,92.5],[-54.9351,-27.7607,93.5],[-54.9323,-27.757,94.0],[-54.9221,-27.7502,96.2044],[-54.9102,-27.7373,95.0],[-54.9039,-27.7215,95.5],[-54.9022,-27.699,96.0],[-54.903,-27.6465,103.0982],[-54.9003,-27.6409,102.9944],[-54.8956,-27.6363,122.3784],[-54.8844,-27.6322,157.223],[-54.8599,-27.6291,96.5],[-54.8472,-27.6234,97.0],[-54.84,-27.6105,97.5],[-54.817,-27.5399,99.5],[-54.808,-27.533,118.2578],[-54.8038,-27.5331,120.9927],[-54.7942,-27.5402,100.5],[-54.7924,-27.5541,101.0],[-54.7864,-27.5692,101.5],[-54.7881,-27.5778,102.0],[-54.7845,-27.584,112.2388],[-54.7751,-27.588,158.419],[-54.7639,-27.5846,103.0],[-54.7521,-27.5734,103.0],[-54.737,-27.5649,116.2048],[-54.723,-27.567,106.6923],[-54.7233,-27.5637,103.0],[-54.6884,-27.5731,103.0],[-54.6826,-27.5726,114.6005],[-54.6702,-27.5682,104.2208],[-54.6683,-27.5617,104.0],[-54.6774,-27.5188,106.5],[-54.6772,-27.5134,108.8431],[-54.6747,-27.5113,128.3114],[-54.6652,-27.5122,184.2184],[-54.66,-27.5161,113.1327],[-54.6564,-27.5203,108.0],[-54.6479,-27.5408,108.125],[-54.6435,-27.5467,155.9506],[-54.6387,-27.5499,154.698],[-54.6296,-27.5508,149.019],[-54.6204,-27.548,178.0842],[-54.614,-27.5383,118.5443],[-54.6051,-27.5119,118.258],[-54.591,-27.486,109.5],[-54.5842,-27.463,148.7566],[-54.5764,-27.4583,148.5325],[-54.5667,-27.4581,110.0],[-54.5594,-27.4623,112.9637],[-54.5421,-27.4861,110.0],[-54.5311,-27.5049,110.0],[-54.5247,-27.5069,110.0],[-54.5154,-27.5033,121.0909],[-54.4957,-27.4833,126.0345],[-54.4819,-27.4796,111.0],[-54.4581,-27.4798,111.5],[-54.4496,-27.4765,111.5],[-54.4454,-27.4691,125.8776],[-54.4444,-27.4637,124.819],[-54.4478,-27.4546,112.0],[-54.4604,-27.4455,114.0655],[-54.4697,-27.4353,112.5],[-54.4716,-27.4304,113.9525],[-54.4637,-27.4269,126.6449],[-54.4374,-27.424,113.0],[-54.4149,-27.4121,135.1722],[-54.4048,-27.4126,125.398],[-54.3953,-27.4177,115.1007],[-54.391,-27.4218,113.5],[-54.3688,-27.4594,127.7284],[-54.3645,-27.4637,172.4307],[-54.3532,-27.4675,114.0],[-54.3455,-27.4681,122.0952],[-54.3403,-27.4656,115.0],[-54.3362,-27.4584,115.5],[-54.3362,-27.4429,116.0],[-54.3437,-27.4271,131.7552],[-54.3439,-27.4107,116.5],[-54.3425,-27.4077,116.5],[-54.339,-27.4055,123.0758],[-54.3296,-27.4073,146.5562],[-54.3179,-27.4142,118.0],[-54.3049,-27.4299,131.4677],[-54.2985,-27.4407,118.5],[-54.2881,-27.4461,133.5718],[-54.2824,-27.4471,118.5],[-54.2775,-27.4451,118.5],[-54.2665,-27.4291,119.0],[-54.2656,-27.4223,126.7639],[-54.2686,-27.4081,129.211],[-54.2652,-27.4008,119.0],[-54.2472,-27.3944,119.5],[-54.2274,-27.3914,119.5],[-54.2222,-27.3884,119.5],[-54.2162,-27.3816,120.0],[-54.2134,-27.3725,120.0],[-54.2128,-27.3522,120.0],[-54.2097,-27.3352,120.5],[-54.1919,-27.303,128.1867],[-54.187,-27.2736,151.0752],[-54.176,-27.2607,129.6289],[-54.1641,-27.2587,163.1594],[-54.1591,-27.2645,144.6841],[-54.1568,-27.2731,143.3111],[-54.1583,-27.2931,122.5],[-54.1549,-27.2981,157.3494],[-54.1575,-27.2933,122.5],[-54.1572,-27.291,128.9622],[-54.1523,-27.2966,125.9108],[-54.1456,-27.2991,122.5],[-54.1113,-27.3028,124.3859],[-54.1106,-27.3048,146.7471],[-54.0891,-27.3027,122.5],[-54.081,-27.2997,140.6259],[-54.0714,-27.2907,123.0],[-54.0607,-27.2715,123.5],[-54.0531,-27.2634,124.0],[-54.0298,-27.2553,124.5],[-54.0216,-27.2486,125.0],[-54.0183,-27.2438,125.5],[-54.0154,-27.2313,129.812],[-54.0126,-27.208,165.8221],[-54.0089,-27.2046,176.5232],[-54.0011,-27.201,183.398],[-53.9857,-27.1985,169.547],[-53.9787,-27.1986,136.0096],[-53.9705,-27.2025,195.1178],[-53.9596,-27.2016,205.4412],[-53.9566,-27.1994,193.4512],[-53.9548,-27.1925,198.1522],[-53.9551,-27.1665,209.4285],[-53.9537,-27.1619,214.0001],[-53.9487,-27.1554,201.1868],[-53.9375,-27.1534,128.0],[-53.928,-27.1599,128.0],[-53.9168,-27.1713,184.4495],[-53.9111,-27.1742,156.0391],[-53.9012,-27.1741,133.125],[-53.8927,-27.1663,158.9784],[-53.8872,-27.1538,137.5],[-53.8824,-27.1371,193.1701],[-53.8745,-27.1312,187.7595],[-53.863,-27.1309,162.2173],[-53.8573,-27.1327,144.0],[-53.8548,-27.1359,153.3447],[-53.8525,-27.1454,146.375],[-53.8449,-27.1598,149.0],[-53.8332,-27.1674,169.6801],[-53.8338,-27.1695,151.0],[-53.8303,-27.1709,151.125],[-53.8307,-27.1564,195.9677],[-53.8288,-27.1511,202.5591],[-53.8215,-27.1457,174.0185],[-53.7979,-27.1446,159.9597],[-53.796,-27.1414,181.3617],[-53.7984,-27.1367,184.0114],[-53.8054,-27.1391,183.5114],[-53.8159,-27.1385,178.1598],[-53.8189,-27.1354,206.6664],[-53.8198,-27.1314,212.0423],[-53.8085,-27.131,237.3887],[-53.8034,-27.1192,160.6434],[-53.8049,-27.1137,167.0328],[-53.8129,-27.1071,176.2404],[-53.813,-27.1038,218.2406],[-53.8087,-27.1041,177.144],[-53.7983,-27.1123,249.5175],[-53.7927,-27.1126,228.4773],[-53.7795,-27.1085,296.5434],[-53.7753,-27.1049,300.2377],[-53.7769,-27.1041,187.5152],[-53.7746,-27.102,193.0902],[-53.7943,-27.0913,181.1372],[-53.7981,-27.0874,185.3391],[-53.7995,-27.0812,217.9092],[-53.7962,-27.0745,257.3125],[-53.7936,-27.0747,248.992],[-53.7833,-27.0825,303.9633],[-53.7766,-27.0819,233.8556],[-53.774,-27.0799,260.3699],[-53.7724,-27.0734,193.0192],[-53.7798,-27.0723,193.8634],[-53.7919,-27.0631,187.2604],[-53.7962,-27.049,227.4946],[-53.7943,-27.0449,221.8152],[-53.7897,-27.0464,193.4342],[-53.7687,-27.0668,188.8848],[-53.7646,-27.068,240.9812],[-53.762,-27.0669,204.1067],[-53.7602,-27.0653,186.6074],[-53.7598,-27.061,200.1994],[-53.7657,-27.0597,233.5724],[-53.7682,-27.0576,211.5295],[-53.7769,-27.0351,240.8455],[-53.7648,-27.0482,269.1188],[-53.7625,-27.0489,268.8831],[-53.7599,-27.0475,263.1771],[-53.758,-27.0409,228.518],[-53.7487,-27.0386,296.4222],[-53.7469,-27.0368,242.6804],[-53.7455,-27.0293,231.7513],[-53.7531,-27.0239,241.6459],[-53.7571,-27.0166,203.7996],[-53.7556,-27.0143,246.6007],[-53.7507,-27.0135,291.4919],[-53.7393,-27.0188,296.9857],[-53.736,-27.0181,290.0116],[-53.7328,-27.0154,362.2785],[-53.73,-27.0084,271.1143],[-53.7316,-27.0048,207.7245],[-53.7395,-27.0002,284.4915],[-53.7401,-26.9969,205.507],[-53.7274,-26.9997,326.9097],[-53.7204,-26.9975,311.2754],[-53.7183,-26.9936,278.2479],[-53.7175,-26.9908,208.9148],[-53.7195,-26.9877,226.7546],[-53.7306,-26.9816,277.8954],[-53.7336,-26.9769,212.0225],[-53.7287,-26.9726,271.0922],[-53.7264,-26.9651,266.1729],[-53.7226,-26.9643,299.7831],[-53.7101,-26.9665,288.2727],[-53.7052,-26.9646,301.8543],[-53.7019,-26.9573,221.6263],[-53.705,-26.943,251.657],[-53.7039,-26.9402,321.9554],[-53.699,-26.9408,344.9772],[-53.6881,-26.9465,397.0369],[-53.6772,-26.949,351.1519],[-53.6725,-26.9448,217.5625],[-53.69,-26.938,217.5873],[-53.6925,-26.9354,289.0576],[-53.6913,-26.9321,254.1905],[-53.6776,-26.9241,335.902],[-53.6749,-26.9191,382.5947],[-53.6742,-26.9162,289.3289],[-53.6766,-26.9094,253.4415],[-53.6718,-26.893,239.2465],[-53.6842,-26.8952,355.9515],[-53.6873,-26.8948,363.0985],[-53.6905,-26.8918,332.7317],[-53.6905,-26.8884,246.4103],[-53.6838,-26.8749,332.3296],[-53.69,-26.8672,306.3388],[-53.6884,-26.865,240.8694],[-53.6642,-26.8681,265.9632],[-53.6616,-26.8657,313.6229],[-53.6766,-26.8486,280.4838],[-53.6821,-26.8469,366.7222],[-53.6612,-26.8419,256.646],[-53.6938,-26.8465,245.4371],[-53.692,-26.8403,254.0956],[-53.701,-26.8193,257.3466],[-53.6968,-26.8183,428.3455],[-53.6967,-26.8115,294.2173],[-53.7012,-26.8032,292.5819],[-53.711,-26.7961,269.8786],[-53.7113,-26.7878,296.2444],[-53.7097,-26.7842,376.3193],[-53.703,-26.7804,399.7905],[-53.7011,-26.777,460.6715],[-53.7031,-26.7735,358.1002],[-53.7069,-26.773,269.1757],[-53.7154,-26.78,300.6751],[-53.7223,-26.7803,483.5446],[-53.731,-26.7774,450.3618],[-53.7352,-26.7733,423.183],[-53.7342,-26.7719,312.8458],[-53.7208,-26.771,381.2203],[-53.7169,-26.7677,392.7097],[-53.7158,-26.7577,361.6272],[-53.7168,-26.7565,308.371],[-53.7144,-26.7492,320.2941],[-53.7207,-26.7518,452.1703],[-53.7233,-26.7488,379.0039],[-53.7248,-26.7396,303.035],[-53.7271,-26.7363,328.8347],[-53.7299,-26.7354,286.0267],[-53.7334,-26.7461,446.0775],[-53.7383,-26.7469,442.7516],[-53.7489,-26.7437,411.8583],[-53.7458,-26.7417,296.1891],[-53.7442,-26.7356,347.5188],[-53.7519,-26.7249,351.027],[-53.7531,-26.7163,434.9361],[-53.7498,-26.717,311.8092],[-53.7426,-26.7261,476.9909],[-53.7383,-26.7262,497.0267],[-53.7357,-26.7237,435.4231],[-53.7332,-26.713,316.3032],[-53.7348,-26.7043,353.8107],[-53.7395,-26.6935,356.9377],[-53.7383,-26.6915,344.9422],[-53.7334,-26.6907,385.2304],[-53.7249,-26.7,460.9134],[-53.7198,-26.6999,536.2692],[-53.7157,-26.6927,432.9986],[-53.7183,-26.6874,393.6263],[-53.7237,-26.6863,375.5527],[-53.7254,-26.684,483.2959],[-53.7183,-26.676,446.4743],[-53.714,-26.6635,362.1877],[-53.7148,-26.6553,432.4237],[-53.7178,-26.6527,344.6024],[-53.7208,-26.6591,387.7665],[-53.7259,-26.6585,345.827],[-53.7301,-26.6515,407.6309],[-53.7408,-26.6523,422.8491],[-53.7457,-26.651,474.3688],[-53.7494,-26.6489,448.1693],[-53.7521,-26.6433,361.4174],[-53.751,-26.6404,404.8926],[-53.7411,-26.6417,377.2786],[-53.738,-26.6404,395.0933],[-53.7358,-26.6338,411.2292],[-53.7291,-26.6277,391.1989],[-53.7277,-26.6233,432.4155],[-53.733,-26.6112,355.6169],[-53.7272,-26.606,369.4672],[-53.7261,-26.6021,369.58],[-53.7254,-26.5993,425.8505],[-53.7274,-26.5905,396.5993],[-53.7207,-26.5892,407.4128],[-53.7177,-26.569,417.3989],[-53.7082,-26.565,515.144],[-53.7061,-26.5597,374.5295],[-53.7076,-26.5566,424.8441],[-53.7117,-26.5573,395.0044],[-53.7259,-26.5657,468.9135],[-53.7298,-26.5659,394.9159],[-53.7314,-26.5635,414.4843],[-53.7257,-26.5613,395.6995],[-53.7239,-26.555,481.938],[-53.7261,-26.5513,396.7362],[-53.7357,-26.5483,409.8374],[-53.7372,-26.5455,416.0501],[-53.7205,-26.5435,464.4947],[-53.7171,-26.5396,407.4924],[-53.7164,-26.5367,411.8886],[-53.7221,-26.5206,445.7233],[-53.7239,-26.5097,481.4455],[-53.7234,-26.5018,413.101],[-53.7209,-26.5019,427.1229],[-53.7153,-26.5057,433.9411],[-53.712,-26.503,426.9477],[-53.7067,-26.5074,423.6945],[-53.7036,-26.5072,444.4638],[-53.7016,-26.5016,476.0019],[-53.7034,-26.496,459.2802],[-53.6946,-26.4886,441.7196],[-53.6952,-26.4869,456.2165],[-53.6938,-26.4857,482.4585],[-53.6987,-26.473,437.0784],[-53.7009,-26.4725,479.4982],[-53.7046,-26.4766,443.279],[-53.7069,-26.4761,456.8884],[-53.708,-26.4707,527.1454],[-53.7113,-26.4663,446.334],[-53.7097,-26.4634,485.3953],[-53.7056,-26.463,446.6993],[-53.699,-26.4654,461.2312],[-53.6976,-26.4606,475.4089],[-53.7027,-26.4414,462.6988],[-53.6982,-26.4417,476.8659],[-53.6902,-26.4489,509.4376],[-53.6867,-26.4444,516.5836],[-53.6862,-26.4305,479.7908],[-53.6844,-26.4287,470.8193],[-53.6927,-26.4302,481.3994],[-53.6977,-26.4158,514.4547],[-53.705,-26.415,476.3439],[-53.7052,-26.4091,479.5955],[-53.7005,-26.409,481.4452],[-53.6962,-26.4027,482.9397],[-53.7064,-26.3959,501.5058],[-53.709,-26.3878,490.9372],[-53.7005,-26.3879,492.8499],[-53.6971,-26.3794,505.4833],[-53.701,-26.3733,500.7849],[-53.6993,-26.3638,504.2351],[-53.6896,-26.3597,591.0214],[-53.6955,-26.3552,525.3494],[-53.689,-26.3543,595.9948],[-53.6848,-26.3366,561.0142],[-53.6762,-26.3353,582.9124],[-53.6255,-26.3368,613.266],[-53.6248,-26.3381,604.2524],[-53.6235,-26.3316,667.7185],[-53.6165,-26.3255,628.6141],[-53.6153,-26.3189,697.1229],[-53.6163,-26.3055,682.6345],[-53.6121,-26.2854,749.6783],[-53.6094,-26.2802,748.6015],[-53.6007,-26.2757,789.4709],[-53.5918,-26.2649,833.7549],[-53.6103,-26.2448,716.2306],[-53.62,-26.237,699.7239],[-53.6333,-26.2207,713.5959],[-53.6433,-26.2122,751.4033],[-53.6468,-26.2077,738.9071],[-53.651,-26.1947,764.2979],[-53.6666,-26.1751,689.1678],[-53.7039,-26.1457,712.4329],[-53.7164,-26.1267,703.8459],[-53.7224,-26.1291,735.8025],[-53.7238,-26.1267,717.3062],[-53.7228,-26.1204,619.6348],[-53.7207,-26.1159,580.4661],[-53.7161,-26.0921,591.181],[-53.7166,-26.0794,533.9933],[-53.7182,-26.0732,521.2725],[-53.7291,-26.0592,514.2441],[-53.7338,-26.0427,520.3305],[-53.7364,-26.0404,519.729],[-53.7392,-26.0429,501.3945],[-53.742,-26.0424,511.6218],[-53.7457,-26.0372,521.4844],[-53.7524,-26.0394,488.1494],[-53.7532,-26.0318,532.8909],[-53.7558,-26.0313,479.2072],[-53.7583,-26.0331,482.2585],[-53.7629,-26.0321,495.3592],[-53.7666,-26.0263,468.4112],[-53.7706,-26.0244,483.3348],[-53.773,-26.0184,519.1327],[-53.778,-26.0153,438.9304],[-53.7792,-26.0095,434.5217],[-53.7865,-26.008,437.8061],[-53.7922,-26.001,418.1159],[-53.799,-26.0011,412.4647],[-53.8058,-25.995,431.3723],[-53.8015,-25.9871,411.4194],[-53.8027,-25.9834,430.6924],[-53.8052,-25.9833,408.3333],[-53.8107,-25.9878,410.5672],[-53.8152,-25.9873,416.3563],[-53.8209,-25.9819,405.9345],[-53.8166,-25.9783,397.1641],[-53.8167,-25.9753,452.1492],[-53.8281,-25.9744,391.3283],[-53.8339,-25.9706,395.8844],[-53.8366,-25.9658,407.1462],[-53.8352,-25.9628,404.0316],[-53.8317,-25.9624,399.9837],[-53.8298,-25.9601,392.8114],[-53.8376,-25.9527,405.3055],[-53.8428,-25.9361,380.5861],[-53.8386,-25.9342,373.5902],[-53.8373,-25.9242,378.8052],[-53.8343,-25.9239,371.2689],[-53.8286,-25.9302,390.2129],[-53.825,-25.9307,384.1426],[-53.8215,-25.912,359.9426],[-53.8186,-25.9124,415.1415],[-53.8215,-25.9119,359.9426],[-53.8211,-25.9096,408.0212],[-53.8238,-25.9079,377.063],[-53.8293,-25.9129,351.7147],[-53.8321,-25.9123,348.2654],[-53.8334,-25.9099,342.887],[-53.8219,-25.9039,339.3802],[-53.819,-25.8996,381.5708],[-53.8251,-25.8979,347.0971],[-53.8337,-25.8989,375.4553],[-53.8347,-25.8959,326.1998],[-53.8323,-25.8892,374.6288],[-53.8335,-25.8875,384.4865],[-53.844,-25.8887,328.1155],[-53.8509,-25.8833,370.9468],[-53.8486,-25.8804,389.739],[-53.842,-25.8791,374.0821],[-53.8376,-25.876,368.1155],[-53.8272,-25.8764,365.9074],[-53.8238,-25.873,303.7487],[-53.8354,-25.8693,303.3728],[-53.8322,-25.8625,298.7945],[-53.8337,-25.859,304.564],[-53.8438,-25.8582,291.7613],[-53.8452,-25.8558,340.0443],[-53.8401,-25.8541,338.5898],[-53.8385,-25.8517,357.2554],[-53.8421,-25.8432,334.7256],[-53.8487,-25.8437,353.5434],[-53.8496,-25.8396,286.2805],[-53.8444,-25.8281,287.8395],[-53.8395,-25.8266,279.8836],[-53.8379,-25.8229,317.2412],[-53.8385,-25.8172,292.4295],[-53.837,-25.8154,281.367],[-53.8243,-25.8165,281.3887],[-53.824,-25.8115,277.9722],[-53.8274,-25.8064,276.0041],[-53.8223,-25.7952,281.4501],[-53.823,-25.7906,317.4181],[-53.8258,-25.7901,282.177],[-53.8306,-25.7925,272.7341],[-53.8423,-25.7909,274.4107],[-53.8357,-25.7868,272.0501],[-53.8339,-25.7785,272.148],[-53.843,-25.7708,272.3564],[-53.8441,-25.7726,285.3257],[-53.8512,-25.7696,277.0235],[-53.8532,-25.767,271.8535],[-53.8501,-25.7624,269.8665],[-53.8443,-25.7621,273.0592],[-53.8431,-25.757,294.0042],[-53.8362,-25.7531,265.5023],[-53.8382,-25.7517,266.4415],[-53.8355,-25.7502,271.2452],[-53.849,-25.7412,278.7881],[-53.8587,-25.7436,262.2062],[-53.8624,-25.7428,271.1065],[-53.8631,-25.7398,263.9025],[-53.8594,-25.7293,267.6982],[-53.8606,-25.7192,254.097],[-53.8621,-25.7176,253.4026],[-53.8667,-25.7188,257.4268],[-53.8706,-25.7123,268.7567],[-53.8772,-25.7106,251.9106],[-53.8806,-25.7064,264.1573],[-53.8788,-25.7044,282.848],[-53.8681,-25.7037,261.889],[-53.8656,-25.7014,250.263],[-53.871,-25.6947,245.2802],[-53.8704,-25.6912,255.1012],[-53.8666,-25.6914,271.8537],[-53.8564,-25.7018,252.6525],[-53.8524,-25.703,245.2808],[-53.8501,-25.6996,266.9369],[-53.8541,-25.6944,245.6084],[-53.846,-25.692,238.0988],[-53.8432,-25.6865,242.1036],[-53.8451,-25.6832,273.5912],[-53.8537,-25.6826,253.2597],[-53.8555,-25.6702,252.2644],[-53.8628,-25.6601,241.4725],[-53.8683,-25.6571,236.7577],[-53.8757,-25.6571,243.4987],[-53.8821,-25.6595,241.4203],[-53.8848,-25.6567,237.1091],[-53.8848,-25.6522,235.6351],[-53.8792,-25.6503,246.3945],[-53.8753,-25.642,241.4941],[-53.886,-25.6418,239.7182],[-53.8892,-25.6392,257.2391],[-53.8864,-25.6278,263.8701],[-53.8898,-25.6224,253.0877],[-53.8939,-25.6228,237.153],[-53.9012,-25.6332,262.9045],[-53.9035,-25.6343,253.5036],[-53.9072,-25.6308,226.425],[-53.9118,-25.6333,235.4342],[-53.9151,-25.6325,226.6079],[-53.9125,-25.6195,246.0242],[-53.9137,-25.6167,245.5506],[-53.9222,-25.6204,233.5558],[-53.9277,-25.6201,227.1747],[-53.9346,-25.6119,233.712],[-53.9397,-25.6114,227.19],[-53.9475,-25.6242,241.0315],[-53.9403,-25.6321,258.3989],[-53.9406,-25.6352,261.9456],[-53.9436,-25.64,247.6106],[-53.9507,-25.6408,225.4175],[-53.955,-25.6386,244.2925],[-53.9592,-25.6326,225.1021],[-53.9635,-25.6134,217.8152],[-53.9694,-25.6064,239.4687],[-53.9687,-25.5975,258.4071],[-53.9874,-25.5786,250.5146],[-54.0048,-25.5685,213.5193],[-54.01,-25.5663,212.0],[-54.0154,-25.5662,212.0],[-54.0207,-25.5677,221.3052],[-54.0418,-25.5855,212.0],[-54.0459,-25.5866,212.0],[-54.0546,-25.5864,215.1111],[-54.0653,-25.5769,214.1631],[-54.0725,-25.5736,231.1176],[-54.079,-25.576,222.2055],[-54.083,-25.591,220.363],[-54.0803,-25.6008,234.5279],[-54.0812,-25.6165,228.6682],[-54.0859,-25.622,230.704],[-54.1004,-25.6225,212.4347],[-54.1061,-25.6154,210.0],[-54.1288,-25.5666,204.75],[-54.1285,-25.5591,208.2807],[-54.1026,-25.5207,202.6419],[-54.1007,-25.509,250.1211],[-54.1049,-25.5029,242.0457],[-54.1099,-25.5015,221.1458],[-54.1147,-25.5021,204.401],[-54.1276,-25.5082,200.0],[-54.1441,-25.5209,200.0],[-54.1432,-25.5217,200.0],[-54.1597,-25.5437,202.0448],[-54.1659,-25.5473,209.9487],[-54.1813,-25.5496,233.2796],[-54.1981,-25.548,237.0207],[-54.2062,-25.5497,197.0],[-54.2127,-25.5545,205.278],[-54.2127,-25.5622,216.9486],[-54.2062,-25.5683,224.9947],[-54.1843,-25.5755,248.5224],[-54.1791,-25.5795,206.4201],[-54.1786,-25.5849,195.0],[-54.1833,-25.5883,210.9082],[-54.1888,-25.5882,215.3342],[-54.206,-25.5824,195.0],[-54.2219,-25.5701,197.4791],[-54.2259,-25.5681,223.1269],[-54.2323,-25.568,211.0217],[-54.2381,-25.5707,194.0],[-54.2394,-25.5748,198.4399],[-54.2391,-25.597,194.0],[-54.2508,-25.5996,196.5657],[-54.2594,-25.5949,194.0],[-54.2671,-25.5843,194.0],[-54.2727,-25.5724,193.5],[-54.2804,-25.5637,216.235],[-54.2873,-25.5598,225.7452],[-54.2954,-25.5607,191.875],[-54.3275,-25.574,189.625],[-54.3416,-25.6012,186.5],[-54.3531,-25.6103,191.301],[-54.3592,-25.6095,190.1901],[-54.3709,-25.6033,210.4413],[-54.377,-25.6018,223.5777],[-54.3816,-25.6021,197.1419],[-54.3867,-25.6047,190.1129],[-54.3897,-25.6121,185.0],[-54.3922,-25.6352,185.0],[-54.3958,-25.6438,185.0],[-54.404,-25.6556,193.0146],[-54.4164,-25.6597,221.1847],[-54.4259,-25.671,185.0],[-54.4274,-25.6801,185.0],[-54.4252,-25.6978,173.75],[-54.4295,-25.7031,197.8147],[-54.4361,-25.7021,170.0],[-54.4434,-25.6961,170.0],[-54.4451,-25.693,173.2138],[-54.4466,-25.6739,159.9945],[-54.4521,-25.6632,185.8566],[-54.4898,-25.6268,203.6729],[-54.4986,-25.6233,194.4782],[-54.5057,-25.6245,188.7879],[-54.5214,-25.634,201.5651],[-54.5282,-25.6336,210.5491],[-54.5334,-25.6296,190.7367],[-54.5358,-25.6247,175.137],[-54.5428,-25.6021,193.2056],[-54.5453,-25.5977,170.7583],[-54.5517,-25.5927,175.2878],[-54.5638,-25.5905,108.7033],[-54.5956,-25.5921,112.403],[-54.6004,-25.6177,163.6937],[-54.5988,-25.6337,184.2267],[-54.5892,-25.6589,203.8662],[-54.59,-25.6662,150.3985],[-54.5936,-25.6683,101.0],[-54.6148,-25.6707,181.8625],[-54.6283,-25.6663,173.4446],[-54.645,-25.6661,155.476],[-54.6489,-25.6676,119.3543],[-54.6559,-25.6742,100.5],[-54.6594,-25.6819,100.0],[-54.6546,-25.707,162.7063],[-54.6438,-25.7204,110.4708],[-54.6342,-25.7413,99.5],[-54.6334,-25.7607,99.5],[-54.6304,-25.7717,136.9237],[-54.6179,-25.7952,159.3088],[-54.6128,-25.8028,161.2987],[-54.6004,-25.8157,154.958],[-54.5948,-25.8237,169.9099],[-54.5906,-25.8339,129.5966],[-54.5907,-25.844,98.5],[-54.5926,-25.8516,145.3805],[-54.5974,-25.864,98.0],[-54.6163,-25.899,97.5],[-54.6227,-25.9179,97.5],[-54.6233,-25.9239,97.5],[-54.6195,-25.9363,160.3917],[-54.609,-25.9564,97.0],[-54.6075,-25.9624,97.0],[-54.6124,-25.9717,130.3493],[-54.6179,-25.9764,102.7738],[-54.6257,-25.9799,132.352],[-54.6706,-25.9799,96.5],[-54.677,-25.9862,106.8459],[-54.6816,-25.9976,122.4438],[-54.681399999999996,-26.0051,96.5],[-54.6765,-26.0215,99.4443],[-54.6579,-26.0557,114.9423],[-54.6477,-26.0711,96.5],[-54.6425,-26.0903,96.0],[-54.6456,-26.1084,96.0],[-54.6494,-26.1176,95.5],[-54.6708,-26.139,95.0],[-54.6762,-26.1463,104.0245],[-54.6738,-26.1617,148.844],[-54.6655,-26.1789,150.0307],[-54.6633,-26.1809,138.2066],[-54.626,-26.2024,123.1998],[-54.6217,-26.2108,111.4359],[-54.6203,-26.2171,111.2057],[-54.6304,-26.229,94.0],[-54.6479,-26.2373,94.0],[-54.6702,-26.2534,94.0],[-54.6753,-26.2585,94.0],[-54.68,-26.2666,94.0],[-54.6816,-26.2737,151.109],[-54.6809,-26.2766,108.7863],[-54.6539,-26.3022,94.0],[-54.6512,-26.3067,93.5],[-54.6499,-26.318,93.5],[-54.6804,-26.3563,128.3103],[-54.6974,-26.3845,110.8403],[-54.6985,-26.3942,105.2046],[-54.6971,-26.4251,92.0],[-54.7003,-26.4402,91.5],[-54.7066,-26.4529,91.5],[-54.7099,-26.4587,141.2228],[-54.7228,-26.4722,105.344],[-54.7373,-26.4817,141.359],[-54.7555,-26.4979,94.008],[-54.7692,-26.5049,119.7243],[-54.7841,-26.5166,135.3342],[-54.7959,-26.5295,89.5],[-54.8041,-26.5455,89.0],[-54.8081,-26.5576,88.5],[-54.8083,-26.5631,88.5],[-54.7882,-26.5938,88.0],[-54.7845,-26.6155,87.5],[-54.7909,-26.6384,87.0],[-54.8013,-26.6564,137.8748],[-54.8084,-26.664,86.0],[-54.814,-26.6738,90.4612],[-54.8235,-26.6807,140.4242],[-54.8328,-26.6812,102.4198],[-54.8406,-26.6779,123.7419],[-54.8566,-26.6672,150.3947],[-54.8653,-26.6646,152.5587],[-54.8936,-26.6667,121.9947],[-54.9204,-26.6783,127.9159],[-54.9389,-26.6932,130.7751],[-54.9439,-26.7038,113.5876],[-54.9447,-26.7103,99.1585],[-54.944,-26.75,86.0],[-54.9502,-26.7726,86.0],[-54.9573,-26.7855,86.0],[-54.962,-26.7906,96.712],[-54.9745,-26.7943,104.5067],[-54.9849,-26.7954,141.7124],[-55.0208,-26.7939,134.9039],[-55.044,-26.797,86.0],[-55.0531,-26.8006,94.8911],[-55.0604,-26.8046,98.5348],[-55.0659,-26.8099,113.8559],[-55.0762,-26.8253,123.4346],[-55.0859,-26.8359,115.0824],[-55.1127,-26.8529,132.6102],[-55.1256,-26.8592,124.2553],[-55.1352,-26.8663,154.1061],[-55.143,-26.877,105.9167],[-55.1497,-26.8944,86.0],[-55.1494,-26.9077,107.5444],[-55.1468,-26.9163,109.6862],[-55.1316,-26.9421,86.0],[-55.1341,-26.9472,86.0],[-55.1431,-26.9548,86.0],[-55.1523,-26.9576,86.0],[-55.1648,-26.9589,86.0],[-55.1964,-26.9689,86.0],[-55.206,-26.9688,86.0],[-55.2156,-26.965699999999998,86.0],[-55.2356,-26.9463,86.0],[-55.251,-26.9407,88.2007],[-55.2616,-26.9408,88.6436],[-55.2731,-26.9435,86.0],[-55.2895,-26.9556,86.0],[-55.3016,-26.9617,86.0],[-55.3126,-26.9639,86.0],[-55.3705,-26.965699999999998,86.0],[-55.3777,-26.9676,86.0],[-55.4197,-26.9962,86.0],[-55.4304,-27.0058,86.0],[-55.4413,-27.0197,85.5],[-55.4545,-27.0462,85.0],[-55.4578,-27.0663,85.0],[-55.4578,-27.0727,85.0],[-55.4538,-27.0913,84.5],[-55.4566,-27.1022,84.375],[-55.4677,-27.1089,84.0],[-55.4768,-27.1113,84.0],[-55.4864,-27.1119,83.75],[-55.5092,-27.1098,123.7518],[-55.5188,-27.1061,83.0],[-55.5367,-27.1074,83.0],[-55.5483,-27.1118,82.5],[-55.5584,-27.1203,88.6032],[-55.5639,-27.1312,82.5],[-55.566,-27.1385,82.5],[-55.5619,-27.1534,82.5],[-55.5658,-27.1625,82.5],[-55.5696,-27.1657,82.5],[-55.5803,-27.1682,82.0],[-55.602,-27.1654,82.0],[-55.6112,-27.1703,82.0],[-55.6154,-27.1756,82.0],[-55.6228,-27.1937,82.0],[-55.6206,-27.2035,82.0],[-55.6133,-27.2137,82.0],[-55.5909,-27.2313,81.5],[-55.5804,-27.2482,81.5],[-55.5803,-27.2518,81.5],[-55.5842,-27.2628,81.5],[-55.6009,-27.2884,81.5],[-55.6003,-27.2929,81.5],[-55.5965,-27.2973,81.0],[-55.5921,-27.3136,81.0],[-55.5937,-27.3123,81.0],[-55.5933,-27.3276,81.0],[-55.5955,-27.337,81.0],[-55.6038,-27.3448,84.2934],[-55.6279,-27.3602,85.9887],[-55.6408,-27.3638,81.0],[-55.6819,-27.385,104.9139],[-55.704,-27.4054,81.5],[-55.726,-27.4398,81.0],[-55.7326,-27.4448,81.0],[-55.7418,-27.4476,80.5],[-55.7525,-27.4484,82.1825],[-55.7832,-27.4452,80.0],[-55.8067,-27.4404,80.0],[-55.8285,-27.4332,80.0],[-55.8505,-27.412,80.0],[-55.8676,-27.3834,80.0],[-55.8775,-27.3619,80.0],[-55.8865,-27.3531,80.0],[-55.9,-27.3457,80.0],[-55.9082,-27.3445,80.0],[-55.9444,-27.3515,80.0],[-55.9722,-27.3493,80.0],[-55.9961,-27.3409,80.0],[-56.0284,-27.3205,80.0],[-56.0285,-27.3445,80.0],[-56.0395,-27.3534,80.0],[-56.0399,-27.356,80.6641],[-56.0374,-27.3691,80.0],[-56.034,-27.3735,80.0],[-56.0345,-27.3871,80.0],[-56.0421,-27.3988,80.0],[-56.0453,-27.4147,86.2564],[-56.0511,-27.421,88.7447],[-56.0585,-27.4257,98.2127],[-56.0596,-27.4282,107.8742],[-56.0579,-27.4578,107.5955],[-56.0423,-27.4705,113.7219],[-56.0283,-27.5033,110.3113],[-56.0215,-27.5086,114.427],[-56.0153,-27.5178,130.4639],[-56.0003,-27.5269,124.2332],[-55.9869,-27.5378,140.9738],[-55.9857,-27.5422,159.1564],[-55.9749,-27.5595,167.6711],[-55.9564,-27.5787,176.6596],[-55.9339,-27.6174,158.87],[-55.8946,-27.6972,116.9535],[-55.8658,-27.7364,174.4942],[-55.8504,-27.7616,197.1899],[-55.8313,-27.8044,192.3266],[-55.833,-27.8124,157.4496],[-55.8404,-27.821,165.3215],[-55.8448,-27.8281,135.9829],[-55.846,-27.8334,128.5706],[-55.8447,-27.8387,127.3151],[-55.8321,-27.8573,137.5303],[-55.8356,-27.8732,119.8435],[-55.8358,-27.8895,105.0467],[-55.8333,-27.8972,105.8717],[-55.8224,-27.9103,100.8464],[-55.8185,-27.9236,104.0782],[-55.8188,-27.9287,115.8439],[-55.8233,-27.9391,114.2339],[-55.8228,-27.9442,101.5211],[-55.8101,-27.9596,96.3019],[-55.8054,-27.9723,92.2459],[-55.7936,-27.9847,98.7483],[-55.7841,-27.9915,90.0523],[-55.7739,-27.9939,95.5273],[-55.7512,-28.0047,128.0994],[-55.7397,-28.0168,110.0204],[-55.7377,-28.0272,114.8215],[-55.7431,-28.0366,90.5755],[-55.743899999999996,-28.0419,97.1336],[-55.7427,-28.0444,108.0239],[-55.739,-28.0486,100.845],[-55.7338,-28.0512,98.6428],[-55.7191,-28.0533,87.1244],[-55.7135,-28.0556,84.3276],[-55.7122,-28.0576,77.2917],[-55.712,-28.0683,84.8031],[-55.7085,-28.0756,109.1901],[-55.6981,-28.0808,95.9989],[-55.689,-28.0802,91.3013],[-55.6773,-28.0882,70.1391],[-55.6723,-28.0974,82.3009],[-55.6665,-28.0962,86.455],[-55.6619,-28.1031,84.3722],[-55.643,-28.1157,88.9993],[-55.6332,-28.1255,76.4038],[-55.6271,-28.1264,74.0036],[-55.6163,-28.1322,64.5505],[-55.6101,-28.1252,68.8825],[-55.6047,-28.1227,77.3956],[-55.5984,-28.1205,69.3873],[-55.585,-28.1196,63.5],[-55.5791,-28.1239,63.5],[-55.5747,-28.1301,71.3458],[-55.5679,-28.1605,63.5],[-55.5578,-28.1642,64.0],[-55.5543,-28.164,64.0],[-55.5448,-28.1565,69.6022],[-55.5401,-28.1451,64.0],[-55.536,-28.1276,68.5085],[-55.5315,-28.122,75.3121],[-55.5237,-28.1178,64.875],[-55.5117,-28.1152,66.4813],[-55.5081,-28.1102,65.0],[-55.5,-28.0855,65.5],[-55.4951,-28.0782,65.5],[-55.49,-28.0767,65.5],[-55.4851,-28.0775,65.5],[-55.4586,-28.0946,66.3916],[-55.4537,-28.0965,66.0],[-55.448,-28.0963,66.0],[-55.4406,-28.0913,67.5371],[-55.4261,-28.0704,66.5],[-55.4202,-28.0652,66.5],[-55.3786,-28.0403,69.125],[-55.3743,-28.0348,69.5],[-55.3753,-28.0341,69.75],[-55.3681,-28.0211,71.0],[-55.3726,-28.0088,72.125],[-55.3856,-27.9901,73.0],[-55.3848,-27.9881,73.0],[-55.3827,-27.9844,73.5],[-55.3764,-27.9795,73.5],[-55.3622,-27.9742,73.5],[-55.3439,-27.9726,74.0],[-55.3379,-27.9662,74.0],[-55.3411,-27.9651,74.0],[-55.339,-27.962,74.0],[-55.335,-27.9439,74.125],[-55.327,-27.9317,75.5602],[-55.3227,-27.928,75.725]]]]}}