{"type":"Feature","properties":{"GID_2":"ARG.1.94_1","GID_0":"ARG","country":"Argentina","GID_1":"ARG.1_1","state":"BuenosAires","NL_NAME_1":"NA","county":"Puán","VARNAME_2":"NA","NL_NAME_2":"NA","TYPE_2":"Partido","ENGTYPE_2":"Part","CC_2":"NA","HASC_2":"AR.BA.PU","name":"Puán.county"},
"geometry":{"type": "MultiPolygon","coordinates": [[[[-63.3927,-37.7971,172.7565],[-63.3932,-38.0082,183.7155],[-63.3892,-38.0712,153.7476],[-63.3898,-38.8402,59.4782],[-63.3065,-38.7765,77.6598],[-63.3132,-38.7691,76.9491],[-62.8977,-38.4561,85.9301],[-62.653,-38.2672,183.2824],[-62.7341,-38.2004,174.9578],[-62.6996,-38.1746,188.69],[-62.6862,-38.1574,198.1945],[-62.6576,-38.1358,204.5132],[-62.7932,-38.0265,239.6773],[-62.7867,-38.0218,239.0074],[-62.8059,-38.0084,240.5897],[-62.7344,-37.9504,250.2656],[-62.8975,-37.8189,211.3801],[-62.7253,-37.6886,268.8877],[-62.7115,-37.6766,276.8913],[-62.7289,-37.6621,272.1302],[-62.5791,-37.5544,275.7787],[-62.6287,-37.5107,246.2882],[-62.6435,-37.5221,247.141],[-62.8104,-37.3741,188.1725],[-63.3705,-37.8149,163.6354],[-63.3927,-37.7971,172.7565]]]]}}