{"type":"Feature","properties":{"GID_2":"ARG.16.13_1","GID_0":"ARG","country":"Argentina","GID_1":"ARG.16_1","state":"RíoNegro","NL_NAME_1":"NA","county":"VeinticincodeMayo","VARNAME_2":"Maquinchao|25deMayo","NL_NAME_2":"NA","TYPE_2":"Departamento","ENGTYPE_2":"Department","CC_2":"NA","HASC_2":"AR.RN.VM","name":"VeinticincodeMayo.county"},
"geometry":{"type": "MultiPolygon","coordinates": [[[[-68.3894,-42.0055,1315.5164],[-68.0816,-42.0034,1258.2821],[-68.0511,-41.1791,875.5096],[-68.0058,-40.1561,761.0312],[-68.2218,-40.0749,813.9669],[-68.5934,-40.1252,1057.7417],[-68.7967,-40.4278,1168.5605],[-69.409,-40.477,1308.8096],[-69.8186,-40.6588,1319.9197],[-69.903,-40.8721,1330.7479],[-70.1781,-41.0248,1132.7316],[-69.9618,-41.1279,1246.8169],[-70.2672,-41.4143,1901.0051],[-69.7424,-41.5054,984.1453],[-69.3851,-42.0067,1328.3062],[-68.8595,-42.0072,1405.4209],[-68.3894,-42.0055,1315.5164]]]]}}