{"type":"Feature","properties":{"ISO3166-1-Alpha-3":"ARG","country":"Argentina","fill":"#F0F","id":"1275","name":"Mendoza"},
"geometry":{"type": "Polygon","coordinates": [[[-68.99134,-32.08016,1840.4358],[-69.02498,-32.07732,2181.5359],[-69.03906,-32.07076,2392.2104],[-69.05849,-32.05479,2616.1238],[-69.06609,-32.04621,2779.5935],[-69.07211,-32.03799,2804.8906],[-69.08211,-32.01975,3001.5659],[-69.12288,-31.97794,4084.6287],[-69.13531,-31.96828,3817.113],[-69.1451,-31.96187,3616.7021],[-69.15862,-31.95764,3481.3716],[-69.175,-31.95567,3349.3784],[-69.18427,-31.95676,3431.9141],[-69.19055,-31.95903,3650.6543],[-69.19569,-31.96198,3751.6938],[-69.19936,-31.96606,3621.8479],[-69.21231,-31.98461,3280.833],[-69.21779,-31.98818,3200.8188],[-69.22479,-31.99107,3167.1689],[-69.23647,-31.99309,2965.1401],[-69.24944,-31.99722,2875.3032],[-69.25336,-31.99986,2810.1899],[-69.25556,-32.00239,2790.7793],[-69.26075,-32.01071,2745.019],[-69.27419,-32.03872,2611.2722],[-69.27708,-32.04295,2486.4746],[-69.28091,-32.04693,2483.0256],[-69.28504,-32.05034,2410.1467],[-69.29179,-32.05386,2352.9165],[-69.30096,-32.05634,2299.5098],[-69.31762,-32.05913,2226.0435],[-69.36682,-32.05101,2221.9897],[-69.42162,-32.05003,2412.6255],[-69.44769,-32.05282,2504.3401],[-69.45325,-32.05448,2551.2798],[-69.47276,-32.06471,2730.0198],[-69.4981,-32.08202,3037.49],[-69.50947,-32.08812,3300.5967],[-69.53107,-32.09675,3232.6418],[-69.59259,-32.11287,3909.0781],[-69.59841,-32.11504,3852.2524],[-69.60815,-32.12026,4095.5781],[-69.61257,-32.12336,3818.9604],[-69.61998,-32.13132,3731.9082],[-69.62339,-32.13597,3978.4507],[-69.62626,-32.14114,4252.5601],[-69.62841,-32.14687,4242.1646],[-69.62975,-32.15297,4534.7241],[-69.62634,-32.20909,4637.6553],[-69.62781,-32.22144,4383.4858],[-69.62944,-32.2277,4458.645],[-69.63169,-32.23354,4625.4111],[-69.63458,-32.23865,4689.1191],[-69.63817,-32.24289,4427.8477],[-69.64357,-32.24749,4355.8633],[-69.65034,-32.25209,4662.2695],[-69.66231,-32.25803,4595.8301],[-69.67068,-32.26046,4745.8364],[-69.78586,-32.26501,2911.3997],[-69.98123,-32.30537,4706.0493],[-70.02657,-32.29715,2819.8521],[-70.05027,-32.28847,2817.7195],[-70.09101,-32.28893,3314.1125],[-70.24439,-32.30966,4341.0586],[-70.25612,-32.31428,4127.6196],[-70.24237,-32.33027,3770.6606],[-70.24532,-32.40396,3970.9807],[-70.22726,-32.43466,4210.792],[-70.18853,-32.45357,4283.6582],[-70.17248,-32.46494,3795.8845],[-70.16083,-32.4853,3870.8762],[-70.15814,-32.50649,3978.3699],[-70.1598,-32.5252,4068.5298],[-70.15788,-32.54246,3830.8047],[-70.13773,-32.56902,4252.0708],[-70.14711,-32.57212,4432.9683],[-70.17057,-32.57274,3769.4609],[-70.17589,-32.58049,3955.5125],[-70.17876,-32.58897,3816.8447],[-70.18109,-32.60757,3933.4846],[-70.18044,-32.6302,4114.0132],[-70.15574,-32.73841,4003.488],[-70.14003,-32.76828,3220.8257],[-70.08727,-32.82327,3583.9971],[-70.05432,-32.85076,4401.9766],[-70.03678,-32.85975,3913.8418],[-70.01435,-32.8675,4068.4763],[-70.00022,-32.8766,4760.3022],[-70.00017,-32.889,4752.0298],[-70.01714,-32.91659,3824.1455],[-70.02427,-32.93478,3817.4834],[-70.03425,-32.97695,4717.521],[-70.04249,-32.99266,4225.915],[-70.05649,-33.00134,3643.01],[-70.08892,-33.00827,3837.5798],[-70.10295,-33.01829,4551.9766],[-70.11119,-33.03845,5497.2275],[-70.1061,-33.05259,5676.2583],[-70.10528,-33.05488,5537.9517],[-70.09548,-33.07131,4572.4258],[-70.09218,-33.09178,4323.8184],[-70.10977,-33.14945,3838.4082],[-70.10946,-33.1696,3542.0532],[-70.10083,-33.18686,3571.0898],[-70.08569,-33.20133,3784.2146],[-70.05179,-33.22531,4924.8291],[-70.04112,-33.23895,4319.2529],[-70.01001,-33.2991,4711.6807],[-69.98386,-33.29445,4192.4595],[-69.94056,-33.24288,4933.397],[-69.90529,-33.23823,4945.4492],[-69.86968,-33.2496,3907.9543],[-69.83684,-33.26572,4623.4155],[-69.8139,-33.28949,4747.7007],[-69.80568,-33.34427,4676.6338],[-69.78767,-33.37941,5303.4111],[-69.78674,-33.39925,5265.5957],[-69.79447,-33.41465,5820.9209],[-69.82059,-33.44287,5378.8809],[-69.8309,-33.45816,5195.1436],[-69.83416,-33.4746,5371.3721],[-69.83814,-33.52111,5783.6104],[-69.84147,-33.53278,5033.8003],[-69.84927,-33.5365,4689.4507],[-69.86927,-33.54291,5261.0273],[-69.87529,-33.54736,5049.6226],[-69.87883,-33.558,4372.8135],[-69.87707,-33.56679,4272.188],[-69.87377,-33.57547,4056.2834],[-69.87294,-33.58601,3783.4431],[-69.89392,-33.64275,3607.2183],[-69.89537,-33.66229,3971.8735],[-69.88679,-33.67872,4678.3628],[-69.85968,-33.71138,5463.4253],[-69.86005,-33.72636,5607.2285],[-69.87255,-33.73742,5756.9282],[-69.9065,-33.76026,5308.9014],[-69.91425,-33.77194,5332.2583],[-69.91477,-33.79354,5065.2017],[-69.89728,-33.87137,3876.0767],[-69.89865,-33.88894,3402.6897],[-69.90805,-33.9279,3657.5305],[-69.90955,-33.9557,4217.2734],[-69.9003,-33.95901,4366.2007],[-69.88428,-33.95415,4021.9204],[-69.8656,-33.95767,4412.4985],[-69.85581,-33.98475,4105.8696],[-69.85545,-34.03115,3679.5776],[-69.86397,-34.10753,4162.6016],[-69.86844,-34.12262,3874.2266],[-69.87237,-34.13099,3970.3218],[-69.87325,-34.13998,3863.2966],[-69.8686,-34.15673,3810.6802],[-69.86211,-34.17016,4016.4844],[-69.83731,-34.20933,3440.7878],[-69.82889,-34.23331,3399.293],[-69.83276,-34.24323,3711.6035],[-69.90229,-34.26866,4606.1875],[-69.90485,-34.27382,4251.6699],[-69.90594,-34.28075,4281.9307],[-69.91157,-34.28457,4062.0815],[-69.94748,-34.27382,3598.2808],[-69.96821,-34.27,3529.8101],[-69.98924,-34.26907,3687.8032],[-70.04035,-34.27703,4774.8467],[-70.04818,-34.28346,4983.1406],[-70.05758,-34.29119,4718.0635],[-70.0645,-34.31351,4165.3457],[-70.06365,-34.34369,3012.4109],[-70.05944,-34.37294,2919.5259],[-70.05869,-34.39578,2812.6636],[-70.06758,-34.41459,3522.436],[-70.11429,-34.44735,2966.9678],[-70.12838,-34.46947,3510.282],[-70.15073,-34.51815,3498.3965],[-70.16778,-34.53841,3263.6902],[-70.2092,-34.56797,2376.0718],[-70.22783,-34.58533,2432.9136],[-70.24243,-34.61944,2608.0598],[-70.25222,-34.69581,3578.292],[-70.27315,-34.72703,3714.7397],[-70.29312,-34.73653,4446.7695],[-70.30945,-34.73974,4096.8154],[-70.3163,-34.74563,3923.4072],[-70.30751,-34.7631,4463.313],[-70.29284,-34.77757,4297.7676],[-70.28069,-34.78635,4167.5186],[-70.27671,-34.79824,3605.1504],[-70.35371,-34.95327,3125.7222],[-70.3726,-35.02468,3073.6777],[-70.37245,-35.02739,3020.0063],[-70.36852,-35.09713,3176.7236],[-70.38663,-35.16669,2991.1787],[-70.5429,-35.20927,2898.2783],[-70.57889,-35.25971,3689.4072],[-70.56042,-35.29836,3321.5276],[-70.5207,-35.30963,2916.0083],[-70.47528,-35.31407,2521.1731],[-70.43975,-35.33216,2838.458],[-70.42838,-35.35707,3044.9265],[-70.44061,-35.36678,2918.6167],[-70.46037,-35.37102,2842.9082],[-70.47177,-35.37939,3064.0549],[-70.46918,-35.39469,2965.707],[-70.44546,-35.46114,2993.1111],[-70.43107,-35.47778,2980.085],[-70.41642,-35.49111,2988.2485],[-70.40823,-35.5062,2884.0908],[-70.4181,-35.54754,2743.5972],[-70.41198,-35.58744,2931.7197],[-70.41226,-35.60739,3041.5854],[-70.42273,-35.64387,3141.0571],[-70.42154,-35.65968,2894.3767],[-70.3764,-35.76138,3057.7485],[-70.36157,-35.78309,2860.8274],[-70.35733,-35.81523,2591.925],[-70.42024,-35.86835,2965.7483],[-70.42079,-35.9038,2960.8828],[-70.41236,-35.90814,2783.6182],[-70.39074,-35.90587,2635.2146],[-70.38368,-35.91321,3022.9043],[-70.38482,-35.92117,3188.0244],[-70.39146,-35.92737,3094.5308],[-70.3996,-35.93274,2817.9182],[-70.40503,-35.93832,2579.509],[-70.41257,-35.95734,2874.6782],[-70.41273,-35.96891,2863.2031],[-70.38368,-36.03051,2772.8376],[-70.38032,-36.04602,3085.9558],[-70.38694,-36.05873,3006.4072],[-70.4043,-36.07444,2891.8792],[-70.41068,-36.08374,3031.7844],[-70.42273,-36.11661,2736.394],[-70.43075,-36.1294,2731.5908],[-70.4244,-36.13604,2659.6223],[-70.38691,-36.15914,2175.5],[-70.37203,-36.17216,2466.3228],[-70.36815,-36.17764,2233.2205],[-70.36095,-36.19273,2379.2703],[-70.3588,-36.19939,2344.4575],[-70.35694,-36.21112,2135.0898],[-70.35774,-36.24032,2227.749],[-70.35955,-36.25262,2224.5178],[-70.36146,-36.25861,1955.7966],[-70.36454,-36.26357,1869.1681],[-70.36862,-36.26745,1824.3395],[-70.37327,-36.27071,1730.0261],[-70.37759,-36.27427,1753.0826],[-70.38094,-36.28073,1827.4883],[-70.38288,-36.28988,1833.8784],[-70.38242,-36.30657,2243.7495],[-70.38025,-36.31768,2388.7102],[-70.378,-36.32533,2288.2805],[-70.36645,-36.35086,2274.8884],[-70.35619,-36.366,2114.498],[-70.35185,-36.37075,2111.666],[-70.34728,-36.37416,2052.7046],[-70.34146,-36.37695,1891.0613],[-70.33516,-36.37881,1911.2969],[-70.32831,-36.37943,2088.1816],[-70.32268,-36.37762,2111.2075],[-70.31774,-36.37494,2100.3359],[-70.30999,-36.36651,2000.7173],[-70.30575,-36.36279,1993.274],[-70.30072,-36.36016,2006.835],[-70.29467,-36.35902,1948.7714],[-70.28777,-36.35871,1867.6261],[-70.27955,-36.36057,1837.5444],[-70.27092,-36.3645,1905.4043],[-70.26025,-36.37282,2002.2712],[-70.25498,-36.37871,2104.1724],[-70.25144,-36.38439,2100.4448],[-70.22896,-36.45354,1767.6342],[-70.22576,-36.46919,1452.2563],[-70.19739,-36.53312,2099.4243],[-70.17543,-36.5681,2437.9082],[-70.163,-36.58159,2157.9746],[-70.15866,-36.585,2065.9595],[-70.14742,-36.58996,2219.7539],[-70.07355,-36.60913,1208.0573],[-70.06766,-36.61177,1339.7231],[-70.05835,-36.61993,1366.4293],[-70.05301,-36.62567,1306.8279],[-70.03182,-36.64314,1368.7369],[-70.02262,-36.66045,1220.5591],[-70.01882,-36.66624,1201.3451],[-70.01381,-36.67053,1233.1311],[-70.0088,-36.67321,1275.5769],[-69.98968,-36.68102,1738.234],[-69.95601,-36.70582,1166.7],[-69.94443,-36.72055,1114.2166],[-69.9356,-36.73957,1084.1862],[-69.92211,-36.779,1001.7771],[-69.91653,-36.7868,1033.6398],[-69.9072,-36.79558,985.7363],[-69.86782,-36.82292,948.2423],[-69.86356,-36.82499,1031.1082],[-69.83808,-36.83398,995.829],[-69.82085,-36.8423,947.6685],[-69.80545,-36.8471,1031.8257],[-69.79013,-36.86323,895.7634],[-69.78785,-36.9056,958.121],[-69.78114,-36.91919,862.2665],[-69.78571,-36.92948,897.5775],[-69.78594,-36.94922,984.7075],[-69.78796,-36.96017,981.6245],[-69.79478,-36.97061,993.8547],[-69.81235,-36.98704,986.8582],[-69.81589,-36.99738,989.6128],[-69.80987,-37.01128,1012.339],[-69.73822,-37.08647,823.077],[-69.70336,-37.11215,838.3863],[-69.62347,-37.15256,772.5063],[-69.58161,-37.16528,778.318],[-69.531,-37.17365,745.4421],[-69.47867,-37.17644,734.2159],[-69.30235,-37.14977,688.9213],[-69.26037,-37.15256,676.8961],[-69.19606,-37.17639,663.7066],[-69.15466,-37.18269,656.2888],[-69.10668,-37.1985,660.5579],[-69.08844,-37.20719,662.3403],[-69.06105,-37.23602,656.3475],[-69.03901,-37.3124,613.2212],[-69.02015,-37.34434,615.1097],[-68.98506,-37.36382,601.9221],[-68.93592,-37.37606,581.6479],[-68.88432,-37.38113,574.2463],[-68.75668,-37.37167,547.3855],[-68.73639,-37.37937,555.0536],[-68.69826,-37.41513,591.2162],[-68.67815,-37.42629,680.1053],[-68.66784,-37.42728,676.493],[-68.63596,-37.42629,687.5972],[-68.62475,-37.42929,639.8141],[-68.60255,-37.43864,543.1442],[-68.59188,-37.44056,597.6217],[-68.52597,-37.44118,612.8118],[-68.50685,-37.44738,597.0605],[-68.49261,-37.46025,592.2353],[-68.46186,-37.51192,494.1282],[-68.44339,-37.52949,494.4113],[-68.42752,-37.53776,491.5474],[-68.24939,-37.55704,490.5133],[-68.24883,-36.83351,846.4215],[-68.25676,-36.27675,1007.8292],[-68.28567,-36.15666,1080.0715],[-68.29141,-36.144,1085.9048],[-68.29319,-36.12829,1096.9951],[-68.29156,-36.08777,1113.1057],[-68.28223,-36.02106,1112.2166],[-68.26611,-36.00648,1080.1044],[-68.24632,-35.9993,1058.5328],[-67.13499,-35.9993,335.1105],[-67.06004,-35.99894,332.5152],[-66.61717,-35.99992,326.2875],[-66.62311,-35.99791,325.9229],[-66.62918,-35.96535,322.2869],[-66.6288,-35.94907,323.3254],[-66.61606,-35.90205,330.9047],[-66.60815,-35.82985,329.7983],[-66.5672,-35.67162,340.9949],[-66.5556,-35.57075,343.0618],[-66.52562,-35.51458,343.8564],[-66.52113,-35.49422,345.0244],[-66.51707,-35.40502,347.2444],[-66.50513,-35.34265,351.0583],[-66.50656,-35.32647,353.0624],[-66.5188,-35.2641,354.089],[-66.51637,-35.25867,354.9194],[-66.51126,-35.25056,354.3486],[-66.5065,-35.23992,356.5487],[-66.50513,-35.2272,356.688],[-66.50823,-35.21935,359.0898],[-66.51444,-35.21098,360.5644],[-66.52562,-35.19925,361.6145],[-66.50661,-35.14147,362.496],[-66.50513,-35.12416,362.4287],[-66.51033,-35.10824,365.7514],[-66.52898,-35.07827,365.8819],[-66.53307,-35.06613,369.0472],[-66.53627,-35.0484,369.142],[-66.55033,-35.01073,371.1452],[-66.55355,-34.99724,370.9398],[-66.54366,-34.94546,372.1432],[-66.54609,-34.9249,373.0705],[-66.572,-34.85291,376.3971],[-66.69073,-34.65799,380.6865],[-66.73796,-34.61541,386.1469],[-66.74535,-34.59964,385.8739],[-66.74887,-34.57748,386.1107],[-66.77264,-34.5134,388.3425],[-66.77886,-34.42803,389.7489],[-66.78747,-34.40865,389.5798],[-66.80357,-34.39692,393.6297],[-66.81261,-34.38462,396.6172],[-66.79997,-34.36317,394.9663],[-66.81116,-34.34488,391.0369],[-66.81424,-34.26762,401.9586],[-66.82261,-34.2423,403.2815],[-66.82137,-34.22928,402.5406],[-66.80672,-34.20964,403.2105],[-66.80349,-34.19616,404.3835],[-66.79997,-34.19187,404.2607],[-66.79357,-34.19181,403.7308],[-66.78049,-34.19926,403.492],[-66.77264,-34.19869,403.2838],[-66.7592,-34.18453,403.9225],[-66.75476,-34.16257,405.6662],[-66.75155,-34.10996,407.9326],[-66.74571,-34.07937,409.2795],[-66.74706,-34.06417,410.2374],[-66.76427,-34.03896,411.5369],[-66.77135,-34.00816,414.5085],[-66.77886,-33.99327,414.549],[-66.79248,-33.98268,414.952],[-66.80845,-33.97353,416.343],[-66.82173,-33.95974,418.0582],[-66.83204,-33.91395,423.8431],[-66.844,-33.89628,423.6635],[-66.85966,-33.88176,428.3],[-66.87568,-33.87034,426.304],[-66.91188,-33.85044,428.0572],[-66.92958,-33.83793,428.9026],[-66.93712,-33.82538,430.2923],[-66.94028,-33.80641,430.7101],[-66.96505,-33.73939,434.7476],[-66.98833,-33.70523,437.461],[-67.00231,-33.66058,440.8411],[-67.00714,-33.65221,441.4461],[-67.01968,-33.6165,443.2217],[-67.02663,-33.60673,439.4087],[-67.04699,-33.58916,446.2156],[-67.14259,-33.45201,457.8252],[-67.15194,-33.42907,458.084],[-67.15336,-33.4098,456.2],[-67.14941,-33.36634,454.6478],[-67.15313,-33.34711,453.8672],[-67.17734,-33.30117,456.6646],[-67.17732,-33.26505,461.5405],[-67.18295,-33.25523,458.0989],[-67.19036,-33.22888,460.0956],[-67.18416,-33.14976,455.8335],[-67.19225,-33.05902,461.2137],[-67.20111,-33.03881,460.3925],[-67.20403,-33.02744,459.3251],[-67.20336,-33.01685,459.3112],[-67.19786,-32.99768,464.1911],[-67.19783,-32.98651,463.5492],[-67.21796,-32.94342,467.2534],[-67.22695,-32.91613,466.8949],[-67.22171,-32.90393,464.7791],[-67.20612,-32.89355,468.4086],[-67.20581,-32.86998,468.8459],[-67.21829,-32.82823,469.9441],[-67.21455,-32.8197,470.7939],[-67.20961,-32.79174,471.78],[-67.19212,-32.7611,473.0324],[-67.19693,-32.75046,473.3279],[-67.20636,-32.73929,474.7809],[-67.21147,-32.72209,475.2406],[-67.21419,-32.70493,475.3041],[-67.22152,-32.69614,474.6545],[-67.23222,-32.68932,476.4841],[-67.24499,-32.67801,476.1305],[-67.2523,-32.66705,475.6884],[-67.25837,-32.65356,475.6198],[-67.27824,-32.57197,479.0378],[-67.27974,-32.55729,479.9789],[-67.28297,-32.54385,478.8676],[-67.29702,-32.51336,481.3301],[-67.3016,-32.48629,484.0735],[-67.30524,-32.4774,484.2482],[-67.31067,-32.46913,485.4548],[-67.31731,-32.462,485.6222],[-67.32087,-32.45502,485.8947],[-67.31927,-32.43859,486.8384],[-67.32072,-32.43099,486.2971],[-67.32901,-32.41952,488.0652],[-67.33911,-32.41032,489.2567],[-67.3617,-32.39683,490.0664],[-67.38986,-32.30433,494.3222],[-67.39301,-32.26216,495.8731],[-67.46719,-32.21793,500.2313],[-67.49326,-32.21349,501.774],[-67.50303,-32.22129,502.6054],[-67.5136,-32.22485,503.5065],[-67.52784,-32.2264,503.389],[-67.59362,-32.2263,507.3655],[-67.6531,-32.23839,509.9626],[-67.68181,-32.24149,512.9121],[-67.68938,-32.24103,512.0402],[-67.70666,-32.24764,513.8861],[-67.71516,-32.24537,513.394],[-67.72183,-32.24656,514.6162],[-67.73506,-32.25178,514.6694],[-67.73906,-32.25286,518.0925],[-67.83185,-32.23917,518.7654],[-67.8395,-32.23493,520.983],[-67.86257,-32.20506,520.2961],[-67.87495,-32.19406,520.5067],[-67.88926,-32.18455,526.2045],[-67.92709,-32.16873,526.0177],[-67.9397,-32.15855,530.7957],[-67.94884,-32.12558,530.4556],[-67.95952,-32.11189,525.9852],[-67.98548,-32.08838,527.4706],[-68.02073,-32.06905,534.6046],[-68.05584,-32.06843,530.6],[-68.16669,-32.09303,537.8495],[-68.1772,-32.09866,534.806],[-68.21599,-32.12574,538.3933],[-68.25159,-32.13959,539.5352],[-68.27293,-32.14429,537.4648],[-68.3937,-32.15013,539.4847],[-68.40678,-32.15695,540.02],[-68.41543,-32.16636,541.1671],[-68.42897,-32.18558,543.4171],[-68.46209,-32.20899,544.4427],[-68.63836,-32.31188,597.7993],[-68.6896,-32.33508,611.3779],[-68.88618,-32.33658,1192.2225],[-68.89576,-32.3327,1292.3196],[-68.90217,-32.32568,1371.5922],[-68.92217,-32.07623,1505.9937],[-68.92473,-32.07298,1520.002],[-68.93023,-32.07096,1548.0179],[-68.94343,-32.07107,1623.6221],[-68.99134,-32.08016,1840.4358]]]}}