{"type":"Feature","properties":{"GID_1":"ARG.13_1","GID_0":"ARG","country":"Argentina","state":"Mendoza","VARNAME_1":"NA","NL_NAME_1":"NA","TYPE_1":"Provincia","ENGTYPE_1":"Province","CC_1":"NA","HASC_1":"AR.MZ","ISO_1":"AR-M","name":"Mendoza.state"},
"geometry":{"type": "MultiPolygon","coordinates": [[[[-68.2958,-36.1381,1094.9597],[-68.2958,-35.9985,1188.6375],[-67.5804,-35.998,542.859],[-67.5041,-35.9955,494.437],[-66.6261,-35.9989,326.0932],[-66.6373,-35.9671,326.2385],[-66.6348,-35.9547,328.1402],[-66.6263,-35.9416,323.7884],[-66.6307,-35.927,323.8652],[-66.6318,-35.9092,329.3594],[-66.6306,-35.9075,328.3479],[-66.6216,-35.9058,327.7595],[-66.6193,-35.9012,326.2305],[-66.6163,-35.8862,330.334],[-66.6195,-35.8715,328.2134],[-66.6158,-35.8467,330.3916],[-66.6024,-35.8187,328.5187],[-66.6012,-35.8088,334.9702],[-66.598,-35.7992,335.1315],[-66.5831,-35.7718,332.0175],[-66.5827,-35.7671,335.4001],[-66.5871,-35.7472,336.0419],[-66.582,-35.7356,333.943],[-66.5858,-35.7158,338.3834],[-66.5854,-35.7109,335.4615],[-66.5708,-35.6728,341.1658],[-66.5684,-35.6554,342.0519],[-66.5618,-35.647,341.0235],[-66.5591,-35.6398,340.7861],[-66.5605,-35.6325,340.9314],[-66.5697,-35.6261,345.394],[-66.5696,-35.6212,344.8737],[-66.5654,-35.6093,340.9593],[-66.5761,-35.6039,345.7051],[-66.5777,-35.5968,345.9795],[-66.5762,-35.5918,345.7695],[-66.5648,-35.5741,342.4208],[-66.5532,-35.5663,345.211],[-66.5399,-35.5495,343.5638],[-66.5391,-35.5372,342.9372],[-66.5337,-35.5255,344.1105],[-66.5313,-35.4931,344.747],[-66.527,-35.4735,346.5404],[-66.5272,-35.431,346.7232],[-66.53,-35.4137,347.9821],[-66.5207,-35.3952,349.9367],[-66.5211,-35.3827,355.8629],[-66.5114,-35.359,351.2561],[-66.5077,-35.3418,352.5436],[-66.5076,-35.3243,354.1344],[-66.5201,-35.3042,357.1646],[-66.5245,-35.277,353.471],[-66.5226,-35.2725,353.4162],[-66.5152,-35.2643,353.6346],[-66.5138,-35.2568,354.8948],[-66.5071,-35.2486,354.9347],[-66.5027,-35.2392,356.2319],[-66.5075,-35.192,359.778],[-66.5036,-35.1522,361.9736],[-66.5074,-35.1199,365.0601],[-66.5145,-35.1088,365.5566],[-66.5177,-35.0967,366.0038],[-66.528,-35.0873,367.2045],[-66.533,-35.0704,365.9997],[-66.5409,-35.059,369.0059],[-66.5422,-35.0522,368.6709],[-66.5413,-35.0373,368.6235],[-66.5503,-35.0214,370.9278],[-66.5478,-35.0091,370.2296],[-66.5528,-35.0001,370.9113],[-66.5553,-34.9903,371.2168],[-66.5536,-34.9775,370.089],[-66.5512,-34.9703,370.1914],[-66.5411,-34.9611,369.3077],[-66.5384,-34.9514,370.631],[-66.5405,-34.9442,371.704],[-66.5479,-34.9332,373.2683],[-66.5537,-34.8961,370.015],[-66.5619,-34.8826,376.4337],[-66.5704,-34.8561,376.4984],[-66.5804,-34.8379,376.8507],[-66.6045,-34.8092,378.2248],[-66.6191,-34.7966,378.6956],[-66.6275,-34.7833,379.7806],[-66.6551,-34.7471,380.2085],[-66.6533,-34.7429,378.8792],[-66.6424,-34.7338,377.3835],[-66.6376,-34.7275,377.2691],[-66.6373,-34.7199,381.5984],[-66.6407,-34.713,390.2307],[-66.6503,-34.7035,390.6725],[-66.6846,-34.6877,380.9398],[-66.6964,-34.6701,381.6591],[-66.7045,-34.6486,380.8389],[-66.7194,-34.6362,384.3223],[-66.7265,-34.6281,385.9946],[-66.7335,-34.6117,387.1337],[-66.7504,-34.5879,385.0574],[-66.753,-34.5707,383.4424],[-66.7579,-34.5536,384.2977],[-66.7648,-34.5371,385.8863],[-66.7738,-34.5213,389.0405],[-66.7757,-34.514,389.2819],[-66.7764,-34.5015,389.2391],[-66.7723,-34.4792,389.1293],[-66.7783,-34.4574,391.5939],[-66.7717,-34.433,389.9151],[-66.7726,-34.4256,387.3432],[-66.7785,-34.4141,390.9211],[-66.804,-34.3964,394.1427],[-66.8067,-34.3921,395.4011],[-66.8062,-34.3845,396.3401],[-66.7975,-34.3857,393.8461],[-66.7883,-34.3836,394.586],[-66.7873,-34.3818,394.6465],[-66.7898,-34.3717,389.8599],[-66.7855,-34.368,394.308],[-66.7845,-34.3631,394.0517],[-66.7865,-34.3572,395.4078],[-66.7897,-34.3545,395.1235],[-66.8009,-34.3571,396.1359],[-66.8044,-34.3446,394.8541],[-66.8171,-34.3307,397.2898],[-66.8082,-34.3241,397.7897],[-66.8033,-34.315,391.0603],[-66.8036,-34.3073,392.08],[-66.8091,-34.2985,398.3214],[-66.8115,-34.291,399.8372],[-66.811,-34.2888,399.2412],[-66.8037,-34.2843,399.6635],[-66.8025,-34.2794,399.581],[-66.8051,-34.262,401.7108],[-66.8036,-34.252,400.7798],[-66.8067,-34.245,402.0172],[-66.8067,-34.2401,402.2954],[-66.8011,-34.217,402.3863],[-66.7982,-34.2109,402.4734],[-66.7813,-34.217,402.8093],[-66.7791,-34.216,402.3831],[-66.7765,-34.2111,402.749],[-66.7782,-34.2036,401.3197],[-66.7754,-34.199,405.1296],[-66.7729,-34.1977,403.9929],[-66.7695,-34.1983,402.8356],[-66.7565,-34.2048,402.4437],[-66.7515,-34.2055,402.9622],[-66.7436,-34.1944,403.5374],[-66.7467,-34.1874,403.7361],[-66.7477,-34.175,405.0529],[-66.7559,-34.1591,405.8255],[-66.7535,-34.1517,406.456],[-66.7382,-34.1397,405.9967],[-66.7352,-34.1326,404.1875],[-66.7365,-34.1227,407.1343],[-66.7446,-34.1153,407.4469],[-66.7489,-34.1085,407.8172],[-66.739,-34.0962,408.4951],[-66.7375,-34.0914,408.215],[-66.737,-34.064,410.1442],[-66.7373,-34.0612,410.0234],[-66.7409,-34.0571,409.9821],[-66.731,-34.0233,411.5896],[-66.7267,-34.0024,412.5251],[-66.7411,-33.9671,415.2977],[-66.7393,-33.9598,415.3256],[-66.7411,-33.9472,416.5889],[-66.7592,-33.9336,417.1387],[-66.7683,-33.9336,415.4684],[-66.782,-33.9285,418.7493],[-66.7853,-33.9239,419.2545],[-66.7876,-33.9167,419.4778],[-66.79,-33.915,419.9778],[-66.8086,-33.9064,421.383],[-66.8145,-33.9054,423.0192],[-66.8238,-33.8988,422.741],[-66.8433,-33.8699,424.5088],[-66.8445,-33.8572,424.7289],[-66.8483,-33.8476,425.5225],[-66.8602,-33.8327,426.3745],[-66.8887,-33.8027,429.4988],[-66.8899,-33.7824,432.5173],[-66.8936,-33.7674,433.2379],[-66.898,-33.7607,428.2743],[-66.9284,-33.7354,442.6794],[-66.9764,-33.7131,438.3446],[-67.0018,-33.6913,438.7091],[-67.0032,-33.6864,439.3221],[-67.0031,-33.6736,440.4745],[-67.0082,-33.643,441.8299],[-67.0059,-33.6254,441.6912],[-67.0112,-33.6166,439.5198],[-67.0114,-33.6038,449.1685],[-67.0188,-33.5958,448.3175],[-67.0476,-33.5875,446.6575],[-67.0628,-33.575,448.3394],[-67.0708,-33.5641,444.8062],[-67.0776,-33.5418,451.4025],[-67.0874,-33.536,451.4446],[-67.0961,-33.5333,448.7568],[-67.1033,-33.5252,452.7986],[-67.1079,-33.5157,453.092],[-67.119,-33.4811,454.0392],[-67.1354,-33.4664,455.2523],[-67.1407,-33.4546,456.7338],[-67.1563,-33.4326,457.2227],[-67.1567,-33.402,459.7624],[-67.1608,-33.3951,460.1704],[-67.1552,-33.3861,456.344],[-67.1531,-33.376,452.1092],[-67.1592,-33.3618,452.7571],[-67.1597,-33.3388,455.3996],[-67.1564,-33.3321,454.0349],[-67.1553,-33.3219,452.9236],[-67.1666,-33.3068,455.6713],[-67.1798,-33.2962,456.8619],[-67.1831,-33.2864,460.6275],[-67.182,-33.2584,457.7633],[-67.1837,-33.2483,457.7827],[-67.1865,-33.2437,457.6797],[-67.1888,-33.2029,455.8952],[-67.1809,-33.1628,455.9341],[-67.183,-33.1528,455.9045],[-67.1896,-33.1442,456.0891],[-67.1942,-33.1348,456.6529],[-67.196,-33.1247,460.851],[-67.1984,-33.0916,457.3246],[-67.1948,-33.0742,461.8894],[-67.1976,-33.0669,460.8216],[-67.2031,-33.0611,461.5277],[-67.2033,-33.0562,461.2788],[-67.2098,-33.0508,460.7001],[-67.2119,-33.046,461.4352],[-67.2055,-33.0345,460.855],[-67.2019,-33.0221,459.2932],[-67.2023,-33.0145,459.5698],[-67.2065,-32.9996,464.3907],[-67.2019,-32.9903,462.8713],[-67.2,-32.9699,464.7724],[-67.2024,-32.9626,465.3768],[-67.2128,-32.95,467.4265],[-67.2198,-32.9358,466.3724],[-67.2162,-32.9261,466.3401],[-67.2149,-32.9159,467.6046],[-67.2057,-32.9028,468.2007],[-67.2052,-32.8875,468.2143],[-67.2016,-32.8751,468.8693],[-67.201,-32.8573,469.278],[-67.2116,-32.8255,470.6206],[-67.2118,-32.8153,471.8731],[-67.2027,-32.7965,471.8284],[-67.1988,-32.7927,471.6108],[-67.1886,-32.7871,471.7565],[-67.1885,-32.777,472.873],[-67.1923,-32.773,474.4307],[-67.1894,-32.7693,471.2852],[-67.1903,-32.7643,472.9368],[-67.204,-32.742,474.3785],[-67.2038,-32.7241,474.7632],[-67.2099,-32.7124,474.9408],[-67.2175,-32.7046,475.0342],[-67.2439,-32.6922,474.2856],[-67.249,-32.683,475.1673],[-67.2532,-32.6655,475.1852],[-67.262,-32.6492,475.8178],[-67.2604,-32.6366,476.7343],[-67.263,-32.6267,477.1266],[-67.2607,-32.6166,477.0501],[-67.2626,-32.6092,477.4317],[-67.2672,-32.5997,477.9126],[-67.2893,-32.5786,478.6215],[-67.2919,-32.5741,478.6226],[-67.2911,-32.5665,478.9075],[-67.2859,-32.5572,479.2364],[-67.2854,-32.5522,479.614],[-67.2982,-32.5292,480.8552],[-67.2984,-32.5114,481.8224],[-67.3025,-32.4991,483.0784],[-67.3061,-32.4763,484.221],[-67.3176,-32.4616,485.6222],[-67.3186,-32.4514,486.0607],[-67.3238,-32.4391,486.8469],[-67.3311,-32.4095,489.2156],[-67.3398,-32.3992,488.8531],[-67.3539,-32.3955,490.0865],[-67.3583,-32.3922,489.9954],[-67.3672,-32.376,490.333],[-67.371,-32.3507,491.4631],[-67.3815,-32.3384,492.917],[-67.3869,-32.3363,494.0567],[-67.405,-32.3359,494.5376],[-67.4104,-32.334,494.3899],[-67.4187,-32.327,495.8713],[-67.4343,-32.3194,496.0259],[-67.4583,-32.3043,498.4123],[-67.464,-32.2953,498.3621],[-67.4706,-32.2758,498.9233],[-67.471,-32.2555,499.8659],[-67.4756,-32.2464,500.9705],[-67.4959,-32.2215,502.0543],[-67.4999,-32.2136,501.8918],[-67.5076,-32.2079,502.6622],[-67.511,-32.198,502.8469],[-67.5167,-32.1974,503.1803],[-67.5239,-32.2058,503.1045],[-67.5379,-32.2152,504.2662],[-67.5483,-32.2201,505.0816],[-67.5543,-32.2201,505.0155],[-67.5653,-32.2161,505.187],[-67.589,-32.2186,506.982],[-67.6051,-32.2126,507.0483],[-67.6112,-32.2132,506.8655],[-67.6275,-32.2192,509.7448],[-67.6395,-32.219,511.4335],[-67.6614,-32.2104,511.431],[-67.6734,-32.2208,512.455],[-67.6794,-32.2205,512.89],[-67.6836,-32.2168,514.9556],[-67.6892,-32.2154,516.327],[-67.6948,-32.217,519.0273],[-67.7021,-32.2249,518.7074],[-67.7081,-32.2249,515.3929],[-67.7136,-32.2233,520.6],[-67.725,-32.2116,519.0943],[-67.7303,-32.2092,518.386],[-67.7423,-32.2082,518.5862],[-67.751,-32.2113,520.0865],[-67.7563,-32.2113,520.7104],[-67.7799,-32.2074,522.8074],[-67.7913,-32.2097,519.7869],[-67.8214,-32.2097,520.1711],[-67.8267,-32.2084,519.4674],[-67.8345,-32.2005,521.457],[-67.8566,-32.1929,522.8237],[-67.8613,-32.1897,525.9853],[-67.865,-32.1752,524.417],[-67.8694,-32.1716,523.8852],[-67.881,-32.1687,524.7319],[-67.8869,-32.169,525.1201],[-67.8974,-32.1645,529.1168],[-67.9093,-32.1628,526.1202],[-67.9133,-32.1595,526.6981],[-67.9166,-32.1496,527.3901],[-67.9243,-32.1418,524.5962],[-67.9263,-32.1319,524.5447],[-67.9264,-32.1114,530.008],[-67.9288,-32.1073,530.5041],[-67.9553,-32.0979,530.8372],[-67.9589,-32.0778,531.8243],[-67.9689,-32.0728,532.9613],[-67.995,-32.0787,530.6459],[-68.0116,-32.0735,528.8992],[-68.0348,-32.0777,529.5486],[-68.0402,-32.0708,534.8564],[-68.052,-32.0716,529.5585],[-68.0569,-32.0687,530.9398],[-68.0628,-32.0693,532.7894],[-68.0665,-32.0733,534.5067],[-68.0681,-32.0782,535.3798],[-68.0727,-32.0815,538.5872],[-68.0783,-32.0825,535.8644],[-68.0819,-32.079,537.4678],[-68.088,-32.0799,539.0085],[-68.1007,-32.0907,539.1752],[-68.1493,-32.1105,537.984],[-68.179,-32.1146,537.3107],[-68.1966,-32.1126,537.7656],[-68.2143,-32.1156,538.9626],[-68.2317,-32.1118,538.0591],[-68.2377,-32.112,538.0272],[-68.2487,-32.1159,538.0032],[-68.2785,-32.1331,538.061],[-68.2899,-32.1362,538.7013],[-68.2953,-32.1344,538.3324],[-68.2983,-32.1302,538.8619],[-68.304,-32.1283,539.035],[-68.31,-32.1285,539.3847],[-68.3207,-32.1331,538.0568],[-68.3316,-32.1296,539.81],[-68.3375,-32.1293,539.8934],[-68.3674,-32.1319,539.3505],[-68.3793,-32.1308,538.0286],[-68.3846,-32.1283,539.366],[-68.3863,-32.124,540.5673],[-68.3841,-32.1139,539.708],[-68.3862,-32.1095,540.5436],[-68.3978,-32.1122,539.1022],[-68.4217,-32.1123,538.9563],[-68.4625,-32.1036,544.3304],[-68.4681,-32.104,545.2192],[-68.4742,-32.15,542.369],[-68.4794,-32.1646,543.6322],[-68.4881,-32.1781,543.9506],[-68.5107,-32.1947,546.9691],[-68.5775,-32.2572,573.6918],[-68.6632,-32.331,601.8079],[-68.8283,-32.3286,862.4539],[-68.9315,-32.3235,1884.579],[-68.9311,-32.0975,1535.8695],[-68.9518,-32.0969,1615.282],[-68.9575,-32.098,1634.5714],[-68.9699,-32.1091,1740.2666],[-68.9871,-32.1133,1866.3092],[-69.011,-32.1139,2345.2241],[-69.0165,-32.1118,2583.0234],[-69.0308,-32.1025,2436.5107],[-69.0331,-32.0979,2565.7561],[-69.0684,-32.0716,2956.8572],[-69.0705,-32.0668,3067.0825],[-69.0875,-32.0529,3445.4824],[-69.0907,-32.0486,3183.9736],[-69.0937,-32.0336,3577.4937],[-69.0973,-32.0297,3518.8301],[-69.1081,-32.0253,3757.7383],[-69.117,-32.0188,3797.9409],[-69.1162,-32.0044,3759.7295],[-69.1253,-31.9918,3914.7778],[-69.1271,-31.9868,3986.8718],[-69.1252,-31.9764,4066.7095],[-69.1268,-31.9718,4085.136],[-69.1447,-31.9683,3635.064],[-69.1568,-31.9687,3540.2417],[-69.1627,-31.9702,3448.6362],[-69.179,-31.9785,3583.1816],[-69.1818,-31.9822,3585.5461],[-69.1755,-31.9973,3471.4285],[-69.178,-32.0038,3599.9348],[-69.2058,-32.0068,3251.927],[-69.2111,-32.0091,3253.2798],[-69.2152,-32.0132,3103.8889],[-69.22,-32.0142,3003.625],[-69.2247,-32.0107,2995.0432],[-69.2301,-32.0094,2949.2075],[-69.246,-32.0162,2832.0254],[-69.2637,-32.0298,2678.9521],[-69.2665,-32.0344,2643.6797],[-69.2703,-32.0494,2577.4644],[-69.2839,-32.0709,2379.1511],[-69.3005,-32.0757,2324.7261],[-69.3056,-32.0785,2301.8296],[-69.3128,-32.0867,2263.5781],[-69.3174,-32.0896,2258.3767],[-69.3293,-32.0891,2240.3113],[-69.3407,-32.0858,2218.2593],[-69.3572,-32.0797,2202.2065],[-69.3718,-32.0709,2271.6582],[-69.3828,-32.0664,2436.2129],[-69.3871,-32.0682,2476.8218],[-69.3951,-32.0757,2523.9575],[-69.4005,-32.0778,2479.7729],[-69.4066,-32.0776,2594.7307],[-69.4117,-32.0754,2565.0459],[-69.4137,-32.0706,2599.6636],[-69.4181,-32.067,2582.019],[-69.4232,-32.0665,2509.5942],[-69.4382,-32.0752,2622.553],[-69.4562,-32.0758,2705.4224],[-69.4617,-32.0775,2817.2566],[-69.4814,-32.0968,3091.4229],[-69.4851,-32.1065,3215.5732],[-69.4888,-32.1104,3316.1501],[-69.5003,-32.1123,3595.8457],[-69.5082,-32.1199,3780.5454],[-69.52,-32.1279,4031.3381],[-69.541,-32.1378,4239.438],[-69.5525,-32.1369,4184.8384],[-69.5626,-32.1316,4699.084],[-69.5683,-32.1321,4497.2773],[-69.5776,-32.1384,4583.7139],[-69.5893,-32.1372,4552.6753],[-69.5944,-32.1398,4595.8281],[-69.6059,-32.1574,4631.0825],[-69.6059,-32.1625,4404.5469],[-69.6019,-32.1771,4734.7725],[-69.6071,-32.1864,4746.1768],[-69.6077,-32.2014,5115.4834],[-69.6178,-32.2141,4962.4419],[-69.6197,-32.2189,4670.9009],[-69.6205,-32.2239,4562.8394],[-69.6188,-32.234,5010.3882],[-69.6199,-32.239,5170.1816],[-69.6316,-32.2507,4746.0322],[-69.6362,-32.26,4737.1006],[-69.6463,-32.2656,4752.7144],[-69.661,-32.2818,4850.1855],[-69.6667,-32.2907,4897.9033],[-69.6801,-32.301,5561.1738],[-69.6905,-32.3134,5076.4341],[-69.7063,-32.3253,4704.0317],[-69.7115,-32.3345,4625.8052],[-69.7147,-32.3494,4677.7744],[-69.7069,-32.3687,4309.2041],[-69.698,-32.3754,4489.0039],[-69.6952,-32.38,4451.1997],[-69.6914,-32.3949,3839.686],[-69.6907,-32.4103,4253.4941],[-69.6923,-32.4254,3861.4658],[-69.6908,-32.4356,4027.2598],[-69.6914,-32.4406,4066.3936],[-69.6966,-32.4498,4584.7769],[-69.6969,-32.4547,4531.7725],[-69.6859,-32.4729,4169.2349],[-69.682,-32.4825,4347.5142],[-69.6856,-32.4923,4115.5332],[-69.6864,-32.5076,4419.9243],[-69.6882,-32.5124,4450.9531],[-69.6961,-32.5202,4303.103],[-69.7072,-32.524,4094.5637],[-69.7153,-32.5315,3998.0649],[-69.7321,-32.5371,3878.5369],[-69.7557,-32.5326,4464.751],[-69.7798,-32.5314,4685.8491],[-69.7907,-32.5355,4411.5747],[-69.8025,-32.5373,3957.5825],[-69.8155,-32.5479,4449.9492],[-69.8186,-32.5523,4193.4102],[-69.8227,-32.567,4253.4893],[-69.8344,-32.5696,4453.5845],[-69.8461,-32.5674,4376.8232],[-69.8558,-32.5614,4324.5503],[-69.8615,-32.5603,4248.9316],[-69.8857,-32.5617,4257.7334],[-69.9032,-32.5577,4432.9316],[-69.9215,-32.5445,4485.1831],[-69.9327,-32.5409,4292.2529],[-69.9446,-32.5411,4279.2285],[-69.9616,-32.5462,4700.9194],[-69.9768,-32.5386,4721.2676],[-69.9829,-32.5396,4589.2832],[-70.004,-32.5495,4661.2466],[-70.0325,-32.5683,4688.3809],[-70.0358,-32.5725,4793.751],[-70.0351,-32.598,4833.3555],[-70.0449,-32.6167,4926.4829],[-70.056,-32.6287,4769.4736],[-70.0736,-32.6319,4778.3418],[-70.0796,-32.6309,4889.4204],[-70.0886,-32.6244,5299.0962],[-70.0926,-32.6147,4958.4678],[-70.0966,-32.5947,4719.9497],[-70.1131,-32.5796,4638.5576],[-70.1263,-32.5727,4842.7207],[-70.1265,-32.5757,5022.2798],[-70.1294,-32.5774,4890.1216],[-70.1355,-32.5773,4736.7861],[-70.1459,-32.5819,4944.2393],[-70.1496,-32.5809,4966.6201],[-70.1627,-32.5973,4623.0977],[-70.1635,-32.6042,4789.9619],[-70.1655,-32.6073,4768.3931],[-70.1655,-32.6163,4575.8916],[-70.1721,-32.6211,4557.002],[-70.1696,-32.6257,4642.1826],[-70.1585,-32.6292,4408.4829],[-70.1508,-32.6371,4411.7207],[-70.1521,-32.6448,4446.8228],[-70.1482,-32.6476,4361.3867],[-70.146,-32.6521,4391.1543],[-70.1495,-32.6573,4294.5039],[-70.1467,-32.6591,4385.7168],[-70.1461,-32.6743,4348.2764],[-70.1427,-32.6788,4273.6758],[-70.1427,-32.6937,4442.959],[-70.1465,-32.7066,4434.5425],[-70.1438,-32.711,4508.8984],[-70.1441,-32.718,4492.2378],[-70.1451,-32.7251,4313.1631],[-70.1465,-32.725,4383.6123],[-70.1476,-32.7281,4462.4307],[-70.1472,-32.7291,4457.1064],[-70.1427,-32.7287,4412.1807],[-70.1373,-32.732,4675.0039],[-70.1367,-32.7398,4516.6924],[-70.1317,-32.7456,4511.1523],[-70.1307,-32.7539,4083.6436],[-70.1324,-32.7558,4034.084],[-70.127,-32.7612,4169.2197],[-70.1159,-32.7671,4174.4033],[-70.1131,-32.7716,4109.0576],[-70.1123,-32.7786,4204.7319],[-70.1072,-32.7924,4177.7275],[-70.1079,-32.8007,4409.2197],[-70.1023,-32.8,4148.9829],[-70.0921,-32.8016,4040.6335],[-70.087,-32.8055,3907.7051],[-70.0824,-32.8179,3899.625],[-70.0783,-32.8233,3841.624],[-70.0555,-32.8316,4201.2729],[-70.0523,-32.8375,4475.8633],[-70.0543,-32.8384,4510.0605],[-70.0545,-32.8463,4498.7056],[-70.0559,-32.8477,4514.7114],[-70.0546,-32.851,4401.9766],[-70.0565,-32.857,4579.3691],[-70.0434,-32.869,4316.2988],[-70.018,-32.8797,4731.0674],[-70.0024,-32.882,5107.6392],[-69.992,-32.8934,4756.0439],[-69.9893,-32.8983,4527.7324],[-69.9914,-32.9119,4488.8271],[-70.0022,-32.92,4547.3145],[-70.0048,-32.9242,4756.4434],[-70.0043,-32.9271,4654.8477],[-70.0073,-32.9303,4541.5928],[-70.0033,-32.9401,4727.9033],[-70.0,-32.9441,4824.3677],[-70.0011,-32.9466,4796.5708],[-70.0047,-32.9481,4859.5615],[-70.0087,-32.9532,5150.7754],[-70.0203,-32.9564,4927.3457],[-70.0213,-32.965,5025.9009],[-70.0275,-32.9699,5031.3711],[-70.0249,-32.9741,5088.8408],[-70.0254,-32.9777,4965.9619],[-70.0221,-32.981,4898.0645],[-70.0225,-32.9975,4301.9834],[-70.0199,-33.0073,4167.8843],[-70.0276,-33.0122,4381.3394],[-70.0281,-33.0164,4503.9062],[-70.035,-33.0232,4624.8223],[-70.0437,-33.0235,4538.0674],[-70.0504,-33.0261,4468.6543],[-70.0536,-33.0295,4709.4473],[-70.068,-33.0277,4994.7617],[-70.0813,-33.0287,5358.7119],[-70.0822,-33.0344,5437.8242],[-70.0878,-33.0394,5505.4385],[-70.0855,-33.0432,5810.0181],[-70.0864,-33.0456,5900.5347],[-70.0917,-33.0477,5792.9453],[-70.0937,-33.0514,5815.9604],[-70.0746,-33.0647,5188.1807],[-70.0702,-33.0794,5335.2817],[-70.0707,-33.0816,5384.0479],[-70.0674,-33.0868,5534.4355],[-70.0708,-33.0954,5776.4292],[-70.066,-33.1032,6038.2559],[-70.0713,-33.1083,5714.9258],[-70.0736,-33.1141,5431.2881],[-70.0762,-33.1166,5473.7637],[-70.0759,-33.1208,5462.5752],[-70.0741,-33.123,5384.4087],[-70.0607,-33.1288,5437.8506],[-70.0522,-33.1354,5401.395],[-70.0525,-33.1391,5234.6929],[-70.0566,-33.1442,5274.7046],[-70.0565,-33.1491,5617.1152],[-70.0638,-33.1514,5665.5142],[-70.0671,-33.1547,5503.1743],[-70.0627,-33.1659,5160.6719],[-70.0573,-33.1712,5321.9204],[-70.0607,-33.1774,5441.9116],[-70.0651,-33.1794,5485.5181],[-70.0604,-33.1938,4948.917],[-70.0647,-33.2003,4776.5649],[-70.0642,-33.2058,4935.5542],[-70.0552,-33.2259,4871.5859],[-70.0379,-33.2287,4860.438],[-70.0284,-33.2326,5103.7158],[-70.0266,-33.2349,5227.3721],[-70.0295,-33.2411,5010.9512],[-70.0279,-33.2466,4948.6758],[-70.034,-33.2538,4767.0171],[-70.0387,-33.2702,5278.4238],[-70.0311,-33.2732,4981.8711],[-70.0273,-33.2766,5075.6367],[-70.0219,-33.2771,4839.9727],[-70.0125,-33.2821,4786.0723],[-70.0088,-33.2858,4774.9043],[-70.0062,-33.2861,4749.562],[-70.0128,-33.3011,4817.4932],[-70.0101,-33.3037,4797.6357],[-70.0081,-33.3122,4843.2676],[-70.0091,-33.3167,4825.417],[-70.0017,-33.3228,4910.8081],[-69.9946,-33.3179,4882.9004],[-69.9914,-33.3186,4884.3447],[-69.9821,-33.3128,5133.9678],[-69.9709,-33.31,4851.9453],[-69.9687,-33.3073,4801.9751],[-69.9675,-33.299,4777.1357],[-69.9585,-33.2901,4817.022],[-69.9531,-33.2883,4697.7949],[-69.9497,-33.2816,5334.9771],[-69.9428,-33.2846,5158.8071],[-69.9367,-33.2761,4928.1113],[-69.9301,-33.275,4633.041],[-69.9239,-33.2685,5057.1567],[-69.9168,-33.2671,5432.3086],[-69.9176,-33.2643,5293.9336],[-69.9154,-33.2559,5312.105],[-69.9213,-33.2458,5836.7461],[-69.918,-33.2447,5930.71],[-69.9084,-33.2699,4899.6543],[-69.9043,-33.2729,4687.0176],[-69.8902,-33.276,4542.8965],[-69.8861,-33.2786,4575.8267],[-69.8813,-33.2763,4689.7363],[-69.8735,-33.2764,4668.2192],[-69.8598,-33.283,4672.9326],[-69.8554,-33.2787,4647.0332],[-69.8462,-33.2755,4751.8857],[-69.8406,-33.2718,5106.6387],[-69.8336,-33.2737,5204.2266],[-69.8282,-33.2802,5026.3848],[-69.8243,-33.2805,4986.502],[-69.8156,-33.2887,4748.6147],[-69.8087,-33.2897,4741.9028],[-69.8009,-33.2874,4949.1123],[-69.792,-33.3068,4647.6152],[-69.7838,-33.315,5035.1948],[-69.7833,-33.3184,5107.165],[-69.7766,-33.3291,5475.1821],[-69.7759,-33.3343,5620.3018],[-69.7698,-33.3432,5977.8125],[-69.7704,-33.3575,6515.1519],[-69.7752,-33.3769,5505.668],[-69.7782,-33.3838,5321.8491],[-69.7848,-33.3911,5256.5737],[-69.7952,-33.3969,5440.2471],[-69.8157,-33.3911,5520.312],[-69.8072,-33.3966,5658.8037],[-69.8001,-33.4053,5634.7148],[-69.7971,-33.4127,5789.1187],[-69.7977,-33.4173,5856.793],[-69.7958,-33.4222,5811.2793],[-69.7985,-33.4244,5877.6987],[-69.8072,-33.4242,5719.7827],[-69.8186,-33.4301,5687.5811],[-69.8186,-33.4353,5630.6367],[-69.8146,-33.4398,5558.7529],[-69.8145,-33.4429,5538.9941],[-69.8192,-33.4515,5820.1997],[-69.8213,-33.4527,5889.5742],[-69.8213,-33.4602,5918.1338],[-69.8151,-33.4694,6076.5952],[-69.8176,-33.4719,5916.6055],[-69.826,-33.4745,5980.876],[-69.8294,-33.479,5693.6074],[-69.8325,-33.4951,5630.7446],[-69.8326,-33.5077,5711.1411],[-69.8354,-33.5154,5956.6626],[-69.8386,-33.5181,5858.4775],[-69.8481,-33.5208,5533.1519],[-69.8562,-33.5256,5186.9941],[-69.8604,-33.5326,5056.249],[-69.8715,-33.5395,5316.542],[-69.8718,-33.5476,5210.2412],[-69.8741,-33.5555,4789.2344],[-69.8691,-33.5649,4736.5186],[-69.8691,-33.572,4471.8418],[-69.8656,-33.5868,4233.5068],[-69.8675,-33.5958,4344.0122],[-69.874,-33.6006,4276.7168],[-69.8752,-33.6079,4369.1133],[-69.8809,-33.6186,4178.2773],[-69.875,-33.6241,4102.4604],[-69.8761,-33.6305,4047.7419],[-69.8738,-33.6366,4050.8481],[-69.8775,-33.6461,4216.7236],[-69.87,-33.6519,4267.6289],[-69.8754,-33.6582,4303.8989],[-69.8793,-33.6586,4422.2891],[-69.8843,-33.6838,4863.3354],[-69.878,-33.6884,4811.9453],[-69.8734,-33.6944,4919.2422],[-69.8692,-33.7091,5429.3389],[-69.8643,-33.7165,5968.4629],[-69.8777,-33.7336,5981.4658],[-69.8769,-33.7386,5999.9082],[-69.8965,-33.7557,5101.2842],[-69.9042,-33.7732,5520.8037],[-69.9026,-33.7804,5754.166],[-69.8984,-33.782,5761.8379],[-69.8936,-33.7913,5793.936],[-69.8954,-33.7989,5554.1758],[-69.8931,-33.8075,5088.2656],[-69.8967,-33.8139,4786.1382],[-69.8967,-33.8215,4435.1982],[-69.8947,-33.8238,4350.4346],[-69.8947,-33.8274,4307.4985],[-69.8977,-33.8297,4411.9741],[-69.8953,-33.8364,4148.7188],[-69.898,-33.8399,4088.7302],[-69.8983,-33.8476,4320.8691],[-69.8863,-33.8504,3912.0645],[-69.8845,-33.8552,3825.7224],[-69.8732,-33.8608,4076.8037],[-69.8695,-33.8681,3971.3325],[-69.8695,-33.8758,3979.9282],[-69.8676,-33.8812,4240.9067],[-69.8568,-33.8857,4400.2578],[-69.8554,-33.8922,4417.668],[-69.8728,-33.9071,4050.1941],[-69.8755,-33.9142,4139.8765],[-69.884,-33.916,4084.269],[-69.8903,-33.9207,4141.27],[-69.892,-33.9246,4220.1021],[-69.8916,-33.9316,4306.3164],[-69.8941,-33.9357,4318.855],[-69.8924,-33.9409,4443.0596],[-69.9007,-33.9494,4337.2568],[-69.9005,-33.9561,4323.1631],[-69.9059,-33.9635,4777.7207],[-69.8996,-33.9715,4977.2578],[-69.8904,-33.9753,5054.5737],[-69.8824,-33.9766,5297.8633],[-69.8805,-33.9758,5366.1523],[-69.8775,-33.9673,4840.9395],[-69.8742,-33.9646,4748.5747],[-69.8535,-33.9635,5300.0122],[-69.8549,-33.9655,5228.2344],[-69.853,-33.9742,4854.4302],[-69.8457,-33.9819,4868.0396],[-69.8409,-33.9926,4768.1733],[-69.8424,-33.9992,4493.0732],[-69.8397,-34.0072,4547.0068],[-69.8239,-34.0105,4397.1074],[-69.8216,-34.0156,4349.541],[-69.828,-34.0245,4210.4014],[-69.8422,-34.035,4387.8774],[-69.8467,-34.0413,4432.7236],[-69.8496,-34.0511,4721.3486],[-69.8542,-34.0564,4649.6699],[-69.8485,-34.0684,4636.937],[-69.8451,-34.0702,4527.8652],[-69.8324,-34.0718,4776.0625],[-69.8341,-34.0772,4551.0957],[-69.834,-34.0863,4398.6318],[-69.8371,-34.0877,4288.6553],[-69.8372,-34.091,4232.2842],[-69.8422,-34.0958,4370.1074],[-69.8531,-34.0992,4505.9209],[-69.8599,-34.1037,4360.0488],[-69.8562,-34.1135,4146.4575],[-69.864,-34.1217,3851.9434],[-69.8708,-34.1249,4027.918],[-69.8732,-34.133,3951.8057],[-69.8702,-34.1359,3870.5723],[-69.8699,-34.1411,3870.9651],[-69.8652,-34.1419,3805.6946],[-69.8637,-34.1404,3811.1003],[-69.8606,-34.1419,3901.8713],[-69.8557,-34.1473,4019.4905],[-69.8365,-34.1585,5059.1108],[-69.8346,-34.1613,5198.9028],[-69.8345,-34.1656,5203.6812],[-69.8325,-34.1674,5111.0029],[-69.8271,-34.1684,5009.0845],[-69.8158,-34.177,4406.1758],[-69.8109,-34.1857,4054.9712],[-69.8011,-34.1935,3824.6602],[-69.7992,-34.2056,3540.4587],[-69.7971,-34.2092,3515.123],[-69.8005,-34.2165,3448.3325],[-69.799,-34.2208,3445.6653],[-69.8013,-34.2225,3446.5427],[-69.8017,-34.2255,3440.2163],[-69.8054,-34.2267,3439.9976],[-69.805,-34.2312,3436.3726],[-69.8023,-34.2346,3431.3687],[-69.8066,-34.2481,3830.6155],[-69.8163,-34.2472,3806.3274],[-69.8233,-34.2489,3967.8396],[-69.8269,-34.2522,4136.4653],[-69.8275,-34.2558,4221.4873],[-69.83,-34.257,4245.5635],[-69.8463,-34.2573,3903.7134],[-69.8537,-34.256,4018.4773],[-69.8565,-34.2614,3920.8232],[-69.8591,-34.2608,3958.7791],[-69.8614,-34.2641,3914.885],[-69.8643,-34.2635,3925.0747],[-69.8717,-34.2667,4009.8313],[-69.8787,-34.2669,4068.8799],[-69.8842,-34.2636,4311.1436],[-69.8868,-34.2652,4366.4941],[-69.8966,-34.2656,4598.5347],[-69.8995,-34.2707,4708.8418],[-69.8978,-34.2847,4685.1733],[-69.9085,-34.2904,4414.6689],[-69.9222,-34.2896,3968.386],[-69.9238,-34.2848,3985.9111],[-69.9272,-34.2827,3871.5818],[-69.9402,-34.2798,3835.9353],[-69.9419,-34.2725,3691.6497],[-69.9458,-34.27,3747.4663],[-69.9546,-34.2597,3837.4722],[-69.9628,-34.2537,3860.5598],[-69.9735,-34.2498,4124.9268],[-69.9835,-34.2543,4016.2964],[-69.9871,-34.2611,4155.4834],[-70.0029,-34.2616,4038.6582],[-70.0061,-34.2656,4118.3174],[-70.0107,-34.2658,4314.7812],[-70.0148,-34.2743,4683.0039],[-70.0196,-34.2762,4780.5088],[-70.019,-34.2811,4943.2686],[-70.0234,-34.2826,5073.937],[-70.025,-34.286,5043.6255],[-70.0306,-34.2886,5131.105],[-70.0313,-34.2942,4987.1406],[-70.0218,-34.3087,4370.2891],[-70.0215,-34.315,4021.2141],[-70.0144,-34.3384,4127.4531],[-70.019,-34.3467,4094.9832],[-70.0165,-34.3526,4226.6904],[-70.0171,-34.3548,4312.2485],[-70.0227,-34.3604,4259.5166],[-70.0243,-34.3659,4314.8257],[-70.0258,-34.3665,4356.3877],[-70.0245,-34.3747,4311.7383],[-70.0158,-34.3819,3992.1084],[-70.0132,-34.3892,4041.8132],[-70.0093,-34.394,3890.5859],[-70.0123,-34.4052,3800.4639],[-70.0141,-34.4069,3822.0225],[-70.0122,-34.4094,3868.8582],[-70.0129,-34.4119,3872.9526],[-70.0222,-34.4157,3940.377],[-70.0298,-34.4245,4119.4038],[-70.0364,-34.4232,4128.3149],[-70.0459,-34.4288,4239.6924],[-70.0476,-34.4317,4323.1357],[-70.048,-34.438,4135.8115],[-70.0526,-34.4425,4183.2964],[-70.0547,-34.4488,4504.8276],[-70.0651,-34.452,4208.0176],[-70.0718,-34.4615,4033.3696],[-70.0791,-34.4663,4043.999],[-70.0814,-34.4729,3990.4172],[-70.0909,-34.4762,4146.8281],[-70.1003,-34.483,4188.3682],[-70.1177,-34.476,4225.1904],[-70.1318,-34.4879,4114.1367],[-70.1313,-34.4909,4186.2148],[-70.128,-34.4936,4218.2812],[-70.1308,-34.4998,4081.9727],[-70.1299,-34.5013,3979.8704],[-70.1332,-34.5048,4072.6382],[-70.1341,-34.5099,4080.4587],[-70.1398,-34.5159,4060.8186],[-70.1449,-34.5248,3936.7161],[-70.1456,-34.5283,4072.636],[-70.1436,-34.5325,4121.7305],[-70.1473,-34.5331,4048.248],[-70.1553,-34.5453,3865.3438],[-70.1646,-34.5521,3736.7188],[-70.1693,-34.5577,3682.8328],[-70.1684,-34.5633,3760.4241],[-70.1732,-34.5662,3761.2505],[-70.1726,-34.5703,3765.1951],[-70.175,-34.5721,3775.4766],[-70.1751,-34.5756,3902.356],[-70.1857,-34.5727,3738.2454],[-70.1904,-34.5755,3659.1626],[-70.1913,-34.5784,3660.418],[-70.1953,-34.5807,3688.7905],[-70.1926,-34.5832,3760.2607],[-70.1907,-34.5892,3847.8184],[-70.1955,-34.5908,3682.6475],[-70.1974,-34.5945,3688.333],[-70.2046,-34.5947,3770.7903],[-70.2051,-34.5969,3727.3401],[-70.2011,-34.6014,4024.9712],[-70.2137,-34.6074,3783.4238],[-70.2179,-34.6119,3788.4783],[-70.2165,-34.6212,3992.2466],[-70.2195,-34.6338,4018.5015],[-70.2241,-34.6416,3975.7266],[-70.2197,-34.6502,3777.9792],[-70.2207,-34.6592,3952.1226],[-70.2157,-34.6614,3867.0737],[-70.2154,-34.6667,3884.6147],[-70.2129,-34.6697,3930.4971],[-70.2158,-34.6738,3711.0684],[-70.2142,-34.6793,3668.3408],[-70.216,-34.6843,3801.0647],[-70.2231,-34.6817,3766.1892],[-70.2316,-34.685,3715.6304],[-70.2356,-34.6893,3681.229],[-70.2405,-34.6885,3821.936],[-70.2429,-34.6919,3817.731],[-70.2463,-34.6925,3783.6782],[-70.25,-34.6984,3651.0686],[-70.2501,-34.7013,3752.6787],[-70.2539,-34.7045,3771.4609],[-70.2539,-34.7107,3835.8794],[-70.2569,-34.7189,4084.1592],[-70.2587,-34.7217,4232.5059],[-70.2623,-34.7233,4324.9868],[-70.2585,-34.7294,4251.5732],[-70.2727,-34.7372,4230.1592],[-70.2823,-34.7356,4409.0259],[-70.2885,-34.7386,4509.3823],[-70.2937,-34.7391,4560.6406],[-70.3064,-34.7477,4589.792],[-70.31,-34.7621,4432.7822],[-70.3094,-34.7697,4565.4277],[-70.3038,-34.7723,4427.9277],[-70.3002,-34.772,4457.6616],[-70.2936,-34.7793,4364.9678],[-70.2811,-34.7825,4197.0693],[-70.2788,-34.788,4046.8972],[-70.2767,-34.7891,4063.2378],[-70.2692,-34.7922,4101.2812],[-70.2531,-34.7936,4581.1982],[-70.2483,-34.7991,4554.5454],[-70.2544,-34.8035,4380.9673],[-70.2545,-34.8062,4351.9854],[-70.2587,-34.808,4298.4683],[-70.2569,-34.8141,4301.7705],[-70.2609,-34.8202,4359.8994],[-70.2602,-34.8229,4309.2529],[-70.2636,-34.8331,4222.2031],[-70.2799,-34.8523,3937.5752],[-70.2772,-34.8598,3822.5698],[-70.281,-34.8688,3755.5649],[-70.2759,-34.8728,3725.8853],[-70.2769,-34.8763,3522.0603],[-70.2832,-34.8777,3326.2573],[-70.2911,-34.8837,3074.3242],[-70.2919,-34.8891,3102.1077],[-70.2893,-34.892,3121.4507],[-70.3016,-34.8991,3637.3137],[-70.3021,-34.9038,3831.6208],[-70.3079,-34.9085,3743.8325],[-70.3133,-34.9205,3985.7974],[-70.3163,-34.9225,3927.1128],[-70.3162,-34.9245,3892.8164],[-70.3213,-34.9328,4053.2341],[-70.3256,-34.9331,3944.1841],[-70.3326,-34.9372,3926.1426],[-70.3303,-34.9428,4112.29],[-70.3325,-34.9455,3959.6472],[-70.3303,-34.9516,3808.1323],[-70.3319,-34.9549,3812.5671],[-70.3291,-34.959,3881.3796],[-70.3307,-34.9733,3840.7043],[-70.327,-34.9772,3899.9299],[-70.3306,-34.9787,3810.8391],[-70.3318,-34.9857,3823.5479],[-70.3341,-34.9874,3740.7043],[-70.3332,-34.9902,3748.8057],[-70.3382,-34.9915,3625.644],[-70.3429,-34.9949,3517.4724],[-70.3448,-34.9932,3538.646],[-70.3547,-34.9962,3558.6897],[-70.3574,-35.0017,3514.1714],[-70.365,-35.0053,3634.5366],[-70.3644,-35.0105,3550.7603],[-70.3665,-35.0167,3681.4626],[-70.365,-35.0197,3679.781],[-70.3613,-35.0206,3540.6147],[-70.3619,-35.0331,3404.2312],[-70.3604,-35.0348,3516.4072],[-70.3668,-35.0364,3362.5942],[-70.3728,-35.0411,3336.6064],[-70.3768,-35.0502,3391.1399],[-70.3752,-35.057,3576.4504],[-70.3726,-35.0583,3583.334],[-70.3733,-35.0619,3526.4004],[-70.3715,-35.0666,3552.5947],[-70.3712,-35.0746,3537.4639],[-70.3742,-35.0815,3535.3511],[-70.3734,-35.0865,3514.3052],[-70.3702,-35.0933,3343.0127],[-70.3651,-35.0934,3290.3635],[-70.3576,-35.0989,3268.0544],[-70.3621,-35.1011,3206.2971],[-70.3637,-35.1049,3247.1719],[-70.3672,-35.1075,3222.7505],[-70.3663,-35.1094,3219.9424],[-70.3702,-35.1118,3180.7788],[-70.3678,-35.1246,3103.4851],[-70.3614,-35.1347,3172.3789],[-70.372,-35.1505,3180.4839],[-70.3705,-35.1535,3103.2266],[-70.3766,-35.1663,3016.8235],[-70.3745,-35.1698,3126.5962],[-70.3787,-35.1734,3138.2869],[-70.388,-35.1695,3104.2324],[-70.3908,-35.1729,3149.4248],[-70.3992,-35.1758,3079.5493],[-70.4025,-35.1801,3200.8574],[-70.4088,-35.1793,3089.9976],[-70.4159,-35.1828,3022.3535],[-70.4212,-35.1835,3077.3606],[-70.428,-35.1892,3043.2214],[-70.4363,-35.1934,3052.0361],[-70.45,-35.1959,3164.501],[-70.4526,-35.191,3200.8894],[-70.4551,-35.1897,3231.3137],[-70.4578,-35.1951,3126.0142],[-70.4712,-35.2018,3247.6526],[-70.4723,-35.2039,3246.5742],[-70.4793,-35.2041,2970.0957],[-70.4865,-35.2024,2952.7563],[-70.4965,-35.2035,3061.1958],[-70.5044,-35.2012,2770.7908],[-70.5144,-35.2026,2609.6353],[-70.5157,-35.2058,2586.5559],[-70.518,-35.2065,2515.5786],[-70.5255,-35.2024,2549.4131],[-70.5245,-35.1956,2770.4966],[-70.5269,-35.1943,2834.6936],[-70.528,-35.1965,2802.3926],[-70.5335,-35.1994,2734.8513],[-70.5368,-35.1993,2693.4561],[-70.5431,-35.2028,2864.1558],[-70.5482,-35.2086,3039.8933],[-70.5521,-35.2105,3147.4966],[-70.5579,-35.2195,3437.3066],[-70.5679,-35.2236,3910.5994],[-70.5639,-35.235,3494.0962],[-70.5651,-35.2426,3540.2695],[-70.5666,-35.2457,3582.7888],[-70.5724,-35.2495,3693.5823],[-70.5711,-35.2527,3692.0776],[-70.5731,-35.2573,3780.814],[-70.5791,-35.2578,3705.0317],[-70.5774,-35.2654,3653.1821],[-70.5815,-35.2677,3654.5312],[-70.5826,-35.2704,3912.4233],[-70.5819,-35.2735,4025.7422],[-70.5761,-35.2784,3845.4832],[-70.5747,-35.2864,3669.573],[-70.567,-35.2989,3446.3687],[-70.565,-35.3002,3401.5417],[-70.5516,-35.3004,3361.1475],[-70.5381,-35.3068,3116.0249],[-70.5137,-35.3098,2842.6765],[-70.5099,-35.3123,2789.5825],[-70.5044,-35.3201,2694.6978],[-70.5006,-35.3211,2686.3369],[-70.4931,-35.3217,2557.2568],[-70.4877,-35.32,2625.4343],[-70.4842,-35.3162,2670.9719],[-70.477,-35.3163,2615.9277],[-70.4691,-35.3133,2492.9397],[-70.4663,-35.3135,2595.2148],[-70.4645,-35.3178,2670.0601],[-70.461,-35.32,2696.2312],[-70.448,-35.3154,3005.2119],[-70.432,-35.3186,2962.2075],[-70.4369,-35.3238,2924.1162],[-70.4358,-35.3304,2927.4246],[-70.4314,-35.3359,2944.4417],[-70.4283,-35.3435,3008.0408],[-70.42,-35.3485,3150.5996],[-70.418,-35.3553,3184.342],[-70.4208,-35.3587,3076.9727],[-70.4248,-35.3713,3041.0],[-70.4295,-35.3735,3003.436],[-70.4351,-35.3794,2972.0559],[-70.44,-35.3812,2959.6726],[-70.4418,-35.3847,2956.7832],[-70.4473,-35.3868,2954.4753],[-70.4528,-35.392,2940.0889],[-70.4504,-35.3956,2938.4497],[-70.4499,-35.4038,2905.2791],[-70.4471,-35.4085,2890.6787],[-70.4395,-35.4113,2845.9312],[-70.4385,-35.4131,2844.5623],[-70.4446,-35.4213,2888.2112],[-70.4502,-35.4216,2915.6069],[-70.4529,-35.4272,2932.7595],[-70.4456,-35.4338,2890.0403],[-70.439,-35.4343,3028.0186],[-70.4349,-35.4367,3130.3076],[-70.4352,-35.4425,2984.8376],[-70.4323,-35.4453,2955.8315],[-70.4364,-35.4488,2953.4055],[-70.4456,-35.4508,2976.8647],[-70.4464,-35.4558,2984.9006],[-70.4443,-35.46,2993.1111],[-70.4467,-35.4634,3017.064],[-70.4431,-35.4681,3032.2849],[-70.4301,-35.476,2976.5254],[-70.4162,-35.4882,3001.0925],[-70.4095,-35.4902,3011.7363],[-70.4024,-35.49,3041.1152],[-70.397,-35.4858,3055.3113],[-70.3954,-35.4862,3059.447],[-70.3851,-35.5097,3007.4814],[-70.3802,-35.5143,3035.6641],[-70.3675,-35.5196,3513.3933],[-70.3682,-35.5218,3534.0759],[-70.3895,-35.5164,2927.3267],[-70.3946,-35.5184,2914.9763],[-70.395,-35.5218,2915.5024],[-70.398,-35.5253,2909.198],[-70.4042,-35.5273,2881.728],[-70.4085,-35.5251,2874.8862],[-70.4118,-35.5256,2877.3347],[-70.4135,-35.5284,2924.8147],[-70.4083,-35.5349,2801.3438],[-70.4072,-35.5427,2891.3613],[-70.4048,-35.546,2904.1731],[-70.4103,-35.5491,2908.1882],[-70.4076,-35.556,2805.4407],[-70.4099,-35.5602,2662.8569],[-70.4037,-35.5633,2756.3533],[-70.4023,-35.5705,2859.3423],[-70.3991,-35.5741,2883.2073],[-70.399,-35.5783,2897.5291],[-70.3966,-35.5829,2925.9302],[-70.3987,-35.5877,2987.6111],[-70.3913,-35.5922,3027.2871],[-70.3847,-35.6055,3444.2791],[-70.3857,-35.6083,3446.9951],[-70.3919,-35.6104,3436.8433],[-70.3971,-35.6171,3355.5193],[-70.3974,-35.6221,3426.0605],[-70.4018,-35.627,3389.2234],[-70.4112,-35.63,3181.8545],[-70.4184,-35.6294,3179.5886],[-70.423,-35.6407,3246.312],[-70.4101,-35.6462,2953.4839],[-70.4082,-35.6499,3090.4316],[-70.4086,-35.6561,3100.353],[-70.3979,-35.6626,2974.5049],[-70.3977,-35.6653,2993.5066],[-70.4026,-35.6675,2924.8555],[-70.4059,-35.6734,2958.3999],[-70.3985,-35.6864,2815.8943],[-70.395,-35.6887,2795.2305],[-70.3861,-35.6879,2767.1309],[-70.3873,-35.6911,2753.6904],[-70.384,-35.6965,2834.876],[-70.3746,-35.7003,2998.9595],[-70.3755,-35.7043,3010.0361],[-70.3723,-35.7112,2973.9387],[-70.3732,-35.7169,2917.5576],[-70.3683,-35.7219,2876.677],[-70.3694,-35.7249,2804.2246],[-70.3675,-35.7301,2875.5645],[-70.3698,-35.737,2934.5437],[-70.3619,-35.7428,2970.833],[-70.3615,-35.7474,2959.8643],[-70.3582,-35.7495,2980.3667],[-70.3593,-35.7516,2978.5146],[-70.3585,-35.7544,2985.9438],[-70.3712,-35.7578,3000.022],[-70.3747,-35.7643,3079.7598],[-70.38,-35.7669,3115.6179],[-70.3781,-35.769,3121.7871],[-70.3779,-35.7749,3116.1445],[-70.3759,-35.7776,3119.0598],[-70.3769,-35.784,3112.4419],[-70.3793,-35.7869,3148.127],[-70.3766,-35.7888,3107.584],[-70.3709,-35.7896,3099.9683],[-70.3626,-35.7946,3034.5332],[-70.3579,-35.8013,3059.6213],[-70.347,-35.801,3016.4604],[-70.3406,-35.796,2986.8188],[-70.3371,-35.7954,3014.2014],[-70.3237,-35.8099,3096.2683],[-70.3117,-35.8132,3367.6389],[-70.3163,-35.8197,3276.2598],[-70.3275,-35.8221,3102.3921],[-70.331,-35.8287,3017.0444],[-70.3471,-35.8371,2862.874],[-70.3501,-35.8368,2871.1299],[-70.3574,-35.8429,2879.6736],[-70.3617,-35.8412,2873.4365],[-70.3694,-35.8416,2868.1328],[-70.3779,-35.8499,2806.5986],[-70.3801,-35.8565,2916.1145],[-70.3795,-35.8649,3089.3511],[-70.384,-35.868899999999996,3115.2417],[-70.3908,-35.8704,3060.021],[-70.4003,-35.8672,3026.6321],[-70.406,-35.8674,3042.1343],[-70.4213,-35.8763,3274.3059],[-70.4194,-35.885,3265.6162],[-70.4233,-35.891,3174.5688],[-70.4232,-35.8986,3132.2896],[-70.4257,-35.9051,3089.0918],[-70.4231,-35.9153,3107.53],[-70.4122,-35.9185,3018.0435],[-70.4065,-35.9222,2939.5522],[-70.3863,-35.9241,3227.092],[-70.3692,-35.9227,3764.8726],[-70.365,-35.925,3772.8657],[-70.3763,-35.9313,3299.8362],[-70.3799,-35.9378,3010.7112],[-70.3869,-35.9397,2813.3909],[-70.3918,-35.9521,2793.1792],[-70.4052,-35.9533,2790.4009],[-70.4077,-35.9562,2793.1445],[-70.4131,-35.9576,2847.8831],[-70.4172,-35.9618,3012.042],[-70.4168,-35.9651,3127.5254],[-70.422,-35.9706,3031.4014],[-70.4224,-35.9732,3048.9441],[-70.4185,-35.9777,2933.2888],[-70.4068,-35.9813,2722.5493],[-70.404,-35.9803,2593.2771],[-70.3935,-35.9817,2557.8862],[-70.3798,-35.9898,2855.7395],[-70.3748,-35.9948,2938.2017],[-70.3821,-35.9998,2941.7522],[-70.3807,-36.0248,2890.0637],[-70.3768,-36.027,2814.0576],[-70.376,-36.032,2844.1511],[-70.3706,-36.0328,2886.5938],[-70.3692,-36.0383,2980.9565],[-70.3713,-36.0434,3039.3418],[-70.3773,-36.046,3076.9087],[-70.3866,-36.0472,3071.1863],[-70.3873,-36.0509,3054.9966],[-70.3925,-36.0541,3017.7744],[-70.3948,-36.0549,2984.1943],[-70.4024,-36.0522,3031.3533],[-70.4079,-36.0537,3058.929],[-70.412,-36.0603,3086.6572],[-70.4175,-36.0755,3000.707],[-70.4183,-36.0894,3016.156],[-70.4237,-36.0919,2942.3557],[-70.4258,-36.0988,2873.9404],[-70.4154,-36.1046,2717.647],[-70.415,-36.1077,2699.8416],[-70.4132,-36.1075,2700.7073],[-70.4123,-36.1031,2681.3391],[-70.4057,-36.1064,2650.4729],[-70.4021,-36.1129,2469.8833],[-70.3978,-36.1275,2195.8279],[-70.394,-36.1467,2175.5],[-70.3922,-36.176,2178.4321],[-70.3936,-36.188,2171.5151],[-70.399,-36.1995,2163.884],[-70.3986,-36.2067,2057.4736],[-70.3853,-36.2418,1944.2222],[-70.3862,-36.2637,1849.9097],[-70.3826,-36.283,1853.1592],[-70.3688,-36.3128,1961.1381],[-70.3633,-36.3213,1877.7236],[-70.351,-36.3322,1701.9733],[-70.3388,-36.3392,1637.1064],[-70.3096,-36.3446,1653.5964],[-70.3005,-36.344,1672.5995],[-70.2909,-36.3377,1604.5481],[-70.2833,-36.3297,1592.4771],[-70.2695,-36.3265,1640.4634],[-70.2391,-36.3294,1565.3376],[-70.228,-36.3331,1685.8911],[-70.2207,-36.3378,1535.4932],[-70.2145,-36.346,1452.589],[-70.2151,-36.3632,1441.5251],[-70.2099,-36.3746,1446.7609],[-70.2111,-36.3892,1432.7565],[-70.2102,-36.3964,1489.4727],[-70.2041,-36.4076,1428.8711],[-70.1945,-36.4201,1477.2354],[-70.192,-36.4273,1435.324],[-70.1932,-36.4318,1501.6666],[-70.2022,-36.4418,1462.5664],[-70.2007,-36.4515,1426.1797],[-70.1902,-36.4662,1425.9531],[-70.1874,-36.4807,1420.2183],[-70.1821,-36.4922,1416.1284],[-70.1617,-36.51,1477.2415],[-70.1361,-36.5431,1324.1562],[-70.1304,-36.5595,1509.9609],[-70.1247,-36.5681,1252.8718],[-70.1169,-36.5755,1263.8419],[-70.0842,-36.5973,1302.683],[-70.0781,-36.6056,1184.8143],[-70.063,-36.6327,1161.7063],[-70.0563,-36.6405,1154.1188],[-70.0317,-36.6499,1291.2496],[-70.0134,-36.6661,1198.0801],[-70.0063,-36.6706,1435.6876],[-69.9698,-36.6823,1397.1664],[-69.9501,-36.6975,1442.6194],[-69.9391,-36.7121,1262.9241],[-69.9343,-36.7287,1222.7327],[-69.908,-36.7493,1115.5288],[-69.9068,-36.7536,1222.5779],[-69.9115,-36.7808,1068.5371],[-69.9098,-36.7852,1068.9574],[-69.9044,-36.7911,1035.9584],[-69.8919,-36.7984,983.5221],[-69.8761,-36.8005,1059.2788],[-69.8715,-36.8026,1074.1545],[-69.8672,-36.8194,1165.6516],[-69.8594,-36.8269,1134.9257],[-69.8474,-36.8347,983.6531],[-69.8214,-36.841,957.6251],[-69.8017,-36.8524,975.5389],[-69.767,-36.8622,883.0253],[-69.7602,-36.8665,876.8835],[-69.7576,-36.8714,880.3491],[-69.7578,-36.8761,873.5853],[-69.7692,-36.8844,880.8979],[-69.7728,-36.891,877.2609],[-69.7752,-36.9007,874.4724],[-69.7755,-36.9056,868.5381],[-69.7722,-36.9199,856.4567],[-69.7768,-36.9341,851.7836],[-69.7778,-36.9438,849.0172],[-69.7748,-36.9804,836.3171],[-69.7644,-36.9988,847.0483],[-69.7616,-37.0158,838.3279],[-69.7581,-37.0194,844.2137],[-69.7431,-37.0284,1048.9377],[-69.7361,-37.0362,984.8504],[-69.734,-37.0458,935.0078],[-69.733,-37.0653,935.6684],[-69.7044,-37.0908,822.2039],[-69.6886,-37.0978,843.977],[-69.6673,-37.1008,829.8068],[-69.6622,-37.1028,810.8431],[-69.651,-37.1146,791.4503],[-69.6372,-37.1195,796.1186],[-69.6255,-37.1306,871.8467],[-69.6015,-37.1337,776.3582],[-69.5627,-37.1478,765.8054],[-69.536,-37.1596,824.7424],[-69.5217,-37.1638,748.3721],[-69.5066,-37.1655,740.594],[-69.4888,-37.1747,736.346],[-69.4763,-37.175,733.4592],[-69.4645,-37.1729,728.468],[-69.4617,-37.1659,730.3161],[-69.4565,-37.1644,729.2685],[-69.395,-37.1649,712.476],[-69.3347,-37.1483,697.4734],[-69.3136,-37.146,694.9723],[-69.2986,-37.1477,687.8254],[-69.2783,-37.1425,683.6458],[-69.2607,-37.1465,681.0148],[-69.2457,-37.1548,684.1434],[-69.2292,-37.1611,722.4167],[-69.2119,-37.1709,668.6429],[-69.1726,-37.1754,660.5402],[-69.1496,-37.1819,656.6619],[-69.1223,-37.2011,653.2779],[-69.0983,-37.2047,652.6478],[-69.0865,-37.2157,640.8798],[-69.0657,-37.219,638.4799],[-69.0407,-37.2469,634.6935],[-69.0376,-37.2536,627.1298],[-69.0369,-37.261,625.4412],[-69.0408,-37.2778,619.1105],[-69.0401,-37.2899,617.1649],[-69.0427,-37.3044,613.6045],[-69.0414,-37.3337,610.5905],[-69.0383,-37.3404,614.6912],[-69.0245,-37.3569,605.7233],[-69.0158,-37.3632,608.0708],[-68.9748,-37.3733,589.8442],[-68.9565,-37.3732,584.8193],[-68.92,-37.3699,589.1075],[-68.9079,-37.3711,624.0354],[-68.8996,-37.3741,599.4902],[-68.8911,-37.3812,573.1469],[-68.8794,-37.3838,580.6366],[-68.8732,-37.3928,569.5422],[-68.8659,-37.3953,568.1317],[-68.844,-37.3926,563.7922],[-68.8294,-37.3891,560.2497],[-68.7963,-37.3766,596.2491],[-68.7864,-37.3709,551.0897],[-68.7784,-37.3637,551.8129],[-68.7634,-37.3664,555.3798],[-68.7556,-37.3701,555.0736],[-68.7535,-37.3749,546.5037],[-68.7394,-37.379,552.2199],[-68.7333,-37.3847,546.1121],[-68.7207,-37.3856,552.3024],[-68.7165,-37.3877,555.303],[-68.7132,-37.4,538.0574],[-68.6993,-37.4099,689.1906],[-68.6964,-37.4138,617.9469],[-68.6973,-37.4365,539.2186],[-68.6943,-37.4395,593.5946],[-68.6525,-37.4478,525.0369],[-68.6315,-37.446,523.9767],[-68.612,-37.438,518.3483],[-68.6067,-37.4373,557.0251],[-68.5893,-37.4477,558.2123],[-68.5729,-37.454,524.3818],[-68.5575,-37.454,512.6816],[-68.5397,-37.451,508.9679],[-68.4962,-37.4547,590.0328],[-68.4938,-37.4555,593.2284],[-68.4918,-37.4593,594.0151],[-68.4925,-37.4795,535.0499],[-68.4801,-37.4812,514.3455],[-68.4793,-37.4853,499.9192],[-68.4811,-37.493,564.134],[-68.4663,-37.4941,499.0259],[-68.4596,-37.4991,577.7111],[-68.4527,-37.5101,561.2625],[-68.4491,-37.5269,489.1224],[-68.4299,-37.546,486.4023],[-68.4216,-37.5486,483.7879],[-68.3881,-37.5533,478.263],[-68.3822,-37.5532,477.6618],[-68.3741,-37.5493,475.2089],[-68.3557,-37.5491,471.9462],[-68.3232,-37.5558,464.6542],[-68.2987,-37.5579,464.2432],[-68.2844,-37.5619,458.445],[-68.2428,-37.5779,468.0504],[-68.2407,-36.2369,1032.1938],[-68.2417,-36.1657,1027.0394],[-68.2958,-36.1663,1095.4055],[-68.2958,-36.1381,1094.9597]]]]}}