{"type":"Feature","properties":{"GID_2":"ARG.1.40_1","GID_0":"ARG","country":"Argentina","GID_1":"ARG.1_1","state":"BuenosAires","NL_NAME_1":"NA","county":"FlorencioVarela","VARNAME_2":"NA","NL_NAME_2":"NA","TYPE_2":"Partido","ENGTYPE_2":"Part","CC_2":"NA","HASC_2":"AR.BA.FC","name":"FlorencioVarela.county"},
"geometry":{"type": "MultiPolygon","coordinates": [[[[-58.3433,-34.8931,29.6464],[-58.289,-34.9671,23.5992],[-58.3025,-34.9735,22.4408],[-58.2787,-35.0107,22.6843],[-58.2709,-35.0029,23.2185],[-58.2481,-34.9885,23.0854],[-58.2491,-34.9855,24.2677],[-58.2124,-34.954,26.4774],[-58.2476,-34.9264,26.9181],[-58.1812,-34.869,24.905],[-58.1962,-34.8245,12.3829],[-58.2004,-34.818,8.8136],[-58.2157,-34.8121,17.3169],[-58.2265,-34.8099,18.901],[-58.2401,-34.8038,20.3361],[-58.2537,-34.794,17.7971],[-58.273,-34.772,19.7995],[-58.2994,-34.7871,9.5385],[-58.2953,-34.794,12.8911],[-58.3001,-34.7925,10.352],[-58.3015,-34.794,9.9872],[-58.3021,-34.8015,11.4616],[-58.3043,-34.8045,11.3743],[-58.3108,-34.7969,11.5578],[-58.3337,-34.8092,17.65],[-58.2933,-34.8578,25.792],[-58.3182,-34.871,25.8673],[-58.3136,-34.8775,25.9927],[-58.3433,-34.8931,29.6464]]]]}}