{"type":"Feature","properties":{"GID_2":"ARG.1.60_1","GID_0":"ARG","country":"Argentina","GID_1":"ARG.1_1","state":"BuenosAires","NL_NAME_1":"NA","county":"Junín","VARNAME_2":"NA","NL_NAME_2":"NA","TYPE_2":"Partido","ENGTYPE_2":"Part","CC_2":"NA","HASC_2":"AR.BA.JU","name":"Junín.county"},
"geometry":{"type": "MultiPolygon","coordinates": [[[[-60.7174,-34.6456,62.958],[-60.7342,-34.6468,63.7191],[-60.7418,-34.6491,63.277],[-60.7476,-34.6424,64.3358],[-60.7633,-34.6334,65.148],[-60.6484,-34.5317,70.3787],[-60.7575,-34.4464,72.6436],[-60.7514,-34.4406,72.9104],[-60.9021,-34.3241,65.8041],[-60.9191,-34.3355,65.5465],[-60.924,-34.337,65.5081],[-60.9419,-34.3392,66.8005],[-60.9507,-34.3348,66.8879],[-60.9603,-34.3383,67.6982],[-60.9665,-34.3434,68.2722],[-61.0438,-34.2811,84.9589],[-61.0597,-34.2953,82.1675],[-61.0583,-34.298,82.2429],[-61.0703,-34.3074,79.2304],[-61.0958,-34.2861,81.6716],[-61.1274,-34.3114,85.0763],[-61.1168,-34.3212,80.2652],[-61.139,-34.3376,87.2612],[-61.1422,-34.336,87.8417],[-61.1749,-34.3627,76.1989],[-61.1813,-34.358,76.2432],[-61.1906,-34.3565,77.7843],[-61.2008,-34.3639,78.087],[-61.2046,-34.3692,77.4094],[-61.2008,-34.3878,76.7645],[-61.2031,-34.3977,77.4132],[-61.1999,-34.4063,76.6882],[-61.1998,-34.4168,76.2135],[-61.2026,-34.4199,76.2271],[-61.2136,-34.4237,75.7695],[-61.219,-34.429,76.1161],[-61.2258,-34.4302,76.299],[-61.2282,-34.4205,76.3555],[-61.2286,-34.4096,76.2245],[-61.2367,-34.4027,76.86],[-61.2434,-34.4017,75.0],[-61.2585,-34.404,75.4554],[-61.2715,-34.4008,75.0],[-61.3598,-34.4731,82.0423],[-61.2789,-34.5432,81.1877],[-61.3389,-34.5927,80.6072],[-61.2037,-34.7036,74.6225],[-61.2222,-34.7189,77.4286],[-61.1521,-34.7775,76.4186],[-61.0496,-34.6915,75.7663],[-60.9012,-34.8106,77.6819],[-60.846,-34.7646,80.8602],[-60.8168,-34.7882,78.6038],[-60.7669,-34.7433,74.5287],[-60.7957,-34.7182,72.6034],[-60.772,-34.6973,71.3606],[-60.7745,-34.6941,68.8842],[-60.7174,-34.6456,62.958]]]]}}