{"type": "Feature","bbox": [-65.3016,-25.148,-64.6676,-24.4662],"geometry": {"type": "MultiPolygon","coordinates": [[[[-65.1773,-24.4662,963.6321],[-65.2019,-24.5177,956.6744],[-65.2023,-24.5235,945.3365],[-65.2121,-24.5567,925.3558],[-65.2112,-24.5854,991.8856],[-65.2128,-24.5909,1064.703],[-65.2208,-24.5997,962.0037],[-65.2325,-24.6039,975.2304],[-65.2512,-24.6048,1059.0491],[-65.264,-24.6031,1276.3633],[-65.2667,-24.6073,1372.0035],[-65.2757,-24.6415,1216.1643],[-65.2765,-24.6472,1368.3625],[-65.2654,-24.6611,1204.9888],[-65.2562,-24.6761,1102.3573],[-65.2475,-24.6976,1268.6055],[-65.243,-24.701,1244.8311],[-65.2241,-24.7034,1035.9287],[-65.2187,-24.7054,1027.7731],[-65.2171,-24.7228,1179.5293],[-65.2221,-24.7257,1321.3196],[-65.247,-24.7228,1238.7736],[-65.2594,-24.7235,1341.6951],[-65.2823,-24.7328,1319.0044],[-65.2944,-24.7351,1231.4117],[-65.2973,-24.7403,1285.4419],[-65.3007,-24.7573,1241.5552],[-65.3016,-24.769,1254.3199],[-65.3,-24.7737,1283.886],[-65.2934,-24.7745,1315.0227],[-65.2757,-24.7689,1387.6067],[-65.257,-24.7666,1304.4705],[-65.2506,-24.7668,1360.4047],[-65.2436,-24.7751,1374.1075],[-65.2374,-24.7747,1364.6331],[-65.1951,-24.7625,1206.837],[-65.1562,-24.7452,994.5585],[-65.1249,-24.7454,883.3237],[-65.1124,-24.7444,841.8365],[-65.1003,-24.7407,823.3657],[-65.0944,-24.7417,802.4365],[-65.0889,-24.7448,786.1105],[-65.0742,-24.7557,770.1439],[-65.0695,-24.7596,763.5354],[-65.0632,-24.7691,763.5298],[-65.053,-24.7759,751.5299],[-65.0408,-24.7891,758.2069],[-65.0308,-24.7962,761.5999],[-65.0297,-24.8016,768.7584],[-65.0309,-24.8131,781.4346],[-65.0356,-24.8238,800.6724],[-65.0409,-24.8462,814.2723],[-65.0438,-24.8513,818.9764],[-65.0564,-24.8642,905.3488],[-65.0775,-24.8765,1025.4984],[-65.082,-24.8806,1054.4678],[-65.0847,-24.8976,1087.1698],[-65.0897,-24.9076,1079.14],[-65.0909,-24.9248,1142.4863],[-65.0935,-24.936,1158.7637],[-65.1025,-24.9512,1127.559],[-65.1149,-24.9641,1238.5256],[-65.1132,-24.9692,1236.2638],[-65.1073,-24.9715,1198.4044],[-65.0883,-24.9712,1052.8416],[-65.0767,-24.9753,994.6593],[-65.0686,-24.984,1066.2478],[-65.067,-24.9896,981.7631],[-65.0669,-24.9953,1043.9338],[-65.0819,-25.0332,921.0306],[-65.0881,-25.0613,845.1968],[-65.0844,-25.1046,768.4198],[-65.0671,-25.112,761.7314],[-65.0547,-25.1138,738.2421],[-65.0485,-25.113,774.2069],[-65.0116,-25.1205,726.2653],[-64.9885,-25.1298,741.0404],[-64.9626,-25.1467,758.9996],[-64.9341,-25.148,1209.0605],[-64.9152,-25.1459,1177.3346],[-64.9004,-25.1355,1064.3892],[-64.895,-25.1251,1202.8624],[-64.892,-25.1023,1341.121],[-64.895,-25.0737,1216.3336],[-64.8945,-25.0563,1321.4719],[-64.893,-25.0511,1353.1307],[-64.8802,-25.0383,1416.2542],[-64.8744,-25.028,1531.9633],[-64.8742,-25.0226,1614.9072],[-64.8807,-25.0127,1630.6844],[-64.8768,-25.0094,1353.1915],[-64.8707,-25.0109,1268.2778],[-64.86,-25.0169,1256.6482],[-64.8476,-25.0165,1419.0551],[-64.833,-25.0057,1285.7065],[-64.8193,-24.9864,1300.975],[-64.8077,-24.966,1344.8318],[-64.8074,-24.9487,1222.7872],[-64.8112,-24.9319,1387.0172],[-64.7985,-24.8994,1535.1589],[-64.7976,-24.8937,1439.7178],[-64.8027,-24.8903,1366.6425],[-64.8059,-24.8855,1552.5802],[-64.805,-24.88,1641.8999],[-64.7765,-24.8574,1465.3588],[-64.762,-24.8386,1643.8584],[-64.7629,-24.8271,1591.5031],[-64.7669,-24.8163,1570.0529],[-64.7788,-24.7961,1862.9995],[-64.7962,-24.7898,1936.9351],[-64.7999,-24.7852,1897.3727],[-64.7991,-24.7738,1950.7561],[-64.7884,-24.7597,1927.6846],[-64.7767,-24.7394,2059.2856],[-64.7589,-24.7232,2071.8337],[-64.7299,-24.6856,1506.7609],[-64.727,-24.6805,1435.8085],[-64.717,-24.6473,1367.0217],[-64.6997,-24.6305,1714.7693],[-64.6745,-24.6134,1475.3157],[-64.6676,-24.6063,1094.4283],[-64.6817,-24.5873,879.4453],[-64.6921,-24.5774,866.2003],[-64.6979,-24.576,791.5184],[-64.7105,-24.5685,793.5423],[-64.7185,-24.5508,702.6151],[-64.7372,-24.5329,644.4207],[-64.7467,-24.5262,625.9225],[-64.8286,-24.4815,541.1534],[-64.8321,-24.4777,534.1755],[-64.836,-24.4831,539.035],[-64.8373,-24.4883,541.2365],[-64.8429,-24.4903,541.049],[-64.8464,-24.497,544.8637],[-64.8595,-24.5036,548.124],[-64.8693,-24.5232,570.3657],[-64.8731,-24.5421,562.9559],[-64.8812,-24.563,575.324],[-64.8765,-24.5698,579.6968],[-64.8776,-24.5807,592.7],[-64.8934,-24.601,599.1124],[-64.8984,-24.6035,593.0804],[-64.9076,-24.6046,590.6712],[-64.9314,-24.6013,599.5732],[-64.9918,-24.5842,649.2758],[-65.0128,-24.5831,663.283],[-65.0392,-24.5775,687.9716],[-65.079,-24.5649,737.5597],[-65.0867,-24.5602,747.1257],[-65.0854,-24.547,761.2559],[-65.0919,-24.5316,783.5632],[-65.0974,-24.525,794.6798],[-65.1206,-24.5075,845.0861],[-65.1346,-24.5026,865.5212],[-65.1545,-24.4785,917.5983],[-65.1773,-24.4662,963.6321]]]]}
,"properties": {"GID_2": "ARG.17.7_1","GID_0": "ARG","country": "Argentina","GID_1": "ARG.17_1","state": "Salta","NL_NAME_1": "NA","county": "GeneralGüemes","VARNAME_2": "Gral.MartinM.Güemes","NL_NAME_2": "NA","TYPE_2": "Departamento","ENGTYPE_2": "Department","CC_2": "NA","HASC_2": "AR.SA.GG","name": "GeneralGüemes.county","area_km2": 2319.568,"hist_schema_id": "Elevation0-9000","hist_area_km2": {"525": 0.116,"550": 10.071,"575": 27.699,"600": 58.497,"625": 93.853,"650": 89.139,"675": 82.559,"700": 79.501,"725": 93.392,"750": 98.887,"775": 99.479,"800": 91.399,"825": 88.616,"850": 96.364,"875": 99.323,"900": 110.121,"925": 109.387,"950": 98.068,"975": 90.576,"1000": 75.879,"1025": 65.107,"1050": 56.667,"1075": 47.993,"1100": 40.523,"1125": 36.674,"1150": 35.367,"1175": 34.926,"1200": 34.212,"1225": 31.423,"1250": 29.017,"1275": 27.365,"1300": 25.996,"1325": 23.168,"1350": 20.244,"1375": 18.666,"1400": 16.876,"1425": 14.374,"1450": 14.143,"1475": 12.816,"1500": 13.374,"1525": 12.297,"1550": 12.816,"1575": 11.97,"1600": 10.912,"1625": 10.392,"1650": 8.392,"1675": 7.354,"1700": 7.162,"1725": 5.776,"1750": 5.449,"1775": 4.967,"1800": 4.37,"1825": 4.082,"1850": 3.889,"1875": 3.542,"1900": 2.849,"1925": 2.272,"1950": 2.291,"1975": 1.136,"2000": 1.136,"2025": 1.001,"2050": 0.52,"2075": 0.578,"2100": 0.828,"2125": 0.616,"2150": 0.327,"2175": 0.27,"2200": 0.308,"2225": 0.135,"2250": 0.039,"2275": 0.019,"2300": 0.019}}}