{"type":"Feature","properties":{"GID_2":"ARG.10.11_1","GID_0":"ARG","country":"Argentina","GID_1":"ARG.10_1","state":"Jujuy","NL_NAME_1":"NA","county":"SantaCatalina","VARNAME_2":"NA","NL_NAME_2":"NA","TYPE_2":"Departamento","ENGTYPE_2":"Department","CC_2":"NA","HASC_2":"AR.JY.SC","name":"SantaCatalina.county"},
"geometry":{"type": "MultiPolygon","coordinates": [[[[-65.9571,-22.3995,3673.7861],[-65.9656,-22.2925,3664.0657],[-65.9499,-22.2798,3664.4927],[-65.9456,-22.2709,3666.8579],[-65.9455,-22.2511,3665.7837],[-65.9485,-22.2383,3666.3843],[-65.9491,-22.2251,3667.7668],[-65.9463,-22.2089,3668.5474],[-65.9418,-22.1964,3670.8508],[-65.9382,-22.1908,3671.0459],[-65.9302,-22.1842,3671.3235],[-65.9079,-22.1744,3672.3684],[-65.8515,-22.1718,3722.4666],[-65.8419,-22.1676,3739.2249],[-65.8283,-22.1485,3759.25],[-65.8176,-22.1211,3843.0911],[-65.8043,-22.0753,3745.5693],[-65.9248,-21.9336,3812.1418],[-66.0482,-21.919,3845.2305],[-66.0433,-21.8719,3907.5703],[-66.0763,-21.835,3975.5593],[-66.1942,-21.796,3949.6992],[-66.2189,-21.784,3343.3345],[-66.2215,-21.7814,3290.4209],[-66.225,-21.7878,3301.6736],[-66.2394,-21.7877,3302.1089],[-66.2413,-21.7888,3321.853],[-66.2428,-21.7937,3330.5073],[-66.237,-21.8176,3340.7913],[-66.2419,-21.8327,3338.0071],[-66.2386,-21.8401,3330.0759],[-66.2391,-21.8449,3322.7383],[-66.2354,-21.8508,3328.9573],[-66.2403,-21.8564,3340.9072],[-66.2411,-21.8652,3332.968],[-66.2441,-21.8734,3337.4739],[-66.2483,-21.8771,3419.0132],[-66.2468,-21.8859,3360.8044],[-66.2512,-21.8902,3362.7061],[-66.2488,-21.8963,3349.4504],[-66.2601,-21.9057,3359.8027],[-66.2583,-21.9165,3363.0439],[-66.2639,-21.9298,3370.1921],[-66.2613,-21.9338,3372.3154],[-66.2626,-21.9357,3374.4751],[-66.2673,-21.9354,3379.4583],[-66.2705,-21.942,3384.9424],[-66.2748,-21.9441,3402.9377],[-66.2728,-21.9466,3397.1746],[-66.2747,-21.951,3461.8052],[-66.2728,-21.9545,3428.0708],[-66.2751,-21.961,3432.8105],[-66.2744,-21.9644,3462.1331],[-66.2717,-21.9664,3453.0725],[-66.275,-21.9671,3418.4807],[-66.2773,-21.9703,3405.8455],[-66.278,-21.9738,3398.6868],[-66.2765,-21.9777,3402.1855],[-66.2829,-21.9815,3419.2654],[-66.2839,-21.9851,3455.6816],[-66.2832,-21.989,3425.5085],[-66.2795,-21.9929,3407.9375],[-66.2793,-22.0084,3414.8669],[-66.2819,-22.0146,3418.2239],[-66.2777,-22.0231,3422.3027],[-66.2793,-22.025,3423.1772],[-66.2834,-22.0258,3427.196],[-66.2839,-22.0302,3426.4402],[-66.2896,-22.0305,3439.3669],[-66.2921,-22.0342,3432.9673],[-66.2911,-22.0379,3492.2795],[-66.2858,-22.0411,3437.0757],[-66.2914,-22.0488,3490.4541],[-66.291,-22.0515,3440.7183],[-66.2872,-22.0482,3451.2432],[-66.2834,-22.0497,3445.9502],[-66.2934,-22.0625,3508.355],[-66.2893,-22.067,3464.4104],[-66.2846,-22.0677,3474.769],[-66.2853,-22.0702,3498.9036],[-66.2907,-22.0742,3474.594],[-66.2901,-22.0798,3487.8123],[-66.2877,-22.0826,3482.6445],[-66.2895,-22.087,3502.3027],[-66.2956,-22.0897,3493.8521],[-66.3005,-22.0894,3550.095],[-66.3083,-22.0938,3508.2122],[-66.3105,-22.0912,3512.3313],[-66.3125,-22.0913,3534.252],[-66.3142,-22.0882,3501.3638],[-66.3167,-22.0883,3489.1155],[-66.3175,-22.0839,3577.8074],[-66.3205,-22.0844,3596.9226],[-66.3252,-22.0876,3573.9341],[-66.3227,-22.092,3508.2588],[-66.3231,-22.0964,3522.5803],[-66.3284,-22.103,3581.7397],[-66.328,-22.1093,3518.6331],[-66.3317,-22.1118,3521.6902],[-66.332,-22.1188,3552.6555],[-66.3365,-22.1201,3606.2793],[-66.3399,-22.1168,3519.8667],[-66.3431,-22.1195,3556.6499],[-66.3475,-22.1196,3534.0767],[-66.3494,-22.1232,3556.1672],[-66.3455,-22.1276,3652.9553],[-66.357,-22.1322,3606.4539],[-66.4184,-22.146,3815.9722],[-66.6232,-22.1974,5491.1973],[-66.6383,-22.2255,5212.9263],[-66.6525,-22.2164,5471.3237],[-66.6862,-22.2095,5405.8691],[-66.7393,-22.2385,5383.7012],[-66.7596,-22.3254,4941.3848],[-66.7616,-22.3459,4746.0044],[-66.7843,-22.4018,4801.4185],[-66.7852,-22.4239,5081.1465],[-66.7837,-22.43,5081.0386],[-66.7824,-22.427,4994.5737],[-66.7815,-22.3977,4581.5029],[-66.7665,-22.3589,4367.3525],[-66.7578,-22.3639,4372.2695],[-66.7377,-22.3698,4428.022],[-66.7202,-22.3721,4423.3906],[-66.692,-22.3712,4335.272],[-66.6694,-22.3806,4367.3813],[-66.649,-22.386,4371.271],[-66.6281,-22.3888,4343.4209],[-66.5964,-22.3906,3954.3242],[-66.5805,-22.3973,4190.4219],[-66.5601,-22.4029,4094.5488],[-66.549,-22.3951,4013.0571],[-66.5433,-22.3868,3949.3728],[-66.5397,-22.3775,3862.1824],[-66.5347,-22.373,3864.9539],[-66.5312,-22.3723,3914.8022],[-66.5187,-22.3785,3813.5149],[-66.5154,-22.3785,3808.7102],[-66.4969,-22.3633,3752.5481],[-66.4877,-22.3533,3743.0491],[-66.4751,-22.3303,3690.3237],[-66.4496,-22.3124,3761.2812],[-66.4482,-22.3095,3734.3877],[-66.4486,-22.2996,3695.916],[-66.4472,-22.2931,3673.7476],[-66.44,-22.2818,3684.9106],[-66.4236,-22.2697,3628.061],[-66.4125,-22.2569,3624.4131],[-66.4069,-22.2527,3688.9353],[-66.4005,-22.2504,3701.166],[-66.3692,-22.2553,3748.4792],[-66.3557,-22.2594,3801.9314],[-66.3437,-22.2715,3841.6848],[-66.3346,-22.2763,3900.5708],[-66.3236,-22.2892,3875.7346],[-66.3143,-22.2938,4037.3174],[-66.3074,-22.2951,4036.0903],[-66.3003,-22.295,4120.0977],[-66.2937,-22.2926,4054.9919],[-66.2775,-22.2711,3989.134],[-66.2713,-22.2684,4029.6355],[-66.2539,-22.2718,4384.6021],[-66.2363,-22.2728,4371.0],[-66.198,-22.2668,4353.2803],[-66.1839,-22.2676,4261.7979],[-66.1774,-22.2703,4381.333],[-66.1621,-22.284,4328.9165],[-66.1487,-22.2882,4265.2764],[-66.1453,-22.2877,4275.2134],[-66.1246,-22.275,4163.061],[-66.1116,-22.27,4145.4233],[-66.0727,-22.2705,3834.6121],[-66.0519,-22.2744,3721.1865],[-66.0342,-22.2728,3698.8472],[-65.9958,-22.338,3662.0],[-65.9585,-22.3992,3671.8396],[-65.9571,-22.3995,3673.7861]]]]}}