{"type":"Feature","properties":{"GID_2":"ARG.17.4_1","GID_0":"ARG","country":"Argentina","GID_1":"ARG.17_1","state":"Salta","NL_NAME_1":"NA","county":"Capital","VARNAME_2":"Salta|Capital(Salta)","NL_NAME_2":"NA","TYPE_2":"Departamento","ENGTYPE_2":"Department","CC_2":"NA","HASC_2":"AR.SA.SA","name":"Capital.county"},
"geometry":{"type": "MultiPolygon","coordinates": [[[[-65.2656,-25.1646,1921.5859],[-65.2786,-25.179,2223.0361],[-65.2825,-25.1898,2053.7712],[-65.2818,-25.2013,2148.9961],[-65.2774,-25.218,2010.4648],[-65.2755,-25.2351,1593.2013],[-65.2857,-25.2742,1593.3746],[-65.2854,-25.2804,1316.1221],[-65.282,-25.2812,1359.0472],[-65.2583,-25.2722,1402.701],[-65.2457,-25.2714,946.5444],[-65.2403,-25.2684,954.8669],[-65.2345,-25.2674,906.3595],[-65.2327,-25.2705,915.5771],[-65.221,-25.2382,1161.2512],[-65.2005,-25.2026,877.0261],[-65.1909,-25.1753,935.0709],[-65.1834,-25.166,1376.4556],[-65.173,-25.1596,888.8059],[-65.1691,-25.1552,828.2258],[-65.159,-25.1279,797.8536],[-65.1439,-25.1095,773.3543],[-65.133,-25.1041,868.0136],[-65.1206,-25.1015,781.2139],[-65.0954,-25.1,757.5554],[-65.0893,-25.1013,749.3331],[-65.0844,-25.1046,768.4198],[-65.0881,-25.0613,845.1968],[-65.0819,-25.0332,921.0306],[-65.0669,-24.9953,1043.9338],[-65.067,-24.9896,981.7631],[-65.0686,-24.984,1066.2478],[-65.0767,-24.9753,994.6593],[-65.0883,-24.9712,1052.8416],[-65.1073,-24.9715,1198.4044],[-65.1132,-24.9692,1236.2638],[-65.1149,-24.9641,1238.5256],[-65.1025,-24.9512,1127.559],[-65.0935,-24.936,1158.7637],[-65.0909,-24.9248,1142.4863],[-65.0897,-24.9076,1079.14],[-65.0847,-24.8976,1087.1698],[-65.082,-24.8806,1054.4678],[-65.0775,-24.8765,1025.4984],[-65.0564,-24.8642,905.3488],[-65.0438,-24.8513,818.9764],[-65.0409,-24.8462,814.2723],[-65.0356,-24.8238,800.6724],[-65.0309,-24.8131,781.4346],[-65.0297,-24.8016,768.7584],[-65.0308,-24.7962,761.5999],[-65.0408,-24.7891,758.2069],[-65.053,-24.7759,751.5299],[-65.0632,-24.7691,763.5298],[-65.0695,-24.7596,763.5354],[-65.0742,-24.7557,770.1439],[-65.0889,-24.7448,786.1105],[-65.0944,-24.7417,802.4365],[-65.1003,-24.7407,823.3657],[-65.1124,-24.7444,841.8365],[-65.1249,-24.7454,883.3237],[-65.1562,-24.7452,994.5585],[-65.1951,-24.7625,1206.837],[-65.2374,-24.7747,1364.6331],[-65.2436,-24.7751,1374.1075],[-65.2506,-24.7668,1360.4047],[-65.257,-24.7666,1304.4705],[-65.2757,-24.7689,1387.6067],[-65.2934,-24.7745,1315.0227],[-65.3,-24.7737,1283.886],[-65.3016,-24.769,1254.3199],[-65.3007,-24.7573,1241.5552],[-65.2973,-24.7403,1285.4419],[-65.2944,-24.7351,1231.4117],[-65.2823,-24.7328,1319.0044],[-65.2654,-24.7252,1392.865],[-65.2531,-24.7225,1305.4419],[-65.2221,-24.7257,1321.3196],[-65.2171,-24.7228,1179.5293],[-65.218,-24.7123,973.4908],[-65.2613,-24.7125,1045.9973],[-65.2865,-24.711,1059.3372],[-65.3184,-24.7294,1286.3938],[-65.3361,-24.7239,1204.1204],[-65.3567,-24.7107,1146.7394],[-65.3628,-24.7096,1171.1671],[-65.3788,-24.7107,1174.1287],[-65.3958,-24.7232,1201.3484],[-65.4012,-24.7233,1212.1653],[-65.4138,-24.7198,1233.8147],[-65.4426,-24.7197,1303.3434],[-65.4544,-24.7156,1353.1899],[-65.4708,-24.7071,1385.8403],[-65.4847,-24.6957,1442.3416],[-65.5004,-24.6862,1565.6094],[-65.5179,-24.68,1860.1921],[-65.5324,-24.669,1976.9557],[-65.5434,-24.6635,2097.7627],[-65.5714,-24.6548,2623.4321],[-65.5749,-24.6619,2640.7278],[-65.5739,-24.6787,2563.6538],[-65.5802,-24.7069,2197.3711],[-65.5823,-24.7758,1666.7439],[-65.5739,-24.7915,1755.9446],[-65.5731,-24.7967,1567.2305],[-65.5812,-24.8055,1517.8508],[-65.5787,-24.8102,1595.1997],[-65.5628,-24.8202,1604.0778],[-65.5385,-24.827,1427.2169],[-65.5348,-24.8309,1362.3135],[-65.5332,-24.8424,1321.7031],[-65.5215,-24.8559,1288.6718],[-65.4979,-24.8548,1253.2286],[-65.4856,-24.857,1236.1271],[-65.4751,-24.8545,1220.0961],[-65.4668,-24.8565,1216.9935],[-65.4535,-24.856,1204.1123],[-65.4456,-24.8595,1198.0267],[-65.4417,-24.8589,1197.5657],[-65.43,-24.8631,1187.1682],[-65.4114,-24.8659,1175.0548],[-65.3989,-24.8645,1167.6814],[-65.3875,-24.8595,1163.2314],[-65.3813,-24.859,1162.1907],[-65.3755,-24.8611,1159.3715],[-65.3654,-24.868,1175.5459],[-65.3641,-24.8736,1189.8428],[-65.3649,-24.8908,1203.8264],[-65.3673,-24.902,1180.686],[-65.3662,-24.9077,1255.3623],[-65.3549,-24.9125,1649.6129],[-65.3424,-24.9138,1781.1487],[-65.3375,-24.9172,1745.3462],[-65.3282,-24.9385,1640.8835],[-65.314,-24.9497,1760.8927],[-65.3179,-24.9601,1798.3094],[-65.315,-24.9714,1632.3806],[-65.3177,-24.9941,1806.6389],[-65.3167,-25.0171,1864.0698],[-65.3039,-25.0368,1859.6359],[-65.3036,-25.0597,2161.3132],[-65.3009,-25.0709,1739.5084],[-65.2918,-25.0788,1710.7419],[-65.275,-25.0865,1880.2563],[-65.2576,-25.1097,2290.2327],[-65.2417,-25.1276,2015.5117],[-65.2353,-25.1439,1706.9182],[-65.2358,-25.1495,1428.842],[-65.2386,-25.1548,1655.2825],[-65.247,-25.1632,1910.6766],[-65.253,-25.1651,2155.4597],[-65.2656,-25.1646,1921.5859]]]]}}