{"type": "Feature","bbox": [-61.5112,-32.5005,-60.6579,-31.8039],"geometry": {"type": "MultiPolygon","coordinates": [[[[-60.7147,-31.9684,8.0],[-60.765,-31.954,10.0752],[-60.7633,-31.9256,10.3556],[-60.7639,-31.9192,9.9665],[-60.7689,-31.9071,11.1633],[-60.7674,-31.8817,10.0837],[-60.7713,-31.8765,10.2856],[-60.7855,-31.8799,9.0],[-60.7925,-31.8785,9.0],[-60.7986,-31.8748,9.0],[-60.8127,-31.8771,9.0],[-60.8196,-31.8758,9.0],[-60.823,-31.8699,9.0],[-60.8303,-31.8697,10.5634],[-60.8369,-31.8727,10.4083],[-60.8444,-31.8733,9.5],[-60.8509,-31.8703,10.3987],[-60.8551,-31.8651,10.521],[-60.8558,-31.8523,10.8121],[-60.8528,-31.8397,12.1608],[-60.8541,-31.8334,10.6234],[-60.8644,-31.8099,13.723],[-60.8691,-31.8058,13.9143],[-60.8766,-31.8069,14.6981],[-60.8822,-31.8105,15.3514],[-60.8865,-31.8158,15.5698],[-60.8928,-31.8192,15.4771],[-60.9081,-31.8182,15.3972],[-60.9481,-31.8117,18.2032],[-60.9858,-31.8039,30.0304],[-60.9999,-31.8646,34.8299],[-61.0237,-31.8588,33.3744],[-61.2157,-31.8252,31.4098],[-61.2148,-31.838,32.9604],[-61.2032,-31.8683,30.5964],[-61.1989,-31.8739,30.9077],[-61.1975,-31.8789,29.8675],[-61.2068,-31.8841,34.3433],[-61.3612,-31.863,52.0933],[-61.3978,-31.9977,47.603],[-61.378,-32.0818,43.2929],[-61.4137,-32.2105,48.7102],[-61.4623,-32.1993,48.3322],[-61.5112,-32.3854,70.1901],[-61.3191,-32.4194,59.9728],[-61.233,-32.4318,47.8224],[-61.2012,-32.4176,39.0707],[-61.0001,-32.4533,23.1755],[-60.883,-32.4718,23.5919],[-60.8666,-32.461,18.0613],[-60.8375,-32.4709,18.0349],[-60.8286,-32.4656,22.5659],[-60.821,-32.4586,8.0995],[-60.8099,-32.4577,15.3038],[-60.8083,-32.458,15.4481],[-60.804,-32.47,15.788],[-60.7948,-32.4799,7.2833],[-60.7567,-32.5005,5.0],[-60.7554,-32.4879,5.0],[-60.752,-32.4797,5.0],[-60.7304,-32.4644,5.0],[-60.7209,-32.4519,5.0],[-60.7123,-32.402,5.0],[-60.7122,-32.3932,5.0],[-60.7177,-32.3792,5.0],[-60.7196,-32.3466,12.2783],[-60.7222,-32.3412,8.802],[-60.7342,-32.3265,7.8242],[-60.7367,-32.3177,7.991],[-60.7359,-32.312,10.1522],[-60.7293,-32.3052,8.095],[-60.7189,-32.304,8.012],[-60.6905,-32.3162,8.6273],[-60.6839,-32.3172,10.4858],[-60.6771,-32.3149,5.5],[-60.6752,-32.3127,5.5],[-60.6731,-32.3037,5.5],[-60.6782,-32.2743,6.0],[-60.6762,-32.2536,6.0],[-60.6723,-32.2362,6.0],[-60.674,-32.2245,6.0],[-60.6824,-32.2114,6.5],[-60.687,-32.207,6.5],[-60.7234,-32.1894,7.2423],[-60.7319,-32.18,10.0854],[-60.7336,-32.1738,6.5],[-60.7326,-32.1654,11.5271],[-60.7296,-32.1599,9.2277],[-60.7048,-32.1393,6.5],[-60.6788,-32.1114,6.5],[-60.6618,-32.0889,7.0],[-60.6579,-32.0776,7.0],[-60.66,-32.0569,7.5],[-60.6625,-32.0483,7.5],[-60.6849,-32.0183,8.0],[-60.6928,-32.0125,8.0],[-60.6966,-32.0076,8.0],[-60.7192,-32.009,20.1952],[-60.7238,-32.0049,15.3683],[-60.7147,-31.9684,8.0]]]]}
,"properties": {"GID_2": "ARG.21.15_1","GID_0": "ARG","country": "Argentina","GID_1": "ARG.21_1","state": "SantaFe","NL_NAME_1": "NA","county": "SanJerónimo","VARNAME_2": "Coronda","NL_NAME_2": "NA","TYPE_2": "Departamento","ENGTYPE_2": "Department","CC_2": "NA","HASC_2": "AR.SF.SR","name": "SanJerónimo.county","area_km2": 4418.002,"hist_schema_id": "Elevation0-9000","hist_area_km2": {"0": 1199.407,"25": 1802.12,"50": 1224.622,"75": 188.706,"100": 3.148}}}