{"type":"Feature","properties":{"GID_2":"ARG.14.3_1","GID_0":"ARG","country":"Argentina","GID_1":"ARG.14_1","state":"Misiones","NL_NAME_1":"NA","county":"Candelaria","VARNAME_2":"SantaAna","NL_NAME_2":"NA","TYPE_2":"Departamento","ENGTYPE_2":"Department","CC_2":"NA","HASC_2":"AR.MN.CD","name":"Candelaria.county"},
"geometry":{"type": "MultiPolygon","coordinates": [[[[-55.6603,-27.6152,118.6716],[-55.6451,-27.6197,124.6864],[-55.6245,-27.6175,186.6069],[-55.6181,-27.6027,147.7687],[-55.5558,-27.5667,227.1866],[-55.5701,-27.5454,193.1013],[-55.5131,-27.5108,211.027],[-55.4968,-27.5341,257.8191],[-55.2818,-27.406,152.7834],[-55.2814,-27.4016,152.4841],[-55.284,-27.4003,139.4227],[-55.2921,-27.401,163.3294],[-55.295,-27.3966,179.9819],[-55.3035,-27.3974,166.0966],[-55.3045,-27.3895,158.9182],[-55.3098,-27.3832,131.77],[-55.3093,-27.3752,163.0931],[-55.3111,-27.3738,173.4771],[-55.3141,-27.3746,187.0479],[-55.3222,-27.3888,140.732],[-55.3198,-27.3937,142.2717],[-55.3206,-27.3962,158.1216],[-55.3228,-27.398,132.068],[-55.3377,-27.3979,138.4944],[-55.358,-27.3946,138.3354],[-55.3587,-27.3923,166.5923],[-55.3562,-27.3908,142.8006],[-55.3445,-27.3891,165.2905],[-55.3466,-27.3816,136.2438],[-55.3522,-27.3809,118.1014],[-55.3565,-27.3772,146.9841],[-55.3592,-27.3781,159.9538],[-55.3633,-27.3852,125.127],[-55.3751,-27.3864,122.9623],[-55.3792,-27.3903,118.4636],[-55.3813,-27.3899,119.864],[-55.3813,-27.3843,120.5682],[-55.3776,-27.3802,123.7889],[-55.3791,-27.3752,140.8172],[-55.3812,-27.3733,153.3232],[-55.3839,-27.3734,153.784],[-55.3875,-27.3777,129.8022],[-55.3901,-27.3783,123.985],[-55.3904,-27.3681,112.1151],[-55.3963,-27.3693,129.3146],[-55.4,-27.3658,115.3118],[-55.403,-27.37,114.6785],[-55.4113,-27.3725,110.1973],[-55.4127,-27.3748,113.6402],[-55.4133,-27.3775,117.4291],[-55.4058,-27.3812,155.0417],[-55.4065,-27.3864,125.6829],[-55.4204,-27.3838,129.3706],[-55.4219,-27.3769,130.4035],[-55.4278,-27.3766,133.3597],[-55.4307,-27.3775,134.9101],[-55.4317,-27.3824,104.9008],[-55.431,-27.3851,121.4143],[-55.426,-27.3874,109.8057],[-55.4255,-27.3897,107.9774],[-55.431399999999996,-27.3913,119.6102],[-55.4397,-27.3884,116.6305],[-55.438,-27.3842,104.4721],[-55.4413,-27.3801,124.0089],[-55.453,-27.3787,120.8656],[-55.4539,-27.3735,151.5119],[-55.4571,-27.3695,168.5882],[-55.4658,-27.3679,107.0761],[-55.4763,-27.3627,128.5364],[-55.4792,-27.3625,107.0952],[-55.4843,-27.3653,96.7997],[-55.4899,-27.3644,110.1487],[-55.493,-27.3597,99.4008],[-55.4914,-27.3466,100.0635],[-55.4828,-27.3398,95.5698],[-55.4771,-27.3404,108.9414],[-55.4765,-27.3378,112.4091],[-55.4798,-27.3302,139.6818],[-55.4799,-27.3198,109.9081],[-55.4786,-27.3179,93.2747],[-55.4733,-27.3205,105.9709],[-55.4706,-27.32,97.2751],[-55.4694,-27.3177,92.3999],[-55.4743,-27.3112,109.8488],[-55.4801,-27.3111,101.4041],[-55.482,-27.309,94.2886],[-55.4808,-27.3039,109.2702],[-55.4821,-27.3015,101.834],[-55.4849,-27.3009,105.7617],[-55.4931,-27.3083,91.0311],[-55.4961,-27.3078,105.0311],[-55.5027,-27.3026,101.5652],[-55.5015,-27.2949,116.0448],[-55.5161,-27.2957,97.916],[-55.5241,-27.2918,89.6396],[-55.5249,-27.2894,83.4915],[-55.5234,-27.2872,97.3369],[-55.5098,-27.2824,83.2348],[-55.5105,-27.28,83.287],[-55.5132,-27.2786,99.0148],[-55.522,-27.2798,82.5],[-55.5297,-27.284,82.0],[-55.5321,-27.2913,111.7122],[-55.5346,-27.2927,93.6656],[-55.5524,-27.2933,83.6909],[-55.5656,-27.2996,81.5],[-55.5909,-27.3161,81.0],[-55.5937,-27.3123,81.0],[-55.5944,-27.3342,81.0],[-55.6,-27.3419,81.0],[-55.6279,-27.3602,85.9887],[-55.6408,-27.3638,81.0],[-55.6819,-27.385,104.9139],[-55.704,-27.4054,81.5],[-55.726,-27.4398,81.0],[-55.7326,-27.4448,81.0],[-55.7418,-27.4476,80.5],[-55.7525,-27.4484,82.1825],[-55.796,-27.4429,80.0],[-55.8003,-27.4482,80.0],[-55.8015,-27.4559,80.0],[-55.8068,-27.4623,80.0],[-55.8105,-27.4725,80.0],[-55.8084,-27.4738,80.0],[-55.8001,-27.4711,91.7569],[-55.7972,-27.4717,91.7212],[-55.7944,-27.479,84.657],[-55.7847,-27.4922,80.6104],[-55.784,-27.4955,81.4245],[-55.7879,-27.5511,105.0979],[-55.8088,-27.5671,86.459],[-55.796,-27.5684,86.2884],[-55.7928,-27.5758,88.0767],[-55.7797,-27.5821,90.8638],[-55.7742,-27.5812,91.4584],[-55.7729,-27.579,93.934],[-55.7622,-27.5835,97.0525],[-55.7534,-27.5819,118.1774],[-55.747,-27.5834,128.9695],[-55.7232,-27.5844,228.0766],[-55.72,-27.6026,158.7697],[-55.6999,-27.6014,122.6727],[-55.7005,-27.598,129.4015],[-55.6809,-27.597,105.7598],[-55.6817,-27.5918,107.0907],[-55.6763,-27.5909,108.3074],[-55.6736,-27.592,106.5577],[-55.671,-27.5965,120.7324],[-55.6625,-27.6042,123.9602],[-55.6603,-27.6152,118.6716]]]]}}