{"type":"Feature","properties":{"GID_2":"ARG.3.6_1","GID_0":"ARG","country":"Argentina","GID_1":"ARG.3_1","state":"Chaco","NL_NAME_1":"NA","county":"FrayJustoSantaMaríadeOro","VARNAME_2":"SantaSilvina|FrayJustoSantaM","NL_NAME_2":"NA","TYPE_2":"Departamento","ENGTYPE_2":"Department","CC_2":"NA","HASC_2":"AR.CC.FJ","name":"FrayJustoSantaMaríadeOro.county"},
"geometry":{"type": "MultiPolygon","coordinates": [[[[-61.7159,-27.6842,93.3837],[-61.7172,-27.9939,82.8649],[-61.6646,-27.9984,73.062],[-61.5833,-27.9973,71.2012],[-60.9271,-27.9994,66.4464],[-60.9248,-27.7845,73.2708],[-61.0354,-27.7789,72.9855],[-61.0335,-27.6239,79.2987],[-61.5687,-27.6235,77.4277],[-61.5704,-27.6819,71.0481],[-61.7159,-27.6842,93.3837]]]]}}