{"type": "Feature","bbox": [-60.7176,-33.2775,-59.7753,-32.1968],"geometry": {"type": "MultiPolygon","coordinates": [[[[-60.7162,-32.6746,4.5],[-60.7111,-32.6855,4.5],[-60.6978,-32.7031,4.5],[-60.6951,-32.7117,4.5],[-60.6967,-32.7173,4.5],[-60.7127,-32.7289,5.0],[-60.7159,-32.7342,5.0],[-60.7176,-32.746,4.5],[-60.7159,-32.7637,4.5],[-60.7104,-32.7809,4.5],[-60.7051,-32.7919,4.5],[-60.6846,-32.808,4.5],[-60.6772,-32.8181,10.0892],[-60.6737,-32.8265,9.7721],[-60.6736,-32.8353,7.93],[-60.6804,-32.8705,4.0],[-60.6794,-32.8914,4.0],[-60.6774,-32.9,4.0],[-60.6739,-32.905,4.0],[-60.6638,-32.9136,4.0],[-60.6294,-32.9341,6.3879],[-60.6129,-32.9495,4.0],[-60.6057,-32.9597,4.0],[-60.6024,-32.9681,4.0],[-60.6096,-32.9879,4.0],[-60.5983,-33.0096,3.5],[-60.5691,-33.043,3.5],[-60.5529,-33.0586,3.5],[-60.5419,-33.0804,4.4669],[-60.5238,-33.1023,3.5],[-60.5143,-33.111,3.5],[-60.4767,-33.1378,3.0],[-60.4497,-33.1519,3.0],[-60.4303,-33.1646,4.5914],[-60.3856,-33.1839,4.6377],[-60.3526,-33.1671,5.3271],[-60.3385,-33.1661,4.5696],[-60.3218,-33.1708,2.7632],[-60.316,-33.1741,2.0],[-60.3101,-33.1804,2.0],[-60.2952,-33.1832,2.0],[-60.2869,-33.1866,4.5126],[-60.2537,-33.2076,5.7911],[-60.2481,-33.2136,6.6959],[-60.2403,-33.2277,5.6677],[-60.2334,-33.2462,2.0],[-60.2286,-33.2456,4.0448],[-60.2206,-33.232,4.5],[-60.2152,-33.2255,5.1067],[-60.2113,-33.2239,5.0358],[-60.2065,-33.2242,5.1976],[-60.1984,-33.2277,5.122],[-60.1883,-33.2403,4.3776],[-60.1706,-33.2469,4.6217],[-60.1668,-33.2468,4.4349],[-60.1525,-33.2265,4.7984],[-60.1413,-33.2197,4.6544],[-60.1362,-33.2192,3.5],[-60.1195,-33.2254,4.8703],[-60.1126,-33.2306,4.5589],[-60.1053,-33.2404,3.9347],[-60.0898,-33.2491,4.5516],[-60.0811,-33.251,4.4723],[-60.0672,-33.2508,3.0391],[-60.0586,-33.2479,4.1427],[-60.0547,-33.2453,3.6627],[-60.0537,-33.2419,4.5409],[-60.0591,-33.2353,4.745],[-60.0657,-33.2309,4.6385],[-60.0581,-33.2259,4.567],[-60.0535,-33.2259,4.457],[-60.0402,-33.2293,1.5],[-60.0358,-33.2361,4.4355],[-60.0342,-33.2516,4.3693],[-60.0376,-33.267,3.0],[-60.037,-33.2707,4.3663],[-60.0315,-33.2772,4.7225],[-60.0274,-33.2775,1.5],[-60.0184,-33.2745,4.1571],[-60.0108,-33.2704,4.0921],[-59.9934,-33.2475,4.1797],[-59.9835,-33.2393,3.9836],[-59.9745,-33.2375,4.0775],[-59.9652,-33.2385,3.8352],[-59.9631,-33.2416,2.1557],[-59.963,-33.2574,3.0841],[-59.958,-33.2683,3.4438],[-59.9504,-33.2724,3.6601],[-59.9412,-33.2738,2.0371],[-59.9237,-33.2674,3.6944],[-59.921,-33.2648,3.6365],[-59.9245,-33.2456,3.7558],[-59.9285,-33.2344,3.6831],[-59.9273,-33.2306,3.6255],[-59.9205,-33.2256,3.8309],[-59.9074,-33.2295,3.8144],[-59.9045,-33.2323,3.6748],[-59.9023,-33.2555,4.141],[-59.8997,-33.263,3.9136],[-59.897,-33.266,3.7128],[-59.8859,-33.2733,3.6287],[-59.8725,-33.2754,1.5365],[-59.8592,-33.2723,1.3676],[-59.8433,-33.2644,3.3848],[-59.831,-33.2529,3.3608],[-59.8194,-33.2463,3.4652],[-59.8138,-33.2402,3.2925],[-59.8122,-33.2327,3.4286],[-59.8148,-33.2295,3.2551],[-59.8332,-33.2176,2.815],[-59.8347,-33.214,3.2803],[-59.8377,-33.1907,3.6826],[-59.8363,-33.1829,3.7146],[-59.832,-33.1763,3.5242],[-59.819,-33.1652,3.4802],[-59.7969,-33.1511,3.4179],[-59.7922,-33.1446,3.4763],[-59.7863,-33.1299,3.2067],[-59.7876,-33.126,2.9042],[-59.8168,-33.1153,3.8417],[-59.8239,-33.1103,3.7294],[-59.8271,-33.1033,3.587],[-59.8275,-33.0955,3.4846],[-59.8254,-33.0879,3.5167],[-59.8289,-33.0768,3.6538],[-59.8354,-33.0713,3.7283],[-59.8445,-33.0681,3.8535],[-59.8482,-33.0683,3.8723],[-59.8525,-33.0877,3.519],[-59.8604,-33.0915,1.0],[-59.8745,-33.0815,3.7991],[-59.8928,-33.0591,3.5967],[-59.8949,-33.0557,3.633],[-59.8966,-33.0442,3.5149],[-59.9002,-33.037,1.0],[-59.9033,-33.0343,3.7334],[-59.9157,-33.0288,4.1757],[-59.9332,-33.0241,4.1214],[-59.9562,-33.0267,4.1072],[-59.9615,-33.0123,3.7509],[-59.9692,-33.0084,3.7776],[-59.9762,-33.0127,3.4397],[-59.9808,-33.0128,3.164],[-59.9892,-33.0098,4.376],[-59.9912,-33.0062,4.2716],[-59.9951,-33.0043,4.4199],[-60.027,-33.0074,3.7312],[-60.0362,-33.0064,4.0031],[-60.0394,-33.0039,3.8368],[-60.0455,-32.9935,2.9158],[-60.0335,-32.9875,3.3037],[-60.0063,-32.9836,4.0848],[-60.0001,-32.9779,4.7841],[-59.999,-32.9742,2.5],[-60.0003,-32.9665,3.9951],[-60.0056,-32.9603,3.0],[-60.0145,-32.9592,3.0],[-60.0275,-32.9625,4.5241],[-60.0336,-32.9565,4.3656],[-60.0367,-32.9491,4.4587],[-60.0356,-32.9416,4.6328],[-60.0306,-32.9351,4.7094],[-60.0208,-32.9269,4.7924],[-60.0054,-32.9185,4.9507],[-59.9653,-32.9098,4.6212],[-59.9526,-32.9046,4.608],[-59.9487,-32.9048,4.6771],[-59.9375,-32.9122,4.7931],[-59.9077,-32.9227,4.9014],[-59.8896,-32.9347,5.0317],[-59.8807,-32.9352,5.1865],[-59.8722,-32.9319,5.1185],[-59.8692,-32.929,5.0337],[-59.8665,-32.9215,4.9586],[-59.87,-32.9143,4.9526],[-59.873,-32.9114,4.9738],[-59.8891,-32.9039,5.0498],[-59.9018,-32.8926,5.2719],[-59.903,-32.8892,6.4534],[-59.9004,-32.8816,7.9614],[-59.8949,-32.8755,6.6268],[-59.8886,-32.861,5.9822],[-59.8843,-32.8459,6.2175],[-59.8673,-32.833,40.2154],[-59.8553,-32.8212,22.8957],[-59.8478,-32.8114,15.9129],[-59.8396,-32.808,14.866],[-59.8306,-32.8065,12.8599],[-59.827,-32.8041,11.0244],[-59.8224,-32.7975,15.8741],[-59.8082,-32.7645,17.1438],[-59.8035,-32.7299,16.8257],[-59.8084,-32.6953,21.3815],[-59.8008,-32.657,23.821],[-59.7961,-32.642,23.1882],[-59.7949,-32.6305,21.8276],[-59.7901,-32.6195,23.5452],[-59.7877,-32.6002,24.3164],[-59.7791,-32.59,27.0366],[-59.7817,-32.5835,25.6318],[-59.7827,-32.5719,28.2191],[-59.7765,-32.5533,27.9553],[-59.7753,-32.5416,29.8902],[-59.7764,-32.5379,28.4694],[-59.7784,-32.5343,27.5337],[-59.7852,-32.5292,32.0165],[-59.803,-32.5256,45.1074],[-59.8342,-32.531,37.5795],[-59.8569,-32.5281,40.719],[-59.889,-32.5269,43.4786],[-59.9011,-32.5155,52.8843],[-59.9092,-32.5119,51.584],[-59.9365,-32.5089,55.8143],[-59.9636,-32.5116,61.7122],[-59.9718,-32.508,68.8763],[-59.985,-32.5053,85.7],[-59.9989,-32.4952,88.5482],[-60.0159,-32.4721,75.7731],[-60.0235,-32.458,60.1589],[-60.0265,-32.4115,86.43],[-60.021,-32.3614,93.6887],[-60.0229,-32.3459,92.176],[-60.0257,-32.3385,91.5637],[-60.0329,-32.3248,96.6522],[-60.0366,-32.3224,87.475],[-60.0538,-32.317,84.9916],[-60.0722,-32.3167,88.8051],[-60.0733,-32.3133,87.8718],[-60.0593,-32.3031,85.0691],[-60.0589,-32.2999,87.9834],[-60.0736,-32.28,95.3403],[-60.0845,-32.273,96.536],[-60.0969,-32.268,97.0146],[-60.1132,-32.2545,102.1869],[-60.1169,-32.2474,97.0741],[-60.1177,-32.232,97.3235],[-60.1222,-32.2252,91.7976],[-60.1287,-32.2197,102.6672],[-60.1328,-32.2182,97.993],[-60.1374,-32.2189,95.317],[-60.1468,-32.2271,104.3338],[-60.1514,-32.2277,97.8432],[-60.1619,-32.2153,115.3196],[-60.1662,-32.2217,113.2788],[-60.1799,-32.2195,109.5255],[-60.1831,-32.2127,110.6314],[-60.18,-32.2057,111.6434],[-60.1806,-32.2016,112.0597],[-60.183,-32.1987,108.6566],[-60.1882,-32.1968,104.0885],[-60.2076,-32.1979,112.8701],[-60.2207,-32.201,106.1986],[-60.2572,-32.2031,81.3897],[-60.2935,-32.2088,83.0652],[-60.2965,-32.2109,88.9921],[-60.2976,-32.2266,75.7493],[-60.3004,-32.234,81.9513],[-60.3051,-32.2406,93.8936],[-60.3202,-32.2552,76.8515],[-60.3259,-32.2739,69.2748],[-60.3353,-32.2871,59.2562],[-60.3405,-32.302,52.9868],[-60.3453,-32.3084,58.7132],[-60.3585,-32.3115,60.2947],[-60.3808,-32.3071,57.6976],[-60.3992,-32.3075,64.3363],[-60.412,-32.3116,59.3705],[-60.4272,-32.3197,56.3511],[-60.4363,-32.3283,38.99],[-60.4461,-32.3458,45.0006],[-60.448,-32.3574,57.4117],[-60.4474,-32.3651,43.9119],[-60.4344,-32.3855,37.673],[-60.4287,-32.3913,45.635],[-60.4223,-32.4059,30.237],[-60.4222,-32.4137,9.6919],[-60.4241,-32.417,9.4491],[-60.4317,-32.4215,7.3034],[-60.4544,-32.4245,6.6508],[-60.4712,-32.4307,6.6502],[-60.477,-32.4365,6.9209],[-60.4733,-32.4478,6.7065],[-60.4675,-32.4584,6.6436],[-60.4674,-32.4662,6.3458],[-60.491,-32.4778,6.3667],[-60.493899999999996,-32.4808,6.8584],[-60.4951,-32.4962,6.6982],[-60.4996,-32.5153,5.8845],[-60.5087,-32.533,6.5299],[-60.5159,-32.543,5.9545],[-60.5115,-32.554,6.4649],[-60.5123,-32.5578,5.9439],[-60.5142,-32.5614,6.2963],[-60.5206,-32.5668,5.9033],[-60.5224,-32.5785,6.0024],[-60.5246,-32.5816,6.1407],[-60.5445,-32.5978,7.027],[-60.5613,-32.6041,6.5289],[-60.5703,-32.6034,6.8091],[-60.5747,-32.6045,6.9466],[-60.5945,-32.6205,6.2967],[-60.6068,-32.6255,6.3658],[-60.6158,-32.6267,4.5],[-60.6616,-32.6249,6.7819],[-60.6748,-32.6274,7.1287],[-60.6823,-32.6459,6.9409],[-60.6873,-32.6524,6.3863],[-60.7029,-32.6666,8.3715],[-60.7162,-32.6746,4.5]]]]}
,"properties": {"GID_2": "ARG.8.16_1","GID_0": "ARG","country": "Argentina","GID_1": "ARG.8_1","state": "EntreRíos","NL_NAME_1": "NA","county": "Victoria","VARNAME_2": "NA","NL_NAME_2": "NA","TYPE_2": "Departamento","ENGTYPE_2": "Department","CC_2": "NA","HASC_2": "AR.ER.VC","name": "Victoria.county","area_km2": 6660.352,"hist_schema_id": "Elevation0-9000","hist_area_km2": {"0": 4692.008,"25": 339.257,"50": 732.811,"75": 604.43,"100": 272.449,"125": 19.398}}}