{"type": "Feature","bbox": [-64.5301,-26.7729,-63.6708,-25.696],"geometry": {"type": "MultiPolygon","coordinates": [[[[-64.2148,-25.7313,384.6985],[-64.2873,-25.7202,453.0634],[-64.4108,-25.9976,444.6272],[-64.4536,-26.0739,671.8126],[-64.4291,-26.1048,513.3732],[-64.4728,-26.1844,409.5289],[-64.4935,-26.2335,408.1919],[-64.4828,-26.272,390.8788],[-64.4787,-26.3001,386.1194],[-64.4803,-26.3106,388.1106],[-64.4783,-26.3198,391.6151],[-64.4975,-26.3393,408.0991],[-64.5203,-26.3573,423.8792],[-64.5229,-26.3744,417.1815],[-64.5233,-26.3928,404.9193],[-64.5301,-26.4215,396.6546],[-64.528,-26.4571,390.6311],[-64.5179,-26.4882,373.0215],[-64.5127,-26.5523,351.301],[-64.4884,-26.5517,344.9248],[-64.4862,-26.5651,340.3889],[-64.4521,-26.566,326.2465],[-64.4515,-26.5931,317.9562],[-64.309,-26.5947,258.668],[-64.3084,-26.6275,253.3897],[-64.2916,-26.6289,249.0357],[-64.2913,-26.6995,235.1562],[-64.2044,-26.7133,222.2225],[-64.2111,-26.7529,215.6972],[-64.1648,-26.7584,214.009],[-64.1594,-26.7312,219.2435],[-64.0314,-26.7564,210.5152],[-64.0308,-26.7729,208.9069],[-63.9083,-26.7723,204.6583],[-63.8937,-26.7059,212.1919],[-63.8335,-26.698,205.2737],[-63.7964,-26.5237,220.1932],[-63.6708,-26.5319,208.7876],[-63.7003,-26.4852,215.1436],[-63.7113,-26.4746,213.4584],[-63.7198,-26.4624,216.2614],[-63.737,-26.4116,219.488],[-63.749,-26.39,222.7974],[-63.7589,-26.3329,227.2992],[-63.7781,-26.3097,230.8964],[-63.7836,-26.3014,231.0506],[-63.7845,-26.2968,230.1948],[-63.7863,-26.2776,231.1065],[-63.7857,-26.2583,230.6844],[-63.7817,-26.2344,234.0602],[-63.7785,-26.2252,234.6275],[-63.7789,-26.2107,235.8774],[-63.7737,-26.192,235.0942],[-63.7732,-26.1727,241.1546],[-63.7691,-26.1587,240.5872],[-63.7631,-26.1507,238.2621],[-63.7519,-26.1236,237.1586],[-63.7528,-26.0994,241.6034],[-63.7538,-26.0948,242.2206],[-63.7594,-26.0865,244.6677],[-63.7633,-26.0626,247.3999],[-63.7613,-26.0385,251.4306],[-63.7625,-26.0242,252.0602],[-63.7793,-25.994,254.8314],[-63.7912,-25.9671,260.9624],[-63.7973,-25.9592,261.4267],[-63.805,-25.9413,262.1083],[-63.8148,-25.9375,263.1222],[-63.8355,-25.9338,260.7351],[-63.8395,-25.9305,264.0112],[-63.8415,-25.9261,264.4802],[-63.8392,-25.907,266.2549],[-63.8414,-25.8829,268.5993],[-63.8457,-25.869,271.3154],[-63.8511,-25.8607,272.8395],[-63.8712,-25.8449,274.3012],[-63.8909,-25.8379,275.8829],[-63.8939,-25.834,276.0174],[-63.899,-25.8201,277.7],[-63.9132,-25.8141,278.607],[-63.9286,-25.8116,279.985],[-63.9358,-25.8046,280.8972],[-63.9437,-25.7865,283.1342],[-63.9441,-25.7819,283.3427],[-63.9396,-25.773,283.3608],[-63.9386,-25.7635,286.4653],[-63.9454,-25.7451,289.0492],[-63.9453,-25.7355,288.7088],[-63.9566,-25.7068,291.9778],[-64.0052,-25.701,297.1325],[-64.0292,-25.696,304.1174],[-64.0323,-25.7014,304.3582],[-64.0344,-25.7144,304.1448],[-64.0427,-25.7435,309.3081],[-64.0444,-25.7623,307.6122],[-64.2063,-25.7488,379.8253],[-64.2134,-25.7315,384.6985],[-64.2148,-25.7313,384.6985]]]]}
,"properties": {"GID_2": "ARG.22.19_1","GID_0": "ARG","country": "Argentina","GID_1": "ARG.22_1","state": "SantiagodelEstero","NL_NAME_1": "NA","county": "Pellegrini","VARNAME_2": "LaFragua","NL_NAME_2": "NA","TYPE_2": "Departamento","ENGTYPE_2": "Department","CC_2": "NA","HASC_2": "AR.SE.PE","name": "Pellegrini.county","area_km2": 6956.045,"hist_schema_id": "Elevation0-9000","hist_area_km2": {"200": 112.461,"225": 1224.362,"250": 1254.917,"275": 1102.277,"300": 923.315,"325": 723.745,"350": 652.522,"375": 443.697,"400": 249.569,"425": 148.221,"450": 80.778,"475": 18.376,"500": 6.264,"525": 4.247,"550": 2.495,"575": 1.981,"600": 1.771,"625": 0.971,"650": 0.971,"675": 1.009,"700": 0.952,"725": 0.552,"750": 0.286,"775": 0.209,"800": 0.076}}}