{"type":"Feature","properties":{"GID_2":"ARG.19.5_1","GID_0":"ARG","country":"Argentina","GID_1":"ARG.19_1","state":"SanLuis","NL_NAME_1":"NA","county":"GeneralPedernera","VARNAME_2":"Mercedes","NL_NAME_2":"NA","TYPE_2":"Departamento","ENGTYPE_2":"Department","CC_2":"NA","HASC_2":"AR.SL.GP","name":"GeneralPedernera.county"},
"geometry":{"type": "MultiPolygon","coordinates": [[[[-65.1099,-33.9602,373.2542],[-65.1098,-33.9125,387.8384],[-65.1201,-33.6315,479.534],[-65.1483,-33.2025,864.3271],[-65.1464,-33.1934,873.3789],[-65.1428,-33.1883,878.6207],[-65.1149,-33.1665,921.1837],[-65.1097,-33.1574,935.7211],[-65.0993,-33.1481,946.3475],[-65.0893,-33.1436,956.866],[-65.0828,-33.1493,951.8452],[-65.0712,-33.1516,970.0938],[-65.0599,-33.148,994.9762],[-65.0523,-33.14,1029.4174],[-65.0521,-33.1324,1019.645],[-65.0574,-33.1205,1036.5798],[-65.0571,-33.1103,1055.5502],[-65.0628,-33.0931,1061.397],[-65.054,-33.0798,1108.7633],[-65.0516,-33.0622,1111.3665],[-65.0481,-33.0579,1124.1608],[-65.0365,-33.0498,1190.553],[-65.0297,-33.0414,1235.6873],[-65.0233,-33.0252,1231.7048],[-65.2275,-32.996,908.0249],[-65.5828,-32.9964,902.5823],[-65.5863,-33.0206,890.7661],[-65.5916,-33.026,892.2627],[-65.6079,-33.0365,891.3444],[-65.6094,-33.0461,888.4935],[-65.5983,-33.0586,876.2254],[-65.5999,-33.0646,875.0437],[-65.6088,-33.0763,871.5563],[-65.6152,-33.0797,877.2595],[-65.6223,-33.0773,879.6547],[-65.6278,-33.0723,891.2322],[-65.6303,-33.058,900.0034],[-65.6599,-33.0499,914.4094],[-65.6639,-33.0511,910.8373],[-65.6674,-33.055,906.5029],[-65.6681,-33.0702,914.5996],[-65.6659,-33.0799,913.8284],[-65.6572,-33.087,898.8302],[-65.6379,-33.1107,863.1245],[-65.6343,-33.1197,856.9592],[-65.6326,-33.1291,853.4338],[-65.6331,-33.1388,849.4573],[-65.6351,-33.1431,846.5408],[-65.6488,-33.1642,834.6432],[-65.6623,-33.1797,830.9548],[-65.6662,-33.1885,829.7018],[-65.6678,-33.1981,827.8652],[-65.6657,-33.2219,809.621],[-65.6592,-33.2402,794.672],[-65.659,-33.2594,783.943],[-65.6514,-33.2824,769.4064],[-65.6503,-33.3015,758.6647],[-65.6448,-33.3151,751.5614],[-65.6455,-33.3293,743.1492],[-65.6516,-33.3478,728.9482],[-65.6531,-33.3573,723.4052],[-65.6526,-33.362,720.9831],[-65.6452,-33.3801,711.0162],[-65.6406,-33.423,682.2112],[-65.6406,-33.4469,666.6004],[-65.643,-33.4611,657.7181],[-65.6508,-33.4737,652.8881],[-65.6588,-33.4917,634.3437],[-65.6542,-33.5003,617.1243],[-65.6498,-33.5035,619.1997],[-65.6289,-33.5109,620.765],[-65.6202,-33.5171,616.1189],[-65.6183,-33.5217,596.782],[-65.604,-33.5294,592.8173],[-65.6011,-33.5334,589.1596],[-65.5987,-33.5428,596.2796],[-65.5975,-33.5571,592.3029],[-65.5958,-33.5617,590.057],[-65.5875,-33.5683,593.152],[-65.8303,-33.5697,660.0448],[-66.1155,-33.5679,759.7223],[-66.0626,-34.0229,584.351],[-66.0581,-34.1523,541.1669],[-66.0593,-34.3682,490.4142],[-66.0575,-34.6666,451.2728],[-65.1081,-34.6663,294.4619],[-65.1099,-33.9602,373.2542]]]]}}