{"type": "Feature","bbox": [-58.6695,-27.9542,-57.8363,-27.3838],"geometry": {"type": "MultiPolygon","coordinates": [[[[-57.8839,-27.4303,64.8483],[-57.9009,-27.4215,64.6871],[-57.9525,-27.403,66.0167],[-57.9839,-27.398,65.6482],[-58.0433,-27.3924,65.7244],[-58.0791,-27.3924,64.8058],[-58.1107,-27.396,62.0],[-58.1222,-27.399,63.1009],[-58.1506,-27.4118,62.4197],[-58.1621,-27.4145,62.4237],[-58.1815,-27.4267,61.7373],[-58.2209,-27.4323,63.5606],[-58.2523,-27.4282,60.8365],[-58.2865,-27.4187,60.9092],[-58.3101,-27.4162,60.2151],[-58.3303,-27.399,59.5759],[-58.3432,-27.3907,62.2815],[-58.3657,-27.3838,69.0253],[-58.3776,-27.3839,69.8323],[-58.3892,-27.3867,60.0769],[-58.4046,-27.3974,58.935],[-58.4165,-27.3987,57.718],[-58.4444,-27.398,57.1818],[-58.4557,-27.4014,56.6762],[-58.4818,-27.4176,59.0784],[-58.4824,-27.4246,56.2985],[-58.4783,-27.4456,64.4278],[-58.481,-27.4559,55.4212],[-58.4986,-27.4704,58.5119],[-58.5118,-27.4781,57.3117],[-58.519,-27.4812,64.3396],[-58.5468,-27.4819,62.7042],[-58.5568,-27.4878,59.1213],[-58.5745,-27.5021,55.9295],[-58.5888,-27.5082,55.2297],[-58.6085,-27.5081,53.8857],[-58.6145,-27.5034,56.1886],[-58.6223,-27.5027,60.0035],[-58.6247,-27.5006,57.8011],[-58.6357,-27.5038,60.6908],[-58.6407,-27.5093,57.8624],[-58.6469,-27.5444,55.0454],[-58.6646,-27.584,59.7717],[-58.6695,-27.6013,59.6537],[-58.6643,-27.6066,63.9419],[-58.6499,-27.6121,59.9012],[-58.6383,-27.6148,60.7996],[-58.6183,-27.615,62.9484],[-58.6146,-27.6162,65.1693],[-58.6093,-27.6214,60.5093],[-58.6061,-27.6353,60.4076],[-58.5958,-27.6458,61.8249],[-58.5933,-27.6524,62.1123],[-58.5943,-27.6702,61.0025],[-58.6014,-27.7053,63.6837],[-58.5519,-27.7002,63.3139],[-58.5524,-27.7122,62.2893],[-58.5001,-27.7256,61.43],[-58.504,-27.749,61.3539],[-58.4932,-27.7539,64.5512],[-58.4776,-27.7531,68.0731],[-58.4552,-27.7472,61.5521],[-58.457,-27.7756,66.9094],[-58.4458,-27.7788,67.9761],[-58.4342,-27.777,63.6461],[-58.4225,-27.7785,61.6886],[-58.4114,-27.7746,64.3951],[-58.4009,-27.7785,68.6939],[-58.3942,-27.7761,68.5295],[-58.4086,-27.8526,64.1405],[-58.3494,-27.8644,64.2819],[-58.3447,-27.8584,64.2295],[-58.3279,-27.8609,64.3605],[-58.3299,-27.8699,68.0893],[-58.3222,-27.8724,64.4508],[-58.3216,-27.8984,64.2403],[-58.2925,-27.9542,64.1445],[-58.2833,-27.9473,64.293],[-58.2662,-27.938,64.4793],[-58.2375,-27.9253,65.0761],[-58.2112,-27.9167,63.5],[-58.188,-27.9028,64.9253],[-58.181,-27.8942,64.9773],[-58.1749,-27.8896,65.1134],[-58.1628,-27.8711,65.2785],[-58.1589,-27.8574,65.0565],[-58.1584,-27.8431,65.4023],[-58.1598,-27.829,65.1625],[-58.165,-27.8163,64.8608],[-58.1796,-27.8226,65.1187],[-58.21,-27.8313,65.6701],[-58.2258,-27.8328,66.6145],[-58.2573,-27.8177,64.8661],[-58.2731,-27.8016,63.8454],[-58.2826,-27.7951,63.99],[-58.298,-27.7912,62.1017],[-58.3023,-27.7855,62.9894],[-58.3031,-27.782,63.0306],[-58.3016,-27.7789,63.1638],[-58.2858,-27.7681,64.0682],[-58.2387,-27.7604,62.7314],[-58.2093,-27.7492,63.6648],[-58.1691,-27.7199,63.9384],[-58.137,-27.6933,64.1849],[-58.0936,-27.6678,64.5078],[-58.079,-27.6621,64.4941],[-58.0591,-27.6603,64.7326],[-58.0476,-27.6576,64.8574],[-58.0366,-27.6533,64.9126],[-58.0163,-27.6419,64.8695],[-57.9888,-27.6384,65.17],[-57.9686,-27.6213,65.1973],[-57.9531,-27.6185,65.2629],[-57.9428,-27.6132,65.5022],[-57.9298,-27.5953,65.5272],[-57.9239,-27.571,65.5714],[-57.9195,-27.5611,65.8648],[-57.9144,-27.5556,65.6151],[-57.8806,-27.5307,65.3796],[-57.8488,-27.4855,65.2347],[-57.8378,-27.4667,71.4275],[-57.8363,-27.4611,64.9356],[-57.8497,-27.4546,65.1021],[-57.8722,-27.4399,64.7659],[-57.8839,-27.4303,64.8483]]]]}
,"properties": {"GID_2": "ARG.7.20_1","GID_0": "ARG","country": "Argentina","GID_1": "ARG.7_1","state": "Corrientes","NL_NAME_1": "NA","county": "SanLuisdelPalmar","VARNAME_2": "SanLuisdelPal","NL_NAME_2": "NA","TYPE_2": "Departamento","ENGTYPE_2": "Department","CC_2": "NA","HASC_2": "AR.CN.SP","name": "SanLuisdelPalmar.county","area_km2": 2615.585,"hist_schema_id": "Elevation0-9000","hist_area_km2": {"50": 729.223,"75": 1886.362}}}