{"type":"Feature","properties":{"GID_2":"ARG.1.45_1","GID_0":"ARG","country":"Argentina","GID_1":"ARG.1_1","state":"BuenosAires","NL_NAME_1":"NA","county":"GeneralGuido","VARNAME_2":"NA","NL_NAME_2":"NA","TYPE_2":"Partido","ENGTYPE_2":"Part","CC_2":"NA","HASC_2":"AR.BA.GG","name":"GeneralGuido.county"},
"geometry":{"type": "MultiPolygon","coordinates": [[[[-57.9435,-37.0122,22.0722],[-58.0088,-36.9632,23.3722],[-57.947,-36.904,18.5978],[-57.9739,-36.8847,19.4242],[-57.9224,-36.8394,16.7259],[-57.8965,-36.8578,15.4851],[-57.8006,-36.7738,8.4457],[-57.7974,-36.7758,7.7024],[-57.7545,-36.7378,8.6569],[-57.7159,-36.7671,9.1564],[-57.6662,-36.7241,8.1084],[-57.782,-36.6368,9.2099],[-57.768,-36.6255,8.9108],[-57.8529,-36.5555,9.3418],[-57.7832,-36.4945,7.9935],[-57.8182,-36.4669,9.982],[-57.801,-36.4514,9.364],[-57.7965,-36.4536,16.2152],[-57.7803,-36.4401,8.7217],[-57.994,-36.2803,8.6795],[-58.1949,-36.4563,16.4738],[-58.1036,-36.5262,16.6944],[-58.1279,-36.5368,17.2966],[-58.232,-36.6317,23.2301],[-58.1583,-36.6951,23.3333],[-58.1216,-36.7354,21.9756],[-58.1561,-36.7664,25.1777],[-58.1607,-36.7644,25.4186],[-58.2027,-36.8007,30.588],[-58.1999,-36.8038,30.2708],[-58.2889,-36.884,40.4917],[-58.1207,-37.0093,34.6835],[-58.0188,-37.0803,30.5754],[-57.9435,-37.0122,22.0722]]]]}}