{"type": "Feature","bbox": [-58.6073,-34.4923,-58.5198,-34.4303],"geometry": {"type": "MultiPolygon","coordinates": [[[[-58.5198,-34.4538,5.4648],[-58.5344,-34.4466,18.5226],[-58.5388,-34.4434,5.5429],[-58.5419,-34.4385,9.1213],[-58.5518,-34.4357,2.8272],[-58.5591,-34.4303,6.2304],[-58.5621,-34.4365,11.7044],[-58.581,-34.4506,3.2077],[-58.596,-34.4541,2.2428],[-58.5945,-34.4579,2.2888],[-58.5957,-34.4658,4.5082],[-58.5995,-34.4691,4.495],[-58.6011,-34.4745,4.2823],[-58.5993,-34.4772,3.8155],[-58.6031,-34.484,5.3675],[-58.6073,-34.4862,6.4722],[-58.6004,-34.4905,3.2844],[-58.5999,-34.4923,5.4743],[-58.5946,-34.4923,5.3848],[-58.5791,-34.4816,14.3303],[-58.5198,-34.4538,5.4648]]]]}
,"properties": {"GID_2": "ARG.1.109_1","GID_0": "ARG","country": "Argentina","GID_1": "ARG.1_1","state": "BuenosAires","NL_NAME_1": "NA","county": "SanFernando(2)","VARNAME_2": "NA","NL_NAME_2": "NA","TYPE_2": "Partido","ENGTYPE_2": "Part","CC_2": "NA","HASC_2": "AR.BA.SF","name": "SanFernando(2).county","area_km2": 22.91827,"hist_schema_id": "Elevation0-9000","hist_area_km2": {"0": 18.04084,"25": 4.87744}}}