{"type": "Feature","bbox": [-71.2293,-41.5507,-69.7761,-39.8829],"geometry": {"type": "MultiPolygon","coordinates": [[[[-70.5447,-40.5102,589.0],[-70.5515,-40.5197,589.0],[-70.5603,-40.5261,589.0],[-70.5996,-40.5385,589.0],[-70.6106,-40.5462,589.0],[-70.6264,-40.553,589.0],[-70.6418,-40.5673,590.4252],[-70.6539,-40.5834,589.0],[-70.6633,-40.5889,589.0],[-70.6872,-40.593,589.0],[-70.7024,-40.5926,589.0],[-70.7139,-40.5965,599.7378],[-70.7176,-40.5944,604.7296],[-70.7205,-40.5872,590.691],[-70.7228,-40.5858,589.0],[-70.731,-40.5826,619.8318],[-70.737,-40.5824,601.5119],[-70.7571,-40.5876,699.5],[-70.7719,-40.585,706.2153],[-70.781,-40.5857,699.5],[-70.8202,-40.5983,699.5],[-70.8565,-40.5994,699.5],[-70.8713,-40.6029,699.5],[-70.8759,-40.6054,699.5],[-70.8766,-40.6102,699.5],[-70.8744,-40.6172,699.5],[-70.8784,-40.6194,699.5],[-70.9064,-40.6205,699.5],[-70.9145,-40.6271,699.5],[-70.9349,-40.6372,699.5],[-70.9527,-40.639,699.5],[-70.9735,-40.6487,699.5],[-70.9782,-40.6474,699.5],[-70.9843,-40.6484,699.5],[-70.9966,-40.6667,699.5],[-71.0032,-40.6715,699.5],[-71.0124,-40.6739,699.5],[-71.0151,-40.677,699.5],[-71.0136,-40.6866,699.5],[-71.0188,-40.6921,701.139],[-71.0192,-40.6992,713.7422],[-71.028,-40.7081,748.2455],[-71.0321,-40.7193,740.3717],[-71.0368,-40.7253,699.5],[-71.048,-40.7286,699.5],[-71.0599,-40.7269,699.5],[-71.0718,-40.7287,699.5],[-71.083,-40.7249,713.7979],[-71.0889,-40.7247,699.5],[-71.0937,-40.7278,713.0733],[-71.1032,-40.747,700.1492],[-71.118,-40.7587,699.7772],[-71.1197,-40.7769,718.0535],[-71.112799999999993,-40.7922,792.3248],[-71.1137,-40.7993,827.1192],[-71.0951,-40.8142,838.5906],[-71.0899,-40.8225,728.1074],[-71.091,-40.8272,714.7701],[-71.0974,-40.8321,714.8237],[-71.0976,-40.8343,719.0516],[-71.0781,-40.8456,906.4573],[-71.0744,-40.8421,1016.4657],[-71.0718,-40.8425,1000.3802],[-71.0635,-40.8462,915.9125],[-71.0571,-40.8512,793.7321],[-71.0537,-40.8551,785.9958],[-71.052,-40.862,865.5447],[-71.0414,-40.8699,781.4559],[-71.0417,-40.8747,809.4361],[-71.0337,-40.884,913.7368],[-71.0272,-40.9042,782.6695],[-71.0365,-40.9312,744.1442],[-71.0431,-40.9417,761.6674],[-71.0389,-40.9549,855.7509],[-71.0548,-40.9621,746.9974],[-71.0612,-40.9777,749.9497],[-71.0759,-40.9774,752.9086],[-71.1015,-40.9869,817.8856],[-71.1037,-40.9894,807.8883],[-71.0946,-40.9929,756.8889],[-71.0923,-40.9961,755.4613],[-71.0932,-40.9986,757.5132],[-71.1067,-41.008,770.5482],[-71.1199,-41.0134,767.7981],[-71.1234,-41.02,768.6466],[-71.1307,-41.0276,779.5041],[-71.1284,-41.0388,780.0602],[-71.1315,-41.0454,795.4741],[-71.1414,-41.0509,806.9567],[-71.1595,-41.0533,768.0],[-71.1786,-41.0607,768.0],[-71.2251,-41.0896,768.0],[-71.2133,-41.0907,768.0],[-71.1837,-41.088,771.41],[-71.1692,-41.0906,777.7422],[-71.1547,-41.0883,802.2853],[-71.1514,-41.0919,820.0807],[-71.1465,-41.105,795.6393],[-71.1399,-41.1095,795.8571],[-71.1361,-41.1156,800.9304],[-71.1308,-41.1177,847.9037],[-71.1255,-41.1231,808.3172],[-71.1206,-41.136,817.2183],[-71.1218,-41.1427,822.1289],[-71.1262,-41.1512,829.6315],[-71.135,-41.1603,841.6262],[-71.1482,-41.1694,855.075],[-71.1601,-41.1877,901.0923],[-71.1625,-41.1965,894.473],[-71.1635,-41.2146,925.1409],[-71.172,-41.2339,1048.4958],[-71.1845,-41.2493,962.9179],[-71.1964,-41.2724,1143.9753],[-71.2042,-41.2793,1116.2858],[-71.2136,-41.2848,1147.6831],[-71.2167,-41.2912,1267.762],[-71.2171,-41.3025,1337.9102],[-71.2135,-41.3086,1343.0992],[-71.2092,-41.3118,1326.4486],[-71.1953,-41.316,1313.5415],[-71.1859,-41.3215,1225.4849],[-71.185,-41.3237,1290.1782],[-71.1866,-41.3305,1344.783],[-71.1906,-41.3334,1359.9644],[-71.2022,-41.3363,1421.0509],[-71.2202,-41.3381,1760.7501],[-71.2293,-41.392,1975.8972],[-71.226,-41.507,2071.447],[-71.0294,-41.5507,1405.6914],[-70.9212,-41.4316,1074.0779],[-70.8091,-41.5236,1271.519],[-70.6942,-41.4424,996.0012],[-70.6186,-41.4144,1406.2478],[-70.2672,-41.4143,1901.0051],[-69.9618,-41.1279,1246.8169],[-70.1781,-41.0248,1132.7316],[-69.903,-40.8721,1330.7479],[-69.8187,-40.6605,1321.3438],[-69.7761,-40.0001,758.5005],[-69.7773,-39.8829,435.3421],[-69.7903,-39.8866,434.3393],[-69.8018,-39.8929,431.5309],[-69.818,-39.8987,433.2776],[-69.8645,-39.9078,442.2706],[-69.8702,-39.9111,443.2205],[-69.8879,-39.9285,444.8576],[-69.8988,-39.9356,446.9423],[-69.9113,-39.9407,446.899],[-69.9254,-39.9424,446.1064],[-69.9373,-39.9485,450.6133],[-69.9738,-39.9856,451.0769],[-69.9765,-39.9907,456.2919],[-69.9733,-39.9988,504.8821],[-69.9775,-40.0049,478.6797],[-69.9972,-40.0223,476.5],[-70.0046,-40.0492,476.5],[-69.9978,-40.0692,476.5],[-69.9963,-40.0876,476.5],[-69.9925,-40.1081,476.5],[-69.9865,-40.1129,476.5],[-69.9693,-40.1167,476.5],[-69.9646,-40.1226,476.5],[-69.9642,-40.1272,479.16],[-69.9678,-40.1407,476.5],[-69.9563,-40.1568,476.5],[-69.953,-40.1704,476.5],[-69.9544,-40.1795,476.5],[-69.9591,-40.182,476.5],[-69.9651,-40.182,477.2353],[-69.9887,-40.1788,481.8225],[-69.9948,-40.1917,589.0],[-70.0021,-40.2017,589.0],[-70.0094,-40.2056,589.0],[-70.0238,-40.2085,589.0],[-70.0331,-40.2229,589.0],[-70.0615,-40.2464,589.0],[-70.0625,-40.251,589.0],[-70.0468,-40.2618,589.0],[-70.0433,-40.2681,589.0],[-70.0427,-40.2727,589.0],[-70.0455,-40.3025,589.0],[-70.0492,-40.3113,589.0],[-70.061,-40.3214,589.0],[-70.0628,-40.3445,589.0],[-70.0615,-40.3698,589.0],[-70.0688,-40.3798,589.0],[-70.0962,-40.398,589.0],[-70.1394,-40.4142,589.0],[-70.1571,-40.4144,589.0],[-70.1812,-40.4234,589.0],[-70.1817,-40.4259,589.0],[-70.1855,-40.4281,589.0],[-70.1859,-40.4374,589.0],[-70.176,-40.4567,589.0],[-70.1721,-40.4702,589.0],[-70.172,-40.4794,589.0],[-70.1886,-40.4893,589.0],[-70.2185,-40.4928,589.0],[-70.2394,-40.5018,589.0],[-70.2513,-40.5029,589.0],[-70.2672,-40.4964,589.0],[-70.2793,-40.4964,589.0],[-70.3144,-40.5097,589.0],[-70.3384,-40.5097,589.0],[-70.3747,-40.5207,589.0],[-70.3818,-40.525,589.0],[-70.4052,-40.5293,589.0],[-70.4207,-40.5365,589.0],[-70.4262,-40.5353,589.0],[-70.4332,-40.5253,589.0],[-70.4443,-40.5217,589.0],[-70.4581,-40.5128,599.8317],[-70.4663,-40.5099,589.0],[-70.4841,-40.5111,589.0],[-70.4859,-40.5091,589.0],[-70.5009,-40.508,589.0],[-70.5245,-40.5036,589.0],[-70.5447,-40.5102,589.0]]]]}
,"properties": {"GID_2": "ARG.16.10_1","GID_0": "ARG","country": "Argentina","GID_1": "ARG.16_1","state": "RíoNegro","NL_NAME_1": "NA","county": "Pilcaniyeu","VARNAME_2": "NA","NL_NAME_2": "NA","TYPE_2": "Departamento","ENGTYPE_2": "Department","CC_2": "NA","HASC_2": "AR.RN.PI","name": "Pilcaniyeu.county","area_km2": 10901.563,"hist_schema_id": "Elevation0-9000","hist_area_km2": {"425": 2.277,"450": 21.652,"475": 16.086,"500": 18.222,"525": 29.429,"550": 24.908,"575": 22.159,"600": 224.316,"625": 96.824,"650": 111.18,"675": 122.394,"700": 211.367,"725": 206.191,"750": 219.173,"775": 239.28,"800": 237.973,"825": 285.701,"850": 291.743,"875": 303.182,"900": 312.442,"925": 333.65,"950": 341.46,"975": 399.101,"1000": 455.142,"1025": 505.066,"1050": 548.761,"1075": 559.335,"1100": 566.658,"1125": 565.81,"1150": 527.266,"1175": 496.614,"1200": 461.851,"1225": 420.02,"1250": 384.906,"1275": 323.858,"1300": 277.204,"1325": 207.216,"1350": 132.135,"1375": 84.145,"1400": 59.189,"1425": 44.549,"1450": 30.456,"1475": 23.152,"1500": 19.816,"1525": 16.957,"1550": 13.792,"1575": 12.083,"1600": 11.158,"1625": 10.282,"1650": 9.756,"1675": 9.406,"1700": 8.404,"1725": 8.277,"1750": 6.609,"1775": 5.608,"1800": 5.132,"1825": 4.814,"1850": 3.67,"1875": 3.114,"1900": 2.399,"1925": 1.907,"1950": 1.573,"1975": 1.144,"2000": 0.556,"2025": 0.381,"2050": 0.159,"2075": 0.127}}}