{"type":"Feature","properties":{"GID_2":"ARG.1.122_1","GID_0":"ARG","country":"Argentina","GID_1":"ARG.1_1","state":"BuenosAires","NL_NAME_1":"NA","county":"TresdeFebrero","VARNAME_2":"Caseros","NL_NAME_2":"NA","TYPE_2":"Partido","ENGTYPE_2":"Part","CC_2":"NA","HASC_2":"AR.BA.TF","name":"TresdeFebrero.county"},
"geometry":{"type": "MultiPolygon","coordinates": [[[[-58.6193,-34.5519,5.4933],[-58.6213,-34.5505,4.1872],[-58.6268,-34.5518,6.8383],[-58.6307,-34.5546,7.2844],[-58.631,-34.557,5.9389],[-58.6396,-34.5607,5.7758],[-58.6467,-34.568,7.1556],[-58.593,-34.6124,25.0799],[-58.589,-34.6105,29.1721],[-58.5729,-34.6329,26.6304],[-58.5673,-34.6301,26.6745],[-58.5289,-34.6595,28.1947],[-58.5313,-34.6195,26.6656],[-58.523,-34.6019,28.7378],[-58.5621,-34.5963,30.7959],[-58.6193,-34.5519,5.4933]]]]}}