{"type":"Feature","properties":{"GID_2":"ARG.1.121_1","GID_0":"ARG","country":"Argentina","GID_1":"ARG.1_1","state":"BuenosAires","NL_NAME_1":"NA","county":"TresArroyos","VARNAME_2":"NA","NL_NAME_2":"NA","TYPE_2":"Partido","ENGTYPE_2":"Part","CC_2":"NA","HASC_2":"AR.BA.TA","name":"TresArroyos.county"},
"geometry":{"type": "MultiPolygon","coordinates": [[[[-60.6834,-38.0953,162.7893],[-60.7013,-38.1113,160.4929],[-60.7084,-38.1138,160.4166],[-60.7221,-38.115,160.1932],[-60.7294,-38.1224,159.6936],[-60.7318,-38.1317,158.2494],[-60.7333,-38.1388,157.4173],[-60.7326,-38.1436,156.0396],[-60.7293,-38.1503,155.0502],[-60.7244,-38.1534,153.9735],[-60.7251,-38.1719,152.1766],[-60.7305,-38.1895,150.1111],[-60.7271,-38.1964,148.7182],[-60.7206,-38.2036,147.466],[-60.7172,-38.2191,145.6719],[-60.7228,-38.2219,145.3645],[-60.7312,-38.2202,145.2315],[-60.741,-38.2208,146.3343],[-60.7491,-38.2268,144.6601],[-60.7501,-38.2355,143.556],[-60.7458,-38.2479,140.9543],[-60.7491,-38.2687,137.8847],[-60.7388,-38.2889,132.3944],[-60.7403,-38.3185,129.5545],[-60.7445,-38.3257,128.0599],[-60.7402,-38.3327,126.1352],[-60.738,-38.34,124.4567],[-60.7419,-38.3466,123.0283],[-60.7446,-38.3689,119.0289],[-60.7108,-38.3983,111.3723],[-60.7013,-38.4021,111.7999],[-60.6878,-38.4177,109.2496],[-60.6854,-38.4256,105.6777],[-60.6785,-38.4316,105.2481],[-60.67,-38.4374,101.209],[-60.6564,-38.4426,102.3889],[-60.6472,-38.4501,98.7454],[-60.6338,-38.466,98.2593],[-60.6219,-38.4707,95.5827],[-60.624,-38.4793,94.9062],[-60.6205,-38.4824,95.2235],[-60.6185,-38.4913,93.5517],[-60.6045,-38.5211,87.2498],[-60.6025,-38.5409,84.489],[-60.598,-38.5493,82.3564],[-60.5966,-38.5597,79.9287],[-60.598,-38.5699,78.1482],[-60.6096,-38.5844,75.6917],[-60.6183,-38.5902,74.7402],[-60.6159,-38.6011,80.3312],[-60.6152,-38.625,68.4393],[-60.6076,-38.6302,66.9735],[-60.6062,-38.6367,62.0343],[-60.5945,-38.6589,52.2429],[-60.5939,-38.6698,54.0358],[-60.5883,-38.677,48.4647],[-60.5839,-38.6871,45.9492],[-60.5835,-38.6984,47.5636],[-60.5778,-38.7158,41.2254],[-60.5802,-38.7274,41.4012],[-60.5686,-38.743,29.5041],[-60.56,-38.7771,20.7554],[-60.5532,-38.7898,29.8556],[-60.5476,-38.7965,23.6564],[-60.5471,-38.8062,26.182],[-60.5367,-38.8329,11.6364],[-60.5401,-38.8368,22.8424],[-60.5402,-38.8439,25.32],[-60.5314,-38.8696,7.6736],[-60.5244,-38.8826,9.6672],[-60.5263,-38.8874,10.6863],[-60.525,-38.8925,9.0567],[-60.5304,-38.906,8.0189],[-60.5303,-38.9127,0.8856],[-60.5168,-38.9211,0.9702],[-60.5101,-38.9226,1.8846],[-60.5088,-38.9285,0.0],[-60.5004,-38.9296,0.0],[-60.4268,-38.9207,0.0],[-60.2718,-38.8896,0.0],[-60.2146,-38.8815,0.0],[-60.1968,-38.8776,0.9078],[-60.1732,-38.8774,0.6234],[-60.1735,-38.8763,0.6234],[-60.1674,-38.8749,2.379],[-60.1362,-38.869,5.2751],[-60.0957,-38.8629,8.5869],[-60.0415,-38.859,2.1833],[-60.0146,-38.8554,0.8521],[-59.9985,-38.8554,0.0],[-59.8676,-38.8385,0.5521],[-59.854,-38.8382,0.0],[-59.8518,-38.8363,0.049],[-59.8365,-38.8324,0.3863],[-59.7804,-38.8254,0.0],[-59.7782,-38.8235,0.1763],[-59.7529,-38.8157,0.7609],[-59.7468,-38.8121,4.4133],[-59.7424,-38.8126,2.4588],[-59.7357,-38.8093,7.0463],[-59.7113,-38.8029,1.6827],[-59.6785,-38.7954,-0.3552],[-59.649,-38.7918,0.0],[-59.6325,-38.7876,-1.7267],[-59.627,-38.7763,10.0835],[-59.6265,-38.771,13.5892],[-59.6297,-38.7676,14.5956],[-59.63,-38.7642,16.2329],[-59.6255,-38.7591,13.5951],[-59.6234,-38.7524,14.0088],[-59.6248,-38.7472,13.0],[-59.6267,-38.7446,13.496],[-59.6459,-38.7412,17.791],[-59.6481,-38.7375,17.6709],[-59.6484,-38.7259,18.1288],[-59.6522,-38.7226,18.7366],[-59.6509,-38.7175,19.7658],[-59.6527,-38.706,23.7099],[-59.6586,-38.6993,22.9249],[-59.6714,-38.695,26.3873],[-59.6807,-38.6862,29.8095],[-59.6858,-38.6854,29.6183],[-59.6873,-38.6749,28.6476],[-59.6965,-38.6626,30.7178],[-59.6978,-38.6576,31.0387],[-59.6948,-38.6551,30.9016],[-59.6904,-38.6459,32.425],[-59.6929,-38.63,34.2018],[-59.6938,-38.6268,34.71],[-59.698,-38.6239,35.7123],[-59.701,-38.6176,41.5864],[-59.6994,-38.614,37.3826],[-59.7131,-38.5929,40.8961],[-59.7134,-38.587,41.1747],[-59.7111,-38.5786,42.9819],[-59.7143,-38.5757,43.1877],[-59.7155,-38.5667,43.6396],[-59.7189,-38.5636,44.6587],[-59.72,-38.5582,45.1003],[-59.723,-38.5557,45.7957],[-59.7304,-38.536,49.0737],[-59.7309,-38.5249,51.02],[-59.7268,-38.5065,55.5969],[-59.7312,-38.4896,58.1686],[-59.7686,-38.5189,55.299],[-59.8245,-38.4786,67.5963],[-59.8867,-38.5302,56.9497],[-59.9351,-38.4952,69.1423],[-59.8714,-38.4427,80.3117],[-59.931399999999996,-38.3968,95.7032],[-59.9449,-38.4137,93.0818],[-59.9982,-38.3733,115.0038],[-59.9404,-38.3314,114.9259],[-59.8318,-38.2488,123.8366],[-59.8334,-38.2457,124.7037],[-59.8327,-38.242,123.7253],[-59.8436,-38.2249,130.161],[-59.8415,-38.2219,129.6209],[-59.8516,-38.205,137.7808],[-59.8597,-38.2002,140.5264],[-59.8778,-38.1774,146.9641],[-59.8816,-38.1681,149.9661],[-59.8887,-38.1608,151.0449],[-59.9174,-38.1825,155.0686],[-60.0318,-38.2805,132.7268],[-60.3753,-38.0156,177.1054],[-60.4708,-38.0895,177.3161],[-60.4505,-38.106,165.6094],[-60.5604,-38.1923,174.9767],[-60.6834,-38.0953,162.7893]]]]}}