{"type":"Feature","properties":{"GID_2":"ARG.17.10_1","GID_0":"ARG","country":"Argentina","GID_1":"ARG.17_1","state":"Salta","NL_NAME_1":"NA","county":"Iruya","VARNAME_2":"NA","NL_NAME_2":"NA","TYPE_2":"Departamento","ENGTYPE_2":"Department","CC_2":"NA","HASC_2":"AR.SA.IR","name":"Iruya.county"},
"geometry":{"type": "MultiPolygon","coordinates": [[[[-65.3369,-22.5951,4500.4941],[-65.3264,-22.5996,4548.8384],[-65.3092,-22.6011,4677.6611],[-65.302,-22.6096,4461.7388],[-65.3001,-22.6202,4541.7046],[-65.2973,-22.6251,4617.8574],[-65.269,-22.6303,4657.6621],[-65.2664,-22.6348,4810.4985],[-65.2671,-22.651,4717.543],[-65.2819,-22.6743,4593.4199],[-65.2881,-22.6895,4484.7881],[-65.2895,-22.6948,4350.1846],[-65.2903,-22.7218,4548.4365],[-65.2899,-22.7327,4378.3906],[-65.2873,-22.7432,4268.4199],[-65.2664,-22.7884,4142.0576],[-65.2652,-22.8096,3899.0408],[-65.2683,-22.831,4009.6782],[-65.2642,-22.8413,3986.1179],[-65.2606,-22.8453,3931.6116],[-65.2499,-22.8499,3745.9202],[-65.2467,-22.8545,3828.8809],[-65.25,-22.8644,3657.345],[-65.2499,-22.8699,3681.948],[-65.244,-22.8793,3786.4993],[-65.2425,-22.8888,3772.7231],[-65.2398,-22.8881,3735.6763],[-65.2418,-22.8975,3798.5315],[-65.2428,-22.9301,4031.374],[-65.2225,-22.9564,4432.3877],[-65.1838,-22.9808,4631.2754],[-65.173,-22.9844,4574.5786],[-65.1554,-22.9836,4443.168],[-65.144,-22.9862,4293.6455],[-65.1323,-22.9868,4510.0117],[-65.1033,-22.9862,3650.4351],[-65.0697,-22.9952,3869.75],[-65.0403,-22.9928,3532.8208],[-65.0349,-22.9939,3822.1628],[-65.0273,-23.002,4252.0342],[-65.0175,-22.9969,4221.688],[-65.0114,-22.9963,4283.3989],[-65.0055,-22.9983,4411.062],[-64.9958,-23.0054,3934.1211],[-64.9926,-23.0103,4245.0215],[-64.987,-23.0128,4042.645],[-64.9809,-23.0132,3573.9839],[-64.9627,-23.0096,3042.4189],[-64.9509,-23.0128,2627.5493],[-64.9349,-23.004,2521.1499],[-64.9124,-23.0132,2605.6646],[-64.8993,-23.0254,2061.3477],[-64.8892,-23.0319,1978.554],[-64.8767,-23.0309,2096.3008],[-64.8345,-23.0219,1501.7767],[-64.8233,-23.0267,1548.4691],[-64.7968,-23.0419,1448.9984],[-64.7908,-23.0417,1426.9347],[-64.7485,-23.032,1106.2222],[-64.7426,-23.0327,1175.8438],[-64.7206,-23.0434,1122.2919],[-64.7143,-23.0436,1168.4136],[-64.7087,-23.0414,1220.719],[-64.6947,-23.03,1168.2491],[-64.6652,-23.0206,1195.6383],[-64.6601,-23.0229,1123.7245],[-64.6573,-23.0281,1054.635],[-64.6516,-23.0503,895.184],[-64.6398,-23.0636,770.151],[-64.6342,-23.066,750.0504],[-64.616,-23.0696,669.9142],[-64.5726,-23.0712,583.0635],[-64.561,-23.0663,570.0088],[-64.5574,-23.0624,592.1244],[-64.5528,-23.005,632.9228],[-64.549,-22.994,704.4192],[-64.5473,-22.9769,722.103],[-64.5371,-22.956,853.33],[-64.5344,-22.9393,656.6461],[-64.5378,-22.9283,732.9315],[-64.551,-22.9084,684.2422],[-64.5505,-22.9039,674.587],[-64.5238,-22.8887,734.8026],[-64.5146,-22.881,632.1221],[-64.5057,-22.8416,548.4562],[-64.5128,-22.8324,523.8469],[-64.5146,-22.8269,477.3939],[-64.514,-22.8211,495.3786],[-64.5276,-22.8021,564.7157],[-64.526,-22.785,645.8479],[-64.5208,-22.7685,537.6148],[-64.5208,-22.7627,529.0267],[-64.5232,-22.7514,526.6019],[-64.5237,-22.7285,699.2039],[-64.5282,-22.7119,749.0049],[-64.5425,-22.6933,760.9277],[-64.566,-22.6746,915.3456],[-64.5686,-22.6695,1142.3379],[-64.5687,-22.6638,1018.3258],[-64.5659,-22.6545,1427.782],[-64.5716,-22.6562,1313.2592],[-64.5899,-22.6533,840.3479],[-64.596,-22.6539,754.3303],[-64.6064,-22.66,779.1976],[-64.6178,-22.6563,749.9436],[-64.6239,-22.6566,807.5618],[-64.6393,-22.6471,831.4971],[-64.6735,-22.6609,801.6313],[-64.6834,-22.6678,985.7885],[-64.6929,-22.6825,859.7374],[-64.6974,-22.6993,808.4067],[-64.7084,-22.7132,915.0235],[-64.725,-22.7212,957.3257],[-64.7309,-22.7206,980.6811],[-64.7365,-22.7178,1051.3667],[-64.7406,-22.7134,1163.5143],[-64.7425,-22.7079,1377.0337],[-64.7352,-22.6741,1759.6858],[-64.7321,-22.6513,1890.8009],[-64.7321,-22.6455,1628.9968],[-64.7374,-22.629,1154.7231],[-64.7607,-22.5884,1079.0736],[-64.7765,-22.571,1407.9918],[-64.7912,-22.5606,1301.209],[-64.7934,-22.5552,1294.5498],[-64.7921,-22.5264,1729.9587],[-64.7936,-22.5211,1753.291],[-64.8019,-22.5124,1684.8567],[-64.8109,-22.4973,2032.6757],[-64.832,-22.4689,1882.8391],[-64.8435,-22.4651,2160.9517],[-64.8496,-22.4664,2388.8516],[-64.8535,-22.4707,2445.8257],[-64.8576,-22.4816,2351.6746],[-64.8544,-22.5044,1930.553],[-64.8363,-22.5471,1705.4751],[-64.8372,-22.5585,1388.7676],[-64.8427,-22.5751,1816.2732],[-64.8454,-22.5803,1793.0039],[-64.8552,-22.587,1692.0227],[-64.8736,-22.5898,2042.834],[-64.8921,-22.5887,2361.2891],[-64.9415,-22.5921,2966.2754],[-64.9659,-22.596,2968.1997],[-64.9968,-22.5961,2986.498],[-65.0124,-22.5868,3030.4819],[-65.0294,-22.5796,3133.7253],[-65.0517,-22.5598,3925.7158],[-65.0573,-22.5576,4184.7876],[-65.07,-22.5574,4482.4731],[-65.0753,-22.5597,4252.7861],[-65.0793,-22.5642,4246.1812],[-65.0869,-22.58,4471.9219],[-65.0906,-22.5847,4006.9409],[-65.0956,-22.5878,3785.3611],[-65.1075,-22.5916,3570.3047],[-65.1259,-22.5902,3032.1743],[-65.144,-22.5862,2861.8215],[-65.1614,-22.5803,3286.3003],[-65.1676,-22.5803,3522.2603],[-65.205,-22.56,3827.3044],[-65.257,-22.5416,4108.3076],[-65.2675,-22.5355,3621.8],[-65.2769,-22.5206,4010.5469],[-65.2994,-22.5111,4352.9214],[-65.3116,-22.5094,4167.3784],[-65.3175,-22.5108,4405.0322],[-65.3334,-22.5199,4566.9473],[-65.3389,-22.5157,4885.7231],[-65.3325,-22.5369,4471.959],[-65.3335,-22.5585,4004.7979],[-65.3396,-22.5903,4456.9409],[-65.3369,-22.5951,4500.4941]]]]}}