{"type": "Feature","bbox": [-67.9906,-30.5313,-66.8472,-29.656],"geometry": {"type": "MultiPolygon","coordinates": [[[[-66.9762,-29.819,972.4485],[-67.5368,-29.7861,2302.0601],[-67.6125,-29.656,2825.9172],[-67.6791,-29.6998,2009.675],[-67.7235,-29.7263,1714.4854],[-67.817,-29.8013,1548.0088],[-67.8426,-29.8272,1473.7603],[-67.8574,-29.8383,1341.5411],[-67.8945,-29.8723,1298.481],[-67.9403,-29.9224,1398.02],[-67.9598,-29.9469,1625.9893],[-67.9906,-29.9778,1863.1877],[-67.9827,-29.981,1801.1503],[-67.9706,-29.9824,1751.6982],[-67.9491,-30.0066,1674.735],[-67.895,-30.0518,1563.0347],[-67.8719,-30.0685,1502.4235],[-67.855,-30.0736,1456.7983],[-67.8344,-30.0843,1431.7325],[-67.806,-30.0935,1423.1278],[-67.8024,-30.0971,1412.4263],[-67.8009,-30.1129,1387.7788],[-67.7987,-30.1176,1382.9834],[-67.7903,-30.1252,1374.8369],[-67.7524,-30.1462,1352.9956],[-67.7037,-30.1768,1296.856],[-67.6949,-30.1839,1287.816],[-67.676,-30.2042,1270.9189],[-67.6698,-30.2131,1254.9558],[-67.6603,-30.2322,1225.052],[-67.6565,-30.2364,1214.8396],[-67.6379,-30.2496,1187.4922],[-67.6211,-30.2644,1218.2817],[-67.5953,-30.2964,1116.7799],[-67.5792,-30.3037,1101.3184],[-67.5764,-30.3078,1096.3082],[-67.5695,-30.3388,1058.7098],[-67.5698,-30.3439,1054.4138],[-67.5736,-30.3539,1058.9456],[-67.5792,-30.363,1055.0955],[-67.5795,-30.3683,1055.0889],[-67.5779,-30.3734,1058.3323],[-67.5632,-30.3899,1034.0771],[-67.5544,-30.4036,1004.6793],[-67.5445,-30.4134,992.3226],[-67.5074,-30.44,953.1484],[-67.5026,-30.441,951.4855],[-67.4843,-30.4504,936.0261],[-67.4734,-30.4576,933.8815],[-67.4604,-30.4717,921.0574],[-67.4319,-30.5098,898.3887],[-67.4196,-30.5157,898.7004],[-66.9171,-30.5313,561.3104],[-66.9002,-30.4669,541.8733],[-66.889,-30.448,530.9854],[-66.8692,-30.4236,521.8872],[-66.8632,-30.4119,512.4766],[-66.861,-30.4036,498.1023],[-66.8641,-30.3653,484.4705],[-66.8568,-30.1834,460.0858],[-66.8566,-30.1151,430.5502],[-66.862,-30.077,421.6733],[-66.8669,-30.065,421.5908],[-66.8759,-30.0498,426.9251],[-66.878,-30.0372,429.583],[-66.8764,-30.0288,427.2098],[-66.8652,-30.0148,422.726],[-66.8611,-30.0025,420.7914],[-66.8472,-29.8297,403.3524],[-66.9762,-29.819,972.4485]]]]}
,"properties": {"GID_2": "ARG.12.14_1","GID_0": "ARG","country": "Argentina","GID_1": "ARG.12_1","state": "LaRioja","NL_NAME_1": "NA","county": "Independencia","VARNAME_2": "Patquia","NL_NAME_2": "NA","TYPE_2": "Departamento","ENGTYPE_2": "Department","CC_2": "NA","HASC_2": "AR.LR.IN","name": "Independencia.county","area_km2": 6859.803,"hist_schema_id": "Elevation0-9000","hist_area_km2": {"400": 17.007,"425": 141.734,"450": 158.349,"475": 152.4,"500": 139.583,"525": 153.343,"550": 165.967,"575": 183.048,"600": 192.88,"625": 194.876,"650": 225.258,"675": 256.434,"700": 183.745,"725": 139.341,"750": 128.05,"775": 127.36,"800": 131.199,"825": 138.933,"850": 130.198,"875": 133.58,"900": 140.427,"925": 140.21,"950": 115.087,"975": 111.203,"1000": 112.139,"1025": 113.165,"1050": 125.644,"1075": 106.49,"1100": 88.333,"1125": 78.262,"1150": 73.459,"1175": 76.862,"1200": 68.521,"1225": 63.706,"1250": 55.345,"1275": 59.579,"1300": 66.607,"1325": 84.994,"1350": 103.248,"1375": 117.587,"1400": 136.18,"1425": 135.567,"1450": 127.018,"1475": 117.321,"1500": 100.734,"1525": 94.793,"1550": 88.08,"1575": 84.287,"1600": 71.704,"1625": 68.904,"1650": 63.732,"1675": 56.83,"1700": 46.117,"1725": 42.461,"1750": 35.808,"1775": 29.944,"1800": 26.231,"1825": 24.193,"1850": 23.238,"1875": 23.257,"1900": 21.086,"1925": 20.758,"1950": 19.12,"1975": 17.297,"2000": 18.624,"2025": 18.514,"2050": 18.921,"2075": 17.323,"2100": 14.105,"2125": 13.426,"2150": 13.773,"2175": 18.629,"2200": 17.986,"2225": 21.26,"2250": 19.072,"2275": 19.845,"2300": 20.971,"2325": 18.138,"2350": 15.212,"2375": 12.471,"2400": 12.434,"2425": 11.736,"2450": 10.779,"2475": 11.108,"2500": 10.06,"2525": 7.89,"2550": 7.541,"2575": 6.934,"2600": 5.519,"2625": 4.857,"2650": 5.207,"2675": 5.612,"2700": 5.52,"2725": 3.938,"2750": 1.38,"2775": 1.16,"2800": 0.644,"2825": 0.276,"2850": 0.074}}}