{"type":"Feature","properties":{"GID_2":"ARG.21.17_1","GID_0":"ARG","country":"Argentina","GID_1":"ARG.21_1","state":"SantaFe","NL_NAME_1":"NA","county":"SanLorenzo","VARNAME_2":"Coronda","NL_NAME_2":"NA","TYPE_2":"Departamento","ENGTYPE_2":"Department","CC_2":"NA","HASC_2":"AR.SF.SL","name":"SanLorenzo.county"},
"geometry":{"type": "MultiPolygon","coordinates": [[[[-60.7567,-32.5005,5.0],[-60.7948,-32.4799,7.2833],[-60.804,-32.47,15.788],[-60.8083,-32.458,15.4481],[-60.821,-32.4586,8.0995],[-60.8286,-32.4656,22.5659],[-60.8401,-32.4723,18.0368],[-60.8448,-32.4784,21.1602],[-60.8484,-32.4889,19.7203],[-60.8517,-32.4937,19.0703],[-60.8524,-32.5064,19.584],[-60.8447,-32.5211,20.6062],[-60.8409,-32.5763,25.0655],[-60.83,-32.595,25.1808],[-60.8283,-32.6009,21.9966],[-60.8104,-32.6268,26.1309],[-60.8108,-32.6346,22.9244],[-60.8167,-32.645,26.6673],[-60.8224,-32.65,28.0403],[-60.8359,-32.6543,27.161],[-60.853,-32.6647,27.8041],[-60.8783,-32.6862,29.098],[-60.8888,-32.6878,29.2956],[-60.9031,-32.6803,29.813],[-60.9293,-32.6802,28.7929],[-60.9469,-32.6883,31.0934],[-60.9631,-32.6906,31.9248],[-60.976,-32.696,32.2706],[-60.9938,-32.6982,31.7166],[-60.9973,-32.7,27.5886],[-61.0174,-32.7197,32.9565],[-61.03,-32.739,34.8255],[-61.032,-32.7479,31.3041],[-61.0385,-32.7563,30.3796],[-61.05,-32.7657,36.563],[-61.0595,-32.7923,37.6178],[-61.071,-32.8078,37.231],[-61.0852,-32.8163,37.4111],[-61.1182,-32.8307,35.8016],[-61.1531,-32.8436,37.0025],[-61.182,-32.8639,39.282],[-61.1907,-32.8677,43.2793],[-61.1979,-32.8785,40.9391],[-61.2017,-32.8815,41.1494],[-61.2028,-32.8858,39.3668],[-61.2001,-32.8915,41.1434],[-61.2005,-32.895,39.6811],[-61.2162,-32.9069,45.094],[-61.2189,-32.916,45.7873],[-61.2232,-32.9205,45.8006],[-61.1959,-32.9541,57.5836],[-61.1364,-33.0332,64.2118],[-61.0965,-33.0783,61.5405],[-61.1497,-33.1679,81.4094],[-61.1741,-33.1732,84.987],[-61.1616,-33.221,73.9801],[-61.1872,-33.2345,77.6143],[-61.1949,-33.2433,75.2513],[-61.1783,-33.2711,74.0533],[-61.1414,-33.3177,84.1303],[-61.1625,-33.3318,88.8187],[-61.1035,-33.4121,88.5997],[-61.092,-33.4113,87.5539],[-61.0782,-33.4057,84.8965],[-61.0536,-33.3905,76.2707],[-61.0459,-33.39,80.0541],[-61.0396,-33.3869,84.3545],[-61.028,-33.3782,84.2258],[-61.0057,-33.3756,81.5082],[-60.9834,-33.3709,67.9378],[-60.9639,-33.3607,74.2468],[-60.9582,-33.3566,70.203],[-60.9492,-33.3461,69.0679],[-60.9461,-33.3376,66.8831],[-60.9862,-33.2829,61.823],[-60.9921,-33.2835,67.5841],[-61.0086,-33.2608,57.6348],[-61.015,-33.264,56.3491],[-61.0214,-33.255,56.9188],[-60.9953,-33.2472,52.5782],[-60.9866,-33.235,59.792],[-60.9713,-33.2221,62.0647],[-60.9696,-33.2101,61.0054],[-60.974,-33.1878,60.7902],[-60.9747,-33.1748,58.2392],[-60.972,-33.1641,56.4638],[-60.9672,-33.157,49.4994],[-60.9524,-33.1474,45.2833],[-60.9327,-33.1265,62.4039],[-60.8797,-32.9617,32.8094],[-60.8284,-32.8678,27.9754],[-60.8366,-32.8543,27.2678],[-60.835,-32.8487,26.7088],[-60.8402,-32.8474,27.3796],[-60.8526,-32.8285,28.9982],[-60.8209,-32.8081,26.1152],[-60.8013,-32.8207,25.5817],[-60.7801,-32.8123,24.1788],[-60.7798,-32.8321,26.369],[-60.7548,-32.832,22.3113],[-60.7552,-32.8367,22.2521],[-60.7166,-32.8372,30.8901],[-60.715,-32.8392,31.6756],[-60.6983,-32.8392,29.591],[-60.698,-32.8358,4.5],[-60.6739,-32.8369,7.0447],[-60.6737,-32.8265,9.7721],[-60.6772,-32.8181,10.0892],[-60.6869,-32.8057,4.5],[-60.7051,-32.7919,4.5],[-60.7104,-32.7809,4.5],[-60.7159,-32.7637,4.5],[-60.7176,-32.746,4.5],[-60.7159,-32.7342,5.0],[-60.7127,-32.7289,5.0],[-60.6967,-32.7173,4.5],[-60.6955,-32.7086,8.5301],[-60.6995,-32.7005,4.5],[-60.7126,-32.6828,4.5],[-60.7209,-32.6633,4.5],[-60.7424,-32.6328,5.7789],[-60.7484,-32.6188,7.1622],[-60.7492,-32.61,5.0],[-60.7425,-32.5964,5.0],[-60.7415,-32.5756,5.0],[-60.7434,-32.5638,5.0],[-60.7538,-32.5294,10.749],[-60.7567,-32.5005,5.0]]]]}}