{"type": "Feature","bbox": [-57.8839,-27.6278,-57.3335,-27.3249],"geometry": {"type": "MultiPolygon","coordinates": [[[[-57.8839,-27.4303,64.8483],[-57.8722,-27.4399,64.7659],[-57.8497,-27.4546,65.1021],[-57.8215,-27.4677,68.1563],[-57.8024,-27.4728,65.0926],[-57.7633,-27.4794,65.4068],[-57.7526,-27.4841,65.3795],[-57.7128,-27.4825,65.6945],[-57.7014,-27.4846,65.8331],[-57.7034,-27.5023,65.4416],[-57.7203,-27.5473,66.5141],[-57.6643,-27.5623,67.2033],[-57.6713,-27.5808,67.0129],[-57.5904,-27.5992,67.5166],[-57.5962,-27.6039,67.6328],[-57.6012,-27.6136,67.6875],[-57.6027,-27.6241,67.7265],[-57.602,-27.6276,67.7164],[-57.5981,-27.6278,67.7558],[-57.5911,-27.6245,67.8282],[-57.5828,-27.6172,67.9569],[-57.5637,-27.6118,67.9039],[-57.5391,-27.5886,67.6045],[-57.5204,-27.5752,67.8654],[-57.4991,-27.5656,68.3171],[-57.4873,-27.5561,68.5094],[-57.4648,-27.5492,68.4078],[-57.4541,-27.5302,68.5807],[-57.4112,-27.479,68.3201],[-57.3991,-27.4414,68.7109],[-57.3971,-27.4238,50.0],[-57.3335,-27.4141,53.5],[-57.3866,-27.4167,50.0],[-57.4534,-27.4294,53.7751],[-57.4927,-27.4405,50.0],[-57.5109,-27.439,50.0],[-57.5456,-27.4303,50.0],[-57.5554,-27.4252,50.0],[-57.569,-27.4109,50.0],[-57.5812,-27.4036,50.0],[-57.5999,-27.3956,50.0],[-57.7025,-27.3336,49.5],[-57.7157,-27.3275,49.5],[-57.7253,-27.3249,49.5],[-57.7336,-27.325,49.5],[-57.7669,-27.3328,49.0],[-57.7792,-27.3337,49.0],[-57.774,-27.3344,49.0],[-57.7748,-27.3465,54.5205],[-57.7684,-27.3541,54.0285],[-57.7606,-27.3558,49.5],[-57.7524,-27.3544,49.5],[-57.7547,-27.3701,67.4111],[-57.7673,-27.3837,64.4334],[-57.7745,-27.3863,63.9384],[-57.79,-27.3828,65.3649],[-57.8058,-27.3821,67.4365],[-57.8255,-27.3839,64.6025],[-57.8524,-27.3902,64.7092],[-57.8665,-27.3968,64.7252],[-57.8749,-27.4043,64.6515],[-57.8825,-27.4207,64.4319],[-57.8839,-27.4303,64.8483]]]]}
,"properties": {"GID_2": "ARG.7.2_1","GID_0": "ARG","country": "Argentina","GID_1": "ARG.7_1","state": "Corrientes","NL_NAME_1": "NA","county": "BeróndeAstrada","VARNAME_2": "NA","NL_NAME_2": "NA","TYPE_2": "Departamento","ENGTYPE_2": "Department","CC_2": "NA","HASC_2": "AR.CN.BA","name": "BeróndeAstrada.county","area_km2": 741.76,"hist_schema_id": "Elevation0-9000","hist_area_km2": {"50": 101.1446,"75": 640.5778,"100": 0.0376}}}