{"type": "Feature","bbox": [-67.0228,-28.8523,-66.3397,-28.2544],"geometry": {"type": "MultiPolygon","coordinates": [[[[-66.3699,-28.7161,1054.9417],[-66.3778,-28.7128,1032.6349],[-66.4101,-28.6931,862.9664],[-66.4896,-28.6407,743.0667],[-66.4876,-28.5795,805.3894],[-66.4893,-28.5445,754.2319],[-66.5227,-28.5412,708.0268],[-66.5235,-28.537,708.554],[-66.5277,-28.5301,704.3698],[-66.5249,-28.5226,703.5338],[-66.526,-28.5128,704.1617],[-66.5199,-28.5049,706.8285],[-66.5205,-28.4946,706.4534],[-66.516,-28.4847,708.0701],[-66.5162,-28.4635,711.356],[-66.5178,-28.4529,713.3508],[-66.5795,-28.3202,734.7021],[-66.9312,-28.2544,847.8948],[-67.0119,-28.338,953.2147],[-67.0199,-28.3488,1093.5481],[-67.0228,-28.3569,1228.3235],[-67.0224,-28.3782,1663.8107],[-66.9995,-28.4297,2039.9397],[-66.9909,-28.4587,2086.7639],[-66.9877,-28.4798,2172.7783],[-66.9903,-28.5181,2098.0032],[-67.0127,-28.5699,3013.4612],[-67.0119,-28.6038,3050.9883],[-66.8366,-28.628,1016.6889],[-66.7347,-28.8523,859.0613],[-66.3397,-28.7288,1350.6326],[-66.3699,-28.7161,1054.9417]]]]}
,"properties": {"GID_2": "ARG.12.1_1","GID_0": "ARG","country": "Argentina","GID_1": "ARG.12_1","state": "LaRioja","NL_NAME_1": "NA","county": "Arauco","VARNAME_2": "Aimogasta","NL_NAME_2": "NA","TYPE_2": "Departamento","ENGTYPE_2": "Department","CC_2": "NA","HASC_2": "AR.LR.AR","name": "Arauco.county","area_km2": 2456.342,"hist_schema_id": "Elevation0-9000","hist_area_km2": {"600": 0.26,"625": 47.056,"650": 42.498,"675": 35.025,"700": 99.536,"725": 302.506,"750": 324.403,"775": 303.398,"800": 205.62,"825": 141.051,"850": 151.281,"875": 103.093,"900": 95.454,"925": 86.338,"950": 78.006,"975": 59.858,"1000": 46.325,"1025": 33.278,"1050": 29.053,"1075": 28.213,"1100": 24.414,"1125": 20.857,"1150": 18.75,"1175": 16.366,"1200": 14.447,"1225": 11.971,"1250": 10.167,"1275": 8.584,"1300": 7.708,"1325": 6.853,"1350": 6.462,"1375": 6.257,"1400": 5.605,"1425": 5.549,"1450": 4.507,"1475": 3.558,"1500": 2.869,"1525": 2.795,"1550": 2.31,"1575": 2.162,"1600": 2.385,"1625": 1.863,"1650": 2.273,"1675": 2.273,"1700": 2.162,"1725": 1.956,"1750": 2.217,"1775": 2.254,"1800": 2.18,"1825": 2.161,"1850": 1.826,"1875": 2.087,"1900": 1.695,"1925": 2.329,"1950": 1.9,"1975": 1.863,"2000": 1.583,"2025": 1.769,"2050": 1.639,"2075": 1.788,"2100": 1.173,"2125": 1.36,"2150": 1.341,"2175": 1.378,"2200": 1.117,"2225": 1.117,"2250": 0.968,"2275": 0.875,"2300": 1.024,"2325": 0.838,"2350": 0.652,"2375": 0.633,"2400": 0.521,"2425": 0.652,"2450": 0.54,"2475": 0.856,"2500": 0.391,"2525": 0.41,"2550": 0.447,"2575": 0.298,"2600": 0.223,"2625": 0.335,"2650": 0.317,"2675": 0.223,"2700": 0.354,"2725": 0.056,"2750": 0.354,"2775": 0.242,"2800": 0.372,"2825": 0.186,"2850": 0.261,"2875": 0.242,"2900": 0.149,"2925": 0.261,"2950": 0.093,"2975": 0.223,"3000": 0.112,"3025": 0.205,"3050": 0.149,"3075": 0.205,"3100": 0.168,"3125": 0.279,"3150": 0.093}}}