{"type": "Feature","bbox": [-63.2713,-27.8404,-61.7133,-26.7902],"geometry": {"type": "MultiPolygon","coordinates": [[[[-61.7133,-26.7902,161.2271],[-62.5002,-26.8041,171.0689],[-62.5025,-26.8449,168.9684],[-62.7658,-26.8467,176.4251],[-62.7658,-26.8369,177.1817],[-62.9371,-26.8369,179.6842],[-62.937,-26.8095,180.7181],[-63.2491,-26.8128,188.5431],[-63.2477,-26.8713,186.1279],[-63.2184,-26.873,183.1896],[-63.2208,-26.9133,179.9469],[-63.2473,-26.9135,182.5453],[-63.2466,-27.036,172.607],[-63.2357,-27.0363,174.0633],[-63.2363,-27.0715,175.0529],[-63.246,-27.0718,173.576],[-63.2465,-27.1351,171.2319],[-63.2221,-27.135,170.7934],[-63.2219,-27.1765,165.8532],[-63.2319,-27.1766,166.5995],[-63.2713,-27.3367,158.0941],[-63.2189,-27.3505,158.0249],[-63.2219,-27.4675,151.9016],[-63.2515,-27.4669,151.4129],[-63.258,-27.5074,150.3885],[-63.2453,-27.5082,149.57],[-63.2565,-27.5626,146.3218],[-63.2041,-27.5744,144.7015],[-63.2252,-27.6765,140.9828],[-63.1781,-27.6849,140.877],[-63.1957,-27.758,137.3297],[-63.154,-27.7651,135.9771],[-63.1467,-27.7519,137.2719],[-63.104,-27.7596,134.6502],[-63.1021,-27.7711,136.1911],[-63.0111,-27.7717,134.6776],[-63.0082,-27.7655,134.4426],[-62.9555,-27.7652,137.6944],[-62.9529,-27.8008,133.1344],[-62.8901,-27.8002,133.336],[-62.8894,-27.8397,133.6802],[-62.6949,-27.8404,130.3601],[-62.6915,-27.815,134.3301],[-62.5891,-27.815,129.7817],[-62.59,-27.8347,127.3129],[-62.2429,-27.8392,127.7597],[-62.241,-27.8144,128.6925],[-61.7164,-27.8123,116.8364],[-61.7133,-26.7902,161.2271]]]]}
,"properties": {"GID_2": "ARG.22.17_1","GID_0": "ARG","country": "Argentina","GID_1": "ARG.22_1","state": "SantiagodelEstero","NL_NAME_1": "NA","county": "Moreno","VARNAME_2": "Quimili","NL_NAME_2": "NA","TYPE_2": "Departamento","ENGTYPE_2": "Department","CC_2": "NA","HASC_2": "AR.SE.MO","name": "Moreno.county","area_km2": 16681.34,"hist_schema_id": "Elevation0-9000","hist_area_km2": {"100": 271.27,"125": 1968.5,"150": 9949.69,"175": 4440.82,"200": 51.05}}}