{"type": "Feature","bbox": [-63.5248,-28.3666,-61.7164,-27.7439],"geometry": {"type": "MultiPolygon","coordinates": [[[[-61.7164,-27.8123,116.8364],[-62.241,-27.8144,128.6925],[-62.2429,-27.8392,127.7597],[-62.59,-27.8347,127.3129],[-62.5891,-27.815,129.7817],[-62.6915,-27.815,134.3301],[-62.6949,-27.8404,130.3601],[-62.8894,-27.8397,133.6802],[-62.8901,-27.8002,133.336],[-62.9529,-27.8008,133.1344],[-62.9555,-27.7652,137.6944],[-63.0082,-27.7655,134.4426],[-63.0111,-27.7717,134.6776],[-63.1021,-27.7711,136.1911],[-63.104,-27.7596,134.6502],[-63.1467,-27.7519,137.2719],[-63.154,-27.7651,135.9771],[-63.2773,-27.7439,139.9272],[-63.2899,-27.7746,138.5338],[-63.3454,-27.7692,139.7372],[-63.3514,-27.7778,140.3923],[-63.3871,-27.7696,141.4089],[-63.3948,-27.7846,141.1094],[-63.5248,-27.8025,140.7663],[-63.524,-27.8166,140.0338],[-63.513,-27.8487,139.8022],[-63.5101,-27.863,137.1849],[-63.5045,-27.8631,138.035],[-63.4993,-27.8714,138.1214],[-63.4952,-27.8747,137.8285],[-63.4941,-27.8841,135.906],[-63.49,-27.8931,136.8276],[-63.4689,-27.9151,135.8465],[-63.4614,-27.9279,135.5649],[-63.4585,-27.9371,134.383],[-63.4366,-27.9646,132.9864],[-63.4278,-27.9822,132.3778],[-63.407,-28.0043,128.8059],[-63.3864,-28.0433,129.9402],[-63.3679,-28.0611,130.0119],[-63.3525,-28.0656,129.2409],[-63.34,-28.0749,127.0431],[-63.3249,-28.0807,128.8385],[-63.3142,-28.0817,129.2448],[-63.3027,-28.0916,126.8551],[-63.2999,-28.1006,127.7823],[-63.2936,-28.1086,126.2466],[-63.2893,-28.1175,127.3124],[-63.2858,-28.1363,126.3293],[-63.2706,-28.1563,127.222],[-63.2693,-28.1754,123.6971],[-63.2667,-28.1794,124.3893],[-63.258,-28.1853,123.7713],[-63.2478,-28.1888,122.9231],[-63.2321,-28.1925,123.0476],[-63.2106,-28.1909,122.1475],[-63.1906,-28.1984,120.8061],[-63.1785,-28.2081,120.4005],[-63.1657,-28.2242,120.155],[-63.1601,-28.228,120.1484],[-63.1317,-28.2693,117.5435],[-63.1197,-28.279,117.5935],[-63.1139,-28.2872,117.7256],[-63.112,-28.2966,119.8474],[-63.1158,-28.3108,117.8227],[-63.1257,-28.3223,116.0899],[-63.1273,-28.3267,116.4356],[-63.1244,-28.336,115.5183],[-63.1212,-28.3396,115.5831],[-62.6724,-28.342,111.8311],[-61.8765,-28.3356,81.2563],[-61.8807,-28.3666,81.9458],[-61.7784,-28.3665,81.1977],[-61.7172,-27.9939,82.8649],[-61.7164,-27.8123,116.8364]]]]}
,"properties": {"GID_2": "ARG.22.14_1","GID_0": "ARG","country": "Argentina","GID_1": "ARG.22_1","state": "SantiagodelEstero","NL_NAME_1": "NA","county": "JuanFelipeIbarra","VARNAME_2": "SunchoCorral|JuanF.Ibarra","NL_NAME_2": "NA","TYPE_2": "Departamento","ENGTYPE_2": "Department","CC_2": "NA","HASC_2": "AR.SE.JI","name": "JuanFelipeIbarra.county","area_km2": 9287.828,"hist_schema_id": "Elevation0-9000","hist_area_km2": {"75": 2095.984,"100": 1176.197,"125": 5750.041,"150": 265.606}}}