{"type": "Feature","bbox": [-65.3408,-22.7212,-64.4907,-22.0833],"geometry": {"type": "MultiPolygon","coordinates": [[[[-65.3389,-22.5157,4885.7231],[-65.3334,-22.5199,4566.9473],[-65.3175,-22.5108,4405.0322],[-65.3116,-22.5094,4167.3784],[-65.2994,-22.5111,4352.9214],[-65.2769,-22.5206,4010.5469],[-65.2675,-22.5355,3621.8],[-65.257,-22.5416,4108.3076],[-65.205,-22.56,3827.3044],[-65.1676,-22.5803,3522.2603],[-65.1614,-22.5803,3286.3003],[-65.144,-22.5862,2861.8215],[-65.1198,-22.5911,3218.0671],[-65.1075,-22.5916,3570.3047],[-65.0906,-22.5847,4006.9409],[-65.0793,-22.5642,4246.1812],[-65.0753,-22.5597,4252.7861],[-65.07,-22.5574,4482.4731],[-65.0573,-22.5576,4184.7876],[-65.0517,-22.5598,3925.7158],[-65.0294,-22.5796,3133.7253],[-65.0124,-22.5868,3030.4819],[-64.9968,-22.5961,2986.498],[-64.9659,-22.596,2968.1997],[-64.9415,-22.5921,2966.2754],[-64.8921,-22.5887,2361.2891],[-64.8674,-22.5894,1822.1591],[-64.8552,-22.587,1692.0227],[-64.8454,-22.5803,1793.0039],[-64.8372,-22.5585,1388.7676],[-64.8363,-22.5471,1705.4751],[-64.8375,-22.5415,1904.4209],[-64.8544,-22.5044,1930.553],[-64.8576,-22.4816,2351.6746],[-64.8535,-22.4707,2445.8257],[-64.8496,-22.4664,2388.8516],[-64.8435,-22.4651,2160.9517],[-64.8373,-22.4661,2003.5503],[-64.832,-22.4689,1882.8391],[-64.8243,-22.478,1823.4335],[-64.8019,-22.5124,1684.8567],[-64.7936,-22.5211,1753.291],[-64.7921,-22.5264,1729.9587],[-64.7934,-22.5552,1294.5498],[-64.7912,-22.5606,1301.209],[-64.7765,-22.571,1407.9918],[-64.7607,-22.5884,1079.0736],[-64.7374,-22.629,1154.7231],[-64.7321,-22.6455,1628.9968],[-64.7321,-22.6513,1890.8009],[-64.7352,-22.6741,1759.6858],[-64.7425,-22.7079,1377.0337],[-64.7406,-22.7134,1163.5143],[-64.7365,-22.7178,1051.3667],[-64.7309,-22.7206,980.6811],[-64.725,-22.7212,957.3257],[-64.7084,-22.7132,915.0235],[-64.7043,-22.7089,883.2119],[-64.6974,-22.6993,808.4067],[-64.6929,-22.6825,859.7374],[-64.6873,-22.6722,966.6],[-64.6787,-22.6639,957.2772],[-64.6735,-22.6609,801.6313],[-64.6393,-22.6471,831.4971],[-64.6239,-22.6566,807.5618],[-64.6178,-22.6563,749.9436],[-64.6064,-22.66,779.1976],[-64.596,-22.6539,754.3303],[-64.5899,-22.6533,840.3479],[-64.5716,-22.6562,1313.2592],[-64.5601,-22.6518,1484.0197],[-64.5511,-22.6438,1501.7692],[-64.5428,-22.6162,1386.9268],[-64.5434,-22.6048,1200.5406],[-64.5351,-22.5894,1072.8671],[-64.5242,-22.5753,1108.1738],[-64.5195,-22.5648,1264.6533],[-64.5187,-22.5533,1235.244],[-64.5206,-22.5362,950.3541],[-64.5153,-22.5079,815.4557],[-64.5178,-22.485,804.4985],[-64.5163,-22.4735,727.8454],[-64.507,-22.4588,801.3834],[-64.4907,-22.4424,645.9707],[-64.4912,-22.4383,617.9276],[-64.4951,-22.4351,615.694],[-64.4995,-22.4397,643.1738],[-64.5146,-22.4459,628.5948],[-64.5236,-22.4434,631.1893],[-64.5251,-22.4412,640.3484],[-64.5235,-22.4357,638.3737],[-64.5132,-22.4218,650.3182],[-64.5129,-22.4156,654.9388],[-64.533,-22.3977,677.944],[-64.55,-22.3888,695.3315],[-64.5586,-22.3821,704.3301],[-64.5638,-22.3763,712.2408],[-64.5668,-22.368,720.64],[-64.5634,-22.3608,730.5426],[-64.5646,-22.3561,741.7762],[-64.5613,-22.3521,737.6144],[-64.5617,-22.3502,739.2942],[-64.5649,-22.3483,754.1381],[-64.5647,-22.343,779.7538],[-64.5666,-22.3389,753.8111],[-64.5636,-22.3259,769.2399],[-64.5592,-22.3194,776.3308],[-64.5476,-22.3168,789.813],[-64.5368,-22.2943,824.9105],[-64.5359,-22.2879,830.015],[-64.5376,-22.2832,837.6824],[-64.5807,-22.25,922.5332],[-64.5925,-22.2473,992.7169],[-64.595,-22.2422,983.6383],[-64.5973,-22.2428,966.7332],[-64.602,-22.227,1026.8574],[-64.608,-22.2204,1084.6362],[-64.6138,-22.2174,1053.2888],[-64.6138,-22.2151,1080.948],[-64.617,-22.2126,1114.8295],[-64.6171,-22.2051,1109.4852],[-64.6194,-22.2049,1081.2622],[-64.6236,-22.2086,1158.4033],[-64.6267,-22.203,1133.8022],[-64.6358,-22.2002,1137.9243],[-64.6382,-22.1945,1131.173],[-64.6509,-22.1897,1149.0752],[-64.6599,-22.1955,1149.5212],[-64.6751,-22.1885,1171.7505],[-64.6867,-22.1871,1201.5613],[-64.6973,-22.1889,1224.2698],[-64.6998,-22.1907,1220.4641],[-64.7099,-22.1891,1250.5201],[-64.7132,-22.1924,1261.3335],[-64.7219,-22.1966,1358.0181],[-64.7234,-22.195,1344.1389],[-64.7369,-22.1942,1399.4824],[-64.7452,-22.1888,1451.6873],[-64.746,-22.1826,1549.4146],[-64.7495,-22.182,1598.9982],[-64.7526,-22.1791,1571.8828],[-64.7565,-22.1794,1658.4625],[-64.758,-22.1812,1594.1921],[-64.7645,-22.1773,1646.0017],[-64.7664,-22.1789,1684.1212],[-64.7698,-22.1776,1704.4359],[-64.7744,-22.1783,1817.5776],[-64.7768,-22.1764,1769.9255],[-64.7779,-22.1779,1769.9255],[-64.7823,-22.175,1828.5642],[-64.7868,-22.1685,1910.2373],[-64.789,-22.1684,2008.0581],[-64.7905,-22.1644,2017.6223],[-64.7936,-22.1649,2058.687],[-64.7949,-22.1629,1948.1731],[-64.7934,-22.1612,2011.3075],[-64.7959,-22.1609,2001.4861],[-64.7968,-22.1624,1991.3752],[-64.7978,-22.1602,1972.3101],[-64.8043,-22.158,2081.9321],[-64.8049,-22.156,2060.0208],[-64.8077,-22.1561,2054.8208],[-64.8105,-22.1527,2072.9236],[-64.8127,-22.1533,2101.1086],[-64.8123,-22.1512,2095.7183],[-64.8178,-22.1484,2072.4595],[-64.819,-22.1448,2183.4336],[-64.8201,-22.1457,2245.5647],[-64.8304,-22.1415,2128.6372],[-64.8323,-22.1442,2136.7649],[-64.8358,-22.1393,2246.7429],[-64.8403,-22.1393,2156.6794],[-64.8449,-22.1342,2200.113],[-64.8488,-22.1333,2276.533],[-64.8494,-22.1316,2201.8396],[-64.8618,-22.1249,2318.5708],[-64.8618,-22.1224,2244.3628],[-64.8679,-22.1233,2268.3145],[-64.8674,-22.1221,2243.853],[-64.869,-22.1225,2243.853],[-64.8744,-22.1174,2270.7217],[-64.8787,-22.1174,2267.9634],[-64.8807,-22.1212,2348.6418],[-64.8798,-22.1225,2302.6831],[-64.8816,-22.1225,2302.6831],[-64.8867,-22.1294,2322.1912],[-64.893,-22.1238,2357.9241],[-64.8966,-22.124,2371.0591],[-64.9028,-22.1196,2411.4707],[-64.924,-22.1211,2534.0366],[-64.9266,-22.1184,2544.0488],[-64.9353,-22.1163,2676.8765],[-64.9383,-22.1098,2656.5649],[-64.9452,-22.11,2769.75],[-64.9478,-22.1077,2802.6499],[-64.9534,-22.1072,2868.823],[-64.9532,-22.1054,2890.2485],[-64.9571,-22.1027,2938.5752],[-64.9598,-22.1025,2936.1577],[-64.9615,-22.1045,2954.2988],[-64.9639,-22.103,2986.2192],[-64.9687,-22.1041,3061.4128],[-64.971,-22.1001,3081.5027],[-64.9814,-22.0979,3341.0352],[-64.9844,-22.0944,3521.0369],[-64.9872,-22.0941,3602.3723],[-64.9887,-22.089,3847.4568],[-64.9926,-22.087,3958.7507],[-64.9943,-22.084,4123.7476],[-65.0525,-22.0833,4429.0518],[-65.1853,-22.0854,4383.5742],[-65.1976,-22.1082,4535.9932],[-65.1952,-22.1242,4568.0488],[-65.1955,-22.1404,4958.4795],[-65.1982,-22.1451,4856.9102],[-65.203,-22.1482,4684.6665],[-65.2139,-22.1523,4734.5581],[-65.2176,-22.1562,4710.2378],[-65.2252,-22.171,4678.1348],[-65.2268,-22.191,4695.8779],[-65.2436,-22.2809,4671.6816],[-65.243,-22.2916,4753.5225],[-65.2377,-22.3126,4545.5811],[-65.239,-22.3179,4626.2915],[-65.2475,-22.3321,4770.4209],[-65.2691,-22.3498,4643.0542],[-65.2684,-22.3555,4792.436],[-65.2714,-22.3592,4695.3203],[-65.2855,-22.3688,4475.4175],[-65.2912,-22.3782,4300.7246],[-65.2926,-22.3888,4345.9956],[-65.2893,-22.3927,4436.4854],[-65.2928,-22.413,4523.8687],[-65.3057,-22.4215,4432.79],[-65.308,-22.4376,4374.7432],[-65.316,-22.4636,4515.8965],[-65.3368,-22.4897,4464.2012],[-65.3408,-22.5055,4639.8877],[-65.3389,-22.5157,4885.7231]]]]}
,"properties": {"GID_2": "ARG.17.23_1","GID_0": "ARG","country": "Argentina","GID_1": "ARG.17_1","state": "Salta","NL_NAME_1": "NA","county": "SantaVictoria","VARNAME_2": "NA","NL_NAME_2": "NA","TYPE_2": "Departamento","ENGTYPE_2": "Department","CC_2": "NA","HASC_2": "AR.SA.SV","name": "SantaVictoria.county","area_km2": 3792.564,"hist_schema_id": "Elevation0-9000","hist_area_km2": {"625": 1.156,"650": 2.43,"675": 4.546,"700": 7.701,"725": 11.188,"750": 15.929,"775": 20.082,"800": 26.192,"825": 31.913,"850": 33.907,"875": 37.569,"900": 40.683,"925": 44.324,"950": 45.911,"975": 46.049,"1000": 43.972,"1025": 41.25,"1050": 37.175,"1075": 30.419,"1100": 26.384,"1125": 23.135,"1150": 21.902,"1175": 19.318,"1200": 15.773,"1225": 14.265,"1250": 13.286,"1275": 12.345,"1300": 11.738,"1325": 13.208,"1350": 12.857,"1375": 13.541,"1400": 13.562,"1425": 15.209,"1450": 16.933,"1475": 18.99,"1500": 19.95,"1525": 22.146,"1550": 24.737,"1575": 27.207,"1600": 26.99,"1625": 26.814,"1650": 26.5,"1675": 26.618,"1700": 27.207,"1725": 27.542,"1750": 27.602,"1775": 25.21,"1800": 24.817,"1825": 24.446,"1850": 23.486,"1875": 23.623,"1900": 22.957,"1925": 20.879,"1950": 21.684,"1975": 20.507,"2000": 19.39,"2025": 18.959,"2050": 18.411,"2075": 17.882,"2100": 17.255,"2125": 15.51,"2150": 14.295,"2175": 14.433,"2200": 15.061,"2225": 14.61,"2250": 16.355,"2275": 15.042,"2300": 16.611,"2325": 15.964,"2350": 18.141,"2375": 17.711,"2400": 18.633,"2425": 19.536,"2450": 19.949,"2475": 21.715,"2500": 21.892,"2525": 22.952,"2550": 24.13,"2575": 24.835,"2600": 24.404,"2625": 25.012,"2650": 24.815,"2675": 24.736,"2700": 24.892,"2725": 26.148,"2750": 25.305,"2775": 24.322,"2800": 25.499,"2825": 24.989,"2850": 25.537,"2875": 24.654,"2900": 24.535,"2925": 24.771,"2950": 24.691,"2975": 25.044,"3000": 24.946,"3025": 24.651,"3050": 26.102,"3075": 25.18,"3100": 26.062,"3125": 26.238,"3150": 26.669,"3175": 27.805,"3200": 28.434,"3225": 26.963,"3250": 27.295,"3275": 26.178,"3300": 27.002,"3325": 24.178,"3350": 25.942,"3375": 23.982,"3400": 23.569,"3425": 23.904,"3450": 24.412,"3475": 23.138,"3500": 23.412,"3525": 23.372,"3550": 22.627,"3575": 21.097,"3600": 21.175,"3625": 21.213,"3650": 19.684,"3675": 19.254,"3700": 19.488,"3725": 18.723,"3750": 18.978,"3775": 19.369,"3800": 20.096,"3825": 19.82,"3850": 19.662,"3875": 20.488,"3900": 19.548,"3925": 19.626,"3950": 20.705,"3975": 21.314,"4000": 22.786,"4025": 23.845,"4050": 22.984,"4075": 26.536,"4100": 24.478,"4125": 25.951,"4150": 25.304,"4175": 26.186,"4200": 25.049,"4225": 27.323,"4250": 28.146,"4275": 28.892,"4300": 27.401,"4325": 27.597,"4350": 28.715,"4375": 28.265,"4400": 27.989,"4425": 26.695,"4450": 26.418,"4475": 25.907,"4500": 26.162,"4525": 24.651,"4550": 23.986,"4575": 22.062,"4600": 21.237,"4625": 19.924,"4650": 18.022,"4675": 15.374,"4700": 12.628,"4725": 10.138,"4750": 8.805,"4775": 6.863,"4800": 5.785,"4825": 4.138,"4850": 2.824,"4875": 2.314,"4900": 1.392,"4925": 1.236,"4950": 0.805,"4975": 0.589,"5000": 0.314,"5025": 0.157}}}