{"type":"Feature","properties":{"GID_2":"ARG.16.4_1","GID_0":"ARG","country":"Argentina","GID_1":"ARG.16_1","state":"RíoNegro","NL_NAME_1":"NA","county":"Conesa","VARNAME_2":"GeneralConesa","NL_NAME_2":"NA","TYPE_2":"Departamento","ENGTYPE_2":"Department","CC_2":"NA","HASC_2":"AR.RN.CO","name":"Conesa.county"},
"geometry":{"type": "MultiPolygon","coordinates": [[[[-63.3907,-39.8624,37.5073],[-64.0272,-39.8644,54.3882],[-64.4868,-39.8625,119.124],[-65.2462,-39.851,93.5846],[-65.2463,-39.8642,90.1124],[-65.2373,-39.867,96.5134],[-65.2278,-39.866,92.0743],[-65.2221,-39.8681,95.4934],[-65.222,-39.8756,91.4089],[-65.2205,-39.8789,90.9799],[-65.284,-39.9264,130.0262],[-65.1937,-39.9843,137.7827],[-65.1903,-39.9995,136.6666],[-65.1906,-40.4331,-72.5],[-64.4922,-40.4404,118.6962],[-64.0825,-40.438,82.5837],[-63.9959,-40.505,61.1062],[-63.8511,-40.3963,28.5],[-63.8367,-40.4057,32.5821],[-63.3854,-40.4115,55.1673],[-63.3852,-40.2104,52.1293],[-63.3908,-39.9976,39.9002],[-63.3907,-39.8624,37.5073]]]]}}