{"type": "Feature","bbox": [-65.6876,-29.5455,-65.2341,-28.6046],"geometry": {"type": "MultiPolygon","coordinates": [[[[-65.6565,-28.7761,1396.7285],[-65.6858,-28.8125,1524.9177],[-65.6876,-28.8179,1553.5781],[-65.6873,-28.8295,1545.7588],[-65.6836,-28.8407,1515.3398],[-65.68,-28.8453,1540.8782],[-65.6697,-28.8526,1553.7161],[-65.6663,-28.8574,1537.3628],[-65.6622,-28.8684,1518.3671],[-65.6584,-28.8912,1445.673],[-65.6447,-28.9171,1480.1637],[-65.6435,-28.9229,1469.6877],[-65.6446,-28.9284,1469.2781],[-65.6515,-28.9448,808.9163],[-65.6516,-28.9504,880.8484],[-65.6459,-28.9607,624.1486],[-65.6382,-28.9701,862.9028],[-65.6296,-28.9788,1426.1027],[-65.6146,-28.9898,1455.2191],[-65.6111,-28.9946,1472.8317],[-65.607,-29.0055,1404.8225],[-65.6063,-29.017,1415.9828],[-65.6032,-29.028199999999998,1400.3441],[-65.5939,-29.0433,1358.2531],[-65.5853,-29.0828,1333.7661],[-65.5825,-29.1056,1335.9088],[-65.5834,-29.1285,1126.115],[-65.5907,-29.1565,1155.9011],[-65.6082,-29.2058,870.2179],[-65.6125,-29.2343,902.0089],[-65.6126,-29.2515,958.8717],[-65.5963,-29.3014,916.5347],[-65.5935,-29.3065,931.3291],[-65.5821,-29.3111,876.8053],[-65.576,-29.3213,833.1714],[-65.5637,-29.3719,585.9587],[-65.5535,-29.3991,655.3575],[-65.5519,-29.4163,613.8044],[-65.5581,-29.4327,427.5581],[-65.5622,-29.4784,452.4011],[-65.5607,-29.5129,395.0806],[-65.5576,-29.5239,393.0659],[-65.5445,-29.5455,351.4463],[-65.504,-29.453,316.7921],[-65.5043,-29.4357,349.7135],[-65.4944,-29.4029,370.1281],[-65.4922,-29.3886,364.531],[-65.493,-29.3797,367.1867],[-65.4961,-29.368,389.3192],[-65.502,-29.3586,406.1808],[-65.5044,-29.3496,423.192],[-65.5044,-29.3385,408.0649],[-65.4995,-29.3253,399.696],[-65.4956,-29.2834,428.3842],[-65.4893,-29.2663,414.3083],[-65.4907,-29.2438,431.6313],[-65.4931,-29.231,421.9436],[-65.4595,-29.1873,430.6469],[-65.4482,-29.1748,425.3697],[-65.409,-29.1451,442.6788],[-65.3773,-29.1171,357.8886],[-65.3629,-29.0999,346.1155],[-65.3537,-29.0807,363.0682],[-65.3453,-29.0541,329.4919],[-65.3407,-29.0283,330.0944],[-65.3399,-29.0025,345.2318],[-65.3322,-28.939,359.5075],[-65.3303,-28.9084,354.4071],[-65.3253,-28.8936,343.0848],[-65.3152,-28.8732,336.0671],[-65.3082,-28.8519,347.3385],[-65.3054,-28.83,347.7508],[-65.3158,-28.7829,384.9768],[-65.3011,-28.7227,424.7554],[-65.2948,-28.7026,423.9646],[-65.2341,-28.6055,369.1759],[-65.2733,-28.6046,394.8838],[-65.2794,-28.6061,399.1447],[-65.3753,-28.6633,599.1447],[-65.4326,-28.6439,753.6801],[-65.4588,-28.6451,831.291],[-65.4644,-28.6472,832.3342],[-65.4687,-28.6519,789.0579],[-65.4752,-28.6667,797.4097],[-65.5919,-28.6341,1380.8783],[-65.6047,-28.6324,1448.7249],[-65.6159,-28.6266,1480.9197],[-65.6338,-28.6121,1583.3629],[-65.6468,-28.6345,1534.1665],[-65.6614,-28.6537,1491.8921],[-65.6667,-28.67,1489.0992],[-65.6662,-28.693,1534.8391],[-65.6474,-28.7545,1383.2122],[-65.6481,-28.7655,1382.08],[-65.6565,-28.7761,1396.7285]]]]}
,"properties": {"GID_2": "ARG.2.2_1","GID_0": "ARG","country": "Argentina","GID_1": "ARG.2_1","state": "Catamarca","NL_NAME_1": "NA","county": "Ancasti","VARNAME_2": "NA","NL_NAME_2": "NA","TYPE_2": "Departamento","ENGTYPE_2": "Department","CC_2": "NA","HASC_2": "AR.CT.AC","name": "Ancasti.county","area_km2": 2082.848,"hist_schema_id": "Elevation0-9000","hist_area_km2": {"275": 2.251,"300": 4.244,"325": 13.655,"350": 53.022,"375": 77.548,"400": 67.561,"425": 77.821,"450": 79.296,"475": 72.796,"500": 72.481,"525": 68.717,"550": 62.243,"575": 56.925,"600": 53.768,"625": 55.409,"650": 53.298,"675": 51.469,"700": 48.867,"725": 47.356,"750": 47.632,"775": 42.455,"800": 41.773,"825": 42.386,"850": 37.88,"875": 38.509,"900": 41.637,"925": 46.231,"950": 46.702,"975": 43.545,"1000": 40.314,"1025": 39.195,"1050": 36.295,"1075": 29.702,"1100": 31.466,"1125": 32.306,"1150": 30.348,"1175": 26.215,"1200": 22.933,"1225": 21.446,"1250": 24.785,"1275": 29.445,"1300": 32.194,"1325": 33.847,"1350": 31.718,"1375": 27.933,"1400": 27.544,"1425": 27.066,"1450": 23.945,"1475": 20.028,"1500": 19.175,"1525": 14.793,"1550": 8.214,"1575": 3.291,"1600": 0.856,"1625": 0.316}}}