{"type": "Feature","bbox": [-57.2217,-37.5537,-56.9146,-37.1925],"geometry": {"type": "MultiPolygon","coordinates": [[[[-57.2217,-37.5329,3.9631],[-57.1918,-37.5537,0.0],[-57.1662,-37.5279,4.4131],[-57.1454,-37.5126,0.8565],[-57.126,-37.494,0.0],[-57.1029,-37.4649,0.0],[-57.0893,-37.4501,0.0],[-57.0574,-37.396,3.6112],[-57.0551,-37.3893,4.3732],[-57.039,-37.3621,0.8905],[-57.0371,-37.356,9.7157],[-57.0335,-37.354,7.3856],[-57.0246,-37.3365,7.346],[-57.0165,-37.3265,0.8176],[-57.0112,-37.3151,7.0302],[-57.0085,-37.3143,3.3371],[-57.0065,-37.3115,1.9566],[-57.001,-37.3004,7.35],[-56.9815,-37.2804,0.0],[-56.979,-37.2757,6.2409],[-56.9771,-37.2751,0.0],[-56.9146,-37.1967,0.0],[-56.9516,-37.1925,11.8937],[-56.9624,-37.2057,13.0935],[-56.9718,-37.2139,11.642],[-56.9907,-37.2416,18.9574],[-57.0438,-37.2366,5.2042],[-57.0448,-37.242,6.7443],[-56.993,-37.2475,12.5029],[-57.0206,-37.2918,16.4321],[-57.0395,-37.3098,13.4108],[-57.054,-37.3349,12.3566],[-57.1102,-37.4076,8.8425],[-57.1711,-37.4794,6.7284],[-57.2217,-37.5329,3.9631]]]]}
,"properties": {"GID_2": "ARG.1.126_1","GID_0": "ARG","country": "Argentina","GID_1": "ARG.1_1","state": "BuenosAires","NL_NAME_1": "NA","county": "VillaGesell","VARNAME_2": "NA","NL_NAME_2": "NA","TYPE_2": "Partido","ENGTYPE_2": "Part","CC_2": "NA","HASC_2": "AR.BA.VG","name": "VillaGesell.county","area_km2": 151.7084,"hist_schema_id": "Elevation0-9000","hist_area_km2": {"0": 114.2291,"25": 37.4793}}}