{"type":"Feature","properties":{"GID_2":"ARG.4.10_1","GID_0":"ARG","country":"Argentina","GID_1":"ARG.4_1","state":"Chubut","NL_NAME_1":"NA","county":"PasodeIndios","VARNAME_2":"NA","NL_NAME_2":"NA","TYPE_2":"Departamento","ENGTYPE_2":"Department","CC_2":"NA","HASC_2":"AR.CH.PI","name":"PasodeIndios.county"},
"geometry":{"type": "MultiPolygon","coordinates": [[[[-67.7481,-44.6849,413.7133],[-67.7676,-43.3388,348.8352],[-69.5585,-43.332,1261.4893],[-69.5091,-44.1449,1177.6077],[-69.9187,-44.678,458.7975],[-68.9134,-44.6864,345.9085],[-68.3712,-44.6872,419.365],[-67.7481,-44.6849,413.7133]]]]}}