{"type":"Feature","properties":{"GID_2":"ARG.17.17_1","GID_0":"ARG","country":"Argentina","GID_1":"ARG.17_1","state":"Salta","NL_NAME_1":"NA","county":"Molinos","VARNAME_2":"NA","NL_NAME_2":"NA","TYPE_2":"Departamento","ENGTYPE_2":"Department","CC_2":"NA","HASC_2":"AR.SA.MO","name":"Molinos.county"},
"geometry":{"type": "MultiPolygon","coordinates": [[[[-66.8014,-25.8914,4792.3232],[-66.7963,-25.9027,4760.2295],[-66.7736,-25.9327,4673.3994],[-66.7604,-25.9443,4569.3857],[-66.7369,-25.9738,4451.5132],[-66.7224,-25.9883,4402.4585],[-66.7191,-25.9984,4411.2261],[-66.71,-26.0071,4397.748],[-66.7018,-26.0002,4360.5259],[-66.6859,-25.9908,4344.8838],[-66.6683,-25.9847,4305.3828],[-66.6524,-25.9668,4402.3193],[-66.6224,-25.9456,4684.9849],[-66.6019,-25.9236,4847.7207],[-66.5972,-25.9198,4776.0049],[-66.5854,-25.9155,4691.0645],[-66.5665,-25.9157,4364.5801],[-66.5506,-25.9249,4012.4077],[-66.547,-25.9298,3904.4812],[-66.5188,-25.9429,3632.3394],[-66.5069,-25.9469,3577.1863],[-66.4748,-25.965699999999998,4165.8462],[-66.469,-25.968,4439.3667],[-66.4632,-25.9659,4162.1523],[-66.4601,-25.961,4068.9614],[-66.4583,-25.9496,3884.8103],[-66.4583,-25.9151,3387.0056],[-66.4603,-25.898,3386.0508],[-66.4675,-25.876,3669.7883],[-66.4674,-25.8645,3831.2642],[-66.4641,-25.8476,3826.7373],[-66.4569,-25.8382,3477.2661],[-66.4486,-25.8105,3264.563],[-66.4491,-25.799,3090.1008],[-66.4559,-25.7709,3231.4675],[-66.449,-25.7255,3104.6975],[-66.4455,-25.7144,3018.0337],[-66.4424,-25.7095,2858.7905],[-66.4236,-25.694,3076.5791],[-66.398,-25.6685,2725.5867],[-66.3877,-25.6541,2705.4336],[-66.3824,-25.6376,2630.677],[-66.3794,-25.6147,2568.4424],[-66.3836,-25.5805,2402.8286],[-66.3792,-25.5636,2332.5767],[-66.3723,-25.5542,2294.8428],[-66.3643,-25.5386,2273.2065],[-66.3552,-25.5306,2261.1052],[-66.3255,-25.5209,2377.3735],[-66.3084,-25.5135,2911.4961],[-66.298,-25.5069,2767.9033],[-66.2753,-25.4967,2849.8167],[-66.2318,-25.4733,1979.01],[-66.2192,-25.4716,2026.998],[-66.1876,-25.4714,2189.8208],[-66.1765,-25.4661,2264.7292],[-66.1621,-25.4549,2342.4976],[-66.145,-25.4475,2434.2407],[-66.1261,-25.448,2501.8555],[-66.12,-25.4465,2554.1118],[-66.1012,-25.4487,2680.509],[-66.0696,-25.4478,2902.9126],[-66.0507,-25.4493,3057.6855],[-66.038,-25.4483,3198.7136],[-66.0328,-25.4452,3292.7866],[-66.0227,-25.4307,3444.3071],[-66.0176,-25.4203,3422.0195],[-66.0151,-25.3802,3656.9966],[-66.0123,-25.369,3623.582],[-66.0065,-25.3589,3691.041],[-66.0039,-25.3476,3637.8618],[-66.0023,-25.3304,3650.4082],[-66.0069,-25.3128,3545.4031],[-66.0299,-25.3052,3223.4097],[-66.0425,-25.305,3100.8279],[-66.0612,-25.3017,2955.3574],[-66.0797,-25.2978,2820.104],[-66.0911,-25.293,2744.8035],[-66.0973,-25.2922,2717.387],[-66.1097,-25.2947,2657.0266],[-66.1158,-25.2934,2629.2336],[-66.1328,-25.2857,2530.8159],[-66.2026,-25.2465,2196.574],[-66.2341,-25.2459,2503.4902],[-66.2401,-25.2446,2348.28],[-66.2569,-25.2363,2442.1138],[-66.2626,-25.2357,2439.5291],[-66.2748,-25.2393,2629.6726],[-66.2811,-25.2395,2828.5491],[-66.293,-25.2357,3228.458],[-66.2983,-25.2325,3406.2012],[-66.305,-25.2229,3363.2944],[-66.3081,-25.2117,3370.5332],[-66.3075,-25.2002,3354.5801],[-66.3089,-25.1947,3467.6426],[-66.315,-25.1847,3604.0151],[-66.3181,-25.1619,4009.6575],[-66.3205,-25.1565,4125.7529],[-66.3312,-25.1505,3993.8528],[-66.3617,-25.1432,4092.877],[-66.3805,-25.1415,3704.2856],[-66.4104,-25.1321,4636.894],[-66.4167,-25.1315,4306.8931],[-66.4226,-25.1331,4144.0752],[-66.4411,-25.1488,3273.0801],[-66.4525,-25.154,3081.8296],[-66.4583,-25.1519,3254.1248],[-66.4627,-25.1477,3248.0215],[-66.4646,-25.1307,3198.6724],[-66.4693,-25.1199,3245.8325],[-66.4732,-25.1153,3233.9004],[-66.4918,-25.1128,4019.6973],[-66.5041,-25.114,3652.6511],[-66.5349,-25.1073,4481.8843],[-66.5411,-25.1078,4478.8984],[-66.5994,-25.1239,5633.8179],[-66.5999,-25.1505,5539.4824],[-66.5954,-25.1612,5204.6709],[-66.5874,-25.1701,5186.9707],[-66.5775,-25.1772,4869.2275],[-66.5667,-25.183,4774.2856],[-66.5486,-25.1882,4786.6011],[-66.5386,-25.195,5016.1592],[-66.533,-25.205,4921.645],[-66.5335,-25.221,4393.0967],[-66.5174,-25.2446,3951.0557],[-66.5441,-25.2688,3941.3237],[-66.5499,-25.2791,4405.0615],[-66.5544,-25.2914,4559.2515],[-66.5474,-25.335,4275.8203],[-66.5465,-25.3741,4264.6567],[-66.5321,-25.4341,4315.1265],[-66.5295,-25.4564,4465.0586],[-66.533,-25.5093,4426.9194],[-66.546,-25.5696,3334.1133],[-66.5594,-25.6155,3934.5615],[-66.5764,-25.6484,4217.0444],[-66.5871,-25.6757,3839.0884],[-66.5906,-25.6795,3894.5034],[-66.5958,-25.6807,4074.1965],[-66.6152,-25.6786,4378.2119],[-66.6275,-25.6796,4592.1772],[-66.6747,-25.6901,4377.2344],[-66.7183,-25.6871,4338.9922],[-66.7408,-25.6961,4370.7305],[-66.7685,-25.6976,4243.3906],[-66.7739,-25.7,4212.7407],[-66.7855,-25.7093,4302.2505],[-66.7922,-25.7186,4368.9946],[-66.8157,-25.7423,4561.3599],[-66.8171,-25.7789,4621.4111],[-66.814,-25.8095,4609.0547],[-66.8061,-25.8503,4656.9351],[-66.8014,-25.8914,4792.3232]]]]}}