{"type": "Feature","bbox": [-70.0415,-39.8139,-68.8551,-39.0063],"geometry": {"type": "MultiPolygon","coordinates": [[[[-69.863,-39.585,681.5724],[-69.5732,-39.8139,409.0573],[-69.548,-39.8093,409.2009],[-69.541,-39.8097,408.8749],[-69.531,-39.8128,405.1016],[-69.5203,-39.8124,419.6597],[-69.5046,-39.8062,406.2802],[-69.4648,-39.7746,398.7019],[-69.4443,-39.7701,395.7453],[-69.4218,-39.7619,395.6864],[-69.4119,-39.754,391.4744],[-69.4023,-39.7424,392.4252],[-69.3845,-39.7335,390.0985],[-69.3762,-39.7245,391.0081],[-69.3594,-39.7143,389.2556],[-69.3542,-39.707,387.4179],[-69.346,-39.686,383.612],[-69.3352,-39.675,383.4653],[-69.3243,-39.6578,380.1321],[-69.2856,-39.6143,374.5],[-69.2766,-39.5999,374.5],[-69.2581,-39.5871,374.5],[-69.2531,-39.58,374.5],[-69.2301,-39.5628,374.5],[-69.2235,-39.5607,389.6564],[-69.1954,-39.5579,374.5],[-69.1854,-39.5549,374.5],[-69.1802,-39.5515,377.4005],[-69.1732,-39.5507,374.5],[-69.1677,-39.5472,374.5],[-69.158,-39.5356,374.5],[-69.1387,-39.529,374.5],[-69.1263,-39.5191,374.5],[-69.123,-39.5181,374.5],[-69.1069,-39.5232,374.5],[-69.0695,-39.5153,374.5],[-69.0447,-39.5131,374.5],[-69.031,-39.5048,374.5],[-69.0144,-39.4997,374.5],[-69.0074,-39.505,374.5],[-68.9968,-39.5055,374.5],[-68.9814,-39.4941,374.5],[-68.9798,-39.4917,374.5],[-68.9791,-39.4808,374.5],[-68.9733,-39.4738,374.5],[-68.9613,-39.468,374.5],[-68.953,-39.4592,374.5],[-68.9433,-39.4561,374.5],[-68.9318,-39.4495,374.5],[-68.9286,-39.4447,374.5],[-68.9269,-39.4361,374.5],[-68.9241,-39.4311,374.5],[-68.9114,-39.4263,374.5],[-68.8991,-39.4098,374.5],[-68.8787,-39.3988,374.5],[-68.8551,-39.3937,374.5],[-69.3294,-39.0063,765.2023],[-69.6577,-39.2599,671.362],[-69.724,-39.2048,738.0922],[-70.0415,-39.4429,773.4466],[-69.863,-39.585,681.5724]]]]}
,"properties": {"GID_2": "ARG.15.14_1","GID_0": "ARG","country": "Argentina","GID_1": "ARG.15_1","state": "Neuquén","NL_NAME_1": "NA","county": "PicúnLeufú","VARNAME_2": "NA","NL_NAME_2": "NA","TYPE_2": "Departamento","ENGTYPE_2": "Department","CC_2": "NA","HASC_2": "AR.NQ.PL","name": "PicúnLeufú.county","area_km2": 4493.646,"hist_schema_id": "Elevation0-9000","hist_area_km2": {"375": 482.719,"400": 342.978,"425": 257.136,"450": 223.649,"475": 234.549,"500": 188.062,"525": 204.454,"550": 220.009,"575": 249.825,"600": 320.11,"625": 315.497,"650": 308.133,"675": 309.869,"700": 253.458,"725": 216.228,"750": 127.185,"775": 92.91,"800": 64.647,"825": 37.253,"850": 19.916,"875": 15.68,"900": 8.44,"925": 0.938}}}