{"type":"Feature","properties":{"GID_2":"ARG.2.14_1","GID_0":"ARG","country":"Argentina","GID_1":"ARG.2_1","state":"Catamarca","NL_NAME_1":"NA","county":"SantaRosa","VARNAME_2":"BanadodeOvanta","NL_NAME_2":"NA","TYPE_2":"Departamento","ENGTYPE_2":"Department","CC_2":"NA","HASC_2":"AR.CT.SR","name":"SantaRosa.county"},
"geometry":{"type": "MultiPolygon","coordinates": [[[[-65.1092,-28.3361,465.6772],[-65.1169,-28.1916,488.1035],[-65.1502,-28.0602,436.7302],[-65.1703,-27.9739,387.0199],[-65.1834,-27.9355,372.8937],[-65.3676,-27.8411,346.5242],[-65.3941,-27.8488,356.6021],[-65.414,-27.8598,364.3004],[-65.4723,-27.8996,408.6862],[-65.5011,-27.9234,430.6086],[-65.5098,-27.9451,441.3184],[-65.5224,-27.9854,481.8205],[-65.5364,-27.9985,490.0865],[-65.5438,-28.0013,488.4247],[-65.5397,-28.0356,526.4986],[-65.5273,-28.04,537.4219],[-65.5178,-28.0748,514.4124],[-65.5204,-28.0882,524.0089],[-65.5291,-28.1001,548.6672],[-65.5311,-28.1143,544.9177],[-65.5263,-28.1415,532.8748],[-65.5046,-28.1484,515.2123],[-65.4754,-28.1608,514.9471],[-65.4549,-28.1748,655.1603],[-65.4146,-28.1933,712.3702],[-65.3757,-28.214,739.4061],[-65.3278,-28.2434,752.2205],[-65.2757,-28.2866,755.8713],[-65.2393,-28.2882,675.6199],[-65.1092,-28.3361,465.6772]]]]}}