{"type": "Feature","bbox": [-64.5685,-28.3706,-64.0828,-27.9999],"geometry": {"type": "MultiPolygon","coordinates": [[[[-64.5418,-28.2082,256.8047],[-64.5663,-28.3055,241.5956],[-64.561,-28.3072,236.7014],[-64.5685,-28.3491,227.1742],[-64.4347,-28.3706,176.7097],[-64.4196,-28.309,179.8437],[-64.2739,-28.3362,140.1113],[-64.2371,-28.3288,136.6139],[-64.2368,-28.3102,139.751],[-64.0828,-28.2522,138.8391],[-64.0846,-28.2411,143.9019],[-64.0865,-28.1288,154.0911],[-64.1256,-28.0354,161.4467],[-64.1305,-28.0247,162.1058],[-64.1382,-28.017,159.8558],[-64.1358,-27.9999,162.537],[-64.2354,-28.0172,172.9673],[-64.2613,-28.1223,176.401],[-64.4249,-28.0941,230.8905],[-64.418,-28.1498,211.5887],[-64.4526,-28.1443,235.2502],[-64.4734,-28.2217,225.0079],[-64.5418,-28.2082,256.8047]]]]}
,"properties": {"GID_2": "ARG.22.27_1","GID_0": "ARG","country": "Argentina","GID_1": "ARG.22_1","state": "SantiagodelEstero","NL_NAME_1": "NA","county": "Silípica","VARNAME_2": "Arraga","NL_NAME_2": "NA","TYPE_2": "Departamento","ENGTYPE_2": "Department","CC_2": "NA","HASC_2": "AR.SE.SI","name": "Silípica.county","area_km2": 1104.49,"hist_schema_id": "Elevation0-9000","hist_area_km2": {"125": 0.0373,"150": 469.3671,"175": 296.5979,"200": 187.4392,"225": 127.4963,"250": 23.5521}}}