{"type":"Feature","properties":{"GID_2":"ARG.1.13_1","GID_0":"ARG","country":"Argentina","GID_1":"ARG.1_1","state":"BuenosAires","NL_NAME_1":"NA","county":"BenitoJuárez","VARNAME_2":"NA","NL_NAME_2":"NA","TYPE_2":"Partido","ENGTYPE_2":"Part","CC_2":"NA","HASC_2":"AR.BA.BJ","name":"BenitoJuárez.county"},
"geometry":{"type": "MultiPolygon","coordinates": [[[[-59.6718,-38.0024,156.9396],[-59.4011,-37.7897,179.071],[-59.4001,-37.7842,180.3302],[-59.3963,-37.779,181.2679],[-59.3877,-37.7751,183.6451],[-59.3846,-37.7667,184.6325],[-59.3678,-37.7636,189.4718],[-59.3539,-37.7536,195.36],[-59.3451,-37.7423,199.9033],[-59.3337,-37.7356,204.2058],[-59.3231,-37.7326,208.2534],[-59.2877,-37.7155,233.3034],[-59.2686,-37.7015,239.2542],[-59.2535,-37.6862,242.7122],[-59.2514,-37.6773,248.6185],[-59.2248,-37.6544,293.4698],[-59.5544,-37.4127,231.7423],[-59.5581,-37.416,231.2608],[-59.7803,-37.2467,202.8771],[-59.799,-37.2557,211.0421],[-59.8116,-37.2668,214.2124],[-59.8199,-37.2865,219.6156],[-59.8219,-37.3073,237.983],[-59.8254,-37.3216,233.0088],[-59.8707,-37.368,245.0859],[-59.8616,-37.3734,245.9887],[-59.957,-37.447,236.0328],[-60.0362,-37.3836,246.5795],[-59.9896,-37.3437,264.1782],[-60.2035,-37.1804,218.4958],[-60.2786,-37.2431,223.4726],[-60.2756,-37.2467,224.22],[-60.4254,-37.3699,226.2899],[-60.4423,-37.3569,225.6537],[-60.4478,-37.3617,224.8373],[-60.466,-37.348,223.4615],[-60.4999,-37.3764,220.9107],[-60.3399,-37.4967,230.7487],[-60.4648,-37.5962,212.7242],[-60.376,-37.6659,212.3105],[-60.4201,-37.7006,206.6988],[-60.3229,-37.7763,220.257],[-60.2999,-37.7565,220.0133],[-60.2954,-37.7596,226.2394],[-60.2574,-37.7294,225.9716],[-60.0925,-37.8536,215.6425],[-60.0671,-37.8327,204.0157],[-60.0237,-37.866,198.4635],[-59.9374,-37.7956,193.8714],[-59.9152,-37.8144,189.8209],[-59.8917,-37.8289,186.7054],[-59.8862,-37.8351,186.2044],[-59.8461,-37.861,180.4387],[-59.8454,-37.8644,181.4058],[-59.8348,-37.8679,180.356],[-59.8282,-37.8722,179.6349],[-59.8228,-37.8787,178.8934],[-59.8058,-37.8858,176.6214],[-59.802,-37.8932,176.625],[-59.7943,-37.9017,175.2788],[-59.7672,-37.9154,172.1243],[-59.7628,-37.9151,171.957],[-59.7486,-37.9221,170.5028],[-59.7459,-37.9303,169.4378],[-59.7354,-37.937,168.463],[-59.7342,-37.9415,167.2723],[-59.7291,-37.9476,166.5211],[-59.7107,-37.9631,163.7125],[-59.6987,-37.9718,162.0774],[-59.6801,-37.9781,160.2238],[-59.6708,-37.9863,159.2865],[-59.6691,-37.9935,158.0505],[-59.6718,-38.0024,156.9396]]]]}}