{"type":"Feature","properties":{"ISO3166-1-Alpha-3":"ARG","country":"Argentina","fill":"#F00","id":"1297","name":"Río Negro"},
"geometry":{"type": "Polygon","coordinates": [[[-67.81076,-38.07054,287.0164],[-67.82172,-38.06837,288.079],[-67.83914,-38.05907,288.6638],[-67.8449,-38.0569,290.5715],[-67.85428,-38.04889,290.7128],[-67.86394,-38.02982,304.3804],[-67.87174,-38.00724,296.7322],[-67.87562,-37.98864,299.7562],[-67.87009,-37.94177,303.3071],[-67.84826,-37.90776,310.5744],[-67.81619,-37.88327,314.8843],[-67.74795,-37.84523,331.0008],[-67.72369,-37.81686,335.3174],[-67.71051,-37.78002,344.0928],[-67.71175,-37.73475,352.7917],[-67.72478,-37.70235,380.5199],[-67.7486,-37.66907,407.9678],[-67.7779,-37.63941,426.4618],[-67.80733,-37.61807,430.362],[-67.85032,-37.60024,436.989],[-68.24939,-37.55704,490.5133],[-68.24939,-37.56546,484.191],[-68.2502,-37.72374,507.4607],[-68.25213,-38.65929,313.9305],[-68.24728,-38.68172,309.9805],[-68.2256,-38.69671,308.7322],[-68.17891,-38.74275,300.0702],[-68.04946,-38.90367,269.8391],[-68.03747,-38.92687,266.9583],[-68.03509,-38.94496,275.7119],[-68.0368,-38.95902,264.1609],[-68.0316,-38.96971,259.5987],[-68.0139,-38.97467,258.1239],[-68.01042,-38.9755,259.6254],[-68.11734,-38.9971,303.9954],[-68.151,-38.99715,311.4764],[-68.1972,-38.98455,270.5069],[-68.21586,-38.98289,272.7427],[-68.23131,-38.98646,275.6886],[-68.24477,-38.99297,313.9402],[-68.25844,-38.99633,312.47],[-68.28748,-38.98398,272.375],[-68.30931,-38.9631,279.3128],[-68.32091,-38.96181,279.6315],[-68.36277,-38.99168,281.9765],[-68.37957,-38.99591,282.8474],[-68.41176,-39.01023,286.0611],[-68.47667,-39.07296,340.3707],[-68.50964,-39.08723,340.7674],[-68.54196,-39.09276,300.3143],[-68.57447,-39.10764,291.5],[-68.60457,-39.1296,311.5],[-68.62976,-39.15616,311.5],[-68.65971,-39.20035,325.6584],[-68.67146,-39.21363,347.6432],[-68.68717,-39.22572,313.8112],[-68.70451,-39.23461,311.5],[-68.74719,-39.24923,369.9662],[-68.76045,-39.26634,374.5],[-68.76921,-39.27595,374.5],[-68.79773,-39.29347,375.3021],[-68.80897,-39.30768,374.5],[-68.82504,-39.35863,374.5],[-68.83016,-39.36804,374.5],[-68.8352,-39.37434,374.5],[-68.88726,-39.39946,374.5],[-68.89848,-39.40736,374.5],[-68.9047,-39.41325,374.5],[-68.94292,-39.46813,374.5],[-68.95367,-39.48069,374.5],[-68.96222,-39.4887,374.5],[-68.97292,-39.49366,374.5],[-69.01968,-39.50989,374.5],[-69.04565,-39.5226,374.5],[-69.05175,-39.52431,374.5],[-69.07971,-39.52679,374.5],[-69.10973,-39.52663,374.5],[-69.12123,-39.52942,374.5],[-69.13546,-39.5349,374.5],[-69.18412,-39.56255,374.5],[-69.18949,-39.56487,374.5],[-69.21125,-39.57087,374.5],[-69.24448,-39.58549,374.5],[-69.26517,-39.59841,374.5],[-69.28189,-39.61469,374.5],[-69.30414,-39.64135,378.0799],[-69.30688,-39.64564,379.1096],[-69.31005,-39.65753,380.3199],[-69.36403,-39.71716,385.7663],[-69.38163,-39.73029,389.1518],[-69.42131,-39.7537,395.4151],[-69.49082,-39.8092,405.0612],[-69.51606,-39.82191,410.5862],[-69.54022,-39.82589,410.7898],[-69.63164,-39.81788,418.0447],[-69.66393,-39.81958,421.6279],[-69.68039,-39.82315,423.6359],[-69.92234,-39.93379,452.4662],[-69.94472,-39.94738,457.7286],[-69.96156,-39.96392,461.9524],[-69.96647,-39.97306,485.8569],[-69.96769,-39.98056,454.6279],[-69.96808,-39.99864,580.4873],[-69.97087,-40.00795,585.2798],[-69.98502,-40.03327,519.7074],[-69.99159,-40.05352,530.9468],[-69.99807,-40.11192,533.1613],[-70.00061,-40.12303,540.7672],[-70.00939,-40.1438,730.0535],[-70.0121,-40.15502,742.5931],[-70.00991,-40.18711,652.3068],[-70.01094,-40.19796,592.3876],[-70.01792,-40.21413,589.0],[-70.04045,-40.24421,650.454],[-70.0768,-40.32095,591.6801],[-70.08184,-40.34374,589.0],[-70.08181,-40.39495,589.0],[-70.08463,-40.42058,647.2046],[-70.09564,-40.4413,589.0],[-70.10543,-40.44926,683.709],[-70.11732,-40.45608,737.6989],[-70.12993,-40.46151,748.759],[-70.14204,-40.46528,666.4149],[-70.15135,-40.4659,629.3397],[-70.17194,-40.4644,589.0],[-70.18023,-40.46564,589.0],[-70.19083,-40.47784,782.4454],[-70.20315,-40.52058,622.8322],[-70.21421,-40.5382,676.2822],[-70.23894,-40.54982,748.7919],[-70.32555,-40.54786,760.4972],[-70.40438,-40.56636,713.6],[-70.44482,-40.56688,678.2485],[-70.47846,-40.54765,657.6127],[-70.49497,-40.53138,652.8615],[-70.51442,-40.51856,657.4069],[-70.53631,-40.5122,589.0],[-70.55998,-40.51546,608.7604],[-70.57607,-40.52352,657.7466],[-70.6177,-40.55845,589.0],[-70.64491,-40.57618,589.0],[-70.68051,-40.59018,589.0],[-70.71775,-40.59731,611.0873],[-70.74986,-40.59458,760.5985],[-70.76495,-40.59024,711.9185],[-70.79637,-40.58507,699.5],[-70.81208,-40.58496,699.5],[-70.82882,-40.58931,699.5],[-70.85461,-40.606,699.5],[-70.86823,-40.61091,727.4635],[-70.86768,-40.61401,731.5248],[-70.89197,-40.6153,699.5],[-70.92076,-40.6215,718.0346],[-70.9715,-40.64036,699.5],[-70.98168,-40.64672,699.5],[-70.99132,-40.65442,699.5],[-70.99969,-40.66341,714.8087],[-71.00638,-40.67343,699.5],[-71.00892,-40.68041,699.5],[-71.01253,-40.6956,699.5],[-71.01556,-40.70196,699.5],[-71.02899,-40.71235,700.736],[-71.06302,-40.7186,1018.8218],[-71.07891,-40.72578,699.5],[-71.08392,-40.73105,985.6312],[-71.0909,-40.74299,861.4575],[-71.09511,-40.74852,907.2397],[-71.10222,-40.75426,838.4417],[-71.11806,-40.76428,735.8685],[-71.12501,-40.77069,782.3889],[-71.13023,-40.77947,779.071],[-71.13242,-40.78888,764.7548],[-71.13211,-40.79854,917.381],[-71.12981,-40.8081,894.8588],[-71.11837,-40.82376,925.5386],[-71.1002,-40.83379,736.4872],[-71.08002,-40.842,962.8242],[-71.0625,-40.85223,741.9542],[-71.04643,-40.86763,763.2589],[-71.03287,-40.88608,863.2773],[-71.02628,-40.90681,774.5415],[-71.03109,-40.92877,766.6542],[-71.04279,-40.94639,740.6985],[-71.05708,-40.96225,750.5518],[-71.11987,-41.01744,763.5425],[-71.13284,-41.0393,792.3785],[-71.13795,-41.04488,800.1497],[-71.148,-41.05124,810.8634],[-71.17208,-41.0623,768.0],[-71.18653,-41.06959,768.0],[-71.21609,-41.08126,768.0],[-71.27169,-41.09325,768.0],[-71.29732,-41.09511,768.0],[-71.35928,-41.08969,768.0],[-71.55374,-41.03197,768.0],[-71.5887,-41.02902,768.0],[-71.665,-41.03026,768.0],[-71.73231,-41.0175,870.999],[-71.85912,-41.01124,1268.108],[-71.8674,-41.01024,1315.0],[-71.86716,-41.02018,1492.6833],[-71.85284,-41.05718,763.7826],[-71.85398,-41.07889,1599.928],[-71.86261,-41.11465,624.8323],[-71.86587,-41.15041,2134.8281],[-71.87134,-41.16674,2759.8967],[-71.88142,-41.17263,2810.417],[-71.88943,-41.17976,2069.1741],[-71.88845,-41.20033,1404.1123],[-71.87594,-41.23361,1302.8275],[-71.87336,-41.24921,1346.7992],[-71.8777,-41.26978,1259.7693],[-71.90225,-41.33593,1386.2634],[-71.90395,-41.36765,1433.2484],[-71.89233,-41.40538,1078.295],[-71.88432,-41.42295,957.762],[-71.87982,-41.43669,919.5452],[-71.87884,-41.45106,750.0944],[-71.88121,-41.47039,919.59],[-71.88871,-41.50015,989.8147],[-71.88809,-41.51276,962.2963],[-71.8807,-41.52971,754.4491],[-71.86809,-41.54511,1190.7717],[-71.85688,-41.55596,1236.3718],[-71.85326,-41.56733,1280.0081],[-71.86349,-41.58449,1485.9052],[-71.8777,-41.59493,1357.8015],[-71.91186,-41.61022,1071.0052],[-71.92597,-41.62294,675.9868],[-71.92592,-41.65301,535.4397],[-71.86897,-41.71554,1666.8761],[-71.85858,-41.74861,947.6118],[-71.85688,-41.78613,1029.1995],[-71.83894,-41.81331,1094.8123],[-71.81466,-41.83781,1376.6738],[-71.79404,-41.86747,1748.1924],[-71.7744,-41.9392,1376.243],[-71.77507,-41.95635,1832.2894],[-71.77988,-41.97227,1343.1943],[-71.78065,-41.98643,1878.8514],[-71.76926,-41.99961,1778.7874],[-71.7597,-41.99961,1461.8866],[-71.23273,-41.99904,881.8997],[-69.39969,-41.99961,1459.0299],[-69.28711,-41.99976,1422.5103],[-68.43272,-41.99961,1219.0515],[-68.08062,-41.99935,1243.9302],[-66.88384,-41.99919,673.599],[-66.03325,-41.99935,444.6078],[-65.73353,-41.99992,306.4595],[-65.12721,-42.00023,19.2828],[-65.0622,-42.00984,0.0],[-65.05458,-42.0107,0.0],[-65.0546,-42.01067,0.0],[-65.06957,-41.98577,3.0963],[-65.07453,-41.95094,10.9033],[-65.05968,-41.90838,0.0],[-65.01769,-41.83636,0.0],[-64.99991,-41.79339,0.0],[-64.9982,-41.7575,0.0],[-65.02676,-41.70094,11.2877],[-65.03722,-41.66513,13.6097],[-65.02864,-41.63738,11.0575],[-65.01456,-41.61712,0.0],[-65.00186,-41.58652,0.0],[-64.99328,-41.55299,0.0],[-64.99136,-41.5241,7.4734],[-65.00626,-41.49342,20.3988],[-65.06119,-41.44842,18.3467],[-65.07335,-41.41766,7.6189],[-65.0797,-41.38633,5.8509],[-65.10489,-41.32977,11.0266],[-65.10684,-41.29876,0.0],[-65.1468,-41.1806,0.8451],[-65.17512,-41.01019,17.6883],[-65.17569,-40.96917,29.4647],[-65.17162,-40.9459,31.1696],[-65.16369,-40.92303,38.357],[-65.15246,-40.90163,38.4077],[-65.13817,-40.88299,17.8914],[-65.13439,-40.87371,17.014],[-65.13532,-40.85166,20.4308],[-65.1317,-40.84238,19.9751],[-65.12194,-40.83367,23.609],[-65.04206,-40.78484,0.0],[-65.02864,-40.7737,0.0],[-65.01085,-40.76727,0.0],[-64.90884,-40.77011,0.0],[-64.91999,-40.76043,0.0],[-64.93236,-40.75351,16.6583],[-64.93639,-40.74472,3.9648],[-64.92247,-40.72967,4.1505],[-64.94066,-40.72487,0.624],[-64.9733,-40.73154,12.8052],[-64.99136,-40.72967,13.9637],[-64.98184,-40.72332,2.4114],[-64.94652,-40.71136,0.5139],[-64.89045,-40.70599,12.7406],[-64.79621,-40.72332,5.7572],[-64.77164,-40.7365,6.3342],[-64.80028,-40.75888,0.0],[-64.78311,-40.768,5.7019],[-64.75357,-40.77654,3.3407],[-64.74498,-40.7973,4.9296],[-64.7552,-40.80429,0.0],[-64.77302,-40.80608,10.4286],[-64.83312,-40.80535,12.9511],[-64.83381,-40.80674,14.0973],[-64.83947,-40.80926,11.9155],[-64.84728,-40.81162,0.0],[-64.85424,-40.81219,9.9734],[-64.84992,-40.7951,7.6434],[-64.86799,-40.79217,0.8496],[-64.89363,-40.79844,0.0],[-64.91198,-40.80877,0.0],[-64.9112,-40.82383,0.0],[-64.88541,-40.83099,0.0],[-64.85326,-40.83294,0.0],[-64.78331,-40.82741,0.0],[-64.73493,-40.83034,0.0],[-64.64476,-40.84645,0.0],[-64.55207,-40.88291,0.0],[-64.4171,-40.91074,40.2478],[-64.17431,-41.00897,14.6568],[-64.13427,-41.01702,3.0658],[-64.11254,-41.01279,2.2881],[-64.08532,-41.00408,2.9834],[-64.06212,-40.99944,9.6278],[-64.05232,-41.00709,10.4605],[-64.06135,-41.02142,7.5297],[-64.06542,-41.03143,5.5896],[-64.06286,-41.04127,0.0],[-64.05289,-41.04599,0.0],[-64.01134,-41.04502,6.8138],[-63.96687,-41.06024,22.2285],[-63.86669,-41.13372,73.9827],[-63.82421,-41.15081,0.0],[-63.77941,-41.15879,42.9468],[-63.62182,-41.1609,0.0],[-63.47948,-41.15423,59.065],[-63.38414,-41.16107,0.0],[-63.36046,-41.15838,0.0],[-63.31701,-41.14804,18.7285],[-63.09952,-41.15488,0.0],[-63.05358,-41.14715,0.0],[-62.93513,-41.0997,0.0],[-62.86384,-41.08514,0.0],[-62.84887,-41.07187,0.0],[-62.82274,-41.05486,0.0],[-62.81094,-41.04404,0.0],[-62.80163,-41.04168,0.0],[-62.80173,-41.04088,0.0],[-62.80952,-41.01605,1.9852],[-62.84799,-40.95357,5.4621],[-62.86145,-40.93838,4.8556],[-62.92163,-40.89146,4.1069],[-62.97142,-40.86174,4.292],[-62.98171,-40.85316,3.4438],[-63.02449,-40.80919,2.9769],[-63.10302,-40.75395,20.9203],[-63.1178,-40.74614,5.7743],[-63.18239,-40.72904,6.8392],[-63.38742,-40.70909,6.5],[-63.38765,-40.67235,11.3115],[-63.38744,-40.41407,53.6516],[-63.38729,-39.871,36.5978],[-63.38858,-39.32576,41.2294],[-63.47801,-39.31848,43.9826],[-63.5164,-39.30597,44.9742],[-63.54506,-39.28339,47.5915],[-63.67551,-39.21311,51.5335],[-63.71122,-39.20019,52.9144],[-63.72822,-39.18293,58.7386],[-63.75393,-39.14996,59.0397],[-63.76801,-39.13797,57.9334],[-63.78212,-39.12836,61.1035],[-63.81941,-39.11208,64.1086],[-63.88811,-39.09973,65.5291],[-63.90816,-39.09224,63.5],[-63.99446,-39.00981,69.6033],[-64.01022,-38.99979,74.8669],[-64.0573,-38.99359,76.7548],[-64.07386,-38.98723,88.4303],[-64.14631,-38.9493,122.5409],[-64.47149,-38.8537,111.8073],[-64.5422,-38.852,98.7498],[-64.82092,-38.8104,136.3215],[-64.84046,-38.81789,128.7883],[-64.87213,-38.80957,141.3482],[-64.94347,-38.81856,140.413],[-64.97016,-38.80357,155.3469],[-64.9776,-38.80357,153.3824],[-65.11416,-38.80357,127.1819],[-65.26146,-38.82549,133.3979],[-65.3134,-38.82409,151.6922],[-65.35753,-38.83696,154.4533],[-65.3674,-38.83835,161.3228],[-65.38657,-38.832,155.3647],[-65.42355,-38.81153,166.0393],[-65.51142,-38.78373,160.1485],[-65.563,-38.77582,174.2915],[-65.59,-38.77753,161.6786],[-65.61134,-38.78683,164.6515],[-65.62798,-38.79872,166.8142],[-65.64878,-38.80988,164.3977],[-65.67038,-38.81727,169.2971],[-65.68955,-38.81789,170.4843],[-65.69766,-38.81355,170.7866],[-65.70697,-38.80636,181.2992],[-65.71875,-38.7997,209.7804],[-65.73425,-38.79675,198.3094],[-65.77551,-38.79675,174.4364],[-65.78513,-38.79422,173.5966],[-65.80337,-38.78141,205.9895],[-65.81306,-38.77629,211.6735],[-65.82642,-38.77319,210.8028],[-65.8683,-38.76947,179.1783],[-65.90235,-38.75743,180.2602],[-65.92866,-38.75365,181.7729],[-65.94974,-38.7443,184.9652],[-65.96018,-38.74213,192.4017],[-66.21523,-38.7166,193.3393],[-66.34752,-38.73484,209.1132],[-66.39186,-38.73417,213.1341],[-66.51022,-38.7104,209.3438],[-66.53648,-38.70802,207.4571],[-66.56195,-38.70157,208.5061],[-66.57361,-38.68503,209.3509],[-66.58087,-38.63847,229.279],[-66.5935,-38.60731,209.0],[-66.61683,-38.57945,216.4352],[-66.64794,-38.55739,221.8732],[-66.68388,-38.54354,220.8845],[-66.72858,-38.53672,225.8331],[-66.7384,-38.53351,226.5192],[-66.75641,-38.51941,229.6936],[-66.76241,-38.5162,229.1846],[-66.7716,-38.51341,229.9202],[-66.8068,-38.49512,232.5186],[-66.85522,-38.48892,232.962],[-66.8779,-38.48308,236.7182],[-66.90824,-38.46484,237.5896],[-66.95343,-38.4575,233.1336],[-67.05316,-38.41455,232.6737],[-67.06376,-38.41316,240.0537],[-67.06983,-38.40897,234.9412],[-67.08551,-38.39068,247.1283],[-67.09903,-38.37998,249.1208],[-67.13577,-38.33807,256.1401],[-67.15941,-38.2851,240.7892],[-67.16305,-38.27291,256.8749],[-67.16321,-38.2525,260.3872],[-67.16641,-38.2355,268.0718],[-67.17659,-38.22263,269.0562],[-67.19783,-38.21457,273.0],[-67.22075,-38.21322,273.0],[-67.30527,-38.22666,276.9374],[-67.35095,-38.25012,273.0],[-67.37596,-38.25555,273.0],[-67.45185,-38.24697,273.0],[-67.47771,-38.25787,273.0],[-67.55409,-38.26175,273.0],[-67.59199,-38.24712,273.0],[-67.62473,-38.22227,273.0],[-67.65119,-38.19152,280.7731],[-67.70566,-38.10057,310.6543],[-67.73449,-38.07592,282.1352],[-67.7732,-38.0631,284.9092],[-67.78493,-38.06357,286.6395],[-67.81076,-38.07054,287.0164]]]}}