{"type":"Feature","properties":{"featurecla":"River","scalerank":8,"rivernum":799,"dissolve":"799River","name":"Chico6","name_alt":null,"note":null,"min_zoom":7.0,"strokeweig":0.15,"name_en":"Chico","min_label":8.0},
"geometry":{"type": "LineString","coordinates": [[-71.129248046874991,-41.682940362505875,1216.5942],[-71.131201171874991,-41.69817473750588,1151.3849],[-71.125732421875,-41.74431731563088,1233.1238],[-71.127246093749989,-41.754717706255875,1275.7944],[-71.1357421875,-41.784209893755886,1195.0625],[-71.135351562499991,-41.81194426875588,1001.9574],[-71.120703124999991,-41.864776300005886,937.1558],[-71.119873046875,-41.89226653438088,793.3865],[-71.139257812499991,-41.96599700313088,721.5744]]}}