{"type": "Feature","bbox": [-71.9096,-42.0105,-62.7904,-37.5779],"geometry": {"type": "MultiPolygon","coordinates": [[[[-64.9999,-42.0001,0.0],[-64.9999,-41.9999,0.0],[-65.0001,-41.9999,0.0],[-65.0001,-42.0001,0.0],[-64.9999,-42.0001,0.0]]],
[[[-65.0243,-41.4471,0.0],[-65.0279,-41.4465,0.0],[-65.0285,-41.4476,0.0],[-65.0249,-41.4487,0.0],[-65.0243,-41.4471,0.0]]],
[[[-65.0462,-41.4137,0.0],[-65.0462,-41.411,0.0],[-65.0476,-41.411,0.0],[-65.0515,-41.4118,0.0],[-65.0521,-41.4143,0.0],[-65.051,-41.4129,0.0],[-65.0462,-41.4137,0.0]]],
[[[-64.9999,-41.0001,0.0],[-64.9999,-40.9999,0.0],[-65.0001,-40.9999,0.0],[-65.0001,-41.0001,0.0],[-64.9999,-41.0001,0.0]]],
[[[-64.8357,-40.7793,0.0],[-64.8404,-40.7785,0.0],[-64.8399,-40.7801,0.0],[-64.8354,-40.7801,0.0],[-64.8324,-40.7829,0.0],[-64.8257,-40.7826,0.0],[-64.8265,-40.7812,0.0],[-64.8357,-40.7793,0.0]]],
[[[-62.7996,-41.0274,6.844],[-62.7989,-41.0246,8.1528],[-62.7904,-41.0207,0.0],[-62.7953,-41.0103,0.0],[-62.8029,-40.9831,0.0],[-62.8075,-40.9747,0.0],[-62.8432,-40.943,0.0],[-62.8504,-40.9254,0.4682],[-62.8743,-40.8987,0.0],[-62.8898,-40.8845,0.0],[-62.9127,-40.8692,0.0],[-62.9191,-40.8615,0.0],[-62.9252,-40.8483,2.247],[-62.9289,-40.8449,4.3438],[-62.9442,-40.8372,0.0],[-62.949,-40.8235,2.8931],[-62.952,-40.8199,0.9066],[-62.9736,-40.8111,5.0942],[-62.9976,-40.7968,1.3899],[-63.0211,-40.7931,0.0],[-63.0262,-40.7907,3.4094],[-63.0418,-40.7763,9.2351],[-63.0512,-40.7708,0.6459],[-63.0738,-40.7639,6.896],[-63.0976,-40.7596,3.3019],[-63.1026,-40.7574,5.8011],[-63.118,-40.7428,25.441],[-63.1231,-40.7405,42.1569],[-63.1411,-40.7387,3.3686],[-63.1611,-40.7282,8.2395],[-63.1936,-40.7158,10.2149],[-63.2751,-40.7207,15.8673],[-63.2869,-40.7241,5.6058],[-63.292,-40.7235,7.2671],[-63.2959,-40.7194,8.5746],[-63.2962,-40.7105,17.4484],[-63.3071,-40.7061,22.0879],[-63.3251,-40.7079,8.2107],[-63.3598,-40.7182,13.2739],[-63.3632,-40.7164,5.9803],[-63.3649,-40.7114,6.0041],[-63.3634,-40.7065,11.7285],[-63.3675,-40.7018,7.9527],[-63.3708,-40.7016,11.1182],[-63.3875,-40.7066,9.6078],[-63.3852,-40.2104,52.1293],[-63.3908,-39.9976,39.9002],[-63.3902,-39.3684,52.9073],[-63.3886,-39.3183,41.5025],[-63.3993,-39.3208,54.9692],[-63.4135,-39.3209,61.7156],[-63.459,-39.3161,52.2018],[-63.5053,-39.296,46.5049],[-63.5257,-39.2913,47.0031],[-63.5318,-39.2884,48.0316],[-63.5343,-39.2834,47.9471],[-63.5358,-39.2696,52.5779],[-63.551,-39.2584,83.4346],[-63.5945,-39.2466,49.311],[-63.6184,-39.2421,49.3546],[-63.6288,-39.242,52.9741],[-63.6314,-39.2401,52.8017],[-63.6352,-39.2327,51.894],[-63.6545,-39.221,53.5575],[-63.6643,-39.2177,53.3426],[-63.6741,-39.2068,54.9247],[-63.6873,-39.203,55.4055],[-63.7072,-39.1917,56.5455],[-63.7315,-39.1809,58.9144],[-63.7305,-39.1674,75.3438],[-63.7318,-39.1649,77.1783],[-63.7375,-39.158,87.3577],[-63.7539,-39.1477,58.5152],[-63.7618,-39.1324,58.957],[-63.766,-39.128,56.6572],[-63.7975,-39.1164,61.6552],[-63.8121,-39.1142,63.4639],[-63.8291,-39.115,65.2132],[-63.8442,-39.1082,61.8749],[-63.8687,-39.1068,63.8336],[-63.8889,-39.1023,67.4085],[-63.9046,-39.096,63.5],[-63.9125,-39.078,66.0547],[-63.931,-39.0653,66.7209],[-63.9465,-39.059,71.9082],[-63.9501,-39.0512,70.7068],[-63.9865,-39.0414,72.6443],[-63.9882,-39.0364,71.0553],[-63.9969,-39.0315,72.0924],[-63.9967,-39.0289,72.9293],[-63.9885,-39.0199,72.7286],[-63.9889,-39.0173,74.3655],[-64.0015,-39.0078,73.7066],[-64.0184,-39.004,73.7103],[-64.0499,-39.0041,75.7239],[-64.0602,-39.0023,76.2236],[-64.0673,-38.9965,77.4433],[-64.0689,-38.9883,87.3926],[-64.0714,-38.9865,94.1207],[-64.1138,-38.9727,87.5883],[-64.1386,-38.9623,88.182],[-64.165,-38.9546,81.2607],[-64.1885,-38.9426,108.3956],[-64.2296,-38.9271,84.1085],[-64.2468,-38.9177,86.4927],[-64.2687,-38.9088,89.0769],[-64.2957,-38.9028,83.6923],[-64.3097,-38.902,85.5189],[-64.3268,-38.8929,88.7578],[-64.3479,-38.8922,85.2422],[-64.3686,-38.8778,89.9314],[-64.3783,-38.8745,91.5509],[-64.4099,-38.8742,89.7803],[-64.434,-38.8709,90.2169],[-64.452,-38.8624,95.9307],[-64.4566,-38.8582,104.4634],[-64.4806,-38.8552,94.6941],[-64.4922,-38.8613,91.2685],[-64.5173,-38.8531,97.3691],[-64.5691,-38.8519,95.4189],[-64.5774,-38.8496,96.1269],[-64.5899,-38.8426,102.1917],[-64.6197,-38.8384,99.6633],[-64.6434,-38.8273,122.3906],[-64.6518,-38.8273,124.1909],[-64.6755,-38.8332,99.0897],[-64.6965,-38.8306,109.0118],[-64.7178,-38.832,106.4283],[-64.7235,-38.8309,108.8144],[-64.7413,-38.8217,146.6012],[-64.7626,-38.8218,131.7486],[-64.8004,-38.8126,133.4815],[-64.8122,-38.8129,124.1834],[-64.8419,-38.8184,127.368],[-64.8747,-38.8119,122.3587],[-64.8833,-38.8117,119.7852],[-64.9082,-38.8214,125.2467],[-64.9166,-38.8232,127.533],[-64.9632,-38.812,156.4458],[-65.0056,-38.8119,130.0388],[-65.0294,-38.8084,133.0662],[-65.0506,-38.8098,126.3454],[-65.0739,-38.8045,126.8975],[-65.086,-38.8046,125.9295],[-65.0978,-38.8022,125.72],[-65.1129,-38.8035,127.1819],[-65.1286,-38.8107,125.8141],[-65.1377,-38.8114,129.028],[-65.1432,-38.8095,132.818],[-65.1505,-38.8008,156.9065],[-65.1536,-38.8014,148.6573],[-65.158,-38.8089,129.4037],[-65.1649,-38.8147,130.8567],[-65.1697,-38.8159,131.3329],[-65.178,-38.8078,131.586],[-65.1829,-38.8278,133.0072],[-65.1883,-38.8318,132.3414],[-65.204,-38.8297,133.8595],[-65.2189,-38.8314,133.7548],[-65.2328,-38.8269,134.4641],[-65.2509,-38.828,134.8536],[-65.2593,-38.821,153.9423],[-65.271,-38.8176,146.4941],[-65.2763,-38.8191,137.4606],[-65.2937,-38.8291,139.455],[-65.3147,-38.831,139.8334],[-65.3221,-38.8428,162.71],[-65.3279,-38.8476,152.0649],[-65.3364,-38.8495,148.7132],[-65.3679,-38.8514,147.9014],[-65.373,-38.85,149.0889],[-65.3836,-38.8381,152.5334],[-65.3911,-38.8341,149.5462],[-65.426,-38.826,155.1773],[-65.4365,-38.8213,164.0138],[-65.4458,-38.8151,156.7911],[-65.4613,-38.8005,172.6336],[-65.4699,-38.7987,175.004],[-65.4978,-38.7987,160.562],[-65.5116,-38.7869,156.0765],[-65.5267,-38.7845,159.7776],[-65.542,-38.7847,160.9687],[-65.5501,-38.7774,167.0342],[-65.5548,-38.7756,180.7401],[-65.5668,-38.7786,166.5312],[-65.5749,-38.7741,176.4117],[-65.5785,-38.775,162.1238],[-65.5833,-38.7844,163.9915],[-65.5957,-38.7868,164.8565],[-65.6,-38.7892,161.2929],[-65.602,-38.8011,165.6309],[-65.615,-38.8064,161.5],[-65.6134,-38.8117,181.7571],[-65.6146,-38.8164,194.8197],[-65.6216,-38.8147,175.4255],[-65.6266,-38.8156,165.3494],[-65.6304,-38.8275,199.5066],[-65.6604,-38.8306,167.9111],[-65.6906,-38.8272,169.2441],[-65.6927,-38.8258,169.3347],[-65.6962,-38.8186,171.387],[-65.7005,-38.8166,167.4647],[-65.7132,-38.8177,170.4562],[-65.7322,-38.8108,172.5067],[-65.7566,-38.8118,171.6539],[-65.7656,-38.8057,173.4085],[-65.7866,-38.8077,172.4398],[-65.7976,-38.8133,183.0668],[-65.8013,-38.8125,178.6724],[-65.804,-38.8046,172.3906],[-65.8076,-38.8016,174.0382],[-65.8232,-38.8027,176.2691],[-65.8331,-38.7927,175.0081],[-65.837,-38.7918,175.3543],[-65.8441,-38.7986,176.564],[-65.8473,-38.7984,177.4459],[-65.854,-38.7926,177.8395],[-65.864,-38.7931,176.494],[-65.866,-38.7903,176.5936],[-65.8642,-38.7848,178.8414],[-65.8658,-38.7791,178.5767],[-65.8818,-38.7785,178.2595],[-65.8952,-38.7814,177.8263],[-65.8983,-38.7801,176.4394],[-65.9038,-38.7663,178.583],[-65.9128,-38.7731,178.3356],[-65.9202,-38.7685,179.5965],[-65.9328,-38.771,180.3591],[-65.9354,-38.7689,178.0],[-65.9347,-38.7609,181.3233],[-65.9361,-38.7565,181.8114],[-65.9441,-38.7528,178.5],[-65.9471,-38.7456,182.9216],[-65.9518,-38.7437,184.511],[-65.9826,-38.7442,182.948],[-65.9995,-38.7494,183.6286],[-66.0128,-38.7422,185.2723],[-66.0169,-38.742,183.1117],[-66.0203,-38.7502,183.6232],[-66.0233,-38.7507,182.7184],[-66.0289,-38.7432,184.4636],[-66.0325,-38.7427,183.0724],[-66.0359,-38.7479,183.4458],[-66.0402,-38.7496,185.0757],[-66.0485,-38.7456,183.4793],[-66.0559,-38.7495,184.1645],[-66.0588,-38.7491,185.3575],[-66.0662,-38.7449,185.0616],[-66.0704,-38.73,193.2237],[-66.0744,-38.7259,201.6739],[-66.0891,-38.731,187.1267],[-66.1037,-38.7313,186.227],[-66.1048,-38.7367,186.7331],[-66.1088,-38.7407,188.3954],[-66.1321,-38.7328,188.2881],[-66.1594,-38.7331,190.4295],[-66.1663,-38.7399,190.6764],[-66.176,-38.7338,190.7666],[-66.1973,-38.7346,192.3329],[-66.2146,-38.7303,193.9135],[-66.2575,-38.748,194.9048],[-66.2695,-38.7494,194.609],[-66.2867,-38.7542,194.3251],[-66.3051,-38.7472,196.0581],[-66.3108,-38.7537,194.1875],[-66.3152,-38.7552,197.0744],[-66.3256,-38.7495,196.285],[-66.3324,-38.7538,195.5],[-66.3447,-38.7528,199.2973],[-66.3593,-38.7446,197.5157],[-66.3767,-38.7404,203.663],[-66.3846,-38.7363,216.1464],[-66.3873,-38.7361,226.4903],[-66.3981,-38.7408,198.7645],[-66.4098,-38.7344,201.345],[-66.4133,-38.7417,201.7132],[-66.417,-38.7444,198.5],[-66.426,-38.742,201.8143],[-66.4311,-38.7455,200.3306],[-66.4374,-38.7462,199.8918],[-66.4425,-38.7394,204.5806],[-66.4541,-38.7371,201.795],[-66.4618,-38.733,202.16309999999999],[-66.4748,-38.7354,204.4658],[-66.4777,-38.734,202.8027],[-66.4795,-38.7262,206.6542],[-66.4963,-38.7126,229.4843],[-66.5082,-38.7125,208.1121],[-66.5193,-38.7089,217.8047],[-66.5319,-38.7112,208.7785],[-66.5368,-38.7101,206.9581],[-66.5459,-38.6973,229.355],[-66.5724,-38.694,211.0853],[-66.5775,-38.6852,210.3883],[-66.5972,-38.6725,210.7034],[-66.5967,-38.6695,212.5385],[-66.5871,-38.666,231.9037],[-66.5849,-38.6627,247.4483],[-66.5897,-38.6534,231.6682],[-66.5774,-38.6287,223.2356],[-66.577,-38.6197,217.3146],[-66.5931,-38.594,215.984],[-66.5996,-38.5605,226.2884],[-66.6022,-38.5541,237.7028],[-66.6061,-38.5513,234.4665],[-66.621,-38.5471,223.5289],[-66.6379,-38.5333,243.3642],[-66.6459,-38.5308,235.923],[-66.6674,-38.5294,227.6867],[-66.684,-38.5237,234.6451],[-66.7021,-38.5229,236.4674],[-66.7177,-38.5157,230.5],[-66.7355,-38.5122,222.3009],[-66.7427,-38.5083,222.5294],[-66.7564,-38.4955,231.4961],[-66.7893,-38.4832,222.9752],[-66.8103,-38.483,221.4021],[-66.8328,-38.4763,221.1446],[-66.8538,-38.4756,222.8986],[-66.8661,-38.4686,225.7922],[-66.8853,-38.4614,224.0005],[-66.8891,-38.4578,227.1331],[-66.8941,-38.4486,232.3967],[-66.8986,-38.4464,226.9519],[-66.9077,-38.4453,224.8314],[-66.9202,-38.4463,227.7003],[-66.9315,-38.4542,228.275],[-66.9402,-38.4546,228.8085],[-66.9583,-38.4514,229.8447],[-66.9707,-38.4445,230.7115],[-66.9917,-38.4426,235.485],[-67.012,-38.4251,233.4962],[-67.0481,-38.4133,231.9092],[-67.0627,-38.4013,249.1757],[-67.0755,-38.3951,244.1242],[-67.0849,-38.3857,251.7445],[-67.1243,-38.3683,237.3115],[-67.1296,-38.3574,239.0239],[-67.1496,-38.3575,237.071],[-67.1526,-38.3534,238.6159],[-67.1541,-38.346,238.2403],[-67.1539,-38.3267,241.1242],[-67.1577,-38.3128,239.654],[-67.1566,-38.2962,242.6662],[-67.1631,-38.2803,242.0446],[-67.1616,-38.2705,263.2274],[-67.1626,-38.2652,250.2332],[-67.1817,-38.2617,241.9203],[-67.1867,-38.257,245.4691],[-67.1835,-38.2232,256.2374],[-67.1854,-38.2141,256.6906],[-67.1914,-38.2134,270.6268],[-67.2215,-38.2165,273.0],[-67.2576,-38.2151,273.0],[-67.2672,-38.2206,273.0],[-67.2761,-38.222,273.0],[-67.286,-38.2309,273.0],[-67.2969,-38.2339,273.0],[-67.3147,-38.2467,273.0],[-67.3714,-38.2528,273.0],[-67.389,-38.2496,273.0],[-67.404,-38.2497,273.0],[-67.4331,-38.2435,273.0],[-67.469,-38.2466,273.0],[-67.4809,-38.2463,273.0],[-67.4898,-38.245,273.0],[-67.4955,-38.2384,273.0],[-67.4982,-38.2377,273.0],[-67.5013,-38.2379,273.0],[-67.5066,-38.2421,273.0],[-67.5293,-38.2509,273.0],[-67.5444,-38.2515,273.0],[-67.5491,-38.2503,273.0],[-67.5549,-38.2464,273.0],[-67.5623,-38.2449,273.0],[-67.5746,-38.2466,273.0],[-67.5868,-38.243899999999996,273.0],[-67.5912,-38.2417,273.0],[-67.5933,-38.2364,273.0],[-67.5942,-38.2266,273.0],[-67.6224,-38.2179,273.0],[-67.6345,-38.2156,273.0],[-67.6404,-38.2118,273.0],[-67.6512,-38.1986,277.4857],[-67.6622,-38.1906,278.4586],[-67.6656,-38.1789,278.6315],[-67.6741,-38.1602,279.3481],[-67.6832,-38.146,279.0995],[-67.6933,-38.137,277.8905],[-67.7101,-38.1372,278.9419],[-67.7146,-38.1354,279.623],[-67.7211,-38.1293,280.7316],[-67.7255,-38.1221,281.2161],[-67.7323,-38.0987,281.7863],[-67.7372,-38.0949,283.6242],[-67.7398,-38.0948,284.5544],[-67.7506,-38.0686,282.7143],[-67.7547,-38.0674,284.1276],[-67.7652,-38.0718,285.7401],[-67.7758,-38.061,284.5644],[-67.7811,-38.0606,285.1911],[-67.7981,-38.0681,286.507],[-67.8126,-38.0715,287.2615],[-67.8252,-38.0713,288.934],[-67.8437,-38.0653,288.1933],[-67.8552,-38.0547,290.6412],[-67.8628,-38.0443,291.4592],[-67.8738,-38.0336,293.7899],[-67.8895,-38.0211,298.8946],[-67.8991,-38.0007,297.7846],[-67.9009,-37.9937,296.5235],[-67.8979,-37.9843,298.8842],[-67.8889,-37.9744,299.8177],[-67.8817,-37.961,301.4155],[-67.8637,-37.9383,303.9401],[-67.8484,-37.9263,305.3513],[-67.818,-37.9098,312.2032],[-67.8002,-37.906,315.2982],[-67.7874,-37.9073,316.4737],[-67.7822,-37.9064,316.1002],[-67.7786,-37.9025,317.7934],[-67.7612,-37.8707,323.4739],[-67.7547,-37.8658,324.2706],[-67.7408,-37.8603,325.0406],[-67.7371,-37.8566,327.1629],[-67.7162,-37.8155,336.2814],[-67.7149,-37.8111,337.4727],[-67.7159,-37.809,338.4781],[-67.7396,-37.7773,344.2699],[-67.7493,-37.7594,352.933],[-67.7651,-37.7123,359.9722],[-67.7677,-37.6832,363.6315],[-67.7856,-37.6574,370.2496],[-67.792,-37.6526,371.1047],[-67.8224,-37.6406,376.3927],[-67.8431,-37.6229,380.9717],[-67.8811,-37.6131,386.8524],[-67.9911,-37.6075,406.1293],[-68.0455,-37.6004,415.9022],[-68.0915,-37.5996,425.4615],[-68.1232,-37.591,429.0028],[-68.1441,-37.5871,435.0919],[-68.1654,-37.5855,438.654],[-68.2051,-37.5873,445.0033],[-68.223,-37.5841,455.0809],[-68.2428,-37.5779,468.0504],[-68.2453,-38.6876,312.7395],[-68.233,-38.6972,309.5706],[-68.1883,-38.7129,303.1953],[-68.1641,-38.7287,300.322],[-68.1455,-38.7363,296.7691],[-68.1346,-38.743,295.0966],[-68.1254,-38.7512,293.6362],[-68.1177,-38.7862,290.0065],[-68.1004,-38.8223,285.8832],[-68.0893,-38.8328,280.732],[-68.0896,-38.8464,283.8983],[-68.0848,-38.8567,278.7225],[-68.0794,-38.8636,275.5048],[-68.0789,-38.8801,274.4755],[-68.0719,-38.886,270.6604],[-68.0711,-38.8887,274.9713],[-68.073,-38.8995,273.188],[-68.0721,-38.9049,280.9398],[-68.0533,-38.9119,269.4115],[-68.0523,-38.9228,268.2642],[-68.0479,-38.9302,268.378],[-68.0397,-38.9391,262.939],[-68.0168,-38.9557,262.2343],[-68.0127,-38.9662,261.9153],[-68.0142,-38.9771,258.5384],[-68.0163,-38.9793,254.0037],[-68.0263,-38.9818,259.3425],[-68.058,-38.9831,255.5],[-68.0695,-38.9893,263.2107],[-68.0866,-38.9922,261.8477],[-68.1345,-38.9833,263.6137],[-68.145,-38.9836,270.0681],[-68.1629,-38.9752,267.0385],[-68.1764,-38.9764,269.1946],[-68.1825,-38.9734,270.1925],[-68.1841,-38.9709,266.0],[-68.1942,-38.9691,267.0659],[-68.2118,-38.969,267.5],[-68.2195,-38.9747,272.7282],[-68.2253,-38.9815,272.4576],[-68.2374,-38.987,272.2906],[-68.262,-38.9876,274.1761],[-68.2654,-38.9867,274.1631],[-68.2725,-38.9809,274.8207],[-68.2901,-38.9812,275.303],[-68.3263,-38.9918,277.8245],[-68.3347,-38.9958,277.6536],[-68.3457,-38.9971,279.9821],[-68.3589,-39.0009,283.5516],[-68.3744,-39.0121,283.2238],[-68.3872,-39.0162,284.4027],[-68.3986,-39.0223,285.6468],[-68.4079,-39.0305,283.8874],[-68.4143,-39.0327,286.0078],[-68.421,-39.0342,285.3703],[-68.438,-39.031,286.8116],[-68.4448,-39.0322,288.1744],[-68.4563,-39.0386,290.8701],[-68.4633,-39.0447,286.7998],[-68.4897,-39.0583,292.4214],[-68.5076,-39.0714,290.8986],[-68.5286,-39.0716,294.8567],[-68.5387,-39.0741,294.1848],[-68.5667,-39.0856,296.5477],[-68.5831,-39.096,305.3278],[-68.6017,-39.116,311.5],[-68.6392,-39.1407,311.5],[-68.648,-39.1556,311.5],[-68.6603,-39.1611,377.5298],[-68.668,-39.1667,384.5427],[-68.6699,-39.1719,361.3841],[-68.6698,-39.1774,331.5742],[-68.661,-39.1893,311.5],[-68.6591,-39.2002,311.5],[-68.6656,-39.2129,311.5],[-68.6749,-39.2212,311.5],[-68.6941,-39.2281,311.5],[-68.7056,-39.2345,346.5716],[-68.716,-39.2434,314.5913],[-68.7213,-39.2515,323.8358],[-68.7312,-39.2578,354.2982],[-68.746,-39.2619,312.4086],[-68.7542,-39.2625,343.7716],[-68.7672,-39.2698,374.5],[-68.7711,-39.2744,374.5],[-68.7942,-39.281,374.5],[-68.8048,-39.2813,374.5],[-68.8106,-39.2844,374.5],[-68.8104,-39.2899,374.5],[-68.8148,-39.2973,374.5],[-68.8129,-39.3083,374.5],[-68.8227,-39.3195,374.5],[-68.8192,-39.3301,374.5],[-68.8189,-39.3521,374.5],[-68.8283,-39.3636,374.5],[-68.8332,-39.3769,374.5],[-68.838,-39.3842,374.5],[-68.8424,-39.3885,374.5],[-68.8549,-39.3936,374.5],[-68.8787,-39.3988,374.5],[-68.8991,-39.4098,374.5],[-68.9114,-39.4263,374.5],[-68.9241,-39.4311,374.5],[-68.9269,-39.4361,374.5],[-68.9286,-39.4447,374.5],[-68.9318,-39.4495,374.5],[-68.9433,-39.4561,374.5],[-68.953,-39.4592,374.5],[-68.9613,-39.468,374.5],[-68.9733,-39.4738,374.5],[-68.9791,-39.4808,374.5],[-68.9798,-39.4917,374.5],[-68.9939,-39.504,374.5],[-69.0039,-39.5057,374.5],[-69.0103,-39.5035,374.5],[-69.0115,-39.5008,374.5],[-69.018,-39.5002,374.5],[-69.034,-39.5063,374.5],[-69.0447,-39.5131,374.5],[-69.0695,-39.5153,374.5],[-69.1069,-39.5232,374.5],[-69.123,-39.5181,374.5],[-69.1263,-39.5191,374.5],[-69.1387,-39.529,374.5],[-69.158,-39.5356,374.5],[-69.1677,-39.5472,374.5],[-69.1732,-39.5507,374.5],[-69.1802,-39.5515,377.4005],[-69.1854,-39.5549,374.5],[-69.1954,-39.5579,374.5],[-69.2235,-39.5607,389.6564],[-69.2301,-39.5628,374.5],[-69.2531,-39.58,374.5],[-69.2581,-39.5871,374.5],[-69.2766,-39.5999,374.5],[-69.2856,-39.6143,374.5],[-69.3243,-39.6578,380.1321],[-69.3352,-39.675,383.4653],[-69.346,-39.686,383.612],[-69.3542,-39.707,387.4179],[-69.3594,-39.7143,389.2556],[-69.3762,-39.7245,391.0081],[-69.3845,-39.7335,390.0985],[-69.4023,-39.7424,392.4252],[-69.4119,-39.754,391.4744],[-69.4218,-39.7619,395.6864],[-69.4443,-39.7701,395.7453],[-69.4648,-39.7746,398.7019],[-69.5072,-39.808,403.3932],[-69.5169,-39.8116,411.4409],[-69.5275,-39.813,404.2789],[-69.5444,-39.8093,409.0791],[-69.5622,-39.8109,406.2871],[-69.6175,-39.8301,419.5862],[-69.6418,-39.8337,420.0331],[-69.6667,-39.8443,423.1564],[-69.695,-39.8459,424.9618],[-69.7187,-39.8581,424.8968],[-69.737,-39.871,426.4805],[-69.7664,-39.881,430.7777],[-69.7866,-39.8853,430.3376],[-69.8018,-39.8929,431.5309],[-69.818,-39.8987,433.2776],[-69.8645,-39.9078,442.2706],[-69.8702,-39.9111,443.2205],[-69.8879,-39.9285,444.8576],[-69.8988,-39.9356,446.9423],[-69.9113,-39.9407,446.899],[-69.9254,-39.9424,446.1064],[-69.9346,-39.9466,450.1568],[-69.9467,-39.9568,450.3122],[-69.9721,-39.9831,453.6788],[-69.9765,-39.9907,456.2919],[-69.9733,-39.9988,504.8821],[-69.9775,-40.0049,478.6797],[-69.9972,-40.0223,476.5],[-70.0045,-40.0468,476.5],[-70.0042,-40.0514,476.5],[-69.9978,-40.0692,476.5],[-69.9963,-40.0876,476.5],[-69.9925,-40.1081,476.5],[-69.9865,-40.1129,476.5],[-69.9693,-40.1167,476.5],[-69.9646,-40.1226,476.5],[-69.9642,-40.1272,479.16],[-69.9678,-40.1407,476.5],[-69.9563,-40.1568,476.5],[-69.953,-40.1704,476.5],[-69.9544,-40.1795,476.5],[-69.9591,-40.182,476.5],[-69.9651,-40.182,477.2353],[-69.9887,-40.1788,481.8225],[-69.9948,-40.1917,589.0],[-70.0021,-40.2017,589.0],[-70.0094,-40.2056,589.0],[-70.0238,-40.2085,589.0],[-70.0331,-40.2229,589.0],[-70.0615,-40.2464,589.0],[-70.0625,-40.251,589.0],[-70.0468,-40.2618,589.0],[-70.0433,-40.2681,589.0],[-70.0427,-40.2727,589.0],[-70.0455,-40.3025,589.0],[-70.0492,-40.3113,589.0],[-70.061,-40.3214,589.0],[-70.0628,-40.3445,589.0],[-70.0615,-40.3698,589.0],[-70.0688,-40.3798,589.0],[-70.0962,-40.398,589.0],[-70.1394,-40.4142,589.0],[-70.1571,-40.4144,589.0],[-70.1812,-40.4234,589.0],[-70.1817,-40.4259,589.0],[-70.1855,-40.4281,589.0],[-70.1859,-40.4374,589.0],[-70.176,-40.4567,589.0],[-70.1721,-40.4702,589.0],[-70.172,-40.4794,589.0],[-70.1886,-40.4893,589.0],[-70.2185,-40.4928,589.0],[-70.2394,-40.5018,589.0],[-70.2513,-40.5029,589.0],[-70.2672,-40.4964,589.0],[-70.2793,-40.4964,589.0],[-70.3144,-40.5097,589.0],[-70.3384,-40.5097,589.0],[-70.3747,-40.5207,589.0],[-70.3818,-40.525,589.0],[-70.4052,-40.5293,589.0],[-70.4207,-40.5365,589.0],[-70.4262,-40.5353,589.0],[-70.4332,-40.5253,589.0],[-70.4443,-40.5217,589.0],[-70.4634,-40.5106,589.0],[-70.4753,-40.5096,589.0],[-70.4841,-40.5111,589.0],[-70.4859,-40.5091,589.0],[-70.4909,-40.5082,589.0],[-70.5009,-40.508,589.0],[-70.5215,-40.5037,589.0],[-70.5274,-40.5042,589.0],[-70.5441,-40.5098,589.0],[-70.5481,-40.5133,589.0],[-70.5515,-40.5197,589.0],[-70.5603,-40.5261,589.0],[-70.5996,-40.5385,589.0],[-70.6106,-40.5462,589.0],[-70.6241,-40.5515,589.0],[-70.64,-40.5654,593.5762],[-70.6539,-40.5834,589.0],[-70.6633,-40.5889,589.0],[-70.6872,-40.593,589.0],[-70.7024,-40.5926,589.0],[-70.7139,-40.5965,599.7378],[-70.7176,-40.5944,604.7296],[-70.7205,-40.5872,590.691],[-70.7228,-40.5858,589.0],[-70.731,-40.5826,619.8318],[-70.737,-40.5824,601.5119],[-70.7571,-40.5876,699.5],[-70.7719,-40.585,706.2153],[-70.781,-40.5857,699.5],[-70.8202,-40.5983,699.5],[-70.8565,-40.5994,699.5],[-70.8713,-40.6029,699.5],[-70.8759,-40.6054,699.5],[-70.8766,-40.6102,699.5],[-70.8744,-40.6172,699.5],[-70.8784,-40.6194,699.5],[-70.9064,-40.6205,699.5],[-70.9145,-40.6271,699.5],[-70.9349,-40.6372,699.5],[-70.9527,-40.639,699.5],[-70.9735,-40.6487,699.5],[-70.9782,-40.6474,699.5],[-70.9843,-40.6484,699.5],[-70.9966,-40.6667,699.5],[-71.0032,-40.6715,699.5],[-71.0124,-40.6739,699.5],[-71.0151,-40.677,699.5],[-71.0136,-40.6866,699.5],[-71.0188,-40.6921,701.139],[-71.0192,-40.6992,713.7422],[-71.028,-40.7081,748.2455],[-71.0321,-40.7193,740.3717],[-71.0368,-40.7253,699.5],[-71.048,-40.7286,699.5],[-71.0599,-40.7269,699.5],[-71.0718,-40.7287,699.5],[-71.083,-40.7249,713.7979],[-71.0889,-40.7247,699.5],[-71.0937,-40.7278,713.0733],[-71.1032,-40.747,700.1492],[-71.1165,-40.7567,699.8112],[-71.1189,-40.761,699.5],[-71.1181,-40.7702,711.6865],[-71.1197,-40.7769,718.0535],[-71.112799999999993,-40.7922,792.3248],[-71.1137,-40.7993,827.1192],[-71.0951,-40.8142,838.5906],[-71.0899,-40.8225,728.1074],[-71.091,-40.8272,714.7701],[-71.0974,-40.8321,714.8237],[-71.0976,-40.8343,719.0516],[-71.0781,-40.8456,906.4573],[-71.0744,-40.8421,1016.4657],[-71.0718,-40.8425,1000.3802],[-71.0635,-40.8462,915.9125],[-71.0571,-40.8512,793.7321],[-71.0537,-40.8551,785.9958],[-71.052,-40.862,865.5447],[-71.0414,-40.8699,781.4559],[-71.0417,-40.8747,809.4361],[-71.0337,-40.884,913.7368],[-71.0272,-40.9042,782.6695],[-71.0365,-40.9312,744.1442],[-71.0431,-40.9417,761.6674],[-71.0389,-40.9549,855.7509],[-71.0548,-40.9621,746.9974],[-71.0612,-40.9777,749.9497],[-71.0759,-40.9774,752.9086],[-71.1015,-40.9869,817.8856],[-71.1037,-40.9894,807.8883],[-71.0946,-40.9929,756.8889],[-71.0923,-40.9961,755.4613],[-71.0932,-40.9986,757.5132],[-71.1067,-41.008,770.5482],[-71.1199,-41.0134,767.7981],[-71.1234,-41.02,768.6466],[-71.1307,-41.0276,779.5041],[-71.1284,-41.0388,780.0602],[-71.1315,-41.0454,795.4741],[-71.1359,-41.0486,801.0717],[-71.1443,-41.0516,810.9772],[-71.1595,-41.0533,768.0],[-71.1786,-41.0607,768.0],[-71.2187,-41.0859,768.0],[-71.2338,-41.0938,768.0],[-71.2919,-41.0963,768.0],[-71.3194,-41.0951,768.0],[-71.3585,-41.089,768.0],[-71.4326,-41.0568,768.0],[-71.4591,-41.0411,768.0],[-71.4954,-41.0384,768.0],[-71.5377,-41.0247,768.0],[-71.5587,-41.0272,768.0],[-71.599,-41.038,768.0],[-71.6388,-41.0361,768.0],[-71.6687,-41.0311,768.0],[-71.7172,-41.0259,768.0],[-71.7385,-41.0254,768.0],[-71.7566,-41.0225,768.0],[-71.7805,-41.0262,897.0928],[-71.7984,-41.0232,768.0],[-71.8107,-41.0235,800.3193],[-71.822,-41.0269,858.8409],[-71.8398,-41.0242,927.0229],[-71.847,-41.0312,1449.3315],[-71.8428,-41.0353,1414.2567],[-71.8385,-41.0367,1375.4978],[-71.8334,-41.0431,1453.9175],[-71.8358,-41.0504,1334.244],[-71.8282,-41.0575,1340.5022],[-71.8248,-41.056,1312.0292],[-71.8182,-41.0626,1311.9636],[-71.8199,-41.0668,1158.205],[-71.8278,-41.069,1033.0587],[-71.829,-41.0748,1097.932],[-71.8362,-41.0779,1351.8236],[-71.8391,-41.0776,1466.6882],[-71.8444,-41.0813,1593.5214],[-71.8461,-41.0837,1611.6748],[-71.8461,-41.0889,1659.2288],[-71.8482,-41.0913,1724.512],[-71.848,-41.096,1661.4934],[-71.8512,-41.0987,1554.8265],[-71.8482,-41.1018,1552.3583],[-71.8426,-41.1036,1600.5479],[-71.8462,-41.1076,1540.6075],[-71.8454,-41.1107,1540.2563],[-71.8358,-41.1176,1714.1676],[-71.843,-41.1306,1851.6206],[-71.8403,-41.1339,2041.9487],[-71.8396,-41.1389,2173.6311],[-71.8413,-41.1422,2193.8979],[-71.8395,-41.1433,2108.8623],[-71.8389,-41.1489,1985.6143],[-71.8422,-41.151,2014.1199],[-71.8653,-41.1541,2363.3657],[-71.8686,-41.159,2628.5498],[-71.8724,-41.1604,2897.8542],[-71.8867,-41.1611,3397.0112],[-71.8856,-41.1636,3233.3682],[-71.8871,-41.1683,3088.8193],[-71.8826,-41.1737,2861.6753],[-71.8823,-41.1783,2669.6406],[-71.8782,-41.1885,2380.1328],[-71.8723,-41.1964,2200.4607],[-71.8731,-41.2055,2083.0894],[-71.8549,-41.2139,1801.2229],[-71.8583,-41.2242,1422.845],[-71.854,-41.2294,1480.3281],[-71.8577,-41.2294,1463.3594],[-71.8594,-41.2337,1542.5374],[-71.8547,-41.2361,1491.2451],[-71.8503,-41.236,1440.827],[-71.8439,-41.2445,1495.4434],[-71.8506,-41.2439,1470.7809],[-71.8557,-41.2469,1474.5114],[-71.8555,-41.2483,1465.0931],[-71.8506,-41.2506,1454.5757],[-71.834,-41.2717,1765.5182],[-71.8367,-41.2736,1832.6058],[-71.8396,-41.2707,1752.6367],[-71.8458,-41.2691,1842.9092],[-71.8483,-41.2616,1723.9817],[-71.8562,-41.2578,1615.9094],[-71.8627,-41.2583,1579.6902],[-71.8671,-41.2561,1568.8694],[-71.8773,-41.2606,1351.9318],[-71.8847,-41.2605,1351.286],[-71.899,-41.2555,1609.9349],[-71.8886,-41.2655,1290.8951],[-71.8901,-41.2685,1272.7346],[-71.8967,-41.2715,1460.183],[-71.8976,-41.2778,1376.0074],[-71.8912,-41.2787,1445.146],[-71.8924,-41.2845,1513.0601],[-71.8897,-41.2885,1762.8032],[-71.8928,-41.2925,1828.8301],[-71.8837,-41.2932,1596.2056],[-71.8761,-41.2961,1805.5718],[-71.8775,-41.2989,1754.5076],[-71.8762,-41.3088,1772.6047],[-71.8813,-41.31,1701.5081],[-71.8864,-41.3148,1689.0725],[-71.881,-41.3229,1701.092],[-71.8861,-41.3268,1435.2859],[-71.9007,-41.3311,1353.6907],[-71.9012,-41.3329,1386.7935],[-71.897,-41.3371,1423.6624],[-71.8982,-41.3406,1451.6951],[-71.9057,-41.3404,1567.5648],[-71.9089,-41.3421,1660.8621],[-71.9071,-41.3473,1758.368],[-71.9096,-41.358,1698.4839],[-71.9082,-41.3624,1677.6851],[-71.9012,-41.3629,1615.1846],[-71.8973,-41.3658,1583.5032],[-71.8903,-41.3675,1674.0181],[-71.8901,-41.3732,1660.3293],[-71.8869,-41.3807,1581.9126],[-71.8796,-41.3829,1597.0485],[-71.877,-41.3855,1513.9092],[-71.8755,-41.3886,1417.7761],[-71.877,-41.3923,1335.7466],[-71.8658,-41.3972,1740.6721],[-71.8656,-41.3997,1793.8334],[-71.8709,-41.4088,1732.9939],[-71.8644,-41.422,1730.4937],[-71.8493,-41.4287,1382.7205],[-71.8397,-41.4288,1093.5413],[-71.8364,-41.4327,1099.965],[-71.8394,-41.4401,1332.1844],[-71.8348,-41.4424,1447.4103],[-71.8443,-41.4543,1504.1781],[-71.8422,-41.4636,1966.7422],[-71.8362,-41.4661,1970.1997],[-71.8382,-41.4729,1892.067],[-71.8371,-41.4756,1747.571],[-71.8287,-41.4805,1778.4753],[-71.8313,-41.4842,1672.0404],[-71.8395,-41.4902,1133.7834],[-71.8406,-41.4932,1024.8524],[-71.8386,-41.4999,896.7177],[-71.8442,-41.5031,561.3162],[-71.8467,-41.5094,443.069],[-71.849,-41.5103,472.6213],[-71.8524,-41.5155,609.9081],[-71.8472,-41.5262,1162.4471],[-71.8488,-41.5326,1152.0833],[-71.848,-41.5359,1138.7783],[-71.8397,-41.5397,1443.8335],[-71.8389,-41.5481,1518.4344],[-71.8281,-41.5512,1633.4398],[-71.8311,-41.5558,1507.2819],[-71.83,-41.5612,1301.6404],[-71.8176,-41.5756,1683.7986],[-71.8244,-41.5754,1621.5543],[-71.832,-41.5728,1388.2399],[-71.836,-41.5671,1254.5813],[-71.8386,-41.5661,1209.1543],[-71.848,-41.5664,1324.8828],[-71.8501,-41.5726,1631.5637],[-71.8606,-41.575,1519.7744],[-71.8637,-41.5815,1489.1941],[-71.8634,-41.5845,1485.9052],[-71.8704,-41.5858,1324.4552],[-71.8744,-41.5886,1359.0823],[-71.8759,-41.5971,1398.8969],[-71.875,-41.6001,1478.575],[-71.8811,-41.6016,1520.439],[-71.8854,-41.6064,1453.6084],[-71.8791,-41.6138,1430.4388],[-71.8728,-41.6158,1468.2927],[-71.8666,-41.6222,1547.0885],[-71.8656,-41.6302,1329.1295],[-71.8569,-41.6446,1238.9258],[-71.8509,-41.6467,1008.0694],[-71.8429,-41.6444,995.4767],[-71.8359,-41.6471,1328.307],[-71.8361,-41.6518,1281.9961],[-71.8339,-41.6539,1245.3602],[-71.8362,-41.6667,1329.0454],[-71.8307,-41.676,1663.5544],[-71.8221,-41.6708,1764.6082],[-71.8178,-41.6699,1687.3043],[-71.8158,-41.675,1461.8632],[-71.8176,-41.6898,1185.7587],[-71.811,-41.6934,1458.6781],[-71.7998,-41.6915,1685.365],[-71.7943,-41.6944,1825.6814],[-71.7917,-41.7021,2025.7886],[-71.7969,-41.705,1750.7007],[-71.8002,-41.7113,1409.6704],[-71.8048,-41.7137,1502.0055],[-71.8101,-41.7207,1765.5264],[-71.7987,-41.7255,1645.2295],[-71.7927,-41.7313,1826.6826],[-71.7842,-41.735,1925.0989],[-71.7852,-41.7397,1720.6287],[-71.782,-41.7476,1423.0087],[-71.7833,-41.7514,1732.6067],[-71.7751,-41.7595,1826.2703],[-71.7753,-41.7676,1735.1671],[-71.7683,-41.7732,1609.6257],[-71.7637,-41.7821,1756.6024],[-71.753,-41.7856,1769.1321],[-71.7564,-41.7879,1770.4054],[-71.7686,-41.7861,1632.0884],[-71.7731,-41.795,1870.6699],[-71.7712,-41.797,1817.6686],[-71.7711,-41.8,1676.2678],[-71.7658,-41.8034,1490.0446],[-71.7686,-41.8094,1426.3065],[-71.7643,-41.8138,1429.8396],[-71.7639,-41.817,1566.7631],[-71.753,-41.8192,1699.3749],[-71.7508,-41.8247,1673.9021],[-71.7542,-41.8258,1635.7289],[-71.7596,-41.8248,1506.0773],[-71.7682,-41.8294,1313.8295],[-71.7928,-41.8319,1958.6915],[-71.7953,-41.841,1893.979],[-71.7975,-41.8429,1973.6851],[-71.7908,-41.8511,2025.1997],[-71.7908,-41.8578,1973.1548],[-71.7894,-41.8594,1948.236],[-71.7919,-41.874,1828.1973],[-71.7879,-41.8853,2079.5398],[-71.7892,-41.888,1959.9263],[-71.7885,-41.891,1945.405],[-71.782,-41.8958,1951.9452],[-71.7821,-41.901,1965.9473],[-71.7738,-41.9095,1869.7181],[-71.7754,-41.918,1739.735],[-71.7723,-41.9296,1486.5321],[-71.7748,-41.9338,1451.2925],[-71.7723,-41.9381,1378.0696],[-71.7755,-41.9386,1374.5156],[-71.7831,-41.9445,1776.5498],[-71.7942,-41.9451,1844.0393],[-71.7909,-41.9561,1630.338],[-71.7945,-41.9616,1764.7848],[-71.7918,-41.9643,1744.8599],[-71.7901,-41.9713,1784.6616],[-71.7865,-41.9733,1788.7354],[-71.7835,-41.9795,1790.4231],[-71.7793,-41.9834,1847.7651],[-71.7786,-41.991,1918.0284],[-71.7736,-41.9991,1875.4585],[-71.7749,-42.0026,1748.8068],[-71.7721,-42.0087,1666.3792],[-71.7698,-42.01,1628.0295],[-71.7658,-42.0087,1563.735],[-71.7622,-42.0105,1464.3818],[-71.7641,-41.9995,1743.8085],[-71.0952,-41.9994,925.519],[-70.5001,-41.9964,951.3522],[-70.4043,-41.9991,764.9333],[-69.9216,-42.0038,880.1824],[-69.0526,-42.0073,1313.298],[-68.2801,-42.0049,1557.655],[-67.4993,-41.9971,1230.9579],[-66.9211,-42.0021,665.2328],[-66.2453,-42.004,522.5924],[-65.6465,-42.0023,347.1462],[-65.069,-41.9976,5.9674],[-65.0676,-41.9929,0.341],[-65.066,-41.9924,0.0],[-65.069,-41.9871,4.0335],[-65.0654,-41.9865,0.0],[-65.0707,-41.9693,0.0],[-65.0696,-41.9649,0.0],[-65.071,-41.9585,0.0507],[-65.0679,-41.9538,0.0],[-65.0693,-41.9496,4.859],[-65.0638,-41.9424,5.2882],[-65.0629,-41.9282,5.5577],[-65.0646,-41.9212,8.443],[-65.0626,-41.914,0.0],[-65.061,-41.9132,0.0],[-65.0621,-41.909,0.0],[-65.0646,-41.9071,0.2638],[-65.0668,-41.9074,1.941],[-65.0668,-41.9057,0.9094],[-65.0635,-41.9049,0.0],[-65.0615,-41.9021,1.1724],[-65.0596,-41.9038,0.0],[-65.0565,-41.9029,0.1594],[-65.056,-41.896,0.0],[-65.0579,-41.8907,0.0],[-65.0568,-41.8871,0.0],[-65.0596,-41.8854,2.2333],[-65.0585,-41.8826,4.1023],[-65.0551,-41.8829,1.4863],[-65.0524,-41.8793,0.4539],[-65.0465,-41.8799,0.0],[-65.0432,-41.8749,0.0],[-65.0357,-41.874,0.0],[-65.036,-41.8724,0.0],[-65.0418,-41.8693,0.0],[-65.0449,-41.8696,2.4131],[-65.0476,-41.8624,0.6666],[-65.0451,-41.8596,0.0],[-65.0457,-41.8546,0.0],[-65.0424,-41.8549,0.0],[-65.0401,-41.8512,0.1337],[-65.0379,-41.8515,0.0],[-65.0371,-41.8488,0.0],[-65.0457,-41.8479,0.0],[-65.0488,-41.8504,7.2593],[-65.0504,-41.8468,1.4695],[-65.0504,-41.8404,3.2176],[-65.0488,-41.8396,3.2176],[-65.0468,-41.841,0.0],[-65.0457,-41.8371,0.0],[-65.0399,-41.8315,0.0],[-65.0368,-41.8326,2.9251],[-65.0382,-41.834,0.0],[-65.0326,-41.8351,0.0],[-65.0229,-41.8335,2.3177],[-65.021,-41.8365,0.0],[-65.0163,-41.8335,0.1949],[-65.0137,-41.8174,1.0422],[-65.0163,-41.799,0.0],[-65.0188,-41.7993,4.4006],[-65.0179,-41.7962,6.4817],[-65.0151,-41.7926,0.0],[-65.014,-41.7854,1.1088],[-65.0104,-41.7779,9.7743],[-65.0065,-41.7782,0.0],[-65.0013,-41.7735,0.0],[-64.9962,-41.7724,0.0],[-64.9957,-41.7704,0.0],[-64.9976,-41.769,0.0],[-64.9938,-41.7637,0.0],[-64.9946,-41.7624,0.0],[-65.0018,-41.7629,0.0],[-65.0032,-41.7604,6.02],[-65.0024,-41.7551,0.0],[-65.0124,-41.7504,2.2646],[-65.0137,-41.7476,1.432],[-65.0124,-41.7451,0.0],[-65.0137,-41.7385,1.5412],[-65.0146,-41.7368,0.2895],[-65.0218,-41.7354,9.155],[-65.0196,-41.734,2.7721],[-65.0193,-41.7285,0.0],[-65.0207,-41.7249,0.2531],[-65.024,-41.726,9.5652],[-65.0254,-41.7235,5.6976],[-65.0251,-41.721,6.7911],[-65.0215,-41.7185,0.0],[-65.0204,-41.7121,0.3011],[-65.0224,-41.7115,6.2031],[-65.0193,-41.7085,0.0],[-65.0235,-41.7049,1.6729],[-65.0212,-41.6987,0.3181],[-65.006,-41.6976,0.0],[-65.0132,-41.6968,0.0],[-65.0132,-41.6951,0.0],[-65.0149,-41.6946,0.568],[-65.0232,-41.6954,3.3073],[-65.0257,-41.6932,2.1998],[-65.0263,-41.6907,8.3765],[-65.0237,-41.6901,0.5934],[-65.0237,-41.6835,0.0],[-65.0249,-41.6768,0.0],[-65.0268,-41.6738,0.0],[-65.0287,-41.6738,11.3597],[-65.0287,-41.6721,8.6568],[-65.0257,-41.6715,0.0],[-65.0232,-41.6668,0.0],[-65.0237,-41.6562,0.6315],[-65.0229,-41.6482,0.0],[-65.0207,-41.6451,0.5677],[-65.0226,-41.6424,0.0],[-65.021,-41.6351,0.0],[-65.0224,-41.6326,0.0],[-65.0268,-41.631,6.4391],[-65.0232,-41.6207,1.5654],[-65.0288,-41.6154,5.5531],[-65.0265,-41.6154,0.0],[-65.0282,-41.6115,2.7179],[-65.0263,-41.6099,1.948],[-65.019,-41.6126,0.0],[-65.0126,-41.6085,0.0],[-65.0085,-41.5951,0.0],[-65.0004,-41.5804,3.4306],[-64.9968,-41.5782,0.0],[-64.9882,-41.579,0.2396],[-64.986,-41.5776,0.2413],[-64.9868,-41.5762,0.0],[-64.9907,-41.5762,0.0],[-64.9926,-41.5735,0.0],[-65.0004,-41.5732,3.3858],[-65.0054,-41.5635,1.5192],[-65.0043,-41.5604,0.2322],[-65.0065,-41.5582,0.6409],[-65.0085,-41.5585,4.5076],[-65.0062,-41.5524,4.3376],[-65.0051,-41.551,1.437],[-65.0035,-41.5515,0.3965],[-65.0049,-41.5493,4.5467],[-65.0032,-41.5485,4.5467],[-65.0032,-41.5462,7.8145],[-65.001,-41.5471,0.0],[-65.0004,-41.5501,0.0],[-64.9965,-41.5482,0.0],[-64.9935,-41.5499,0.0],[-64.9924,-41.5429,0.0],[-64.9896,-41.539,0.4087],[-64.9893,-41.5243,1.2805],[-64.9865,-41.5229,0.0],[-64.9885,-41.5215,0.4338],[-64.9882,-41.5185,0.0],[-64.9907,-41.5143,0.0],[-64.9899,-41.5112,0.0],[-64.9921,-41.5099,0.3904],[-64.9907,-41.5068,0.0],[-64.991,-41.5043,0.2659],[-64.9929,-41.5035,5.0624],[-64.9918,-41.5007,0.0],[-64.9946,-41.4965,0.5012],[-64.9971,-41.496,0.435],[-64.9971,-41.4912,0.7379],[-64.9951,-41.4907,0.0],[-64.9971,-41.4901,0.7379],[-65.0013,-41.4837,0.0],[-65.0088,-41.4826,0.0],[-65.0132,-41.4749,0.1886],[-65.0174,-41.476,0.2411],[-65.0168,-41.4729,0.0],[-65.0218,-41.4715,0.0],[-65.0246,-41.4726,0.0],[-65.0257,-41.4663,0.0],[-65.0326,-41.4629,0.0],[-65.0232,-41.4624,0.0],[-65.0196,-41.4607,0.0],[-65.0274,-41.4596,0.3336],[-65.0299,-41.461,0.0],[-65.0338,-41.4593,0.0],[-65.0357,-41.4612,0.0],[-65.0351,-41.4574,0.0],[-65.0379,-41.4571,0.0],[-65.0407,-41.4593,0.0],[-65.0404,-41.4612,0.0],[-65.0335,-41.4635,0.0],[-65.034,-41.4671,1.1367],[-65.0432,-41.4596,0.0],[-65.0385,-41.4535,0.0],[-65.0349,-41.4529,0.0],[-65.0332,-41.4496,0.0],[-65.0338,-41.4465,0.0],[-65.0365,-41.4437,0.0],[-65.0312,-41.4451,0.0],[-65.031,-41.4426,0.8922],[-65.0279,-41.4401,1.3888],[-65.0299,-41.4362,0.0],[-65.0371,-41.4393,0.3644],[-65.0404,-41.439,0.8976],[-65.0365,-41.4362,0.0],[-65.0321,-41.4362,0.7469],[-65.0332,-41.434,0.0],[-65.0418,-41.4346,0.0],[-65.034,-41.4324,0.0],[-65.031,-41.4343,0.0],[-65.0332,-41.4315,0.0],[-65.0401,-41.4318,0.0],[-65.0393,-41.4299,0.3385],[-65.0329,-41.4276,0.0],[-65.0387,-41.426,4.1132],[-65.0415,-41.4226,0.0],[-65.0451,-41.426,1.131],[-65.0493,-41.4268,0.2702],[-65.0568,-41.4232,0.0],[-65.0604,-41.4201,0.0],[-65.061,-41.4174,0.0],[-65.069,-41.4132,0.0],[-65.0721,-41.4054,0.0],[-65.0751,-41.4021,2.5493],[-65.0743,-41.399,0.4316],[-65.0718,-41.3982,0.0],[-65.0726,-41.391,0.0],[-65.0746,-41.3893,0.0],[-65.076,-41.384,0.3563],[-65.0793,-41.3835,0.3486],[-65.0757,-41.3815,0.0],[-65.0779,-41.3785,0.9589],[-65.0776,-41.3721,0.0],[-65.0849,-41.366,0.0],[-65.0904,-41.3646,7.6946],[-65.0907,-41.3535,2.1725],[-65.0929,-41.3435,0.0],[-65.096,-41.3418,0.4197],[-65.0979,-41.3362,0.0],[-65.0993,-41.3354,0.0],[-65.1018,-41.3368,7.5713],[-65.1001,-41.3332,1.8024],[-65.0982,-41.3326,1.411],[-65.0985,-41.3229,2.0507],[-65.1035,-41.3168,0.0],[-65.1093,-41.3032,4.5419],[-65.1085,-41.2951,0.8736],[-65.1099,-41.294,0.0],[-65.1096,-41.2915,0.0],[-65.1118,-41.2907,0.0],[-65.1121,-41.2874,0.0],[-65.1165,-41.2843,5.252],[-65.1174,-41.2721,0.9656],[-65.1199,-41.2649,0.3906],[-65.1182,-41.2599,0.0],[-65.1201,-41.2568,0.0],[-65.1171,-41.2529,0.0],[-65.1207,-41.2454,0.0],[-65.119,-41.2421,0.0],[-65.1212,-41.2421,0.0],[-65.1204,-41.2385,0.0],[-65.1268,-41.2212,0.0],[-65.1301,-41.2038,0.0],[-65.1338,-41.1971,0.0],[-65.1332,-41.1949,0.0],[-65.1349,-41.194,0.0],[-65.1357,-41.1862,0.0],[-65.1396,-41.1835,0.0],[-65.1404,-41.1762,0.0],[-65.1443,-41.1751,0.0],[-65.1435,-41.1721,0.0],[-65.1449,-41.1707,0.0],[-65.1413,-41.1576,0.0],[-65.1432,-41.1557,0.0],[-65.1418,-41.1499,0.0],[-65.144,-41.1493,0.0],[-65.1451,-41.1463,0.0],[-65.144,-41.1424,0.0],[-65.1462,-41.1393,0.0],[-65.1454,-41.1343,0.0],[-65.1474,-41.1335,0.0],[-65.1451,-41.1307,0.0],[-65.149,-41.1251,0.0],[-65.1487,-41.1188,0.0],[-65.1471,-41.1162,0.0],[-65.1487,-41.1087,0.0],[-65.1462,-41.1043,0.0],[-65.1462,-41.101,0.0],[-65.1504,-41.0979,0.0],[-65.149,-41.0957,0.0],[-65.1513,-41.094,0.0],[-65.1524,-41.0865,0.0],[-65.1543,-41.0857,0.0],[-65.1532,-41.0804,0.0],[-65.1557,-41.0801,0.0],[-65.1557,-41.0768,0.0],[-65.1576,-41.0754,0.0],[-65.1557,-41.0732,0.0],[-65.1574,-41.0585,0.0],[-65.1518,-41.0554,0.0],[-65.1493,-41.0474,0.0],[-65.1515,-41.0418,0.0],[-65.1504,-41.0368,0.0],[-65.1524,-41.0343,0.0],[-65.1493,-41.0329,0.0],[-65.1487,-41.0296,0.0],[-65.1515,-41.0199,0.0],[-65.154,-41.0174,0.0],[-65.1535,-41.0085,0.0],[-65.149,-41.0054,0.0],[-65.1518,-41.0043,0.0],[-65.1513,-41.0007,0.0],[-65.154,-41.0004,0.0],[-65.1496,-40.9943,0.0],[-65.1496,-40.9901,0.0],[-65.1507,-40.9882,0.0],[-65.1532,-40.9882,0.0],[-65.1551,-40.9837,0.0],[-65.1537,-40.9824,0.0],[-65.1601,-40.9749,0.0],[-65.1574,-40.971,0.0],[-65.1588,-40.9637,0.0],[-65.1562,-40.9621,0.0],[-65.1551,-40.956,0.0],[-65.1551,-40.9529,0.0],[-65.1576,-40.9538,0.0],[-65.1582,-40.9512,0.0],[-65.151,-40.9429,0.0],[-65.154,-40.9401,0.0],[-65.1532,-40.9379,0.0],[-65.1496,-40.9374,0.0],[-65.1521,-40.9315,0.0],[-65.1513,-40.9287,0.0],[-65.1471,-40.926,0.0],[-65.146,-40.9224,0.0],[-65.1479,-40.9199,0.0],[-65.1474,-40.9126,0.0],[-65.1399,-40.9024,0.0],[-65.1374,-40.8957,0.0],[-65.1304,-40.8896,0.0],[-65.1304,-40.8876,0.0],[-65.1218,-40.8851,0.0],[-65.1218,-40.8818,0.0],[-65.119,-40.8776,0.0],[-65.1232,-40.8754,0.0],[-65.1237,-40.8707,0.0],[-65.1157,-40.8674,0.0],[-65.1204,-40.8665,0.0],[-65.1201,-40.8632,0.0],[-65.1224,-40.8626,0.0],[-65.121,-40.8599,0.0],[-65.1232,-40.8593,0.0],[-65.1246,-40.8554,0.0],[-65.1237,-40.8532,0.0],[-65.121,-40.8526,0.0],[-65.1201,-40.8499,0.0],[-65.1168,-40.8493,0.0],[-65.1143,-40.8432,0.0],[-65.1104,-40.8421,0.0],[-65.1126,-40.8385,0.0],[-65.1104,-40.8362,0.0],[-65.111,-40.8346,0.0],[-65.1012,-40.8265,0.0],[-65.0968,-40.8265,0.0],[-65.0976,-40.8246,0.0],[-65.0954,-40.8215,0.0],[-65.0876,-40.8162,0.0],[-65.0882,-40.8146,0.0],[-65.0907,-40.8151,0.0],[-65.0896,-40.8126,18.3687],[-65.0865,-40.8107,6.9022],[-65.0829,-40.811,0.0],[-65.071,-40.8074,0.0],[-65.0615,-40.8021,0.0],[-65.0524,-40.7957,0.0],[-65.0488,-40.7907,0.0],[-65.0437,-40.789,0.0],[-65.0429,-40.7871,0.0],[-65.0399,-40.786,0.0],[-65.0399,-40.7843,0.0],[-65.0249,-40.7746,0.0],[-65.0193,-40.7687,0.0],[-65.021,-40.7674,0.0],[-65.0207,-40.7649,0.7145],[-65.0176,-40.7651,0.0],[-65.0124,-40.7624,3.484],[-64.994,-40.7576,11.8914],[-64.9532,-40.7554,3.174],[-64.9274,-40.7576,7.3538],[-64.909,-40.7626,3.1935],[-64.9054,-40.7621,4.012],[-64.9051,-40.7637,0.0],[-64.9088,-40.7643,0.0],[-64.9099,-40.7671,0.0],[-64.9071,-40.7674,0.0],[-64.9049,-40.7668,0.0],[-64.9007,-40.7615,0.0],[-64.8999,-40.7624,0.0],[-64.9007,-40.7643,0.0],[-64.899,-40.7646,0.0],[-64.8979,-40.7601,0.0],[-64.8965,-40.7601,0.0],[-64.8962,-40.7562,0.0],[-64.9001,-40.7443,0.0],[-64.9015,-40.7443,0.0],[-64.901,-40.7415,0.0],[-64.9035,-40.7404,0.0],[-64.9107,-40.729,0.0],[-64.9199,-40.7271,0.0],[-64.9221,-40.7243,0.0],[-64.9112,-40.7271,0.0],[-64.9015,-40.7393,0.0],[-64.8965,-40.7412,0.0],[-64.8993,-40.7435,0.0],[-64.8965,-40.7482,0.0],[-64.8974,-40.7518,0.0],[-64.896,-40.754,0.0],[-64.8951,-40.7493,0.0],[-64.8932,-40.7565,0.0],[-64.8938,-40.7604,0.0],[-64.8874,-40.7607,0.0],[-64.8865,-40.7624,0.0],[-64.8851,-40.761,0.0],[-64.8865,-40.7593,0.0],[-64.886,-40.7546,0.0],[-64.8829,-40.7493,0.0],[-64.876,-40.7493,0.0],[-64.8746,-40.7474,0.0],[-64.8785,-40.7449,0.0],[-64.8785,-40.7421,0.0],[-64.8904,-40.7415,0.0],[-64.8901,-40.7343,0.0],[-64.8926,-40.7326,0.0],[-64.8918,-40.729,0.0],[-64.884,-40.7299,0.0],[-64.8732,-40.7349,0.0],[-64.8674,-40.731,0.0],[-64.8704,-40.7276,0.0],[-64.8632,-40.7282,0.0],[-64.8618,-40.7271,0.0],[-64.861,-40.7282,0.0],[-64.8651,-40.7307,0.0],[-64.8624,-40.7299,0.0],[-64.8593,-40.731,0.0],[-64.8582,-40.7332,0.0],[-64.8596,-40.7382,0.0],[-64.864,-40.741,0.0],[-64.8585,-40.7426,0.0],[-64.8538,-40.7421,0.0],[-64.8518,-40.7515,0.0],[-64.846,-40.7543,0.0],[-64.8379,-40.7501,0.0],[-64.8343,-40.7504,0.0],[-64.8374,-40.751,0.0],[-64.8446,-40.7571,0.0],[-64.8396,-40.7582,0.0],[-64.8393,-40.7562,0.0],[-64.8362,-40.7546,0.0],[-64.8279,-40.7657,0.0],[-64.8304,-40.7668,0.0],[-64.8296,-40.7696,0.0],[-64.8357,-40.7718,0.0],[-64.8376,-40.7743,0.0],[-64.8365,-40.7749,0.0],[-64.824,-40.7679,0.0],[-64.8238,-40.771,0.0],[-64.8213,-40.7704,0.0],[-64.8215,-40.7721,0.0],[-64.8249,-40.7737,0.0],[-64.8238,-40.7768,0.4313],[-64.8343,-40.7774,0.0],[-64.834,-40.7785,0.0],[-64.8224,-40.7788,0.0],[-64.8132,-40.7821,0.0],[-64.8049,-40.781,0.0],[-64.7965,-40.7835,0.0],[-64.7865,-40.7829,0.0],[-64.779,-40.7871,0.0],[-64.7804,-40.7879,0.0],[-64.7757,-40.7912,0.0],[-64.7793,-40.7918,1.4767],[-64.7799,-40.7896,0.0],[-64.7846,-40.7863,0.5438],[-64.8001,-40.7865,0.9529],[-64.8107,-40.7837,0.0],[-64.8154,-40.7837,0.0],[-64.8199,-40.786,0.0],[-64.8187,-40.7882,0.0],[-64.824,-40.7879,0.0],[-64.8251,-40.7863,0.0],[-64.8412,-40.7843,0.811],[-64.8426,-40.7804,0.0],[-64.8465,-40.7799,0.0],[-64.8468,-40.7812,0.0],[-64.8512,-40.7812,0.0],[-64.8649,-40.786,0.0],[-64.8707,-40.7896,0.0],[-64.8704,-40.791,0.0],[-64.8651,-40.7901,0.0],[-64.8662,-40.7912,0.0],[-64.8774,-40.7935,0.0],[-64.8779,-40.7954,1.115],[-64.8829,-40.7971,0.0],[-64.8893,-40.796,0.0],[-64.8863,-40.7985,1.0644],[-64.9024,-40.8024,0.0],[-64.9071,-40.8057,0.0],[-64.9074,-40.8087,0.0],[-64.8996,-40.8171,4.91],[-64.8774,-40.8315,0.0],[-64.8401,-40.8268,0.7635],[-64.8346,-40.8274,0.0],[-64.8343,-40.826,2.6962],[-64.8268,-40.8243,5.9437],[-64.7887,-40.8193,5.4101],[-64.7471,-40.8185,1.4468],[-64.7407,-40.8199,0.0],[-64.741,-40.824,0.0],[-64.7387,-40.8235,0.0],[-64.7376,-40.8251,0.0],[-64.731,-40.8262,0.0],[-64.7235,-40.8324,0.0],[-64.7176,-40.8321,0.0],[-64.716,-40.8354,0.0],[-64.7143,-40.8335,0.0],[-64.7112,-40.8349,0.0],[-64.7074,-40.834,0.0],[-64.7015,-40.8379,0.0],[-64.6982,-40.8365,0.0],[-64.6982,-40.8379,0.0],[-64.6957,-40.8371,0.0],[-64.6951,-40.8385,0.0],[-64.6876,-40.8399,0.0],[-64.6818,-40.839,0.0],[-64.6721,-40.8432,0.0],[-64.6696,-40.8401,0.0],[-64.6651,-40.8424,0.0],[-64.6615,-40.8396,0.0],[-64.659,-40.8396,0.0],[-64.6499,-40.8418,0.4761],[-64.6496,-40.8446,0.0],[-64.6387,-40.8471,0.0],[-64.6315,-40.8474,0.0],[-64.6296,-40.8457,2.0313],[-64.6232,-40.849,0.0],[-64.616,-40.8485,0.0],[-64.6154,-40.8504,0.0],[-64.6146,-40.8488,0.0],[-64.6104,-40.849,2.7917],[-64.611,-40.851,0.0],[-64.6079,-40.849,7.5306],[-64.6024,-40.851,0.0],[-64.6018,-40.8526,0.0],[-64.599,-40.8521,2.395],[-64.5976,-40.8543,0.0],[-64.594,-40.8537,0.0],[-64.5921,-40.8551,0.0],[-64.5915,-40.854,2.1991],[-64.5904,-40.856,0.0],[-64.5874,-40.8554,1.3864],[-64.5576,-40.8646,0.0],[-64.556,-40.8635,0.0],[-64.5626,-40.8607,3.2453],[-64.5418,-40.8646,0.0],[-64.5385,-40.8657,0.0],[-64.539,-40.8674,0.0],[-64.5365,-40.869,0.0],[-64.5218,-40.8751,0.0],[-64.5074,-40.8843,0.0],[-64.4979,-40.8846,1.055],[-64.4985,-40.8879,0.2525],[-64.4879,-40.8932,0.0],[-64.4876,-40.8949,0.0],[-64.4837,-40.8954,0.0],[-64.4821,-40.894,3.6678],[-64.4768,-40.8976,0.0],[-64.4713,-40.899,0.0],[-64.469,-40.9018,0.0],[-64.4651,-40.9007,8.4672],[-64.4568,-40.9018,6.9589],[-64.4224,-40.909,42.3049],[-64.399,-40.9193,44.4262],[-64.3976,-40.9265,22.329],[-64.3921,-40.9304,0.0],[-64.3096,-40.9571,43.7843],[-64.306,-40.9604,0.2722],[-64.2957,-40.9646,1.6137],[-64.284,-40.9746,-1.3462],[-64.2646,-40.9815,20.4734],[-64.2482,-40.991,2.8479],[-64.2307,-40.9965,21.4562],[-64.2274,-40.9982,2.5021],[-64.2274,-41.001,-0.59],[-64.2251,-41.001,21.125],[-64.2204,-41.0046,-0.3276],[-64.214,-41.0049,0.0917],[-64.2087,-41.0071,10.2859],[-64.2082,-41.0088,-0.761],[-64.2115,-41.0093,0.0],[-64.2096,-41.011,-0.4935],[-64.1901,-41.0146,-0.368],[-64.1818,-41.0176,0.0],[-64.154,-41.0204,0.0],[-64.1446,-41.0268,0.0],[-64.1357,-41.0296,0.0],[-64.1276,-41.0313,0.0],[-64.1126,-41.031,-0.3568],[-64.0768,-41.0385,0.0],[-64.0649,-41.0429,0.0],[-64.0424,-41.0474,0.0],[-64.0396,-41.0493,0.0],[-64.0263,-41.0518,0.0],[-63.9682,-41.0685,0.9902],[-63.9437,-41.0788,2.0612],[-63.9218,-41.0932,8.1334],[-63.9096,-41.1051,1.1406],[-63.8988,-41.1221,0.0],[-63.8857,-41.1321,5.697],[-63.8693,-41.1382,0.0],[-63.8363,-41.1443,23.714],[-63.8099,-41.1515,0.0],[-63.7868,-41.1599,0.0],[-63.7732,-41.161,0.0],[-63.7443,-41.1576,22.0979],[-63.6615,-41.1593,0.0],[-63.6621,-41.1576,14.6341],[-63.6115,-41.1563,0.0],[-63.6037,-41.1582,0.0],[-63.591,-41.1576,0.0],[-63.5488,-41.1618,0.0],[-63.5082,-41.1624,0.0],[-63.4932,-41.1607,11.5568],[-63.4404,-41.1624,5.069],[-63.3571,-41.1529,7.8406],[-63.3271,-41.1512,10.3487],[-63.3088,-41.1518,0.0],[-63.2815,-41.1576,6.6972],[-63.2335,-41.1593,0.0],[-63.2096,-41.1576,26.2549],[-63.1435,-41.1576,22.7966],[-63.1185,-41.1554,5.5237],[-63.094,-41.1499,0.0],[-63.0838,-41.1493,21.2169],[-63.0526,-41.1435,0.0],[-63.0404,-41.1376,15.7668],[-63.0374,-41.1335,0.0],[-63.0321,-41.1301,0.0],[-63.0062,-41.1196,0.0],[-63.0024,-41.1146,0.0],[-62.9957,-41.1104,16.1005],[-62.9712,-41.1029,29.2103],[-62.9593,-41.1012,0.0],[-62.9351,-41.0946,0.0],[-62.9221,-41.089,9.3981],[-62.9004,-41.0849,0.0],[-62.8818,-41.079,17.2452],[-62.8571,-41.0676,5.8496],[-62.8535,-41.0646,6.2761],[-62.8346,-41.0576,2.6355],[-62.8251,-41.049,3.2869],[-62.824,-41.0438,5.6659],[-62.8215,-41.041,5.4411],[-62.8146,-41.0357,5.0191],[-62.8085,-41.034,2.8677],[-62.8032,-41.0276,4.7067],[-62.7996,-41.0274,6.844]]],
[[[-64.854,-40.7724,0.0],[-64.8543,-40.7713,0.0],[-64.861,-40.7721,0.0],[-64.859,-40.7735,0.0],[-64.8601,-40.7749,0.0],[-64.8579,-40.7749,0.0],[-64.8562,-40.7774,0.0],[-64.8493,-40.779,0.0],[-64.841,-40.7779,0.0],[-64.8412,-40.7765,0.0],[-64.8521,-40.7749,0.0],[-64.854,-40.7724,0.0]]],
[[[-64.8371,-40.7588,0.0],[-64.8396,-40.7582,0.0],[-64.8351,-40.7612,0.0],[-64.8351,-40.7593,0.0],[-64.8371,-40.7588,0.0]]]]}
,"properties": {"GID_1": "ARG.16_1","GID_0": "ARG","country": "Argentina","state": "RíoNegro","VARNAME_1": "NA","NL_NAME_1": "NA","TYPE_1": "Provincia","ENGTYPE_1": "Province","CC_1": "NA","HASC_1": "AR.RN","ISO_1": "NA","name": "RíoNegro.state","area_km2": 202289.26,"hist_schema_id": "Elevation0-9000","hist_area_km2": {"-75": 364.4,"-50": 346.58,"-25": 383.51,"0": 1810.95,"25": 2853.6,"50": 7256.95,"75": 8226.96,"100": 8337.41,"125": 8440.87,"150": 8153.18,"175": 8501.84,"200": 7195.68,"225": 6381.98,"250": 5385.55,"275": 5034.64,"300": 5176.72,"325": 4321.72,"350": 3959.21,"375": 4043.36,"400": 3334.26,"425": 2965.91,"450": 2655.88,"475": 2403.26,"500": 2309.06,"525": 2191.34,"550": 2218.53,"575": 2182.74,"600": 2221.7,"625": 1989.06,"650": 1924.76,"675": 1818.71,"700": 1871.62,"725": 1880.16,"750": 1802.34,"775": 2010.47,"800": 2122.47,"825": 2292.6,"850": 2980.37,"875": 2834.33,"900": 3059.66,"925": 2626.73,"950": 2582.69,"975": 2792.0,"1000": 3221.52,"1025": 3718.21,"1050": 3886.49,"1075": 3871.43,"1100": 4020.47,"1125": 3930.37,"1150": 3632.6,"1175": 3382.27,"1200": 3159.48,"1225": 2609.14,"1250": 2309.91,"1275": 1892.1,"1300": 1645.6,"1325": 1212.78,"1350": 949.5,"1375": 799.26,"1400": 703.12,"1425": 602.3,"1450": 464.53,"1475": 368.97,"1500": 304.67,"1525": 251.55,"1550": 215.53,"1575": 196.72,"1600": 182.45,"1625": 166.35,"1650": 149.16,"1675": 134.26,"1700": 125.05,"1725": 114.83,"1750": 107.2,"1775": 97.63,"1800": 88.14,"1825": 79.15,"1850": 72.61,"1875": 62.8,"1900": 55.76,"1925": 47.84,"1950": 40.63,"1975": 33.62,"2000": 29.32,"2025": 24.74,"2050": 19.45,"2075": 15.41,"2100": 12.2,"2125": 9.17,"2150": 6.1,"2175": 4.2,"2200": 2.91,"2225": 2.48}}}