{"type": "Feature","bbox": [-64.8157,-31.7205,-64.4087,-30.6887],"geometry": {"type": "MultiPolygon","coordinates": [[[[-64.4487,-30.8952,1630.6427],[-64.4487,-30.8888,1670.6377],[-64.4547,-30.8731,1613.4109],[-64.4594,-30.8515,1646.3254],[-64.4638,-30.8024,1371.7354],[-64.5264,-30.7993,875.6364],[-64.5282,-30.6974,1214.9785],[-64.5499,-30.7002,1014.6535],[-64.5519,-30.6887,1065.8196],[-64.6537,-30.6905,650.7057],[-64.6544,-30.7107,616.9415],[-64.6463,-30.7193,646.7501],[-64.6442,-30.7245,666.706],[-64.6436,-30.7306,675.3353],[-64.6399,-30.7369,658.42],[-64.6382,-30.7501,678.891],[-64.6319,-30.766,725.2311],[-64.638,-30.781,636.1613],[-64.6425,-30.7876,655.0007],[-64.6732,-30.812,565.3452],[-64.685,-30.8272,615.6536],[-64.6805,-30.8695,701.4265],[-64.6826,-30.9189,747.1291],[-64.6872,-30.9461,784.1691],[-64.6919,-30.9621,860.5584],[-64.6945,-31.0117,973.6908],[-64.6926,-31.0168,1004.4728],[-64.6877,-31.0205,992.0877],[-64.6752,-31.0212,952.374],[-64.674,-31.0322,980.4727],[-64.6777,-31.0426,965.9634],[-64.6987,-31.0633,1103.7476],[-64.7025,-31.0678,1094.0615],[-64.7039,-31.073,1112.9675],[-64.6978,-31.1001,1151.3245],[-64.6986,-31.1111,1191.7874],[-64.7031,-31.1213,1263.3613],[-64.7139,-31.1347,1283.1104],[-64.7128,-31.1512,1351.2963],[-64.722,-31.1831,1533.2866],[-64.7218,-31.1942,1554.6749],[-64.716,-31.2212,1752.9631],[-64.7145,-31.2431,1627.3171],[-64.7155,-31.2541,1644.4995],[-64.7244,-31.2687,1755.8164],[-64.7389,-31.2797,1787.822],[-64.7419,-31.2844,1756.2726],[-64.7539,-31.3159,1826.9816],[-64.7605,-31.3428,1791.6141],[-64.7653,-31.353,1769.7845],[-64.7729,-31.3619,1806.1564],[-64.7866,-31.3737,1771.6985],[-64.7892,-31.3842,1764.3867],[-64.7884,-31.4118,1818.8341],[-64.7923,-31.4278,2024.1389],[-64.7987,-31.4292,2114.4285],[-64.8095,-31.4281,2286.9578],[-64.8157,-31.509,2311.1128],[-64.7915,-31.5138,2258.4038],[-64.7902,-31.5652,2091.3152],[-64.7661,-31.6205,2132.3887],[-64.7398,-31.6693,1970.7006],[-64.7347,-31.6726,1799.2097],[-64.7318,-31.6776,1816.2654],[-64.7267,-31.6808,1935.3555],[-64.7012,-31.684,1889.7344],[-64.6868,-31.6949,1733.413],[-64.6807,-31.6965,1521.439],[-64.6615,-31.698,1372.5856],[-64.6359,-31.6961,968.3038],[-64.6296,-31.6969,998.8802],[-64.6237,-31.6993,1002.0246],[-64.6203,-31.7038,1001.0508],[-64.6169,-31.7144,968.6664],[-64.6124,-31.7183,945.9612],[-64.6063,-31.7201,928.9103],[-64.5999,-31.7205,956.7301],[-64.5937,-31.7189,939.6735],[-64.5669,-31.7037,807.9137],[-64.5493,-31.6973,831.0872],[-64.5431,-31.6817,893.4902],[-64.5428,-31.6707,1117.3323],[-64.5436,-31.6653,1152.6626],[-64.5512,-31.6502,1178.6509],[-64.5461,-31.6405,1136.7535],[-64.5464,-31.635,1145.8347],[-64.5437,-31.6299,1177.3206],[-64.5432,-31.6246,1217.5333],[-64.5518,-31.6038,1049.0854],[-64.5579,-31.5824,1035.1394],[-64.5542,-31.5607,1060.9585],[-64.5482,-31.5451,1003.0004],[-64.5302,-31.5159,759.1516],[-64.5169,-31.4564,676.6056],[-64.511,-31.4407,680.718],[-64.4974,-31.4158,645.7844],[-64.4941,-31.4112,645.6433],[-64.4846,-31.4037,649.4041],[-64.4736,-31.398,658.4618],[-64.4436,-31.3774,730.7573],[-64.44,-31.3728,665.7485],[-64.4387,-31.3675,741.2659],[-64.4413,-31.3538,857.623],[-64.435,-31.3371,893.7961],[-64.4366,-31.2974,904.3956],[-64.4305,-31.2527,996.1617],[-64.4265,-31.2361,953.7171],[-64.4187,-31.22,1054.7249],[-64.4101,-31.2096,1138.2728],[-64.4087,-31.2042,1207.7078],[-64.4094,-31.1988,1200.5409],[-64.4127,-31.194,1209.589],[-64.423,-31.1877,1060.2148],[-64.4293,-31.1859,984.1965],[-64.4329,-31.1816,990.7381],[-64.4295,-31.1655,1182.4863],[-64.4363,-31.1386,1099.2327],[-64.4369,-31.1111,1171.9612],[-64.4501,-31.0687,1354.5027],[-64.4512,-31.0411,1409.991],[-64.4451,-30.9973,1378.3333],[-64.4461,-30.992,1379.1904],[-64.4512,-30.9821,1395.5872],[-64.4517,-30.971,1462.1631],[-64.4504,-30.9214,1648.4456],[-64.4517,-30.9106,1513.7739],[-64.4487,-30.8952,1630.6427]]]]}
,"properties": {"GID_2": "ARG.6.13_1","GID_0": "ARG","country": "Argentina","GID_1": "ARG.6_1","state": "Córdoba","NL_NAME_1": "NA","county": "Punilla","VARNAME_2": "Cosquin","NL_NAME_2": "NA","TYPE_2": "Departamento","ENGTYPE_2": "Department","CC_2": "NA","HASC_2": "AR.CB.PU","name": "Punilla.county","area_km2": 2616.701,"hist_schema_id": "Elevation0-9000","hist_area_km2": {"550": 1.839,"575": 4.042,"600": 9.157,"625": 16.131,"650": 49.049,"675": 46.801,"700": 68.251,"725": 78.642,"750": 87.155,"775": 78.824,"800": 76.554,"825": 75.505,"850": 73.132,"875": 68.864,"900": 68.693,"925": 79.271,"950": 88.89,"975": 90.968,"1000": 87.598,"1025": 90.954,"1050": 92.605,"1075": 100.39,"1100": 104.776,"1125": 99.757,"1150": 85.669,"1175": 74.173,"1200": 60.638,"1225": 50.723,"1250": 46.554,"1275": 41.943,"1300": 40.778,"1325": 37.207,"1350": 34.413,"1375": 30.933,"1400": 29.086,"1425": 28.83,"1450": 24.339,"1475": 23.126,"1500": 19.705,"1525": 17.641,"1550": 17.514,"1575": 18.727,"1600": 16.734,"1625": 17.731,"1650": 16.499,"1675": 17.512,"1700": 19.014,"1725": 18.834,"1750": 19.876,"1775": 23.149,"1800": 19.126,"1825": 12.277,"1850": 10.497,"1875": 10.439,"1900": 10.456,"1925": 6.845,"1950": 5.347,"1975": 5.383,"2000": 6.106,"2025": 6.955,"2050": 7.532,"2075": 6.124,"2100": 5.583,"2125": 5.998,"2150": 6.035,"2175": 3.543,"2200": 3.092,"2225": 3.906,"2250": 3.743,"2275": 4.032,"2300": 3.634,"2325": 0.85}}}