{"type": "Feature","bbox": [-55.6251,-28.1642,-55.3098,-27.7571],"geometry": {"type": "MultiPolygon","coordinates": [[[[-55.5906,-28.1195,63.0],[-55.585,-28.1196,63.5],[-55.582,-28.1214,65.1386],[-55.5747,-28.1301,71.3458],[-55.5679,-28.1605,63.5],[-55.5578,-28.1642,64.0],[-55.5543,-28.164,64.0],[-55.5448,-28.1565,69.6022],[-55.5401,-28.1451,64.0],[-55.536,-28.1276,68.5085],[-55.5315,-28.122,75.3121],[-55.5237,-28.1178,64.875],[-55.5117,-28.1152,66.4813],[-55.5081,-28.1102,65.0],[-55.5,-28.0855,65.5],[-55.4951,-28.0782,65.5],[-55.49,-28.0767,65.5],[-55.4851,-28.0775,65.5],[-55.4586,-28.0946,66.3916],[-55.4537,-28.0965,66.0],[-55.448,-28.0963,66.0],[-55.4406,-28.0913,67.5371],[-55.4261,-28.0704,66.5],[-55.4202,-28.0652,66.5],[-55.3908,-28.0488,68.0],[-55.3786,-28.0403,69.125],[-55.3743,-28.0348,69.5],[-55.3753,-28.0341,69.75],[-55.3681,-28.0211,71.0],[-55.3726,-28.0088,72.125],[-55.3856,-27.9901,73.0],[-55.3827,-27.9844,73.5],[-55.3764,-27.9795,73.5],[-55.3622,-27.9742,73.5],[-55.3439,-27.9726,74.0],[-55.3379,-27.9662,74.0],[-55.3411,-27.9651,74.0],[-55.339,-27.962,74.0],[-55.335,-27.9439,74.125],[-55.3314,-27.9377,74.5],[-55.323,-27.9281,75.725],[-55.3098,-27.9247,89.9936],[-55.3627,-27.7745,125.6766],[-55.5209,-27.7571,267.8125],[-55.5531,-27.8261,155.5497],[-55.6251,-27.937,124.7163],[-55.5726,-27.9375,140.5657],[-55.573,-27.9429,153.2682],[-55.5645,-27.9503,133.4547],[-55.5632,-27.9582,113.3903],[-55.5588,-27.9651,119.9825],[-55.5593,-27.9701,118.1853],[-55.5538,-27.988,126.7693],[-55.5518,-28.0092,106.3154],[-55.5481,-28.0189,99.082],[-55.551,-28.0233,99.992],[-55.5504,-28.0311,87.0365],[-55.554,-28.0354,77.9059],[-55.552,-28.0455,92.3047],[-55.5571,-28.0519,79.9914],[-55.5562,-28.059,99.9801],[-55.5591,-28.0596,81.3595],[-55.5553,-28.0687,106.763],[-55.5558,-28.0713,94.4814],[-55.5605,-28.0745,73.2801],[-55.5624,-28.0786,73.7249],[-55.5654,-28.0781,68.6878],[-55.5678,-28.0797,77.6269],[-55.5695,-28.082,84.2237],[-55.5692,-28.0867,70.8992],[-55.5727,-28.0911,66.5049],[-55.584,-28.0905,80.7568],[-55.5862,-28.0923,95.117],[-55.5816,-28.0989,94.3761],[-55.5906,-28.1195,63.0]]]]}
,"properties": {"GID_2": "ARG.14.5_1","GID_0": "ARG","country": "Argentina","GID_1": "ARG.14_1","state": "Misiones","NL_NAME_1": "NA","county": "Concepción","VARNAME_2": "ConcepciondelaSierra","NL_NAME_2": "NA","TYPE_2": "Departamento","ENGTYPE_2": "Department","CC_2": "NA","HASC_2": "AR.MN.CO","name": "Concepción.county","area_km2": 776.4494,"hist_schema_id": "Elevation0-9000","hist_area_km2": {"75": 86.5541,"100": 148.0012,"125": 177.6409,"150": 155.8446,"175": 75.2168,"200": 38.228,"225": 27.693,"250": 20.9265,"275": 21.8291,"300": 19.1501,"325": 5.3276,"350": 0.0375}}}