{"type":"Feature","properties":{"GID_2":"ARG.17.2_1","GID_0":"ARG","country":"Argentina","GID_1":"ARG.17_1","state":"Salta","NL_NAME_1":"NA","county":"Cachi","VARNAME_2":"NA","NL_NAME_2":"NA","TYPE_2":"Departamento","ENGTYPE_2":"Department","CC_2":"NA","HASC_2":"AR.SA.CA","name":"Cachi.county"},
"geometry":{"type": "MultiPolygon","coordinates": [[[[-65.8566,-25.0711,4926.6445],[-65.8666,-25.0655,4424.6855],[-65.8811,-25.0543,4002.5093],[-65.8852,-25.0499,4075.3967],[-65.8895,-25.0392,4356.2051],[-65.8911,-25.0278,4346.145],[-65.8911,-24.9933,4476.8604],[-65.884,-24.9655,4604.6455],[-65.8839,-24.9482,4725.3569],[-65.8862,-24.9427,4763.3218],[-65.8912,-24.9396,4736.0571],[-65.8975,-24.9387,4542.6724],[-65.9164,-24.9413,3772.6597],[-65.9221,-24.9394,3719.8289],[-65.9271,-24.9356,3618.1333],[-65.9383,-24.915,3919.7925],[-65.9514,-24.8956,3667.0005],[-65.9618,-24.889,3455.603],[-65.9785,-24.8718,3007.4463],[-66.0012,-24.8521,3251.2361],[-66.0044,-24.841,3213.4121],[-66.0044,-24.8353,3170.9949],[-66.0019,-24.8241,3266.5464],[-66.0008,-24.8069,3451.063],[-65.9965,-24.7901,3244.7039],[-65.9988,-24.7849,3336.3369],[-66.0156,-24.7676,3357.8062],[-66.0208,-24.7577,3672.7991],[-66.0272,-24.7566,3607.6504],[-66.0582,-24.7605,3204.9309],[-66.1221,-24.7517,4813.9175],[-66.1233,-24.754,4762.709],[-66.1067,-24.7603,4223.2788],[-66.0985,-24.7839,4277.0654],[-66.0967,-24.7952,4148.8105],[-66.0917,-24.8058,3859.3506],[-66.0905,-24.8172,3723.9553],[-66.1021,-24.8559,3293.5479],[-66.1025,-24.879,3170.7363],[-66.1061,-24.8898,2959.595],[-66.1065,-24.9014,2801.092],[-66.1088,-24.9067,2839.8691],[-66.1189,-24.9134,2692.4614],[-66.1314,-24.9146,2716.5571],[-66.1467,-24.9247,2629.9575],[-66.1962,-24.9326,3151.7554],[-66.2018,-24.9295,3277.646],[-66.2044,-24.9242,3481.0142],[-66.2279,-24.9052,3371.2109],[-66.2349,-24.8957,3507.2932],[-66.2448,-24.8886,3728.166],[-66.2532,-24.88,3729.4263],[-66.2539,-24.8572,3964.3296],[-66.2585,-24.853,4137.3218],[-66.2704,-24.85,3960.6189],[-66.2827,-24.8524,4172.0762],[-66.3016,-24.8513,3991.772],[-66.3204,-24.8531,4055.2341],[-66.3439,-24.8451,4375.2153],[-66.3542,-24.8382,4345.5312],[-66.36,-24.8382,4531.6211],[-66.3785,-24.8427,5000.5508],[-66.391,-24.8422,5594.4248],[-66.3962,-24.8391,5748.0176],[-66.4,-24.8345,5989.457],[-66.4046,-24.8238,5886.0122],[-66.4064,-24.8147,5888.1572],[-66.4514,-24.8286,4702.3545],[-66.4597,-24.8372,4593.3008],[-66.4641,-24.8539,4497.166],[-66.4676,-24.8586,4484.6006],[-66.4787,-24.8641,4377.2529],[-66.4911,-24.8656,4273.1509],[-66.5037,-24.8651,4427.8018],[-66.5157,-24.8682,4595.6562],[-66.5302,-24.8793,4910.4614],[-66.5475,-24.8959,4569.8735],[-66.5695,-24.9071,4661.23],[-66.5834,-24.9188,4984.7788],[-66.5902,-24.9284,5199.4209],[-66.597,-24.9445,5363.582],[-66.5874,-24.9654,5501.54],[-66.5855,-24.9883,5319.5737],[-66.5896,-25.0051,5050.8433],[-66.5749,-25.0304,4582.7891],[-66.5719,-25.0474,4775.8589],[-66.5725,-25.0531,4743.0415],[-66.5774,-25.0637,5184.7188],[-66.5947,-25.0877,5247.8364],[-66.5972,-25.0989,5459.0156],[-66.5994,-25.1239,5633.8179],[-66.5411,-25.1078,4478.8984],[-66.5349,-25.1073,4481.8843],[-66.5041,-25.114,3652.6511],[-66.4918,-25.1128,4019.6973],[-66.4732,-25.1153,3233.9004],[-66.4693,-25.1199,3245.8325],[-66.4646,-25.1307,3198.6724],[-66.4627,-25.1477,3248.0215],[-66.4583,-25.1519,3254.1248],[-66.4525,-25.154,3081.8296],[-66.4411,-25.1488,3273.0801],[-66.4226,-25.1331,4144.0752],[-66.4167,-25.1315,4306.8931],[-66.4104,-25.1321,4636.894],[-66.3805,-25.1415,3704.2856],[-66.3617,-25.1432,4092.877],[-66.3312,-25.1505,3993.8528],[-66.3205,-25.1565,4125.7529],[-66.3181,-25.1619,4009.6575],[-66.315,-25.1847,3604.0151],[-66.3089,-25.1947,3467.6426],[-66.3075,-25.2002,3354.5801],[-66.3081,-25.2117,3370.5332],[-66.305,-25.2229,3363.2944],[-66.2983,-25.2325,3406.2012],[-66.293,-25.2357,3228.458],[-66.2811,-25.2395,2828.5491],[-66.2748,-25.2393,2629.6726],[-66.2626,-25.2357,2439.5291],[-66.2569,-25.2363,2442.1138],[-66.2401,-25.2446,2348.28],[-66.2341,-25.2459,2503.4902],[-66.2026,-25.2465,2196.574],[-66.1328,-25.2857,2530.8159],[-66.1158,-25.2934,2629.2336],[-66.1097,-25.2947,2657.0266],[-66.0973,-25.2922,2717.387],[-66.0911,-25.293,2744.8035],[-66.0797,-25.2978,2820.104],[-66.0612,-25.3017,2955.3574],[-66.0425,-25.305,3100.8279],[-66.0299,-25.3052,3223.4097],[-66.0125,-25.312,3459.2334],[-66.0069,-25.3128,3545.4031],[-65.9877,-25.297,3337.9309],[-65.9763,-25.2922,3235.5618],[-65.9502,-25.276,3242.918],[-65.9337,-25.2675,3123.7407],[-65.9082,-25.2505,3144.3191],[-65.8993,-25.2424,3169.175],[-65.8805,-25.2412,3202.7754],[-65.8757,-25.2375,3212.0269],[-65.8699,-25.2272,3237.8428],[-65.8664,-25.2162,3289.3674],[-65.8629,-25.1875,3346.1274],[-65.8653,-25.1827,3393.4429],[-65.8793,-25.1709,3571.6797],[-65.8826,-25.166,3640.4973],[-65.8857,-25.155,3511.3784],[-65.8846,-25.1493,3548.9131],[-65.8741,-25.135,3610.8103],[-65.8506,-25.1266,3992.812],[-65.8422,-25.1181,4334.5059],[-65.8417,-25.1126,4638.7842],[-65.8545,-25.08,4825.9785],[-65.8566,-25.0711,4926.6445]]]]}}