{"type": "Feature","bbox": [-71.2224,-37.3768,-70.4702,-36.133],"geometry": {"type": "MultiPolygon","coordinates": [[[[-70.4702,-36.1721,2746.5493],[-70.4817,-36.1748,2583.7954],[-70.4886,-36.1783,2763.9849],[-70.4924,-36.1775,2930.4673],[-70.4988,-36.1703,3017.8984],[-70.5073,-36.1675,2941.355],[-70.5075,-36.1618,2993.1941],[-70.51,-36.1566,2919.5518],[-70.5186,-36.1518,2957.5828],[-70.5227,-36.152,3099.4136],[-70.5235,-36.1472,3084.7905],[-70.5335,-36.142,2923.3599],[-70.5448,-36.1426,2828.7983],[-70.5524,-36.1385,2828.9866],[-70.5587,-36.1389,2841.5112],[-70.5612,-36.1379,2874.624],[-70.5635,-36.1343,2948.9983],[-70.5698,-36.133,2986.7925],[-70.582,-36.1437,2918.8318],[-70.583,-36.1477,2973.5684],[-70.579,-36.1561,2898.6689],[-70.5731,-36.1578,2968.0193],[-70.575,-36.1634,3041.7612],[-70.5713,-36.1702,2770.1492],[-70.571,-36.175,2942.6733],[-70.583,-36.1823,2871.1548],[-70.5861,-36.1892,2973.1343],[-70.5941,-36.1895,2793.9756],[-70.605,-36.1962,2709.9893],[-70.6072,-36.2071,2844.4097],[-70.6118,-36.2074,2843.5579],[-70.6133,-36.2101,2809.1912],[-70.6274,-36.2124,2872.4712],[-70.632,-36.2162,2961.3767],[-70.6323,-36.2174,2945.7429],[-70.6262,-36.2227,2969.0723],[-70.6245,-36.227,2921.949],[-70.6318,-36.2386,2811.0942],[-70.6393,-36.2433,2939.1321],[-70.6552,-36.2406,2787.8821],[-70.6659,-36.2428,2788.1323],[-70.6727,-36.249,2732.2749],[-70.6779,-36.2498,2626.9824],[-70.681,-36.2559,2573.9558],[-70.6887,-36.2567,2629.075],[-70.6914,-36.2613,2778.3572],[-70.7056,-36.272,2925.3577],[-70.7032,-36.2797,2997.811],[-70.6932,-36.2797,2801.3105],[-70.6854,-36.2837,2855.4839],[-70.6841,-36.2889,2757.3999],[-70.6882,-36.3003,2831.1851],[-70.685,-36.301,2816.2939],[-70.6837,-36.3048,2824.8721],[-70.6867,-36.3107,2854.1772],[-70.69,-36.3111,2824.1824],[-70.7021,-36.3212,2812.8462],[-70.7011,-36.3246,2821.1855],[-70.704,-36.335,2704.2832],[-70.7116,-36.3399,2904.0312],[-70.7111,-36.3448,2866.5493],[-70.7077,-36.3499,2784.9312],[-70.7021,-36.3511,2788.6592],[-70.7012,-36.3599,2851.792],[-70.6907,-36.3609,2730.2563],[-70.6878,-36.3696,2735.9343],[-70.6813,-36.3719,2696.4863],[-70.6786,-36.3777,2644.7817],[-70.6794,-36.3851,2642.0093],[-70.6777,-36.3887,2615.7891],[-70.6806,-36.394,2653.7629],[-70.6875,-36.4006,2504.9692],[-70.6885,-36.4078,2570.0769],[-70.6928,-36.4104,2649.002],[-70.701,-36.4102,2549.9351],[-70.7075,-36.4174,2373.4553],[-70.7124,-36.4269,2579.0598],[-70.7389,-36.4292,2622.2236],[-70.7394,-36.4242,2620.2405],[-70.7352,-36.4154,2623.428],[-70.74,-36.4079,2727.1423],[-70.7465,-36.4058,2791.2896],[-70.7554,-36.4088,2642.3765],[-70.7622,-36.4211,2391.6694],[-70.7723,-36.4284,2570.9106],[-70.7886,-36.4287,2765.3525],[-70.7913,-36.4275,2742.0737],[-70.7943,-36.4193,2616.4463],[-70.8077,-36.4029,2331.4172],[-70.8174,-36.396,2429.9629],[-70.8325,-36.4056,2262.3936],[-70.8359,-36.4148,2237.261],[-70.8453,-36.4165,2221.7021],[-70.8451,-36.4188,2189.7881],[-70.8478,-36.4185,2182.0308],[-70.8597,-36.4125,2211.0361],[-70.8695,-36.4102,2227.5747],[-70.87,-36.4041,2253.4556],[-70.8658,-36.4011,2316.7241],[-70.8644,-36.3975,2434.6055],[-70.8835,-36.3964,2489.0586],[-70.8892,-36.4005,2508.4084],[-70.8893,-36.4109,2235.7424],[-70.8875,-36.4154,2190.7461],[-70.8911,-36.4241,2348.1304],[-70.8902,-36.4352,2520.9841],[-70.887,-36.4358,2586.0503],[-70.8865,-36.4389,2569.4492],[-70.8922,-36.4453,2481.3237],[-70.8943,-36.4525,2355.5208],[-70.8868,-36.462,2439.2202],[-70.8943,-36.4719,2296.8064],[-70.9037,-36.4746,2103.188],[-70.9159,-36.4733,2219.582],[-70.9266,-36.4742,2342.387],[-70.9292,-36.4777,2317.1155],[-70.9275,-36.4842,2416.9094],[-70.9322,-36.4872,2389.2197],[-70.9341,-36.4917,2387.2607],[-70.9445,-36.4915,2306.552],[-70.9484,-36.4945,2213.8059],[-70.9479,-36.4975,2215.0649],[-70.9516,-36.4971,2260.8586],[-70.9538,-36.502,2179.3442],[-70.9572,-36.5034,2253.6082],[-70.9738,-36.5024,2353.644],[-70.9756,-36.5014,2307.8677],[-70.9786,-36.494,2394.0767],[-70.9839,-36.4938,2388.8831],[-70.9891,-36.4961,2391.2588],[-70.9971,-36.4868,2315.9836],[-71.0043,-36.4878,2339.9766],[-71.0095,-36.4868,2425.595],[-71.0176,-36.4746,2437.374],[-71.023,-36.4721,2311.0496],[-71.0318,-36.4725,2289.8911],[-71.0379,-36.4768,2349.9116],[-71.0358,-36.4937,2265.8843],[-71.0392,-36.5004,2319.0098],[-71.0367,-36.5032,2208.5383],[-71.0353,-36.5101,2165.969],[-71.0433,-36.5148,2220.0283],[-71.0467,-36.5212,2098.7578],[-71.0508,-36.5244,2099.1333],[-71.0461,-36.5339,2103.8906],[-71.0462,-36.5373,1977.3918],[-71.0437,-36.5404,1888.3218],[-71.0439,-36.5463,2119.8743],[-71.0408,-36.5501,2112.9402],[-71.044,-36.5565,2173.6113],[-71.049,-36.5589,2151.4756],[-71.0506,-36.5649,2056.042],[-71.0558,-36.567,2079.8049],[-71.0537,-36.5712,2052.998],[-71.0548,-36.5764,2089.0186],[-71.0478,-36.58,1919.3921],[-71.0462,-36.5828,1867.3728],[-71.0484,-36.5883,1856.1135],[-71.046,-36.5956,1991.1727],[-71.0489,-36.5984,1949.9856],[-71.0483,-36.6081,1852.3276],[-71.0575,-36.6182,1993.8146],[-71.0492,-36.6221,1974.941],[-71.0453,-36.6264,1936.8577],[-71.0424,-36.6363,2044.7382],[-71.0419,-36.6429,1932.7501],[-71.0436,-36.6452,1983.8441],[-71.0407,-36.6487,1999.9594],[-71.0285,-36.6512,2084.4629],[-71.0291,-36.657,2006.5898],[-71.0273,-36.6635,2002.5764],[-71.011,-36.6647,2218.3101],[-71.0134,-36.6732,2224.0901],[-71.0105,-36.6808,2252.9016],[-71.0074,-36.683,2293.4487],[-71.0096,-36.688,2187.3279],[-71.009,-36.6909,2211.291],[-71.0138,-36.6977,2099.0935],[-71.023,-36.6983,1859.3113],[-71.0307,-36.7026,1744.5817],[-71.0408,-36.7035,1802.5402],[-71.0548,-36.7073,2012.8096],[-71.0592,-36.7131,2326.2117],[-71.0662,-36.7145,2505.1047],[-71.0713,-36.7076,2373.946],[-71.0759,-36.7072,2408.645],[-71.0776,-36.7051,2342.9624],[-71.0783,-36.6987,2293.3679],[-71.0804,-36.6958,2202.9937],[-71.0788,-36.6898,2298.8843],[-71.0849,-36.6816,2222.8838],[-71.086,-36.6778,2304.2983],[-71.0925,-36.6787,2128.1628],[-71.1061,-36.6767,2411.8491],[-71.1133,-36.6799,2553.6182],[-71.1155,-36.6869,2513.4802],[-71.1148,-36.6918,2576.1797],[-71.1197,-36.6995,2583.5449],[-71.116,-36.7055,2511.5596],[-71.1165,-36.7092,2511.3701],[-71.1123,-36.7138,2464.7864],[-71.114,-36.7181,2445.0391],[-71.1116,-36.7277,2376.8633],[-71.1208,-36.741,2322.1084],[-71.1182,-36.7483,2245.1987],[-71.1193,-36.7551,2299.4609],[-71.122,-36.7582,2319.0583],[-71.1253,-36.7593,2351.4355],[-71.1284,-36.7639,2261.2073],[-71.1275,-36.7665,2261.2744],[-71.1299,-36.7786,2145.6831],[-71.1282,-36.7916,2048.1045],[-71.1334,-36.8087,2112.5112],[-71.1322,-36.8142,2068.3152],[-71.1421,-36.8185,2023.3279],[-71.1445,-36.8243,1952.8275],[-71.1515,-36.826,1856.7488],[-71.1574,-36.8255,1828.4462],[-71.1616,-36.8201,2055.0422],[-71.1647,-36.8201,2170.4568],[-71.1672,-36.8229,2184.0186],[-71.1694,-36.8307,2262.2451],[-71.1798,-36.8415,2375.5779],[-71.1797,-36.8439,2360.7358],[-71.1719,-36.8518,2302.9275],[-71.1678,-36.8588,2294.8047],[-71.163,-36.8614,2439.3376],[-71.152,-36.859,2311.3213],[-71.1467,-36.8549,2358.8125],[-71.1389,-36.8535,2283.272],[-71.1268,-36.8584,2144.1785],[-71.1221,-36.8636,2521.0144],[-71.1228,-36.8667,2492.0669],[-71.1205,-36.869,2583.4307],[-71.13,-36.8738,2137.3584],[-71.1357,-36.8894,2028.0782],[-71.1395,-36.8921,1962.4268],[-71.1401,-36.8962,1906.1842],[-71.1501,-36.9016,2007.1931],[-71.1488,-36.9152,2174.8672],[-71.1442,-36.9201,2076.3394],[-71.1449,-36.929,2044.4272],[-71.1346,-36.9306,1837.6255],[-71.1278,-36.9285,2104.8608],[-71.1213,-36.932,1961.7357],[-71.1167,-36.9299,1984.2521],[-71.113,-36.925,2190.186],[-71.105,-36.9292,2187.4976],[-71.0953,-36.9251,2329.5935],[-71.0881,-36.9288,2202.8599],[-71.088,-36.9394,2236.7715],[-71.097,-36.9507,2384.01],[-71.1001,-36.9571,2354.9883],[-71.1,-36.9647,2286.6597],[-71.1031,-36.969,2192.1938],[-71.107,-36.9711,2099.5088],[-71.1168,-36.9682,1889.3416],[-71.122,-36.9697,1830.5116],[-71.128,-36.9724,1792.7114],[-71.1289,-36.9775,1937.281],[-71.1472,-36.9814,2100.9258],[-71.1655,-36.978,2197.5466],[-71.1707,-36.9751,2310.9026],[-71.1744,-36.9679,2436.7673],[-71.1868,-36.9683,2415.3271],[-71.2041,-36.9749,2543.2212],[-71.2181,-36.9731,2928.2529],[-71.2207,-36.9744,2938.75],[-71.2224,-36.9779,3024.7468],[-71.221,-36.9787,2992.4412],[-71.2215,-36.9821,2842.3721],[-71.217,-36.9827,2689.3491],[-71.2141,-36.9861,2802.866],[-71.2068,-36.9855,2593.2095],[-71.1984,-36.9871,2633.9585],[-71.188,-36.9964,2859.1526],[-71.1801,-36.9951,2654.8342],[-71.1672,-36.9973,2483.9529],[-71.1667,-37.0055,2425.9346],[-71.1582,-37.0085,2394.4819],[-71.1589,-37.0112,2394.4412],[-71.1555,-37.0129,2353.6909],[-71.1553,-37.0172,2319.498],[-71.1486,-37.0214,2220.5161],[-71.1474,-37.028,2103.9556],[-71.1431,-37.0316,2228.9041],[-71.1419,-37.0398,2551.5544],[-71.1372,-37.0528,2398.4321],[-71.144,-37.0615,2500.6624],[-71.1442,-37.0628,2500.6624],[-71.1404,-37.0643,2383.04],[-71.1409,-37.0691,2291.4827],[-71.1358,-37.0719,2243.0562],[-71.1285,-37.0696,2219.7095],[-71.1211,-37.0726,2297.8953],[-71.1199,-37.0745,2312.0623],[-71.1222,-37.08,2382.792],[-71.1214,-37.0832,2465.3638],[-71.1233,-37.0897,2459.8252],[-71.1207,-37.0919,2430.7256],[-71.1115,-37.0948,2294.7349],[-71.1054,-37.1055,2512.3218],[-71.0996,-37.1068,2532.1082],[-71.0926,-37.1146,2668.2983],[-71.0927,-37.1208,2712.9832],[-71.0957,-37.1256,2644.782],[-71.102,-37.1278,2501.2983],[-71.1091,-37.1335,2421.5156],[-71.1239,-37.1352,2366.2881],[-71.1263,-37.1392,2351.5857],[-71.1345,-37.1423,2531.2495],[-71.1334,-37.1443,2478.4519],[-71.1354,-37.1468,2380.3625],[-71.1358,-37.1631,2257.7385],[-71.1282,-37.1766,2159.9761],[-71.1267,-37.1907,2119.7117],[-71.118,-37.1979,1997.9939],[-71.1144,-37.2041,1901.8978],[-71.1149,-37.2067,1911.9371],[-71.1215,-37.212,1944.1512],[-71.1412,-37.2201,1776.4453],[-71.1491,-37.2204,1791.2944],[-71.1644,-37.2257,1966.8053],[-71.1703,-37.2256,2036.4211],[-71.1641,-37.2294,1913.4353],[-71.1575,-37.2302,1867.9731],[-71.1555,-37.234,1859.6122],[-71.1623,-37.2469,1847.863],[-71.1703,-37.2505,1807.5256],[-71.1732,-37.2539,1842.6337],[-71.1738,-37.2599,2110.9492],[-71.1699,-37.2907,1664.0901],[-71.1701,-37.3109,1853.5892],[-71.1653,-37.32,1723.7456],[-71.1529,-37.3317,1606.4077],[-71.1424,-37.3368,1545.4978],[-71.1132,-37.3465,1529.14],[-71.0862,-37.3602,1524.8855],[-71.0746,-37.3626,1477.901],[-71.0624,-37.3622,1500.4521],[-71.0185,-37.3561,1550.1707],[-70.937,-37.3524,1447.957],[-70.9016,-37.3418,1280.1908],[-70.8896,-37.3419,1246.5232],[-70.8649,-37.3471,1160.6292],[-70.8399,-37.3467,1136.2458],[-70.7772,-37.3427,1055.0125],[-70.7291,-37.3316,989.641],[-70.6915,-37.3296,1022.7903],[-70.6723,-37.3298,1271.9597],[-70.6601,-37.3316,1285.9713],[-70.6502,-37.337,1427.4645],[-70.6375,-37.3486,1122.7408],[-70.6126,-37.3641,1051.7582],[-70.596,-37.3708,921.1577],[-70.5776,-37.3747,910.6019],[-70.5526,-37.3768,1126.1869],[-70.5275,-37.3758,1000.0255],[-70.4765,-37.3643,905.2688],[-70.4702,-36.1721,2746.5493]]]]}
,"properties": {"GID_2": "ARG.15.11_1","GID_0": "ARG","country": "Argentina","GID_1": "ARG.15_1","state": "Neuquén","NL_NAME_1": "NA","county": "Minas","VARNAME_2": "Andacollo","NL_NAME_2": "NA","TYPE_2": "Departamento","ENGTYPE_2": "Department","CC_2": "NA","HASC_2": "AR.NQ.MI","name": "Minas.county","area_km2": 6272.775,"hist_schema_id": "Elevation0-9000","hist_area_km2": {"875": 0.657,"900": 3.218,"925": 2.325,"950": 3.658,"975": 7.101,"1000": 10.377,"1025": 14.192,"1050": 17.655,"1075": 23.196,"1100": 28.232,"1125": 33.775,"1150": 42.805,"1175": 51.053,"1200": 50.915,"1225": 57.481,"1250": 70.243,"1275": 80.855,"1300": 81.288,"1325": 82.367,"1350": 80.176,"1375": 81.002,"1400": 86.197,"1425": 99.309,"1450": 109.686,"1475": 134.637,"1500": 123.143,"1525": 137.542,"1550": 146.021,"1575": 130.125,"1600": 114.759,"1625": 111.31,"1650": 113.188,"1675": 114.686,"1700": 114.203,"1725": 112.489,"1750": 106.312,"1775": 105.261,"1800": 103.251,"1825": 104.273,"1850": 104.518,"1875": 108.056,"1900": 108.833,"1925": 109.711,"1950": 115.715,"1975": 113.94,"2000": 109.525,"2025": 136.451,"2050": 118.166,"2075": 113.796,"2100": 110.835,"2125": 109.652,"2150": 106.984,"2175": 107.616,"2200": 102.07,"2225": 101.571,"2250": 95.373,"2275": 93.186,"2300": 86.615,"2325": 83.023,"2350": 80.379,"2375": 76.673,"2400": 74.906,"2425": 72.998,"2450": 71.068,"2475": 84.814,"2500": 66.479,"2525": 60.911,"2550": 59.668,"2575": 55.504,"2600": 54.241,"2625": 51.772,"2650": 49.339,"2675": 44.316,"2700": 40.563,"2725": 38.146,"2750": 35.901,"2775": 31.252,"2800": 29.415,"2825": 25.565,"2850": 22.522,"2875": 17.792,"2900": 13.776,"2925": 11.924,"2950": 10.542,"2975": 8.872,"3000": 6.84,"3025": 5.782,"3050": 5.116,"3075": 4.52,"3100": 4.245,"3125": 3.172,"3150": 2.626,"3175": 2.882,"3200": 2.882,"3225": 2.609,"3250": 1.858,"3275": 2.148,"3300": 1.944,"3325": 1.482,"3350": 1.654,"3375": 1.363,"3400": 1.176,"3425": 1.057,"3450": 1.023,"3475": 0.784,"3500": 0.972,"3525": 0.579,"3550": 0.409,"3575": 0.272,"3600": 0.306,"3625": 0.323,"3650": 0.085,"3675": 0.153,"3700": 0.187,"3725": 0.085,"3750": 0.068,"3825": 0.102,"3850": 0.068}}}