{"type":"Feature","properties":{"GID_2":"ARG.1.15_1","GID_0":"ARG","country":"Argentina","GID_1":"ARG.1_1","state":"BuenosAires","NL_NAME_1":"NA","county":"Berisso","VARNAME_2":"NA","NL_NAME_2":"NA","TYPE_2":"Partido","ENGTYPE_2":"Part","CC_2":"NA","HASC_2":"AR.BA.BS","name":"Berisso.county"},
"geometry":{"type": "MultiPolygon","coordinates": [[[[-57.7626,-34.9696,4.9327],[-57.7567,-34.9745,4.9714],[-57.7066,-34.931,1.7432],[-57.7176,-34.9285,3.2339],[-57.7429,-34.9185,3.9397],[-57.7776,-34.8985,5.295],[-57.8121,-34.8712,0.0],[-57.8624,-34.8413,6.0581],[-57.8712,-34.8324,3.5126],[-57.8737,-34.826,0.0],[-57.8854,-34.8482,0.0],[-57.8851,-34.8521,0.5064],[-57.8796,-34.8526,2.8689],[-57.8757,-34.8551,1.0549],[-57.8882,-34.8526,1.376],[-57.894,-34.8626,0.7595],[-57.894,-34.8662,3.378],[-57.8999,-34.8737,4.8222],[-57.8893,-34.8518,1.376],[-57.8907,-34.8499,3.801],[-57.8934,-34.8499,1.7765],[-57.9048,-34.8724,4.0311],[-57.936,-34.9004,9.0585],[-57.8997,-34.9288,7.0137],[-57.8873,-34.934,7.7055],[-57.8639,-34.9394,7.9027],[-57.8539,-34.9439,5.8049],[-57.8407,-34.953,8.6121],[-57.8012,-34.9636,6.037],[-57.7778,-34.9581,5.3974],[-57.7626,-34.9696,4.9327]]],
[[[-57.8923,-34.8474,2.7832],[-57.8899,-34.8454,4.8803],[-57.8893,-34.8485,0.4619],[-57.8871,-34.8474,0.0],[-57.8793,-34.8299,1.7869],[-57.8835,-34.8285,1.3047],[-57.8923,-34.8474,2.7832]]]]}}