{"type":"Feature","properties":{"GID_2":"ARG.18.14_1","GID_0":"ARG","country":"Argentina","GID_1":"ARG.18_1","state":"SanJuan","NL_NAME_1":"NA","county":"Sarmiento","VARNAME_2":"MediaAgua","NL_NAME_2":"NA","TYPE_2":"Departamento","ENGTYPE_2":"Department","CC_2":"NA","HASC_2":"AR.SJ.SA","name":"Sarmiento.county"},
"geometry":{"type": "MultiPolygon","coordinates": [[[[-68.5104,-32.1945,546.7792],[-68.4881,-32.1781,543.9506],[-68.4794,-32.1646,543.6322],[-68.4742,-32.15,542.369],[-68.4681,-32.104,545.2192],[-68.4625,-32.1036,544.3304],[-68.4217,-32.1123,538.9563],[-68.3978,-32.1122,539.1022],[-68.3862,-32.1095,540.5436],[-68.3841,-32.1139,539.708],[-68.3863,-32.124,540.5673],[-68.3846,-32.1283,539.366],[-68.3793,-32.1308,538.0286],[-68.3674,-32.1319,539.3505],[-68.3375,-32.1293,539.8934],[-68.3316,-32.1296,539.81],[-68.3207,-32.1331,538.0568],[-68.3085,-32.1283,539.3767],[-68.3281,-32.1154,538.4343],[-68.3296,-32.1112,539.5422],[-68.3291,-32.1027,539.0176],[-68.3271,-32.0965,538.8049],[-68.3183,-32.0898,539.2422],[-68.3099,-32.0781,540.0677],[-68.305,-32.0661,541.6644],[-68.2952,-32.0564,542.4459],[-68.2797,-32.0356,543.7024],[-68.2793,-32.0072,546.3177],[-68.2844,-31.9801,547.5403],[-68.2895,-31.9711,547.582],[-68.3007,-31.9626,547.6702],[-68.3084,-31.9426,550.538],[-68.3319,-31.912,553.3901],[-68.3356,-31.9024,553.0041],[-68.3438,-31.8896,555.0523],[-68.3453,-31.8722,556.4064],[-68.3584,-31.8661,555.4717],[-68.3617,-31.8625,554.4218],[-68.3773,-31.8529,557.4357],[-68.3858,-31.8521,557.9225],[-68.3906,-31.8459,556.9701],[-68.3932,-31.835,559.7009],[-68.432,-31.8238,560.6638],[-68.4308,-31.8733,557.0261],[-68.4337,-31.8765,555.8973],[-68.4442,-31.8661,558.037],[-68.553,-31.8646,623.5147],[-68.6808,-31.8914,1407.6825],[-69.1115,-31.896,4279.5645],[-69.1174,-31.9181,4299.6104],[-69.1154,-31.9438,4248.9243],[-69.1192,-31.9556,4105.4019],[-69.1191,-31.9677,4187.6152],[-69.1255,-31.9778,4066.7095],[-69.1271,-31.9868,3986.8718],[-69.1253,-31.9918,3914.7778],[-69.1162,-32.0044,3759.7295],[-69.117,-32.0188,3797.9409],[-69.1081,-32.0253,3757.7383],[-69.0973,-32.0297,3518.8301],[-69.0937,-32.0336,3577.4937],[-69.0907,-32.0486,3183.9736],[-69.0875,-32.0529,3445.4824],[-69.0705,-32.0668,3067.0825],[-69.0684,-32.0716,2956.8572],[-69.0644,-32.0753,2975.3262],[-69.0593,-32.0776,2867.6252],[-69.0514,-32.0851,2901.0615],[-69.0331,-32.0979,2565.7561],[-69.0308,-32.1025,2436.5107],[-69.011,-32.1139,2345.2241],[-68.9931,-32.1138,2047.5103],[-68.9754,-32.1111,1811.1848],[-68.9699,-32.1091,1740.2666],[-68.9575,-32.098,1634.5714],[-68.9518,-32.0969,1615.282],[-68.9311,-32.0975,1535.8695],[-68.9315,-32.3235,1884.579],[-68.8283,-32.3286,862.4539],[-68.6632,-32.331,601.8079],[-68.5775,-32.2572,573.6918],[-68.5104,-32.1945,546.7792]]]]}}