{"type":"Feature","properties":{"GID_2":"ARG.18.1_1","GID_0":"ARG","country":"Argentina","GID_1":"ARG.18_1","state":"SanJuan","NL_NAME_1":"NA","county":"Albardón","VARNAME_2":"NA","NL_NAME_2":"NA","TYPE_2":"Departamento","ENGTYPE_2":"Department","CC_2":"NA","HASC_2":"AR.SJ.AL","name":"Albardón.county"},
"geometry":{"type": "MultiPolygon","coordinates": [[[[-68.3353,-30.9221,762.4164],[-68.4339,-30.9223,831.8063],[-68.4362,-30.9441,894.7372],[-68.4414,-30.9523,836.8078],[-68.4893,-30.981,854.3999],[-68.4971,-30.9876,847.6248],[-68.506,-31.0147,840.0657],[-68.4876,-31.0147,847.7415],[-68.4851,-31.0275,853.9302],[-68.49,-31.0407,879.5336],[-68.496,-31.0687,877.9393],[-68.5172,-31.1147,1272.7081],[-68.5278,-31.1531,1443.9343],[-68.5319,-31.1803,1493.8782],[-68.5327,-31.2399,1366.0646],[-68.5395,-31.2757,1622.3694],[-68.5485,-31.2953,1551.5752],[-68.5567,-31.3238,1424.3027],[-68.5679,-31.3393,1535.6638],[-68.5781,-31.3605,1039.0844],[-68.5882,-31.3766,899.8154],[-68.5993,-31.4121,789.2358],[-68.6045,-31.442,808.1783],[-68.6132,-31.4597,951.9291],[-68.6282,-31.4841,906.9465],[-68.632,-31.5024,703.5686],[-68.6214,-31.501,697.0092],[-68.6108,-31.4933,695.0674],[-68.5968,-31.4888,681.2429],[-68.5874,-31.4813,670.7698],[-68.5667,-31.4737,655.4637],[-68.5502,-31.4631,640.5729],[-68.5307,-31.4576,628.192],[-68.5126,-31.4492,620.4285],[-68.498,-31.4485,617.126],[-68.4779,-31.4522,611.4253],[-68.4644,-31.4472,608.4927],[-68.4562,-31.4339,605.0165],[-68.4398,-31.3933,600.611],[-68.4009,-31.3426,590.9398],[-68.361,-31.3056,582.9169],[-68.3354,-31.2847,583.4398],[-68.3353,-30.9221,762.4164]]]]}}