{"type":"Feature","properties":{"GID_2":"ARG.8.10_1","GID_0":"ARG","country":"Argentina","GID_1":"ARG.8_1","state":"EntreRíos","NL_NAME_1":"NA","county":"IslasdelIbicuy","VARNAME_2":"VillaParanacito","NL_NAME_2":"NA","TYPE_2":"Departamento","ENGTYPE_2":"Department","CC_2":"NA","HASC_2":"AR.ER.II","name":"IslasdelIbicuy.county"},
"geometry":{"type": "MultiPolygon","coordinates": [[[[-58.4012,-33.9771,0.0],[-58.4021,-33.9771,0.1951],[-58.4035,-33.9796,0.0],[-58.4012,-33.9785,0.0],[-58.4012,-33.9771,0.0]]],
[[[-58.3935,-33.9499,1.2917],[-58.3954,-33.9499,0.9637],[-58.3946,-33.956,0.3662],[-58.3899,-33.964,0.0],[-58.3843,-33.9818,0.0],[-58.3715,-33.9868,0.0],[-58.3629,-33.9865,0.0],[-58.361,-33.9846,0.0],[-58.3613,-33.9768,0.0],[-58.3662,-33.9676,0.0],[-58.3699,-33.9663,1.4312],[-58.3799,-33.9576,0.0],[-58.381,-33.9546,0.0],[-58.3882,-33.9507,0.0],[-58.3935,-33.9499,1.2917]]],
[[[-59.1752,-33.8071,0.0],[-59.1622,-33.8241,0.0],[-59.1525,-33.8328,0.0],[-59.1408,-33.8395,0.0],[-59.1307,-33.8426,3.3439],[-59.1132,-33.8411,3.5961],[-59.0911,-33.8313,3.3724],[-59.081,-33.8292,3.1131],[-59.0562,-33.8313,0.0],[-59.0327,-33.8382,3.2366],[-59.016,-33.8326,6.2491],[-59.0064,-33.8337,5.3301],[-59.0013,-33.8384,0.8805],[-58.9905,-33.8538,2.9007],[-58.9825,-33.8593,2.3442],[-58.9507,-33.8627,3.8875],[-58.9336,-33.8668,3.1657],[-58.9277,-33.87,3.9766],[-58.8994,-33.8924,0.0],[-58.8917,-33.909,4.2901],[-58.8844,-33.9191,0.0],[-58.8709,-33.9288,0.0],[-58.8499,-33.9399,0.0],[-58.8297,-33.9454,1.619],[-58.8126,-33.9414,2.7913],[-58.7843,-33.9389,0.0],[-58.7737,-33.9397,0.0],[-58.7638,-33.9429,0.0],[-58.748,-33.9549,0.0],[-58.7249,-33.9812,0.0],[-58.7113,-34.0069,9.3089],[-58.7025,-34.0158,3.3622],[-58.6926,-34.0239,3.8313],[-58.6839,-34.0287,10.0294],[-58.662,-34.0376,3.704],[-58.6455,-34.042,1.014],[-58.6282,-34.0438,5.2577],[-58.6109,-34.0422,2.1777],[-58.5896,-34.0326,0.0],[-58.5656,-34.03,3.3221],[-58.5527,-34.0257,0.0],[-58.5191,-34.0183,0.0],[-58.4953,-34.0067,0.0],[-58.4721,-34.007,2.3504],[-58.4603,-34.0056,4.0752],[-58.4433,-34.0078,3.4035],[-58.4438,-34.0066,3.4035],[-58.4174,-34.0043,0.0],[-58.4174,-34.0013,0.1234],[-58.4149,-33.9982,0.0],[-58.4185,-33.9915,0.0],[-58.4149,-33.9874,0.0],[-58.4162,-33.984,0.0],[-58.4135,-33.9846,0.0],[-58.4107,-33.9815,0.0],[-58.4099,-33.9718,0.231],[-58.4076,-33.9774,0.6994],[-58.4043,-33.9785,0.0],[-58.4026,-33.976,0.3134],[-58.4071,-33.9629,0.0],[-58.4068,-33.958,0.0],[-58.4156,-33.9542,6.6231],[-58.425,-33.9381,0.0],[-58.4321,-33.9217,0.0],[-58.4321,-33.9024,1.5241],[-58.4464,-33.896,1.3933],[-58.4604,-33.9072,2.5517],[-58.4658,-33.8931,2.6312],[-58.4646,-33.883,0.4076],[-58.4538,-33.8664,0.0],[-58.4515,-33.8597,0.0],[-58.4536,-33.8536,2.7276],[-58.4472,-33.8473,0.0],[-58.4484,-33.8372,0.0],[-58.4579,-33.8253,1.471],[-58.452,-33.823,1.3044],[-58.4502,-33.8206,1.797],[-58.4591,-33.8206,1.5662],[-58.4829,-33.8075,2.6404],[-58.4829,-33.798,2.6935],[-58.4924,-33.7801,2.0925],[-58.5013,-33.7783,0.5607],[-58.5132,-33.767,0.0],[-58.5079,-33.7635,1.6675],[-58.515,-33.7587,0.6626],[-58.5245,-33.7456,2.6208],[-58.5251,-33.7343,0.0],[-58.5317,-33.7236,2.5198],[-58.5442,-33.7147,1.9624],[-58.5534,-33.6969,3.5719],[-58.5541,-33.678,4.9856],[-58.5465,-33.644,6.8719],[-58.5469,-33.6351,5.0787],[-58.5406,-33.6248,1.2347],[-58.5396,-33.6191,0.0],[-58.5463,-33.5991,8.062],[-58.5457,-33.5968,10.1341],[-58.5387,-33.598,0.0],[-58.5289,-33.5777,0.0],[-58.5255,-33.5562,0.0],[-58.5271,-33.5317,0.0],[-58.5311,-33.5081,0.8995],[-58.5312,-33.4921,0.0],[-58.5247,-33.4615,0.0],[-58.5391,-33.4505,2.0119],[-58.5539,-33.4413,2.1101],[-58.5676,-33.4399,2.0082],[-58.5774,-33.4321,2.4476],[-58.5863,-33.4333,1.9966],[-58.5976,-33.4398,2.6957],[-58.6078,-33.4528,3.1646],[-58.6484,-33.4376,7.1927],[-58.7541,-33.4697,5.4835],[-58.7697,-33.463,7.3047],[-58.7641,-33.4509,5.4707],[-58.788,-33.4348,6.3566],[-58.8016,-33.4497,5.8543],[-58.8242,-33.4368,5.9421],[-58.8576,-33.4745,5.5841],[-58.9514,-33.4603,5.5724],[-59.0872,-33.397,5.6088],[-59.1096,-33.397,5.6383],[-59.1226,-33.3931,5.3079],[-59.1491,-33.3774,6.6534],[-59.1641,-33.3652,5.6719],[-59.1596,-33.3714,7.0827],[-59.1717,-33.3591,5.6444],[-59.1761,-33.3481,5.7196],[-59.2046,-33.2993,6.0621],[-59.2156,-33.278,6.4178],[-59.2246,-33.2559,6.4822],[-59.2329,-33.2421,6.6037],[-59.2565,-33.1792,8.5597],[-59.2665,-33.1576,5.0621],[-59.2736,-33.1526,5.4027],[-59.2965,-33.1459,6.266],[-59.3052,-33.154,8.1495],[-59.3154,-33.1668,5.8319],[-59.3119,-33.182,2.7265],[-59.3213,-33.1909,4.5799],[-59.3253,-33.1924,4.2245],[-59.3436,-33.1914,6.1918],[-59.3458,-33.195,5.9395],[-59.3438,-33.2063,2.8495],[-59.3552,-33.2126,6.589],[-59.3611,-33.2051,7.6578],[-59.3642,-33.2043,8.1821],[-59.3839,-33.2208,5.0857],[-59.4023,-33.2214,4.4751],[-59.4336,-33.2153,3.9476],[-59.4507,-33.2208,4.389],[-59.4692,-33.2213,0.912],[-59.4777,-33.2243,0.9435],[-59.4961,-33.223,3.7695],[-59.5143,-33.2201,6.1634],[-59.5254,-33.2139,4.4366],[-59.5303,-33.2142,5.286],[-59.5338,-33.2124,4.3848],[-59.5398,-33.2016,4.2834],[-59.5475,-33.1972,0.5],[-59.5652,-33.201,3.6448],[-59.5773,-33.2066,3.7016],[-59.6145,-33.246,3.3508],[-59.6259,-33.2673,2.5893],[-59.6283,-33.2706,3.2961],[-59.6354,-33.2752,3.3691],[-59.6403,-33.286,3.3706],[-59.6528,-33.3026,0.5],[-59.6517,-33.3061,0.5],[-59.6454,-33.3121,1.2541],[-59.6225,-33.315,2.8558],[-59.6199,-33.318,2.4982],[-59.6193,-33.3219,0.5],[-59.631,-33.3338,2.8148],[-59.6387,-33.3381,2.9635],[-59.6395,-33.3459,3.043],[-59.6242,-33.3603,2.7611],[-59.6076,-33.3664,0.0],[-59.5809,-33.3721,0.0],[-59.5594,-33.3793,1.3541],[-59.555,-33.386,2.5997],[-59.5536,-33.4054,2.6909],[-59.5508,-33.4128,2.6627],[-59.5461,-33.4193,2.661],[-59.5354,-33.427,0.0],[-59.5049,-33.4356,1.5461],[-59.4794,-33.4447,0.0],[-59.4482,-33.4516,2.8365],[-59.4388,-33.4649,2.5552],[-59.41,-33.4952,0.0],[-59.3934,-33.5087,0.5502],[-59.387,-33.519,2.5368],[-59.3735,-33.5347,2.8281],[-59.3576,-33.5427,2.2123],[-59.3346,-33.5488,2.4206],[-59.3274,-33.5534,2.4375],[-59.3269,-33.5651,2.4999],[-59.3182,-33.5788,2.3779],[-59.3114,-33.5932,2.3489],[-59.2999,-33.6054,2.1338],[-59.2827,-33.6184,0.0],[-59.2778,-33.6249,2.9415],[-59.2685,-33.6469,2.7306],[-59.265,-33.6621,2.6623],[-59.2479,-33.6938,3.1809],[-59.2264,-33.7191,0.0],[-59.192,-33.7392,0.0],[-59.1894,-33.7422,2.0019],[-59.1869,-33.7537,3.6516],[-59.1879,-33.7615,3.5716],[-59.1857,-33.7807,0.0],[-59.1857,-33.7994,3.3538],[-59.1752,-33.8071,0.0]]]]}}