{"type": "Feature","bbox": [-65.7054,-24.4714,-65.1238,-24.2366],"geometry": {"type": "MultiPolygon","coordinates": [[[[-65.7054,-24.2366,5161.623],[-65.6885,-24.2427,4848.3584],[-65.6852,-24.2473,4805.8643],[-65.6831,-24.2581,4814.5498],[-65.6702,-24.2651,5128.7773],[-65.6664,-24.2694,5208.3442],[-65.6658,-24.2776,5111.9731],[-65.6678,-24.2911,5129.5996],[-65.6623,-24.3068,5112.4111],[-65.6284,-24.3294,4832.0581],[-65.6227,-24.3358,4731.6655],[-65.6206,-24.3409,4492.8481],[-65.6205,-24.3492,4531.2847],[-65.6291,-24.3697,4691.4785],[-65.6262,-24.3773,4535.874],[-65.6098,-24.3839,4507.8726],[-65.5893,-24.4037,4367.7788],[-65.5768,-24.4114,3612.791],[-65.5731,-24.4188,3857.4539],[-65.5726,-24.4271,3787.5376],[-65.5704,-24.4287,3725.353],[-65.5644,-24.4296,3525.5288],[-65.5523,-24.4283,3307.4968],[-65.5411,-24.4301,3227.7705],[-65.5338,-24.435,3514.7886],[-65.5244,-24.4489,3526.6006],[-65.5099,-24.4586,3526.062],[-65.5069,-24.4581,3576.0576],[-65.5032,-24.4539,3578.6013],[-65.5005,-24.4489,3246.7805],[-65.4994,-24.4409,3290.7874],[-65.4962,-24.4361,3282.7092],[-65.4803,-24.4289,3307.2163],[-65.4719,-24.4318,3029.8604],[-65.454,-24.4318,2661.1887],[-65.4516,-24.4334,2616.0278],[-65.4498,-24.4357,2554.4961],[-65.4485,-24.4521,2520.4722],[-65.4471,-24.4545,2461.636],[-65.4267,-24.4704,2332.1182],[-65.4088,-24.4714,1993.62],[-65.4011,-24.4674,1795.4436],[-65.3922,-24.4658,1687.7377],[-65.3774,-24.4681,1554.6521],[-65.3596,-24.4649,1712.7064],[-65.3535,-24.4663,1795.3064],[-65.3534,-24.4456,1764.8435],[-65.3467,-24.4265,1639.1842],[-65.353,-24.4161,1727.8082],[-65.3541,-24.4096,1636.5928],[-65.3492,-24.396,1457.5756],[-65.3418,-24.3901,1427.2195],[-65.3181,-24.3874,1553.5957],[-65.3133,-24.3827,1401.6063],[-65.3114,-24.3763,1278.4167],[-65.2861,-24.3706,1228.158],[-65.2732,-24.3641,1205.3826],[-65.261,-24.3644,1186.2444],[-65.2493,-24.3705,1158.2052],[-65.2426,-24.3702,1144.9976],[-65.2437,-24.3602,1147.9526],[-65.2403,-24.3477,1150.0264],[-65.2168,-24.3281,1124.2439],[-65.1561,-24.3336,1018.3317],[-65.1238,-24.3347,976.4147],[-65.1381,-24.3189,999.9122],[-65.1518,-24.3084,1006.5737],[-65.1658,-24.2933,1045.3577],[-65.1804,-24.2832,1072.2346],[-65.205,-24.2817,1107.2329],[-65.2267,-24.2721,1148.0265],[-65.2372,-24.2701,1171.2756],[-65.2515,-24.2705,1191.1608],[-65.2674,-24.263,1241.1074],[-65.2923,-24.2646,1300.5446],[-65.3004,-24.258,1403.1982],[-65.3177,-24.2536,1447.7419],[-65.3354,-24.251,1579.4697],[-65.3426,-24.2514,1500.1217],[-65.3995,-24.2589,1578.475],[-65.4264,-24.268,1748.4541],[-65.4798,-24.2735,2395.752],[-65.5288,-24.2941,3548.9736],[-65.5358,-24.2951,3568.9231],[-65.5608,-24.2934,4654.6294],[-65.5783,-24.2895,4873.6997],[-65.5996,-24.2872,4566.3848],[-65.6224,-24.2775,4627.3037],[-65.6751,-24.243,4904.1016],[-65.7054,-24.2366,5161.623]]]]}
,"properties": {"GID_2": "ARG.10.8_1","GID_0": "ARG","country": "Argentina","GID_1": "ARG.10_1","state": "Jujuy","NL_NAME_1": "NA","county": "SanAntonio","VARNAME_2": "NA","NL_NAME_2": "NA","TYPE_2": "Departamento","ENGTYPE_2": "Department","CC_2": "NA","HASC_2": "AR.JY.SA","name": "SanAntonio.county","area_km2": 731.7657,"hist_schema_id": "Elevation0-9000","hist_area_km2": {"975": 0.1739,"1000": 3.2457,"1025": 5.8542,"1050": 6.8593,"1075": 7.8257,"1100": 7.9225,"1125": 7.5747,"1150": 12.5974,"1175": 14.2008,"1200": 12.5586,"1225": 13.1576,"1250": 13.0032,"1275": 10.2592,"1300": 6.7428,"1325": 7.2447,"1350": 10.0264,"1375": 12.1326,"1400": 15.0695,"1425": 17.7934,"1450": 21.3684,"1475": 18.2378,"1500": 15.4165,"1525": 14.8939,"1550": 13.6191,"1575": 11.8609,"1600": 10.894,"1625": 8.5951,"1650": 7.8992,"1675": 6.7596,"1700": 6.6821,"1725": 6.3344,"1750": 5.5813,"1775": 5.4849,"1800": 5.6202,"1825": 5.7168,"1850": 5.6204,"1875": 5.6011,"1900": 4.9639,"1925": 5.157,"1950": 5.4274,"1975": 4.7513,"2000": 4.3458,"2025": 4.9059,"2050": 4.5195,"2075": 4.3456,"2100": 4.8284,"2125": 4.4999,"2150": 4.6542,"2175": 4.1522,"2200": 4.4226,"2225": 4.3646,"2250": 4.5964,"2275": 4.577,"2300": 4.442,"2325": 3.7275,"2350": 4.133,"2375": 3.9787,"2400": 4.3265,"2425": 4.0558,"2450": 4.1912,"2475": 4.3069,"2500": 4.2103,"2525": 4.0367,"2550": 4.365,"2575": 4.1718,"2600": 4.3071,"2625": 3.5923,"2650": 3.882,"2675": 3.9399,"2700": 3.9207,"2725": 3.7661,"2750": 3.7277,"2775": 3.9208,"2800": 4.2103,"2825": 3.9014,"2850": 4.5773,"2875": 4.1522,"2900": 4.1525,"2925": 3.8627,"2950": 4.2296,"2975": 4.0171,"3000": 3.9399,"3025": 3.9013,"3050": 3.6309,"3075": 3.65,"3100": 3.5344,"3125": 3.6696,"3150": 3.5149,"3175": 3.148,"3200": 3.1481,"3225": 2.6845,"3250": 2.839,"3275": 2.9936,"3300": 2.7037,"3325": 2.3947,"3350": 2.6263,"3375": 2.2402,"3400": 2.5298,"3425": 2.3752,"3450": 1.9505,"3475": 2.2014,"3500": 2.1049,"3525": 2.2207,"3550": 1.9697,"3575": 1.8346,"3600": 1.4677,"3625": 1.7189,"3650": 1.5837,"3675": 1.41,"3700": 1.5259,"3725": 1.1781,"3750": 1.2168,"3775": 1.6417,"3800": 1.2555,"3825": 1.5645,"3850": 1.4293,"3875": 1.7963,"3900": 1.6032,"3925": 1.6998,"3950": 1.5066,"3975": 1.3328,"4000": 1.6418,"4025": 1.6225,"4050": 1.6226,"4075": 1.5259,"4100": 1.5838,"4125": 1.4487,"4150": 1.6225,"4175": 1.1783,"4200": 1.4488,"4225": 1.5259,"4250": 1.1976,"4275": 1.468,"4300": 1.6418,"4325": 1.3907,"4350": 1.3715,"4375": 1.0625,"4400": 1.2555,"4425": 1.2749,"4450": 1.6033,"4475": 1.3908,"4500": 2.0478,"4525": 2.1639,"4550": 2.473,"4575": 1.932,"4600": 2.2605,"4625": 1.9706,"4650": 1.8549,"4675": 2.0869,"4700": 2.57,"4725": 3.1111,"4750": 3.0532,"4775": 3.0726,"4800": 3.2852,"4825": 2.8022,"4850": 3.5559,"4875": 3.3047,"4900": 4.1935,"4925": 3.691,"4950": 2.7248,"4975": 2.203,"5000": 1.7586,"5025": 1.7779,"5050": 1.3141,"5075": 0.8503,"5100": 0.9276,"5125": 0.5991,"5150": 0.1353,"5175": 0.2513,"5200": 0.116,"5225": 0.0193}}}