{"type": "Feature","bbox": [-65.9656,-22.5846,-65.0945,-22.0747],"geometry": {"type": "MultiPolygon","coordinates": [[[[-65.3384,-22.5834,4392.1592],[-65.3335,-22.5585,4004.7979],[-65.3325,-22.5369,4471.959],[-65.3406,-22.5109,4807.7646],[-65.3388,-22.4948,4509.8594],[-65.3338,-22.485,4418.9888],[-65.316,-22.4636,4515.8965],[-65.308,-22.4376,4374.7432],[-65.3057,-22.4215,4432.79],[-65.2928,-22.413,4523.8687],[-65.2893,-22.3927,4436.4854],[-65.2926,-22.3888,4345.9956],[-65.2927,-22.3834,4298.4229],[-65.2887,-22.3734,4438.4482],[-65.2812,-22.3652,4550.5117],[-65.2714,-22.3592,4695.3203],[-65.2684,-22.3555,4792.436],[-65.2691,-22.3498,4643.0542],[-65.2475,-22.3321,4770.4209],[-65.239,-22.3179,4626.2915],[-65.2377,-22.3126,4545.5811],[-65.243,-22.2916,4753.5225],[-65.2436,-22.2809,4671.6816],[-65.2268,-22.191,4695.8779],[-65.2252,-22.171,4678.1348],[-65.2176,-22.1562,4710.2378],[-65.2139,-22.1523,4734.5581],[-65.203,-22.1482,4684.6665],[-65.1982,-22.1451,4856.9102],[-65.1955,-22.1404,4958.4795],[-65.1952,-22.1242,4568.0488],[-65.1976,-22.1082,4535.9932],[-65.1958,-22.103,4486.2451],[-65.1853,-22.0854,4383.5742],[-65.0945,-22.084,4101.3472],[-65.4735,-22.0887,3301.0796],[-65.4766,-22.0927,3377.5139],[-65.4848,-22.0955,3513.0547],[-65.5749,-22.0755,3380.2271],[-65.5791,-22.0784,3396.2998],[-65.5792,-22.0807,3428.6997],[-65.5809,-22.0806,3388.0408],[-65.5816,-22.0848,3394.4619],[-65.5834,-22.0847,3444.5518],[-65.5816,-22.0884,3407.2805],[-65.5841,-22.0885,3428.1509],[-65.583,-22.0896,3412.4385],[-65.5849,-22.0909,3409.2656],[-65.5828,-22.0909,3412.4385],[-65.5821,-22.0934,3417.3789],[-65.5853,-22.0949,3420.1692],[-65.5848,-22.0968,3435.7795],[-65.5861,-22.0977,3427.894],[-65.5912,-22.0989,3424.0322],[-65.5928,-22.0959,3426.7615],[-65.6029,-22.0977,3433.3774],[-65.6064,-22.0946,3438.1021],[-65.6125,-22.0954,3441.3469],[-65.6144,-22.0981,3445.7671],[-65.6195,-22.0966,3444.1899],[-65.6274,-22.1035,3454.0273],[-65.633,-22.1034,3458.8999],[-65.6391,-22.1069,3463.7944],[-65.6513,-22.1053,3478.02],[-65.6555,-22.1108,3473.3157],[-65.6762,-22.1117,3485.688],[-65.6856,-22.1095,3493.0444],[-65.6936,-22.1028,3510.2888],[-65.7047,-22.0987,3506.4336],[-65.7086,-22.0995,3508.6392],[-65.7151,-22.0972,3520.1436],[-65.7252,-22.1069,3525.9326],[-65.7348,-22.1091,3533.2097],[-65.748,-22.1092,3551.5906],[-65.7534,-22.1061,3586.1995],[-65.7565,-22.1016,3577.5276],[-65.7623,-22.101,3601.1194],[-65.7757,-22.0937,3624.4985],[-65.7785,-22.0887,3645.6323],[-65.7806,-22.0868,3655.0703],[-65.7833,-22.0869,3653.1758],[-65.7856,-22.0819,3655.1511],[-65.7884,-22.0817,3657.9133],[-65.7942,-22.0747,3679.1445],[-65.8043,-22.0753,3745.5693],[-65.8176,-22.1211,3843.0911],[-65.8283,-22.1485,3759.25],[-65.8419,-22.1676,3739.2249],[-65.8515,-22.1718,3722.4666],[-65.9079,-22.1744,3672.3684],[-65.9273,-22.1823,3671.1704],[-65.9402,-22.1934,3671.2788],[-65.9455,-22.2057,3669.5376],[-65.9491,-22.2251,3667.7668],[-65.9485,-22.2383,3666.3843],[-65.9455,-22.2511,3665.7837],[-65.9456,-22.2709,3666.8579],[-65.9499,-22.2798,3664.4927],[-65.9656,-22.2925,3664.0657],[-65.9571,-22.3995,3673.7861],[-65.8599,-22.419,4060.6531],[-65.826,-22.4285,4302.7441],[-65.7895,-22.4487,3678.7771],[-65.7507,-22.4775,3533.5103],[-65.6093,-22.4915,3582.2424],[-65.5894,-22.4961,3678.4358],[-65.583,-22.499,3742.2568],[-65.5721,-22.5073,4000.9932],[-65.5555,-22.5131,3741.3774],[-65.5343,-22.5306,3673.1079],[-65.5112,-22.5389,3652.9978],[-65.4625,-22.5658,3779.6448],[-65.4521,-22.5678,3796.2339],[-65.4274,-22.5684,3846.9177],[-65.3691,-22.5829,4299.5864],[-65.3515,-22.5846,4462.3838],[-65.3384,-22.5834,4392.1592]]]]}
,"properties": {"GID_2": "ARG.10.16_1","GID_0": "ARG","country": "Argentina","GID_1": "ARG.10_1","state": "Jujuy","NL_NAME_1": "NA","county": "Yavi","VARNAME_2": "LaQuiaca","NL_NAME_2": "NA","TYPE_2": "Departamento","ENGTYPE_2": "Department","CC_2": "NA","HASC_2": "AR.JY.YA","name": "Yavi.county","area_km2": 3098.825,"hist_schema_id": "Elevation0-9000","hist_area_km2": {"3300": 0.275,"3325": 0.53,"3350": 0.864,"3375": 1.414,"3400": 2.082,"3425": 6.836,"3450": 23.669,"3475": 41.971,"3500": 111.78,"3525": 223.933,"3550": 184.183,"3575": 194.0,"3600": 202.078,"3625": 210.213,"3650": 204.143,"3675": 248.408,"3700": 200.856,"3725": 162.229,"3750": 132.214,"3775": 118.008,"3800": 105.828,"3825": 98.177,"3850": 80.111,"3875": 64.648,"3900": 54.272,"3925": 45.62,"3950": 38.46,"3975": 30.438,"4000": 25.476,"4025": 21.946,"4050": 20.415,"4075": 18.591,"4100": 16.552,"4125": 15.434,"4150": 15.571,"4175": 14.551,"4200": 13.217,"4225": 13.336,"4250": 12.57,"4275": 12.728,"4300": 11.414,"4325": 11.513,"4350": 10.041,"4375": 10.748,"4400": 8.609,"4425": 8.668,"4450": 6.903,"4475": 6.569,"4500": 6.177,"4525": 5.549,"4550": 4.844,"4575": 4.098,"4600": 3.314,"4625": 2.745,"4650": 2.432,"4675": 1.392,"4700": 1.589,"4725": 1.098,"4750": 0.843,"4775": 0.765,"4800": 0.569,"4825": 0.314,"4850": 0.392,"4875": 0.333,"4900": 0.118,"4925": 0.137}}}