{"type": "Feature","bbox": [-61.6507,-34.4511,-60.9205,-34.0229],"geometry": {"type": "MultiPolygon","coordinates": [[[[-61.3345,-34.0229,97.1299],[-61.5017,-34.1822,81.5],[-61.5304,-34.2121,87.6637],[-61.569,-34.2487,92.7607],[-61.6188,-34.2884,88.5],[-61.6507,-34.3173,92.1355],[-61.6057,-34.3549,88.0],[-61.5532,-34.3121,95.8224],[-61.5203,-34.3408,92.8002],[-61.4796,-34.3068,91.9912],[-61.3941,-34.3781,84.2815],[-61.4136,-34.3939,83.9478],[-61.3753,-34.4248,81.5854],[-61.3682,-34.4202,79.821],[-61.3329,-34.4511,78.1812],[-61.2715,-34.4008,75.0],[-61.2585,-34.404,75.4554],[-61.2434,-34.4017,75.0],[-61.2367,-34.4027,76.86],[-61.2286,-34.4096,76.2245],[-61.2282,-34.4205,76.3555],[-61.2258,-34.4302,76.299],[-61.219,-34.429,76.1161],[-61.2136,-34.4237,75.7695],[-61.2026,-34.4199,76.2271],[-61.1998,-34.4168,76.2135],[-61.1999,-34.4063,76.6882],[-61.2031,-34.3977,77.4132],[-61.2008,-34.3878,76.7645],[-61.2046,-34.3692,77.4094],[-61.2008,-34.3639,78.087],[-61.1906,-34.3565,77.7843],[-61.1813,-34.358,76.2432],[-61.1749,-34.3627,76.1989],[-61.1422,-34.336,87.8417],[-61.139,-34.3376,87.2612],[-61.1168,-34.3212,80.2652],[-61.1274,-34.3114,85.0763],[-61.0958,-34.2861,81.6716],[-61.0703,-34.3074,79.2304],[-61.0583,-34.298,82.2429],[-61.0597,-34.2953,82.1675],[-61.0412,-34.2788,85.2131],[-61.0541,-34.2668,86.1694],[-61.0119,-34.2328,85.6236],[-60.9605,-34.2741,79.8144],[-60.9205,-34.2407,80.6494],[-61.1162,-34.0689,75.5127],[-61.1282,-34.0757,77.5223],[-61.1526,-34.0828,79.2781],[-61.1652,-34.0924,82.338],[-61.1765,-34.097,83.854],[-61.1868,-34.1057,84.0438],[-61.2078,-34.129,93.9616],[-61.3345,-34.0229,97.1299]]]]}
,"properties": {"GID_2": "ARG.1.43_1","GID_0": "ARG","country": "Argentina","GID_1": "ARG.1_1","state": "BuenosAires","NL_NAME_1": "NA","county": "GeneralArenales","VARNAME_2": "NA","NL_NAME_2": "NA","TYPE_2": "Partido","ENGTYPE_2": "Part","CC_2": "NA","HASC_2": "AR.BA.GE","name": "GeneralArenales.county","area_km2": 1492.737,"hist_schema_id": "Elevation0-9000","hist_area_km2": {"75": 600.995,"100": 891.688,"125": 0.053}}}