{"type":"Feature","properties":{"GID_2":"ARG.16.5_1","GID_0":"ARG","country":"Argentina","GID_1":"ARG.16_1","state":"RíoNegro","NL_NAME_1":"NA","county":"ElCuy","VARNAME_2":"NA","NL_NAME_2":"NA","TYPE_2":"Departamento","ENGTYPE_2":"Department","CC_2":"NA","HASC_2":"AR.RN.EC","name":"ElCuy.county"},
"geometry":{"type": "MultiPolygon","coordinates": [[[[-69.7773,-39.8829,435.3421],[-69.7761,-40.0001,758.5005],[-69.8186,-40.6588,1319.9197],[-69.409,-40.477,1308.8096],[-68.7967,-40.4278,1168.5605],[-68.5934,-40.1252,1057.7417],[-68.2228,-40.0757,813.9669],[-67.872,-39.8107,560.3998],[-67.7714,-39.727,454.0927],[-67.5407,-39.5306,419.9444],[-66.5695,-39.2634,290.8531],[-66.5636,-39.1016,173.2693],[-66.6193,-39.1032,174.4542],[-66.6317,-39.1055,174.7553],[-66.6541,-39.1068,176.6245],[-66.7035,-39.1168,178.5756],[-66.7553,-39.13,181.6133],[-66.7805,-39.1333,180.5341],[-66.8062,-39.1337,180.5],[-66.8475,-39.1381,186.8543],[-66.8662,-39.1354,188.1542],[-66.8791,-39.1361,189.3979],[-66.9062,-39.1437,190.4103],[-66.9252,-39.145,190.1343],[-66.9463,-39.1509,194.5527],[-66.9577,-39.1556,193.4507],[-66.9775,-39.1678,192.72559999999999],[-67.0136,-39.1782,197.9213],[-67.0323,-39.181399999999996,220.6057],[-67.0629,-39.1741,220.9548],[-67.1262,-39.1671,231.2363],[-67.1645,-39.1493,230.7532],[-67.1687,-39.1456,231.5229],[-67.1723,-39.1386,223.6022],[-67.1812,-39.1359,223.4886],[-67.1891,-39.1281,206.1711],[-67.2001,-39.1233,211.2483],[-67.204,-39.1191,207.8697],[-67.2068,-39.1183,208.1748],[-67.2229,-39.1182,209.4014],[-67.2355,-39.1161,207.5811],[-67.2413,-39.118,218.946],[-67.2478,-39.1177,210.9515],[-67.2565,-39.1148,206.749],[-67.2725,-39.1141,211.1398],[-67.2855,-39.1067,212.2034],[-67.2949,-39.1075,233.0056],[-67.3035,-39.1045,217.9016],[-67.3225,-39.1066,216.9433],[-67.3377,-39.1029,216.6837],[-67.3633,-39.1036,216.2959],[-67.3717,-39.1001,213.0],[-67.3741,-39.0953,231.2068],[-67.3791,-39.0927,216.582],[-67.3979,-39.0936,236.8766],[-67.4068,-39.0912,215.9831],[-67.4257,-39.09,224.6287],[-67.4408,-39.0856,222.3629],[-67.4561,-39.0884,219.9894],[-67.4721,-39.0883,226.2995],[-67.5027,-39.0845,220.5],[-67.5109,-39.0867,226.0257],[-67.5249,-39.0859,228.6734],[-67.5331,-39.0939,229.5415],[-67.5394,-39.0949,232.3647],[-67.5439,-39.0935,227.9859],[-67.5429,-39.0884,228.8595],[-67.5452,-39.0838,227.0905],[-67.559,-39.0913,228.9769],[-67.5547,-39.1004,224.0],[-67.5617,-39.1088,245.4013],[-67.5667,-39.1119,254.8123],[-67.5947,-39.1092,231.8443],[-67.6151,-39.1114,229.5047],[-67.626,-39.1085,243.5309],[-67.6413,-39.1076,236.8258],[-67.656,-39.1016,237.354],[-67.7064,-39.0866,233.513],[-67.7186,-39.0751,238.8026],[-67.7257,-39.0709,241.7578],[-67.7319,-39.0698,233.705],[-67.7461,-39.0706,238.9451],[-67.7647,-39.0639,239.3967],[-67.774,-39.0571,239.9657],[-67.783,-39.0461,243.6736],[-67.8099,-39.0343,245.1038],[-67.8198,-39.0326,246.0016],[-67.8376,-39.0346,245.1842],[-67.8474,-39.0326,242.203],[-67.8915,-39.0067,251.4117],[-67.9013,-38.9975,251.3851],[-67.907,-38.9952,251.6854],[-67.9224,-38.9956,252.2714],[-67.9481,-39.0013,254.0965],[-67.9699,-38.9908,255.7031],[-67.9927,-38.9926,256.9303],[-68.0028,-38.9912,260.374],[-68.0218,-38.9811,254.7141],[-68.058,-38.9831,255.5],[-68.0695,-38.9893,263.2107],[-68.0796,-38.9918,264.1158],[-68.0901,-38.9922,259.4386],[-68.1345,-38.9833,263.6137],[-68.145,-38.9836,270.0681],[-68.1629,-38.9752,267.0385],[-68.1764,-38.9764,269.1946],[-68.1825,-38.9734,270.1925],[-68.1841,-38.9709,266.0],[-68.1942,-38.9691,267.0659],[-68.2118,-38.969,267.5],[-68.2195,-38.9747,272.7282],[-68.2253,-38.9815,272.4576],[-68.2374,-38.987,272.2906],[-68.262,-38.9876,274.1761],[-68.2654,-38.9867,274.1631],[-68.2725,-38.9809,274.8207],[-68.2901,-38.9812,275.303],[-68.3263,-38.9918,277.8245],[-68.3347,-38.9958,277.6536],[-68.3457,-38.9971,279.9821],[-68.3589,-39.0009,283.5516],[-68.3744,-39.0121,283.2238],[-68.3872,-39.0162,284.4027],[-68.3986,-39.0223,285.6468],[-68.4079,-39.0305,283.8874],[-68.4143,-39.0327,286.0078],[-68.421,-39.0342,285.3703],[-68.438,-39.031,286.8116],[-68.4448,-39.0322,288.1744],[-68.4563,-39.0386,290.8701],[-68.4633,-39.0447,286.7998],[-68.4897,-39.0583,292.4214],[-68.5045,-39.0701,290.4635],[-68.5111,-39.0717,293.9653],[-68.5252,-39.0709,295.1314],[-68.5387,-39.0741,294.1848],[-68.5667,-39.0856,296.5477],[-68.5805,-39.094,301.3072],[-68.6017,-39.116,311.5],[-68.6392,-39.1407,311.5],[-68.648,-39.1556,311.5],[-68.6603,-39.1611,377.5298],[-68.668,-39.1667,384.5427],[-68.6699,-39.1719,361.3841],[-68.6698,-39.1774,331.5742],[-68.661,-39.1893,311.5],[-68.6591,-39.2002,311.5],[-68.6656,-39.2129,311.5],[-68.6749,-39.2212,311.5],[-68.6941,-39.2281,311.5],[-68.7056,-39.2345,346.5716],[-68.716,-39.2434,314.5913],[-68.7213,-39.2515,323.8358],[-68.7312,-39.2578,354.2982],[-68.746,-39.2619,312.4086],[-68.7542,-39.2625,343.7716],[-68.7672,-39.2698,374.5],[-68.7711,-39.2744,374.5],[-68.7942,-39.281,374.5],[-68.8048,-39.2813,374.5],[-68.8106,-39.2844,374.5],[-68.8104,-39.2899,374.5],[-68.8148,-39.2973,374.5],[-68.8129,-39.3083,374.5],[-68.8227,-39.3195,374.5],[-68.8192,-39.3301,374.5],[-68.8189,-39.3521,374.5],[-68.8283,-39.3636,374.5],[-68.8332,-39.3769,374.5],[-68.838,-39.3842,374.5],[-68.8424,-39.3885,374.5],[-68.8549,-39.3936,374.5],[-68.8787,-39.3988,374.5],[-68.8991,-39.4098,374.5],[-68.9114,-39.4263,374.5],[-68.9241,-39.4311,374.5],[-68.9269,-39.4361,374.5],[-68.9286,-39.4447,374.5],[-68.9318,-39.4495,374.5],[-68.9433,-39.4561,374.5],[-68.953,-39.4592,374.5],[-68.9613,-39.468,374.5],[-68.9733,-39.4738,374.5],[-68.9791,-39.4808,374.5],[-68.9798,-39.4917,374.5],[-68.9939,-39.504,374.5],[-69.0039,-39.5057,374.5],[-69.0103,-39.5035,374.5],[-69.0115,-39.5008,374.5],[-69.018,-39.5002,374.5],[-69.034,-39.5063,374.5],[-69.0447,-39.5131,374.5],[-69.0695,-39.5153,374.5],[-69.1069,-39.5232,374.5],[-69.123,-39.5181,374.5],[-69.1263,-39.5191,374.5],[-69.1387,-39.529,374.5],[-69.158,-39.5356,374.5],[-69.1677,-39.5472,374.5],[-69.1732,-39.5507,374.5],[-69.1802,-39.5515,377.4005],[-69.1854,-39.5549,374.5],[-69.1954,-39.5579,374.5],[-69.2235,-39.5607,389.6564],[-69.2301,-39.5628,374.5],[-69.2531,-39.58,374.5],[-69.2581,-39.5871,374.5],[-69.2766,-39.5999,374.5],[-69.2856,-39.6143,374.5],[-69.3243,-39.6578,380.1321],[-69.3352,-39.675,383.4653],[-69.346,-39.686,383.612],[-69.3542,-39.707,387.4179],[-69.3594,-39.7143,389.2556],[-69.3762,-39.7245,391.0081],[-69.3845,-39.7335,390.0985],[-69.4023,-39.7424,392.4252],[-69.4119,-39.754,391.4744],[-69.4218,-39.7619,395.6864],[-69.4443,-39.7701,395.7453],[-69.4648,-39.7746,398.7019],[-69.5072,-39.808,403.3932],[-69.5169,-39.8116,411.4409],[-69.5275,-39.813,404.2789],[-69.5444,-39.8093,409.0791],[-69.5622,-39.8109,406.2871],[-69.6175,-39.8301,419.5862],[-69.6418,-39.8337,420.0331],[-69.6667,-39.8443,423.1564],[-69.695,-39.8459,424.9618],[-69.7187,-39.8581,424.8968],[-69.7339,-39.8697,425.6214],[-69.7664,-39.881,430.7777],[-69.7773,-39.8829,435.3421]]]]}}