{"type": "Feature","bbox": [-58.9021,-30.4161,-57.6268,-29.0544],"geometry": {"type": "MultiPolygon","coordinates": [[[[-58.7385,-29.6633,45.535],[-58.7226,-29.6547,46.8597],[-58.7199,-29.6555,47.0853],[-58.7206,-29.6804,44.9669],[-58.73,-29.7437,47.4241],[-58.7259,-29.7536,62.4492],[-58.7128,-29.7672,68.832],[-58.7064,-29.7802,62.7817],[-58.7036,-29.7942,58.1914],[-58.7054,-29.8046,59.5963],[-58.7347,-29.8388,57.1583],[-58.7432,-29.8508,58.341],[-58.7493,-29.8642,55.664],[-58.7383,-29.8657,61.2641],[-58.7266,-29.8633,62.1099],[-58.6994,-29.8418,55.4744],[-58.676,-29.8473,59.373],[-58.6598,-29.8486,61.1195],[-58.6272,-29.8473,59.9711],[-58.6166,-29.8423,61.2218],[-58.6049,-29.8458,59.1993],[-58.6015,-29.8476,60.63],[-58.5982,-29.854,63.9462],[-58.5903,-29.8622,64.4102],[-58.5765,-29.8695,66.9858],[-58.5673,-29.8767,70.2725],[-58.5599,-29.8796,65.5594],[-58.5456,-29.8921,67.3783],[-58.542,-29.9237,70.1574],[-58.5386,-29.934,71.0876],[-58.5305,-29.9502,70.1498],[-58.5146,-29.9708,71.9112],[-58.4952,-29.9836,73.9124],[-58.4755,-30.0015,76.3209],[-58.4721,-30.008,77.1711],[-58.4682,-30.0504,71.9058],[-58.4636,-30.0641,70.7859],[-58.4557,-30.0805,65.7905],[-58.4514,-30.105,67.3833],[-58.4777,-30.1271,61.3548],[-58.4845,-30.131,62.0573],[-58.4924,-30.1331,60.7602],[-58.5043,-30.1334,61.0913],[-58.5123,-30.1326,61.441],[-58.5175,-30.1281,59.8666],[-58.5269,-30.1348,59.8966],[-58.5478,-30.1567,58.7446],[-58.5553,-30.1591,58.4232],[-58.5715,-30.1578,56.6249],[-58.5796,-30.1589,57.1664],[-58.5907,-30.1633,56.6993],[-58.5961,-30.1689,56.6474],[-58.5859,-30.1648,56.8856],[-58.5807,-30.1658,58.1457],[-58.5681,-30.1807,62.3878],[-58.5574,-30.1899,61.7751],[-58.5485,-30.1907,60.9071],[-58.5412,-30.1953,61.25],[-58.5294,-30.1937,59.6574],[-58.5111,-30.2009,60.0996],[-58.498,-30.2113,62.2701],[-58.49,-30.2151,61.2133],[-58.4813,-30.2155,63.3351],[-58.4752,-30.2095,62.1688],[-58.4696,-30.2072,62.3074],[-58.4611,-30.2077,62.4664],[-58.4373,-30.2281,63.954],[-58.4149,-30.2356,64.5172],[-58.3824,-30.2493,70.0555],[-58.3654,-30.2602,71.7245],[-58.3574,-30.2633,68.2075],[-58.3244,-30.2673,67.4602],[-58.3002,-30.2518,71.2282],[-58.2864,-30.2461,69.7875],[-58.2777,-30.246,73.4869],[-58.2661,-30.25,75.6295],[-58.2615,-30.2531,74.048],[-58.2577,-30.2631,70.2572],[-58.2518,-30.269,68.8647],[-58.2443,-30.2734,70.5424],[-58.2328,-30.2769,65.9144],[-58.222,-30.2859,66.1016],[-58.2083,-30.2915,61.0364],[-58.2016,-30.2964,61.2598],[-58.1975,-30.3036,59.8286],[-58.196,-30.3166,58.2721],[-58.1925,-30.3238,58.2204],[-58.1867,-30.3298,57.9815],[-58.1764,-30.3352,63.1682],[-58.1722,-30.3421,63.0456],[-58.1655,-30.3595,59.9886],[-58.1366,-30.3924,57.4679],[-58.1111,-30.4068,51.6863],[-58.0892,-30.4154,46.1331],[-58.0871,-30.4161,46.0168],[-58.0808,-30.3944,46.1858],[-58.0762,-30.3845,48.7452],[-58.0679,-30.3533,48.2406],[-58.053,-30.3241,49.8595],[-58.0515,-30.3028,51.1538],[-58.0468,-30.2856,52.1752],[-58.0449,-30.2644,52.1886],[-58.0381,-30.2556,53.1192],[-58.0372,-30.2451,53.813],[-58.0338,-30.2386,55.0528],[-58.0324,-30.2316,54.8819],[-58.035,-30.2104,55.0748],[-58.0322,-30.1892,56.9101],[-58.0342,-30.168,60.2601],[-58.0425,-30.1518,61.2012],[-58.0523,-30.1455,59.0739],[-58.0608,-30.1377,62.8364],[-58.0665,-30.1283,67.4392],[-58.0687,-30.1215,66.2846],[-58.0674,-30.1038,61.0441],[-58.0606,-30.0908,60.8983],[-58.0503,-30.0798,65.5],[-58.0442,-30.0705,65.6235],[-58.0405,-30.0604,69.5354],[-58.0174,-30.0404,79.5914],[-57.9795,-30.0131,94.0072],[-57.9768,-30.0105,83.8312],[-57.9761,-30.0072,82.0206],[-57.9812,-29.9935,73.4961],[-57.9889,-29.9852,82.1647],[-57.9956,-29.9815,78.1706],[-58.0189,-29.9747,85.161],[-58.0257,-29.9708,85.8047],[-58.0467,-29.9539,83.9886],[-58.0608,-29.9365,79.3633],[-58.0666,-29.9232,87.1339],[-58.0697,-29.902,87.3849],[-58.07,-29.8807,84.1034],[-58.0693,-29.8772,80.1261],[-58.0628,-29.8682,77.686],[-58.0271,-29.8392,66.8123],[-58.0135,-29.8313,66.1899],[-58.0056,-29.8306,63.6239],[-57.9983,-29.8276,62.7762],[-57.9861,-29.827,62.4896],[-57.9589,-29.8343,61.3308],[-57.9339,-29.8462,63.0942],[-57.9182,-29.8574,58.5161],[-57.9163,-29.8678,61.6457],[-57.9131,-29.8743,56.9979],[-57.8987,-29.8869,57.3088],[-57.8868,-29.9012,60.4659],[-57.884,-29.9188,58.8462],[-57.8789,-29.9285,61.2661],[-57.8695,-29.9401,60.3843],[-57.8511,-29.9541,65.6935],[-57.8436,-29.9624,56.6221],[-57.8285,-29.9675,71.0871],[-57.8153,-29.9759,61.6014],[-57.7958,-29.9812,66.0925],[-57.7718,-29.9844,57.52],[-57.7618,-29.9907,58.4875],[-57.7431,-29.9979,57.9597],[-57.7269,-30.0265,47.4777],[-57.7209,-30.0313,56.9843],[-57.7091,-30.0338,60.9708],[-57.694,-30.0291,46.5851],[-57.6874,-30.0249,44.2614],[-57.6776,-30.0135,45.9414],[-57.6584,-30.0003,44.5184],[-57.658,-29.9969,42.5039],[-57.6613,-29.9952,44.3675],[-57.6733,-29.9932,44.025],[-57.6846,-29.9891,47.414],[-57.6939,-29.9822,49.0572],[-57.6982,-29.9762,51.8812],[-57.6998,-29.9692,51.5958],[-57.6996,-29.965699999999998,50.2683],[-57.6942,-29.9565,43.1621],[-57.6961,-29.9535,43.4821],[-57.7043,-29.9527,47.8213],[-57.7118,-29.95,54.9217],[-57.717,-29.9446,58.2015],[-57.7171,-29.9411,54.0],[-57.7074,-29.9353,46.3881],[-57.7047,-29.9282,44.8832],[-57.7065,-29.9261,46.1213],[-57.7146,-29.9247,51.1837],[-57.7171,-29.9219,59.0182],[-57.7177,-29.9148,51.3556],[-57.7116,-29.9056,44.3249],[-57.7124,-29.8985,44.9052],[-57.7195,-29.8782,47.0715],[-57.7193,-29.871,54.3169],[-57.7134,-29.8619,57.6173],[-57.7065,-29.8578,44.7837],[-57.6943,-29.8587,47.0169],[-57.6916,-29.8565,48.8549],[-57.6915,-29.853,47.056],[-57.6996,-29.8447,55.3392],[-57.6953,-29.8392,57.1231],[-57.6756,-29.835,44.9666],[-57.6695,-29.8307,44.429],[-57.6888,-29.8266,59.0561],[-57.6977,-29.815,57.5517],[-57.7017,-29.8146,62.5611],[-57.7048,-29.8122,63.3022],[-57.7063,-29.8091,53.3578],[-57.7048,-29.8056,51.5802],[-57.6988,-29.8012,52.2926],[-57.6977,-29.7976,58.7999],[-57.701,-29.7874,60.9754],[-57.6992,-29.7843,52.6556],[-57.6928,-29.7799,45.5382],[-57.658,-29.7698,50.0528],[-57.6511,-29.766,47.7304],[-57.6349,-29.7546,46.4684],[-57.6286,-29.7453,46.6927],[-57.6268,-29.7394,47.5495],[-57.6559,-29.7395,54.819],[-57.6569,-29.7333,51.3266],[-57.6597,-29.732,49.053],[-57.6794,-29.7358,51.5977],[-57.6915,-29.7347,54.7444],[-57.699,-29.7318,51.9533],[-57.7072,-29.7317,51.6773],[-57.7177,-29.7365,50.1401],[-57.7261,-29.7442,50.3932],[-57.7337,-29.7458,51.5815],[-57.7425,-29.7528,53.8577],[-57.7465,-29.7529,53.3944],[-57.7696,-29.7387,61.9181],[-57.7724,-29.7361,55.5571],[-57.7773,-29.7263,59.5365],[-57.7806,-29.7244,54.5748],[-57.8039,-29.7181,55.7258],[-57.8201,-29.719,61.432],[-57.8282,-29.7179,60.4724],[-57.8422,-29.7109,60.5988],[-57.85,-29.7027,63.8028],[-57.8547,-29.6929,62.4786],[-57.8631,-29.6808,61.193],[-57.8711,-29.6728,62.822],[-57.8827,-29.6542,67.2351],[-57.8852,-29.6438,61.3924],[-57.887,-29.6011,60.2588],[-57.8973,-29.5819,61.0043],[-57.9074,-29.5708,62.9232],[-57.9164,-29.5636,67.2793],[-57.918,-29.5603,64.7847],[-57.9173,-29.5532,65.5076],[-57.9206,-29.5513,69.3925],[-57.9489,-29.5503,63.7323],[-57.9602,-29.5465,72.0046],[-57.979,-29.533,74.64],[-57.9848,-29.5236,74.6712],[-57.9963,-29.5136,69.9291],[-58.0105,-29.5071,76.8131],[-58.0198,-29.4914,69.8964],[-58.0228,-29.489,68.6073],[-58.0633,-29.4866,71.2593],[-58.0791,-29.4835,81.3626],[-58.0924,-29.4753,76.0461],[-58.1111,-29.4687,76.9484],[-58.1187,-29.4604,84.0797],[-58.1229,-29.4504,79.8639],[-58.1284,-29.4452,77.0243],[-58.1362,-29.4433,77.8167],[-58.1523,-29.4446,84.0021],[-58.1602,-29.4434,88.8377],[-58.1657,-29.4382,93.8756],[-58.1796,-29.4166,94.0319],[-58.2113,-29.3847,115.3356],[-58.2201,-29.3688,108.3177],[-58.2498,-29.3307,81.5546],[-58.2712,-29.3094,82.2503],[-58.2865,-29.2986,78.7525],[-58.294,-29.2905,71.6655],[-58.3025,-29.2745,73.9441],[-58.3057,-29.2642,71.3159],[-58.3085,-29.2615,71.1748],[-58.3155,-29.2583,66.8836],[-58.3317,-29.2582,69.0452],[-58.3477,-29.2558,65.1576],[-58.3591,-29.2522,64.2142],[-58.3695,-29.2466,67.0941],[-58.3806,-29.2363,64.5851],[-58.4082,-29.1973,58.1403],[-58.4279,-29.1935,56.7537],[-58.4619,-29.1743,57.7699],[-58.47,-29.1664,63.3608],[-58.4776,-29.1499,58.2378],[-58.4841,-29.141,50.7012],[-58.4903,-29.1364,50.2522],[-58.5125,-29.1278,49.0815],[-58.5318,-29.1149,47.8719],[-58.5431,-29.1111,47.4988],[-58.5534,-29.1055,47.2518],[-58.5596,-29.0965,47.0584],[-58.5599,-29.0857,46.9517],[-58.5636,-29.0795,46.9146],[-58.5762,-29.0707,46.1392],[-58.5919,-29.0675,45.6563],[-58.605,-29.0595,45.3517],[-58.607,-29.0544,45.3508],[-58.6121,-29.0634,41.7112],[-58.6154,-29.0653,42.2847],[-58.6351,-29.0662,41.302],[-58.6452,-29.0772,41.8599],[-58.6568,-29.0792,41.8708],[-58.6643,-29.0822,43.7172],[-58.6694,-29.0953,42.6604],[-58.6748,-29.1006,43.9563],[-58.6774,-29.1073,43.6932],[-58.6845,-29.1102,44.0068],[-58.6884,-29.1199,42.5089],[-58.6917,-29.1217,43.7121],[-58.6997,-29.1216,42.9671],[-58.7028,-29.1237,39.4739],[-58.709,-29.1329,42.5572],[-58.7179,-29.1528,44.8015],[-58.7197,-29.1775,42.8346],[-58.7305,-29.1881,42.989],[-58.7415,-29.1916,43.184],[-58.7488,-29.2001,42.6728],[-58.7557,-29.2039,41.2987],[-58.7564,-29.2179,42.52],[-58.7597,-29.2244,44.0339],[-58.785,-29.2474,40.7371],[-58.7926,-29.2585,40.7603],[-58.791,-29.268,45.1454],[-58.7923,-29.2713,43.7076],[-58.7972,-29.2769,42.0693],[-58.8103,-29.2853,37.7496],[-58.8181,-29.3013,37.4509],[-58.8299,-29.3111,35.5395],[-58.8373,-29.314,42.44],[-58.8454,-29.3142,39.6066],[-58.8515,-29.3185,40.3801],[-58.8516,-29.3221,39.7704],[-58.8575,-29.3314,39.5216],[-58.8571,-29.335,38.802],[-58.8555,-29.3383,40.3458],[-58.8416,-29.3459,44.3207],[-58.8422,-29.3489,41.2518],[-58.8541,-29.3581,38.6597],[-58.8522,-29.3686,41.2851],[-58.8548,-29.3713,39.8264],[-58.8628,-29.3726,39.1206],[-58.8636,-29.376,36.0],[-58.8599,-29.3858,39.0173],[-58.8643,-29.392,41.8417],[-58.8707,-29.3959,41.194],[-58.8712,-29.3994,40.9894],[-58.8678,-29.4059,38.4328],[-58.8678,-29.413,37.838],[-58.8752,-29.4155,40.0471],[-58.8803,-29.4251,39.4047],[-58.8873,-29.4283,38.0387],[-58.8893,-29.4313,39.944],[-58.8902,-29.4383,39.3217],[-58.9002,-29.4537,36.0737],[-58.9021,-29.4676,39.7615],[-58.8777,-29.4892,40.7896],[-58.8879,-29.5696,39.4337],[-58.8191,-29.5794,41.1096],[-58.7907,-29.5814,41.8637],[-58.7755,-29.5859,42.1342],[-58.7568,-29.5996,45.7792],[-58.7396,-29.6237,45.594],[-58.7381,-29.6306,45.9802],[-58.7385,-29.6633,45.535]]]]}
,"properties": {"GID_2": "ARG.7.5_1","GID_0": "ARG","country": "Argentina","GID_1": "ARG.7_1","state": "Corrientes","NL_NAME_1": "NA","county": "CuruzúCuatiá","VARNAME_2": "NA","NL_NAME_2": "NA","TYPE_2": "Departamento","ENGTYPE_2": "Department","CC_2": "NA","HASC_2": "AR.CN.CC","name": "CuruzúCuatiá.county","area_km2": 8227.89,"hist_schema_id": "Elevation0-9000","hist_area_km2": {"25": 1.146,"50": 1982.43,"75": 5444.75,"100": 796.276,"125": 3.288}}}