{"type":"Feature","properties":{"GID_2":"ARG.4.15_1","GID_0":"ARG","country":"Argentina","GID_1":"ARG.4_1","state":"Chubut","NL_NAME_1":"NA","county":"Telsen","VARNAME_2":"NA","NL_NAME_2":"NA","TYPE_2":"Departamento","ENGTYPE_2":"Department","CC_2":"NA","HASC_2":"AR.CH.TN","name":"Telsen.county"},
"geometry":{"type": "MultiPolygon","coordinates": [[[[-65.9736,-42.0036,377.5789],[-66.728,-42.003,608.7231],[-67.4993,-41.9971,1230.9579],[-68.3894,-42.0055,1315.5164],[-68.3816,-42.8828,1205.1038],[-67.7739,-42.8826,668.1251],[-67.1703,-42.8791,96.326],[-65.9427,-42.8623,142.0562],[-65.9736,-42.0036,377.5789]]]]}}