{"type":"Feature","properties":{"GID_2":"ARG.6.23_1","GID_0":"ARG","country":"Argentina","GID_1":"ARG.6_1","state":"Córdoba","NL_NAME_1":"NA","county":"TerceroArriba","VARNAME_2":"Oliva","NL_NAME_2":"NA","TYPE_2":"Departamento","ENGTYPE_2":"Department","CC_2":"NA","HASC_2":"AR.CB.TA","name":"TerceroArriba.county"},
"geometry":{"type": "MultiPolygon","coordinates": [[[[-64.2382,-32.3261,511.9508],[-64.231,-32.3207,504.4795],[-64.2242,-32.3115,500.3651],[-64.205,-32.309,488.3941],[-64.1789,-32.3086,459.0518],[-64.1737,-32.3062,451.7253],[-64.1697,-32.3019,450.9299],[-64.1243,-32.3029,416.4731],[-64.0857,-32.3069,403.912],[-64.0671,-32.3114,406.435],[-64.0382,-32.324,387.5439],[-63.9736,-32.325,338.8325],[-63.975,-32.3543,344.6501],[-63.8926,-32.3738,318.3169],[-63.912,-32.4367,322.9276],[-63.9673,-32.4641,354.2922],[-64.0361,-32.7443,382.6633],[-63.9674,-32.7172,350.0882],[-63.9727,-32.7362,351.7299],[-63.9666,-32.7347,348.4684],[-63.9568,-32.7276,344.6851],[-63.9506,-32.7181,344.0917],[-63.9271,-32.7088,332.6476],[-63.9185,-32.7023,329.3234],[-63.6949,-32.7136,244.511],[-63.7136,-32.7868,246.5571],[-63.5459,-32.8165,198.399],[-63.569,-32.7687,211.301],[-63.5544,-32.7081,212.3597],[-63.5806,-32.7007,217.3723],[-63.5073,-32.3922,242.1324],[-63.5659,-32.3829,254.5627],[-63.5488,-32.2921,261.0109],[-63.548,-32.2766,261.3048],[-63.5458,-32.2715,259.9534],[-63.5388,-32.2622,260.191],[-63.5283,-32.256,257.3434],[-63.5244,-32.2517,257.3866],[-63.5179,-32.2362,258.7106],[-63.5133,-32.2326,257.4016],[-63.4938,-32.2313,253.0008],[-63.4745,-32.2321,249.4019],[-63.4512,-32.2417,246.2096],[-63.3682,-32.1917,225.7269],[-63.441,-32.106,236.9299],[-63.4138,-32.0985,232.3447],[-63.3973,-32.0899,230.4098],[-63.3911,-32.0885,228.4639],[-63.372,-32.0883,225.4257],[-63.3603,-32.0844,220.6664],[-63.3412,-32.0868,219.118],[-63.3265,-32.0759,215.2403],[-63.308,-32.0712,213.0232],[-63.3015,-32.0706,211.7571],[-63.2767,-32.0755,208.4918],[-63.2659,-32.0693,207.0086],[-63.2026,-32.0526,196.5958],[-63.1799,-32.0897,193.2222],[-63.1158,-32.0085,182.9577],[-63.1058,-32.0084,180.8174],[-63.0975,-31.9662,178.1603],[-63.1419,-31.9826,185.5635],[-63.1454,-31.9755,187.2465],[-63.2076,-32.0259,197.6276],[-63.2327,-32.0039,200.9614],[-63.2472,-31.9966,202.8097],[-63.2476,-31.9386,202.9702],[-63.2688,-31.9387,208.3688],[-63.321,-31.9543,214.7664],[-63.3495,-31.9513,221.4283],[-63.3567,-31.9661,221.9352],[-63.4112,-31.972,230.3179],[-63.4205,-31.971,231.6594],[-63.4219,-31.9831,231.2934],[-63.4315,-31.9876,234.1047],[-63.4375,-31.9799,234.4966],[-63.5604,-31.9822,259.0755],[-63.5787,-31.9647,263.6855],[-63.6674,-32.02,280.1911],[-63.6838,-32.0047,283.9855],[-63.6879,-32.0334,282.8371],[-63.706,-32.0344,286.6608],[-63.7106,-31.9819,288.6743],[-63.9219,-31.9827,336.8227],[-63.9216,-32.009,339.9055],[-63.9267,-32.0125,341.8383],[-63.9507,-32.0042,349.6738],[-63.9693,-31.9996,352.4826],[-63.9821,-31.9986,360.1945],[-63.9818,-31.9548,358.3687],[-64.0911,-31.956,401.7065],[-64.0929,-32.006,409.6154],[-64.2561,-32.0129,517.4553],[-64.2566,-32.0242,534.4146],[-64.2538,-32.046,517.9734],[-64.2573,-32.0623,504.1783],[-64.2616,-32.0726,493.1311],[-64.2702,-32.116,464.9135],[-64.2705,-32.1765,406.3029],[-64.2855,-32.1881,417.1736],[-64.28,-32.3195,537.8317],[-64.2638,-32.319,525.0117],[-64.2382,-32.3261,511.9508]]]]}}