{"type":"Feature","properties":{"GID_2":"ARG.2.1_1","GID_0":"ARG","country":"Argentina","GID_1":"ARG.2_1","state":"Catamarca","NL_NAME_1":"NA","county":"Ambato","VARNAME_2":"LaPuerta","NL_NAME_2":"NA","TYPE_2":"Departamento","ENGTYPE_2":"Department","CC_2":"NA","HASC_2":"AR.CT.AM","name":"Ambato.county"},
"geometry":{"type": "MultiPolygon","coordinates": [[[[-65.9277,-28.3291,1771.8081],[-65.9014,-28.3234,1467.239],[-65.884,-28.323,1935.6941],[-65.8732,-28.3194,1801.1379],[-65.8478,-28.2852,1449.1348],[-65.8293,-28.2653,1204.5338],[-65.8279,-28.2606,1193.075],[-65.8289,-28.2554,1230.6316],[-65.8357,-28.2356,1299.0098],[-65.8339,-28.231,1256.0071],[-65.8104,-28.2015,1131.0374],[-65.8022,-28.1943,984.6014],[-65.792,-28.1895,910.2188],[-65.7645,-28.1815,1047.6307],[-65.7186,-28.1795,1454.1375],[-65.7451,-28.1501,1814.6019],[-65.7483,-28.1404,1789.0262],[-65.7506,-28.1199,1902.1708],[-65.7559,-28.1052,1909.6538],[-65.7608,-28.096,1735.2186],[-65.7705,-28.0831,1643.9204],[-65.7715,-28.0781,1693.5439],[-65.7689,-28.0681,1870.5293],[-65.7543,-28.0402,1540.2363],[-65.7549,-28.0043,1639.2347],[-65.759,-27.9584,1700.483],[-65.7633,-27.9488,1679.6196],[-65.7708,-27.9409,1793.9832],[-65.7761,-27.9319,1817.2311],[-65.7797,-27.9221,1801.3713],[-65.7824,-27.9069,1613.9871],[-65.7828,-27.8864,1664.6189],[-65.7801,-27.866,1557.1222],[-65.7724,-27.8413,1519.7698],[-65.7712,-27.831,1478.2843],[-65.7716,-27.826,1470.2871],[-65.7758,-27.8164,1309.9163],[-65.7814,-27.7855,1292.8352],[-65.7837,-27.7863,1178.1558],[-65.7826,-27.7966,1126.9902],[-65.7848,-27.8099,1232.9347],[-65.7888,-27.8169,1216.6965],[-65.7953,-27.8235,1420.302],[-65.8027,-27.8508,1819.0148],[-65.8077,-27.8561,1781.6111],[-65.8155,-27.8588,1496.6904],[-65.8247,-27.8536,1271.9637],[-65.8307,-27.8431,1232.2134],[-65.8367,-27.792,1679.3],[-65.8372,-27.7608,1629.8372],[-65.843,-27.7407,1563.7371],[-65.857,-27.7085,1725.2902],[-65.8659,-27.6826,1696.3091],[-65.8742,-27.6805,1774.301],[-65.9056,-27.6856,2128.3325],[-65.9202,-27.6678,2333.04],[-65.9238,-27.6575,2292.6765],[-65.9245,-27.6259,2278.5422],[-65.9315,-27.6146,2350.0215],[-65.9435,-27.6195,2355.3896],[-65.954,-27.6262,2117.8438],[-65.9623,-27.6351,2070.2944],[-65.9701,-27.6508,2140.4568],[-65.9719,-27.6622,2198.5847],[-65.9711,-27.6679,2224.3374],[-65.9596,-27.6884,2122.3413],[-65.9564,-27.7111,2148.0574],[-65.9614,-27.7394,2253.8767],[-65.9701,-27.7548,2314.7395],[-65.9867,-27.7724,2404.9121],[-65.9974,-27.7788,2498.8047],[-66.0102,-27.7815,2735.2573],[-66.0164,-27.7805,2698.6106],[-66.025,-27.7749,2768.9292],[-66.0606,-27.7788,2338.4253],[-66.0719,-27.7842,2413.8877],[-66.079,-27.7937,2448.0535],[-66.0828,-27.8049,2659.1978],[-66.082,-27.8161,2685.4639],[-66.0764,-27.8328,2723.4578],[-66.0542,-27.8744,2705.5122],[-66.0514,-27.8855,2863.3374],[-66.052,-27.897,2949.4744],[-66.0557,-27.908,2894.2783],[-66.0592,-27.9128,2923.8271],[-66.0743,-27.9236,2803.6851],[-66.0777,-27.9283,2767.9016],[-66.0874,-27.9497,2983.604],[-66.0956,-27.9586,2857.583],[-66.0983,-27.9638,2928.4692],[-66.1006,-27.9751,2990.0903],[-66.0981,-27.9862,2104.5586],[-66.0852,-28.0063,3406.5896],[-66.0771,-28.0152,3449.7109],[-66.0755,-28.0207,3424.7576],[-66.0753,-28.038,3055.3596],[-66.0734,-28.0435,3161.4062],[-66.0454,-28.0888,3638.791],[-66.0387,-28.1049,3347.4937],[-66.0311,-28.1329,3645.6111],[-66.0307,-28.1443,3754.7241],[-66.0339,-28.1554,3866.0095],[-66.0337,-28.1611,3996.8789],[-66.0287,-28.1837,4010.3376],[-66.0277,-28.1952,3976.5977],[-66.0316,-28.212,3751.4294],[-66.0409,-28.2256,3692.1335],[-66.0234,-28.2436,4081.7805],[-66.0229,-28.2488,3927.9087],[-66.0367,-28.2812,3753.355],[-66.039,-28.3378,4074.1248],[-66.0283,-28.3359,3924.9768],[-66.0138,-28.3277,3684.6729],[-65.9965,-28.3258,2890.8105],[-65.9558,-28.3233,2386.8501],[-65.9505,-28.3244,2289.9915],[-65.941,-28.3306,1871.3972],[-65.9277,-28.3291,1771.8081]]]]}}