{"type":"Feature","properties":{"GID_2":"ARG.1.97_1","GID_0":"ARG","country":"Argentina","GID_1":"ARG.1_1","state":"BuenosAires","NL_NAME_1":"NA","county":"Rauch","VARNAME_2":"NA","NL_NAME_2":"NA","TYPE_2":"Partido","ENGTYPE_2":"Part","CC_2":"NA","HASC_2":"AR.BA.RU","name":"Rauch.county"},
"geometry":{"type": "MultiPolygon","coordinates": [[[[-58.4434,-36.4518,27.4521],[-58.5805,-36.3503,28.4261],[-58.6006,-36.3678,30.3247],[-58.7897,-36.2299,31.0641],[-58.7684,-36.2101,30.299],[-58.8262,-36.1699,30.3427],[-58.8199,-36.1633,29.9187],[-58.841,-36.148,29.5198],[-58.8503,-36.1538,30.1437],[-58.8649,-36.1555,30.8158],[-58.868899999999996,-36.1587,31.1351],[-58.8882,-36.1625,31.8413],[-58.8917,-36.1663,32.2329],[-58.8997,-36.1697,32.8093],[-58.903,-36.1738,33.0087],[-58.9155,-36.1794,33.3952],[-58.9225,-36.1876,34.0144],[-58.9295,-36.191,34.9608],[-58.9452,-36.1952,35.5324],[-58.9474,-36.199,35.6451],[-58.9535,-36.2022,36.4057],[-58.9739,-36.2009,37.9587],[-58.9784,-36.1993,37.1692],[-58.9847,-36.2033,38.0581],[-58.9931,-36.2033,38.2284],[-59.0135,-36.2129,38.9476],[-59.0196,-36.2132,39.6559],[-59.0342,-36.2205,41.4048],[-59.0478,-36.221,43.6894],[-59.0558,-36.2241,41.8197],[-59.0643,-36.2242,41.7517],[-59.0681,-36.2272,41.9603],[-59.0736,-36.2286,42.2188],[-59.086,-36.2408,42.7973],[-59.092,-36.2416,43.1946],[-59.1088,-36.256,43.6642],[-59.1104,-36.2603,44.0436],[-59.1079,-36.268,44.3296],[-59.1019,-36.2739,44.2305],[-59.1045,-36.2762,44.3783],[-59.1229,-36.2875,45.9171],[-59.1299,-36.287,46.1824],[-59.1651,-36.3013,48.1905],[-59.1703,-36.3013,48.3864],[-59.1771,-36.308,49.02],[-59.1946,-36.3177,50.1405],[-59.2045,-36.3196,50.935],[-59.2075,-36.3237,51.2659],[-59.214,-36.3258,51.7776],[-59.2261,-36.3332,53.1935],[-59.2543,-36.3551,55.1698],[-59.263,-36.3582,55.1245],[-59.2698,-36.3648,56.4772],[-59.2772,-36.3684,55.8084],[-59.2823,-36.375,56.65],[-59.293,-36.3815,57.7144],[-59.2353,-36.4253,59.999],[-59.2556,-36.4427,62.9763],[-59.1964,-36.4873,65.2328],[-59.2023,-36.4934,66.1863],[-59.1423,-36.5385,67.4754],[-59.2007,-36.5955,76.314],[-59.2191,-36.5803,75.9179],[-59.2237,-36.5802,75.6289],[-59.2283,-36.5983,78.1276],[-59.224,-36.602,78.5467],[-59.2222,-36.6068,78.7507],[-59.2281,-36.61,78.9961],[-59.2278,-36.6131,79.63],[-59.2319,-36.6175,79.753],[-59.2305,-36.6253,80.5608],[-59.2384,-36.6327,81.4393],[-59.2422,-36.6342,81.9306],[-59.244,-36.6401,82.3732],[-59.2493,-36.648,84.1509],[-59.2554,-36.6511,85.5715],[-59.2596,-36.6678,86.7323],[-59.2594,-36.6756,98.8111],[-59.2639,-36.6846,89.2645],[-59.2637,-36.6934,90.0954],[-59.2655,-36.697,90.5323],[-59.2651,-36.7072,92.0549],[-59.2667,-36.715,93.4075],[-59.2696,-36.7254,94.5184],[-59.2786,-36.7365,96.3278],[-59.2833,-36.7588,99.0037],[-59.2832,-36.7646,100.2541],[-59.2881,-36.7742,101.2314],[-59.3253,-36.8024,105.615],[-59.3393,-36.8147,108.5842],[-59.3491,-36.8257,110.6492],[-59.3526,-36.832,111.8998],[-59.3524,-36.8359,111.3413],[-59.3568,-36.8393,112.3889],[-59.3626,-36.8479,113.0037],[-59.216,-36.9594,120.0331],[-59.2205,-36.9652,120.77],[-59.0908,-37.0632,123.3721],[-59.0846,-37.0537,120.7016],[-59.068,-37.0507,119.5455],[-59.0643,-37.0425,118.506],[-59.0601,-37.041,117.9913],[-59.0491,-37.0315,115.8446],[-59.0431,-37.0238,113.5126],[-59.0411,-37.0069,111.3571],[-59.0358,-37.0022,110.2331],[-59.0326,-36.9802,106.4207],[-59.0256,-36.9634,103.8797],[-59.013,-36.9527,101.9567],[-59.0045,-36.9467,99.8666],[-58.9856,-36.9479,98.5682],[-58.9775,-36.9465,98.0002],[-58.9538,-36.9376,94.8363],[-58.9434,-36.9385,93.1464],[-58.9357,-36.9252,93.1864],[-58.9339,-36.9166,91.5399],[-58.9241,-36.911,89.9565],[-58.9161,-36.9015,87.8037],[-58.9134,-36.8937,87.271],[-58.9151,-36.885,86.5004],[-58.9139,-36.8804,85.8967],[-58.9024,-36.8756,84.6497],[-58.8886,-36.8652,82.2241],[-58.8825,-36.8629,81.3421],[-58.8776,-36.8579,81.0001],[-58.8712,-36.8461,80.4061],[-58.8526,-36.8345,77.7363],[-58.8424,-36.838,76.3522],[-58.8373,-36.8351,74.285],[-58.8328,-36.8304,75.2591],[-58.8196,-36.8229,73.4408],[-58.8154,-36.8171,72.6945],[-58.8104,-36.816,71.7939],[-58.802,-36.8101,71.1253],[-58.7958,-36.7959,79.5227],[-58.7466,-36.7745,63.4381],[-58.7252,-36.7571,63.2448],[-58.6995,-36.7464,58.3861],[-58.6881,-36.7444,56.9786],[-58.6665,-36.743899999999996,54.7198],[-58.7257,-36.7039,59.3407],[-58.4434,-36.4518,27.4521]]]]}}