{"type": "Feature","bbox": [-66.4899,-31.3676,-65.6496,-30.7477],"geometry": {"type": "MultiPolygon","coordinates": [[[[-65.6496,-30.7534,226.3958],[-65.9684,-30.7496,345.3186],[-66.3533,-30.7477,1018.634],[-66.3257,-30.7929,673.424],[-66.3902,-30.8488,761.0906],[-66.4114,-30.9389,1062.9321],[-66.4899,-30.9869,1250.3953],[-66.4807,-31.0957,991.9039],[-66.463,-31.096,999.0435],[-66.4276,-31.1361,904.314],[-66.4193,-31.1875,799.4797],[-66.3081,-31.1887,596.5951],[-65.7731,-31.3676,256.5927],[-65.7697,-31.0317,264.5917],[-65.6496,-30.7534,226.3958]]]]}
,"properties": {"GID_2": "ARG.12.12_1","GID_0": "ARG","country": "Argentina","GID_1": "ARG.12_1","state": "LaRioja","NL_NAME_1": "NA","county": "GeneralOcampo","VARNAME_2": "VillaSantaRita","NL_NAME_2": "NA","TYPE_2": "Departamento","ENGTYPE_2": "Department","CC_2": "NA","HASC_2": "AR.LR.GO","name": "GeneralOcampo.county","area_km2": 3723.349,"hist_schema_id": "Elevation0-9000","hist_area_km2": {"225": 36.588,"250": 359.436,"275": 388.031,"300": 290.318,"325": 244.473,"350": 216.167,"375": 199.888,"400": 180.209,"425": 171.423,"450": 182.773,"475": 189.799,"500": 180.957,"525": 153.651,"550": 146.518,"575": 108.558,"600": 89.422,"625": 50.249,"650": 25.441,"675": 20.824,"700": 20.77,"725": 23.146,"750": 28.908,"775": 52.562,"800": 67.795,"825": 63.61,"850": 41.936,"875": 28.062,"900": 23.11,"925": 20.205,"950": 22.167,"975": 16.935,"1000": 13.83,"1025": 14.156,"1050": 14.283,"1075": 9.159,"1100": 8.16,"1125": 7.16,"1150": 5.634,"1175": 4.471,"1200": 2.054,"1225": 0.436,"1250": 0.073}}}