{"type":"Feature","properties":{"GID_2":"ARG.10.1_1","GID_0":"ARG","country":"Argentina","GID_1":"ARG.10_1","state":"Jujuy","NL_NAME_1":"NA","county":"Capital","VARNAME_2":"SanSalvadordeJujuy|DoctorMan","NL_NAME_2":"NA","TYPE_2":"Departamento","ENGTYPE_2":"Department","CC_2":"NA","HASC_2":"NA","name":"Capital.county"},
"geometry":{"type": "MultiPolygon","coordinates": [[[[-65.2125,-23.8736,1763.6102],[-65.2263,-23.8857,1863.8745],[-65.2476,-23.8977,1842.925],[-65.2719,-23.9172,1677.124],[-65.3033,-23.9327,2094.231],[-65.314,-23.9331,1899.1354],[-65.33,-23.926,1704.9991],[-65.3443,-23.9254,1772.4398],[-65.3762,-23.9297,1948.9663],[-65.3894,-23.9348,2136.4629],[-65.392,-23.9418,2193.1382],[-65.3993,-23.9966,2014.1536],[-65.3916,-24.0077,1896.6681],[-65.3921,-24.0142,1889.5645],[-65.4001,-24.0206,1877.5819],[-65.4246,-24.0259,1956.9352],[-65.4318,-24.0257,1660.7952],[-65.4381,-24.0228,1668.0256],[-65.4633,-23.995,2302.6411],[-65.4809,-23.9838,2220.7273],[-65.4973,-23.9772,2692.2888],[-65.5349,-23.9672,3663.9238],[-65.5476,-23.9609,3847.791],[-65.5601,-23.941,3831.0842],[-65.581,-23.9231,4156.269],[-65.6375,-23.8984,3950.8879],[-65.6588,-23.9755,4201.4414],[-65.6632,-23.9845,3873.4084],[-65.6725,-23.9944,4054.1033],[-65.6857,-24.0232,4420.9727],[-65.6923,-24.0311,4422.6895],[-65.7016,-24.0514,4629.1953],[-65.7163,-24.0727,4752.1816],[-65.7384,-24.1216,4326.0459],[-65.7373,-24.1292,4193.7158],[-65.7423,-24.1357,4069.6321],[-65.7437,-24.1411,4028.3284],[-65.7448,-24.1493,4015.0437],[-65.7375,-24.1612,4083.8206],[-65.7278,-24.1715,4205.1064],[-65.7274,-24.1852,4604.144],[-65.7255,-24.1904,4497.0322],[-65.7164,-24.1977,4693.9517],[-65.7048,-24.2103,4769.2227],[-65.7034,-24.2212,4829.6138],[-65.7068,-24.2346,5232.5317],[-65.7054,-24.2366,5161.623],[-65.6751,-24.243,4904.1016],[-65.6224,-24.2775,4627.3037],[-65.6029,-24.2859,4654.5161],[-65.5927,-24.2889,4596.8164],[-65.5819,-24.289,5011.6938],[-65.5573,-24.2938,4578.2607],[-65.5322,-24.2952,3482.688],[-65.4798,-24.2735,2395.752],[-65.4264,-24.268,1748.4541],[-65.3995,-24.2589,1578.475],[-65.339,-24.2511,1556.5481],[-65.3177,-24.2536,1447.7419],[-65.3004,-24.258,1403.1982],[-65.2923,-24.2646,1300.5446],[-65.2709,-24.2626,1246.8348],[-65.2639,-24.2641,1232.4398],[-65.2515,-24.2705,1191.1608],[-65.2337,-24.2703,1167.2994],[-65.2243,-24.2729,1144.2823],[-65.2077,-24.256,1113.1355],[-65.2462,-24.2253,1172.217],[-65.2613,-24.2155,1183.9628],[-65.2455,-24.203,1196.5627],[-65.2321,-24.1985,1196.328],[-65.2107,-24.2001,1186.9778],[-65.2008,-24.2042,1186.8979],[-65.2009,-24.191,1246.869],[-65.2071,-24.1754,1266.1499],[-65.2068,-24.1724,1278.5415],[-65.1959,-24.1591,1446.5992],[-65.1976,-24.1462,1457.3329],[-65.1962,-24.1332,1461.1604],[-65.2235,-24.1183,1401.3438],[-65.2205,-24.1123,1362.4978],[-65.2154,-24.1076,1420.6053],[-65.2085,-24.1053,1293.2413],[-65.1968,-24.0927,1335.1664],[-65.1832,-24.0889,1220.4686],[-65.1754,-24.0779,1309.866],[-65.1724,-24.0765,1335.4457],[-65.144,-24.0801,1297.5327],[-65.1234,-24.0746,1253.478],[-65.112,-24.0667,1225.2111],[-65.1082,-24.0611,1359.0636],[-65.1053,-24.0516,1356.582],[-65.0882,-24.0305,1133.7124],[-65.0822,-24.0267,1036.3046],[-65.0693,-24.0271,973.1489],[-65.0872,-23.9965,1364.1667],[-65.088,-23.9866,1350.2208],[-65.0958,-23.9512,926.7173],[-65.102,-23.9356,1194.2725],[-65.1059,-23.9302,1301.4664],[-65.1256,-23.911,1170.3531],[-65.1366,-23.9026,1138.7123],[-65.1497,-23.8869,1146.3733],[-65.1591,-23.882,1178.2142],[-65.1618,-23.8761,1092.6796],[-65.1789,-23.8715,1201.6908],[-65.1967,-23.8699,1570.4602],[-65.2074,-23.8707,1755.116],[-65.2125,-23.8736,1763.6102]]]]}}