{"type": "Feature","bbox": [-65.2769,-26.9124,-65.1657,-26.7929],"geometry": {"type": "MultiPolygon","coordinates": [[[[-65.1657,-26.8079,438.2509],[-65.177,-26.8017,441.2827],[-65.1989,-26.8081,448.0667],[-65.2059,-26.8036,459.958],[-65.2166,-26.8035,463.7549],[-65.2257,-26.7984,479.1226],[-65.2363,-26.798,476.7298],[-65.2437,-26.7942,480.4713],[-65.2569,-26.7929,490.8944],[-65.2751,-26.8395,424.9633],[-65.2769,-26.8471,417.4247],[-65.2746,-26.8496,408.2549],[-65.2767,-26.8591,405.9011],[-65.2756,-26.8685,398.7069],[-65.2355,-26.8781,399.67],[-65.2331,-26.8834,398.639],[-65.2327,-26.8949,395.6377],[-65.2179,-26.9124,396.153],[-65.2089,-26.8873,403.2923],[-65.1851,-26.8556,415.114],[-65.1817,-26.8466,420.2946],[-65.1663,-26.8283,427.7247],[-65.1657,-26.8079,438.2509]]]]}
,"properties": {"GID_2": "ARG.24.2_1","GID_0": "ARG","country": "Argentina","GID_1": "ARG.24_1","state": "Tucumán","NL_NAME_1": "NA","county": "Capital","VARNAME_2": "SanMigueldeTucuman|Capital(T","NL_NAME_2": "NA","TYPE_2": "Departamento","ENGTYPE_2": "Department","CC_2": "NA","HASC_2": "AR.TM.TM","name": "Capital.county","area_km2": 84.52522,"hist_schema_id": "Elevation0-9000","hist_area_km2": {"400": 23.8111,"425": 33.99587,"450": 20.87063,"475": 5.84762}}}