{"type":"Feature","properties":{"ISO3166-1-Alpha-3":"ARG","country":"Argentina","fill":"#FF0","id":"1276","name":"Neuquén"},
"geometry":{"type": "Polygon","coordinates": [[[-70.32831,-36.37943,2088.1816],[-70.33516,-36.37881,1911.2969],[-70.34146,-36.37695,1891.0613],[-70.34728,-36.37416,2052.7046],[-70.35185,-36.37075,2111.666],[-70.35619,-36.366,2114.498],[-70.36645,-36.35086,2274.8884],[-70.378,-36.32533,2288.2805],[-70.38025,-36.31768,2388.7102],[-70.38242,-36.30657,2243.7495],[-70.38288,-36.28988,1833.8784],[-70.38094,-36.28073,1827.4883],[-70.37759,-36.27427,1753.0826],[-70.37327,-36.27071,1730.0261],[-70.36862,-36.26745,1824.3395],[-70.36454,-36.26357,1869.1681],[-70.36146,-36.25861,1955.7966],[-70.35955,-36.25262,2224.5178],[-70.35774,-36.24032,2227.749],[-70.35694,-36.21112,2135.0898],[-70.3588,-36.19939,2344.4575],[-70.36095,-36.19273,2379.2703],[-70.36815,-36.17764,2233.2205],[-70.37203,-36.17216,2466.3228],[-70.38691,-36.15914,2175.5],[-70.4244,-36.13604,2659.6223],[-70.43075,-36.1294,2731.5908],[-70.4351,-36.13635,2426.5386],[-70.45148,-36.15226,2548.8469],[-70.47115,-36.16249,2603.5906],[-70.49913,-36.16363,2759.8936],[-70.5453,-36.14275,2828.7983],[-70.56832,-36.13903,2802.9504],[-70.58142,-36.14317,2915.0408],[-70.58848,-36.1502,2705.8652],[-70.59832,-36.16963,2481.5276],[-70.60029,-36.17521,2265.3123],[-70.60132,-36.18813,2710.7944],[-70.60437,-36.19464,2709.9893],[-70.60866,-36.19794,2460.5325],[-70.61995,-36.20229,2426.999],[-70.62468,-36.20518,2492.5764],[-70.66163,-36.24456,2740.1777],[-70.67504,-36.25241,2594.2778],[-70.6939,-36.25665,2574.4832],[-70.70312,-36.26006,2396.5784],[-70.71051,-36.26585,2398.1318],[-70.71488,-36.27525,2412.4697],[-70.71377,-36.28352,2454.7146],[-70.7116,-36.29169,2482.2656],[-70.71266,-36.30026,2315.6211],[-70.72968,-36.32548,2399.7737],[-70.73222,-36.33427,2330.0813],[-70.72911,-36.34688,2605.0156],[-70.71359,-36.36817,2414.2173],[-70.7086,-36.37995,2505.7664],[-70.70891,-36.4032,2036.3347],[-70.71865,-36.41457,2181.5671],[-70.8072,-36.43338,2332.282],[-70.81433,-36.42997,1964.7823],[-70.82032,-36.4246,1960.6626],[-70.82882,-36.41984,1943.0865],[-70.86859,-36.40465,2191.2222],[-70.89037,-36.40041,2408.9082],[-70.90779,-36.40517,1757.9055],[-70.91626,-36.41933,1593.9406],[-70.92331,-36.45674,1854.4438],[-70.93497,-36.47255,2185.5903],[-70.95316,-36.48247,1942.8206],[-70.97104,-36.48547,2143.3806],[-70.98964,-36.4833,1965.5713],[-71.00998,-36.47751,2223.8943],[-71.02782,-36.48117,1972.2782],[-71.04328,-36.48434,2052.3064],[-71.06142,-36.52041,2110.6633],[-71.06891,-36.5664,1566.4659],[-71.06997,-36.60381,1702.2759],[-71.05532,-36.6713,1914.1404],[-71.05744,-36.68763,1898.8003],[-71.07302,-36.69683,2131.3467],[-71.09077,-36.68949,1950.28],[-71.11,-36.67854,2496.9854],[-71.12994,-36.67688,2268.9153],[-71.14534,-36.68825,2208.3486],[-71.14891,-36.70396,2282.3083],[-71.14684,-36.74106,1564.3701],[-71.15154,-36.76049,2196.3813],[-71.17671,-36.81486,1682.2388],[-71.18177,-36.8224,1709.4247],[-71.18896,-36.83046,1796.7262],[-71.19516,-36.83915,1901.0421],[-71.19686,-36.84824,1661.3101],[-71.19164,-36.85837,1962.7487],[-71.18281,-36.86292,1822.4318],[-71.17309,-36.86612,2001.0601],[-71.16524,-36.87212,2058.3735],[-71.15878,-36.88266,1553.6765],[-71.15852,-36.88689,1494.4509],[-71.16054,-36.89041,1756.9883],[-71.16105,-36.89878,2207.2178],[-71.16364,-36.90632,2009.8461],[-71.16855,-36.91439,1360.0509],[-71.16906,-36.92193,1183.5583],[-71.14017,-36.93754,1530.964],[-71.13568,-36.95149,1841.6841],[-71.14333,-36.96544,2058.6279],[-71.16147,-36.97547,2135.1733],[-71.1811,-36.97526,2135.9678],[-71.20069,-36.97144,2330.7161],[-71.20715,-36.97237,2492.7983],[-71.18741,-36.98684,2369.9421],[-71.15604,-37.00275,2457.3604],[-71.14865,-37.0135,2282.2202],[-71.13955,-37.06166,2389.8784],[-71.12689,-37.07758,2245.1401],[-71.08912,-37.10342,2307.8662],[-71.12514,-37.12006,1892.2712],[-71.1393,-37.13329,2165.0547],[-71.14762,-37.15479,2132.1431],[-71.14798,-37.17587,1932.093],[-71.1455,-37.1954,1879.8138],[-71.14648,-37.21483,1771.278],[-71.15759,-37.23571,1873.8037],[-71.19723,-37.27488,2181.5234],[-71.2056,-37.29266,1895.8204],[-71.20462,-37.3154,2003.2644],[-71.19475,-37.34351,1776.5945],[-71.16829,-37.39157,1744.8264],[-71.1364,-37.42505,1887.8475],[-71.12307,-37.44324,1851.8394],[-71.1177,-37.4665,2029.5964],[-71.12085,-37.48634,2099.4697],[-71.1364,-37.52438,1946.0502],[-71.14173,-37.54391,2097.0337],[-71.13955,-37.55486,1847.9795],[-71.12731,-37.57264,2150.4653],[-71.12793,-37.58442,2116.4758],[-71.1331,-37.59062,2037.2292],[-71.15718,-37.60251,2074.0122],[-71.17242,-37.6145,2196.3928],[-71.18389,-37.62587,2209.7524],[-71.19077,-37.64003,2392.6318],[-71.19226,-37.6609,2063.5974],[-71.18503,-37.70607,1579.3793],[-71.13325,-37.83846,2136.3662],[-71.09491,-37.89738,2375.1946],[-71.08759,-37.94016,2044.0815],[-71.06114,-37.9784,1867.5803],[-71.05204,-37.99928,1973.4414],[-71.04646,-38.02026,1819.479],[-71.03744,-38.03659,2016.4791],[-71.00998,-38.06553,1956.2354],[-71.00742,-38.07101,1979.3376],[-71.00664,-38.07669,2035.8975],[-71.00742,-38.08227,2158.8267],[-71.00998,-38.08785,1985.1173],[-71.02352,-38.1046,1794.7617],[-71.02305,-38.12289,1776.0946],[-71.01614,-38.1437,2010.7853],[-71.00998,-38.16227,2178.3311],[-71.00897,-38.16506,2030.6321],[-71.00866,-38.16764,1953.2784],[-71.00897,-38.17033,1953.5078],[-71.01788,-38.20371,1887.5638],[-71.01974,-38.23431,2268.9644],[-71.01669,-38.26469,1730.8304],[-70.97375,-38.42468,1835.7966],[-70.95047,-38.45941,2034.1411],[-70.91729,-38.48297,1996.9561],[-70.87983,-38.50302,2035.5801],[-70.84867,-38.52762,2338.8628],[-70.8343,-38.56441,1994.9209],[-70.83758,-38.58447,2223.7292],[-70.84774,-38.59997,1948.2827],[-70.87301,-38.62777,2043.8652],[-70.88342,-38.64307,1990.8583],[-70.8851,-38.64947,1842.9102],[-70.8858,-38.66053,1791.6906],[-70.88298,-38.6688,1706.0924],[-70.87699,-38.675,1702.8004],[-70.87234,-38.68162,1659.8264],[-70.87383,-38.69144,1781.3289],[-70.87936,-38.69464,1856.6909],[-70.90954,-38.70642,1723.0054],[-70.91536,-38.71221,1782.0742],[-70.92949,-38.73577,1749.3262],[-70.94504,-38.74725,1740.6609],[-70.96724,-38.75076,1745.2251],[-71.00998,-38.74632,1651.7715],[-71.04842,-38.74663,1581.0055],[-71.07865,-38.75706,1371.318],[-71.13687,-38.7922,1516.8411],[-71.15284,-38.79882,1592.7314],[-71.22802,-38.80884,1477.7842],[-71.23603,-38.81164,1411.1173],[-71.241,-38.81846,1368.6562],[-71.25376,-38.83272,1336.3341],[-71.27975,-38.85019,1334.8181],[-71.3707,-38.88801,1595.858],[-71.3999,-38.91054,1695.0854],[-71.41577,-38.93535,1314.8967],[-71.43023,-38.99912,1430.7292],[-71.43101,-39.02599,1760.4023],[-71.41266,-39.10061,1548.9036],[-71.40197,-39.236,1267.0774],[-71.41204,-39.31796,1068.9208],[-71.42021,-39.34215,1422.9717],[-71.43907,-39.35599,1193.1063],[-71.46057,-39.36716,1601.1365],[-71.47654,-39.38297,753.8488],[-71.47762,-39.40219,1182.9274],[-71.46165,-39.43382,1066.865],[-71.47044,-39.44912,1162.0273],[-71.48248,-39.4611,1220.2823],[-71.50144,-39.48829,1019.7828],[-71.51566,-39.50131,1821.5414],[-71.54196,-39.53231,1265.25],[-71.49566,-39.56559,1177.7734],[-71.50351,-39.60166,1686.787],[-71.52,-39.615,2129.2319],[-71.53669,-39.61572,1936.2654],[-71.55498,-39.61283,1798.6399],[-71.57643,-39.61469,1319.9476],[-71.60077,-39.61954,1545.6055],[-71.61782,-39.61665,1624.6128],[-71.63239,-39.60756,1472.7537],[-71.6411,-39.6,1795.5974],[-71.6774,-39.56849,1841.3331],[-71.68975,-39.56838,1701.9965],[-71.70541,-39.58358,1521.2098],[-71.71435,-39.60135,1223.3989],[-71.71874,-39.62337,1171.707],[-71.71606,-39.64476,1519.6442],[-71.69404,-39.67349,1369.8782],[-71.6988,-39.69024,1541.8682],[-71.70877,-39.70843,1376.0916],[-71.71435,-39.72631,1735.2616],[-71.71048,-39.7475,1331.2311],[-71.69198,-39.78997,1219.2681],[-71.68691,-39.81157,1209.8271],[-71.68459,-39.83348,1485.566],[-71.67937,-39.84785,1147.7177],[-71.66924,-39.85922,1228.5221],[-71.63451,-39.88351,1629.2909],[-71.62118,-39.89508,1450.444],[-71.61663,-39.90986,1347.061],[-71.62485,-39.93105,1548.1941],[-71.66206,-39.99513,1405.0522],[-71.66727,-40.0005,1281.8713],[-71.67441,-40.00443,1147.0869],[-71.6805,-40.00949,1123.8386],[-71.68283,-40.01807,1486.0615],[-71.68076,-40.02913,1639.0974],[-71.67311,-40.05032,1485.9355],[-71.67094,-40.06076,1572.1919],[-71.68371,-40.099,698.0544],[-71.72169,-40.09383,1009.2819],[-71.76675,-40.07688,916.9442],[-71.8007,-40.07967,1441.2068],[-71.81404,-40.0929,1336.4725],[-71.81455,-40.09962,1477.6211],[-71.80711,-40.1084,1541.1089],[-71.80287,-40.11605,1607.7107],[-71.80479,-40.12463,1762.5577],[-71.80902,-40.13383,1549.5986],[-71.81646,-40.16442,1407.067],[-71.81672,-40.17455,1529.6086],[-71.81207,-40.18468,1504.5692],[-71.81357,-40.18819,1392.0245],[-71.82236,-40.20287,1579.4607],[-71.82375,-40.2101,1482.8987],[-71.816,-40.22716,1893.6918],[-71.80194,-40.24235,1709.5731],[-71.77073,-40.26715,1284.158],[-71.75006,-40.29154,1429.3782],[-71.74267,-40.29651,1375.1412],[-71.72996,-40.29857,1819.0715],[-71.72572,-40.29527,1392.7855],[-71.72391,-40.28999,1433.5618],[-71.71849,-40.28627,1536.2856],[-71.70546,-40.28193,1715.9531],[-71.69875,-40.28276,1850.1582],[-71.6867,-40.28855,1642.2751],[-71.67926,-40.29527,1817.4302],[-71.67518,-40.30395,1637.3071],[-71.67368,-40.31377,1699.3225],[-71.67404,-40.3241,1609.9277],[-71.67849,-40.34022,1496.0186],[-71.71905,-40.41298,1416.8282],[-71.72929,-40.42136,1276.23],[-71.74226,-40.42084,1379.8451],[-71.78474,-40.41133,1623.2615],[-71.79641,-40.41453,1420.2454],[-71.80417,-40.42642,1075.823],[-71.84086,-40.51603,1285.4316],[-71.85879,-40.54238,1276.6501],[-71.86184,-40.54972,1356.3839],[-71.8606,-40.55944,1275.2126],[-71.85093,-40.57029,1153.6179],[-71.84773,-40.57959,1552.0978],[-71.8531,-40.61638,1301.5],[-71.87336,-40.64708,1301.5],[-71.94963,-40.7093,1271.7603],[-71.95558,-40.72036,1379.8915],[-71.92121,-40.82774,1565.1621],[-71.91067,-40.85006,1682.828],[-71.87088,-40.89575,1438.3396],[-71.85987,-40.91342,1537.8147],[-71.85145,-40.93833,1609.5137],[-71.85145,-40.95765,1557.2935],[-71.86768,-40.999,1764.9143],[-71.8674,-41.01024,1315.0],[-71.85912,-41.01124,1268.108],[-71.73231,-41.0175,870.999],[-71.665,-41.03026,768.0],[-71.5887,-41.02902,768.0],[-71.55374,-41.03197,768.0],[-71.35928,-41.08969,768.0],[-71.29732,-41.09511,768.0],[-71.27169,-41.09325,768.0],[-71.21609,-41.08126,768.0],[-71.18653,-41.06959,768.0],[-71.17208,-41.0623,768.0],[-71.148,-41.05124,810.8634],[-71.13795,-41.04488,800.1497],[-71.13284,-41.0393,792.3785],[-71.11987,-41.01744,763.5425],[-71.05708,-40.96225,750.5518],[-71.04279,-40.94639,740.6985],[-71.03109,-40.92877,766.6542],[-71.02628,-40.90681,774.5415],[-71.03287,-40.88608,863.2773],[-71.04643,-40.86763,763.2589],[-71.0625,-40.85223,741.9542],[-71.08002,-40.842,962.8242],[-71.1002,-40.83379,736.4872],[-71.11837,-40.82376,925.5386],[-71.12981,-40.8081,894.8588],[-71.13211,-40.79854,917.381],[-71.13242,-40.78888,764.7548],[-71.13023,-40.77947,779.071],[-71.12501,-40.77069,782.3889],[-71.11806,-40.76428,735.8685],[-71.10222,-40.75426,838.4417],[-71.09511,-40.74852,907.2397],[-71.0909,-40.74299,861.4575],[-71.08392,-40.73105,985.6312],[-71.07891,-40.72578,699.5],[-71.06302,-40.7186,1018.8218],[-71.02899,-40.71235,700.736],[-71.01556,-40.70196,699.5],[-71.01253,-40.6956,699.5],[-71.00892,-40.68041,699.5],[-71.00638,-40.67343,699.5],[-70.99969,-40.66341,714.8087],[-70.99132,-40.65442,699.5],[-70.98168,-40.64672,699.5],[-70.9715,-40.64036,699.5],[-70.92076,-40.6215,718.0346],[-70.89197,-40.6153,699.5],[-70.86768,-40.61401,731.5248],[-70.86823,-40.61091,727.4635],[-70.85461,-40.606,699.5],[-70.82882,-40.58931,699.5],[-70.81208,-40.58496,699.5],[-70.79637,-40.58507,699.5],[-70.76495,-40.59024,711.9185],[-70.74986,-40.59458,760.5985],[-70.71775,-40.59731,611.0873],[-70.68051,-40.59018,589.0],[-70.64491,-40.57618,589.0],[-70.6177,-40.55845,589.0],[-70.57607,-40.52352,657.7466],[-70.55998,-40.51546,608.7604],[-70.53631,-40.5122,589.0],[-70.51442,-40.51856,657.4069],[-70.49497,-40.53138,652.8615],[-70.47846,-40.54765,657.6127],[-70.44482,-40.56688,678.2485],[-70.40438,-40.56636,713.6],[-70.32555,-40.54786,760.4972],[-70.23894,-40.54982,748.7919],[-70.21421,-40.5382,676.2822],[-70.20315,-40.52058,622.8322],[-70.19083,-40.47784,782.4454],[-70.18023,-40.46564,589.0],[-70.17194,-40.4644,589.0],[-70.15135,-40.4659,629.3397],[-70.14204,-40.46528,666.4149],[-70.12993,-40.46151,748.759],[-70.11732,-40.45608,737.6989],[-70.10543,-40.44926,683.709],[-70.09564,-40.4413,589.0],[-70.08463,-40.42058,647.2046],[-70.08181,-40.39495,589.0],[-70.08184,-40.34374,589.0],[-70.0768,-40.32095,591.6801],[-70.04045,-40.24421,650.454],[-70.01792,-40.21413,589.0],[-70.01094,-40.19796,592.3876],[-70.00991,-40.18711,652.3068],[-70.0121,-40.15502,742.5931],[-70.00939,-40.1438,730.0535],[-70.00061,-40.12303,540.7672],[-69.99807,-40.11192,533.1613],[-69.99159,-40.05352,530.9468],[-69.98502,-40.03327,519.7074],[-69.97087,-40.00795,585.2798],[-69.96808,-39.99864,580.4873],[-69.96769,-39.98056,454.6279],[-69.96647,-39.97306,485.8569],[-69.96156,-39.96392,461.9524],[-69.94472,-39.94738,457.7286],[-69.92234,-39.93379,452.4662],[-69.68039,-39.82315,423.6359],[-69.66393,-39.81958,421.6279],[-69.63164,-39.81788,418.0447],[-69.54022,-39.82589,410.7898],[-69.51606,-39.82191,410.5862],[-69.49082,-39.8092,405.0612],[-69.42131,-39.7537,395.4151],[-69.38163,-39.73029,389.1518],[-69.36403,-39.71716,385.7663],[-69.31005,-39.65753,380.3199],[-69.30688,-39.64564,379.1096],[-69.30414,-39.64135,378.0799],[-69.28189,-39.61469,374.5],[-69.26517,-39.59841,374.5],[-69.24448,-39.58549,374.5],[-69.21125,-39.57087,374.5],[-69.18949,-39.56487,374.5],[-69.18412,-39.56255,374.5],[-69.13546,-39.5349,374.5],[-69.12123,-39.52942,374.5],[-69.10973,-39.52663,374.5],[-69.07971,-39.52679,374.5],[-69.05175,-39.52431,374.5],[-69.04565,-39.5226,374.5],[-69.01968,-39.50989,374.5],[-68.97292,-39.49366,374.5],[-68.96222,-39.4887,374.5],[-68.95367,-39.48069,374.5],[-68.94292,-39.46813,374.5],[-68.9047,-39.41325,374.5],[-68.89848,-39.40736,374.5],[-68.88726,-39.39946,374.5],[-68.8352,-39.37434,374.5],[-68.83016,-39.36804,374.5],[-68.82504,-39.35863,374.5],[-68.80897,-39.30768,374.5],[-68.79773,-39.29347,375.3021],[-68.76921,-39.27595,374.5],[-68.76045,-39.26634,374.5],[-68.74719,-39.24923,369.9662],[-68.70451,-39.23461,311.5],[-68.68717,-39.22572,313.8112],[-68.67146,-39.21363,347.6432],[-68.65971,-39.20035,325.6584],[-68.62976,-39.15616,311.5],[-68.60457,-39.1296,311.5],[-68.57447,-39.10764,291.5],[-68.54196,-39.09276,300.3143],[-68.50964,-39.08723,340.7674],[-68.47667,-39.07296,340.3707],[-68.41176,-39.01023,286.0611],[-68.37957,-38.99591,282.8474],[-68.36277,-38.99168,281.9765],[-68.32091,-38.96181,279.6315],[-68.30931,-38.9631,279.3128],[-68.28748,-38.98398,272.375],[-68.25844,-38.99633,312.47],[-68.24477,-38.99297,313.9402],[-68.23131,-38.98646,275.6886],[-68.21586,-38.98289,272.7427],[-68.1972,-38.98455,270.5069],[-68.151,-38.99715,311.4764],[-68.11734,-38.9971,303.9954],[-68.01042,-38.9755,259.6254],[-68.0139,-38.97467,258.1239],[-68.0316,-38.96971,259.5987],[-68.0368,-38.95902,264.1609],[-68.03509,-38.94496,275.7119],[-68.03747,-38.92687,266.9583],[-68.04946,-38.90367,269.8391],[-68.17891,-38.74275,300.0702],[-68.2256,-38.69671,308.7322],[-68.24728,-38.68172,309.9805],[-68.25213,-38.65929,313.9305],[-68.2502,-37.72374,507.4607],[-68.24939,-37.56546,484.191],[-68.24939,-37.55704,490.5133],[-68.42752,-37.53776,491.5474],[-68.44339,-37.52949,494.4113],[-68.46186,-37.51192,494.1282],[-68.49261,-37.46025,592.2353],[-68.50685,-37.44738,597.0605],[-68.52597,-37.44118,612.8118],[-68.59188,-37.44056,597.6217],[-68.60255,-37.43864,543.1442],[-68.62475,-37.42929,639.8141],[-68.63596,-37.42629,687.5972],[-68.66784,-37.42728,676.493],[-68.67815,-37.42629,680.1053],[-68.69826,-37.41513,591.2162],[-68.73639,-37.37937,555.0536],[-68.75668,-37.37167,547.3855],[-68.88432,-37.38113,574.2463],[-68.93592,-37.37606,581.6479],[-68.98506,-37.36382,601.9221],[-69.02015,-37.34434,615.1097],[-69.03901,-37.3124,613.2212],[-69.06105,-37.23602,656.3475],[-69.08844,-37.20719,662.3403],[-69.10668,-37.1985,660.5579],[-69.15466,-37.18269,656.2888],[-69.19606,-37.17639,663.7066],[-69.26037,-37.15256,676.8961],[-69.30235,-37.14977,688.9213],[-69.47867,-37.17644,734.2159],[-69.531,-37.17365,745.4421],[-69.58161,-37.16528,778.318],[-69.62347,-37.15256,772.5063],[-69.70336,-37.11215,838.3863],[-69.73822,-37.08647,823.077],[-69.80987,-37.01128,1012.339],[-69.81589,-36.99738,989.6128],[-69.81235,-36.98704,986.8582],[-69.79478,-36.97061,993.8547],[-69.78796,-36.96017,981.6245],[-69.78594,-36.94922,984.7075],[-69.78571,-36.92948,897.5775],[-69.78114,-36.91919,862.2665],[-69.78785,-36.9056,958.121],[-69.79013,-36.86323,895.7634],[-69.80545,-36.8471,1031.8257],[-69.82085,-36.8423,947.6685],[-69.83808,-36.83398,995.829],[-69.86356,-36.82499,1031.1082],[-69.86782,-36.82292,948.2423],[-69.9072,-36.79558,985.7363],[-69.91653,-36.7868,1033.6398],[-69.92211,-36.779,1001.7771],[-69.9356,-36.73957,1084.1862],[-69.94443,-36.72055,1114.2166],[-69.95601,-36.70582,1166.7],[-69.98968,-36.68102,1738.234],[-70.0088,-36.67321,1275.5769],[-70.01381,-36.67053,1233.1311],[-70.01882,-36.66624,1201.3451],[-70.02262,-36.66045,1220.5591],[-70.03182,-36.64314,1368.7369],[-70.05301,-36.62567,1306.8279],[-70.05835,-36.61993,1366.4293],[-70.06766,-36.61177,1339.7231],[-70.07355,-36.60913,1208.0573],[-70.14742,-36.58996,2219.7539],[-70.15866,-36.585,2065.9595],[-70.163,-36.58159,2157.9746],[-70.17543,-36.5681,2437.9082],[-70.19739,-36.53312,2099.4243],[-70.22576,-36.46919,1452.2563],[-70.22896,-36.45354,1767.6342],[-70.25144,-36.38439,2100.4448],[-70.25498,-36.37871,2104.1724],[-70.26025,-36.37282,2002.2712],[-70.27092,-36.3645,1905.4043],[-70.27955,-36.36057,1837.5444],[-70.28777,-36.35871,1867.6261],[-70.29467,-36.35902,1948.7714],[-70.30072,-36.36016,2006.835],[-70.30575,-36.36279,1993.274],[-70.30999,-36.36651,2000.7173],[-70.31774,-36.37494,2100.3359],[-70.32268,-36.37762,2111.2075],[-70.32831,-36.37943,2088.1816]]]}}