{"type":"Feature","properties":{"featurecla":"Lake","scalerank":8,"name":"Lago Nahuel Huapí","name_abb":"L. Nahuel Huapí","name_alt":null,"note":null,"delta":null,"dam_name":null,"year":-99,"admin":null,"min_zoom":6.0,"min_label":7.0},
"geometry":{"type": "Polygon","coordinates": [[[-71.302493864655418,-41.123437874603582,768.0],[-71.2883643865531,-41.125792787620611,768.0],[-71.270849720988764,-41.125204059366354,768.0],[-71.235526025732966,-41.118728048569466,796.0427],[-71.218011360168632,-41.112546401899692,815.7999],[-71.202851607621341,-41.103715478085746,775.2522],[-71.199024873968639,-41.099300016178773,768.0],[-71.192843227298866,-41.083404353313654,768.0],[-71.188280583328336,-41.077811434898166,768.0],[-71.172237738399659,-41.062210136160189,768.0],[-71.1745926514167,-41.061032679651646,768.0],[-71.1944622299981,-41.062210136160189,768.0],[-71.214626172706616,-41.069569239338477,768.0],[-71.222132457948476,-41.070746695846992,768.0],[-71.35489067928485,-41.062210136160189,768.0],[-71.3827080892988,-41.056911581871816,769.1954],[-71.4124388661391,-41.044842652659412,768.0],[-71.468809596484817,-41.008341500895085,768.0],[-71.4844108952228,-41.003337310733855,768.0],[-71.510314938410374,-40.988324740250135,1011.4056],[-71.518557133970063,-40.955944686265639,768.0],[-71.507224115075488,-40.925919545298228,768.0],[-71.474991243154577,-40.916794257357139,768.0],[-71.39624883914685,-40.951234860231551,768.0],[-71.377556717073986,-40.948879947214493,768.0],[-71.394777018511192,-40.923270268154027,1209.2805],[-71.420533879635215,-40.90678587703465,1404.4189],[-71.507518479202631,-40.871756545905981,808.5211],[-71.533128158263082,-40.854389062405232,768.0],[-71.5571188346243,-40.828779383344767,854.1152],[-71.571542676853767,-40.817593546513763,868.6177],[-71.587585521782444,-40.814355541115305,768.0],[-71.598918540677,-40.821420280166478,768.0],[-71.599212904804133,-40.844380682082743,768.0],[-71.610104377508009,-40.850856692879631,805.7556],[-71.629238045771572,-40.844969410337,876.1387],[-71.652639993878537,-40.828485019217624,768.0],[-71.673245482777759,-40.808173894445559,768.0],[-71.684431319608763,-40.790512046817639,768.0],[-71.685167229926591,-40.780503666495179,768.0],[-71.683401045163791,-40.771967106808347,768.0],[-71.683695409290934,-40.762253090613,768.0],[-71.691054512469222,-40.749301069019225,768.0],[-71.69885516183821,-40.741941965840937,768.0],[-71.727114118042849,-40.723397025831645,1008.963],[-71.741832324399439,-40.728401215992875,892.7825],[-71.7363865880475,-40.737820868061078,901.4982],[-71.72637820772502,-40.748417976637825,768.0],[-71.727114118042849,-40.757543264578914,768.0],[-71.742126688526568,-40.757248900451771,768.0],[-71.780394025053681,-40.737820868061078,768.0],[-71.795995323791658,-40.736349047425421,773.4277],[-71.79658405204593,-40.746946156002167,961.0601],[-71.778922204418024,-40.761369998231629,1549.0226],[-71.742715416780825,-40.782858579512236,859.8843],[-71.722993020263,-40.801109155394386,768.0],[-71.68943550977,-40.843497589701343,1204.2231],[-71.609074103063051,-40.915322436721482,768.0],[-71.570659584472367,-40.96536433833387,768.0],[-71.570512402408809,-40.978610724054789,768.0],[-71.584347516383986,-40.992445838029965,889.9843],[-71.615108567669253,-41.003926038988112,1333.3887],[-71.65072662705218,-41.006575316132285,1529.1205],[-71.764498362188576,-41.0027485824796,1106.1088],[-71.790991133630428,-41.005692223750913,1270.6932],[-71.80291288077926,-41.0139344193106,1140.5386],[-71.7898136771219,-41.024531527887319,768.0],[-71.650432262925051,-41.048375022184985,1655.1606],[-71.628502135453743,-41.059560859015988,1769.0334],[-71.627766225135915,-41.075456521881108,1455.0509],[-71.66544483340877,-41.10901403237412,1117.838],[-71.688699599452164,-41.124909695239239,1297.3883],[-71.707244539461456,-41.133740619053185,1137.7158],[-71.686197504371549,-41.139333537468673,788.7184],[-71.614519839414982,-41.087231086966369,768.0],[-71.583170059875471,-41.071629788228392,768.0],[-71.583170059875471,-41.065448141558619,768.0],[-71.591117891308016,-41.061915772033046,773.0308],[-71.596269263532818,-41.057794674253216,838.1594],[-71.600095997185534,-41.052496119964843,768.0],[-71.604217094965378,-41.044842652659412,768.0],[-71.514730400317347,-41.051613027583443,823.3375],[-71.486618626176281,-41.059266494888874,768.0],[-71.468956778548375,-41.068391782829934,768.0],[-71.440109094089479,-41.093118369509,768.0],[-71.42347752090653,-41.103715478085746,768.0],[-71.401547393435223,-41.110191488882634,768.0],[-71.331635913241456,-41.11490131491675,768.0],[-71.302493864655418,-41.123437874603582,768.0]]]}}