{"type": "Feature","bbox": [-71.9661,-41.0964,-68.0127,-36.1031],"geometry": {"type": "MultiPolygon","coordinates": [[[[-70.9064,-40.6205,699.5],[-70.8784,-40.6194,699.5],[-70.8744,-40.6172,699.5],[-70.8766,-40.6102,699.5],[-70.8759,-40.6054,699.5],[-70.8713,-40.6029,699.5],[-70.8505,-40.5986,699.5],[-70.8202,-40.5983,699.5],[-70.778,-40.5852,699.5],[-70.7689,-40.5852,701.5173],[-70.7571,-40.5876,699.5],[-70.737,-40.5824,601.5119],[-70.731,-40.5826,619.8318],[-70.7205,-40.5872,590.691],[-70.7176,-40.5944,604.7296],[-70.7139,-40.5965,599.7378],[-70.7024,-40.5926,589.0],[-70.6872,-40.593,589.0],[-70.6633,-40.5889,589.0],[-70.6539,-40.5834,589.0],[-70.64,-40.5654,593.5762],[-70.6241,-40.5515,589.0],[-70.6106,-40.5462,589.0],[-70.5996,-40.5385,589.0],[-70.5603,-40.5261,589.0],[-70.5515,-40.5197,589.0],[-70.5481,-40.5133,589.0],[-70.5441,-40.5098,589.0],[-70.5245,-40.5036,589.0],[-70.5009,-40.508,589.0],[-70.4859,-40.5091,589.0],[-70.4841,-40.5111,589.0],[-70.4753,-40.5096,589.0],[-70.4634,-40.5106,589.0],[-70.4443,-40.5217,589.0],[-70.4332,-40.5253,589.0],[-70.4262,-40.5353,589.0],[-70.4207,-40.5365,589.0],[-70.4052,-40.5293,589.0],[-70.3818,-40.525,589.0],[-70.3747,-40.5207,589.0],[-70.361,-40.5159,589.0],[-70.3384,-40.5097,589.0],[-70.3204,-40.5103,589.0],[-70.3115,-40.5091,589.0],[-70.2793,-40.4964,589.0],[-70.2672,-40.4964,589.0],[-70.2543,-40.5022,589.0],[-70.2484,-40.503,589.0],[-70.2394,-40.5018,589.0],[-70.2185,-40.4928,589.0],[-70.186,-40.4882,589.0],[-70.172,-40.4794,589.0],[-70.1714,-40.4771,589.0],[-70.1768,-40.4545,589.0],[-70.1859,-40.4374,589.0],[-70.1855,-40.4281,589.0],[-70.1817,-40.4259,589.0],[-70.1812,-40.4234,589.0],[-70.1571,-40.4144,589.0],[-70.1394,-40.4142,589.0],[-70.0962,-40.398,589.0],[-70.0688,-40.3798,589.0],[-70.0615,-40.3698,589.0],[-70.0628,-40.3445,589.0],[-70.061,-40.3214,589.0],[-70.0492,-40.3113,589.0],[-70.0455,-40.3025,589.0],[-70.0427,-40.2727,589.0],[-70.0433,-40.2681,589.0],[-70.0468,-40.2618,589.0],[-70.0625,-40.251,589.0],[-70.0615,-40.2464,589.0],[-70.0331,-40.2229,589.0],[-70.0238,-40.2085,589.0],[-70.0094,-40.2056,589.0],[-70.0021,-40.2017,589.0],[-69.9948,-40.1917,589.0],[-69.9887,-40.1788,481.8225],[-69.9651,-40.182,477.2353],[-69.9591,-40.182,476.5],[-69.9544,-40.1795,476.5],[-69.953,-40.1704,476.5],[-69.9563,-40.1568,476.5],[-69.9678,-40.1407,476.5],[-69.9642,-40.1272,479.16],[-69.9646,-40.1226,476.5],[-69.9693,-40.1167,476.5],[-69.9865,-40.1129,476.5],[-69.9925,-40.1081,476.5],[-69.9963,-40.0876,476.5],[-69.9978,-40.0692,476.5],[-70.0042,-40.0514,476.5],[-70.0045,-40.0468,476.5],[-69.9972,-40.0223,476.5],[-69.9775,-40.0049,478.6797],[-69.9733,-39.9988,504.8821],[-69.9765,-39.9907,456.2919],[-69.9721,-39.9831,453.6788],[-69.9467,-39.9568,450.3122],[-69.9346,-39.9466,450.1568],[-69.9254,-39.9424,446.1064],[-69.9113,-39.9407,446.899],[-69.8988,-39.9356,446.9423],[-69.8879,-39.9285,444.8576],[-69.8702,-39.9111,443.2205],[-69.8645,-39.9078,442.2706],[-69.818,-39.8987,433.2776],[-69.8018,-39.8929,431.5309],[-69.7866,-39.8853,430.3376],[-69.7664,-39.881,430.7777],[-69.737,-39.871,426.4805],[-69.7187,-39.8581,424.8968],[-69.695,-39.8459,424.9618],[-69.6667,-39.8443,423.1564],[-69.6418,-39.8337,420.0331],[-69.6175,-39.8301,419.5862],[-69.5622,-39.8109,406.2871],[-69.5444,-39.8093,409.0791],[-69.5275,-39.813,404.2789],[-69.5169,-39.8116,411.4409],[-69.5072,-39.808,403.3932],[-69.4648,-39.7746,398.7019],[-69.4443,-39.7701,395.7453],[-69.4218,-39.7619,395.6864],[-69.4119,-39.754,391.4744],[-69.4023,-39.7424,392.4252],[-69.3845,-39.7335,390.0985],[-69.3762,-39.7245,391.0081],[-69.3594,-39.7143,389.2556],[-69.3542,-39.707,387.4179],[-69.346,-39.686,383.612],[-69.3352,-39.675,383.4653],[-69.3243,-39.6578,380.1321],[-69.2856,-39.6143,374.5],[-69.2766,-39.5999,374.5],[-69.2581,-39.5871,374.5],[-69.2531,-39.58,374.5],[-69.2301,-39.5628,374.5],[-69.2235,-39.5607,389.6564],[-69.1954,-39.5579,374.5],[-69.1854,-39.5549,374.5],[-69.1802,-39.5515,377.4005],[-69.1732,-39.5507,374.5],[-69.1677,-39.5472,374.5],[-69.158,-39.5356,374.5],[-69.1387,-39.529,374.5],[-69.1263,-39.5191,374.5],[-69.123,-39.5181,374.5],[-69.1069,-39.5232,374.5],[-69.0695,-39.5153,374.5],[-69.0447,-39.5131,374.5],[-69.034,-39.5063,374.5],[-69.018,-39.5002,374.5],[-69.0115,-39.5008,374.5],[-69.0103,-39.5035,374.5],[-69.0039,-39.5057,374.5],[-68.9939,-39.504,374.5],[-68.9798,-39.4917,374.5],[-68.9791,-39.4808,374.5],[-68.9733,-39.4738,374.5],[-68.9613,-39.468,374.5],[-68.953,-39.4592,374.5],[-68.9433,-39.4561,374.5],[-68.9318,-39.4495,374.5],[-68.9286,-39.4447,374.5],[-68.9269,-39.4361,374.5],[-68.9241,-39.4311,374.5],[-68.9114,-39.4263,374.5],[-68.8991,-39.4098,374.5],[-68.8787,-39.3988,374.5],[-68.8549,-39.3936,374.5],[-68.8424,-39.3885,374.5],[-68.838,-39.3842,374.5],[-68.8332,-39.3769,374.5],[-68.8283,-39.3636,374.5],[-68.8189,-39.3521,374.5],[-68.8192,-39.3301,374.5],[-68.8227,-39.3195,374.5],[-68.8129,-39.3083,374.5],[-68.8148,-39.2973,374.5],[-68.8104,-39.2899,374.5],[-68.8106,-39.2844,374.5],[-68.8048,-39.2813,374.5],[-68.7942,-39.281,374.5],[-68.7711,-39.2744,374.5],[-68.7672,-39.2698,374.5],[-68.7542,-39.2625,343.7716],[-68.746,-39.2619,312.4086],[-68.7312,-39.2578,354.2982],[-68.7213,-39.2515,323.8358],[-68.716,-39.2434,314.5913],[-68.7056,-39.2345,346.5716],[-68.6941,-39.2281,311.5],[-68.6749,-39.2212,311.5],[-68.6656,-39.2129,311.5],[-68.6591,-39.2002,311.5],[-68.661,-39.1893,311.5],[-68.6698,-39.1774,331.5742],[-68.6699,-39.1719,361.3841],[-68.668,-39.1667,384.5427],[-68.6603,-39.1611,377.5298],[-68.648,-39.1556,311.5],[-68.6392,-39.1407,311.5],[-68.6017,-39.116,311.5],[-68.5831,-39.096,305.3278],[-68.5667,-39.0856,296.5477],[-68.5387,-39.0741,294.1848],[-68.5286,-39.0716,294.8567],[-68.5076,-39.0714,290.8986],[-68.4897,-39.0583,292.4214],[-68.4633,-39.0447,286.7998],[-68.4563,-39.0386,290.8701],[-68.4448,-39.0322,288.1744],[-68.438,-39.031,286.8116],[-68.421,-39.0342,285.3703],[-68.4143,-39.0327,286.0078],[-68.4079,-39.0305,283.8874],[-68.3986,-39.0223,285.6468],[-68.3872,-39.0162,284.4027],[-68.3744,-39.0121,283.2238],[-68.3589,-39.0009,283.5516],[-68.3457,-38.9971,279.9821],[-68.3347,-38.9958,277.6536],[-68.3263,-38.9918,277.8245],[-68.2901,-38.9812,275.303],[-68.2725,-38.9809,274.8207],[-68.2654,-38.9867,274.1631],[-68.262,-38.9876,274.1761],[-68.2374,-38.987,272.2906],[-68.2253,-38.9815,272.4576],[-68.2195,-38.9747,272.7282],[-68.2118,-38.969,267.5],[-68.1942,-38.9691,267.0659],[-68.1841,-38.9709,266.0],[-68.1825,-38.9734,270.1925],[-68.1764,-38.9764,269.1946],[-68.1629,-38.9752,267.0385],[-68.145,-38.9836,270.0681],[-68.1345,-38.9833,263.6137],[-68.0866,-38.9922,261.8477],[-68.0695,-38.9893,263.2107],[-68.058,-38.9831,255.5],[-68.0194,-38.9805,258.6945],[-68.0142,-38.9771,258.5384],[-68.0127,-38.9689,259.634],[-68.0133,-38.9635,262.062],[-68.0168,-38.9557,262.2343],[-68.0397,-38.9391,262.939],[-68.0497,-38.9279,267.6737],[-68.053,-38.92,267.9894],[-68.0533,-38.9119,269.4115],[-68.0721,-38.9049,280.9398],[-68.073,-38.8995,273.188],[-68.0711,-38.8887,274.9713],[-68.0719,-38.886,270.6604],[-68.0789,-38.8801,274.4755],[-68.0794,-38.8636,275.5048],[-68.0848,-38.8567,278.7225],[-68.0896,-38.8464,283.8983],[-68.0893,-38.8328,280.732],[-68.1004,-38.8223,285.8832],[-68.1177,-38.7862,290.0065],[-68.1254,-38.7512,293.6362],[-68.1346,-38.743,295.0966],[-68.1455,-38.7363,296.7691],[-68.1641,-38.7287,300.322],[-68.1883,-38.7129,303.1953],[-68.233,-38.6972,309.5706],[-68.2453,-38.6876,312.7395],[-68.2428,-37.5779,468.0504],[-68.2844,-37.5619,458.445],[-68.2987,-37.5579,464.2432],[-68.3232,-37.5558,464.6542],[-68.3557,-37.5491,471.9462],[-68.3741,-37.5493,475.2089],[-68.3822,-37.5532,477.6618],[-68.3881,-37.5533,478.263],[-68.4216,-37.5486,483.7879],[-68.4299,-37.546,486.4023],[-68.4491,-37.5269,489.1224],[-68.4527,-37.5101,561.2625],[-68.4596,-37.4991,577.7111],[-68.4663,-37.4941,499.0259],[-68.4811,-37.493,564.134],[-68.4793,-37.4853,499.9192],[-68.4801,-37.4812,514.3455],[-68.4925,-37.4795,535.0499],[-68.4918,-37.4593,594.0151],[-68.4938,-37.4555,593.2284],[-68.4962,-37.4547,590.0328],[-68.5397,-37.451,508.9679],[-68.5575,-37.454,512.6816],[-68.5729,-37.454,524.3818],[-68.5893,-37.4477,558.2123],[-68.6067,-37.4373,557.0251],[-68.612,-37.438,518.3483],[-68.6315,-37.446,523.9767],[-68.6525,-37.4478,525.0369],[-68.6943,-37.4395,593.5946],[-68.6973,-37.4365,539.2186],[-68.6964,-37.4138,617.9469],[-68.6993,-37.4099,689.1906],[-68.7132,-37.4,538.0574],[-68.7165,-37.3877,555.303],[-68.7207,-37.3856,552.3024],[-68.7333,-37.3847,546.1121],[-68.7394,-37.379,552.2199],[-68.7535,-37.3749,546.5037],[-68.7556,-37.3701,555.0736],[-68.7634,-37.3664,555.3798],[-68.7784,-37.3637,551.8129],[-68.7864,-37.3709,551.0897],[-68.7963,-37.3766,596.2491],[-68.8294,-37.3891,560.2497],[-68.844,-37.3926,563.7922],[-68.8659,-37.3953,568.1317],[-68.8732,-37.3928,569.5422],[-68.8794,-37.3838,580.6366],[-68.8911,-37.3812,573.1469],[-68.8996,-37.3741,599.4902],[-68.9079,-37.3711,624.0354],[-68.92,-37.3699,589.1075],[-68.9565,-37.3732,584.8193],[-68.9748,-37.3733,589.8442],[-69.0158,-37.3632,608.0708],[-69.0245,-37.3569,605.7233],[-69.0383,-37.3404,614.6912],[-69.0414,-37.3337,610.5905],[-69.0427,-37.3044,613.6045],[-69.0401,-37.2899,617.1649],[-69.0408,-37.2778,619.1105],[-69.0369,-37.261,625.4412],[-69.0376,-37.2536,627.1298],[-69.0407,-37.2469,634.6935],[-69.0657,-37.219,638.4799],[-69.0865,-37.2157,640.8798],[-69.0983,-37.2047,652.6478],[-69.1223,-37.2011,653.2779],[-69.1496,-37.1819,656.6619],[-69.1726,-37.1754,660.5402],[-69.2119,-37.1709,668.6429],[-69.2292,-37.1611,722.4167],[-69.2457,-37.1548,684.1434],[-69.2607,-37.1465,681.0148],[-69.2783,-37.1425,683.6458],[-69.2986,-37.1477,687.8254],[-69.3136,-37.146,694.9723],[-69.3347,-37.1483,697.4734],[-69.395,-37.1649,712.476],[-69.4565,-37.1644,729.2685],[-69.4617,-37.1659,730.3161],[-69.4645,-37.1729,728.468],[-69.4763,-37.175,733.4592],[-69.4888,-37.1747,736.346],[-69.5066,-37.1655,740.594],[-69.5217,-37.1638,748.3721],[-69.536,-37.1596,824.7424],[-69.5627,-37.1478,765.8054],[-69.6015,-37.1337,776.3582],[-69.6255,-37.1306,871.8467],[-69.6372,-37.1195,796.1186],[-69.651,-37.1146,791.4503],[-69.6622,-37.1028,810.8431],[-69.6673,-37.1008,829.8068],[-69.6886,-37.0978,843.977],[-69.7044,-37.0908,822.2039],[-69.733,-37.0653,935.6684],[-69.734,-37.0458,935.0078],[-69.7361,-37.0362,984.8504],[-69.7431,-37.0284,1048.9377],[-69.7581,-37.0194,844.2137],[-69.7616,-37.0158,838.3279],[-69.7644,-36.9988,847.0483],[-69.7748,-36.9804,836.3171],[-69.7778,-36.9438,849.0172],[-69.7768,-36.9341,851.7836],[-69.7722,-36.9199,856.4567],[-69.7755,-36.9056,868.5381],[-69.7752,-36.9007,874.4724],[-69.7728,-36.891,877.2609],[-69.7692,-36.8844,880.8979],[-69.7578,-36.8761,873.5853],[-69.7576,-36.8714,880.3491],[-69.7602,-36.8665,876.8835],[-69.767,-36.8622,883.0253],[-69.8017,-36.8524,975.5389],[-69.8214,-36.841,957.6251],[-69.8474,-36.8347,983.6531],[-69.8594,-36.8269,1134.9257],[-69.8672,-36.8194,1165.6516],[-69.8715,-36.8026,1074.1545],[-69.8761,-36.8005,1059.2788],[-69.8919,-36.7984,983.5221],[-69.9044,-36.7911,1035.9584],[-69.9098,-36.7852,1068.9574],[-69.9115,-36.7808,1068.5371],[-69.9068,-36.7536,1222.5779],[-69.908,-36.7493,1115.5288],[-69.9343,-36.7287,1222.7327],[-69.9391,-36.7121,1262.9241],[-69.9501,-36.6975,1442.6194],[-69.9698,-36.6823,1397.1664],[-70.0063,-36.6706,1435.6876],[-70.0134,-36.6661,1198.0801],[-70.0317,-36.6499,1291.2496],[-70.0563,-36.6405,1154.1188],[-70.063,-36.6327,1161.7063],[-70.0781,-36.6056,1184.8143],[-70.0842,-36.5973,1302.683],[-70.1169,-36.5755,1263.8419],[-70.1247,-36.5681,1252.8718],[-70.1304,-36.5595,1509.9609],[-70.1361,-36.5431,1324.1562],[-70.1617,-36.51,1477.2415],[-70.1821,-36.4922,1416.1284],[-70.1874,-36.4807,1420.2183],[-70.1902,-36.4662,1425.9531],[-70.2007,-36.4515,1426.1797],[-70.2022,-36.4418,1462.5664],[-70.1932,-36.4318,1501.6666],[-70.192,-36.4273,1435.324],[-70.1945,-36.4201,1477.2354],[-70.2041,-36.4076,1428.8711],[-70.2102,-36.3964,1489.4727],[-70.2111,-36.3892,1432.7565],[-70.2099,-36.3746,1446.7609],[-70.2151,-36.3632,1441.5251],[-70.2145,-36.346,1452.589],[-70.2207,-36.3378,1535.4932],[-70.228,-36.3331,1685.8911],[-70.2391,-36.3294,1565.3376],[-70.2695,-36.3265,1640.4634],[-70.2833,-36.3297,1592.4771],[-70.2909,-36.3377,1604.5481],[-70.3005,-36.344,1672.5995],[-70.3096,-36.3446,1653.5964],[-70.3388,-36.3392,1637.1064],[-70.3532,-36.3305,1754.1974],[-70.365,-36.3194,1881.6146],[-70.3808,-36.2876,1822.3301],[-70.3845,-36.2758,1821.1228],[-70.3863,-36.2613,1850.282],[-70.3853,-36.2418,1944.2222],[-70.3931,-36.2233,2014.0457],[-70.399,-36.2043,2039.0872],[-70.399,-36.1995,2163.884],[-70.3936,-36.188,2171.5151],[-70.3924,-36.1809,2186.6309],[-70.3951,-36.1395,2180.3445],[-70.403,-36.1105,2510.6265],[-70.4057,-36.1064,2650.4729],[-70.4123,-36.1031,2681.3391],[-70.4132,-36.1075,2700.7073],[-70.415,-36.1077,2699.8416],[-70.4159,-36.1121,2704.2705],[-70.42,-36.1151,2735.6711],[-70.4215,-36.1205,2741.5034],[-70.4223,-36.1252,2782.522],[-70.4186,-36.1302,2826.5564],[-70.4178,-36.1377,2827.6914],[-70.4214,-36.1432,2826.4932],[-70.421,-36.156,2692.2036],[-70.4421,-36.1636,2901.7522],[-70.4447,-36.1701,3018.2698],[-70.4483,-36.1725,3048.0754],[-70.4697,-36.1719,2746.5493],[-70.4817,-36.1748,2583.7954],[-70.4886,-36.1783,2763.9849],[-70.4924,-36.1775,2930.4673],[-70.4988,-36.1703,3017.8984],[-70.5073,-36.1675,2941.355],[-70.5075,-36.1618,2993.1941],[-70.51,-36.1566,2919.5518],[-70.5186,-36.1518,2957.5828],[-70.5227,-36.152,3099.4136],[-70.5235,-36.1472,3084.7905],[-70.5291,-36.144,2907.6284],[-70.5359,-36.1417,2957.8562],[-70.5448,-36.1426,2828.7983],[-70.5524,-36.1385,2828.9866],[-70.5567,-36.1392,2854.1604],[-70.5612,-36.1379,2874.624],[-70.5635,-36.1343,2948.9983],[-70.5669,-36.1328,2933.9414],[-70.5705,-36.1333,2986.7925],[-70.5722,-36.1363,2985.0254],[-70.5768,-36.1385,2868.5166],[-70.582,-36.1437,2918.8318],[-70.583,-36.1477,2973.5684],[-70.579,-36.1561,2898.6689],[-70.5731,-36.1578,2968.0193],[-70.575,-36.1634,3041.7612],[-70.5713,-36.1702,2770.1492],[-70.571,-36.175,2942.6733],[-70.583,-36.1823,2871.1548],[-70.5861,-36.1892,2973.1343],[-70.5941,-36.1895,2793.9756],[-70.605,-36.1962,2709.9893],[-70.6072,-36.2071,2844.4097],[-70.6118,-36.2074,2843.5579],[-70.6133,-36.2101,2809.1912],[-70.6274,-36.2124,2872.4712],[-70.632,-36.2162,2961.3767],[-70.6323,-36.2174,2945.7429],[-70.6262,-36.2227,2969.0723],[-70.6245,-36.227,2921.949],[-70.6318,-36.2386,2811.0942],[-70.6393,-36.2433,2939.1321],[-70.6552,-36.2406,2787.8821],[-70.6659,-36.2428,2788.1323],[-70.6727,-36.249,2732.2749],[-70.6779,-36.2498,2626.9824],[-70.681,-36.2559,2573.9558],[-70.6887,-36.2567,2629.075],[-70.6914,-36.2613,2778.3572],[-70.7056,-36.272,2925.3577],[-70.7032,-36.2797,2997.811],[-70.6932,-36.2797,2801.3105],[-70.6854,-36.2837,2855.4839],[-70.6841,-36.2889,2757.3999],[-70.6882,-36.3003,2831.1851],[-70.685,-36.301,2816.2939],[-70.6837,-36.3048,2824.8721],[-70.6867,-36.3107,2854.1772],[-70.69,-36.3111,2824.1824],[-70.7021,-36.3212,2812.8462],[-70.7011,-36.3246,2821.1855],[-70.704,-36.335,2704.2832],[-70.7116,-36.3399,2904.0312],[-70.7111,-36.3448,2866.5493],[-70.7077,-36.3499,2784.9312],[-70.7021,-36.3511,2788.6592],[-70.7012,-36.3599,2851.792],[-70.6907,-36.3609,2730.2563],[-70.6878,-36.3696,2735.9343],[-70.6813,-36.3719,2696.4863],[-70.6786,-36.3777,2644.7817],[-70.6794,-36.3851,2642.0093],[-70.6777,-36.3887,2615.7891],[-70.6806,-36.394,2653.7629],[-70.6875,-36.4006,2504.9692],[-70.6885,-36.4078,2570.0769],[-70.6928,-36.4104,2649.002],[-70.701,-36.4102,2549.9351],[-70.7075,-36.4174,2373.4553],[-70.7124,-36.4269,2579.0598],[-70.7389,-36.4292,2622.2236],[-70.7394,-36.4242,2620.2405],[-70.7352,-36.4154,2623.428],[-70.74,-36.4079,2727.1423],[-70.7465,-36.4058,2791.2896],[-70.7554,-36.4088,2642.3765],[-70.7622,-36.4211,2391.6694],[-70.7723,-36.4284,2570.9106],[-70.7886,-36.4287,2765.3525],[-70.7913,-36.4275,2742.0737],[-70.7943,-36.4193,2616.4463],[-70.8077,-36.4029,2331.4172],[-70.8174,-36.396,2429.9629],[-70.8325,-36.4056,2262.3936],[-70.8359,-36.4148,2237.261],[-70.8453,-36.4165,2221.7021],[-70.8451,-36.4188,2189.7881],[-70.8478,-36.4185,2182.0308],[-70.8597,-36.4125,2211.0361],[-70.8695,-36.4102,2227.5747],[-70.87,-36.4041,2253.4556],[-70.8658,-36.4011,2316.7241],[-70.8644,-36.3975,2434.6055],[-70.8835,-36.3964,2489.0586],[-70.8892,-36.4005,2508.4084],[-70.8893,-36.4109,2235.7424],[-70.8875,-36.4154,2190.7461],[-70.8911,-36.4241,2348.1304],[-70.8902,-36.4352,2520.9841],[-70.887,-36.4358,2586.0503],[-70.8865,-36.4389,2569.4492],[-70.8922,-36.4453,2481.3237],[-70.8943,-36.4525,2355.5208],[-70.8868,-36.462,2439.2202],[-70.8943,-36.4719,2296.8064],[-70.9037,-36.4746,2103.188],[-70.9159,-36.4733,2219.582],[-70.9266,-36.4742,2342.387],[-70.9292,-36.4777,2317.1155],[-70.9275,-36.4842,2416.9094],[-70.9322,-36.4872,2389.2197],[-70.9341,-36.4917,2387.2607],[-70.9445,-36.4915,2306.552],[-70.9484,-36.4945,2213.8059],[-70.9479,-36.4975,2215.0649],[-70.9516,-36.4971,2260.8586],[-70.9538,-36.502,2179.3442],[-70.9589,-36.5035,2274.679],[-70.9748,-36.502,2307.8677],[-70.9772,-36.4954,2364.6384],[-70.9795,-36.4937,2409.1553],[-70.9893,-36.496,2391.2588],[-70.9971,-36.4868,2315.9836],[-71.0043,-36.4878,2339.9766],[-71.0095,-36.4868,2425.595],[-71.0194,-36.4734,2375.6152],[-71.0272,-36.4717,2251.855],[-71.0356,-36.4745,2359.6172],[-71.0383,-36.4781,2313.6941],[-71.0358,-36.4939,2265.8843],[-71.0392,-36.5002,2319.0098],[-71.0367,-36.5032,2208.5383],[-71.0353,-36.5101,2165.969],[-71.0433,-36.5148,2220.0283],[-71.0467,-36.5212,2098.7578],[-71.0508,-36.5244,2099.1333],[-71.0461,-36.5339,2103.8906],[-71.0462,-36.5373,1977.3918],[-71.0437,-36.5404,1888.3218],[-71.0439,-36.5463,2119.8743],[-71.0408,-36.5501,2112.9402],[-71.044,-36.5565,2173.6113],[-71.049,-36.5589,2151.4756],[-71.0506,-36.5649,2056.042],[-71.0558,-36.567,2079.8049],[-71.0537,-36.5712,2052.998],[-71.0548,-36.5764,2089.0186],[-71.0478,-36.58,1919.3921],[-71.0462,-36.5828,1867.3728],[-71.0484,-36.5883,1856.1135],[-71.046,-36.5956,1991.1727],[-71.0489,-36.5984,1949.9856],[-71.0483,-36.6081,1852.3276],[-71.0575,-36.6182,1993.8146],[-71.0492,-36.6221,1974.941],[-71.0453,-36.6264,1936.8577],[-71.0424,-36.6363,2044.7382],[-71.0419,-36.6429,1932.7501],[-71.0436,-36.6452,1983.8441],[-71.0407,-36.6487,1999.9594],[-71.0285,-36.6512,2084.4629],[-71.0291,-36.657,2006.5898],[-71.0273,-36.6635,2002.5764],[-71.011,-36.6647,2218.3101],[-71.0134,-36.6732,2224.0901],[-71.0105,-36.6808,2252.9016],[-71.0074,-36.683,2293.4487],[-71.0096,-36.688,2187.3279],[-71.009,-36.6909,2211.291],[-71.0138,-36.6977,2099.0935],[-71.023,-36.6983,1859.3113],[-71.0307,-36.7026,1744.5817],[-71.0408,-36.7035,1802.5402],[-71.0548,-36.7073,2012.8096],[-71.0592,-36.7131,2326.2117],[-71.0662,-36.7145,2505.1047],[-71.0713,-36.7076,2373.946],[-71.0759,-36.7072,2408.645],[-71.0776,-36.7051,2342.9624],[-71.0783,-36.6987,2293.3679],[-71.0804,-36.6958,2202.9937],[-71.0788,-36.6898,2298.8843],[-71.0849,-36.6816,2222.8838],[-71.086,-36.6778,2304.2983],[-71.0925,-36.6787,2128.1628],[-71.1061,-36.6767,2411.8491],[-71.1133,-36.6799,2553.6182],[-71.1155,-36.6869,2513.4802],[-71.1148,-36.6918,2576.1797],[-71.1197,-36.6995,2583.5449],[-71.116,-36.7055,2511.5596],[-71.1165,-36.7092,2511.3701],[-71.1123,-36.7138,2464.7864],[-71.114,-36.7181,2445.0391],[-71.1116,-36.7277,2376.8633],[-71.1208,-36.741,2322.1084],[-71.1182,-36.7483,2245.1987],[-71.1193,-36.7551,2299.4609],[-71.122,-36.7582,2319.0583],[-71.1253,-36.7593,2351.4355],[-71.1284,-36.7639,2261.2073],[-71.1275,-36.7665,2261.2744],[-71.1299,-36.7786,2145.6831],[-71.1282,-36.7916,2048.1045],[-71.1334,-36.8087,2112.5112],[-71.1322,-36.8142,2068.3152],[-71.1421,-36.8185,2023.3279],[-71.1445,-36.8243,1952.8275],[-71.1515,-36.826,1856.7488],[-71.1574,-36.8255,1828.4462],[-71.1616,-36.8201,2055.0422],[-71.1647,-36.8201,2170.4568],[-71.1672,-36.8229,2184.0186],[-71.1694,-36.8307,2262.2451],[-71.1744,-36.8347,2422.7717],[-71.175,-36.8379,2417.8701],[-71.1797,-36.8413,2375.5779],[-71.1797,-36.8439,2360.7358],[-71.1719,-36.8518,2302.9275],[-71.1678,-36.8588,2294.8047],[-71.163,-36.8614,2439.3376],[-71.152,-36.859,2311.3213],[-71.1467,-36.8549,2358.8125],[-71.1389,-36.8535,2283.272],[-71.1268,-36.8584,2144.1785],[-71.1221,-36.8636,2521.0144],[-71.1228,-36.8667,2492.0669],[-71.1205,-36.869,2583.4307],[-71.13,-36.8738,2137.3584],[-71.1357,-36.8894,2028.0782],[-71.1395,-36.8921,1962.4268],[-71.1401,-36.8962,1906.1842],[-71.1501,-36.9016,2007.1931],[-71.1488,-36.9152,2174.8672],[-71.1442,-36.9201,2076.3394],[-71.1447,-36.9291,2044.4272],[-71.1346,-36.9306,1837.6255],[-71.1278,-36.9285,2104.8608],[-71.1213,-36.932,1961.7357],[-71.1167,-36.9299,1984.2521],[-71.113,-36.925,2190.186],[-71.105,-36.9292,2187.4976],[-71.0953,-36.9251,2329.5935],[-71.0887,-36.928,2202.8599],[-71.0873,-36.9337,2116.2275],[-71.088,-36.9394,2236.7715],[-71.097,-36.9507,2384.01],[-71.1001,-36.9571,2354.9883],[-71.1,-36.9647,2286.6597],[-71.1055,-36.9708,2162.3457],[-71.1168,-36.9682,1889.3416],[-71.128,-36.9724,1792.7114],[-71.1289,-36.9775,1937.281],[-71.1472,-36.9814,2100.9258],[-71.1683,-36.9769,2242.8406],[-71.1744,-36.9679,2436.7673],[-71.1868,-36.9683,2415.3271],[-71.2041,-36.9749,2543.2212],[-71.2181,-36.9731,2928.2529],[-71.2207,-36.9744,2938.75],[-71.2224,-36.9779,3024.7468],[-71.221,-36.9787,2992.4412],[-71.2215,-36.9821,2842.3721],[-71.217,-36.9827,2689.3491],[-71.2141,-36.9861,2802.866],[-71.2068,-36.9855,2593.2095],[-71.1984,-36.9871,2633.9585],[-71.188,-36.9964,2859.1526],[-71.1801,-36.9951,2654.8342],[-71.1672,-36.9973,2483.9529],[-71.1667,-37.0055,2425.9346],[-71.1582,-37.0085,2394.4819],[-71.1589,-37.0112,2394.4412],[-71.1555,-37.0129,2353.6909],[-71.1553,-37.0172,2319.498],[-71.1486,-37.0214,2220.5161],[-71.1474,-37.028,2103.9556],[-71.1431,-37.0316,2228.9041],[-71.1419,-37.0398,2551.5544],[-71.1372,-37.0528,2398.4321],[-71.144,-37.0615,2500.6624],[-71.1442,-37.0628,2500.6624],[-71.1404,-37.0643,2383.04],[-71.1409,-37.0691,2291.4827],[-71.1358,-37.0719,2243.0562],[-71.1285,-37.0696,2219.7095],[-71.1211,-37.0726,2297.8953],[-71.1199,-37.0745,2312.0623],[-71.1222,-37.08,2382.792],[-71.1214,-37.0832,2465.3638],[-71.1233,-37.0897,2459.8252],[-71.1207,-37.0919,2430.7256],[-71.1115,-37.0948,2294.7349],[-71.1054,-37.1055,2512.3218],[-71.0964,-37.1091,2553.2712],[-71.0925,-37.1149,2668.2983],[-71.0927,-37.1208,2712.9832],[-71.0957,-37.1256,2644.782],[-71.102,-37.1278,2501.2983],[-71.1091,-37.1335,2421.5156],[-71.1239,-37.1352,2366.2881],[-71.1263,-37.1392,2351.5857],[-71.1345,-37.1423,2531.2495],[-71.1334,-37.1443,2478.4519],[-71.1354,-37.1468,2380.3625],[-71.1358,-37.1631,2257.7385],[-71.1282,-37.1766,2159.9761],[-71.1267,-37.1907,2119.7117],[-71.118,-37.1979,1997.9939],[-71.1144,-37.2041,1901.8978],[-71.1149,-37.2067,1911.9371],[-71.1215,-37.212,1944.1512],[-71.1412,-37.2201,1776.4453],[-71.1491,-37.2204,1791.2944],[-71.1644,-37.2257,1966.8053],[-71.1697,-37.2251,2019.0211],[-71.1641,-37.2294,1913.4353],[-71.1575,-37.2302,1867.9731],[-71.1555,-37.234,1859.6122],[-71.1623,-37.2469,1847.863],[-71.1721,-37.2521,1810.2993],[-71.1741,-37.2604,2110.9492],[-71.1791,-37.2584,2109.8208],[-71.1847,-37.2596,2106.9146],[-71.1841,-37.2678,1918.2856],[-71.1865,-37.2695,1896.717],[-71.1874,-37.2763,2095.1675],[-71.2138,-37.2723,2220.1836],[-71.2179,-37.2726,2222.5305],[-71.2207,-37.2749,2247.5427],[-71.2156,-37.2794,2066.0591],[-71.2146,-37.2839,1972.193],[-71.2173,-37.2941,2016.9496],[-71.2164,-37.3038,2250.0437],[-71.2108,-37.3098,2207.8489],[-71.2106,-37.3169,2172.2539],[-71.2068,-37.3193,2253.9749],[-71.2072,-37.3259,2214.6213],[-71.2055,-37.3317,2143.6084],[-71.2079,-37.3384,2131.6191],[-71.1952,-37.3427,1834.6473],[-71.1935,-37.3502,1814.7537],[-71.1879,-37.3528,1850.2683],[-71.1864,-37.3558,1912.6431],[-71.1909,-37.3623,2003.6677],[-71.2019,-37.3655,2128.7676],[-71.1982,-37.3738,2156.0325],[-71.1993,-37.3812,2163.3701],[-71.1965,-37.3845,2191.3638],[-71.1907,-37.3854,2203.0583],[-71.1881,-37.393,1915.8541],[-71.1819,-37.3961,1910.5725],[-71.164,-37.3994,2157.1978],[-71.1585,-37.3968,2222.988],[-71.1518,-37.4022,2098.4834],[-71.1506,-37.4145,1957.0695],[-71.1488,-37.421,2087.4326],[-71.1459,-37.4249,2018.6184],[-71.1474,-37.4295,2020.5667],[-71.1438,-37.4324,1950.7113],[-71.1413,-37.4419,1879.266],[-71.1389,-37.4448,1920.3538],[-71.1291,-37.4477,2056.5244],[-71.1267,-37.4519,2100.3508],[-71.1202,-37.4573,2157.3398],[-71.1185,-37.4688,2044.1609],[-71.1207,-37.474,2177.4875],[-71.1198,-37.4865,2179.0923],[-71.1175,-37.4885,2189.9189],[-71.118,-37.4915,2070.2205],[-71.1241,-37.4967,2126.6675],[-71.1226,-37.5047,2013.9634],[-71.1281,-37.5105,2059.2305],[-71.1326,-37.5292,2041.3401],[-71.1436,-37.5358,2045.0437],[-71.1485,-37.5368,2077.1128],[-71.1499,-37.5393,2166.9067],[-71.147,-37.5423,2169.5662],[-71.1371,-37.5459,2095.8389],[-71.1363,-37.55,2031.9656],[-71.1332,-37.5524,1961.7753],[-71.1335,-37.5636,2030.2859],[-71.1313,-37.5686,2057.0015],[-71.1275,-37.5697,2090.303],[-71.1259,-37.5814,2198.1206],[-71.1277,-37.5872,2093.4163],[-71.1337,-37.5917,2080.8062],[-71.1373,-37.5991,2148.6648],[-71.1469,-37.6091,2157.6978],[-71.1627,-37.614,2361.5444],[-71.1702,-37.6118,2309.7231],[-71.1762,-37.6146,2183.8538],[-71.192,-37.6292,2399.8235],[-71.1939,-37.6364,2425.8999],[-71.1985,-37.6445,2331.7422],[-71.2073,-37.6483,2409.1541],[-71.2011,-37.6518,2363.6023],[-71.1989,-37.6645,2272.2544],[-71.2046,-37.6787,1975.864],[-71.2111,-37.6876,1969.9408],[-71.2093,-37.6922,2070.1472],[-71.2093,-37.6984,2197.2922],[-71.1945,-37.71,1939.1926],[-71.1883,-37.7126,1868.9135],[-71.1892,-37.7228,1904.9905],[-71.1848,-37.7269,1959.5925],[-71.185,-37.7342,2179.4189],[-71.1831,-37.7371,2172.0022],[-71.1781,-37.7413,2066.8374],[-71.1661,-37.7475,2300.8389],[-71.1623,-37.7551,2356.572],[-71.1557,-37.757,2439.5815],[-71.158,-37.7655,2410.9709],[-71.1565,-37.7709,2361.8232],[-71.1707,-37.7805,2418.1404],[-71.1696,-37.7839,2363.0425],[-71.1645,-37.7888,2191.6602],[-71.1585,-37.7902,1963.2664],[-71.1565,-37.7963,2053.8586],[-71.1516,-37.8026,2100.229],[-71.1531,-37.8099,2256.7483],[-71.1394,-37.8169,2294.2065],[-71.1281,-37.8177,2316.7227],[-71.1255,-37.8219,2111.9517],[-71.1303,-37.8324,2079.3489],[-71.1399,-37.8369,2143.7305],[-71.1518,-37.8375,2364.2729],[-71.1592,-37.8399,2487.2083],[-71.1623,-37.8499,2766.9919],[-71.1658,-37.854,2852.8264],[-71.1721,-37.8572,2913.5413],[-71.1816,-37.8557,2912.9749],[-71.1835,-37.858,2967.4517],[-71.1701,-37.862,2931.1355],[-71.1582,-37.8577,2757.1184],[-71.1408,-37.8592,2380.0337],[-71.1343,-37.8634,2280.2705],[-71.1315,-37.8686,2251.5271],[-71.1274,-37.8713,2173.2607],[-71.1256,-37.8788,2004.7083],[-71.1167,-37.8861,2102.9504],[-71.1072,-37.8911,2301.6995],[-71.1081,-37.8953,2303.2515],[-71.1058,-37.9005,2373.6736],[-71.0993,-37.9017,2436.9968],[-71.1064,-37.9073,2373.4792],[-71.1106,-37.9185,2396.3704],[-71.1139,-37.9203,2393.0522],[-71.1101,-37.9232,2364.0979],[-71.1108,-37.9276,2338.2939],[-71.1086,-37.9297,2292.1299],[-71.1081,-37.9334,2297.7402],[-71.1087,-37.9386,2300.6331],[-71.1124,-37.9434,2322.21],[-71.1142,-37.9517,2323.2722],[-71.104,-37.9543,2105.4897],[-71.0918,-37.9646,2077.0713],[-71.0888,-37.9633,2055.3647],[-71.0777,-37.9636,1878.0867],[-71.0618,-37.9705,2062.6826],[-71.0674,-37.9776,1956.4017],[-71.0676,-37.9892,1948.9069],[-71.0652,-37.9923,1919.7521],[-71.0586,-37.994,2003.0236],[-71.0513,-37.9917,2056.5784],[-71.054,-37.9986,1982.8403],[-71.0605,-38.0015,1987.4045],[-71.0584,-38.0093,2000.895],[-71.064,-38.0172,1968.7332],[-71.0587,-38.02,1921.504],[-71.0572,-38.0235,1904.4952],[-71.0525,-38.025,1972.666],[-71.0518,-38.0271,1977.6523],[-71.0507,-38.0351,2032.8024],[-71.0527,-38.0422,2123.9597],[-71.0561,-38.0437,2222.647],[-71.0557,-38.0446,2180.2886],[-71.0508,-38.0474,2228.3296],[-71.0463,-38.0549,2318.4114],[-71.0391,-38.0553,2208.2947],[-71.0265,-38.0618,2231.9304],[-71.0152,-38.0729,2339.1538],[-71.0153,-38.0765,2253.0132],[-71.0136,-38.0791,2208.3728],[-71.0089,-38.081,2234.9888],[-71.0004,-38.0809,2216.0374],[-70.9928,-38.0829,2389.9163],[-70.989,-38.0879,2346.812],[-70.9833,-38.1052,2387.6335],[-70.9906,-38.1109,2207.9141],[-70.9999,-38.1112,2119.9241],[-71.0097,-38.1137,1859.1285],[-71.0239,-38.1129,2068.0818],[-71.0371,-38.1174,2348.1265],[-71.0365,-38.1192,2366.8887],[-71.0392,-38.1216,2380.3955],[-71.0439,-38.1228,2381.5242],[-71.03,-38.1338,2274.8645],[-71.0235,-38.1441,2253.4365],[-71.0248,-38.1497,2121.2131],[-71.0106,-38.1537,2217.6274],[-71.0097,-38.1627,2178.3311],[-70.9956,-38.1707,2109.1411],[-70.9968,-38.2026,2209.3037],[-71.0011,-38.2106,2243.1831],[-71.0153,-38.2105,2252.8948],[-71.021,-38.2142,2209.4392],[-71.0154,-38.2264,2323.9624],[-71.0178,-38.2319,2309.2048],[-71.0177,-38.2388,2324.3672],[-71.0225,-38.245,2573.8765],[-71.0326,-38.2495,2633.2422],[-71.0093,-38.2624,2076.2307],[-71.0103,-38.2704,1805.5562],[-71.0087,-38.278,1739.3364],[-71.0099,-38.282,1847.6177],[-70.997,-38.2915,2081.7332],[-70.9971,-38.2978,2297.4749],[-70.9994,-38.3042,2383.6467],[-71.0031,-38.3075,2489.1797],[-71.0026,-38.3247,2170.0032],[-70.9997,-38.3283,2236.5242],[-70.9958,-38.342,2411.7295],[-70.9966,-38.3555,2396.6477],[-70.9863,-38.3606,2312.0908],[-70.9821,-38.3649,2298.1509],[-70.9863,-38.3753,2303.5854],[-70.984,-38.3874,2367.6729],[-70.9858,-38.3993,2218.7842],[-70.9799,-38.4147,2262.1963],[-70.9838,-38.4307,2147.2866],[-70.9801,-38.4345,2134.7708],[-70.9772,-38.4433,2206.3711],[-70.9722,-38.4447,2177.572],[-70.9689,-38.4421,2158.5027],[-70.9574,-38.4444,2089.4138],[-70.9463,-38.4567,2093.085],[-70.944,-38.4623,2110.7607],[-70.9282,-38.4736,2188.0466],[-70.9276,-38.4845,2250.3728],[-70.9208,-38.4912,2136.0569],[-70.9115,-38.4973,2198.1729],[-70.9103,-38.5039,2274.9915],[-70.8982,-38.5094,2435.9502],[-70.8751,-38.5112,2433.1353],[-70.8666,-38.5143,2580.7349],[-70.8638,-38.5168,2697.8167],[-70.8638,-38.5252,2574.5635],[-70.8473,-38.5346,2387.5979],[-70.8417,-38.5395,2353.5378],[-70.8357,-38.5536,2305.4792],[-70.8374,-38.5587,2091.3696],[-70.8332,-38.569,2056.7734],[-70.8368,-38.5782,2220.7988],[-70.8357,-38.5862,2302.4058],[-70.833,-38.5885,2386.7266],[-70.8294,-38.5887,2360.731],[-70.8274,-38.596,2263.1833],[-70.8304,-38.6009,2209.6875],[-70.8353,-38.6036,2169.7363],[-70.834,-38.6092,2111.8936],[-70.836,-38.6123,2129.4138],[-70.8516,-38.6178,2035.733],[-70.8612,-38.6241,2055.0481],[-70.866,-38.6336,2140.7134],[-70.873,-38.6395,2127.0854],[-70.8808,-38.6409,2057.6824],[-70.885,-38.6433,2039.1588],[-70.8911,-38.6524,2002.2332],[-70.8957,-38.6557,1998.1737],[-70.8966,-38.6635,1888.4906],[-70.9033,-38.6678,1993.9741],[-70.9025,-38.67,1947.9935],[-70.9059,-38.6761,2023.3813],[-70.9022,-38.6785,1925.6941],[-70.899,-38.6902,1998.2118],[-70.8926,-38.6956,2050.2498],[-70.8849,-38.6971,2046.0317],[-70.8835,-38.7018,1939.0359],[-70.8881,-38.7073,1773.9038],[-70.8867,-38.7121,1868.0289],[-70.8905,-38.7204,2032.6497],[-70.8968,-38.7215,1973.9817],[-70.9055,-38.7285,1884.2758],[-70.9134,-38.748,1862.072],[-70.9251,-38.7635,1797.0775],[-70.9521,-38.7612,1789.272],[-70.9638,-38.7635,1802.98],[-70.9678,-38.7632,1805.0498],[-70.9742,-38.7595,1755.0963],[-70.987,-38.7637,1764.3944],[-70.9943,-38.7636,1783.5186],[-71.0024,-38.7693,1753.7767],[-71.0229,-38.7598,1676.8527],[-71.0512,-38.7578,1585.8284],[-71.0587,-38.7596,1415.4878],[-71.0615,-38.7636,1348.2285],[-71.069,-38.769,1387.7153],[-71.0778,-38.7661,1393.99],[-71.0837,-38.7601,1383.3539],[-71.0914,-38.7552,1397.2563],[-71.0957,-38.7549,1409.884],[-71.0982,-38.7575,1433.6138],[-71.0969,-38.7613,1422.3416],[-71.0978,-38.7635,1418.1733],[-71.105,-38.7683,1420.4749],[-71.1074,-38.7714,1440.7656],[-71.1077,-38.7745,1434.7793],[-71.116,-38.7746,1435.2891],[-71.1186,-38.7769,1448.2155],[-71.1163,-38.7794,1463.9819],[-71.1184,-38.7811,1468.2102],[-71.1238,-38.7772,1453.915],[-71.1346,-38.7815,1484.3855],[-71.1421,-38.7947,1552.1965],[-71.1504,-38.7998,1585.293],[-71.1742,-38.8002,1728.5691],[-71.1812,-38.8028,1892.0378],[-71.1839,-38.8063,1910.1448],[-71.1859,-38.8145,1947.6934],[-71.2118,-38.8164,1710.7244],[-71.2315,-38.8094,1460.2169],[-71.2345,-38.8072,1439.9204],[-71.2358,-38.803,1468.5311],[-71.2385,-38.8022,1483.709],[-71.2412,-38.8093,1397.2228],[-71.2513,-38.8158,1547.0397],[-71.2586,-38.815,1665.3984],[-71.2604,-38.8235,1440.0739],[-71.266,-38.826,1354.9285],[-71.2693,-38.8357,1316.2812],[-71.2685,-38.8408,1341.4902],[-71.2645,-38.8473,1395.476],[-71.2669,-38.8492,1349.8328],[-71.2677,-38.8527,1478.7522],[-71.2747,-38.8545,1591.3392],[-71.2782,-38.8588,1500.7461],[-71.2845,-38.8571,1411.8983],[-71.2854,-38.8638,1420.4468],[-71.2958,-38.8719,1611.4246],[-71.3076,-38.8747,1776.1697],[-71.3144,-38.8796,1818.1215],[-71.3217,-38.8801,1884.4929],[-71.3287,-38.8744,1940.7565],[-71.3389,-38.8771,1984.5276],[-71.3497,-38.8847,2061.9851],[-71.3629,-38.8913,2002.4495],[-71.374,-38.9061,1905.5231],[-71.3799,-38.9053,1844.7028],[-71.3811,-38.9081,1844.1405],[-71.3837,-38.9089,1837.804],[-71.3907,-38.9072,1798.401],[-71.3943,-38.9096,1819.6438],[-71.3931,-38.911,1819.6438],[-71.3984,-38.9155,1840.7095],[-71.4105,-38.9197,1724.5193],[-71.4132,-38.9229,1892.7086],[-71.4247,-38.9214,1950.7382],[-71.4335,-38.9291,1758.2484],[-71.4329,-38.934,1659.0515],[-71.4387,-38.9422,1800.3274],[-71.4353,-38.9465,1719.9795],[-71.4376,-38.9531,1671.5341],[-71.4363,-38.9582,1646.3254],[-71.4323,-38.9618,1596.4729],[-71.4335,-38.9653,1500.2175],[-71.4317,-38.967,1485.2925],[-71.433,-38.969,1473.9326],[-71.4327,-38.9761,1631.7686],[-71.4329,-38.9773,1722.1147],[-71.4405,-38.9779,1868.8997],[-71.4354,-38.9865,1700.1122],[-71.4273,-38.9928,1510.2526],[-71.4279,-38.9984,1416.6522],[-71.4262,-39.0023,1391.5613],[-71.4138,-39.0083,1691.9436],[-71.416,-39.0146,1735.6371],[-71.4211,-39.0195,1823.2849],[-71.4215,-39.0256,1956.2596],[-71.4015,-39.0371,1773.8867],[-71.3972,-39.046,1907.3672],[-71.4075,-39.0522,1414.1472],[-71.4096,-39.0557,1318.4135],[-71.409,-39.0584,1357.9364],[-71.4147,-39.0633,1553.3528],[-71.4181,-39.0702,1827.1388],[-71.4136,-39.0769,1821.2477],[-71.4124,-39.087,1830.7014],[-71.4073,-39.0971,1674.1997],[-71.4178,-39.1151,1198.2683],[-71.4146,-39.1195,1130.2528],[-71.4197,-39.1255,1264.7982],[-71.4183,-39.1294,1219.8302],[-71.4116,-39.1377,1488.3381],[-71.4114,-39.1411,1598.6355],[-71.4212,-39.1512,1765.0447],[-71.4117,-39.1639,1779.9778],[-71.401,-39.1664,1969.777],[-71.3999,-39.1729,1930.2205],[-71.3964,-39.1753,1974.9615],[-71.3986,-39.1861,1848.9917],[-71.3941,-39.1882,1887.6809],[-71.395,-39.1937,1798.869],[-71.3862,-39.2014,1664.0858],[-71.3822,-39.2099,1454.7111],[-71.3811,-39.215,1470.3163],[-71.3822,-39.2166,1498.2631],[-71.3908,-39.2155,1736.6318],[-71.3918,-39.2166,1726.2896],[-71.39,-39.2251,1658.8965],[-71.3858,-39.2301,1717.0215],[-71.387,-39.2327,1771.9271],[-71.3819,-39.2372,1852.0159],[-71.3856,-39.2451,1467.9781],[-71.3897,-39.2467,1508.5691],[-71.3919,-39.2499,1740.6008],[-71.3905,-39.2549,1792.6877],[-71.3913,-39.2588,1839.8645],[-71.3884,-39.2657,1848.7456],[-71.3752,-39.2689,1839.2645],[-71.3737,-39.2824,1748.5198],[-71.375,-39.2854,1789.571],[-71.3818,-39.284,1613.6221],[-71.3889,-39.2889,1732.1899],[-71.3952,-39.3026,1580.8369],[-71.3854,-39.3185,1343.955],[-71.3946,-39.3229,1151.5475],[-71.3961,-39.3332,1236.0421],[-71.3945,-39.3395,1276.7661],[-71.3994,-39.3497,1454.678],[-71.4047,-39.3523,1474.3494],[-71.4096,-39.3516,1542.6594],[-71.4149,-39.3591,1515.0708],[-71.4222,-39.3652,1488.0835],[-71.4281,-39.3648,1524.5845],[-71.4317,-39.3681,1423.7273],[-71.4331,-39.3722,1454.3147],[-71.4415,-39.3685,1451.1298],[-71.4486,-39.3717,1525.8805],[-71.4541,-39.3697,1645.9525],[-71.4575,-39.3716,1643.9652],[-71.4549,-39.39,1458.8521],[-71.4502,-39.3948,1265.7256],[-71.4461,-39.3961,1290.5919],[-71.4439,-39.4027,1255.4885],[-71.446,-39.4095,1259.1533],[-71.4528,-39.4095,1142.4607],[-71.4554,-39.4128,1134.6526],[-71.4584,-39.4127,1210.2576],[-71.464,-39.4167,1445.5598],[-71.4613,-39.4232,1454.0181],[-71.4512,-39.4243,1541.2836],[-71.4497,-39.4312,1308.4427],[-71.4522,-39.438,1170.0392],[-71.4492,-39.4437,1375.9286],[-71.4498,-39.4477,1520.7866],[-71.4477,-39.4507,1637.1483],[-71.4554,-39.4511,1402.1313],[-71.4627,-39.4555,1393.3771],[-71.4645,-39.46,1395.3784],[-71.4631,-39.4712,1686.3151],[-71.4693,-39.4802,1701.2794],[-71.4731,-39.492,1546.3953],[-71.4782,-39.4946,1322.2253],[-71.4891,-39.4957,1297.5156],[-71.5034,-39.5021,1732.0978],[-71.517,-39.5032,1729.7996],[-71.5192,-39.5056,1767.8496],[-71.5178,-39.511,1651.2949],[-71.5297,-39.5181,1348.8218],[-71.5315,-39.5249,1555.6504],[-71.5342,-39.5272,1616.595],[-71.5336,-39.5351,1562.0305],[-71.5109,-39.5473,1575.6079],[-71.5108,-39.5513,1546.1753],[-71.5038,-39.5588,1371.4548],[-71.4911,-39.5536,1274.4058],[-71.4842,-39.553,1344.1848],[-71.4807,-39.5504,1464.71],[-71.4702,-39.552,1533.486],[-71.4673,-39.5572,1560.9426],[-71.4742,-39.5638,1564.5433],[-71.4728,-39.5687,1484.6964],[-71.4747,-39.5732,1443.0793],[-71.4732,-39.5761,1450.0813],[-71.4618,-39.581,1217.4709],[-71.4611,-39.5834,1211.2386],[-71.4682,-39.5876,1223.0042],[-71.4774,-39.6006,1460.0801],[-71.4806,-39.6091,1863.2155],[-71.4874,-39.6118,2201.9785],[-71.4965,-39.6185,2638.6086],[-71.4993,-39.6288,3130.3877],[-71.5027,-39.6339,3496.6443],[-71.5026,-39.6371,3724.3254],[-71.5115,-39.6306,3051.7878],[-71.5228,-39.6265,2493.7722],[-71.5432,-39.6236,1894.9067],[-71.5528,-39.625,1768.2255],[-71.5587,-39.6277,1693.8018],[-71.5636,-39.6328,1559.5773],[-71.5753,-39.6358,1471.4231],[-71.5842,-39.632,1623.1173],[-71.5935,-39.6299,1471.2029],[-71.5969,-39.6307,1419.5978],[-71.5997,-39.6282,1415.6349],[-71.6084,-39.6285,1766.4928],[-71.614,-39.6244,1672.4534],[-71.6136,-39.6166,1789.9955],[-71.6111,-39.6137,1786.7773],[-71.6151,-39.6101,1689.887],[-71.6176,-39.5986,1437.5958],[-71.6233,-39.5962,1551.2411],[-71.6232,-39.5928,1761.4686],[-71.635,-39.5859,1875.8425],[-71.645,-39.5881,1885.6005],[-71.6555,-39.5877,1945.1755],[-71.6586,-39.5793,1790.0669],[-71.6715,-39.5698,1835.0134],[-71.6734,-39.5638,1933.7816],[-71.6833,-39.5679,1858.781],[-71.6887,-39.5755,1721.3748],[-71.6886,-39.5801,1653.6423],[-71.6902,-39.5829,1681.3314],[-71.6981,-39.5881,1571.7739],[-71.6947,-39.5934,1518.7355],[-71.6989,-39.5973,1546.2451],[-71.6954,-39.6043,1492.6047],[-71.6959,-39.6119,1431.5194],[-71.6981,-39.6152,1430.6304],[-71.6941,-39.6203,1321.2899],[-71.6942,-39.6234,1258.088],[-71.6997,-39.6304,1359.7186],[-71.6993,-39.6337,1378.0833],[-71.7042,-39.6324,1369.553],[-71.7162,-39.6346,1545.8804],[-71.7171,-39.6376,1568.1406],[-71.7147,-39.6408,1592.6682],[-71.7158,-39.6494,1484.3668],[-71.7053,-39.6529,1622.6707],[-71.6986,-39.6601,1552.9355],[-71.6935,-39.6579,1579.7416],[-71.6917,-39.6725,1530.6688],[-71.6862,-39.679,1463.1785],[-71.6729,-39.6781,1861.7695],[-71.6692,-39.6824,1731.746],[-71.6714,-39.6927,1783.447],[-71.6851,-39.6917,1488.3329],[-71.6932,-39.6958,1547.551],[-71.6997,-39.6932,1599.8687],[-71.704,-39.695,1677.5663],[-71.7048,-39.696,1677.5663],[-71.7025,-39.6986,1753.438],[-71.7033,-39.7019,1782.7925],[-71.6994,-39.7028,1725.1917],[-71.6937,-39.7073,1734.2057],[-71.6975,-39.7104,1694.7649],[-71.7009,-39.7105,1664.8892],[-71.7037,-39.7178,1474.5785],[-71.7037,-39.7225,1531.6146],[-71.7122,-39.7246,1834.0281],[-71.7082,-39.7331,1635.6128],[-71.7077,-39.7384,1525.9104],[-71.7025,-39.7453,1472.3943],[-71.6855,-39.7564,1691.3121],[-71.6804,-39.7659,1639.9001],[-71.6803,-39.7701,1653.0547],[-71.6843,-39.7751,1463.3975],[-71.6844,-39.7776,1413.5175],[-71.6804,-39.7808,1318.6909],[-71.6804,-39.7873,1195.1433],[-71.6776,-39.7959,1289.1921],[-71.6833,-39.8013,1537.0188],[-71.6787,-39.805,1377.0609],[-71.673,-39.8041,1403.5638],[-71.667,-39.8076,1589.6543],[-71.6683,-39.8091,1534.5742],[-71.6778,-39.8102,1301.7213],[-71.6817,-39.8173,1296.7542],[-71.6866,-39.8223,1414.792],[-71.6922,-39.8235,1525.6141],[-71.6928,-39.826,1613.6125],[-71.6865,-39.8305,1566.7753],[-71.6863,-39.8322,1522.9213],[-71.691,-39.8402,1519.7179],[-71.6888,-39.849,1477.3346],[-71.6841,-39.857,1283.0089],[-71.6703,-39.8639,1197.9526],[-71.6618,-39.8611,1383.1982],[-71.6577,-39.8565,1459.8079],[-71.6541,-39.8549,1530.1344],[-71.6468,-39.8529,1652.7839],[-71.6417,-39.8551,1578.0842],[-71.6358,-39.8594,1679.1741],[-71.6379,-39.8712,1723.4905],[-71.6337,-39.8756,1720.1167],[-71.634,-39.8812,1704.243],[-71.6323,-39.8831,1615.7273],[-71.6282,-39.8823,1603.8889],[-71.6131,-39.875,1636.0559],[-71.6103,-39.8806,1483.718],[-71.5993,-39.8891,1634.6099],[-71.5944,-39.8951,1822.1885],[-71.5927,-39.9014,1804.1127],[-71.5968,-39.9081,1758.8217],[-71.5921,-39.9124,1815.7836],[-71.6021,-39.9152,1674.9875],[-71.6033,-39.9178,1701.2765],[-71.6038,-39.9192,1737.7529],[-71.5988,-39.9241,1919.8298],[-71.5986,-39.9293,1818.1489],[-71.6139,-39.937,1569.7611],[-71.6188,-39.9358,1610.9375],[-71.6242,-39.9383,1790.0581],[-71.6243,-39.94,1776.5699],[-71.6173,-39.9499,1592.6779],[-71.6153,-39.9578,1699.8512],[-71.6191,-39.9626,1671.8472],[-71.6201,-39.9709,1668.8533],[-71.6233,-39.9764,1659.9614],[-71.6259,-39.9767,1665.4016],[-71.6336,-39.9685,1491.8293],[-71.6401,-39.9683,1434.401],[-71.6513,-39.9729,1484.0204],[-71.6528,-39.9745,1568.5513],[-71.6537,-39.9809,1621.3812],[-71.6588,-39.9839,1564.7983],[-71.6595,-39.9872,1582.4352],[-71.6576,-39.989,1549.1406],[-71.6629,-39.9889,1574.884],[-71.6664,-39.9928,1483.4644],[-71.6701,-40.0043,1171.6143],[-71.6695,-40.016,1174.6052],[-71.6727,-40.0254,1510.9702],[-71.675,-40.0274,1546.7303],[-71.6863,-40.0301,1659.937],[-71.6878,-40.0325,1654.3193],[-71.6891,-40.0372,1664.0022],[-71.6853,-40.0417,1735.5112],[-71.6854,-40.0443,1689.8965],[-71.6709,-40.0633,1602.7031],[-71.6661,-40.0733,1329.0599],[-71.674,-40.081,1011.1844],[-71.6738,-40.0836,989.887],[-71.6675,-40.0894,912.3644],[-71.6669,-40.0921,906.5797],[-71.6694,-40.0987,722.2086],[-71.6735,-40.1014,660.8007],[-71.6739,-40.105,668.1809],[-71.6899,-40.1102,936.326],[-71.6877,-40.1134,925.7534],[-71.6984,-40.1178,916.5957],[-71.7078,-40.1115,991.1588],[-71.7195,-40.1104,1218.1779],[-71.7296,-40.1028,1411.6722],[-71.7383,-40.0994,1464.3965],[-71.7458,-40.0983,1518.0015],[-71.7509,-40.0947,1473.1677],[-71.7616,-40.0932,1564.4623],[-71.7648,-40.0907,1557.8705],[-71.7782,-40.0901,1515.1578],[-71.7817,-40.0883,1476.741],[-71.7868,-40.0896,1350.6],[-71.8137,-40.0801,1692.5144],[-71.814,-40.0803,1692.5144],[-71.8163,-40.0821,1674.9838],[-71.8171,-40.0828,1674.9838],[-71.8179,-40.0863,1684.5134],[-71.8246,-40.0886,1892.6281],[-71.8271,-40.0911,1826.1248],[-71.8273,-40.1016,1731.2517],[-71.8309,-40.1048,1908.3945],[-71.8283,-40.11,1929.6617],[-71.8254,-40.1112,1957.8256],[-71.8157,-40.1051,1645.6343],[-71.8105,-40.1041,1698.1543],[-71.8102,-40.1083,1573.6707],[-71.8032,-40.1101,1629.4453],[-71.8029,-40.1122,1657.601],[-71.8004,-40.1139,1701.623],[-71.8053,-40.1233,1700.3364],[-71.8041,-40.1265,1705.399],[-71.8014,-40.1282,1643.3436],[-71.7992,-40.1377,1649.6741],[-71.8073,-40.1361,1541.2594],[-71.8117,-40.1395,1662.3903],[-71.814,-40.1428,1810.7638],[-71.8136,-40.1464,1743.7791],[-71.8087,-40.1525,1619.6376],[-71.8109,-40.1536,1566.0983],[-71.8128,-40.1575,1519.061],[-71.8175,-40.158,1512.5793],[-71.8228,-40.1674,1568.4922],[-71.8285,-40.1733,1813.3431],[-71.8236,-40.1749,1734.2776],[-71.8184,-40.1806,1657.042],[-71.8032,-40.1837,1720.1935],[-71.799,-40.1856,1851.2715],[-71.7979,-40.188,1706.6067],[-71.8071,-40.1935,1397.2764],[-71.8096,-40.1967,1516.0233],[-71.8095,-40.1993,1559.0284],[-71.8151,-40.2031,1673.2853],[-71.8164,-40.2056,1716.1351],[-71.8268,-40.2051,1645.4735],[-71.828,-40.2063,1657.844],[-71.8295,-40.2169,1795.6062],[-71.8258,-40.2228,1897.7128],[-71.826,-40.2266,1970.1781],[-71.8237,-40.2328,2125.1929],[-71.8175,-40.2331,2124.7329],[-71.8116,-40.2314,1993.9663],[-71.806,-40.2334,1773.1117],[-71.8035,-40.2366,1766.5417],[-71.8033,-40.2425,1709.5731],[-71.7975,-40.247,1844.1199],[-71.8001,-40.2507,1696.7278],[-71.7998,-40.2547,1900.7267],[-71.7936,-40.2581,1759.6217],[-71.7851,-40.259,1642.4814],[-71.7886,-40.2633,1597.8623],[-71.7849,-40.2694,1524.2209],[-71.7766,-40.2697,1355.7593],[-71.7742,-40.2736,1390.2825],[-71.7672,-40.2738,1512.3159],[-71.7662,-40.276,1505.5461],[-71.7617,-40.2763,1609.0607],[-71.7574,-40.2836,1719.2397],[-71.7581,-40.2906,1585.4152],[-71.7553,-40.2912,1583.0748],[-71.7615,-40.2991,1666.7168],[-71.7545,-40.3031,1932.1411],[-71.751,-40.3031,1890.9653],[-71.747,-40.3067,1837.8781],[-71.7362,-40.3057,1878.0779],[-71.7265,-40.2912,1426.8464],[-71.7186,-40.2865,1536.2856],[-71.7168,-40.2788,2021.6006],[-71.708,-40.2841,1869.923],[-71.7015,-40.2837,1914.5149],[-71.699,-40.2893,1775.3397],[-71.6926,-40.2895,1700.5106],[-71.6895,-40.2928,1775.5385],[-71.6843,-40.2936,1884.1079],[-71.6838,-40.297,1934.3923],[-71.6809,-40.298,1977.6166],[-71.6792,-40.3028,1879.0961],[-71.6714,-40.3112,1717.5522],[-71.6727,-40.3126,1733.8219],[-71.6715,-40.3164,1541.5898],[-71.6729,-40.3219,1570.4835],[-71.6769,-40.3263,1644.924],[-71.6733,-40.328,1652.4067],[-71.6734,-40.3304,1650.2065],[-71.6706,-40.331,1628.6968],[-71.6683,-40.3375,1692.4967],[-71.6722,-40.3421,1594.7385],[-71.6661,-40.3456,1597.4761],[-71.659,-40.3472,1603.2966],[-71.656,-40.355,1354.9951],[-71.6586,-40.3584,1434.1078],[-71.6567,-40.3637,1755.5082],[-71.6611,-40.3639,1626.4722],[-71.6637,-40.3667,1569.7798],[-71.6679,-40.3665,1663.4969],[-71.6854,-40.3723,1674.4663],[-71.6937,-40.3732,1800.2836],[-71.6921,-40.3784,1689.5394],[-71.6929,-40.3815,1682.6241],[-71.688,-40.3824,1775.7782],[-71.6872,-40.3844,1767.1135],[-71.6913,-40.3865,1692.3127],[-71.6916,-40.3908,1757.5825],[-71.6892,-40.3926,1773.6906],[-71.6931,-40.3967,1483.7798],[-71.6927,-40.4049,1500.6372],[-71.6997,-40.4115,1909.6704],[-71.707,-40.4134,1651.9312],[-71.7077,-40.4154,1589.4434],[-71.7057,-40.4175,1620.7657],[-71.7102,-40.4247,1770.2811],[-71.7242,-40.4269,1503.873],[-71.7264,-40.4295,1458.5242],[-71.7386,-40.4343,1920.5844],[-71.741,-40.4373,2151.0479],[-71.7488,-40.4352,2012.0947],[-71.7535,-40.4312,1627.6807],[-71.7554,-40.4213,1812.3374],[-71.7597,-40.4159,1808.568],[-71.7652,-40.417,1587.3007],[-71.7743,-40.4231,1670.2589],[-71.7789,-40.4206,1392.0496],[-71.7831,-40.411,1704.4939],[-71.7939,-40.4073,1484.7393],[-71.8079,-40.4067,1796.9105],[-71.8107,-40.4108,1732.1093],[-71.8255,-40.4205,1913.9132],[-71.8254,-40.4237,1938.2291],[-71.8207,-40.4315,1762.115],[-71.8207,-40.4352,1855.1129],[-71.8285,-40.4374,1824.5947],[-71.83,-40.4431,1553.1914],[-71.8354,-40.4453,1759.989],[-71.842,-40.4522,1824.8248],[-71.8409,-40.4585,1584.6173],[-71.8359,-40.4633,1690.3245],[-71.846,-40.4714,1729.1281],[-71.8466,-40.4798,1465.2852],[-71.8421,-40.4837,1472.0266],[-71.8415,-40.489,1668.9594],[-71.8465,-40.4939,1864.0389],[-71.845,-40.4967,1898.3901],[-71.8567,-40.5097,1202.2869],[-71.8526,-40.5203,1426.0161],[-71.8457,-40.5199,1652.5593],[-71.8437,-40.5214,1712.5891],[-71.8431,-40.5248,1818.8416],[-71.8517,-40.5258,1655.3506],[-71.8542,-40.5308,1639.3604],[-71.8601,-40.5363,1355.5903],[-71.8616,-40.5397,1263.9027],[-71.8585,-40.5546,1639.671],[-71.868,-40.5574,1407.6294],[-71.8748,-40.5541,1467.2605],[-71.8887,-40.5514,1703.4233],[-71.8913,-40.5557,1546.6908],[-71.8868,-40.5584,1307.9653],[-71.8867,-40.5625,1271.9733],[-71.8786,-40.5637,1207.2302],[-71.876,-40.5697,1281.1338],[-71.8712,-40.5716,1428.1007],[-71.8685,-40.5749,1569.8757],[-71.8663,-40.5835,1652.0084],[-71.8581,-40.5915,1700.5967],[-71.8538,-40.5914,1646.2573],[-71.8458,-40.5827,1685.5157],[-71.8443,-40.5858,1628.1371],[-71.8405,-40.5871,1545.3439],[-71.8255,-40.5776,1784.757],[-71.8366,-40.5941,1382.6567],[-71.8417,-40.5977,1363.2655],[-71.842,-40.6034,1502.3022],[-71.839,-40.6089,1740.1094],[-71.8444,-40.6276,1539.5642],[-71.8469,-40.6316,1533.3658],[-71.851,-40.6329,1394.4608],[-71.8533,-40.6362,1322.3674],[-71.8552,-40.6401,1398.1313],[-71.8549,-40.6449,1409.4919],[-71.8619,-40.6431,1538.3018],[-71.8666,-40.6471,1561.5308],[-71.8653,-40.6509,1482.7039],[-71.8679,-40.653,1545.363],[-71.8682,-40.655,1431.3831],[-71.8661,-40.6566,1418.5009],[-71.8688,-40.6635,1437.7693],[-71.8735,-40.6657,1503.4747],[-71.8782,-40.6648,1502.292],[-71.8843,-40.6662,1457.5967],[-71.8978,-40.6822,1459.0464],[-71.9049,-40.683,1494.397],[-71.9216,-40.6889,1678.7041],[-71.9261,-40.6965,1612.2755],[-71.9329,-40.6997,1503.5911],[-71.9336,-40.7027,1512.3148],[-71.9421,-40.7094,1331.3933],[-71.9489,-40.7185,1415.9237],[-71.9622,-40.7184,1413.5586],[-71.963,-40.7215,1425.5876],[-71.9583,-40.7231,1423.8057],[-71.9661,-40.7274,1564.7297],[-71.9619,-40.7295,1530.6747],[-71.9646,-40.7372,1405.76],[-71.9635,-40.7416,1451.2311],[-71.965,-40.7457,1516.791],[-71.9583,-40.7452,1500.087],[-71.9583,-40.7478,1487.3854],[-71.9553,-40.7505,1516.8606],[-71.9589,-40.7573,1517.995],[-71.9569,-40.7613,1554.5056],[-71.9482,-40.7675,1726.422],[-71.9417,-40.7652,1804.8229],[-71.9428,-40.7694,1867.8336],[-71.9389,-40.7744,1821.6985],[-71.9285,-40.7782,1784.4689],[-71.9201,-40.7854,1664.5325],[-71.9192,-40.7886,1636.1685],[-71.9259,-40.7917,1556.8081],[-71.9276,-40.7942,1544.0479],[-71.9269,-40.808,1771.731],[-71.9245,-40.8104,1893.9167],[-71.9304,-40.8127,1701.4641],[-71.9297,-40.8182,1608.178],[-71.9343,-40.8222,1913.3121],[-71.9319,-40.8246,1831.1199],[-71.9254,-40.8255,1612.4885],[-71.9232,-40.8276,1565.1621],[-71.9228,-40.8291,1592.8306],[-71.9269,-40.8329,1733.6312],[-71.9198,-40.8376,1627.0388],[-71.9136,-40.8395,1767.6997],[-71.9131,-40.8434,1808.686],[-71.9083,-40.8459,1849.597],[-71.9111,-40.8516,1675.6589],[-71.9087,-40.8568,1799.0042],[-71.9017,-40.861,1871.6708],[-71.8918,-40.87,1681.7072],[-71.8898,-40.8737,1761.3359],[-71.8872,-40.8741,1791.447],[-71.8804,-40.8807,1782.6969],[-71.8719,-40.8812,1444.3506],[-71.8629,-40.8779,1261.4778],[-71.8594,-40.8794,1490.2229],[-71.8588,-40.8812,1531.8616],[-71.8614,-40.887,1698.121],[-71.8698,-40.8924,1443.8853],[-71.8645,-40.9041,1873.7362],[-71.8666,-40.9078,1798.6486],[-71.8562,-40.9223,1601.4623],[-71.8609,-40.9233,1417.993],[-71.8595,-40.9273,1373.9041],[-71.863,-40.9328,1620.9709],[-71.8571,-40.9385,1742.3555],[-71.8571,-40.941,1776.5117],[-71.8535,-40.9455,1666.5632],[-71.8565,-40.9504,1451.0909],[-71.8565,-40.9588,1755.9866],[-71.8606,-40.9606,1471.3547],[-71.8721,-40.9587,1334.0],[-71.8861,-40.9665,1556.1182],[-71.8916,-40.9647,1772.2893],[-71.8987,-40.9588,1721.0955],[-71.9059,-40.9628,1833.1195],[-71.9087,-40.9731,1649.517],[-71.9057,-40.9763,1556.8612],[-71.9053,-40.9852,1811.2701],[-71.8985,-40.9841,1660.5149],[-71.8925,-40.9859,1603.7456],[-71.8829,-40.9947,1322.2666],[-71.8738,-40.9999,1510.2816],[-71.8744,-41.0112,1625.2926],[-71.8689,-41.0129,1403.9613],[-71.8649,-41.0162,1511.443],[-71.8656,-41.0183,1543.2231],[-71.8625,-41.0233,1525.12],[-71.8619,-41.0289,1578.163],[-71.8582,-41.0335,1632.3429],[-71.8494,-41.0307,1453.5714],[-71.8468,-41.0315,1528.2421],[-71.8398,-41.0242,927.0229],[-71.822,-41.0269,858.8409],[-71.8107,-41.0235,800.3193],[-71.7984,-41.0232,768.0],[-71.7805,-41.0262,897.0928],[-71.7566,-41.0225,768.0],[-71.7385,-41.0254,768.0],[-71.7172,-41.0259,768.0],[-71.6687,-41.0311,768.0],[-71.6388,-41.0361,768.0],[-71.599,-41.038,768.0],[-71.5587,-41.0272,768.0],[-71.5377,-41.0247,768.0],[-71.4954,-41.0384,768.0],[-71.4591,-41.0411,768.0],[-71.4326,-41.0568,768.0],[-71.3585,-41.089,768.0],[-71.3133,-41.0954,768.0],[-71.2888,-41.0964,768.0],[-71.2366,-41.0944,768.0],[-71.2236,-41.0888,768.0],[-71.1786,-41.0607,768.0],[-71.1623,-41.0542,768.0],[-71.1443,-41.0516,810.9772],[-71.1335,-41.0471,798.3488],[-71.1301,-41.0434,785.6077],[-71.1284,-41.0388,780.0602],[-71.1307,-41.0276,779.5041],[-71.1234,-41.02,768.6466],[-71.1199,-41.0134,767.7981],[-71.1067,-41.008,770.5482],[-71.0932,-40.9986,757.5132],[-71.0923,-40.9961,755.4613],[-71.0946,-40.9929,756.8889],[-71.1037,-40.9894,807.8883],[-71.1015,-40.9869,817.8856],[-71.0759,-40.9774,752.9086],[-71.0612,-40.9777,749.9497],[-71.0548,-40.9621,746.9974],[-71.0389,-40.9549,855.7509],[-71.0431,-40.9417,761.6674],[-71.0365,-40.9312,744.1442],[-71.0272,-40.9042,782.6695],[-71.0337,-40.884,913.7368],[-71.0417,-40.8747,809.4361],[-71.0426,-40.8679,834.6828],[-71.052,-40.862,865.5447],[-71.0537,-40.8551,785.9958],[-71.0611,-40.8477,836.8928],[-71.0744,-40.8421,1016.4657],[-71.0781,-40.8456,906.4573],[-71.0976,-40.8343,719.0516],[-71.0974,-40.8321,714.8237],[-71.091,-40.8272,714.7701],[-71.0899,-40.8225,728.1074],[-71.0951,-40.8142,838.5906],[-71.1137,-40.7993,827.1192],[-71.112799999999993,-40.7922,792.3248],[-71.1197,-40.7769,718.0535],[-71.118,-40.7587,699.7772],[-71.1032,-40.747,700.1492],[-71.0937,-40.7278,713.0733],[-71.0889,-40.7247,699.5],[-71.083,-40.7249,713.7979],[-71.0718,-40.7287,699.5],[-71.0599,-40.7269,699.5],[-71.048,-40.7286,699.5],[-71.0368,-40.7253,699.5],[-71.0321,-40.7193,740.3717],[-71.028,-40.7081,748.2455],[-71.0192,-40.6992,713.7422],[-71.0188,-40.6921,701.139],[-71.0136,-40.6866,699.5],[-71.0151,-40.677,699.5],[-71.0124,-40.6739,699.5],[-71.0032,-40.6715,699.5],[-70.9966,-40.6667,699.5],[-70.9843,-40.6484,699.5],[-70.9782,-40.6474,699.5],[-70.9735,-40.6487,699.5],[-70.9527,-40.639,699.5],[-70.9349,-40.6372,699.5],[-70.9145,-40.6271,699.5],[-70.9064,-40.6205,699.5]]]]}
,"properties": {"GID_1": "ARG.15_1","GID_0": "ARG","country": "Argentina","state": "Neuquén","VARNAME_1": "Neuquén","NL_NAME_1": "NA","TYPE_1": "Provincia","ENGTYPE_1": "Province","CC_1": "NA","HASC_1": "AR.NQ","ISO_1": "NA","name": "Neuquén.state","area_km2": 94437.91,"hist_schema_id": "Elevation0-9000","hist_area_km2": {"225": 397.54,"250": 242.13,"275": 511.66,"300": 565.02,"325": 644.4,"350": 743.26,"375": 1353.12,"400": 1833.34,"425": 1341.34,"450": 1238.49,"475": 1317.78,"500": 1434.19,"525": 1377.97,"550": 1324.21,"575": 1409.92,"600": 1711.64,"625": 1596.8,"650": 1882.87,"675": 1944.54,"700": 1894.07,"725": 1756.29,"750": 1704.54,"775": 2207.32,"800": 1959.38,"825": 1973.34,"850": 1965.67,"875": 1951.38,"900": 2098.57,"925": 1977.91,"950": 1866.33,"975": 1814.84,"1000": 1794.81,"1025": 1805.07,"1050": 1867.26,"1075": 1875.42,"1100": 1790.8,"1125": 1722.95,"1150": 1732.69,"1175": 1578.24,"1200": 1492.73,"1225": 1472.31,"1250": 1385.3,"1275": 1325.19,"1300": 1275.1,"1325": 1230.48,"1350": 1175.08,"1375": 1097.15,"1400": 1033.26,"1425": 984.49,"1450": 965.7,"1475": 975.54,"1500": 977.05,"1525": 949.07,"1550": 904.1,"1575": 864.87,"1600": 818.7,"1625": 781.51,"1650": 758.02,"1675": 707.87,"1700": 676.48,"1725": 630.37,"1750": 589.9,"1775": 554.17,"1800": 521.8,"1825": 497.54,"1850": 477.89,"1875": 452.53,"1900": 425.94,"1925": 408.26,"1950": 393.18,"1975": 377.66,"2000": 370.68,"2025": 378.65,"2050": 352.06,"2075": 327.3,"2100": 308.0,"2125": 289.71,"2150": 289.86,"2175": 271.12,"2200": 251.87,"2225": 240.27,"2250": 225.86,"2275": 218.9,"2300": 205.28,"2325": 193.22,"2350": 188.4,"2375": 178.22,"2400": 173.86,"2425": 162.52,"2450": 157.95,"2475": 164.59,"2500": 143.83,"2525": 129.96,"2550": 121.69,"2575": 110.52,"2600": 107.54,"2625": 101.87,"2650": 96.88,"2675": 89.33,"2700": 85.59,"2725": 83.73,"2750": 80.8,"2775": 75.01,"2800": 72.34,"2825": 68.0,"2850": 63.12,"2875": 56.86,"2900": 52.91,"2925": 49.35,"2950": 45.47,"2975": 42.63,"3000": 37.04,"3025": 34.26,"3050": 31.65,"3075": 27.89,"3100": 25.72,"3125": 22.23,"3150": 20.72,"3175": 18.84,"3200": 18.55,"3225": 17.92,"3250": 14.29,"3275": 14.03,"3300": 12.41,"3325": 10.72,"3350": 9.33,"3375": 8.23,"3400": 7.67,"3425": 6.83,"3450": 6.68,"3475": 6.3,"3500": 5.64,"3525": 4.94,"3550": 4.18,"3575": 3.93,"3600": 3.52,"3625": 3.31,"3650": 2.95,"3675": 2.92,"3700": 2.94,"3725": 2.97,"3750": 2.5,"3775": 2.85,"3800": 2.5,"3825": 2.48,"3850": 2.19,"3875": 1.68,"3900": 1.57,"3925": 1.31,"3950": 1.6,"3975": 1.51,"4000": 1.21,"4025": 1.26,"4050": 1.07,"4075": 1.33,"4100": 1.12,"4125": 0.94,"4150": 1.07,"4175": 0.92,"4200": 0.95}}}