{"type":"Feature","properties":{"GID_2":"ARG.11.18_1","GID_0":"ARG","country":"Argentina","GID_1":"ARG.11_1","state":"LaPampa","NL_NAME_1":"NA","county":"Rancul","VARNAME_2":"Parera","NL_NAME_2":"NA","TYPE_2":"Departamento","ENGTYPE_2":"Department","CC_2":"NA","HASC_2":"AR.LP.RA","name":"Rancul.county"},
"geometry":{"type": "MultiPolygon","coordinates": [[[[-65.1067,-34.9977,278.6206],[-65.1031,-35.8077,291.8187],[-64.4884,-35.8146,210.6307],[-64.4845,-34.998,191.1142],[-65.1067,-34.9977,278.6206]]]]}}