{"type":"Feature","properties":{"GID_2":"ARG.6.12_1","GID_0":"ARG","country":"Argentina","GID_1":"ARG.6_1","state":"Córdoba","NL_NAME_1":"NA","county":"PresidenteRoqueSáenzPeña","VARNAME_2":"Laboulaye|PresidenteRoqueSenz","NL_NAME_2":"NA","TYPE_2":"Departamento","ENGTYPE_2":"Department","CC_2":"NA","HASC_2":"AR.CB.PP","name":"PresidenteRoqueSáenzPeña.county"},
"geometry":{"type": "MultiPolygon","coordinates": [[[[-62.8892,-34.3843,123.0575],[-62.8867,-34.3809,122.5462],[-62.8676,-34.3688,122.658],[-62.855,-34.3548,121.5745],[-62.7406,-34.2026,119.0633],[-62.6184,-34.0436,119.8725],[-62.5761,-33.9948,121.0175],[-62.5327,-33.9395,118.8539],[-63.0962,-33.8331,128.7639],[-63.0964,-33.827,128.9801],[-63.1394,-33.8179,127.659],[-63.1448,-33.8302,127.4179],[-63.2337,-33.8067,123.8162],[-63.2369,-33.8186,124.3565],[-63.5623,-33.817,138.8186],[-64.0438,-33.8175,228.6772],[-64.0427,-34.1589,176.3364],[-64.0582,-34.1662,177.7409],[-64.1403,-34.1873,185.9204],[-64.1738,-34.2049,191.8578],[-64.2053,-34.2251,196.1661],[-64.2224,-34.2292,199.7851],[-64.1722,-34.2589,193.5848],[-64.1712,-34.3692,186.2024],[-63.8434,-34.3646,153.1738],[-63.8347,-34.5416,145.3175],[-63.6148,-34.5404,141.463],[-63.6105,-34.5583,137.1632],[-63.5098,-34.5571,137.4988],[-63.5119,-34.5163,142.1165],[-63.3912,-34.5285,133.9884],[-63.3939,-34.385,136.9701],[-62.8892,-34.3843,123.0575]]]]}}