{"type":"Feature","properties":{"GID_2":"ARG.14.10_1","GID_0":"ARG","country":"Argentina","GID_1":"ARG.14_1","state":"Misiones","NL_NAME_1":"NA","county":"LeandroN.Alem","VARNAME_2":"NA","NL_NAME_2":"NA","TYPE_2":"Departamento","ENGTYPE_2":"Department","CC_2":"NA","HASC_2":"AR.MN.LA","name":"LeandroN.Alem.county"},
"geometry":{"type": "MultiPolygon","coordinates": [[[[-55.4955,-27.7599,319.5818],[-55.328,-27.7783,120.7112],[-55.3256,-27.7836,119.9012],[-55.2869,-27.727,272.1007],[-55.266,-27.7396,280.5031],[-55.2576,-27.7407,271.5117],[-55.2504,-27.7362,208.0746],[-55.1948,-27.7333,162.412],[-55.1879,-27.727,162.4258],[-55.1868,-27.726,177.2235],[-55.1892,-27.699,295.6531],[-55.1655,-27.6952,302.0869],[-55.1721,-27.6137,305.935],[-55.1751,-27.6116,298.2669],[-55.1825,-27.6161,260.9265],[-55.1875,-27.6139,235.7405],[-55.1884,-27.6114,280.6817],[-55.1866,-27.6063,266.2896],[-55.2501,-27.5571,296.5974],[-55.2321,-27.5422,306.2387],[-55.2489,-27.5286,260.8501],[-55.2465,-27.5244,236.6522],[-55.2507,-27.5191,250.708],[-55.2218,-27.5126,274.6151],[-55.2271,-27.5093,243.1471],[-55.2614,-27.5044,212.0108],[-55.265,-27.5002,237.9451],[-55.2704,-27.4983,202.9446],[-55.284,-27.4841,180.8197],[-55.2828,-27.4763,192.6112],[-55.2849,-27.4687,187.5691],[-55.2906,-27.4671,183.211],[-55.3011,-27.4578,200.1385],[-55.3123,-27.4585,205.5258],[-55.3089,-27.4689,182.0905],[-55.3166,-27.4688,179.8248],[-55.3213,-27.4656,192.1104],[-55.3272,-27.4714,168.9252],[-55.3301,-27.472,174.488],[-55.3327,-27.4709,159.3912],[-55.3307,-27.4631,166.8197],[-55.332,-27.4616,174.2979],[-55.3454,-27.4582,158.583],[-55.3482,-27.4537,192.9535],[-55.3542,-27.4537,193.4862],[-55.3565,-27.4585,160.4346],[-55.3619,-27.4609,164.8458],[-55.3664,-27.4565,164.2613],[-55.4968,-27.5341,257.8191],[-55.5131,-27.5108,211.027],[-55.5701,-27.5454,193.1013],[-55.5558,-27.5667,227.1866],[-55.6181,-27.6027,147.7687],[-55.6245,-27.6175,186.6069],[-55.6451,-27.6197,124.6864],[-55.6603,-27.6152,118.6716],[-55.6571,-27.6218,109.2455],[-55.6517,-27.6281,114.5851],[-55.6535,-27.6359,115.9476],[-55.6087,-27.6409,208.9638],[-55.6144,-27.6924,188.896],[-55.4879,-27.7031,226.6518],[-55.4955,-27.7599,319.5818]]]]}}