{"type": "Feature","bbox": [-65.1478,-34.2323,-63.8926,-32.3019],"geometry": {"type": "MultiPolygon","coordinates": [[[[-64.8947,-32.5983,1857.606],[-64.899,-32.6057,1903.837],[-64.9094,-32.6148,1851.6077],[-64.9259,-32.6209,1747.7971],[-64.9289,-32.6309,1720.6127],[-64.9288,-32.6438,1404.3572],[-64.9297,-32.6459,1402.0414],[-64.9372,-32.6503,1361.1287],[-64.9408,-32.6574,1335.6765],[-64.9406,-32.6649,1473.5221],[-64.9319,-32.6722,1564.8379],[-64.9323,-32.6874,1349.8926],[-64.927,-32.6965,1658.8196],[-64.9265,-32.7017,1798.7151],[-64.9369,-32.7065,1863.3813],[-64.9409,-32.7103,1837.5394],[-64.9553,-32.7384,1552.0583],[-64.9551,-32.7614,1577.9231],[-64.9571,-32.7869,1622.8243],[-64.9604,-32.7967,1617.8589],[-64.9667,-32.8054,1580.0208],[-64.9722,-32.82,1549.1318],[-64.9709,-32.848,1448.3551],[-64.9756,-32.8809,1520.2407],[-64.9855,-32.8865,1397.1991],[-64.9773,-32.897,1549.2407],[-64.9783,-32.8992,1523.1403],[-64.9836,-32.9018,1513.297],[-64.9984,-32.9146,1170.8368],[-65.0035,-32.9238,1172.4802],[-65.0097,-32.9566,1550.5833],[-65.0146,-32.963,1556.4373],[-65.0273,-32.9698,1340.1298],[-65.028,-32.9722,1242.8362],[-65.0262,-32.9772,1424.1772],[-65.0159,-32.9825,1478.8856],[-65.0146,-32.9847,1423.0497],[-65.0182,-33.0151,1268.2192],[-65.0297,-33.0414,1235.6873],[-65.0365,-33.0498,1190.553],[-65.0481,-33.0579,1124.1608],[-65.0516,-33.0622,1111.3665],[-65.054,-33.0798,1108.7633],[-65.0628,-33.0931,1061.397],[-65.0571,-33.1103,1055.5502],[-65.0574,-33.1205,1036.5798],[-65.0521,-33.1324,1019.645],[-65.0523,-33.14,1029.4174],[-65.0599,-33.148,994.9762],[-65.0712,-33.1516,970.0938],[-65.0828,-33.1493,951.8452],[-65.0893,-33.1436,956.866],[-65.0993,-33.1481,946.3475],[-65.1097,-33.1574,935.7211],[-65.1149,-33.1665,921.1837],[-65.1428,-33.1883,878.6207],[-65.1478,-33.1984,868.7162],[-65.1201,-33.6315,479.534],[-65.1098,-33.9125,387.8384],[-65.1099,-33.9602,373.2542],[-65.0903,-33.9677,370.7903],[-65.0463,-33.9921,355.5324],[-65.029,-34.0,357.8321],[-65.019,-34.0073,354.4609],[-65.0071,-34.0118,350.3726],[-64.9745,-34.0162,340.3099],[-64.9558,-34.0109,340.6849],[-64.9492,-34.0108,338.671],[-64.9361,-34.0128,336.3207],[-64.918,-34.0193,331.9571],[-64.8851,-34.0183,327.3196],[-64.8788,-34.0201,326.5484],[-64.8555,-34.0305,316.1216],[-64.825,-34.0411,312.0629],[-64.8083,-34.05,305.2421],[-64.7932,-34.0606,300.4233],[-64.7453,-34.0791,291.8876],[-64.7344,-34.0853,287.4406],[-64.712,-34.1052,280.9098],[-64.6874,-34.1133,276.2471],[-64.6773,-34.1204,273.5501],[-64.6642,-34.1327,267.5765],[-64.6303,-34.1497,263.1105],[-64.5997,-34.1604,257.6786],[-64.5935,-34.1615,257.1987],[-64.5737,-34.16,256.0592],[-64.5481,-34.1656,250.7955],[-64.5188,-34.1784,245.3849],[-64.4748,-34.2029,235.0998],[-64.4505,-34.2117,230.3537],[-64.444,-34.2127,230.2357],[-64.3911,-34.2121,222.4684],[-64.3783,-34.2149,218.4242],[-64.3585,-34.2164,218.8712],[-64.319,-34.2136,212.4933],[-64.3059,-34.2156,211.7438],[-64.2703,-34.2303,206.3553],[-64.2506,-34.2323,202.7433],[-64.2375,-34.2315,201.5119],[-64.2053,-34.2251,196.1661],[-64.1738,-34.2049,191.8578],[-64.1403,-34.1873,185.9204],[-64.1089,-34.1786,182.3783],[-64.0894,-34.1753,179.7972],[-64.052,-34.1641,175.9179],[-64.0427,-34.1589,176.3364],[-64.0434,-33.6417,262.5632],[-63.8936,-33.6377,218.0685],[-63.8994,-33.1947,270.932],[-63.9374,-33.1861,285.4101],[-63.9765,-33.1856,300.8201],[-63.9942,-33.1784,302.5633],[-64.0069,-33.1758,305.3244],[-64.0266,-33.1756,312.3389],[-64.0425,-33.1796,318.1302],[-64.0458,-33.1068,329.1479],[-63.9891,-33.1037,306.3787],[-63.9799,-33.047,312.7378],[-63.9974,-33.0406,317.0003],[-64.0137,-33.0424,322.0119],[-64.0373,-33.0408,332.5518],[-64.0604,-33.0422,340.3227],[-64.0653,-33.0014,348.2016],[-64.0467,-33.0009,339.3788],[-63.9674,-32.7172,350.0882],[-64.0361,-32.7443,382.6633],[-63.9673,-32.4641,354.2922],[-63.912,-32.4367,322.9276],[-63.8926,-32.3738,318.3169],[-63.975,-32.3543,344.6501],[-63.9736,-32.325,338.8325],[-63.9865,-32.324,344.1789],[-64.0319,-32.3249,381.1031],[-64.0382,-32.324,387.5439],[-64.0671,-32.3114,406.435],[-64.0794,-32.3079,403.4367],[-64.1243,-32.3029,416.4731],[-64.1697,-32.3019,450.9299],[-64.1737,-32.3062,451.7253],[-64.1789,-32.3086,459.0518],[-64.205,-32.309,488.3941],[-64.2242,-32.3115,500.3651],[-64.231,-32.3207,504.4795],[-64.2382,-32.3261,511.9508],[-64.2402,-32.3872,541.3199],[-64.3046,-32.3749,595.699],[-64.3125,-32.3971,647.9089],[-64.4185,-32.3868,606.1309],[-64.4308,-32.3888,608.6738],[-64.4339,-32.3938,613.4207],[-64.4363,-32.4047,621.5396],[-64.4363,-32.4102,623.0968],[-64.4322,-32.4206,628.3175],[-64.4304,-32.4315,631.9991],[-64.4328,-32.4479,637.3907],[-64.4361,-32.4586,641.7738],[-64.4391,-32.4634,646.2229],[-64.4495,-32.4701,654.9683],[-64.4556,-32.4717,657.8218],[-64.4689,-32.4717,662.1575],[-64.4742,-32.4744,665.1318],[-64.4868,-32.4871,673.9617],[-64.4928,-32.5086,694.7991],[-64.5129,-32.5432,728.8953],[-64.526,-32.6082,683.2837],[-64.5294,-32.6189,686.1761],[-64.5351,-32.6212,689.2058],[-64.5543,-32.6243,699.7982],[-64.5865,-32.6202,727.1283],[-64.6189,-32.6192,753.8215],[-64.6578,-32.6217,831.7332],[-64.6706,-32.6201,894.1159],[-64.6948,-32.6122,922.1847],[-64.7139,-32.609,1017.2523],[-64.8947,-32.5983,1857.606]]]]}
,"properties": {"GID_2": "ARG.6.14_1","GID_0": "ARG","country": "Argentina","GID_1": "ARG.6_1","state": "Córdoba","NL_NAME_1": "NA","county": "RióCuarto","VARNAME_2": "NA","NL_NAME_2": "NA","TYPE_2": "Departamento","ENGTYPE_2": "Department","CC_2": "NA","HASC_2": "AR.CB.RC","name": "RióCuarto.county","area_km2": 18435.21,"hist_schema_id": "Elevation0-9000","hist_area_km2": {"175": 142.68,"200": 787.33,"225": 944.03,"250": 1059.72,"275": 1074.17,"300": 999.49,"325": 1155.1,"350": 1201.5,"375": 1114.05,"400": 984.33,"425": 874.66,"450": 763.04,"475": 738.28,"500": 634.18,"525": 560.23,"550": 485.85,"575": 485.52,"600": 479.29,"625": 548.34,"650": 516.67,"675": 462.86,"700": 342.69,"725": 268.34,"750": 241.66,"775": 196.37,"800": 151.12,"825": 125.07,"850": 107.26,"875": 90.08,"900": 81.06,"925": 68.95,"950": 59.25,"975": 47.35,"1000": 43.69,"1025": 41.69,"1050": 38.72,"1075": 35.06,"1100": 32.82,"1125": 30.33,"1150": 24.49,"1175": 21.04,"1200": 21.61,"1225": 21.07,"1250": 19.51,"1275": 16.66,"1300": 16.84,"1325": 16.23,"1350": 15.32,"1375": 16.59,"1400": 16.61,"1425": 16.31,"1450": 18.59,"1475": 18.41,"1500": 19.5,"1525": 18.72,"1550": 15.39,"1575": 14.02,"1600": 12.77,"1625": 14.07,"1650": 13.42,"1675": 11.62,"1700": 9.62,"1725": 8.23,"1750": 7.42,"1775": 5.66,"1800": 3.68,"1825": 3.16,"1850": 2.05,"1875": 1.18,"1900": 1.36,"1925": 1.0,"1950": 0.25}}}