{"type":"Feature","properties":{"GID_2":"ARG.2.10_1","GID_0":"ARG","country":"Argentina","GID_1":"ARG.2_1","state":"Catamarca","NL_NAME_1":"NA","county":"LaPaz","VARNAME_2":"SanAntonio","NL_NAME_2":"NA","TYPE_2":"Departamento","ENGTYPE_2":"Department","CC_2":"NA","HASC_2":"AR.CT.LP","name":"LaPaz.county"},
"geometry":{"type": "MultiPolygon","coordinates": [[[[-65.5445,-29.5455,351.4463],[-65.5461,-29.5552,359.7703],[-65.5441,-29.5652,329.444],[-65.4799,-29.8523,197.2624],[-65.4137,-30.1224,185.1929],[-65.1253,-30.0656,181.6305],[-65.086,-30.0373,180.7152],[-65.0285,-30.0007,180.0353],[-64.9073,-29.9066,178.0933],[-64.9238,-29.827,178.607],[-64.9697,-29.5856,180.775],[-64.8506,-29.565,178.3107],[-64.8278,-29.563,178.6048],[-64.8299,-29.5367,180.6759],[-64.8374,-29.5193,178.7101],[-64.8349,-29.5088,178.8746],[-64.8298,-29.4993,179.3168],[-64.8346,-29.4622,179.4432],[-64.8354,-29.433,179.8702],[-64.8384,-29.4254,180.1126],[-64.8483,-29.412,180.755],[-64.8646,-29.3834,181.9166],[-64.886,-29.361,191.0149],[-64.8905,-29.351,195.5182],[-64.8917,-29.3431,199.4365],[-64.8902,-29.3352,204.4347],[-64.885,-29.3287,207.3819],[-64.8659,-29.3204,219.5595],[-64.8512,-29.3166,233.9668],[-64.8473,-29.3129,232.4668],[-64.848,-29.3073,225.6328],[-64.8518,-29.3035,225.4121],[-64.8659,-29.2979,217.5754],[-64.8781,-29.2969,219.5194],[-64.8835,-29.2949,215.6855],[-64.8892,-29.2886,213.6812],[-64.8903,-29.2807,212.0817],[-64.8852,-29.2654,205.7683],[-64.8586,-29.2206,188.1392],[-64.8528,-29.1999,200.8653],[-64.8539,-29.1839,200.1087],[-64.8524,-29.1761,205.5515],[-64.8474,-29.1663,208.1154],[-64.8346,-29.1483,226.043],[-64.8257,-29.1256,221.1127],[-64.8247,-29.1151,223.8951],[-64.8274,-29.0858,235.4079],[-64.8306,-29.0728,234.6532],[-64.8308,-29.0515,232.8997],[-64.8368,-29.0394,224.6171],[-64.8764,-28.9922,224.5752],[-64.8945,-28.9615,235.2119],[-64.9003,-28.9437,241.3362],[-64.9066,-28.8961,245.9075],[-64.9129,-28.8782,252.0203],[-64.9185,-28.8689,255.8602],[-64.9292,-28.8594,268.9655],[-64.9536,-28.8435,268.0447],[-64.9598,-28.8379,270.7483],[-64.9905,-28.7982,279.4308],[-65.0012,-28.7733,288.3854],[-65.0254,-28.7495,296.8826],[-65.1324,-28.7174,317.2568],[-65.1441,-28.6663,326.8273],[-65.1809,-28.6531,333.8315],[-65.1811,-28.6006,345.7687],[-65.2341,-28.6055,369.1759],[-65.2948,-28.7026,423.9646],[-65.3158,-28.7829,384.9768],[-65.3054,-28.83,347.7508],[-65.3082,-28.8519,347.3385],[-65.3152,-28.8732,336.0671],[-65.3253,-28.8936,343.0848],[-65.3303,-28.9084,354.4071],[-65.3322,-28.939,359.5075],[-65.3399,-29.0025,345.2318],[-65.3407,-29.0283,330.0944],[-65.3482,-29.065,343.9654],[-65.3617,-29.0979,347.4575],[-65.3766,-29.1164,357.8886],[-65.409,-29.1451,442.6788],[-65.4482,-29.1748,425.3697],[-65.4595,-29.1873,430.6469],[-65.4931,-29.231,421.9436],[-65.4907,-29.2438,431.6313],[-65.4893,-29.2663,414.3083],[-65.4956,-29.2834,428.3842],[-65.4995,-29.3253,399.696],[-65.5044,-29.3385,408.0649],[-65.5044,-29.3496,423.192],[-65.502,-29.3586,406.1808],[-65.4961,-29.368,389.3192],[-65.493,-29.3797,367.1867],[-65.4922,-29.3886,364.531],[-65.4944,-29.4029,370.1281],[-65.5043,-29.4357,349.7135],[-65.504,-29.453,316.7921],[-65.5445,-29.5455,351.4463]]]]}}