{"type":"Feature","properties":{"GID_2":"ARG.19.6_1","GID_0":"ARG","country":"Argentina","GID_1":"ARG.19_1","state":"SanLuis","NL_NAME_1":"NA","county":"GobernadorDupuy","VARNAME_2":"BuenaEsperanza","NL_NAME_2":"NA","TYPE_2":"Departamento","ENGTYPE_2":"Department","CC_2":"NA","HASC_2":"AR.SL.GD","name":"GobernadorDupuy.county"},
"geometry":{"type": "MultiPolygon","coordinates": [[[[-65.1081,-34.6663,294.4619],[-65.9196,-34.666,421.4294],[-66.3449,-34.6674,480.7498],[-66.6953,-34.672,381.2346],[-66.6825,-34.6893,380.7138],[-66.6503,-34.7035,390.6725],[-66.6407,-34.713,390.2307],[-66.6373,-34.7199,381.5984],[-66.6376,-34.7275,377.2691],[-66.6424,-34.7338,377.3835],[-66.6533,-34.7429,378.8792],[-66.6551,-34.7471,380.2085],[-66.6275,-34.7833,379.7806],[-66.6191,-34.7966,378.6956],[-66.6045,-34.8092,378.2248],[-66.5804,-34.8379,376.8507],[-66.5704,-34.8561,376.4984],[-66.5619,-34.8826,376.4337],[-66.5537,-34.8961,370.015],[-66.5479,-34.9332,373.2683],[-66.5405,-34.9442,371.704],[-66.5384,-34.9514,370.631],[-66.5411,-34.9611,369.3077],[-66.5512,-34.9703,370.1914],[-66.5536,-34.9775,370.089],[-66.5553,-34.9903,371.2168],[-66.5528,-35.0001,370.9113],[-66.5478,-35.0091,370.2296],[-66.5503,-35.0214,370.9278],[-66.5413,-35.0373,368.6235],[-66.5422,-35.0522,368.6709],[-66.5409,-35.059,369.0059],[-66.533,-35.0704,365.9997],[-66.528,-35.0873,367.2045],[-66.5177,-35.0967,366.0038],[-66.5145,-35.1088,365.5566],[-66.5074,-35.1199,365.0601],[-66.5036,-35.1522,361.9736],[-66.5075,-35.192,359.778],[-66.5027,-35.2392,356.2319],[-66.5071,-35.2486,354.9347],[-66.5138,-35.2568,354.8948],[-66.5152,-35.2643,353.6346],[-66.5226,-35.2725,353.4162],[-66.5245,-35.277,353.471],[-66.5201,-35.3042,357.1646],[-66.5076,-35.3243,354.1344],[-66.5077,-35.3418,352.5436],[-66.5114,-35.359,351.2561],[-66.5211,-35.3827,355.8629],[-66.5207,-35.3952,349.9367],[-66.53,-35.4137,347.9821],[-66.5272,-35.431,346.7232],[-66.527,-35.4735,346.5404],[-66.5313,-35.4931,344.747],[-66.5337,-35.5255,344.1105],[-66.5391,-35.5372,342.9372],[-66.5399,-35.5495,343.5638],[-66.5532,-35.5663,345.211],[-66.5648,-35.5741,342.4208],[-66.5762,-35.5918,345.7695],[-66.5777,-35.5968,345.9795],[-66.5761,-35.6039,345.7051],[-66.5654,-35.6093,340.9593],[-66.5696,-35.6212,344.8737],[-66.5697,-35.6261,345.394],[-66.5605,-35.6325,340.9314],[-66.5591,-35.6398,340.7861],[-66.5618,-35.647,341.0235],[-66.5684,-35.6554,342.0519],[-66.5708,-35.6728,341.1658],[-66.5854,-35.7109,335.4615],[-66.5858,-35.7158,338.3834],[-66.582,-35.7356,333.943],[-66.5871,-35.7472,336.0419],[-66.5827,-35.7671,335.4001],[-66.5831,-35.7718,332.0175],[-66.598,-35.7992,335.1315],[-66.6012,-35.8088,334.9702],[-66.6024,-35.8187,328.5187],[-66.6158,-35.8467,330.3916],[-66.6195,-35.8715,328.2134],[-66.6163,-35.8862,330.334],[-66.6193,-35.9012,326.2305],[-66.6216,-35.9058,327.7595],[-66.6306,-35.9075,328.3479],[-66.6318,-35.9092,329.3594],[-66.6307,-35.927,323.8652],[-66.6263,-35.9416,323.7884],[-66.6348,-35.9547,328.1402],[-66.6373,-35.9671,326.2385],[-66.6261,-35.9989,326.0932],[-65.6475,-35.999,338.7474],[-65.1022,-35.9969,293.6699],[-65.1081,-34.6663,294.4619]]]]}}