{"type":"Feature","properties":{"GID_2":"ARG.3.2_1","GID_0":"ARG","country":"Argentina","GID_1":"ARG.3_1","state":"Chaco","NL_NAME_1":"NA","county":"Bermejo","VARNAME_2":"LaLeonesa","NL_NAME_2":"NA","TYPE_2":"Departamento","ENGTYPE_2":"Department","CC_2":"NA","HASC_2":"AR.CC.BE","name":"Bermejo.county"},
"geometry":{"type": "MultiPolygon","coordinates": [[[[-58.7697,-27.3819,47.3745],[-58.7626,-27.3804,47.4954],[-58.7507,-27.3826,44.0],[-58.7388,-27.3809,44.0],[-58.7192,-27.3682,44.5],[-58.6964,-27.3607,44.5],[-58.6683,-27.3564,44.5],[-58.6465,-27.3495,44.5],[-58.6312,-27.3409,44.5],[-58.6203,-27.3282,44.5],[-58.6174,-27.3176,45.0],[-58.6064,-27.2953,45.0],[-58.6078,-27.2901,45.0],[-58.6048,-27.2764,45.0],[-58.595,-27.2586,45.5],[-58.5923,-27.2385,45.5],[-58.5937,-27.2296,50.1396],[-58.6037,-27.2131,46.0],[-58.6342,-27.1963,49.5329],[-58.6439,-27.1934,54.7285],[-58.655,-27.1859,51.8226],[-58.6625,-27.1722,46.25],[-58.6578,-27.1562,46.5],[-58.6474,-27.1349,50.992],[-58.6401,-27.1243,52.2651],[-58.6269,-27.1156,46.5],[-58.6165,-27.1127,47.0],[-58.58,-27.1094,47.0],[-58.5752,-27.1074,47.0],[-58.5596,-27.1059,52.3577],[-58.5538,-27.103,48.1354],[-58.5504,-27.0992,52.8905],[-58.5538,-27.0685,47.5],[-58.5522,-27.0457,52.5221],[-58.5476,-27.0384,53.8032],[-58.5272,-27.0377,48.0],[-58.5212,-27.0391,48.0],[-58.518,-27.0427,48.0],[-58.5125,-27.0565,53.8299],[-58.5088,-27.0591,48.0],[-58.5052,-27.0576,48.0],[-58.5014,-27.0504,50.2805],[-58.5007,-27.0434,51.2368],[-58.5064,-27.0197,53.2827],[-58.508,-27.0074,52.5431],[-58.5066,-27.003,52.9976],[-58.5016,-26.9996,56.1783],[-58.488,-26.995,50.9376],[-58.4826,-26.9948,50.3656],[-58.4776,-26.9918,55.0523],[-58.4751,-26.9862,54.2164],[-58.4799,-26.9643,49.0],[-58.4889,-26.9458,49.0],[-58.4913,-26.933,52.3875],[-58.4878,-26.9244,50.8165],[-58.4826,-26.9212,51.8092],[-58.4523,-26.9213,52.5582],[-58.4424,-26.9196,49.0],[-58.3884,-26.8892,52.7004],[-58.3698,-26.8655,49.0],[-58.3643,-26.865,49.0],[-58.3639,-26.8503,52.0026],[-58.3681,-26.8457,52.4108],[-58.3725,-26.8464,54.7588],[-58.376,-26.849,52.9682],[-58.3806,-26.8642,52.7177],[-58.3837,-26.8614,52.9673],[-58.3876,-26.8532,59.892],[-58.4,-26.8516,51.9805],[-58.4021,-26.8474,53.7018],[-58.3995,-26.8425,60.6633],[-58.3911,-26.8404,55.9251],[-58.3889,-26.834,60.8163],[-58.3888,-26.825,54.2423],[-58.3911,-26.8213,51.7979],[-58.397,-26.8215,56.8345],[-58.398,-26.8306,50.0],[-58.4015,-26.8324,52.2653],[-58.4051,-26.8299,53.6362],[-58.405,-26.8234,53.1401],[-58.4015,-26.8103,56.4252],[-58.4042,-26.8074,54.4633],[-58.4103,-26.8091,52.911],[-58.4112,-26.8224,53.9574],[-58.4146,-26.8269,64.0084],[-58.4223,-26.8221,55.0759],[-58.4246,-26.8183,54.0507],[-58.4201,-26.8109,52.4306],[-58.4209,-26.8045,54.7629],[-58.4265,-26.7974,53.6981],[-58.4298,-26.799,53.2766],[-58.4363,-26.8079,51.8492],[-58.4496,-26.8077,55.3572],[-58.452,-26.8027,55.9279],[-58.4507,-26.7939,52.7387],[-58.454,-26.7884,56.1247],[-58.4618,-26.7837,54.1711],[-58.4655,-26.7848,54.986],[-58.4668,-26.7891,54.3244],[-58.4618,-26.7993,55.3636],[-58.4658,-26.8025,54.8274],[-58.4746,-26.8018,56.5094],[-58.4867,-26.7958,54.0961],[-58.4858,-26.7924,58.3472],[-58.4821,-26.7893,61.3734],[-58.4791,-26.7836,54.9357],[-58.4818,-26.7807,54.7482],[-58.4968,-26.7806,62.1514],[-58.5119,-26.7675,57.0887],[-58.5163,-26.7541,65.7649],[-58.5207,-26.7504,61.5644],[-58.523,-26.7567,57.5174],[-58.5275,-26.7559,58.8113],[-58.5293,-26.7465,65.7472],[-58.5381,-26.7514,66.466],[-58.5415,-26.7479,56.8405],[-58.5399,-26.7395,58.521],[-58.5445,-26.7338,57.2544],[-58.5538,-26.7351,69.4804],[-58.5625,-26.7201,61.059],[-58.572,-26.7086,64.0055],[-58.5761,-26.6929,66.7259],[-58.5793,-26.6891,67.3446],[-58.5765,-26.6816,57.0144],[-58.5806,-26.6771,57.116],[-58.6018,-26.6769,57.523],[-58.6104,-26.6706,57.7951],[-58.6216,-26.666,61.0268],[-58.6342,-26.6511,59.3424],[-58.6411,-26.6501,60.5114],[-58.652,-26.6517,60.1597],[-58.6566,-26.6473,59.3946],[-58.6603,-26.646,59.946],[-58.6702,-26.6361,60.428],[-58.6826,-26.633,60.3833],[-58.6842,-26.6285,57.1173],[-58.6825,-26.6237,56.6803],[-58.6889,-26.6013,64.2971],[-58.795,-26.6948,60.776],[-58.9004,-26.7828,62.3132],[-58.9048,-26.7848,66.1111],[-58.918,-26.7795,69.2143],[-58.9254,-26.7846,61.7729],[-58.9308,-26.7841,61.4671],[-58.9337,-26.7822,69.587],[-58.9381,-26.7845,60.7783],[-58.94,-26.7889,70.1695],[-58.9437,-26.7919,68.1188],[-58.9498,-26.7929,68.9593],[-58.9514,-26.9609,59.3948],[-58.9479,-27.0985,61.9503],[-58.9431,-27.1066,61.5432],[-58.9402,-27.1153,60.5545],[-58.9209,-27.1276,63.2902],[-58.9168,-27.1258,62.615],[-58.9137,-27.1222,62.7302],[-58.9085,-27.1218,65.3673],[-58.9001,-27.1268,58.6046],[-58.895,-27.127,62.5266],[-58.8874,-27.1329,59.0137],[-58.8726,-27.1346,58.9746],[-58.8579,-27.1473,58.1585],[-58.8534,-27.1484,58.3884],[-58.851,-27.1525,57.456],[-58.8344,-27.1629,59.6366],[-58.8122,-27.1743,59.241],[-58.7933,-27.1806,54.0092],[-58.7918,-27.1849,52.8272],[-58.7874,-27.1873,51.4609],[-58.7856,-27.1912,58.1792],[-58.7833,-27.2047,60.6459],[-58.7836,-27.2137,61.3604],[-58.7816,-27.2179,59.8763],[-58.7782,-27.2213,57.0422],[-58.7632,-27.2229,54.5586],[-58.7553,-27.2285,53.3606],[-58.7526,-27.2374,50.5856],[-58.7549,-27.2509,51.4522],[-58.7542,-27.2554,54.4594],[-58.752,-27.2588,52.3698],[-58.7466,-27.2584,53.187],[-58.7431,-27.2608,56.5071],[-58.7362,-27.2781,47.2993],[-58.736,-27.2827,45.4424],[-58.7364,-27.2873,55.0151],[-58.7406,-27.2957,49.5623],[-58.7609,-27.3218,47.059],[-58.7611,-27.3264,48.6311],[-58.7705,-27.3572,49.6013],[-58.7714,-27.3663,44.0],[-58.7697,-27.3819,47.3745]]]]}}