{"type":"Feature","properties":{"GID_2":"ARG.13.5_1","GID_0":"ARG","country":"Argentina","GID_1":"ARG.13_1","state":"Mendoza","NL_NAME_1":"NA","county":"Junín","VARNAME_2":"NA","NL_NAME_2":"NA","TYPE_2":"Departamento","ENGTYPE_2":"Department","CC_2":"NA","HASC_2":"AR.MZ.JU","name":"Junín.county"},
"geometry":{"type": "MultiPolygon","coordinates": [[[[-68.6711,-33.2264,718.6494],[-68.6667,-33.2337,719.9183],[-68.6626,-33.217,714.0257],[-68.6373,-33.2006,703.7052],[-68.6429,-33.1922,703.8432],[-68.6207,-33.1788,695.5066],[-68.607,-33.1723,690.4483],[-68.5969,-33.1723,688.5778],[-68.5757,-33.1663,684.8095],[-68.5561,-33.1556,679.5474],[-68.5452,-33.152,678.3848],[-68.5102,-33.1514,670.2827],[-68.4914,-33.1489,666.4169],[-68.4919,-33.1515,666.994],[-68.4787,-33.1483,664.5599],[-68.4504,-33.159,658.1351],[-68.4423,-33.1604,658.9924],[-68.4268,-33.1725,653.8225],[-68.4117,-33.1812,650.6036],[-68.406,-33.1863,649.5215],[-68.4068,-33.1878,648.9903],[-68.378,-33.2074,645.4457],[-68.3638,-33.2107,642.4569],[-68.327,-33.2236,636.1385],[-68.2907,-33.2314,627.603],[-68.2781,-33.1954,627.2783],[-68.371,-33.146,643.9382],[-68.366,-33.14,644.0302],[-68.4354,-33.1,652.853],[-68.4472,-33.0998,652.8083],[-68.4446,-33.0927,654.1024],[-68.4945,-33.0799,660.3019],[-68.5122,-33.1018,665.8359],[-68.5272,-33.0947,665.9659],[-68.5248,-33.0925,665.1581],[-68.5568,-33.0759,664.485],[-68.5562,-33.0751,665.499],[-68.5625,-33.0703,665.6117],[-68.5762,-33.0848,669.7441],[-68.5815,-33.0727,664.4614],[-68.565,-33.0445,661.048],[-68.5636,-33.0406,661.2656],[-68.567,-33.0374,651.897],[-68.5721,-33.0398,654.2332],[-68.5771,-33.0457,655.1378],[-68.5776,-33.0548,658.1293],[-68.581,-33.0572,659.7879],[-68.5849,-33.065,662.6284],[-68.5942,-33.0733,666.6436],[-68.5949,-33.0767,667.6697],[-68.6087,-33.0882,673.5339],[-68.6163,-33.0889,676.6053],[-68.6286,-33.1268,687.0423],[-68.6387,-33.1374,692.415],[-68.6403,-33.1496,696.8169],[-68.6433,-33.1545,699.603],[-68.6449,-33.1657,701.9062],[-68.6485,-33.1705,703.9186],[-68.6495,-33.1797,706.9943],[-68.655,-33.1908,710.0949],[-68.6606,-33.1923,716.1805],[-68.6629,-33.1965,718.218],[-68.6664,-33.2078,720.3868],[-68.6654,-33.2107,717.4317],[-68.6711,-33.2264,718.6494]]]]}}