{"type":"Feature","properties":{"featurecla":"River","scalerank":9,"rivernum":1144,"dissolve":"1144River","name":"Carcarañá1","name_alt":null,"note":null,"min_zoom":7.1,"strokeweig":0.25,"name_en":"Carcarañá","min_label":8.1},
"geometry":{"type": "LineString","coordinates": [[-61.921435546874989,-32.91765715938088,85.1183],[-61.898193359375,-32.91008880000588,78.2817],[-61.875585937499991,-32.908526300005889,75.7573],[-61.828662109374989,-32.91082122188088,72.0541],[-61.807788085937489,-32.91887786250588,70.0446],[-61.796875,-32.938799737505889,67.7385],[-61.792236328125,-32.96355559688088,66.3988],[-61.79052734375,-32.98650481563088,64.918],[-61.781665039062489,-33.02629973750588,63.1471],[-61.762011718749989,-33.062041925005886,63.0339],[-61.732714843749989,-33.087432550005886,61.6543],[-61.694921874999991,-33.09514739375588,58.0443],[-61.673022460937489,-33.08977630000588,56.9074],[-61.640429687499989,-33.071807550005886,55.5651],[-61.602099609374989,-33.06487395625588,54.672],[-61.571337890624989,-33.04827239375588,56.7033],[-61.550878906249991,-33.03997161250588,52.9113],[-61.334716796875,-32.989776300005886,48.1868],[-61.300146484374991,-32.97503020625588,47.0306],[-61.271044921874989,-32.95403411250588,56.3191],[-61.193701171874991,-32.86541106563088,43.2391],[-61.105883789062489,-32.822100518755889,40.5619],[-61.064624023437489,-32.784698175005886,37.6759],[-61.032568359374991,-32.738604425005889,34.7109],[-60.995849609375,-32.69841887813088,30.1462],[-60.940771484374991,-32.67815520625588,30.0958],[-60.91083984375,-32.67473723750588,32.3675],[-60.87890625,-32.66716887813088,31.3284],[-60.852294921875,-32.653155206255889,28.5484],[-60.83837890625,-32.629717706255889,29.6069],[-60.8388671875,-32.615069268755889,26.2921],[-60.849365234375,-32.59124114375588,24.6611],[-60.85205078125,-32.578155206255886,26.1239],[-60.85302734375,-32.56340911250588,25.8016],[-60.860156249999989,-32.53313567500588,23.4029],[-60.86572265625,-32.519854425005889,21.5435],[-60.858154296875,-32.50798919063088,21.3602],[-60.850146484374989,-32.475616143755886,16.9577],[-60.841796875,-32.46209075313088,17.5589],[-60.834716796875,-32.45671965938088,16.9173],[-60.82666015625,-32.45305755000588,15.7204],[-60.818457031249991,-32.45281340938088,8.774],[-60.81103515625,-32.457549737505886,15.3038],[-60.80859375,-32.46111419063088,17.1849],[-60.806811523437489,-32.464873956255886,21.4074],[-60.787207031249991,-32.536455987505889,11.3201],[-60.785083007812489,-32.541827081255889,12.6199],[-60.782177734375,-32.54705169063088,10.206],[-60.773608398437489,-32.55681731563088,7.213],[-60.77001953125,-32.562334893755889,6.3113],[-60.76904296875,-32.56829192500588,5.836]]}}