{"type":"Feature","properties":{"featurecla":"River","scalerank":9,"rivernum":1126,"dissolve":"1126River","name":"Tercero1","name_alt":null,"note":null,"min_zoom":7.1,"strokeweig":0.2,"name_en":"Tercero","min_label":8.1},
"geometry":{"type": "LineString","coordinates": [[-63.921972656249991,-32.17717864375588,336.7657],[-63.88720703125,-32.17522551875588,327.3471],[-63.874121093749991,-32.17717864375588,326.3016],[-63.864990234375,-32.18157317500588,327.978],[-63.846289062499991,-32.194854425005886,320.5355],[-63.82578125,-32.201006768755889,312.8014],[-63.812792968749989,-32.20745208125588,312.5533],[-63.799560546875,-32.21160247188088,309.7239],[-63.778173828124991,-32.20501067500588,303.6582],[-63.763598632812489,-32.20574309688088,305.3657],[-63.736987304687489,-32.21135833125588,296.8312],[-63.67529296875,-32.235870050005886,286.455],[-63.630786132812489,-32.24358489375588,277.2316],[-63.615332031249991,-32.25432708125588,274.8704],[-63.593017578125,-32.28020598750588,269.361],[-63.572119140624991,-32.29583098750588,262.459],[-63.534277343749991,-32.305987237505889,255.4596],[-63.514453124999989,-32.31804778438088,253.1549],[-63.50546875,-32.32122161250588,249.6849],[-63.48125,-32.32537200313088,244.3693],[-63.476318359375,-32.33171965938088,243.4207],[-63.472705078124989,-32.342803643755886,241.7202],[-63.4638671875,-32.350616143755886,239.0632],[-63.400390625,-32.38372161250588,226.6372],[-63.264013671874991,-32.41741301875588,204.8887],[-63.222900390625,-32.437041925005886,196.4596],[-63.155126953124991,-32.48626067500588,182.0498],[-63.113818359374989,-32.506182550005889,176.9073],[-63.071142578124991,-32.521319268755889,170.5848],[-63.05126953125,-32.53118255000588,167.4117],[-63.03466796875,-32.543780206255889,163.8602],[-63.019140624999991,-32.56218840938088,162.3807],[-62.997119140624989,-32.59490325313088,158.2751],[-62.982836914062489,-32.60857512813088,156.0947],[-62.96640625,-32.618487237505889,153.5124],[-62.945410156249991,-32.62737395625588,152.1529]]}}