{"type":"Feature","properties":{"featurecla":"River","scalerank":9,"rivernum":1144,"dissolve":"1144River","name":"Carcarañá","name_alt":null,"note":null,"min_zoom":7.1,"strokeweig":0.2,"name_en":"Carcarañá","min_label":8.1},
"geometry":{"type": "LineString","coordinates": [[-62.945410156249991,-32.62737395625588,152.1529],[-62.922656249999989,-32.63396575313088,147.4738],[-62.900927734374989,-32.636553643755889,146.9441],[-62.878515624999991,-32.63420989375588,144.9034],[-62.842382812499991,-32.62444426875588,140.843],[-62.818945312499991,-32.622881768755889,138.3664],[-62.79443359375,-32.626495050005886,137.0931],[-62.744799804687489,-32.63982512813088,131.0216],[-62.719335937499991,-32.64275481563088,128.3744],[-62.633398437499991,-32.629717706255889,122.2987],[-62.609375,-32.63152434688088,121.1609],[-62.585620117187489,-32.636553643755889,120.5289],[-62.550390624999991,-32.65422942500588,115.4556],[-62.519384765624991,-32.663409112505889,113.6229],[-62.508349609374989,-32.66912200313088,115.152],[-62.503662109375,-32.674346612505886,113.8836],[-62.500292968749989,-32.68499114375588,111.9802],[-62.491796874999991,-32.68840911250588,111.1187],[-62.480761718749989,-32.688995050005886,111.6687],[-62.469531249999989,-32.69109465938088,111.2927],[-62.459570312499991,-32.69426848750588,108.7245],[-62.453955078124991,-32.69475676875588,109.138],[-62.449145507812489,-32.69670989375588,108.6241],[-62.441650390625,-32.70476653438088,108.785],[-62.438403320312489,-32.71282317500588,107.8365],[-62.435400390624991,-32.73406340938088,106.1893],[-62.431689453124989,-32.74260833125588,104.7839],[-62.423828125,-32.75554778438088,102.8278],[-62.414111328124989,-32.782256768755886,102.9463],[-62.407470703125,-32.79412200313088,102.2841],[-62.416308593749989,-32.812823175005889,100.3939],[-62.421240234374991,-32.820342706255886,104.4926],[-62.428564453124991,-32.82830169063088,105.3881],[-62.419775390624991,-32.84075286250588,101.1331],[-62.40625,-32.849639581255886,104.1056],[-62.380175781249989,-32.86248137813088,100.5261],[-62.371191406249991,-32.872393487505889,99.3967],[-62.351245117187489,-32.90129973750588,102.5537],[-62.339160156249989,-32.91082122188088,97.3483],[-62.330419921874991,-32.91204192500588,90.631],[-62.322607421874991,-32.909502862505889,94.0896],[-62.315380859375,-32.90593840938088,89.2887],[-62.308447265624991,-32.90398528438088,92.3758],[-62.299560546875,-32.906084893755889,98.9186],[-62.28515625,-32.91521575313088,96.0806],[-62.277758789062489,-32.91765715938088,89.0889],[-62.260302734374989,-32.91716887813088,92.6027],[-62.248095703124989,-32.91253020625588,91.0652],[-62.222509765624991,-32.896514581255886,89.6141],[-62.160083007812489,-32.936065362505886,84.4153],[-62.12939453125,-32.951202081255886,82.5931],[-61.9931640625,-32.966143487505889,77.8836],[-61.97021484375,-32.96062590938088,80.4924],[-61.954443359374991,-32.94744231563088,83.0077],[-61.940234374999989,-32.931475518755889,87.5508],[-61.921435546874989,-32.91765715938088,85.1183]]}}