{"type":"Feature","properties":{"featurecla":"River","scalerank":9,"rivernum":1126,"dissolve":"1126River","name":"Tercero","name_alt":null,"note":null,"min_zoom":7.1,"strokeweig":0.15,"name_en":"Tercero","min_label":8.1},
"geometry":{"type": "LineString","coordinates": [[-64.408544921874991,-32.15667083125588,558.1456],[-64.395678710937489,-32.15667083125588,526.7545],[-64.372412109374991,-32.165362237505889,455.467],[-64.350195312499991,-32.17742278438088,468.1697],[-64.34033203125,-32.187823175005889,456.9686],[-64.328857421875,-32.18938567500588,444.5],[-64.13134765625,-32.14348723750588,387.9088],[-64.08642578125,-32.14299895625588,355.4595],[-64.064453125,-32.14861419063088,363.7127],[-64.024340820312489,-32.16692473750588,362.6705],[-64.007910156249991,-32.170928643755886,358.1439],[-63.921972656249991,-32.17717864375588,336.7657]]}}