{"type":"Feature","properties":{"featurecla":"River","scalerank":8,"rivernum":767,"dissolve":"767River","name":"Dulce2","name_alt":null,"note":null,"min_zoom":7.0,"strokeweig":0.25,"name_en":"Dulce","min_label":8.0},
"geometry":{"type": "LineString","coordinates": [[-63.72333984375,-28.50457122188088,122.4475],[-63.721362304687489,-28.515166925005886,122.2088],[-63.720800781249991,-28.536455987505889,119.4525],[-63.716479492187489,-28.546221612505889,118.3813],[-63.70859375,-28.552080987505889,117.2877],[-63.687597656249991,-28.55779387813088,116.9511],[-63.678955078125,-28.562334893755889,116.0323],[-63.656835937499991,-28.577666925005886,114.576],[-63.651660156249989,-28.579620050005886,114.5177],[-63.647070312499991,-28.58074309688088,115.8695],[-63.634814453124989,-28.58684661250588,114.8899],[-63.630859375,-28.589678643755889,113.2419],[-63.62421875,-28.59319426875588,113.3477],[-63.619238281249991,-28.59075286250588,116.8405],[-63.6142578125,-28.586748956255889,115.376],[-63.607275390624991,-28.58587005000588,114.1733],[-63.586474609374989,-28.597198175005886,113.5177],[-63.55126953125,-28.627959893755886,114.22],[-63.528125,-28.634307550005886,113.0038],[-63.515625,-28.64226653438088,112.1247],[-63.510595703124991,-28.66106536250588,111.0415],[-63.508349609374989,-28.68377044063088,109.7564],[-63.504248046874991,-28.703155206255886,108.8202],[-63.481860351562489,-28.743682550005886,107.1891],[-63.443359375,-28.79509856563088,104.4959],[-63.407763671874989,-28.877471612505886,104.3411],[-63.403002929687489,-28.89373137813088,104.1268],[-63.401171874999989,-28.912432550005889,101.4533],[-63.403076171875,-28.935577081255886,100.4779],[-63.415478515625,-28.99797942500588,103.8245],[-63.415380859374991,-29.041827081255889,106.1258],[-63.407958984375,-29.08245208125588,100.4478],[-63.393847656249989,-29.116534112505889,98.5034],[-63.373876953124991,-29.141436456255889,97.428],[-63.3583984375,-29.155303643755886,95.569],[-63.346533203124991,-29.168780206255889,94.4305],[-63.336669921875,-29.18938567500588,94.4471],[-63.330664062499991,-29.19890715938088,94.3661],[-63.322680664062489,-29.20281340938088,94.4592],[-63.30625,-29.208038018755886,93.7047],[-63.287207031249991,-29.22063567500588,94.1777],[-63.269580078124989,-29.23650481563088,92.8936],[-63.257177734374991,-29.251299737505889,92.7597],[-63.204541015625,-29.36834075313088,89.3925],[-63.182080078125,-29.388506768755889,88.4233],[-63.154541015625,-29.40667083125588,87.9808],[-63.04931640625,-29.531084893755889,83.5725],[-62.993701171874989,-29.57683684688088,82.3149],[-62.984277343749994,-29.608233331255889,82.0276],[-62.982836914062489,-29.611651300005889,81.9745],[-62.9814453125,-29.619463800005889,82.0232],[-62.978076171874989,-29.627764581255889,81.9722],[-62.946386718749991,-29.675323175005886,81.0481],[-62.919287109374991,-29.70110442500588,80.3439],[-62.886572265624991,-29.721514581255889,79.6351],[-62.807543945312489,-29.753252862505889,79.0811],[-62.7958984375,-29.766631768755886,78.7585],[-62.79169921875,-29.789092706255886,78.4969],[-62.79169921875,-29.823272393755886,77.9401],[-62.794287109374991,-29.82952239375588,77.8729],[-62.799658203124991,-29.83782317500588,77.5984],[-62.804541015624991,-29.848174737505886,77.5388],[-62.805346679687489,-29.86077239375588,77.3188],[-62.801318359374989,-29.86882903438088,77.1939],[-62.793798828124991,-29.87786223750588,76.9036],[-62.785888671875,-29.885088800005889,76.4987],[-62.780810546874989,-29.88811614375588,76.4008],[-62.776123046875,-29.892413018755889,76.3688],[-62.774023437499991,-29.90252044063088,76.1488],[-62.772998046874989,-29.91399505000588,75.8384],[-62.771240234375,-29.922881768755886,75.488],[-62.760009765625,-29.94207122188088,75.5009],[-62.697363281249991,-30.00847747188088,74.4695],[-62.679736328124989,-30.01531340938088,74.0367],[-62.608642578125,-30.021807550005889,73.8519],[-62.588671874999989,-30.02800872188088,73.9306],[-62.572363281249991,-30.039873956255889,73.2061],[-62.55830078125,-30.05999114375588,71.5],[-62.55517578125,-30.083330987505889,72.2985],[-62.567578125,-30.11663176875588,72.3674],[-62.599291992187489,-30.16985442500588,71.9584],[-62.600927734374991,-30.205596612505886,71.1046],[-62.590673828124991,-30.235674737505889,71.6955],[-62.574511718749989,-30.25994231563088,70.6182],[-62.53857421875,-30.299834893755886,68.1322],[-62.528491210937489,-30.314483331255886,67.5],[-62.524169921875,-30.330401300005889,69.7913],[-62.526171874999989,-30.349444268755889,68.6621],[-62.544677734375,-30.39519622188088,67.5],[-62.548999023437489,-30.42156340938088,67.5],[-62.551318359374989,-30.48723723750588,67.5],[-62.55830078125,-30.519366143755889,67.5]]}}