{"type":"Feature","properties":{"GID_2":"ARG.9.8_1","GID_0":"ARG","country":"Argentina","GID_1":"ARG.9_1","state":"Formosa","NL_NAME_1":"NA","county":"Pirané","VARNAME_2":"NA","NL_NAME_2":"NA","TYPE_2":"Departamento","ENGTYPE_2":"Department","CC_2":"NA","HASC_2":"AR.FM.PR","name":"Pirané.county"},
"geometry":{"type": "MultiPolygon","coordinates": [[[[-58.9749,-26.3829,71.4197],[-58.9745,-26.1858,75.2463],[-58.926,-26.1853,75.9966],[-58.9259,-25.7786,82.9141],[-58.6047,-25.7772,75.4806],[-58.6051,-25.4707,76.3004],[-59.0536,-25.174,89.9408],[-59.6351,-25.6075,101.129],[-59.6368,-26.1127,89.3176],[-59.6326,-26.1127,85.4031],[-59.6295,-26.1165,77.0409],[-59.6292,-26.1201,91.387],[-59.6197,-26.1223,92.2417],[-59.617,-26.1251,90.2973],[-59.6075,-26.1215,84.9788],[-59.6001,-26.123,89.0571],[-59.5986,-26.1261,90.5608],[-59.5877,-26.1257,80.9555],[-59.5827,-26.1284,77.3627],[-59.5788,-26.1311,85.0291],[-59.5807,-26.1378,83.9173],[-59.5798,-26.1436,81.4895],[-59.5769,-26.147,79.5616],[-59.5732,-26.148,85.9488],[-59.5626,-26.147,89.1242],[-59.5533,-26.1497,78.7195],[-59.5419,-26.1459,87.2713],[-59.5359,-26.1464,87.033],[-59.5342,-26.15,91.6422],[-59.5243,-26.1479,77.4813],[-59.5159,-26.1479,82.8758],[-59.5097,-26.1537,83.6064],[-59.5041,-26.1565,80.5126],[-59.5004,-26.1572,92.1844],[-59.4851,-26.1548,86.404],[-59.4858,-26.1592,85.6691],[-59.4771,-26.1592,86.1639],[-59.4724,-26.1622,83.2921],[-59.4545,-26.1515,81.5783],[-59.4279,-26.154,85.4963],[-59.4183,-26.1619,84.8376],[-59.4141,-26.1704,79.8559],[-59.4099,-26.1714,85.0464],[-59.4019,-26.1804,83.521],[-59.4097,-26.1859,82.9289],[-59.4106,-26.1936,81.9379],[-59.4158,-26.1986,82.7476],[-59.4083,-26.2099,73.0327],[-59.4049,-26.2222,83.4818],[-59.3944,-26.2409,82.9837],[-59.3893,-26.2647,84.1651],[-59.3819,-26.2614,74.6159],[-59.3792,-26.2644,81.2692],[-59.3847,-26.2763,81.4118],[-59.3852,-26.2909,76.0786],[-59.3906,-26.2941,80.654],[-59.3875,-26.2976,77.596],[-59.3869,-26.3022,75.7101],[-59.3763,-26.3103,83.176],[-59.3676,-26.3219,80.2799],[-59.3551,-26.3331,83.6705],[-59.3489,-26.3314,80.8459],[-59.337,-26.3308,79.468],[-59.3337,-26.3327,77.1502],[-59.3292,-26.3316,76.3731],[-59.326,-26.3241,72.3565],[-59.322,-26.3226,78.9996],[-59.3167,-26.3265,72.9544],[-59.3142,-26.3231,77.0087],[-59.3149,-26.3171,79.0602],[-59.3085,-26.3235,75.6472],[-59.3076,-26.3296,81.9848],[-59.3045,-26.3326,79.9779],[-59.2838,-26.342,78.26],[-59.276,-26.3439,78.6676],[-59.2673,-26.3435,77.8127],[-59.2229,-26.3327,78.7043],[-59.2113,-26.3257,76.23],[-59.192,-26.3213,78.1012],[-59.1874,-26.3173,69.2495],[-59.1851,-26.3089,67.9403],[-59.1771,-26.302,76.6257],[-59.1704,-26.2982,79.9426],[-59.158,-26.2957,82.1194],[-59.1485,-26.2897,76.4058],[-59.1405,-26.2971,81.6184],[-59.1395,-26.3009,67.0],[-59.1439,-26.3037,71.4358],[-59.1423,-26.3083,70.8699],[-59.1446,-26.3122,67.8698],[-59.1494,-26.313,73.8129],[-59.1505,-26.3164,74.1627],[-59.1148,-26.3234,71.0634],[-59.1183,-26.3287,75.8141],[-59.1177,-26.3372,66.5],[-59.1036,-26.3356,73.8204],[-59.0994,-26.3435,72.7529],[-59.0714,-26.3665,71.1264],[-59.0606,-26.369,72.8798],[-59.0533,-26.3681,71.7761],[-59.0434,-26.3635,74.6743],[-59.0235,-26.3724,71.2456],[-59.0149,-26.3736,72.859],[-59.0053,-26.3723,73.1432],[-58.9889,-26.377,74.8232],[-58.9853,-26.3805,65.6584],[-58.9749,-26.3829,71.4197]]]]}}