{"type":"Feature","properties":{"GID_2":"ARG.1.55_1","GID_0":"ARG","country":"Argentina","GID_1":"ARG.1_1","state":"BuenosAires","NL_NAME_1":"NA","county":"GeneralSarmiento","VARNAME_2":"NA","NL_NAME_2":"NA","TYPE_2":"Partido","ENGTYPE_2":"Part","CC_2":"NA","HASC_2":"NA","name":"GeneralSarmiento.county"},
"geometry":{"type": "MultiPolygon","coordinates": [[[[-58.7367,-34.4617,27.6282],[-58.7475,-34.4675,26.5388],[-58.7455,-34.4699,26.499],[-58.7705,-34.4824,25.9884],[-58.8184,-34.422,12.7569],[-58.8196,-34.4224,11.3564],[-58.8228,-34.4289,9.8636],[-58.8221,-34.4395,11.6644],[-58.8205,-34.4412,12.1475],[-58.8218,-34.4439,13.332],[-58.8203,-34.4496,13.468],[-58.8218,-34.4603,17.5103],[-58.8146,-34.4695,15.176],[-58.8151,-34.477,17.5535],[-58.8116,-34.4906,16.8704],[-58.815,-34.4983,21.0634],[-58.8202,-34.502,19.945],[-58.819,-34.5069,22.4583],[-58.8235,-34.5134,22.6987],[-58.7766,-34.5624,29.3116],[-58.7774,-34.5631,28.6273],[-58.7145,-34.6104,13.0852],[-58.7107,-34.6062,10.2025],[-58.6972,-34.6005,9.6727],[-58.6933,-34.5959,10.4003],[-58.6851,-34.5932,6.995],[-58.6838,-34.5886,5.6201],[-58.6719,-34.5799,8.4871],[-58.6712,-34.5776,7.3727],[-58.6678,-34.5786,9.8169],[-58.6589,-34.5713,6.296],[-58.6478,-34.5686,9.6786],[-58.6396,-34.5607,5.7758],[-58.633,-34.5586,5.7686],[-58.6307,-34.5546,7.2844],[-58.6268,-34.5518,6.8383],[-58.6213,-34.5505,4.1872],[-58.6182,-34.552,5.4933],[-58.6119,-34.5465,6.9782],[-58.608,-34.5402,4.1632],[-58.6846,-34.4745,18.2566],[-58.7064,-34.4454,12.0272],[-58.7367,-34.4617,27.6282]]]]}}