{"type":"Feature","properties":{"GID_2":"ARG.15.12_1","GID_0":"ARG","country":"Argentina","GID_1":"ARG.15_1","state":"Neuquén","NL_NAME_1":"NA","county":"Ñorquín","VARNAME_2":"ElHuecu|Nroquin","NL_NAME_2":"NA","TYPE_2":"Departamento","ENGTYPE_2":"Department","CC_2":"NA","HASC_2":"AR.NQ.NO","name":"Ñorquín.county"},
"geometry":{"type": "MultiPolygon","coordinates": [[[[-70.4765,-37.3643,905.2688],[-70.5275,-37.3758,1000.0255],[-70.5526,-37.3768,1126.1869],[-70.5776,-37.3747,910.6019],[-70.596,-37.3708,921.1577],[-70.6126,-37.3641,1051.7582],[-70.6375,-37.3486,1122.7408],[-70.6502,-37.337,1427.4645],[-70.6601,-37.3316,1285.9713],[-70.6723,-37.3298,1271.9597],[-70.6915,-37.3296,1022.7903],[-70.7291,-37.3316,989.641],[-70.7772,-37.3427,1055.0125],[-70.8399,-37.3467,1136.2458],[-70.8649,-37.3471,1160.6292],[-70.8896,-37.3419,1246.5232],[-70.9016,-37.3418,1280.1908],[-70.937,-37.3524,1447.957],[-71.0185,-37.3561,1550.1707],[-71.0624,-37.3622,1500.4521],[-71.0746,-37.3626,1477.901],[-71.0862,-37.3602,1524.8855],[-71.1132,-37.3465,1529.14],[-71.1479,-37.3345,1554.9252],[-71.1617,-37.3243,1704.5183],[-71.1701,-37.3109,1853.5892],[-71.1702,-37.2857,1829.12],[-71.1738,-37.2599,2110.9492],[-71.1816,-37.2583,2116.0469],[-71.1847,-37.2596,2106.9146],[-71.1841,-37.2678,1918.2856],[-71.1865,-37.2695,1896.717],[-71.1874,-37.2763,2095.1675],[-71.1997,-37.2751,2198.321],[-71.2053,-37.2729,2214.762],[-71.2138,-37.2723,2220.1836],[-71.2199,-37.2737,2222.2627],[-71.2207,-37.2749,2247.5427],[-71.2156,-37.2794,2066.0591],[-71.2146,-37.2839,1972.193],[-71.2173,-37.2941,2016.9496],[-71.2164,-37.3038,2250.0437],[-71.2108,-37.3098,2207.8489],[-71.2106,-37.3169,2172.2539],[-71.2068,-37.3193,2253.9749],[-71.2072,-37.3259,2214.6213],[-71.2055,-37.3317,2143.6084],[-71.2079,-37.3384,2131.6191],[-71.1952,-37.3427,1834.6473],[-71.1935,-37.3502,1814.7537],[-71.1879,-37.3528,1850.2683],[-71.1864,-37.3558,1912.6431],[-71.1909,-37.3623,2003.6677],[-71.2019,-37.3655,2128.7676],[-71.1982,-37.3738,2156.0325],[-71.1993,-37.3812,2163.3701],[-71.1965,-37.3845,2191.3638],[-71.1907,-37.3854,2203.0583],[-71.1881,-37.393,1915.8541],[-71.1819,-37.3961,1910.5725],[-71.164,-37.3994,2157.1978],[-71.1585,-37.3968,2222.988],[-71.1525,-37.4015,2098.4834],[-71.1488,-37.421,2087.4326],[-71.1459,-37.4247,2018.6184],[-71.1474,-37.4295,2020.5667],[-71.1438,-37.4324,1950.7113],[-71.1412,-37.4421,1879.266],[-71.1385,-37.4449,1920.3538],[-71.1289,-37.4478,2064.9409],[-71.1269,-37.4518,2100.3508],[-71.1198,-37.4585,2161.2327],[-71.1185,-37.4691,2044.1609],[-71.1206,-37.4736,2177.4875],[-71.1199,-37.4862,2196.0391],[-71.1175,-37.4887,2189.9189],[-71.118,-37.4915,2070.2205],[-71.1241,-37.4967,2126.6675],[-71.1226,-37.5047,2013.9634],[-71.1281,-37.5105,2059.2305],[-71.1326,-37.5292,2041.3401],[-71.1436,-37.5358,2045.0437],[-71.1485,-37.5368,2077.1128],[-71.1499,-37.5393,2166.9067],[-71.147,-37.5423,2169.5662],[-71.1371,-37.5459,2095.8389],[-71.1363,-37.55,2031.9656],[-71.1332,-37.5524,1961.7753],[-71.1335,-37.5636,2030.2859],[-71.1313,-37.5686,2057.0015],[-71.1275,-37.5697,2090.303],[-71.1259,-37.581,2240.2229],[-71.1274,-37.5865,2093.4163],[-71.1337,-37.5917,2080.8062],[-71.1373,-37.5991,2148.6648],[-71.1407,-37.6012,2117.5366],[-71.1467,-37.609,2157.6978],[-71.1627,-37.614,2361.5444],[-71.1681,-37.6119,2326.2539],[-71.1734,-37.613,2196.3928],[-71.1918,-37.6289,2399.8235],[-71.1982,-37.6442,2331.7422],[-71.2073,-37.6483,2409.1541],[-71.2011,-37.6518,2363.6023],[-71.1989,-37.6645,2272.2544],[-71.2046,-37.6787,1975.864],[-71.2114,-37.6892,2023.4333],[-71.2093,-37.6922,2070.1472],[-71.2093,-37.6984,2197.2922],[-71.2074,-37.7005,2235.7627],[-71.2023,-37.7029,2179.4448],[-71.1945,-37.71,1939.1926],[-71.1883,-37.7126,1868.9135],[-71.1892,-37.7228,1904.9905],[-71.1848,-37.7269,1959.5925],[-71.185,-37.7342,2179.4189],[-71.1831,-37.7371,2172.0022],[-71.1781,-37.7413,2066.8374],[-71.1661,-37.7475,2300.8389],[-71.1623,-37.7551,2356.572],[-71.1557,-37.757,2439.5815],[-71.158,-37.7655,2410.9709],[-71.1565,-37.7709,2361.8232],[-71.1707,-37.7805,2418.1404],[-71.1666,-37.7875,2284.1543],[-71.1585,-37.7902,1963.2664],[-71.1565,-37.7963,2053.8586],[-71.1516,-37.8026,2100.229],[-71.1531,-37.8099,2256.7483],[-71.142,-37.8159,2319.9429],[-71.1281,-37.8177,2316.7227],[-71.1259,-37.8202,2196.4651],[-71.1258,-37.8234,2069.0393],[-71.1303,-37.8324,2079.3489],[-71.1399,-37.8369,2143.7305],[-71.1518,-37.8375,2364.2729],[-71.1592,-37.8399,2487.2083],[-71.1623,-37.8499,2766.9919],[-71.1658,-37.854,2852.8264],[-71.1713,-37.857,2913.5413],[-71.1811,-37.8557,2912.9749],[-71.1835,-37.8578,2935.6477],[-71.1703,-37.862,2895.7134],[-71.1582,-37.8577,2757.1184],[-71.1403,-37.8595,2380.0337],[-71.1342,-37.8636,2280.2705],[-71.1315,-37.8686,2251.5271],[-71.1274,-37.8713,2173.2607],[-71.1256,-37.8788,2004.7083],[-71.1167,-37.8861,2102.9504],[-71.1072,-37.8911,2301.6995],[-71.1081,-37.8953,2303.2515],[-71.1058,-37.9005,2373.6736],[-71.0993,-37.9017,2436.9968],[-71.1064,-37.9073,2373.4792],[-71.1106,-37.9185,2396.3704],[-71.1139,-37.9203,2393.0522],[-71.1101,-37.9232,2364.0979],[-71.1108,-37.9276,2338.2939],[-71.1086,-37.9297,2292.1299],[-71.1081,-37.9334,2297.7402],[-71.1087,-37.9386,2300.6331],[-71.1124,-37.9434,2322.21],[-71.1142,-37.9517,2323.2722],[-71.104,-37.9543,2105.4897],[-71.0918,-37.9646,2077.0713],[-71.0888,-37.9633,2055.3647],[-71.0777,-37.9636,1878.0867],[-71.0618,-37.9705,2062.6826],[-71.0674,-37.9777,1956.4017],[-71.052,-37.9663,2015.7633],[-71.0316,-37.9542,1504.0901],[-71.0206,-37.9495,1593.3639],[-71.0144,-37.9486,1601.3363],[-71.0019,-37.9497,1509.4089],[-70.9905,-37.9542,1418.0408],[-70.9782,-37.9564,1387.4575],[-70.9468,-37.9586,1351.3767],[-70.9284,-37.955,1506.9301],[-70.8945,-37.9415,1314.3275],[-70.8707,-37.9345,1718.7032],[-70.8518,-37.9343,1596.8057],[-70.8209,-37.9395,1463.5663],[-70.802,-37.9387,1426.1443],[-70.7551,-37.9537,1192.9906],[-70.7298,-37.9547,1150.9216],[-70.6992,-37.9613,1131.8618],[-70.694,-37.9638,1133.9104],[-70.6811,-37.9752,1149.0137],[-70.6519,-37.9846,1097.0081],[-70.6203,-38.0059,1065.9076],[-70.0465,-37.6336,858.2112],[-70.046,-37.6205,782.8925],[-70.0551,-37.5913,792.7838],[-70.0713,-37.5533,830.6033],[-70.082,-37.5352,776.7723],[-70.1077,-37.5067,958.4929],[-70.1325,-37.484,786.2748],[-70.1503,-37.4634,1097.0823],[-70.1706,-37.4517,929.4457],[-70.1915,-37.4329,1010.6965],[-70.2097,-37.4191,861.7166],[-70.2308,-37.4081,817.0214],[-70.2674,-37.4017,845.5093],[-70.3063,-37.3853,880.3395],[-70.3241,-37.3798,900.5385],[-70.3363,-37.379,881.3537],[-70.3795,-37.3876,1025.2645],[-70.3917,-37.3879,883.5607],[-70.4038,-37.3854,864.4885],[-70.421,-37.3787,862.7655],[-70.4261,-37.3758,861.0],[-70.4425,-37.3602,877.8015],[-70.454,-37.3595,883.4388],[-70.4765,-37.3643,905.2688]]]]}}