{"type": "Feature","bbox": [-54.6073,-27.4471,-53.8797,-26.64],"geometry": {"type": "MultiPolygon","coordinates": [[[[-54.5134,-27.258,212.3336],[-54.3679,-27.2294,286.5824],[-54.3582,-27.2306,266.0839],[-54.3568,-27.2357,266.213],[-54.3621,-27.238,314.7439],[-54.3638,-27.2403,355.003],[-54.3634,-27.2427,317.6119],[-54.3573,-27.243,238.0119],[-54.3533,-27.25,246.9789],[-54.3641,-27.2476,237.7782],[-54.3671,-27.2476,253.2954],[-54.3684,-27.2497,295.5517],[-54.365,-27.2541,266.6332],[-54.3548,-27.2596,223.8883],[-54.3533,-27.2647,251.3797],[-54.3555,-27.2696,266.6102],[-54.3543,-27.2747,227.1248],[-54.3523,-27.2766,200.6976],[-54.3435,-27.2781,194.74],[-54.3338,-27.2881,235.2412],[-54.3271,-27.2921,226.5986],[-54.3287,-27.2937,193.4674],[-54.3375,-27.2944,230.9079],[-54.3375,-27.2993,273.2385],[-54.3319,-27.3056,252.541],[-54.3232,-27.3058,233.0844],[-54.3205,-27.307,213.8415],[-54.3195,-27.3095,179.9579],[-54.3204,-27.3174,237.2678],[-54.3251,-27.3237,180.5187],[-54.3244,-27.3258,176.8684],[-54.3213,-27.3262,167.6388],[-54.3206,-27.3312,176.1239],[-54.3178,-27.3359,200.2443],[-54.3207,-27.349,207.0249],[-54.3135,-27.3571,173.8183],[-54.3019,-27.3576,170.8],[-54.3009,-27.3601,176.7486],[-54.3036,-27.3649,189.2075],[-54.3104,-27.3701,139.1383],[-54.3217,-27.3699,218.2196],[-54.3234,-27.372,217.5185],[-54.3165,-27.3769,141.5378],[-54.2928,-27.3782,175.954],[-54.2933,-27.3834,141.7896],[-54.3105,-27.3868,137.3593],[-54.3192,-27.3865,127.0322],[-54.32,-27.3888,138.9602],[-54.3128,-27.3933,131.1283],[-54.3099,-27.3979,135.409],[-54.2997,-27.3938,198.3128],[-54.2979,-27.3959,188.2964],[-54.298,-27.3986,131.1654],[-54.2997,-27.4063,148.7196],[-54.3014,-27.4082,180.9316],[-54.3102,-27.4093,185.2046],[-54.3202,-27.4035,172.8925],[-54.3278,-27.4084,147.9406],[-54.3137,-27.4181,118.0],[-54.2985,-27.4407,118.5],[-54.2881,-27.4461,133.5718],[-54.2824,-27.4471,118.5],[-54.2775,-27.4451,118.5],[-54.273,-27.4401,118.5],[-54.2665,-27.4291,119.0],[-54.2656,-27.4223,126.7639],[-54.2686,-27.4081,129.211],[-54.2652,-27.4008,119.0],[-54.2472,-27.3944,119.5],[-54.2274,-27.3914,119.5],[-54.2222,-27.3884,119.5],[-54.2162,-27.3816,120.0],[-54.2134,-27.3725,120.0],[-54.2128,-27.3522,120.0],[-54.2097,-27.3352,120.5],[-54.1919,-27.303,128.1867],[-54.187,-27.2736,151.0752],[-54.1802,-27.2643,151.9256],[-54.176,-27.2607,129.6289],[-54.1701,-27.2588,164.0014],[-54.1641,-27.2587,163.1594],[-54.1615,-27.2607,140.9214],[-54.1573,-27.2691,143.9523],[-54.1583,-27.2931,122.5],[-54.1549,-27.2981,157.3494],[-54.1575,-27.2933,122.5],[-54.1572,-27.291,128.9622],[-54.1523,-27.2966,125.9108],[-54.1456,-27.2991,122.5],[-54.1113,-27.3028,124.3859],[-54.1106,-27.3048,146.7471],[-54.0891,-27.3027,122.5],[-54.081,-27.2997,140.6259],[-54.0714,-27.2907,123.0],[-54.0567,-27.2665,124.0],[-54.0476,-27.2606,127.974],[-54.0298,-27.2553,124.5],[-54.0216,-27.2486,125.0],[-54.0183,-27.2438,125.5],[-54.0154,-27.2313,129.812],[-54.0126,-27.208,165.8221],[-54.0089,-27.2046,176.5232],[-54.0011,-27.201,183.398],[-53.9857,-27.1985,169.547],[-53.9787,-27.1986,136.0096],[-53.9705,-27.2025,195.1178],[-53.9596,-27.2016,205.4412],[-53.9566,-27.1994,193.4512],[-53.9548,-27.1925,198.1522],[-53.9555,-27.1719,176.8889],[-53.9537,-27.1619,214.0001],[-53.9487,-27.1554,201.1868],[-53.9375,-27.1534,128.0],[-53.9343,-27.1549,128.0],[-53.9336,-27.1409,194.5058],[-53.9356,-27.1331,260.9666],[-53.9344,-27.1308,199.2769],[-53.9284,-27.1308,197.1608],[-53.9204,-27.1342,243.0031],[-53.9115,-27.1352,244.2613],[-53.9022,-27.1285,194.4948],[-53.8993,-27.1238,263.1861],[-53.8993,-27.1213,229.4266],[-53.9013,-27.1194,206.1063],[-53.9222,-27.1185,207.7029],[-53.9268,-27.1152,283.5337],[-53.9263,-27.1126,219.6579],[-53.918,-27.1133,229.2225],[-53.9123,-27.1121,308.9018],[-53.909,-27.1046,214.3737],[-53.9063,-27.1042,227.4261],[-53.9033,-27.1047,256.6165],[-53.8971,-27.1098,316.9938],[-53.8878,-27.1033,183.2146],[-53.8797,-27.0998,211.5674],[-53.8798,-27.0975,206.4023],[-53.8846,-27.0944,303.7183],[-53.9074,-27.0886,267.4771],[-53.9073,-27.086,246.0717],[-53.9048,-27.0846,240.5928],[-53.8934,-27.0814,222.0592],[-53.8924,-27.079,215.7788],[-53.8938,-27.0766,238.4967],[-53.9042,-27.0722,229.2134],[-53.905,-27.0668,217.1314],[-53.8991,-27.0609,186.7557],[-53.8935,-27.059,207.9887],[-53.8939,-27.0537,218.0139],[-53.8876,-27.0485,189.5402],[-53.8886,-27.0459,249.5619],[-53.897,-27.0443,209.9248],[-53.9042,-27.0491,300.2234],[-53.9056,-27.0514,310.8597],[-53.9051,-27.0565,259.2653],[-53.91,-27.0587,221.6172],[-53.9131,-27.0512,257.7862],[-53.9173,-27.0478,180.328],[-53.9168,-27.0377,206.2622],[-53.9209,-27.0308,226.4806],[-53.9233,-27.0315,254.214],[-53.9273,-27.0414,330.6959],[-53.9273,-27.049,255.6353],[-53.9393,-27.0498,200.4207],[-53.9446,-27.0518,235.7599],[-53.9473,-27.051,222.9347],[-53.9481,-27.0485,233.7547],[-53.9466,-27.0462,285.3738],[-53.9396,-27.0415,271.2032],[-53.9408,-27.0338,261.4059],[-53.9381,-27.0262,340.2401],[-53.9401,-27.0214,356.1211],[-53.943,-27.0208,357.4791],[-53.9454,-27.0224,374.547],[-53.9503,-27.0291,264.1287],[-53.9596,-27.0354,259.8396],[-53.9594,-27.0404,254.7298],[-53.9681,-27.0409,205.5378],[-53.971,-27.0402,217.401],[-53.9721,-27.0379,273.7817],[-53.9695,-27.022,305.5185],[-53.9715,-27.0203,337.8137],[-53.9801,-27.0209,272.1131],[-53.9822,-27.0192,237.5835],[-53.9798,-27.0092,256.6848],[-53.9816,-27.0071,260.6185],[-53.9871,-27.006,238.8358],[-53.9954,-27.0135,282.2024],[-54.0031,-27.0173,312.3144],[-54.0082,-27.0149,248.0269],[-54.0106,-27.01,251.9537],[-54.02,-27.0039,301.2602],[-54.0214,-26.9987,224.9035],[-54.0188,-26.9979,299.0401],[-54.005,-27.0023,375.7953],[-53.9985,-26.9972,226.169],[-53.9975,-26.9946,254.6888],[-53.9985,-26.9923,269.8325],[-54.0045,-26.9862,222.9174],[-54.005,-26.9838,261.4443],[-53.9954,-26.9781,313.6587],[-53.9967,-26.973,348.6621],[-53.9988,-26.9714,346.7902],[-54.006,-26.9758,253.2883],[-54.0147,-26.9768,322.4688],[-54.0227,-26.9842,312.4152],[-54.0257,-26.984,214.5564],[-54.0289,-26.9771,327.2122],[-54.0318,-26.9762,354.171],[-54.0343,-26.9718,355.5293],[-54.0325,-26.9697,347.3158],[-54.0239,-26.9672,333.6585],[-54.0197,-26.9547,237.6979],[-54.0246,-26.9483,235.2678],[-54.0254,-26.943,270.7729],[-54.0307,-26.941,280.1339],[-54.0346,-26.9371,334.434],[-54.034,-26.9294,376.9142],[-54.0322,-26.9273,355.5931],[-54.0293,-26.9269,338.7197],[-54.025,-26.9305,352.7862],[-54.0221,-26.9303,254.0246],[-54.0141,-26.9273,245.587],[-54.0128,-26.925,239.653],[-54.0211,-26.9151,253.103],[-54.0289,-26.8953,358.2964],[-54.0316,-26.8951,344.3846],[-54.0372,-26.9013,321.6324],[-54.0399,-26.9022,252.5154],[-54.0413,-26.9002,247.5358],[-54.0382,-26.8927,248.6593],[-54.0407,-26.8883,297.0086],[-54.0437,-26.8886,328.0424],[-54.0529,-26.8942,365.1571],[-54.0547,-26.892,312.9108],[-54.0538,-26.8868,364.0108],[-54.0554,-26.8818,252.8664],[-54.0513,-26.8778,363.4323],[-54.0507,-26.8753,384.2004],[-54.0523,-26.8738,382.9075],[-54.0583,-26.8733,344.638],[-54.068,-26.8679,333.6858],[-54.0754,-26.8794,294.2056],[-54.0779,-26.8809,258.9025],[-54.0805,-26.8803,264.2014],[-54.0847,-26.8676,277.6488],[-54.0814,-26.8631,344.7792],[-54.0827,-26.8581,395.0427],[-54.0971,-26.8577,263.8698],[-54.1014,-26.854,282.5553],[-54.1028,-26.8465,403.0913],[-54.0855,-26.8422,290.2253],[-54.0855,-26.8401,298.5021],[-54.0882,-26.8389,290.5478],[-54.0897,-26.8344,332.616],[-54.0955,-26.8352,410.8806],[-54.0992,-26.8392,348.0785],[-54.1021,-26.8382,286.3587],[-54.1055,-26.8341,358.1868],[-54.1081,-26.8336,395.2769],[-54.1089,-26.8282,399.0703],[-54.1074,-26.8176,366.751],[-54.1102,-26.8131,292.4471],[-54.1023,-26.812,360.3395],[-54.1021,-26.8095,446.3967],[-54.1076,-26.8076,317.6319],[-54.1134,-26.8082,417.9802],[-54.1217,-26.8052,401.6005],[-54.1304,-26.8051,330.046],[-54.1317,-26.7998,403.6396],[-54.125,-26.7961,297.6568],[-54.1265,-26.7938,307.1065],[-54.1324,-26.7936,376.1935],[-54.1329,-26.7888,313.3266],[-54.1353,-26.7875,310.9198],[-54.1355,-26.7848,304.3677],[-54.1392,-26.7805,374.1723],[-54.1354,-26.7776,376.8545],[-54.1373,-26.7725,455.5986],[-54.1353,-26.7707,419.4686],[-54.1294,-26.7701,349.2009],[-54.1286,-26.7679,415.2509],[-54.1363,-26.7647,416.4135],[-54.1381,-26.7624,355.3779],[-54.1357,-26.7583,423.3396],[-54.139,-26.7548,355.1702],[-54.1434,-26.7567,422.6152],[-54.1462,-26.756,437.0816],[-54.1461,-26.7507,432.5753],[-54.1382,-26.7483,370.9513],[-54.1398,-26.7462,372.423],[-54.1434,-26.7437,388.9802],[-54.2456,-26.801,498.8022],[-54.2414,-26.7915,520.2952],[-54.2443,-26.7869,512.7581],[-54.2417,-26.7832,571.9006],[-54.2587,-26.7374,593.2855],[-54.257,-26.7325,502.1517],[-54.2502,-26.7273,600.5367],[-54.2457,-26.7205,557.128],[-54.2453,-26.6992,476.541],[-54.2166,-26.6941,540.0012],[-54.2117,-26.6824,524.0096],[-54.2031,-26.6716,571.4044],[-54.1947,-26.6648,568.6667],[-54.2703,-26.64,403.3215],[-54.3907,-26.7115,568.7769],[-54.3981,-26.7198,519.1365],[-54.4065,-26.7174,511.7652],[-54.43,-26.7378,514.2765],[-54.4366,-26.7338,409.2216],[-54.4702,-26.7725,538.9376],[-54.5421,-26.8316,250.5609],[-54.5234,-26.852,262.5861],[-54.567,-26.8902,269.808],[-54.5637,-26.9166,471.1554],[-54.6073,-26.9313,276.7406],[-54.541,-27.0854,498.6262],[-54.4969,-27.0858,421.7338],[-54.5002,-27.0973,387.1093],[-54.497,-27.097,398.756],[-54.496,-27.1043,395.8511],[-54.4911,-27.1068,387.9045],[-54.49,-27.1169,386.3253],[-54.493899999999996,-27.1193,382.1153],[-54.4927,-27.1217,385.7191],[-54.4901,-27.1221,382.7311],[-54.4902,-27.1271,390.6725],[-54.4949,-27.1296,362.0585],[-54.4952,-27.1322,351.5901],[-54.4931,-27.1373,382.0608],[-54.4907,-27.1378,356.1225],[-54.4897,-27.143,347.7802],[-54.4948,-27.1459,387.3057],[-54.4934,-27.1509,339.4206],[-54.5039,-27.1518,373.1506],[-54.5051,-27.1541,406.9732],[-54.5037,-27.1565,339.1245],[-54.498,-27.1582,328.8755],[-54.4966,-27.1603,324.7104],[-54.4964,-27.1656,328.1534],[-54.501,-27.1677,362.9248],[-54.4977,-27.1747,315.4858],[-54.499,-27.1765,336.7043],[-54.5019,-27.1764,336.0794],[-54.507,-27.1738,387.8649],[-54.5106,-27.1776,297.0493],[-54.5135,-27.1733,385.1334],[-54.5185,-27.175,318.4308],[-54.5184,-27.1804,305.2784],[-54.5169,-27.1827,298.7005],[-54.507,-27.1882,301.1397],[-54.5071,-27.1906,312.4248],[-54.513,-27.1908,394.9898],[-54.5197,-27.1958,270.6366],[-54.5196,-27.2011,301.8024],[-54.5219,-27.2023,273.2793],[-54.5247,-27.2013,276.2674],[-54.529,-27.2046,252.7453],[-54.5265,-27.2122,248.9402],[-54.5216,-27.219,244.0526],[-54.5216,-27.2215,241.9896],[-54.5274,-27.2205,237.08],[-54.5277,-27.223,238.2729],[-54.5259,-27.2251,241.7677],[-54.514,-27.2247,237.7351],[-54.5128,-27.2269,236.353],[-54.5136,-27.2294,250.4012],[-54.5252,-27.2367,238.6687],[-54.5233,-27.2465,281.8391],[-54.5085,-27.246,268.9795],[-54.509,-27.2481,205.8732],[-54.5138,-27.2512,241.3808],[-54.5148,-27.2537,248.3271],[-54.5134,-27.258,212.3336]]]]}
,"properties": {"GID_2": "ARG.14.8_1","GID_0": "ARG","country": "Argentina","GID_1": "ARG.14_1","state": "Misiones","NL_NAME_1": "NA","county": "Guaraní","VARNAME_2": "ElSoberbio","NL_NAME_2": "NA","TYPE_2": "Departamento","ENGTYPE_2": "Department","CC_2": "NA","HASC_2": "AR.MN.GU","name": "Guaraní.county","area_km2": 3290.963,"hist_schema_id": "Elevation0-9000","hist_area_km2": {"125": 28.463,"150": 40.512,"175": 70.138,"200": 93.849,"225": 116.642,"250": 111.652,"275": 168.299,"300": 186.816,"325": 172.112,"350": 175.364,"375": 258.06,"400": 323.503,"425": 297.287,"450": 280.924,"475": 303.94,"500": 262.681,"525": 195.277,"550": 120.411,"575": 60.84,"600": 22.546,"625": 1.647}}}