{"type":"Feature","properties":{"GID_2":"ARG.22.10_1","GID_0":"ARG","country":"Argentina","GID_1":"ARG.22_1","state":"SantiagodelEstero","NL_NAME_1":"NA","county":"Figueroa","VARNAME_2":"LaCanada","NL_NAME_2":"NA","TYPE_2":"Departamento","ENGTYPE_2":"Department","CC_2":"NA","HASC_2":"AR.SE.FI","name":"Figueroa.county"},
"geometry":{"type": "MultiPolygon","coordinates": [[[[-63.7189,-26.9285,182.6704],[-63.7243,-26.9447,180.889],[-63.8547,-26.9469,186.7949],[-63.8543,-26.9569,183.177],[-63.916,-26.9591,186.7294],[-63.9166,-26.928,188.7692],[-64.0049,-26.9276,194.0488],[-64.0067,-27.0556,179.7964],[-63.9543,-27.0551,177.9134],[-63.956,-27.1939,162.0876],[-63.9768,-27.194,164.4595],[-63.9781,-27.2305,161.8654],[-63.9316,-27.2307,166.7414],[-63.9337,-27.2711,162.5882],[-63.9928,-27.2716,158.8871],[-64.0022,-27.3576,158.219],[-63.9855,-27.3599,157.6544],[-63.9951,-27.4253,155.9441],[-63.9563,-27.421,157.2887],[-63.9438,-27.4269,156.1855],[-63.9664,-27.5204,157.9911],[-63.9844,-27.5836,162.4288],[-63.9322,-27.6824,162.2347],[-63.8946,-27.6783,159.0341],[-63.8942,-27.6858,159.5186],[-63.8455,-27.7073,155.6945],[-63.8435,-27.7552,155.7068],[-63.754,-27.7535,150.0349],[-63.7256,-27.7667,146.907],[-63.6933,-27.7711,149.4105],[-63.6856,-27.8413,145.1726],[-63.6266,-27.8457,143.5441],[-63.5803,-27.8774,141.2332],[-63.5101,-27.863,137.1849],[-63.513,-27.8487,139.8022],[-63.524,-27.8166,140.0338],[-63.5248,-27.8025,140.7663],[-63.3948,-27.7846,141.1094],[-63.3871,-27.7696,141.4089],[-63.3514,-27.7778,140.3923],[-63.3454,-27.7692,139.7372],[-63.2899,-27.7746,138.5338],[-63.2773,-27.7439,139.9272],[-63.1957,-27.758,137.3297],[-63.1781,-27.6849,140.877],[-63.2252,-27.6765,140.9828],[-63.2041,-27.5744,144.7015],[-63.2565,-27.5626,146.3218],[-63.2453,-27.5082,149.57],[-63.258,-27.5074,150.3885],[-63.2515,-27.4669,151.4129],[-63.2219,-27.4675,151.9016],[-63.2189,-27.3505,158.0249],[-63.2713,-27.3367,158.0941],[-63.2319,-27.1766,166.5995],[-63.2219,-27.1765,165.8532],[-63.2221,-27.135,170.7934],[-63.2465,-27.1351,171.2319],[-63.246,-27.0718,173.576],[-63.2363,-27.0715,175.0529],[-63.2357,-27.0363,174.0633],[-63.2466,-27.036,172.607],[-63.2473,-26.9135,182.5453],[-63.2208,-26.9133,179.9469],[-63.2184,-26.873,183.1896],[-63.2477,-26.8713,186.1279],[-63.2497,-26.7865,187.7041],[-63.4085,-26.7882,190.325],[-63.4111,-26.9082,182.8316],[-63.5725,-26.9113,180.8998],[-63.5735,-26.9277,179.8872],[-63.7189,-26.9285,182.6704]]]]}}