{"type":"Feature","properties":{"GID_2":"ARG.21.19_1","GID_0":"ARG","country":"Argentina","GID_1":"ARG.21_1","state":"SantaFe","NL_NAME_1":"NA","county":"Vera","VARNAME_2":"NA","NL_NAME_2":"NA","TYPE_2":"Departamento","ENGTYPE_2":"Department","CC_2":"NA","HASC_2":"AR.SF.VE","name":"Vera.county"},
"geometry":{"type": "MultiPolygon","coordinates": [[[[-60.6531,-27.9994,63.852],[-60.6516,-28.086,62.4303],[-60.742,-28.0889,63.1432],[-60.7359,-28.2143,61.2573],[-60.8389,-28.2527,61.3811],[-60.9133,-28.6678,60.2126],[-60.951,-28.8965,60.8091],[-60.9514,-28.9166,60.7171],[-60.9654,-28.9647,60.876],[-60.9942,-29.1289,61.1212],[-61.0319,-29.3254,59.9306],[-61.0574,-29.4331,59.9544],[-61.0739,-29.522,59.4601],[-61.0891,-29.5703,58.7864],[-61.0915,-29.6108,58.1938],[-61.0864,-29.6194,58.0168],[-61.0879,-29.6278,58.3843],[-61.0731,-29.6347,57.5229],[-61.0385,-29.6583,57.4724],[-61.0313,-29.6592,57.5611],[-61.0101,-29.6542,54.7831],[-61.0028,-29.6547,56.5423],[-60.997,-29.6587,57.8667],[-60.9906,-29.6701,56.7726],[-60.9846,-29.6737,56.6669],[-60.9776,-29.6757,57.7828],[-60.9629,-29.6754,56.1237],[-60.9561,-29.6767,56.899],[-60.9514,-29.6812,55.6693],[-60.9455,-29.6818,55.365],[-60.9405,-29.6787,55.7272],[-60.9263,-29.6816,56.3528],[-60.919,-29.6804,55.9597],[-60.9123,-29.6828,56.0988],[-60.8886,-29.707,53.7687],[-60.8766,-29.7141,54.2889],[-60.8601,-29.7266,53.9316],[-60.8559,-29.732,53.3746],[-60.8464,-29.7382,53.0],[-60.8447,-29.7464,53.0],[-60.8411,-29.7531,53.217],[-60.8317,-29.7655,53.5921],[-60.8249,-29.7697,54.5115],[-60.818,-29.7669,55.4287],[-60.8144,-29.7605,53.5768],[-60.8059,-29.7594,53.8997],[-60.7892,-29.7612,52.4307],[-60.7817,-29.7649,52.257],[-60.7781,-29.7715,52.0621],[-60.7765,-29.7936,52.7258],[-60.7683,-29.8063,52.8201],[-60.7621,-29.8114,52.5463],[-60.7309,-29.8546,50.7414],[-60.7281,-29.8672,50.9597],[-60.7186,-29.8771,50.3004],[-60.7163,-29.8822,50.3934],[-60.728,-29.89,50.5387],[-60.7352,-29.9034,49.9203],[-60.6724,-29.9167,48.6864],[-60.3161,-29.9752,66.5079],[-60.3,-29.976,55.8248],[-60.2924,-29.9811,55.9356],[-60.2938,-30.0294,52.255],[-60.2927,-30.0358,50.6939],[-60.2836,-30.0451,55.8116],[-60.2776,-30.0485,54.9223],[-60.2642,-30.054,53.3038],[-60.2499,-30.0572,47.1867],[-60.2368,-30.0634,54.6792],[-60.2325,-30.0683,51.1625],[-60.2303,-30.0746,52.3298],[-60.225,-30.0997,54.2741],[-60.2169,-30.1105,34.9276],[-60.212,-30.1153,33.4023],[-60.2058,-30.1179,31.8155],[-60.191,-30.119,29.9195],[-60.1863,-30.1222,29.4798],[-60.2036,-30.143,47.8289],[-60.2048,-30.1494,46.7217],[-60.2044,-30.1558,40.4644],[-60.1997,-30.1607,39.006],[-60.1931,-30.1635,29.4814],[-60.179,-30.1602,26.0],[-60.1683,-30.1525,26.0],[-60.1568,-30.1361,26.0],[-60.1502,-30.1332,26.0],[-60.136,-30.1351,26.0],[-60.1331,-30.138,27.0754],[-60.1296,-30.132,27.0727],[-60.1283,-30.1258,26.8229],[-60.1308,-30.1135,26.7034],[-60.128,-30.1008,27.276],[-60.1278,-30.0816,27.4817],[-60.1253,-30.0756,27.8548],[-60.1142,-30.0676,27.7109],[-60.1108,-30.0618,27.812],[-60.1098,-30.049,32.0962],[-60.1071,-30.0432,26.0],[-60.0842,-30.027,26.0],[-60.056,-30.0193,28.0495],[-60.0499,-30.0162,28.1567],[-60.0465,-30.0103,28.1834],[-60.0452,-30.0042,28.5548],[-60.0471,-29.9914,28.3629],[-60.0453,-29.9852,28.4779],[-60.0351,-29.9682,28.8584],[-60.0387,-29.9562,29.3621],[-60.013,-29.9429,29.3515],[-60.0084,-29.9379,29.6554],[-60.0018,-29.935,28.3817],[-59.9875,-29.9335,29.4026],[-59.9809,-29.9304,29.0],[-59.9712,-29.9209,29.6609],[-59.9638,-29.9097,29.8089],[-59.9586,-29.9052,29.4851],[-59.9453,-29.8998,29.9515],[-59.9359,-29.8899,30.43],[-59.9323,-29.871,30.541],[-59.9224,-29.8617,30.7935],[-59.9107,-29.8382,30.4807],[-59.9062,-29.8331,30.7563],[-59.8988,-29.8327,30.502],[-59.8944,-29.8277,30.5366],[-59.8935,-29.8217,30.6474],[-59.8989,-29.8169,30.7527],[-59.9059,-29.8174,30.8519],[-59.9108,-29.8125,30.8663],[-59.9157,-29.8004,30.9599],[-59.9369,-29.7956,31.4518],[-59.9588,-29.7945,37.9411],[-59.965,-29.7999,38.7339],[-59.97,-29.7949,36.268],[-59.9738,-29.7846,38.1637],[-59.9786,-29.7784,34.2569],[-59.9799,-29.7661,39.632],[-59.9951,-29.7411,41.0417],[-59.9962,-29.7246,36.3595],[-59.9984,-29.7219,36.779],[-60.0031,-29.7214,36.1267],[-60.0054,-29.717,35.9815],[-60.0046,-29.7105,35.9609],[-60.0024,-29.7068,36.5234],[-59.9931,-29.7028,40.8915],[-59.9911,-29.6932,36.8771],[-59.9913,-29.6865,36.8667],[-59.9966,-29.6732,38.5424],[-59.994,-29.6634,38.3075],[-59.9947,-29.6586,38.645],[-60.0061,-29.6503,47.085],[-60.0203,-29.6495,44.7642],[-60.0346,-29.6541,39.4343],[-60.0417,-29.6503,45.4762],[-60.0619,-29.6455,51.4685],[-60.0741,-29.6351,41.7249],[-60.0816,-29.6189,41.0095],[-60.0818,-29.5999,41.9329],[-60.0831,-29.5883,42.7554],[-60.0855,-29.582,42.9386],[-60.0868,-29.5655,47.0377],[-60.0848,-29.5423,43.9438],[-60.087,-29.5342,44.759],[-60.095,-29.5182,46.5039],[-60.0934,-29.5067,46.8618],[-60.0945,-29.4976,45.6171],[-60.1059,-29.4704,47.1358],[-60.1089,-29.4559,55.0853],[-60.1083,-29.4418,51.8527],[-60.0972,-29.4181,47.9408],[-60.0827,-29.4029,48.9393],[-60.0815,-29.3946,48.7758],[-60.0841,-29.3817,50.6236],[-60.0786,-29.372,50.3429],[-60.0688,-29.361,51.9502],[-60.068,-29.3493,50.6693],[-60.0572,-29.3368,56.9402],[-60.0538,-29.3264,57.5134],[-60.0528,-29.3173,58.3804],[-60.0378,-29.3061,58.4611],[-60.0321,-29.2947,56.8619],[-60.0346,-29.2615,55.4182],[-60.0379,-29.2546,56.7567],[-60.0415,-29.24,59.9735],[-60.0461,-29.2045,57.0337],[-60.0645,-29.1735,55.6397],[-60.0725,-29.1665,56.735],[-60.0794,-29.1575,53.9714],[-60.081,-29.1118,54.5841],[-60.0908,-29.092,60.6335],[-60.0334,-29.1018,60.5244],[-60.0221,-29.0585,61.9959],[-60.011,-29.0595,61.9985],[-60.0033,-29.0396,58.4092],[-60.0151,-29.0376,58.9551],[-60.0126,-29.0219,59.745],[-60.0604,-29.0132,61.2633],[-60.0296,-28.8802,54.5944],[-59.9908,-28.8879,61.5032],[-59.9737,-28.8014,55.5258],[-59.7669,-28.8275,47.6858],[-59.7645,-28.8228,47.8608],[-59.7569,-28.8177,46.4881],[-59.7546,-28.809,46.6989],[-59.7564,-28.8052,47.4358],[-59.7601,-28.8022,47.7797],[-59.7611,-28.7978,47.9163],[-59.7705,-28.7822,47.3376],[-59.7745,-28.7694,47.8273],[-59.7817,-28.7633,47.7063],[-59.7865,-28.7511,52.6826],[-59.7962,-28.7483,48.9004],[-59.8001,-28.7458,48.1216],[-59.8022,-28.7419,48.8403],[-59.8006,-28.7287,49.8783],[-59.788,-28.7217,49.0913],[-59.7817,-28.7151,48.9448],[-59.7792,-28.7022,52.549],[-59.7934,-28.6978,50.1312],[-59.793,-28.6936,51.0312],[-59.7923,-28.6892,50.0346],[-59.7787,-28.6768,49.255],[-59.7756,-28.6685,49.755],[-59.7842,-28.6527,49.654],[-59.7876,-28.6495,49.8266],[-59.7965,-28.6455,49.1127],[-59.8027,-28.6386,49.9336],[-59.8111,-28.6341,49.8347],[-59.8131,-28.6256,49.3012],[-59.8109,-28.6217,49.5271],[-59.8178,-28.6153,50.9177],[-59.8173,-28.6112,52.5438],[-59.813,-28.6087,55.5328],[-59.8033,-28.6088,50.0369],[-59.8023,-28.6052,50.5497],[-59.8093,-28.5988,51.1703],[-59.8155,-28.5822,50.9311],[-59.8151,-28.5689,50.724],[-59.8188,-28.5606,51.1156],[-59.8086,-28.5411,51.3854],[-59.8087,-28.5368,51.4423],[-59.8126,-28.534,51.529],[-59.814,-28.5297,51.6599],[-59.8032,-28.5152,52.6088],[-59.7992,-28.507,52.0201],[-59.7981,-28.4939,56.0459],[-59.7892,-28.4754,54.6955],[-59.8036,-28.4451,54.8855],[-59.8058,-28.4364,53.997],[-59.8047,-28.4162,53.0672],[-59.8062,-28.4073,53.1562],[-59.7994,-28.3903,53.657],[-59.8458,-28.3906,54.0172],[-59.8757,-28.3522,56.5366],[-59.8776,-28.2771,57.5984],[-59.7797,-28.2762,58.5705],[-59.7791,-28.1039,59.9618],[-59.8054,-28.1056,56.9099],[-59.8096,-27.9987,57.8289],[-60.0996,-27.9979,60.2304],[-60.3884,-28.0,64.0839],[-60.6531,-27.9994,63.852]]]]}}