{"type": "Feature","bbox": [-65.5642,-27.579,-64.9669,-27.1721],"geometry": {"type": "MultiPolygon","coordinates": [[[[-65.0355,-27.4725,273.3862],[-65.0399,-27.4711,275.5247],[-65.0441,-27.4623,278.8174],[-65.0606,-27.4536,276.9619],[-65.0649,-27.4537,278.4119],[-65.0685,-27.4558,280.162],[-65.0687,-27.4597,280.869],[-65.0668,-27.4631,274.3271],[-65.0678,-27.4646,275.8309],[-65.0742,-27.4638,280.9139],[-65.0857,-27.4589,280.9791],[-65.1009,-27.4402,284.8921],[-65.1061,-27.4237,282.6959],[-65.1164,-27.4139,279.3137],[-65.1221,-27.4016,286.6755],[-65.128,-27.3994,285.7603],[-65.1473,-27.3982,287.5959],[-65.1589,-27.3896,289.2145],[-65.1695,-27.3772,288.2515],[-65.1822,-27.3699,295.4748],[-65.1945,-27.3665,295.8403],[-65.2149,-27.3563,298.6194],[-65.2339,-27.3355,297.3145],[-65.2372,-27.3267,301.2411],[-65.233,-27.3226,299.7929],[-65.233,-27.317,304.5573],[-65.2361,-27.3098,296.9624],[-65.2413,-27.3036,307.2811],[-65.2508,-27.2993,307.6623],[-65.2694,-27.2944,308.2391],[-65.281,-27.2783,307.2291],[-65.2926,-27.2733,314.9537],[-65.2953,-27.2703,308.2053],[-65.3033,-27.2675,307.7206],[-65.3095,-27.2623,314.0166],[-65.3102,-27.2507,314.4536],[-65.3153,-27.2423,315.2659],[-65.3158,-27.2384,315.8914],[-65.3154,-27.2307,314.5232],[-65.312,-27.2216,313.792],[-65.3168,-27.2179,315.8407],[-65.3398,-27.2074,324.3312],[-65.3518,-27.1916,323.6984],[-65.3548,-27.1824,323.5281],[-65.3619,-27.1751,325.5071],[-65.3658,-27.1781,326.3967],[-65.3722,-27.1793,327.8466],[-65.378,-27.177,329.1115],[-65.3866,-27.1763,329.8096],[-65.3899,-27.174,330.4531],[-65.3979,-27.1762,327.9008],[-65.4073,-27.1721,335.4158],[-65.414,-27.1862,332.2165],[-65.4174,-27.1992,333.5096],[-65.4254,-27.2017,336.6754],[-65.4308,-27.2077,338.0402],[-65.4384,-27.2039,340.0612],[-65.4427,-27.2042,341.0652],[-65.4493,-27.2181,342.2196],[-65.45,-27.2237,343.3135],[-65.4551,-27.2299,342.7142],[-65.4574,-27.249,343.2207],[-65.4597,-27.2543,343.998],[-65.4559,-27.2588,341.1133],[-65.4565,-27.2606,340.9466],[-65.4618,-27.2634,343.3667],[-65.4644,-27.2807,342.2844],[-65.4678,-27.2854,342.2465],[-65.47,-27.2949,342.8892],[-65.4686,-27.3019,342.996],[-65.472,-27.313,343.0863],[-65.47,-27.3163,341.9846],[-65.4635,-27.3175,341.294],[-65.4635,-27.319,340.951],[-65.4676,-27.3341,339.7778],[-65.4665,-27.3372,339.8318],[-65.4771,-27.3765,341.7474],[-65.4765,-27.3822,336.9074],[-65.4749,-27.3835,337.9945],[-65.4762,-27.3911,336.6996],[-65.4754,-27.3923,341.1917],[-65.4689,-27.3927,336.5541],[-65.471,-27.406,336.3175],[-65.4677,-27.4119,335.1438],[-65.4698,-27.4201,336.6143],[-65.4666,-27.4208,336.4687],[-65.4724,-27.437,336.4669],[-65.4797,-27.4334,337.93],[-65.486,-27.4342,339.983],[-65.5018,-27.4279,342.3263],[-65.5166,-27.4303,348.3209],[-65.5268,-27.4272,347.2255],[-65.5524,-27.4234,358.5157],[-65.5642,-27.474,351.6066],[-65.5586,-27.4795,350.8542],[-65.5522,-27.4806,348.2431],[-65.548,-27.4802,348.2358],[-65.5436,-27.4758,346.2932],[-65.5396,-27.4756,345.2019],[-65.5516,-27.5169,346.2227],[-65.5525,-27.5362,347.1793],[-65.5426,-27.5332,343.1824],[-65.5349,-27.5363,339.8494],[-65.5073,-27.5336,332.7744],[-65.4884,-27.5372,329.2979],[-65.4721,-27.5323,327.0517],[-65.4657,-27.5328,327.8306],[-65.4602,-27.5303,326.3255],[-65.454,-27.5324,326.6916],[-65.4284,-27.534,322.1705],[-65.4157,-27.5325,320.9249],[-65.4055,-27.5259,318.3047],[-65.3903,-27.5256,316.2453],[-65.3631,-27.5204,310.4867],[-65.359,-27.5215,307.0758],[-65.3576,-27.5251,306.8134],[-65.3537,-27.5264,308.9447],[-65.3482,-27.5318,305.4041],[-65.3397,-27.5332,305.4397],[-65.3203,-27.5315,305.925],[-65.3043,-27.5371,303.77],[-65.2978,-27.5376,300.4527],[-65.2936,-27.5439,303.1319],[-65.286,-27.5504,297.8617],[-65.2769,-27.5543,299.9915],[-65.2684,-27.5553,297.3534],[-65.2476,-27.5507,293.282],[-65.2403,-27.5543,291.7668],[-65.2187,-27.5526,292.2096],[-65.2077,-27.5583,289.8368],[-65.1995,-27.5562,289.5297],[-65.1899,-27.5598,287.6712],[-65.1835,-27.5697,285.4852],[-65.176,-27.5766,285.5106],[-65.17,-27.579,283.9879],[-65.1508,-27.5709,279.6439],[-65.1424,-27.57,278.1623],[-65.1341,-27.5638,277.5435],[-65.1279,-27.5621,277.9373],[-65.1175,-27.5638,277.8223],[-65.1138,-27.5706,275.6438],[-65.1085,-27.5737,275.7715],[-65.0937,-27.5715,276.3496],[-65.0876,-27.5734,273.3862],[-65.077,-27.5681,273.5689],[-65.0619,-27.5676,272.0],[-65.0168,-27.5766,272.0],[-65.0133,-27.5728,272.0],[-65.0188,-27.5634,272.0],[-65.0118,-27.5611,272.0],[-65.0009,-27.5643,272.0],[-64.9926,-27.5712,272.0],[-64.9855,-27.5741,272.0],[-64.9778,-27.5707,272.0],[-64.9669,-27.5532,272.0],[-64.9743,-27.5201,272.0],[-65.002,-27.5013,272.0],[-65.0138,-27.5065,272.0],[-65.0234,-27.5044,272.9868],[-65.031,-27.4951,273.3211],[-65.0408,-27.4874,274.4802],[-65.0355,-27.4725,273.3862]]]]}
,"properties": {"GID_2": "ARG.24.13_1","GID_0": "ARG","country": "Argentina","GID_1": "ARG.24_1","state": "Tucumán","NL_NAME_1": "NA","county": "Simoca","VARNAME_2": "NA","NL_NAME_2": "NA","TYPE_2": "Departamento","ENGTYPE_2": "Department","CC_2": "NA","HASC_2": "AR.TM.SI","name": "Simoca.county","area_km2": 1281.8946,"hist_schema_id": "Elevation0-9000","hist_area_km2": {"275": 248.1137,"300": 432.6927,"325": 503.7145,"350": 97.3737}}}