{"type":"Feature","properties":{"GID_2":"ARG.23.2_1","GID_0":"ARG","country":"Argentina","GID_1":"ARG.23_1","state":"TierradelFuego","NL_NAME_1":"NA","county":"Ushuaia","VARNAME_2":"NA","NL_NAME_2":"NA","TYPE_2":"Departamento","ENGTYPE_2":"Department","CC_2":"NA","HASC_2":"AR.TF.US","name":"Ushuaia.county"},
"geometry":{"type": "MultiPolygon","coordinates": [[[[-66.5458,-55.0604,0.0],[-66.5508,-55.0596,0.0],[-66.5486,-55.0615,0.0],[-66.5458,-55.0615,0.0],[-66.5458,-55.0604,0.0]]],
[[[-66.3042,-55.0104,0.8572],[-66.3081,-55.0096,0.0],[-66.3053,-55.0157,0.3505],[-66.3025,-55.0168,0.0],[-66.3003,-55.0149,0.0],[-66.3008,-55.0118,0.0],[-66.3042,-55.0104,0.8572]]],
[[[-65.5869,-54.9487,0.0],[-65.5897,-54.9476,0.0],[-65.5919,-54.9496,0.0],[-65.5886,-54.9501,0.0],[-65.5869,-54.9487,0.0]]],
[[[-64.6097,-54.9162,0.1881],[-64.6086,-54.9157,0.1881],[-64.6108,-54.9151,0.4386],[-64.6136,-54.9171,0.0],[-64.6108,-54.9171,0.868],[-64.6097,-54.9162,0.1881]]],
[[[-67.3753,-54.9103,0.0],[-67.3744,-54.9043,0.0],[-67.3775,-54.906,0.8222],[-67.3918,-54.9065,2.1316],[-67.3946,-54.9033,1.4714],[-67.4008,-54.9025,0.0],[-67.3908,-54.9084,0.0],[-67.3822,-54.9082,0.0],[-67.3753,-54.9103,0.0]]],
[[[-67.3986,-54.8934,4.5753],[-67.4006,-54.895,0.0],[-67.3974,-54.8974,1.3284],[-67.3959,-54.8942,0.0],[-67.3986,-54.8934,4.5753]]],
[[[-67.4349,-54.893,10.2689],[-67.427,-54.8872,0.0],[-67.429,-54.8864,4.248],[-67.4282,-54.8856,1.5391],[-67.4462,-54.8823,13.9324],[-67.4487,-54.8797,8.2581],[-67.4464,-54.8762,0.5254],[-67.4551,-54.8721,1.6569],[-67.4718,-54.8702,10.079],[-67.4779,-54.8719,6.075],[-67.4758,-54.8772,5.0594],[-67.4666,-54.8807,5.3309],[-67.4699,-54.8825,0.0],[-67.4683,-54.8832,0.7703],[-67.4701,-54.8847,12.8126],[-67.4737,-54.8847,6.7169],[-67.483,-54.88,8.5941],[-67.502,-54.878,13.6232],[-67.5095,-54.8794,0.4978],[-67.5026,-54.8859,5.8139],[-67.5021,-54.8897,0.7559],[-67.5083,-54.8869,3.2739],[-67.5116,-54.8799,1.7278],[-67.5325,-54.8884,7.9966],[-67.5369,-54.8868,0.0],[-67.5374,-54.8843,1.0043],[-67.5381,-54.8851,0.0],[-67.5358,-54.9016,30.9179],[-67.5312,-54.9049,0.0],[-67.5179,-54.9082,0.0],[-67.5139,-54.9115,0.0],[-67.506,-54.9106,2.1713],[-67.494,-54.9125,17.1829],[-67.492,-54.9165,3.1096],[-67.482,-54.9165,0.0],[-67.4801,-54.9112,0.3483],[-67.482,-54.9079,5.9096],[-67.4704,-54.9066,0.0],[-67.4658,-54.9082,0.0],[-67.4638,-54.9069,0.0],[-67.4647,-54.9037,1.2555],[-67.4598,-54.9012,24.8426],[-67.4449,-54.9036,46.6789],[-67.4249,-54.9106,1.9986],[-67.4136,-54.9125,0.3771],[-67.4156,-54.9052,3.9335],[-67.4216,-54.9006,2.4872],[-67.42,-54.8989,11.299],[-67.417,-54.9009,4.0132],[-67.4077,-54.9009,0.0],[-67.413,-54.8943,9.4707],[-67.4176,-54.8906,0.0],[-67.4349,-54.893,10.2689]]],
[[[-67.346,-54.893,22.6523],[-67.3431,-54.8934,20.0836],[-67.3442,-54.8924,1.3959],[-67.346,-54.893,22.6523]]],
[[[-67.3811,-54.8897,2.9467],[-67.3825,-54.889,0.0],[-67.3839,-54.8908,0.5987],[-67.3921,-54.8932,0.0],[-67.3851,-54.8932,0.0],[-67.3811,-54.8897,2.9467]]],
[[[-67.2819,-54.8818,7.1389],[-67.2869,-54.881,4.2188],[-67.2875,-54.8843,0.0],[-67.2742,-54.8885,0.0],[-67.2719,-54.8876,0.0],[-67.2758,-54.8846,13.0392],[-67.2808,-54.8849,9.0287],[-67.2819,-54.8818,7.1389]]],
[[[-67.4981,-54.8711,0.7965],[-67.4936,-54.8697,0.0],[-67.5027,-54.8679,0.0],[-67.5058,-54.8686,0.0],[-67.5062,-54.8706,2.9604],[-67.5094,-54.8724,5.4683],[-67.5049,-54.8746,0.0],[-67.4977,-54.8737,0.7573],[-67.4965,-54.8719,3.1228],[-67.4981,-54.8711,0.7965]]],
[[[-68.4811,-54.8601,14.3829],[-68.4853,-54.8593,0.0],[-68.4892,-54.8612,0.0],[-68.4869,-54.8671,0.0],[-68.4803,-54.8665,0.0],[-68.4781,-54.8682,0.0],[-68.4769,-54.8662,24.3106],[-68.4731,-54.866,4.9865],[-68.4731,-54.8632,1.8022],[-68.4786,-54.8624,0.0],[-68.4781,-54.8604,0.0],[-68.4811,-54.8601,14.3829]]],
[[[-65.7903,-54.9093,0.2172],[-65.7897,-54.9074,0.0],[-65.7981,-54.9121,0.0],[-65.7953,-54.9124,0.0],[-65.7903,-54.9093,0.2172]]],
[[[-64.6703,-54.8907,0.0],[-64.6714,-54.8921,0.0],[-64.6669,-54.8921,3.6852],[-64.6631,-54.8887,0.167],[-64.6658,-54.8887,10.5777],[-64.6703,-54.8907,0.0]]],
[[[-64.5203,-54.879,0.0],[-64.5197,-54.8771,0.0],[-64.5242,-54.8782,0.0],[-64.5231,-54.8799,0.0],[-64.5203,-54.879,0.0]]],
[[[-64.5842,-54.811,0.0],[-64.5814,-54.8115,0.0],[-64.5786,-54.8079,0.0],[-64.5825,-54.8085,1.1947],[-64.5842,-54.811,0.0]]],
[[[-68.4508,-54.8618,1.8997],[-68.4558,-54.8613,7.0057],[-68.4592,-54.8632,0.0],[-68.4597,-54.866,0.0],[-68.4519,-54.8654,0.0],[-68.4497,-54.8632,0.0],[-68.4508,-54.8618,1.8997]]],
[[[-68.2547,-54.8351,0.0],[-68.2581,-54.8346,0.4068],[-68.2597,-54.8354,0.0],[-68.252,-54.8368,0.0],[-68.2547,-54.8351,0.0]]],
[[[-64.5492,-54.794,0.0],[-64.5447,-54.794,0.0],[-64.5431,-54.7912,0.0],[-64.5497,-54.7926,0.0],[-64.5492,-54.794,0.0]]],
[[[-67.4944,-54.5587,25.0],[-68.0739,-54.5578,25.0],[-68.6063,-54.5546,30.6644],[-68.5955,-54.8258,0.0],[-68.5964,-54.873,666.218],[-68.6105,-54.8943,11.2605],[-68.6003,-54.8949,0.0],[-68.5975,-54.8935,0.0],[-68.5814,-54.8937,0.0],[-68.5708,-54.8915,0.0],[-68.5608,-54.8915,0.0],[-68.5542,-54.8879,0.0],[-68.5547,-54.8865,0.0],[-68.5619,-54.8849,10.6843],[-68.5597,-54.8829,12.3326],[-68.5431,-54.8807,11.4817],[-68.5375,-54.8821,0.0],[-68.5325,-54.8799,2.2468],[-68.5275,-54.8799,0.0],[-68.5275,-54.8785,0.0],[-68.5342,-54.8765,14.0449],[-68.5164,-54.871,18.9635],[-68.5086,-54.8718,0.0],[-68.5064,-54.8685,4.6899],[-68.4986,-54.8674,0.0],[-68.5069,-54.8665,9.8376],[-68.5097,-54.8674,18.6369],[-68.5175,-54.8654,1.6715],[-68.5186,-54.8674,4.1015],[-68.5286,-54.8688,20.4481],[-68.5364,-54.8657,0.0],[-68.5553,-54.8629,5.6463],[-68.5603,-54.8596,0.0],[-68.5753,-54.8543,0.0],[-68.5747,-54.8529,12.4962],[-68.5675,-54.854,0.0],[-68.5719,-54.8496,2.7214],[-68.5714,-54.8485,0.0],[-68.5686,-54.8485,14.2552],[-68.5675,-54.8521,0.0],[-68.5597,-54.8529,8.4296],[-68.5531,-54.8507,19.7184],[-68.5414,-54.8507,4.4671],[-68.5375,-54.8529,13.0856],[-68.5303,-54.854,2.0575],[-68.5303,-54.8563,0.0],[-68.5258,-54.8576,25.4937],[-68.5186,-54.8587,0.0],[-68.5164,-54.8576,25.2941],[-68.5108,-54.8596,0.0],[-68.5008,-54.8585,0.0],[-68.4997,-54.856,0.0],[-68.5019,-54.8554,8.1028],[-68.5019,-54.8537,11.1739],[-68.4892,-54.8482,0.0],[-68.4803,-54.8471,12.5032],[-68.4769,-54.8524,0.0],[-68.4719,-54.8551,0.0],[-68.4658,-54.8546,11.2396],[-68.4614,-54.8579,16.2351],[-68.4619,-54.8593,0.0],[-68.4586,-54.8601,0.0],[-68.4569,-54.8593,0.0],[-68.4575,-54.8574,0.0],[-68.4464,-54.8593,6.7019],[-68.4375,-54.8565,0.0],[-68.4331,-54.8587,0.0],[-68.4253,-54.8574,11.0636],[-68.4208,-54.8582,0.0],[-68.4186,-54.8568,0.0],[-68.4197,-54.8551,0.7641],[-68.3997,-54.8543,5.1941],[-68.3808,-54.8515,0.0],[-68.3753,-54.8485,0.0],[-68.3742,-54.846,0.0],[-68.3758,-54.8446,5.7795],[-68.3736,-54.8432,0.0],[-68.3625,-54.8424,0.0],[-68.3619,-54.841,0.0],[-68.3636,-54.8399,0.3742],[-68.3619,-54.8385,0.0],[-68.3503,-54.8379,0.5015],[-68.3464,-54.8349,0.9372],[-68.3347,-54.8335,0.0],[-68.3314,-54.8304,2.1239],[-68.3225,-54.8332,0.0],[-68.3131,-54.8332,2.2884],[-68.3125,-54.8351,4.2353],[-68.3158,-54.8374,7.4509],[-68.3242,-54.8401,0.0],[-68.3214,-54.8443,0.9967],[-68.3236,-54.8465,0.0],[-68.3175,-54.8465,0.0],[-68.3114,-54.8493,2.3393],[-68.3064,-54.8496,0.0],[-68.2958,-54.8454,2.512],[-68.2753,-54.8451,0.0],[-68.2697,-54.8435,0.0],[-68.2703,-54.8407,0.0],[-68.2681,-54.8396,0.0],[-68.2636,-54.8421,0.0],[-68.2586,-54.8399,1.3437],[-68.2647,-54.8382,1.3841],[-68.2642,-54.8357,0.2719],[-68.2658,-54.8351,1.1595],[-68.2792,-54.8346,5.7715],[-68.2836,-54.8329,0.0],[-68.2947,-54.8346,11.0531],[-68.3014,-54.8335,0.0],[-68.3036,-54.8321,0.0],[-68.3003,-54.8301,0.0],[-68.3031,-54.8243,0.0],[-68.2992,-54.8168,0.4008],[-68.2997,-54.8151,0.3808],[-68.3075,-54.8132,0.0],[-68.3175,-54.8162,1.0],[-68.3192,-54.8112,7.9395],[-68.3058,-54.8093,2.3245],[-68.2947,-54.8115,0.0],[-68.2942,-54.8107,0.0],[-68.3008,-54.809,0.0],[-68.3014,-54.8076,0.6853],[-68.2903,-54.806,0.0],[-68.2747,-54.7985,0.0],[-68.2675,-54.7985,0.0],[-68.2631,-54.7957,2.6894],[-68.2547,-54.7968,0.0],[-68.2475,-54.7951,1.4883],[-68.2281,-54.8012,2.7844],[-68.2214,-54.8071,0.0],[-68.2131,-54.8087,12.6359],[-68.2097,-54.8132,0.0],[-68.2042,-54.8162,3.4947],[-68.1908,-54.8193,2.417],[-68.1719,-54.8201,0.0],[-68.1592,-54.8226,0.0],[-68.1564,-54.8213,0.0],[-68.1442,-54.8215,0.0],[-68.1381,-54.8243,6.7518],[-68.1053,-54.8276,21.5165],[-68.0869,-54.8324,4.7823],[-68.0703,-54.8346,0.0],[-68.0575,-54.8374,10.8713],[-68.0403,-54.8465,0.0],[-68.0358,-54.8471,4.416],[-68.0336,-54.8504,0.4901],[-68.0225,-54.8504,0.0],[-68.0192,-54.849,3.1289],[-68.0036,-54.8499,0.0],[-67.9975,-54.8515,3.3769],[-67.9903,-54.856,5.5753],[-67.9792,-54.8557,1.7329],[-67.9697,-54.8521,2.6516],[-67.9592,-54.8515,0.0],[-67.9475,-54.8551,0.0],[-67.9375,-54.854,1.8271],[-67.9353,-54.8565,0.0],[-67.9208,-54.8565,2.36],[-67.9064,-54.8601,0.0],[-67.8747,-54.8587,4.7262],[-67.8681,-54.8637,0.0],[-67.8525,-54.859,2.3406],[-67.8419,-54.8613,0.0],[-67.8275,-54.8604,6.7258],[-67.8069,-54.8685,0.0],[-67.7753,-54.8737,1.6774],[-67.7603,-54.8801,0.0],[-67.7464,-54.8787,7.0062],[-67.7358,-54.8815,0.0],[-67.7181,-54.8804,2.9575],[-67.7114,-54.8821,2.2144],[-67.7058,-54.886,0.6204],[-67.6931,-54.8874,2.335],[-67.6725,-54.8868,0.7131],[-67.6575,-54.8843,17.6047],[-67.6242,-54.8846,0.0],[-67.6181,-54.8826,33.6042],[-67.6058,-54.8818,0.0],[-67.5903,-54.8779,25.8715],[-67.5781,-54.8726,30.5988],[-67.5697,-54.8721,3.0783],[-67.5642,-54.8735,0.0],[-67.5592,-54.8696,0.0],[-67.5308,-54.8676,3.3808],[-67.5258,-54.866,0.3459],[-67.5231,-54.8626,3.3193],[-67.5119,-54.8596,0.0],[-67.5097,-54.8563,0.3566],[-67.5042,-54.8543,15.0642],[-67.5014,-54.8543,11.0557],[-67.4958,-54.8576,1.8607],[-67.4969,-54.8624,0.4035],[-67.4942,-54.8646,2.2799],[-67.4942,-54.8676,2.2333],[-67.4736,-54.8662,10.0253],[-67.4719,-54.8679,4.9332],[-67.4586,-54.8701,0.0],[-67.4558,-54.8679,0.0],[-67.4592,-54.866,7.8572],[-67.4508,-54.866,5.9101],[-67.4497,-54.8688,1.4355],[-67.4408,-54.8704,7.4886],[-67.4381,-54.8724,1.0486],[-67.4408,-54.874,0.6399],[-67.4386,-54.8757,0.3278],[-67.4447,-54.8776,3.0313],[-67.4419,-54.881,1.9428],[-67.4325,-54.8826,0.0],[-67.4314,-54.8807,8.0877],[-67.4253,-54.8807,6.3357],[-67.4231,-54.8829,0.0],[-67.4269,-54.8849,0.0],[-67.4219,-54.8851,0.0],[-67.4153,-54.881,1.8348],[-67.4153,-54.8832,0.0],[-67.4108,-54.8854,1.1402],[-67.4097,-54.8893,6.483],[-67.3919,-54.8896,0.0],[-67.3908,-54.8885,3.636],[-67.3931,-54.8871,9.4144],[-67.3908,-54.8854,4.6114],[-67.3892,-54.8871,0.0],[-67.3847,-54.8874,2.0037],[-67.3742,-54.8854,0.0],[-67.3742,-54.8829,0.2245],[-67.3764,-54.8812,1.9153],[-67.3681,-54.8799,0.0],[-67.3686,-54.8782,0.9438],[-67.3408,-54.8832,0.0],[-67.3403,-54.8821,0.0],[-67.3486,-54.8782,0.5746],[-67.3569,-54.8782,27.5976],[-67.3631,-54.8743,0.0],[-67.3786,-54.8712,1.924],[-67.3725,-54.8693,17.2778],[-67.3658,-54.871,1.2737],[-67.3597,-54.8696,0.0],[-67.3531,-54.8751,0.0],[-67.3425,-54.8751,0.0],[-67.3531,-54.8704,4.6121],[-67.3536,-54.8671,8.0733],[-67.3403,-54.8704,6.4545],[-67.3397,-54.8732,0.3839],[-67.3358,-54.8746,20.7855],[-67.3347,-54.8807,1.3365],[-67.3258,-54.8821,1.883],[-67.3236,-54.8851,0.0],[-67.3169,-54.8854,0.7178],[-67.3153,-54.884,0.0],[-67.3247,-54.8821,1.883],[-67.3269,-54.8771,0.0],[-67.3308,-54.8765,27.2492],[-67.3303,-54.8737,0.0],[-67.3347,-54.8718,1.882],[-67.3247,-54.8735,3.8226],[-67.3219,-54.8776,4.0965],[-67.3119,-54.8799,2.1215],[-67.3114,-54.8824,0.9334],[-67.3058,-54.884,4.4902],[-67.3042,-54.8871,0.0],[-67.2969,-54.8879,4.791],[-67.2947,-54.8862,0.0],[-67.2975,-54.8849,25.0632],[-67.2964,-54.8832,0.6137],[-67.2981,-54.8824,0.0],[-67.2931,-54.881,0.6937],[-67.2936,-54.8787,1.157],[-67.2925,-54.8785,0.2681],[-67.2953,-54.8768,4.7214],[-67.2942,-54.8732,3.4817],[-67.2953,-54.8724,2.967],[-67.2808,-54.8724,0.0],[-67.2769,-54.8701,0.0],[-67.2747,-54.8718,5.2106],[-67.2758,-54.8746,0.0],[-67.2714,-54.8779,11.7042],[-67.2719,-54.8801,3.7227],[-67.2808,-54.8754,1.7332],[-67.2886,-54.8751,3.102],[-67.2892,-54.8771,1.8414],[-67.2842,-54.8799,6.0971],[-67.2747,-54.8801,0.353],[-67.2619,-54.8854,0.0],[-67.2536,-54.8835,1.6212],[-67.2469,-54.8868,0.0],[-67.2408,-54.886,1.8776],[-67.2319,-54.8876,6.0786],[-67.2242,-54.8921,0.3594],[-67.1903,-54.8935,4.8193],[-67.1858,-54.8957,6.3573],[-67.1636,-54.8924,6.9707],[-67.1525,-54.8937,6.1926],[-67.1492,-54.8957,0.3657],[-67.1369,-54.8968,2.918],[-67.1369,-54.8999,0.0],[-67.1342,-54.9007,0.2274],[-67.1325,-54.8993,3.9244],[-67.1275,-54.8999,0.0],[-67.1208,-54.9043,0.0],[-67.1131,-54.9057,0.0],[-67.1058,-54.9049,3.5792],[-67.1031,-54.9065,20.8711],[-67.1042,-54.909,0.0],[-67.1014,-54.9101,0.0],[-67.0825,-54.9107,14.294],[-67.0753,-54.9151,0.0],[-67.0642,-54.9157,11.3166],[-67.0603,-54.9179,17.0816],[-67.0431,-54.9199,0.0],[-67.0392,-54.9221,0.0],[-67.0336,-54.9218,9.5384],[-67.0275,-54.9238,4.7669],[-66.9992,-54.9246,0.0],[-66.9964,-54.9265,0.0],[-66.9875,-54.9274,16.6119],[-66.9781,-54.9307,2.0636],[-66.9686,-54.9307,8.3803],[-66.9625,-54.9349,0.0],[-66.9547,-54.934,12.2772],[-66.9481,-54.9379,1.2681],[-66.9386,-54.9388,3.3832],[-66.9347,-54.9418,0.0],[-66.9281,-54.9407,50.251],[-66.9264,-54.9424,3.54],[-66.9236,-54.9412,45.4389],[-66.9153,-54.9421,3.5658],[-66.9097,-54.9407,13.579],[-66.9019,-54.9426,4.491],[-66.8958,-54.941,15.1672],[-66.8881,-54.9432,0.0],[-66.8747,-54.9418,0.9516],[-66.8469,-54.9463,0.0],[-66.8453,-54.9482,0.0],[-66.8375,-54.9476,18.1787],[-66.8325,-54.9512,0.0],[-66.8269,-54.9515,2.2673],[-66.8264,-54.9532,0.0],[-66.8214,-54.9518,1.498],[-66.8169,-54.9551,0.0],[-66.8103,-54.9571,0.0],[-66.7958,-54.9557,5.2935],[-66.7936,-54.9576,1.5206],[-66.7853,-54.9565,0.0],[-66.7714,-54.9593,3.7172],[-66.7569,-54.9649,2.8277],[-66.7519,-54.971,1.1195],[-66.7458,-54.9743,14.1654],[-66.7464,-54.9762,0.0],[-66.7386,-54.9787,0.9296],[-66.7392,-54.9815,0.0],[-66.7358,-54.9863,0.0],[-66.7297,-54.9885,2.104],[-66.7186,-54.9985,1.0898],[-66.7186,-55.0001,3.6072],[-66.7214,-55.0018,0.0],[-66.7197,-55.0049,0.0],[-66.7003,-55.0065,0.0],[-66.6792,-55.0124,2.065],[-66.6597,-55.0193,7.1801],[-66.6536,-55.026,0.0],[-66.6492,-55.0282,0.0],[-66.6347,-55.0318,0.0],[-66.6247,-55.0293,2.4257],[-66.6164,-55.0329,1.0721],[-66.5914,-55.0379,31.0428],[-66.5692,-55.0454,1.4825],[-66.5669,-55.0479,0.0],[-66.5597,-55.049,0.0],[-66.5592,-55.0474,1.1305],[-66.5569,-55.0474,2.6095],[-66.5547,-55.0493,0.0],[-66.5414,-55.0532,0.0],[-66.5364,-55.0524,0.0],[-66.5325,-55.0551,0.0],[-66.5231,-55.0571,0.0],[-66.5131,-55.056,0.0],[-66.5114,-55.0537,0.0],[-66.5036,-55.0549,0.0],[-66.5031,-55.0521,0.0],[-66.4881,-55.054,0.0],[-66.4669,-55.051,5.5767],[-66.4669,-55.0551,0.0],[-66.4653,-55.0563,0.0],[-66.4525,-55.0582,0.0],[-66.4397,-55.0568,0.0],[-66.4358,-55.0499,0.0],[-66.4275,-55.0529,0.0],[-66.4269,-55.051,0.0],[-66.4231,-55.0507,0.0],[-66.4225,-55.049,0.0],[-66.4053,-55.0438,0.0],[-66.3925,-55.0443,0.0],[-66.3814,-55.0396,0.0],[-66.3719,-55.0404,0.0],[-66.3675,-55.039,0.3325],[-66.3664,-55.036,10.4128],[-66.3592,-55.034,0.0],[-66.3597,-55.031,0.0],[-66.3575,-55.0299,0.0],[-66.3575,-55.0274,0.0],[-66.3603,-55.0226,0.0],[-66.3658,-55.0196,38.4191],[-66.3619,-55.0165,0.0],[-66.3636,-55.0137,0.0],[-66.3697,-55.0121,4.2394],[-66.3681,-55.0085,14.2354],[-66.3447,-54.999,2.0347],[-66.3103,-54.9924,8.5604],[-66.2803,-54.9926,4.8709],[-66.2714,-54.991,52.8203],[-66.2708,-54.9926,0.0],[-66.2658,-54.9918,29.1184],[-66.2647,-54.9935,0.0],[-66.2592,-54.9943,4.5039],[-66.2342,-54.9957,1.2417],[-66.2286,-54.994,15.0012],[-66.2114,-54.9974,0.0],[-66.1903,-54.9971,1.5933],[-66.1858,-54.9912,26.2081],[-66.1769,-54.9887,14.1459],[-66.1703,-54.9896,0.0],[-66.1703,-54.9885,9.9099],[-66.1669,-54.9885,7.7631],[-66.1631,-54.9904,0.0],[-66.1603,-54.9899,5.3808],[-66.1569,-54.9926,16.8946],[-66.1453,-54.9924,4.8534],[-66.1403,-54.9946,0.0],[-66.1331,-54.9918,1.1932],[-66.1269,-54.9938,1.3131],[-66.1086,-54.9946,0.0],[-66.1019,-54.991,8.1959],[-66.0986,-54.9921,0.0],[-66.0864,-54.989,4.0475],[-66.0786,-54.989,0.3903],[-66.0781,-54.9874,22.5536],[-66.0714,-54.9857,6.4643],[-66.0669,-54.9857,6.7665],[-66.0647,-54.9868,3.3348],[-66.0653,-54.9882,0.0],[-66.0608,-54.9885,0.0],[-66.0603,-54.9865,0.0212],[-66.0525,-54.9865,0.0],[-66.0492,-54.984,0.1156],[-66.0497,-54.981,8.1714],[-66.0458,-54.9832,0.0],[-66.0392,-54.9832,0.0],[-66.0336,-54.9804,0.0],[-66.0325,-54.9779,32.0226],[-66.0175,-54.9776,0.6605],[-66.0103,-54.974,1.6985],[-66.0003,-54.9721,0.0],[-65.9997,-54.9999,0.0],[-65.9997,-54.9718,0.0],[-65.9947,-54.9707,0.0],[-65.9931,-54.9671,7.2158],[-65.9886,-54.9657,3.6271],[-65.9842,-54.966,7.3517],[-65.9825,-54.9682,0.0],[-65.9797,-54.9685,0.0],[-65.9764,-54.9651,1.9011],[-65.9742,-54.9651,3.4652],[-65.9708,-54.9696,0.0],[-65.9697,-54.9665,0.0],[-65.9642,-54.9657,0.0],[-65.9658,-54.9624,0.0],[-65.9708,-54.9607,13.3435],[-65.9708,-54.9585,10.7885],[-65.9675,-54.9565,0.0],[-65.9692,-54.9532,7.6977],[-65.9592,-54.9463,0.0],[-65.9564,-54.9418,0.0],[-65.9592,-54.9382,9.5435],[-65.9664,-54.936,21.464],[-65.9669,-54.934,19.3884],[-65.9614,-54.9337,0.0],[-65.9614,-54.9321,5.7677],[-65.9697,-54.9287,0.0],[-65.9742,-54.9296,54.4186],[-65.9775,-54.9246,8.3179],[-65.9842,-54.9218,5.0233],[-65.9964,-54.9204,5.5881],[-65.9981,-54.9188,0.0946],[-65.9992,-54.9107,-2.0],[-65.9875,-54.904,6.6281],[-65.9819,-54.9032,0.0],[-65.9736,-54.9043,5.186],[-65.9681,-54.9029,48.3771],[-65.9569,-54.9079,10.8959],[-65.9547,-54.9062,17.2153],[-65.9453,-54.9065,0.0],[-65.9442,-54.9051,3.0422],[-65.9297,-54.906,19.6401],[-65.9275,-54.9101,0.0],[-65.9192,-54.9096,0.0],[-65.9158,-54.9124,0.0],[-65.9108,-54.9129,35.9544],[-65.9031,-54.9115,0.0],[-65.9019,-54.9104,0.885],[-65.9025,-54.9046,49.6147],[-65.8969,-54.9032,0.0944],[-65.8953,-54.901,5.6973],[-65.8875,-54.899,5.4865],[-65.8792,-54.901,16.5022],[-65.8675,-54.9004,8.8298],[-65.8681,-54.9015,0.0],[-65.8642,-54.901,40.3718],[-65.8575,-54.9038,0.433],[-65.8519,-54.9038,4.3197],[-65.8525,-54.9049,0.0],[-65.8508,-54.9057,0.0897],[-65.8481,-54.9049,0.0],[-65.8492,-54.9024,6.7833],[-65.8453,-54.9024,4.9458],[-65.8458,-54.904,0.0],[-65.8397,-54.9054,41.5059],[-65.8414,-54.9068,0.0],[-65.8392,-54.9076,13.0847],[-65.8397,-54.9099,3.0017],[-65.8436,-54.9107,0.0],[-65.8392,-54.911,3.0017],[-65.8381,-54.9124,0.3368],[-65.8347,-54.9115,0.0],[-65.8303,-54.9146,0.0],[-65.8264,-54.9124,3.6699],[-65.8264,-54.9154,0.0],[-65.8247,-54.9162,7.6231],[-65.8158,-54.9124,0.3653],[-65.8119,-54.9143,2.2776],[-65.8019,-54.9149,0.0],[-65.8008,-54.9113,0.0],[-65.7936,-54.9079,18.698],[-65.7925,-54.9057,4.7074],[-65.7881,-54.9043,2.1101],[-65.7825,-54.906,2.941],[-65.7769,-54.9015,0.0],[-65.7719,-54.9024,15.395],[-65.7714,-54.9054,1.2377],[-65.7664,-54.9096,0.2141],[-65.7519,-54.9043,11.2711],[-65.7403,-54.9049,0.2487],[-65.7364,-54.9076,5.9115],[-65.7342,-54.9174,0.0],[-65.7297,-54.9207,3.4172],[-65.7308,-54.924,16.6956],[-65.7286,-54.9268,0.9845],[-65.7297,-54.9282,0.0],[-65.7253,-54.9287,7.2175],[-65.7214,-54.9313,0.0],[-65.7219,-54.9326,0.0],[-65.7169,-54.9315,0.0],[-65.7125,-54.934,17.194],[-65.7142,-54.9396,0.0],[-65.7086,-54.9521,48.9025],[-65.7142,-54.9632,25.9186],[-65.7192,-54.9651,0.2157],[-65.7197,-54.9674,0.4213],[-65.7169,-54.9682,2.2928],[-65.7181,-54.9701,0.2558],[-65.7147,-54.971,0.1163],[-65.7131,-54.9687,6.1182],[-65.7103,-54.9685,2.5839],[-65.7103,-54.9701,0.0],[-65.7081,-54.9707,0.0],[-65.7058,-54.9687,2.9994],[-65.6986,-54.9679,10.8915],[-65.6997,-54.969,0.9573],[-65.6958,-54.9696,20.5308],[-65.6981,-54.9729,0.2206],[-65.6819,-54.9699,0.0],[-65.6769,-54.9704,6.9435],[-65.6769,-54.9721,0.0],[-65.6725,-54.9732,0.1073],[-65.6664,-54.9707,2.9422],[-65.6603,-54.9721,0.0],[-65.6547,-54.9707,5.6321],[-65.6558,-54.9735,0.0],[-65.6525,-54.9735,0.0],[-65.6519,-54.9715,0.0],[-65.6503,-54.9715,0.0],[-65.6508,-54.9704,0.0],[-65.6464,-54.9693,6.4542],[-65.6442,-54.9657,4.8461],[-65.6408,-54.9646,4.9987],[-65.6392,-54.9654,4.9987],[-65.6414,-54.9712,0.0],[-65.6269,-54.9682,0.0],[-65.6247,-54.9637,0.0],[-65.6303,-54.9607,0.0],[-65.6286,-54.9596,0.0],[-65.6297,-54.9574,13.4842],[-65.6242,-54.9562,0.0],[-65.6253,-54.9524,5.6908],[-65.6153,-54.9524,0.0],[-65.6031,-54.9437,0.0],[-65.5992,-54.944,8.351],[-65.6003,-54.9454,0.0],[-65.5981,-54.9468,0.0],[-65.5947,-54.9468,0.0],[-65.5914,-54.9454,0.0],[-65.5936,-54.9449,0.0],[-65.5925,-54.9432,0.0],[-65.5747,-54.9412,4.8616],[-65.5719,-54.9379,30.1631],[-65.5592,-54.9379,12.1065],[-65.5569,-54.941,0.0],[-65.5547,-54.941,18.6689],[-65.5597,-54.9457,0.0],[-65.5597,-54.9485,0.0],[-65.5569,-54.9496,0.0],[-65.5414,-54.9437,0.0],[-65.5414,-54.941,1.0705],[-65.5397,-54.9396,0.0],[-65.5431,-54.9388,17.5875],[-65.5414,-54.9368,2.924],[-65.5369,-54.9396,0.0],[-65.5314,-54.9388,1.4293],[-65.5253,-54.9401,0.0],[-65.5236,-54.939,0.0],[-65.5236,-54.9365,0.0],[-65.5253,-54.9351,9.3557],[-65.5114,-54.9362,2.0744],[-65.5047,-54.931,32.0083],[-65.4997,-54.9313,0.0],[-65.4936,-54.9271,0.0],[-65.4942,-54.9221,17.0627],[-65.4925,-54.9199,0.0],[-65.4919,-54.9132,0.0],[-65.5003,-54.909,0.0],[-65.5003,-54.9079,3.0812],[-65.4969,-54.9079,0.0],[-65.4992,-54.9032,9.0661],[-65.4969,-54.8996,0.0],[-65.4881,-54.8971,0.6773],[-65.4825,-54.8907,4.2277],[-65.4703,-54.8885,0.3828],[-65.4708,-54.8876,3.126],[-65.4358,-54.889,1.9176],[-65.4297,-54.8851,3.4396],[-65.4281,-54.8862,4.1437],[-65.4314,-54.8904,1.4999],[-65.4269,-54.894,7.8844],[-65.4286,-54.8985,22.0404],[-65.4264,-54.8993,22.0404],[-65.4269,-54.9018,0.0],[-65.4247,-54.9035,12.0003],[-65.4247,-54.9057,6.4394],[-65.4275,-54.9074,0.0],[-65.4281,-54.9099,0.0],[-65.4219,-54.9143,8.5493],[-65.4231,-54.9179,0.0],[-65.4264,-54.9193,0.0],[-65.4231,-54.921,0.0],[-65.4242,-54.9232,0.0],[-65.4219,-54.9235,0.6799],[-65.4214,-54.9276,0.0],[-65.4169,-54.929,39.2415],[-65.4131,-54.9332,0.0],[-65.4169,-54.9374,6.2794],[-65.4203,-54.9382,0.0],[-65.4153,-54.9379,6.2794],[-65.4142,-54.9404,0.0],[-65.4108,-54.9404,0.3089],[-65.4097,-54.9421,0.0],[-65.3964,-54.9415,0.0],[-65.3919,-54.9429,0.0],[-65.3931,-54.9418,0.0],[-65.3897,-54.9418,0.0],[-65.3886,-54.9399,6.097],[-65.3864,-54.9396,0.0],[-65.3819,-54.9421,0.0],[-65.3769,-54.9368,1.9643],[-65.3619,-54.9329,0.488],[-65.3536,-54.9287,6.1214],[-65.3431,-54.929,1.1391],[-65.3436,-54.9268,6.7218],[-65.3464,-54.9262,32.2327],[-65.3397,-54.9251,0.0],[-65.3353,-54.921,13.7896],[-65.3286,-54.9215,0.0],[-65.3275,-54.9179,20.9788],[-65.3247,-54.9179,2.1715],[-65.3203,-54.9146,1.3841],[-65.3186,-54.9085,6.4222],[-65.3153,-54.9074,0.0],[-65.3125,-54.904,0.4535],[-65.3092,-54.9038,0.0],[-65.3092,-54.9026,0.0],[-65.3125,-54.9026,0.0],[-65.3131,-54.899,0.0],[-65.3158,-54.8957,0.0],[-65.3136,-54.8929,0.0],[-65.3147,-54.8913,2.3929],[-65.3103,-54.8915,0.0],[-65.3103,-54.8896,2.2339],[-65.3136,-54.8896,2.2339],[-65.3164,-54.8865,20.5879],[-65.3125,-54.8787,0.0],[-65.3147,-54.8757,2.0105],[-65.3131,-54.8726,11.6314],[-65.3081,-54.8724,3.9275],[-65.3064,-54.8715,0.0],[-65.3069,-54.8699,1.0458],[-65.2858,-54.866,4.5157],[-65.2786,-54.8626,0.0],[-65.2797,-54.8593,0.0],[-65.2786,-54.8549,0.0],[-65.2753,-54.8535,0.0],[-65.2758,-54.8507,19.6978],[-65.2708,-54.8499,0.0],[-65.2681,-54.8474,0.0],[-65.2658,-54.8415,0.0],[-65.2547,-54.8413,0.0],[-65.2547,-54.8365,0.0],[-65.2525,-54.8335,101.4116],[-65.2497,-54.8326,285.0038],[-65.2408,-54.8326,177.591],[-65.2414,-54.8346,0.0],[-65.2375,-54.8338,0.0],[-65.2308,-54.8276,0.0],[-65.2297,-54.8221,0.0],[-65.2253,-54.819,0.147],[-65.2214,-54.8185,0.0696],[-65.2264,-54.8151,24.2097],[-65.2375,-54.8149,22.7528],[-65.2397,-54.8115,5.881],[-65.2492,-54.8115,53.3301],[-65.2519,-54.8101,20.6667],[-65.2536,-54.8063,0.0],[-65.2564,-54.8051,13.946],[-65.2658,-54.8049,17.9328],[-65.2647,-54.794,3.5744],[-65.2469,-54.7943,8.6736],[-65.2353,-54.7887,8.4358],[-65.2269,-54.7879,14.4201],[-65.2219,-54.7851,4.3624],[-65.2158,-54.7846,0.0],[-65.2047,-54.7804,2.0224],[-65.2042,-54.7785,13.9447],[-65.2114,-54.7768,35.082],[-65.2125,-54.7746,0.0],[-65.2092,-54.7721,2.7201],[-65.2092,-54.7671,3.5341],[-65.1997,-54.7629,0.4791],[-65.2036,-54.7599,22.4124],[-65.2108,-54.7593,0.0],[-65.2014,-54.7557,0.0],[-65.2114,-54.7529,8.8089],[-65.2192,-54.7482,23.9078],[-65.2208,-54.7454,1.9281],[-65.2186,-54.7435,0.0],[-65.2008,-54.7379,9.7704],[-65.1997,-54.7285,9.8393],[-65.1942,-54.7254,0.1336],[-65.1942,-54.721,10.352],[-65.1903,-54.7199,0.0],[-65.1908,-54.716,0.0],[-65.1942,-54.7151,1.7052],[-65.1936,-54.7129,11.6201],[-65.1897,-54.7115,0.0],[-65.1925,-54.7074,1.7894],[-65.1981,-54.7051,2.4893],[-65.1936,-54.7029,3.7256],[-65.1936,-54.6957,11.4951],[-65.1781,-54.6851,1.6064],[-65.1781,-54.6832,9.1469],[-65.1758,-54.6815,0.0],[-65.1631,-54.679,0.0],[-65.1525,-54.6746,0.0],[-65.1447,-54.6738,0.0],[-65.1408,-54.6704,1.1528],[-65.1353,-54.6701,0.0],[-65.1342,-54.6654,4.1336],[-65.1242,-54.6646,0.0],[-65.1164,-54.6582,2.8671],[-65.1164,-54.656,0.7746],[-65.1219,-54.6551,16.8453],[-65.1231,-54.6532,25.0458],[-65.1275,-54.6518,7.0321],[-65.1836,-54.6476,0.0],[-65.2058,-54.6476,1.2564],[-65.2114,-54.6446,12.9878],[-65.2103,-54.6418,0.0],[-65.2119,-54.641,0.0],[-65.2281,-54.6443,3.5623],[-65.2297,-54.6421,0.0],[-65.2347,-54.641,0.0],[-65.2381,-54.6424,0.0],[-65.2392,-54.6465,8.4042],[-65.2436,-54.6474,0.4234],[-65.2475,-54.6451,1.4313],[-65.2475,-54.6435,0.0],[-65.2442,-54.6424,0.0],[-65.2442,-54.6401,0.0],[-65.2319,-54.6371,0.0],[-65.2442,-54.6329,2.3616],[-65.2447,-54.6299,0.0],[-65.2364,-54.624,0.0],[-65.2364,-54.6207,8.9504],[-65.2325,-54.619,0.0],[-65.2614,-54.6243,0.0],[-65.2758,-54.6285,0.0],[-65.2797,-54.631,1.7941],[-65.2825,-54.6299,10.7736],[-65.2831,-54.6279,0.4624],[-65.2936,-54.6279,0.0],[-65.3225,-54.636,2.9844],[-65.3342,-54.6362,0.0],[-65.3464,-54.6401,12.5488],[-65.3519,-54.6393,0.0],[-65.3653,-54.6429,0.0],[-65.3781,-54.6415,7.2957],[-65.3903,-54.644,5.5983],[-65.3997,-54.6407,0.5783],[-65.4042,-54.641,0.0],[-65.4058,-54.6437,21.2443],[-65.4181,-54.644,4.5958],[-65.4231,-54.6465,0.0],[-65.4242,-54.6507,0.0],[-65.4214,-54.6529,0.0],[-65.4286,-54.6515,0.0],[-65.4242,-54.6568,0.0],[-65.4269,-54.6587,0.0],[-65.4275,-54.6613,0.6295],[-65.4314,-54.6626,0.0],[-65.4386,-54.6621,0.6301],[-65.4403,-54.6587,0.0],[-65.4447,-54.6568,0.0],[-65.4447,-54.6535,0.0],[-65.4286,-54.6468,0.0],[-65.4297,-54.6424,0.0],[-65.4336,-54.6421,1.8858],[-65.4414,-54.6449,26.6101],[-65.4531,-54.6454,6.8049],[-65.4692,-54.6499,11.4105],[-65.4731,-54.6512,0.0],[-65.4742,-54.6543,5.6051],[-65.4769,-54.656,3.2901],[-65.4942,-54.6579,0.0],[-65.5103,-54.6562,0.083],[-65.5181,-54.6576,0.0],[-65.5203,-54.6604,5.8484],[-65.5181,-54.6613,0.0],[-65.5181,-54.6632,0.0],[-65.5258,-54.666,0.0],[-65.5286,-54.6651,1.5406],[-65.5269,-54.6643,0.0],[-65.5275,-54.6632,0.0],[-65.5386,-54.6632,4.0986],[-65.5381,-54.6618,3.8425],[-65.5408,-54.6593,0.0],[-65.5542,-54.6551,2.6358],[-65.5564,-54.6524,0.0],[-65.5519,-54.6496,0.0],[-65.5553,-54.6485,3.3516],[-65.5631,-54.6512,0.0],[-65.5736,-54.6507,1.1852],[-65.5908,-54.6565,23.7186],[-65.6308,-54.6593,0.0],[-65.6386,-54.659,0.0],[-65.6408,-54.6576,0.0],[-65.6547,-54.6621,2.9456],[-65.6797,-54.6635,2.397],[-65.6908,-54.6635,6.3737],[-65.6986,-54.6579,0.0],[-65.7019,-54.6579,0.0],[-65.7042,-54.6604,6.4938],[-65.7119,-54.661,0.0],[-65.7292,-54.6557,0.0],[-65.7492,-54.6557,2.1769],[-65.7536,-54.6507,0.0],[-65.7697,-54.6501,1.1584],[-65.7786,-54.6504,1.5281],[-65.7847,-54.6524,1.4733],[-65.8036,-54.6521,3.2588],[-65.8231,-54.6474,0.3898],[-65.8264,-54.6429,0.0],[-65.8369,-54.6421,13.1464],[-65.8447,-54.6393,0.0],[-65.8514,-54.6404,1.8337],[-65.8619,-54.6396,5.694],[-65.9036,-54.6235,5.2205],[-65.9069,-54.6188,2.7906],[-65.9047,-54.6162,0.0],[-65.9119,-54.6135,7.9793],[-65.9225,-54.611,0.0],[-65.9442,-54.6101,21.3347],[-65.9825,-54.596,0.0],[-66.0297,-54.5865,12.1399],[-66.0419,-54.5796,10.9446],[-66.0519,-54.5768,4.9099],[-66.0569,-54.576,0.0],[-66.0575,-54.5774,5.8653],[-66.0608,-54.5776,2.0788],[-66.0697,-54.5735,8.3039],[-66.1253,-54.5612,0.0],[-66.1475,-54.5579,6.9598],[-66.1686,-54.5479,0.0],[-66.1708,-54.5496,14.5418],[-66.1797,-54.5485,8.201],[-66.1992,-54.5424,5.8344],[-66.1997,-54.5404,9.3907],[-66.1975,-54.5393,0.0],[-66.1997,-54.5382,14.3192],[-66.2069,-54.5396,17.8633],[-66.2331,-54.5337,2.4652],[-66.2703,-54.5213,2.3702],[-66.2969,-54.5101,0.0],[-66.2982,-54.5153,6.8173],[-66.3157,-54.5199,11.2989],[-66.3434,-54.5174,16.2339],[-66.3473,-54.5189,22.5042],[-66.3496,-54.5244,29.6184],[-66.3539,-54.527,39.735],[-66.3683,-54.5208,20.8507],[-66.3731,-54.5215,20.7496],[-66.3942,-54.5279,35.1494],[-66.4055,-54.5368,74.0111],[-66.4112,-54.5343,35.3062],[-66.4137,-54.5303,28.6206],[-66.4214,-54.5341,31.4647],[-66.4342,-54.5375,36.9029],[-66.4425,-54.5344,48.5397],[-66.4616,-54.5335,63.2393],[-66.4785,-54.5385,46.9318],[-66.505,-54.5421,64.1896],[-66.5097,-54.5466,61.7182],[-66.5276,-54.5439,73.1617],[-66.5434,-54.5391,107.8331],[-66.5769,-54.5405,171.3057],[-66.5843,-54.5434,131.2719],[-66.594,-54.5437,176.1089],[-66.6056,-54.5487,97.8474],[-66.6272,-54.5549,107.3141],[-66.6337,-54.5517,110.468],[-66.6397,-54.556399999999996,124.2684],[-66.6445,-54.5567,129.6584],[-66.649,-54.5557,142.5165],[-66.6512,-54.5509,122.9166],[-66.6706,-54.5498,165.0776],[-66.6802,-54.5504,169.7476],[-66.6914,-54.5554,172.3528],[-67.4944,-54.5587,25.0]]],
[[[-64.4792,-54.8771,1.7045],[-64.4775,-54.8765,0.0],[-64.4853,-54.8771,1.4724],[-64.4858,-54.8785,3.6188],[-64.4836,-54.8793,3.6188],[-64.4792,-54.8771,1.7045]]],
[[[-64.5003,-54.861,0.8515],[-64.5042,-54.859,0.0],[-64.5075,-54.8621,0.0],[-64.4997,-54.8629,1.7526],[-64.4969,-54.8601,0.4293],[-64.5003,-54.861,0.8515]]],
[[[-64.3864,-54.8471,3.9836],[-64.3903,-54.8462,0.0],[-64.3914,-54.8474,0.0],[-64.3903,-54.8532,0.0],[-64.3836,-54.8535,0.0],[-64.3842,-54.8493,13.9399],[-64.3864,-54.8471,3.9836]]],
[[[-64.3192,-54.8432,0.7142],[-64.3208,-54.8404,0.0],[-64.3336,-54.8429,0.0],[-64.3303,-54.8443,3.7676],[-64.3319,-54.8476,0.0],[-64.3308,-54.8488,0.8545],[-64.3242,-54.8468,4.6942],[-64.3247,-54.8457,11.264099999999999],[-64.3231,-54.8451,0.0],[-64.3253,-54.8437,3.4918],[-64.3214,-54.8446,0.0],[-64.3192,-54.8432,0.7142]]],
[[[-64.1658,-54.8749,2.3134],[-64.1731,-54.8746,51.4796],[-64.1753,-54.8774,0.0],[-64.1731,-54.8779,34.8649],[-64.1742,-54.8807,0.0],[-64.1681,-54.8796,0.0],[-64.1692,-54.8782,-0.1244],[-64.1681,-54.8771,1.8101],[-64.1647,-54.8771,0.0],[-64.1664,-54.8763,0.0],[-64.1658,-54.8749,2.3134]]],
[[[-64.1514,-54.8479,12.982],[-64.1503,-54.8462,0.0],[-64.1525,-54.846,0.0],[-64.1592,-54.8488,0.0],[-64.1619,-54.8537,14.7081],[-64.1642,-54.8549,0.0],[-64.1597,-54.8568,0.0],[-64.1553,-54.856,14.6426],[-64.1553,-54.8535,32.6277],[-64.1536,-54.8535,2.262],[-64.1514,-54.8479,12.982]]],
[[[-64.0936,-54.7462,0.0],[-64.1008,-54.7443,0.0],[-64.1031,-54.7457,2.9594],[-64.1036,-54.7496,0.0],[-64.0969,-54.7482,0.0],[-64.0936,-54.7462,0.0]]],
[[[-64.0958,-54.7429,0.0],[-64.0992,-54.7421,0.0],[-64.0997,-54.7435,0.0],[-64.0931,-54.7438,0.0],[-64.0958,-54.7429,0.0]]],
[[[-64.3375,-54.7096,0.0],[-64.3364,-54.7038,1.1913],[-64.3397,-54.7026,0.0],[-64.3425,-54.7143,0.0],[-64.3464,-54.7157,0.0],[-64.3464,-54.7182,0.0],[-64.3492,-54.7207,0.0],[-64.3492,-54.7249,0.0],[-64.3469,-54.729,0.0],[-64.3497,-54.7335,5.8736],[-64.3492,-54.7407,1.6311],[-64.3514,-54.7435,10.1085],[-64.3669,-54.7499,62.5929],[-64.3725,-54.7496,21.7062],[-64.3769,-54.7526,0.0],[-64.3769,-54.7571,4.131],[-64.3719,-54.7604,6.4735],[-64.3736,-54.7651,0.0],[-64.3686,-54.7682,0.0],[-64.3669,-54.7726,9.4672],[-64.3597,-54.7768,28.9636],[-64.3603,-54.7821,23.7492],[-64.3647,-54.7835,2.864],[-64.3586,-54.7854,29.9839],[-64.3597,-54.7865,5.8919],[-64.3592,-54.7949,11.6961],[-64.3636,-54.8001,0.0],[-64.3608,-54.8063,32.0528],[-64.3686,-54.8107,0.0],[-64.3719,-54.8107,3.1657],[-64.3725,-54.8082,0.0],[-64.3714,-54.799,39.3716],[-64.3658,-54.794,6.0055],[-64.3681,-54.7921,46.898],[-64.3669,-54.7837,0.0],[-64.3714,-54.7826,14.5718],[-64.3786,-54.7771,0.0],[-64.3875,-54.7818,60.2451],[-64.3953,-54.7818,0.0],[-64.3942,-54.7779,36.3644],[-64.3881,-54.7746,0.0],[-64.3858,-54.7682,13.154],[-64.3864,-54.7646,17.5539],[-64.3903,-54.7612,84.7469],[-64.3903,-54.7554,88.9805],[-64.3858,-54.7521,13.0487],[-64.3914,-54.7485,8.2056],[-64.4092,-54.7504,7.0345],[-64.4247,-54.7565,0.0],[-64.4108,-54.7585,0.0],[-64.4036,-54.7646,0.0],[-64.4036,-54.7665,11.0068],[-64.4069,-54.7685,1.7886],[-64.4081,-54.7713,64.8619],[-64.4136,-54.7737,0.0],[-64.4242,-54.771,6.4657],[-64.4231,-54.769,13.3652],[-64.4258,-54.7679,6.0044],[-64.4275,-54.7649,2.2867],[-64.4342,-54.7671,9.0042],[-64.4375,-54.7649,50.0195],[-64.4314,-54.761,0.0],[-64.4481,-54.7624,0.0],[-64.4647,-54.766,1.0624],[-64.4853,-54.7651,25.3269],[-64.4908,-54.7637,71.1794],[-64.4908,-54.7604,15.4757],[-64.5008,-54.7518,0.0],[-64.5142,-54.7465,47.349],[-64.5153,-54.7432,1.5531],[-64.5197,-54.7429,0.0],[-64.5192,-54.741,0.0],[-64.5219,-54.7387,10.8246],[-64.5258,-54.7307,10.2968],[-64.5347,-54.7262,0.0],[-64.5453,-54.7246,3.5704],[-64.5469,-54.7296,15.6644],[-64.5514,-54.7287,-0.0066],[-64.5514,-54.7299,0.0],[-64.5486,-54.731,0.0275],[-64.5469,-54.7363,0.0],[-64.5419,-54.7407,9.5599],[-64.5431,-54.7432,0.0],[-64.5408,-54.7499,4.7916],[-64.5431,-54.7513,0.0],[-64.5425,-54.7582,0.0],[-64.5442,-54.7612,0.0],[-64.5414,-54.7654,0.0],[-64.5419,-54.769,3.353],[-64.5375,-54.7715,0.0],[-64.5242,-54.7707,21.674],[-64.5208,-54.7721,10.774],[-64.5192,-54.7743,10.2511],[-64.5181,-54.7821,0.0],[-64.5203,-54.7854,46.3612],[-64.5264,-54.7876,0.0],[-64.5269,-54.7901,0.0],[-64.5153,-54.7879,28.9734],[-64.5147,-54.7896,30.008],[-64.5181,-54.7912,0.0],[-64.5131,-54.7915,7.7654],[-64.5131,-54.7935,39.5341],[-64.5203,-54.7929,0.0],[-64.5214,-54.7962,20.1023],[-64.5114,-54.7957,12.4295],[-64.5081,-54.7971,8.1467],[-64.5219,-54.7979,0.0],[-64.5253,-54.8018,57.8733],[-64.5308,-54.8032,24.5551],[-64.5308,-54.7999,25.2301],[-64.5347,-54.7974,0.0],[-64.5447,-54.7971,4.9516],[-64.5486,-54.7949,15.7902],[-64.5531,-54.7949,7.7622],[-64.5664,-54.8026,0.0],[-64.5675,-54.8082,0.627],[-64.5658,-54.8099,4.523],[-64.5675,-54.8124,9.9842],[-64.5803,-54.8185,54.3702],[-64.5892,-54.8201,28.6106],[-64.5919,-54.8196,35.0643],[-64.5964,-54.8135,0.0],[-64.6003,-54.8129,44.2204],[-64.6025,-54.8093,0.0],[-64.6125,-54.8068,84.7413],[-64.6119,-54.8043,0.0],[-64.6258,-54.804,0.0],[-64.6264,-54.801,0.0],[-64.6397,-54.7976,0.0],[-64.6414,-54.7954,15.7082],[-64.6397,-54.7935,0.0],[-64.6408,-54.7893,0.0],[-64.6397,-54.7874,0.0],[-64.6453,-54.7837,107.7549],[-64.6464,-54.7779,0.0],[-64.6486,-54.7765,0.0],[-64.6531,-54.7774,1.3909],[-64.6581,-54.7832,8.6235],[-64.6831,-54.7843,0.0],[-64.6814,-54.7818,0.0],[-64.6875,-54.7796,9.1563],[-64.6958,-54.7821,17.5922],[-64.6969,-54.7846,0.0],[-64.6842,-54.7915,0.0],[-64.6775,-54.7929,55.0693],[-64.6769,-54.7954,3.1],[-64.6786,-54.7974,0.0],[-64.6747,-54.7999,9.4722],[-64.6842,-54.8035,0.0],[-64.6936,-54.8049,0.0],[-64.6942,-54.8065,3.564],[-64.6975,-54.8063,8.483],[-64.7025,-54.8018,1.2027],[-64.7025,-54.7988,0.0],[-64.7081,-54.7954,0.0],[-64.7081,-54.7912,0.0],[-64.7097,-54.791,1.252],[-64.7114,-54.7921,0.0],[-64.7114,-54.7965,6.8109],[-64.7253,-54.8015,-0.0218],[-64.7264,-54.8043,0.0],[-64.7342,-54.8063,0.3555],[-64.7297,-54.8087,14.1641],[-64.7303,-54.811,26.2594],[-64.7364,-54.814,0.1493],[-64.7336,-54.8182,23.064],[-64.7397,-54.8187,0.0],[-64.7419,-54.8207,5.0498],[-64.7397,-54.8218,0.0],[-64.7414,-54.8246,72.3711],[-64.7464,-54.8265,3.7134],[-64.7469,-54.829,7.9697],[-64.7436,-54.8315,18.3073],[-64.7536,-54.8338,0.3031],[-64.7569,-54.8374,0.0],[-64.7486,-54.8385,10.2448],[-64.7508,-54.8432,0.0],[-64.7408,-54.844,0.0],[-64.7414,-54.8479,0.0],[-64.7486,-54.8571,0.0],[-64.7392,-54.8563,94.1286],[-64.7397,-54.8596,0.0],[-64.7358,-54.859,17.5528],[-64.7353,-54.8565,0.0],[-64.7297,-54.8546,0.0],[-64.7236,-54.8532,42.5986],[-64.7214,-54.8537,45.116],[-64.7225,-54.8549,0.0],[-64.7153,-54.8537,2.3168],[-64.6886,-54.8451,0.0],[-64.6858,-54.8429,57.2713],[-64.6708,-54.844,43.3715],[-64.6692,-54.8454,3.7829],[-64.6719,-54.849,4.0085],[-64.6631,-54.8454,6.6121],[-64.6586,-54.8465,0.8559],[-64.6608,-54.8485,46.0729],[-64.6686,-54.8493,1.4061],[-64.6686,-54.8512,0.0],[-64.6814,-54.856,0.0],[-64.6842,-54.861,0.0],[-64.6819,-54.864,0.0],[-64.6769,-54.8643,30.6169],[-64.6764,-54.8665,0.0],[-64.6725,-54.8679,52.3843],[-64.6736,-54.871,50.163],[-64.6764,-54.8715,2.9777],[-64.6758,-54.8732,27.2402],[-64.6692,-54.876,22.9759],[-64.6603,-54.8757,68.8224],[-64.6603,-54.8824,15.1493],[-64.6542,-54.881,4.1474],[-64.6509,-54.8829,57.5553],[-64.6508,-54.8857,8.9015],[-64.6453,-54.8885,5.9952],[-64.6481,-54.8896,33.683],[-64.6481,-54.8913,48.5218],[-64.6542,-54.8929,2.5258],[-64.6531,-54.8971,38.7692],[-64.6742,-54.9001,3.5725],[-64.6758,-54.9018,47.0468],[-64.6914,-54.9054,14.1642],[-64.6992,-54.9049,6.4262],[-64.7042,-54.9074,0.0],[-64.7031,-54.9096,2.1068],[-64.7047,-54.9132,2.515],[-64.7008,-54.9137,36.2783],[-64.7025,-54.9154,1.4079],[-64.6986,-54.9149,0.0],[-64.6969,-54.9126,142.5849],[-64.6931,-54.9137,5.3108],[-64.6908,-54.9113,69.2703],[-64.6886,-54.9132,0.0],[-64.6847,-54.9113,20.3043],[-64.6825,-54.9129,44.7286],[-64.6775,-54.9126,0.0],[-64.6781,-54.9115,11.1929],[-64.6753,-54.9099,10.7157],[-64.6708,-54.9104,30.5721],[-64.6669,-54.9143,12.966],[-64.6653,-54.9129,98.1307],[-64.6642,-54.914,6.7424],[-64.6569,-54.9126,124.0071],[-64.6569,-54.914,25.3067],[-64.6531,-54.9143,7.8274],[-64.6447,-54.9118,0.0],[-64.6442,-54.9101,4.8765],[-64.6464,-54.9099,59.9908],[-64.6458,-54.9087,61.7554],[-64.6364,-54.9087,0.6789],[-64.6353,-54.906,79.4976],[-64.6308,-54.9043,87.388],[-64.6297,-54.9051,16.4214],[-64.6308,-54.9057,0.0],[-64.6214,-54.9046,0.0],[-64.6203,-54.9068,0.0],[-64.6136,-54.9051,86.5192],[-64.6136,-54.9082,0.0],[-64.6108,-54.9082,21.0838],[-64.6119,-54.9096,0.0],[-64.6069,-54.9104,0.0],[-64.6064,-54.9082,51.2024],[-64.6014,-54.9079,68.0353],[-64.5958,-54.9046,113.7141],[-64.5936,-54.9057,52.4813],[-64.5897,-54.904,92.7002],[-64.5842,-54.9043,5.4587],[-64.5881,-54.9026,192.2762],[-64.5886,-54.9004,244.82],[-64.5842,-54.9007,9.628],[-64.5814,-54.8982,5.2632],[-64.5831,-54.8963,56.2812],[-64.5803,-54.8963,25.7982],[-64.5803,-54.8949,95.0823],[-64.5786,-54.8949,95.0823],[-64.5781,-54.8971,25.7982],[-64.5742,-54.8971,1.8216],[-64.5747,-54.8929,52.0762],[-64.5708,-54.8921,4.0063],[-64.5714,-54.891,89.4015],[-64.5692,-54.8921,4.0063],[-64.5681,-54.8876,85.0532],[-64.5697,-54.8868,131.6497],[-64.5658,-54.8854,194.2921],[-64.5586,-54.8876,44.5737],[-64.5547,-54.8868,12.1],[-64.5564,-54.8854,131.0136],[-64.5553,-54.8843,371.8391],[-64.5519,-54.8857,125.926],[-64.5531,-54.8846,131.0136],[-64.5508,-54.8843,380.6118],[-64.5486,-54.8851,178.0306],[-64.5503,-54.8882,0.0],[-64.5475,-54.8882,0.0],[-64.5442,-54.8849,115.5537],[-64.5414,-54.8876,4.0547],[-64.5381,-54.8882,0.0],[-64.5408,-54.8838,186.6404],[-64.5336,-54.8815,2.6134],[-64.5319,-54.8782,60.637],[-64.5264,-54.8779,13.844],[-64.5275,-54.8704,55.0715],[-64.5147,-54.8693,1.0652],[-64.5181,-54.8674,0.0],[-64.5269,-54.8668,18.5387],[-64.5197,-54.8607,0.0],[-64.5203,-54.8546,0.0],[-64.5036,-54.8482,8.7527],[-64.5042,-54.8471,56.4945],[-64.5019,-54.8451,50.7868],[-64.4942,-54.8424,34.0703],[-64.4925,-54.8376,55.811],[-64.4847,-54.8385,0.0],[-64.4769,-54.8371,12.1029],[-64.4747,-54.8357,5.4464],[-64.4736,-54.8293,93.0254],[-64.4703,-54.8282,5.0433],[-64.4697,-54.8257,4.0327],[-64.4669,-54.8243,23.983],[-64.4603,-54.8243,16.8378],[-64.4592,-54.8262,0.0],[-64.4686,-54.8293,0.0],[-64.4708,-54.8321,0.0],[-64.4708,-54.8354,0.0],[-64.4569,-54.8338,0.0],[-64.4514,-54.8374,8.6886],[-64.4453,-54.8374,18.1073],[-64.4447,-54.8393,16.723],[-64.4469,-54.8418,16.1578],[-64.4514,-54.8426,3.8851],[-64.4758,-54.8426,0.0],[-64.4764,-54.8446,0.0],[-64.4736,-54.8457,0.0],[-64.4858,-54.8479,3.9911],[-64.4853,-54.8501,0.0],[-64.4803,-54.8493,127.0467],[-64.4775,-54.8501,64.2719],[-64.4808,-54.8501,9.5085],[-64.4786,-54.8518,2.8549],[-64.4903,-54.8551,30.5826],[-64.4942,-54.8587,3.5898],[-64.4931,-54.8604,0.0],[-64.4903,-54.8601,89.118],[-64.4908,-54.869,0.0],[-64.4897,-54.8707,0.0],[-64.4853,-54.8693,209.5126],[-64.4853,-54.871,10.731],[-64.4825,-54.8712,10.731],[-64.4858,-54.8721,6.1111],[-64.4836,-54.8737,3.4776],[-64.4853,-54.8763,1.4724],[-64.4792,-54.8743,2.0211],[-64.4797,-54.8718,20.9157],[-64.4769,-54.8704,11.4771],[-64.4786,-54.8699,82.825],[-64.4747,-54.8688,20.9764],[-64.4758,-54.8676,172.3822],[-64.4697,-54.8682,0.0],[-64.4681,-54.866,206.5458],[-64.4636,-54.8674,16.8515],[-64.4625,-54.8649,292.6759],[-64.4564,-54.8654,248.8246],[-64.4564,-54.8674,39.4692],[-64.4547,-54.8679,33.4807],[-64.4486,-54.8662,10.2904],[-64.4508,-54.8682,99.3155],[-64.4508,-54.8718,43.4245],[-64.4486,-54.874,10.3063],[-64.4497,-54.8754,0.0],[-64.4475,-54.8757,0.0],[-64.4464,-54.8735,26.3403],[-64.4414,-54.8715,1.5058],[-64.4431,-54.8699,11.702],[-64.4392,-54.8654,80.0343],[-64.4297,-54.8637,18.7594],[-64.4269,-54.8654,0.213],[-64.4242,-54.864,10.8723],[-64.4242,-54.8621,66.0959],[-64.4208,-54.8629,42.8833],[-64.4136,-54.8593,40.4514],[-64.4119,-54.8568,115.636],[-64.4069,-54.8554,32.999],[-64.4064,-54.8526,256.3875],[-64.4008,-54.8499,119.2878],[-64.3992,-54.8504,19.2332],[-64.4003,-54.846,3.6723],[-64.4097,-54.8443,4.402],[-64.4075,-54.8424,0.0],[-64.4019,-54.8429,27.7738],[-64.3936,-54.8407,0.0],[-64.3931,-54.8385,0.0],[-64.3958,-54.8376,0.0],[-64.3958,-54.8335,7.0232],[-64.3931,-54.8324,0.0],[-64.3947,-54.8279,114.4885],[-64.3881,-54.8293,41.5226],[-64.3847,-54.8324,26.3481],[-64.3819,-54.8321,16.4034],[-64.3808,-54.8301,119.5782],[-64.3753,-54.834,23.1748],[-64.3647,-54.834,0.0],[-64.3658,-54.8326,60.9369],[-64.3614,-54.8324,1.189],[-64.3653,-54.8312,75.8242],[-64.3647,-54.8293,19.035],[-64.3631,-54.8293,31.6441],[-64.3586,-54.8312,81.2839],[-64.3592,-54.8351,0.0],[-64.3486,-54.8338,0.0],[-64.3475,-54.831,107.6222],[-64.3414,-54.8318,0.0],[-64.3408,-54.8299,40.663],[-64.3325,-54.8304,4.6164],[-64.3342,-54.8282,44.6157],[-64.3325,-54.8279,130.7645],[-64.3325,-54.8251,54.6939],[-64.3342,-54.8243,120.72],[-64.3308,-54.8251,0.0],[-64.3286,-54.8237,77.7349],[-64.3236,-54.826,0.0],[-64.3258,-54.8218,0.0],[-64.3242,-54.8204,11.199],[-64.3253,-54.8199,11.199],[-64.3208,-54.8201,0.0],[-64.3192,-54.8176,105.2944],[-64.3164,-54.8187,6.2864],[-64.3136,-54.8154,0.0],[-64.3147,-54.8146,22.2142],[-64.3131,-54.8138,0.0],[-64.3136,-54.8124,14.1577],[-64.3119,-54.8124,14.1577],[-64.3136,-54.809,9.3356],[-64.3114,-54.8085,9.3356],[-64.3097,-54.811,14.7771],[-64.3075,-54.8104,0.0],[-64.3081,-54.809,7.77],[-64.3058,-54.8071,45.9817],[-64.3069,-54.8051,126.5302],[-64.2986,-54.8068,0.0],[-64.2997,-54.8049,4.5241],[-64.3025,-54.8046,37.8081],[-64.3036,-54.8021,70.1383],[-64.3019,-54.7976,2.5115],[-64.3031,-54.7951,0.9541],[-64.3003,-54.794,0.0],[-64.3097,-54.7924,31.5352],[-64.3053,-54.7882,0.0],[-64.2975,-54.7887,0.0],[-64.2947,-54.7904,0.0],[-64.2908,-54.7896,0.0],[-64.2792,-54.7965,0.0],[-64.2764,-54.7965,0.0],[-64.2714,-54.7912,14.4917],[-64.2692,-54.7912,19.8013],[-64.2664,-54.7938,110.4059],[-64.2664,-54.8032,0.0256],[-64.2631,-54.8049,0.0],[-64.2619,-54.8024,23.0431],[-64.2597,-54.8029,15.8281],[-64.2597,-54.8015,15.8281],[-64.2564,-54.8007,32.5611],[-64.2453,-54.7918,0.0],[-64.2431,-54.7843,24.4652],[-64.2342,-54.7821,3.4159],[-64.2336,-54.7885,7.2524],[-64.2364,-54.7901,0.0],[-64.2369,-54.7924,1.5575],[-64.2336,-54.7929,21.1155],[-64.2336,-54.7957,0.0],[-64.2364,-54.7993,0.0],[-64.2325,-54.801,27.0445],[-64.2319,-54.8085,6.9358],[-64.2347,-54.8121,0.0],[-64.2325,-54.8179,5.4145],[-64.2286,-54.8179,108.8241],[-64.2281,-54.8213,4.1485],[-64.2392,-54.8257,0.0],[-64.2375,-54.8312,31.2975],[-64.2353,-54.8332,16.554],[-64.2319,-54.8332,130.0121],[-64.2342,-54.8346,0.0],[-64.2319,-54.8371,9.0074],[-64.2353,-54.8371,-0.018],[-64.2353,-54.839,0.3696],[-64.2392,-54.841,0.0],[-64.2353,-54.8415,0.0],[-64.2308,-54.8387,49.2834],[-64.2303,-54.8401,4.3897],[-64.2225,-54.8418,92.2025],[-64.2292,-54.8451,22.275],[-64.2303,-54.849,34.3432],[-64.2231,-54.8543,98.4743],[-64.2236,-54.8579,0.0],[-64.2219,-54.8585,0.0],[-64.2181,-54.8563,1.861],[-64.2153,-54.8568,1.861],[-64.2158,-54.8482,101.6646],[-64.2119,-54.8479,27.3274],[-64.2081,-54.8449,0.0],[-64.2086,-54.8429,0.0],[-64.2042,-54.8413,0.0],[-64.2081,-54.8387,0.0],[-64.2081,-54.8365,0.0],[-64.2053,-54.834,149.4399],[-64.2019,-54.8338,3.6643],[-64.2008,-54.829,66.3524],[-64.1981,-54.8301,0.0],[-64.1958,-54.829,31.1034],[-64.1931,-54.8318,0.0],[-64.1925,-54.8362,0.0],[-64.1897,-54.8387,4.5858],[-64.1836,-54.8376,62.8997],[-64.1831,-54.839,0.0],[-64.1786,-54.8393,0.0],[-64.1781,-54.8371,29.8852],[-64.1736,-54.8362,0.0],[-64.1769,-54.834,9.7055],[-64.1769,-54.8315,17.9504],[-64.1747,-54.8301,2.6595],[-64.1769,-54.8296,33.8861],[-64.1769,-54.8257,84.1491],[-64.1731,-54.826,0.0],[-64.1714,-54.8237,0.0],[-64.1553,-54.8254,8.8219],[-64.1569,-54.8265,0.0],[-64.1508,-54.8251,125.6714],[-64.1492,-54.8262,125.6714],[-64.1508,-54.8271,32.8688],[-64.1508,-54.8301,0.6005],[-64.1497,-54.8301,0.6005],[-64.1475,-54.8293,7.1042],[-64.1464,-54.8265,63.4379],[-64.1458,-54.8282,7.1042],[-64.1436,-54.8285,0.0],[-64.1425,-54.8262,100.7257],[-64.1381,-54.8268,0.0],[-64.1358,-54.8243,60.5888],[-64.1297,-54.8226,31.4868],[-64.1247,-54.8196,0.0],[-64.1242,-54.8146,12.8735],[-64.1203,-54.8143,1.8059],[-64.1153,-54.8201,21.3946],[-64.1136,-54.8262,122.7851],[-64.1158,-54.8293,15.7726],[-64.1142,-54.8315,4.5177],[-64.1153,-54.8343,10.0811],[-64.1108,-54.8374,0.0],[-64.1114,-54.8349,0.217],[-64.1069,-54.8332,0.0],[-64.1081,-54.8293,81.8526],[-64.1047,-54.8257,13.7054],[-64.0981,-54.8237,0.8687],[-64.0964,-54.821,4.9093],[-64.0997,-54.8182,18.1795],[-64.0992,-54.8157,58.2788],[-64.0953,-54.8154,0.8687],[-64.0892,-54.8099,15.6364],[-64.0836,-54.8121,0.0],[-64.0825,-54.8085,33.7952],[-64.0786,-54.8099,0.0],[-64.0747,-54.8071,0.0],[-64.0731,-54.796,56.8582],[-64.0703,-54.7949,0.0],[-64.0747,-54.7924,1.5669],[-64.0742,-54.791,0.0],[-64.0769,-54.791,22.4148],[-64.0675,-54.7896,0.0],[-64.0697,-54.7874,35.6679],[-64.0692,-54.786,88.1954],[-64.0636,-54.784,17.4249],[-64.0614,-54.7804,10.2171],[-64.0586,-54.7796,0.0],[-64.0542,-54.7801,6.5687],[-64.0592,-54.7818,2.3289],[-64.0575,-54.7863,49.254],[-64.0614,-54.7879,0.0],[-64.0586,-54.7907,2.4164],[-64.0564,-54.7974,55.8556],[-64.0525,-54.799,11.8644],[-64.0525,-54.8004,0.0],[-64.0475,-54.8004,139.0229],[-64.0481,-54.8015,8.1484],[-64.0425,-54.8012,112.5261],[-64.0442,-54.8004,112.5261],[-64.0431,-54.7999,112.5261],[-64.0353,-54.8021,12.7388],[-64.0403,-54.8063,0.0],[-64.0325,-54.8085,0.0],[-64.0303,-54.8074,0.0],[-64.0319,-54.804,0.0],[-64.0258,-54.804,3.348],[-64.0264,-54.8021,2.9733],[-64.0331,-54.8026,0.0],[-64.0297,-54.8001,0.0],[-64.0319,-54.7971,45.2917],[-64.0264,-54.7965,0.0],[-64.0225,-54.7915,1.0916],[-64.0192,-54.7915,0.0],[-64.0203,-54.7904,7.5101],[-64.0186,-54.7887,98.9229],[-64.0169,-54.7893,78.8585],[-64.0175,-54.7904,7.5101],[-64.0108,-54.791,50.0449],[-64.0108,-54.7926,6.7155],[-64.0014,-54.7896,0.0],[-63.9964,-54.7896,0.0],[-63.9869,-54.7846,0.0],[-63.9869,-54.7815,2.3341],[-63.9853,-54.781,0.0],[-63.9864,-54.7785,0.0],[-63.9836,-54.7757,10.7723],[-63.9786,-54.7762,0.0],[-63.9786,-54.7746,0.0],[-63.9703,-54.7724,10.7643],[-63.9614,-54.7676,22.4753],[-63.9542,-54.7674,2.8581],[-63.9547,-54.7721,28.7701],[-63.9569,-54.7746,28.6454],[-63.9603,-54.7751,0.0],[-63.9608,-54.7776,0.0],[-63.9592,-54.7804,0.0],[-63.9619,-54.7829,0.0],[-63.9631,-54.7904,93.9049],[-63.9675,-54.791,0.0],[-63.9669,-54.7943,0.0],[-63.9686,-54.7954,0.0],[-63.9653,-54.796,1.0094],[-63.9542,-54.7932,0.0],[-63.9542,-54.7954,0.0],[-63.9469,-54.7962,14.8118],[-63.9481,-54.7982,31.0984],[-63.9519,-54.7985,0.0],[-63.9536,-54.8004,63.3851],[-63.9608,-54.8012,0.0],[-63.9586,-54.8049,0.0],[-63.9564,-54.8054,0.0],[-63.9569,-54.8076,0.0],[-63.9553,-54.8082,0.0],[-63.9553,-54.8099,0.0],[-63.9564,-54.8124,0.0],[-63.9536,-54.8138,0.0],[-63.9503,-54.8138,0.0],[-63.9492,-54.8115,4.4942],[-63.9442,-54.809,0.0],[-63.9369,-54.8093,0.0],[-63.9369,-54.8065,0.0],[-63.9308,-54.8057,0.0],[-63.9264,-54.8026,12.7191],[-63.9225,-54.8021,7.1746],[-63.9197,-54.8035,0.0],[-63.9131,-54.7976,58.9704],[-63.9064,-54.7951,1.4733],[-63.9086,-54.7943,0.0],[-63.9092,-54.791,10.0313],[-63.8881,-54.7882,0.0],[-63.8847,-54.7863,0.0],[-63.8858,-54.7818,96.2413],[-63.8842,-54.7807,32.9969],[-63.8803,-54.781,12.9864],[-63.8775,-54.7863,0.0],[-63.8869,-54.7938,0.0],[-63.8786,-54.7935,0.0],[-63.8703,-54.7907,4.6836],[-63.8525,-54.7896,0.0],[-63.8514,-54.7915,0.0],[-63.8486,-54.7915,0.0],[-63.8481,-54.7904,0.0],[-63.8414,-54.7904,0.0],[-63.8464,-54.7865,0.0],[-63.8419,-54.7851,0.077],[-63.8414,-54.7821,0.0],[-63.8447,-54.7824,6.6567],[-63.8458,-54.7807,0.0],[-63.8408,-54.7776,9.9989],[-63.8375,-54.7724,5.5089],[-63.8258,-54.7665,0.0],[-63.8253,-54.7649,0.0],[-63.8281,-54.7637,0.685],[-63.8281,-54.7621,0.0],[-63.8258,-54.7596,0.0],[-63.8131,-54.7579,0.0],[-63.8131,-54.7568,0.0],[-63.8003,-54.7518,0.0],[-63.8008,-54.7493,0.0],[-63.7997,-54.749,0.0],[-63.8019,-54.7479,16.7117],[-63.8008,-54.7468,0.0],[-63.8019,-54.7429,0.0],[-63.8086,-54.7407,10.0427],[-63.8092,-54.7385,0.0],[-63.806399999999996,-54.7387,0.0],[-63.8081,-54.7354,20.7704],[-63.8058,-54.7337,12.4279],[-63.7981,-54.7329,11.2471],[-63.7942,-54.7262,0.0],[-63.7986,-54.7249,0.0],[-63.8031,-54.7276,3.9088],[-63.8053,-54.7271,0.0],[-63.806399999999996,-54.7229,0.0],[-63.8047,-54.7196,0.0],[-63.8081,-54.7171,0.9328],[-63.8119,-54.7201,23.8853],[-63.8164,-54.7185,0.0],[-63.8208,-54.721,0.0],[-63.8264,-54.7207,0.0],[-63.8286,-54.7218,0.0],[-63.8303,-54.7271,0.0],[-63.8414,-54.7271,0.0],[-63.8442,-54.7287,0.0],[-63.8469,-54.7385,21.018],[-63.8508,-54.7424,0.0],[-63.8514,-54.7457,9.7454],[-63.8553,-54.7465,0.0],[-63.8575,-54.7493,5.4571],[-63.8725,-54.7543,13.3395],[-63.8819,-54.7546,28.6767],[-63.8869,-54.7537,2.8086],[-63.8881,-54.7515,7.5192],[-63.8731,-54.7482,0.0],[-63.8631,-54.7435,0.0],[-63.8603,-54.7396,0.0],[-63.8647,-54.7379,0.0],[-63.8553,-54.7332,0.0],[-63.8619,-54.7313,6.9201],[-63.8697,-54.7324,0.0],[-63.8764,-54.7299,0.0],[-63.8725,-54.7251,0.0],[-63.8753,-54.7176,0.0],[-63.8808,-54.7179,0.0],[-63.8881,-54.7157,0.0],[-63.8925,-54.7185,19.4944],[-63.9042,-54.7182,2.263],[-63.9092,-54.7243,0.0],[-63.9192,-54.7251,0.0],[-63.9203,-54.7238,0.0],[-63.9186,-54.7224,0.0],[-63.9214,-54.7224,0.0],[-63.9292,-54.7249,40.5141],[-63.9375,-54.7249,0.0],[-63.9431,-54.7268,0.0],[-63.9458,-54.731,0.0],[-63.9553,-54.7332,8.1604],[-63.9592,-54.7412,0.0],[-63.9619,-54.7407,0.0],[-63.9608,-54.7349,0.0],[-63.9681,-54.734,0.0],[-63.9753,-54.736,0.0],[-63.9936,-54.7363,0.0],[-63.9925,-54.7387,21.4494],[-63.9942,-54.744,0.0],[-64.0058,-54.7418,2.4513],[-64.0125,-54.744,11.6809],[-64.0147,-54.7476,10.6753],[-64.0219,-54.7526,21.0659],[-64.0264,-54.7518,0.0],[-64.0253,-54.7551,46.7019],[-64.0286,-54.7574,0.0],[-64.0292,-54.7679,0.0],[-64.0336,-54.7743,22.2642],[-64.0486,-54.7776,6.486],[-64.0508,-54.7743,36.8913],[-64.0408,-54.769,15.547],[-64.0336,-54.7576,0.0],[-64.0336,-54.7537,0.0],[-64.0308,-54.7524,16.1662],[-64.0308,-54.751,0.0],[-64.0358,-54.7513,43.1614],[-64.0369,-54.7499,32.3916],[-64.0342,-54.7424,0.3693],[-64.0408,-54.7407,0.0],[-64.0492,-54.7412,2.9504],[-64.0492,-54.7385,8.0645],[-64.0525,-54.7379,49.7009],[-64.0469,-54.7315,0.0],[-64.0475,-54.7301,1.8318],[-64.0619,-54.731,5.0201],[-64.0669,-54.7279,0.0],[-64.0708,-54.7276,0.0],[-64.0753,-54.729,0.0],[-64.0786,-54.7357,42.6998],[-64.0803,-54.7465,52.6478],[-64.0831,-54.7504,23.1802],[-64.0908,-54.7543,7.1678],[-64.1058,-54.7565,16.5257],[-64.1092,-54.7607,1.1498],[-64.1086,-54.7637,14.5928],[-64.1114,-54.761,17.9797],[-64.1081,-54.7574,12.1169],[-64.1086,-54.756,0.0],[-64.1142,-54.7579,0.0],[-64.1169,-54.7565,5.734],[-64.1242,-54.7571,0.0],[-64.1181,-54.7535,0.0],[-64.1058,-54.7501,0.0],[-64.1092,-54.7471,11.3752],[-64.1081,-54.7393,25.0897],[-64.1092,-54.7382,25.0897],[-64.1153,-54.736,0.0],[-64.1303,-54.7346,35.9297],[-64.1292,-54.7318,3.0717],[-64.1242,-54.7304,1.1509],[-64.1264,-54.7279,0.0],[-64.1353,-54.7279,0.0],[-64.1392,-54.7329,0.0],[-64.1508,-54.7304,0.0],[-64.1486,-54.7376,73.1875],[-64.1653,-54.7407,1.199],[-64.1636,-54.7421,0.0],[-64.1536,-54.7415,0.0],[-64.1519,-54.7443,0.0],[-64.1475,-54.7438,11.5549],[-64.1447,-54.7468,14.1216],[-64.1431,-54.7526,0.0],[-64.1369,-54.7585,15.8205],[-64.1347,-54.7693,14.5735],[-64.1458,-54.7699,34.7582],[-64.1536,-54.7679,3.285],[-64.1569,-54.7643,0.0],[-64.1608,-54.7649,11.2309],[-64.1664,-54.7626,9.1746],[-64.1647,-54.7574,10.9883],[-64.1603,-54.7551,0.0],[-64.1653,-54.7549,49.8273],[-64.1697,-54.751,0.0],[-64.1781,-54.7479,17.4402],[-64.1825,-54.7451,18.0279],[-64.1825,-54.7429,0.0],[-64.1903,-54.7432,109.5652],[-64.1936,-54.7412,0.0],[-64.2042,-54.7404,6.316],[-64.2069,-54.7365,0.0],[-64.2125,-54.7363,23.9484],[-64.2164,-54.7335,2.6497],[-64.2247,-54.7329,0.0],[-64.2253,-54.7354,0.0],[-64.2225,-54.744,5.0166],[-64.2325,-54.7457,2.3683],[-64.2503,-54.7454,6.5701],[-64.2603,-54.7399,20.8991],[-64.2575,-54.7382,0.0],[-64.2586,-54.7357,0.0],[-64.2758,-54.7335,20.0256],[-64.2769,-54.7282,0.0],[-64.2808,-54.7282,0.0],[-64.2847,-54.7318,7.0482],[-64.2981,-54.736,0.0],[-64.3242,-54.7354,2.2739],[-64.3275,-54.7329,0.0],[-64.3331,-54.7321,15.1363],[-64.3397,-54.7271,0.0],[-64.3403,-54.7226,0.0],[-64.3381,-54.7168,0.0],[-64.3408,-54.7135,0.0],[-64.3375,-54.7096,0.0]]],
[[[-64.2581,-54.7318,0.0],[-64.2558,-54.7313,0.0],[-64.2558,-54.7296,0.0],[-64.2625,-54.7301,0.0],[-64.2614,-54.7321,0.0],[-64.2581,-54.7318,0.0]]],
[[[-64.2464,-54.7264,0.0],[-64.2475,-54.7262,0.0],[-64.2469,-54.7243,0.0],[-64.2503,-54.7254,0.0],[-64.2503,-54.7271,0.0],[-64.2453,-54.7279,0.0],[-64.2436,-54.7249,0.0],[-64.2453,-54.7246,0.0],[-64.2464,-54.7264,0.0]]],
[[[-64.2475,-54.6904,0.0],[-64.2531,-54.6896,2.877],[-64.2569,-54.6915,1.9513],[-64.2586,-54.6935,0.0],[-64.2569,-54.6957,2.581],[-64.2581,-54.6974,2.0401],[-64.2508,-54.6963,0.0],[-64.2497,-54.6915,0.0],[-64.2475,-54.6904,0.0]]],
[[[-64.0925,-54.7412,4.1635],[-64.0908,-54.7404,0.0],[-64.0969,-54.7399,0.0],[-64.0964,-54.7418,0.0],[-64.0925,-54.7412,4.1635]]],
[[[-64.2475,-54.7093,0.0],[-64.2442,-54.7096,0.0],[-64.2425,-54.7071,0.0],[-64.2458,-54.7071,0.0],[-64.2475,-54.7093,0.0]]],
[[[-64.2375,-54.696,0.0],[-64.2364,-54.6949,0.0],[-64.2392,-54.6946,1.5116],[-64.2469,-54.6982,0.0],[-64.2492,-54.6999,0.0],[-64.2475,-54.7024,0.0],[-64.2492,-54.7043,0.0],[-64.2436,-54.7046,2.0203],[-64.2397,-54.7079,0.0],[-64.2381,-54.7079,0.0],[-64.2392,-54.7054,0.0],[-64.2325,-54.7057,0.0],[-64.2364,-54.7035,0.0],[-64.2336,-54.7032,0.0],[-64.2319,-54.6993,0.0],[-64.2375,-54.696,0.0]]],
[[[-64.1295,-54.646,0.0],[-64.1297,-54.644,0.0],[-64.1414,-54.6449,4.27],[-64.1453,-54.6468,0.0338],[-64.1508,-54.6468,0.0437],[-64.1503,-54.6487,1.9303],[-64.1614,-54.6499,1.6212],[-64.1636,-54.6518,0.0],[-64.1603,-54.6532,0.0],[-64.1603,-54.6551,0.0],[-64.1581,-54.6551,0.0],[-64.1575,-54.6574,0.0],[-64.1592,-54.6582,0.0],[-64.1553,-54.6596,0.0],[-64.1553,-54.6618,0.0],[-64.1514,-54.6624,3.568],[-64.1492,-54.6657,1.277],[-64.1381,-54.6682,0.0],[-64.1247,-54.6632,0.0],[-64.1225,-54.6601,2.9434],[-64.1247,-54.6601,2.9434],[-64.1253,-54.6582,0.0],[-64.1086,-54.651,0.6941],[-64.1097,-54.6496,0.6941],[-64.1158,-54.6507,0.0],[-64.1203,-54.6496,7.5019],[-64.1203,-54.6471,0.0],[-64.1295,-54.646,0.0]]],
[[[-64.2575,-54.6729,0.0],[-64.2619,-54.6724,0.0],[-64.2719,-54.6785,0.0],[-64.2719,-54.6818,0.0],[-64.2625,-54.6879,0.0],[-64.2536,-54.6885,0.0],[-64.2536,-54.6851,0.0],[-64.2508,-54.6829,0.644],[-64.2525,-54.681,9.8906],[-64.2503,-54.681,9.8906],[-64.2464,-54.6757,0.0],[-64.2469,-54.674,0.0],[-64.2575,-54.6729,0.0]]],
[[[-64.2614,-54.6707,0.4475],[-64.2597,-54.671,0.0],[-64.2592,-54.6688,0.0],[-64.2631,-54.6693,0.0],[-64.2614,-54.6707,0.4475]]]]}}