{"type": "Feature","bbox": [-65.2936,-26.2829,-64.2042,-25.5135],"geometry": {"type": "MultiPolygon","coordinates": [[[[-65.2385,-25.9347,1159.8105],[-65.2316,-25.9562,1264.2748],[-65.2332,-25.9677,1214.259],[-65.2318,-25.973,1132.4354],[-65.2244,-25.9826,1095.2013],[-65.2107,-25.9947,963.9078],[-65.1824,-26.0074,927.579],[-65.1641,-26.0123,915.9365],[-65.1428,-26.0248,939.377],[-65.1131,-26.0348,982.4926],[-65.1005,-26.0366,972.1677],[-65.0877,-26.0363,986.9574],[-65.0826,-26.0328,988.6292],[-65.0843,-26.0216,990.978],[-65.0827,-26.0161,1012.7244],[-65.0779,-26.0123,1035.8083],[-65.0719,-26.0107,1037.1602],[-65.0275,-26.0131,1155.9408],[-64.9904,-26.0208,1223.2952],[-64.9528,-26.0151,1375.1313],[-64.9147,-26.0157,1624.3191],[-64.9021,-26.0176,2188.8794],[-64.878,-26.0257,2316.5386],[-64.876,-26.0303,2216.7378],[-64.8781,-26.0419,2196.8955],[-64.8754,-26.059,2178.1636],[-64.8759,-26.0647,2230.937],[-64.8772,-26.0704,2151.8677],[-64.8837,-26.0801,2285.2593],[-64.901,-26.093,2140.1892],[-64.9022,-26.1041,2149.4666],[-64.8981,-26.1229,1814.6528],[-64.8992,-26.1307,1707.877],[-64.911,-26.1538,1969.9913],[-64.9205,-26.1672,1851.2917],[-64.9243,-26.1795,1778.9388],[-64.9624,-26.2409,1346.4758],[-64.9569,-26.2488,1489.8446],[-64.9598,-26.2578,1465.5977],[-64.9603,-26.2672,1467.3511],[-64.954,-26.2814,1511.395],[-64.9448,-26.2829,1717.8253],[-64.9068,-26.2703,1096.8517],[-64.8994,-26.2657,1094.6321],[-64.8836,-26.2613,1019.1061],[-64.8717,-26.255,976.8245],[-64.8659,-26.2488,916.6788],[-64.8643,-26.2392,960.1133],[-64.8602,-26.2311,925.2],[-64.852,-26.2256,872.6042],[-64.8475,-26.2168,911.6167],[-64.8427,-26.2113,888.9069],[-64.8349,-26.2115,879.7126],[-64.8294,-26.2156,809.2313],[-64.8185,-26.2155,838.2342],[-64.7866,-26.2038,817.7883],[-64.7665,-26.2056,791.3345],[-64.7514,-26.2139,715.0829],[-64.7232,-26.224,592.4539],[-64.6569,-26.2265,516.6299],[-64.5895,-26.2142,470.2221],[-64.574,-26.2225,456.7761],[-64.5645,-26.2232,451.575],[-64.5537,-26.2232,440.8745],[-64.5328,-26.2193,442.1968],[-64.5044,-26.2201,418.9749],[-64.4981,-26.2243,415.1895],[-64.4935,-26.2335,408.1919],[-64.4728,-26.1844,409.5289],[-64.4291,-26.1048,513.3732],[-64.4536,-26.0739,671.8126],[-64.4108,-25.9976,444.6272],[-64.2873,-25.7202,453.0634],[-64.2148,-25.7313,384.6985],[-64.2042,-25.5612,411.135],[-64.2064,-25.544,414.7448],[-64.2112,-25.5411,416.5303],[-64.2485,-25.5338,449.8295],[-64.2774,-25.5222,481.327],[-64.3076,-25.5135,509.4799],[-64.3266,-25.5141,538.4532],[-64.3573,-25.5211,596.8578],[-64.4013,-25.5259,635.4193],[-64.4076,-25.5259,646.2363],[-64.4322,-25.5212,723.2126],[-64.4372,-25.5175,730.4828],[-64.4498,-25.5172,953.0182],[-64.4744,-25.5228,700.7067],[-64.4837,-25.5305,675.1442],[-64.4844,-25.5534,738.9169],[-64.4825,-25.5763,820.4202],[-64.4852,-25.5933,849.5311],[-64.485,-25.6108,936.7133],[-64.4878,-25.6151,923.7704],[-64.4943,-25.6165,824.4406],[-64.5057,-25.6126,722.3774],[-64.5246,-25.6109,706.4358],[-64.5799,-25.5984,621.5114],[-64.6162,-25.5884,587.5433],[-64.6415,-25.589,623.4636],[-64.6477,-25.5901,623.1667],[-64.6749,-25.6045,633.663],[-64.706,-25.6092,617.5581],[-64.7401,-25.6242,631.0372],[-64.7588,-25.6264,637.4576],[-64.7862,-25.641,652.9938],[-64.8111,-25.6452,670.2065],[-64.8229,-25.6494,679.7825],[-64.8482,-25.6507,697.9069],[-64.8544,-25.6499,698.6346],[-64.8719,-25.6432,718.0803],[-64.8782,-25.6428,723.2166],[-64.9466,-25.6545,805.4608],[-64.9583,-25.6588,829.7549],[-64.9709,-25.6598,841.5553],[-64.9893,-25.6641,870.6057],[-65.007,-25.6704,904.0994],[-65.0196,-25.6719,944.5097],[-65.026,-25.672,957.0615],[-65.0495,-25.6636,1089.9163],[-65.0556,-25.6628,1103.8942],[-65.0809,-25.6653,1216.5262],[-65.0994,-25.6611,1404.8085],[-65.1049,-25.6586,1468.9082],[-65.1201,-25.6401,1865.2032],[-65.1343,-25.6162,2308.0549],[-65.1535,-25.6203,1942.8889],[-65.1662,-25.6207,2060.8577],[-65.1718,-25.6231,1758.0996],[-65.1735,-25.6287,1711.366],[-65.1739,-25.6459,1809.7534],[-65.1764,-25.6511,1824.2573],[-65.1892,-25.6639,1606.4973],[-65.1959,-25.6737,1663.5493],[-65.2129,-25.6902,1496.9064],[-65.2405,-25.7042,1720.1938],[-65.2492,-25.7125,1715.5989],[-65.2549,-25.7228,1689.8215],[-65.2585,-25.7338,1242.73],[-65.2588,-25.751,1652.4484],[-65.2556,-25.7621,1995.6914],[-65.256,-25.768,1837.3252],[-65.2598,-25.7722,2069.1404],[-65.2798,-25.7809,2030.536],[-65.2716,-25.7984,1948.2231],[-65.2936,-25.8496,2254.2668],[-65.2511,-25.8841,1305.385],[-65.2481,-25.8892,1303.7269],[-65.2416,-25.9114,1180.5901],[-65.2385,-25.9347,1159.8105]]]]}
,"properties": {"GID_2": "ARG.17.20_1","GID_0": "ARG","country": "Argentina","GID_1": "ARG.17_1","state": "Salta","NL_NAME_1": "NA","county": "RosariodelaFrontera","VARNAME_2": "NA","NL_NAME_2": "NA","TYPE_2": "Departamento","ENGTYPE_2": "Department","CC_2": "NA","HASC_2": "AR.SA.RF","name": "RosariodelaFrontera.county","area_km2": 5356.582,"hist_schema_id": "Elevation0-9000","hist_area_km2": {"375": 0.115,"400": 56.208,"425": 118.462,"450": 191.481,"475": 279.08,"500": 341.483,"525": 337.669,"550": 279.798,"575": 283.878,"600": 257.371,"625": 231.381,"650": 230.54,"675": 212.138,"700": 157.33,"725": 138.021,"750": 116.129,"775": 103.37,"800": 107.023,"825": 102.243,"850": 113.885,"875": 104.941,"900": 99.339,"925": 111.725,"950": 115.008,"975": 122.782,"1000": 106.849,"1025": 88.527,"1050": 72.951,"1075": 62.118,"1100": 54.39,"1125": 51.679,"1150": 48.935,"1175": 43.135,"1200": 38.37,"1225": 35.852,"1250": 30.686,"1275": 28.701,"1300": 24.199,"1325": 22.14,"1350": 20.233,"1375": 18.574,"1400": 19.414,"1425": 18.251,"1450": 16.915,"1475": 15.675,"1500": 16.19,"1525": 15.712,"1550": 14.419,"1575": 14.703,"1600": 13.978,"1625": 13.368,"1650": 12.986,"1675": 11.822,"1700": 12.85,"1725": 11.553,"1750": 11.953,"1775": 11.705,"1800": 11.723,"1825": 10.066,"1850": 11.264,"1875": 9.876,"1900": 10.39,"1925": 10.066,"1950": 10.102,"1975": 8.979,"2000": 9.398,"2025": 9.052,"2050": 9.624,"2075": 8.482,"2100": 7.739,"2125": 6.233,"2150": 5.624,"2175": 4.69,"2200": 4.613,"2225": 3.47,"2250": 3.202,"2275": 2.63,"2300": 2.097,"2325": 2.173,"2350": 1.258,"2375": 1.429,"2400": 1.048,"2425": 0.896,"2450": 0.229}}}