{"type":"Feature","properties":{"GID_2":"ARG.1.50_1","GID_0":"ARG","country":"Argentina","GID_1":"ARG.1_1","state":"BuenosAires","NL_NAME_1":"NA","county":"GeneralPaz","VARNAME_2":"NA","NL_NAME_2":"NA","TYPE_2":"Partido","ENGTYPE_2":"Part","CC_2":"NA","HASC_2":"AR.BA.GZ","name":"GeneralPaz.county"},
"geometry":{"type": "MultiPolygon","coordinates": [[[[-58.4424,-35.2196,23.2325],[-58.5733,-35.3321,25.5293],[-58.527,-35.3689,23.462],[-58.5877,-35.424,22.1983],[-58.4759,-35.5139,19.2102],[-58.5541,-35.577,13.6772],[-58.573,-35.5954,16.4845],[-58.5035,-35.6426,12.3852],[-58.514,-35.6515,11.6282],[-58.4879,-35.7126,12.0912],[-58.4813,-35.7121,14.4253],[-58.4744,-35.6948,13.5413],[-58.4716,-35.691,13.0459],[-58.4678,-35.6919,12.1075],[-58.4446,-35.7126,12.5979],[-58.4482,-35.7283,16.0892],[-58.4437,-35.733,13.085],[-58.353,-35.6571,16.2521],[-58.3411,-35.6373,16.3898],[-58.2075,-35.5237,14.8675],[-58.211,-35.5201,14.7592],[-58.1571,-35.4763,13.9078],[-58.1988,-35.4427,15.2353],[-58.1573,-35.4091,17.3138],[-58.188,-35.3852,18.8651],[-58.2183,-35.4113,18.8847],[-58.2593,-35.3799,19.9752],[-58.2489,-35.3699,20.1069],[-58.4424,-35.2196,23.2325]]]]}}