{"type": "Feature","bbox": [-72.5547,-49.2087,-69.7344,-47.1978],"geometry": {"type": "MultiPolygon","coordinates": [[[[-72.5063,-48.514,1758.1575],[-72.5045,-48.5151,1842.9685],[-72.5069,-48.5136,1758.1575],[-72.5063,-48.514,1758.1575]]],
[[[-72.5547,-48.4839,309.8282],[-72.5215,-48.5045,1397.9812],[-72.5283,-48.4967,1143.0172],[-72.5266,-48.4896,833.5565],[-72.533,-48.4832,504.498],[-72.5383,-48.4819,403.4734],[-72.5547,-48.4839,309.8282]]],
[[[-70.4405,-49.2051,239.2475],[-69.7582,-49.2087,370.4318],[-69.7344,-48.3221,756.4024],[-69.783,-48.307,750.5754],[-70.2498,-47.8453,498.3994],[-70.7689,-47.3199,748.2856],[-71.5715,-47.3639,1191.704],[-71.8698,-47.237,826.8327],[-71.8656,-47.2355,830.7212],[-71.8834,-47.2283,745.7913],[-71.8992,-47.2271,706.8737],[-71.9007,-47.2255,705.4114],[-71.9171,-47.2221,703.0692],[-71.922,-47.2187,717.1877],[-71.9215,-47.221,702.8017],[-71.9266,-47.2212,708.3293],[-71.9517,-47.2156,692.9364],[-71.9743,-47.2139,669.6955],[-71.9858,-47.2094,749.1727],[-72.0013,-47.207,1118.3896],[-72.0194,-47.1978,1612.6494],[-72.0006,-47.2151,1247.144],[-72.0012,-47.2194,1169.4071],[-72.0031,-47.2205,1158.8628],[-72.0006,-47.2309,802.5836],[-72.0031,-47.2321,799.5256],[-72.0053,-47.2366,672.6778],[-72.0106,-47.2389,785.5918],[-72.0129,-47.2426,802.4901],[-72.0145,-47.2514,537.802],[-71.9992,-47.2813,221.6285],[-71.9968,-47.295,165.003],[-72.0366,-47.3207,665.8506],[-72.0399,-47.3294,1010.7182],[-72.0465,-47.3334,1121.2129],[-72.0465,-47.3391,1305.9819],[-72.0541,-47.3413,1490.1465],[-72.0703,-47.342,1778.927],[-72.074,-47.3409,1909.498],[-72.0757,-47.3375,1946.5945],[-72.0809,-47.3343,1840.2433],[-72.0963,-47.3349,1704.2745],[-72.109,-47.329,1873.8531],[-72.1138,-47.3319,1845.1897],[-72.1219,-47.3283,1856.9249],[-72.1278,-47.3283,1792.6654],[-72.1353,-47.3341,1787.0695],[-72.1371,-47.3431,1832.2889],[-72.1448,-47.3512,1890.3882],[-72.1428,-47.3634,1947.8595],[-72.1521,-47.3709,1852.6301],[-72.1535,-47.3757,1924.6049],[-72.1612,-47.3788,1831.2587],[-72.1587,-47.3892,1906.428],[-72.1611,-47.395,1922.8879],[-72.1702,-47.3949,1770.9148],[-72.1801,-47.3991,1654.9476],[-72.1871,-47.4033,1615.5712],[-72.1976,-47.4165,1591.917],[-72.2173,-47.4086,965.0758],[-72.2222,-47.4057,946.8213],[-72.2235,-47.4024,920.1854],[-72.2265,-47.4022,928.0725],[-72.229,-47.4042,921.1066],[-72.2326,-47.4037,812.0781],[-72.2376,-47.406,763.7278],[-72.2446,-47.4046,788.5599],[-72.2482,-47.4089,804.0693],[-72.2491,-47.4144,835.9362],[-72.2666,-47.4154,763.1205],[-72.2753,-47.4214,869.3752],[-72.2789,-47.4312,1098.1523],[-72.2909,-47.4339,1199.3066],[-72.2916,-47.4355,1219.3248],[-72.2887,-47.4366,1201.0073],[-72.2883,-47.4385,1187.262],[-72.2935,-47.4456,1045.3325],[-72.3009,-47.446,1075.965],[-72.307,-47.4491,1047.6226],[-72.3128,-47.4483,1053.2092],[-72.3162,-47.4502,1092.3724],[-72.3205,-47.4501,1087.3723],[-72.323,-47.4484,1116.2273],[-72.3297,-47.4534,1030.8572],[-72.3421,-47.4558,908.298],[-72.3403,-47.4685,1068.4238],[-72.3319,-47.4759,1210.1786],[-72.326,-47.4775,1071.6328],[-72.3243,-47.481,831.0244],[-72.3204,-47.4822,829.8288],[-72.3149,-47.48,857.5974],[-72.308,-47.4808,855.2571],[-72.307,-47.4906,905.5168],[-72.2985,-47.4942,1069.8223],[-72.2951,-47.4989,1208.068],[-72.296,-47.5067,1528.9569],[-72.2921,-47.5122,1719.9495],[-72.3134,-47.5578,2123.1504],[-72.3193,-47.5609,2356.8711],[-72.3264,-47.5703,3204.1729],[-72.3255,-47.5847,3492.1147],[-72.3169,-47.5896,3389.3132],[-72.3114,-47.5909,3572.5532],[-72.312,-47.5945,3454.7388],[-72.3148,-47.5973,3328.8213],[-72.3249,-47.6021,3147.2944],[-72.3323,-47.6116,3214.5762],[-72.3397,-47.6156,3188.8535],[-72.3489,-47.6272,3013.9839],[-72.3534,-47.6372,3220.8589],[-72.3605,-47.639,3307.5806],[-72.3651,-47.6353,3225.5308],[-72.3815,-47.6361,2588.2197],[-72.3965,-47.6452,2100.3889],[-72.3978,-47.6492,1983.9061],[-72.402,-47.6528,2110.2566],[-72.3994,-47.6566,2159.9851],[-72.3998,-47.6585,2200.209],[-72.4133,-47.6584,2144.4529],[-72.42,-47.6607,2144.6594],[-72.4197,-47.6653,2007.4661],[-72.4102,-47.6774,1858.4531],[-72.4108,-47.6821,1726.8434],[-72.4136,-47.6837,1746.8365],[-72.4158,-47.691,1369.5073],[-72.4186,-47.6943,1164.1741],[-72.4289,-47.6996,1351.0942],[-72.4475,-47.7041,1732.1641],[-72.4504,-47.707,1730.3674],[-72.4512,-47.7164,1957.6775],[-72.4427,-47.7255,1964.7522],[-72.4395,-47.7313,2147.8611],[-72.4364,-47.7331,2178.0969],[-72.4374,-47.7389,2108.0569],[-72.4432,-47.746,2230.7505],[-72.4514,-47.7416,2126.0898],[-72.4663,-47.7384,2083.3999],[-72.4672,-47.7435,1949.1088],[-72.4719,-47.7486,1984.6195],[-72.4707,-47.7511,1964.2028],[-72.4729,-47.7583,1835.491],[-72.4827,-47.7589,1427.0544],[-72.4892,-47.7534,1318.5033],[-72.4942,-47.7531,1298.5157],[-72.4971,-47.7564,1340.5508],[-72.5074,-47.7463,1362.5126],[-72.5104,-47.7449,1329.4282],[-72.5183,-47.7449,1552.0825],[-72.5201,-47.7418,1634.2947],[-72.5222,-47.7413,1612.1404],[-72.5238,-47.7484,1568.7793],[-72.5223,-47.7538,1566.7277],[-72.5129,-47.7604,1502.2823],[-72.5058,-47.7618,1355.7601],[-72.5025,-47.766,1245.9625],[-72.504,-47.7696,1237.3137],[-72.4997,-47.7752,1432.1725],[-72.4999,-47.7882,1721.281],[-72.4988,-47.7899,1823.4495],[-72.4951,-47.7897,1799.6932],[-72.4956,-47.7974,1791.7653],[-72.4875,-47.8023,1840.9666],[-72.48,-47.8098,1640.8967],[-72.4731,-47.8128,1691.0127],[-72.4687,-47.8124,1827.1328],[-72.4702,-47.8157,1616.4443],[-72.4691,-47.8167,1533.4679],[-72.4706,-47.8269,1150.7729],[-72.4723,-47.8319,961.0208],[-72.4751,-47.8344,923.4606],[-72.473,-47.841,906.8314],[-72.4753,-47.85,1017.8389],[-72.4742,-47.8575,1308.7288],[-72.4786,-47.8708,1510.5212],[-72.4938,-47.8723,1537.2566],[-72.4991,-47.8751,1534.2778],[-72.5015,-47.8807,1567.1649],[-72.5014,-47.8853,1611.3655],[-72.5116,-47.8944,1413.1787],[-72.5164,-47.9031,1207.4521],[-72.523,-47.91,1262.5266],[-72.5245,-47.9178,1266.269],[-72.5232,-47.9229,1243.1272],[-72.5276,-47.9235,1249.4021],[-72.528,-47.9359,1184.9176],[-72.5241,-47.9407,1243.0581],[-72.5225,-47.9456,1294.9414],[-72.5174,-47.9448,1272.1602],[-72.5096,-47.9491,1420.0305],[-72.5041,-47.9575,1455.2551],[-72.499,-47.9617,1397.9481],[-72.4946,-47.9605,1427.9174],[-72.4931,-47.9576,1451.4935],[-72.4906,-47.9591,1407.7776],[-72.4793,-47.9593,1472.939],[-72.4773,-47.9613,1459.0018],[-72.4737,-47.9619,1450.2551],[-72.4694,-47.9604,1470.4078],[-72.4677,-47.9563,1471.8477],[-72.4591,-47.9558,1386.0121],[-72.4558,-47.9623,1382.4207],[-72.4465,-47.9659,1138.106],[-72.442,-47.965,1207.798],[-72.4356,-47.9663,1476.2156],[-72.4323,-47.9644,1548.0786],[-72.425,-47.9664,1468.5369],[-72.425,-47.9689,1474.748],[-72.4295,-47.9716,1431.5309],[-72.4268,-47.9776,1745.2847],[-72.4233,-47.9787,1893.4224],[-72.4239,-47.9836,2013.5376],[-72.4214,-47.9859,2012.282],[-72.4258,-47.9949,1807.6821],[-72.4183,-48.0,1980.5443],[-72.4301,-48.012,1685.2056],[-72.4287,-48.0171,1805.2622],[-72.4293,-48.0217,1659.6692],[-72.4321,-48.0253,1537.3737],[-72.4324,-48.0327,1508.6943],[-72.428,-48.0402,1592.2581],[-72.4331,-48.0443,1518.8254],[-72.4399,-48.0467,1336.1111],[-72.4396,-48.0581,1215.3826],[-72.4435,-48.0635,1349.4026],[-72.4312,-48.0694,1432.2153],[-72.4223,-48.0702,1608.2217],[-72.4221,-48.0737,1638.4617],[-72.4173,-48.0768,1644.1736],[-72.4087,-48.0766,1718.6947],[-72.401,-48.0736,1657.5688],[-72.3951,-48.0752,1752.584],[-72.3844,-48.0699,1810.7371],[-72.3695,-48.075,1479.0417],[-72.3608,-48.0721,1563.3085],[-72.362,-48.0901,1711.239],[-72.3579,-48.1025,1782.4088],[-72.3489,-48.1033,1853.3281],[-72.3279,-48.1139,1474.4019],[-72.3249,-48.1185,1501.4568],[-72.3234,-48.1318,1755.686],[-72.3152,-48.1354,1644.0137],[-72.3107,-48.1353,1615.2925],[-72.3053,-48.1393,1768.7262],[-72.3061,-48.1437,1757.7078],[-72.3041,-48.1505,1748.6204],[-72.3,-48.1556,1684.3816],[-72.3077,-48.1662,1160.6244],[-72.3063,-48.1693,982.9862],[-72.3082,-48.1817,597.0211],[-72.3117,-48.1863,531.9254],[-72.3076,-48.1913,490.6824],[-72.3062,-48.2003,492.4861],[-72.3085,-48.2035,482.786],[-72.3254,-48.2146,491.1573],[-72.3151,-48.2351,655.0673],[-72.307,-48.2407,823.0701],[-72.3061,-48.247,898.3122],[-72.2986,-48.2478,894.4662],[-72.2934,-48.2563,908.4345],[-72.2901,-48.2565,902.7892],[-72.2848,-48.2656,1007.245],[-72.2702,-48.2735,930.7933],[-72.2644,-48.2806,811.6406],[-72.2594,-48.2838,784.7156],[-72.2566,-48.2891,792.0468],[-72.2592,-48.291,782.7275],[-72.2545,-48.2952,810.2982],[-72.2531,-48.2999,910.8091],[-72.2471,-48.2982,793.248],[-72.244,-48.299,718.337],[-72.2411,-48.307,717.635],[-72.2354,-48.3151,639.179],[-72.2295,-48.3173,599.1502],[-72.2282,-48.3203,572.6035],[-72.2306,-48.325,511.2482],[-72.2367,-48.3279,511.1975],[-72.2362,-48.3294,511.0297],[-72.2384,-48.3311,511.4627],[-72.2375,-48.3331,512.859],[-72.2435,-48.3383,514.1754],[-72.2455,-48.349,520.6519],[-72.2607,-48.351,834.5093],[-72.28,-48.361,1387.7753],[-72.2885,-48.3557,1464.1997],[-72.2993,-48.3569,1740.7079],[-72.3078,-48.3531,1898.9517],[-72.3229,-48.3562,1784.5117],[-72.3312,-48.3503,1766.1338],[-72.3388,-48.3493,1602.2673],[-72.3431,-48.3447,1735.9928],[-72.3501,-48.3478,1544.7148],[-72.3654,-48.351,1090.3491],[-72.3772,-48.3485,963.1284],[-72.3804,-48.3496,993.2338],[-72.3799,-48.3655,1049.7578],[-72.3763,-48.3714,1078.6028],[-72.3567,-48.3769,1453.0532],[-72.3458,-48.3846,1420.7329],[-72.3481,-48.3902,1194.8368],[-72.3581,-48.3913,1156.0325],[-72.3583,-48.3978,1122.7859],[-72.3807,-48.399,1483.1555],[-72.3879,-48.4031,1665.28],[-72.3924,-48.4101,1767.0773],[-72.4025,-48.4127,1750.2097],[-72.406,-48.4159,1674.5756],[-72.4039,-48.4214,1400.3694],[-72.4079,-48.4263,1633.6222],[-72.4096,-48.4329,1737.4534],[-72.3985,-48.4349,1636.5281],[-72.3742,-48.4489,1893.5875],[-72.3828,-48.4558,1903.3749],[-72.3839,-48.4594,2010.6655],[-72.3917,-48.4692,2161.3689],[-72.3929,-48.4812,1994.8792],[-72.4038,-48.4864,1974.4921],[-72.4147,-48.4951,1739.84],[-72.4254,-48.4945,1699.4834],[-72.4329,-48.5035,1814.4705],[-72.4376,-48.5054,1821.5569],[-72.4422,-48.5129,1829.6949],[-72.4529,-48.5125,1786.7156],[-72.4707,-48.5163,1521.006],[-72.4812,-48.513,1334.4436],[-72.4908,-48.5124,1523.4808],[-72.5021,-48.5166,1906.5728],[-71.9824,-48.8395,1327.8608],[-71.4002,-49.1933,770.463],[-70.4405,-49.2051,239.2475]]]]}
,"properties": {"GID_2": "ARG.20.7_1","GID_0": "ARG","country": "Argentina","GID_1": "ARG.20_1","state": "SantaCruz","NL_NAME_1": "NA","county": "RióChico","VARNAME_2": "GobernadorGregores","NL_NAME_2": "NA","TYPE_2": "Departamento","ENGTYPE_2": "Department","CC_2": "NA","HASC_2": "AR.SC.RC","name": "RióChico.county","area_km2": 33854.44,"hist_schema_id": "Elevation0-9000","hist_area_km2": {"125": 42.04,"150": 270.23,"175": 158.37,"200": 269.74,"225": 384.34,"250": 389.75,"275": 801.43,"300": 396.38,"325": 410.42,"350": 472.5,"375": 516.13,"400": 650.64,"425": 787.95,"450": 810.54,"475": 969.29,"500": 993.01,"525": 929.04,"550": 868.05,"575": 893.67,"600": 1053.81,"625": 975.43,"650": 945.75,"675": 893.12,"700": 973.7,"725": 1123.11,"750": 1218.2,"775": 1609.16,"800": 1461.81,"825": 1137.99,"850": 835.09,"875": 714.28,"900": 755.88,"925": 643.77,"950": 572.53,"975": 491.61,"1000": 412.69,"1025": 380.22,"1050": 408.17,"1075": 386.56,"1100": 337.17,"1125": 339.72,"1150": 330.6,"1175": 282.19,"1200": 259.55,"1225": 246.86,"1250": 236.17,"1275": 227.61,"1300": 225.35,"1325": 231.59,"1350": 218.54,"1375": 218.88,"1400": 206.23,"1425": 201.83,"1450": 198.82,"1475": 193.12,"1500": 194.85,"1525": 199.1,"1550": 160.8,"1575": 142.06,"1600": 128.42,"1625": 115.85,"1650": 102.53,"1675": 92.72,"1700": 83.71,"1725": 73.85,"1750": 67.43,"1775": 63.77,"1800": 60.01,"1825": 52.36,"1850": 46.91,"1875": 42.04,"1900": 36.25,"1925": 32.25,"1950": 30.16,"1975": 27.98,"2000": 24.49,"2025": 20.83,"2050": 16.48,"2075": 12.68,"2100": 9.64,"2125": 7.79,"2150": 6.86,"2175": 5.32,"2200": 3.81,"2225": 3.58,"2250": 2.97,"2275": 2.14,"2300": 1.57,"2325": 1.49,"2350": 1.53,"2375": 1.3,"2400": 1.09,"2425": 1.13,"2450": 0.9,"2475": 0.9,"2500": 0.94,"2525": 0.71,"2550": 0.74,"2575": 0.67,"2600": 0.76,"2625": 0.56,"2650": 0.54,"2675": 0.5,"2700": 0.4,"2725": 0.46,"2750": 0.53,"2775": 0.59,"2800": 0.37,"2825": 0.3,"2850": 0.36,"2875": 0.34,"2900": 0.34,"2950": 0.27,"3025": 0.27,"3050": 0.33,"3075": 0.33,"3100": 0.4,"3125": 0.46,"3150": 0.34,"3175": 0.39,"3200": 0.29,"3225": 0.27}}}