{"type":"Feature","properties":{"GID_2":"ARG.1.83_1","GID_0":"ARG","country":"Argentina","GID_1":"ARG.1_1","state":"BuenosAires","NL_NAME_1":"NA","county":"Navarro","VARNAME_2":"NA","NL_NAME_2":"NA","TYPE_2":"Partido","ENGTYPE_2":"Part","CC_2":"NA","HASC_2":"AR.BA.NA","name":"Navarro.county"},
"geometry":{"type": "MultiPolygon","coordinates": [[[[-59.8289,-35.1824,37.4516],[-59.8156,-35.1875,37.2301],[-59.8105,-35.1858,37.1669],[-59.7991,-35.1889,36.9088],[-59.7813,-35.1851,36.4806],[-59.7709,-35.1908,36.857],[-59.7655,-35.1991,36.12],[-59.7675,-35.2031,36.6533],[-59.7609,-35.206,36.535],[-59.7497,-35.2059,36.4661],[-59.7268,-35.2292,35.8377],[-59.7217,-35.2299,36.569],[-59.7173,-35.2271,36.1275],[-59.7123,-35.2271,37.2186],[-59.7052,-35.2187,34.851],[-59.7013,-35.2187,35.1543],[-59.6987,-35.2221,35.82],[-59.672,-35.2312,36.6637],[-59.6696,-35.2292,35.9367],[-59.667,-35.2212,33.8828],[-59.6674,-35.2174,34.4305],[-59.6626,-35.214,34.2742],[-59.6525,-35.2174,35.2104],[-59.6417,-35.206,33.6136],[-59.6291,-35.2037,33.2407],[-59.625,-35.2054,33.5505],[-59.6083,-35.196,32.9269],[-59.5956,-35.1922,32.0522],[-59.5899,-35.1922,32.0137],[-59.5874,-35.1867,31.8273],[-59.5793,-35.1905,31.8151],[-59.5776,-35.1936,31.692],[-59.5699,-35.1952,31.844],[-59.5652,-35.2013,33.2492],[-59.5582,-35.204,32.3126],[-59.5554,-35.2089,31.9025],[-59.5504,-35.2121,31.498],[-59.5494,-35.2161,31.2593],[-59.5533,-35.2196,31.6701],[-59.5451,-35.2319,31.0061],[-59.547,-35.2379,30.9486],[-59.5516,-35.2415,31.2513],[-59.5578,-35.2522,31.3484],[-59.3794,-35.1631,32.9078],[-59.3766,-35.165,33.0195],[-59.3651,-35.1592,33.1078],[-59.3664,-35.1554,33.492],[-59.351,-35.1442,34.1428],[-59.2569,-35.1015,30.4532],[-59.2482,-35.0707,32.2801],[-59.2254,-35.089,27.6039],[-59.1457,-35.0186,34.5605],[-59.1428,-35.0205,34.9395],[-59.1309,-35.0121,35.3681],[-59.1167,-34.9975,36.7128],[-59.077,-34.9642,36.7964],[-59.1603,-34.9047,38.2437],[-59.2227,-34.8575,42.2849],[-59.1702,-34.8101,38.3957],[-59.1757,-34.8029,38.0451],[-59.1993,-34.8144,39.622],[-59.212,-34.7983,42.0782],[-59.2411,-34.8123,41.4665],[-59.2413,-34.8157,41.7808],[-59.284,-34.8391,40.0638],[-59.2935,-34.8256,40.6483],[-59.328,-34.8419,36.7457],[-59.3238,-34.8503,36.944],[-59.3824,-34.8918,39.0153],[-59.4149,-34.8457,37.2627],[-59.6333,-34.9611,40.1358],[-59.6079,-35.0008,40.0116],[-59.7057,-35.0831,39.1393],[-59.7081,-35.0818,39.7472],[-59.8289,-35.1824,37.4516]]]]}}