{"type": "Feature","bbox": [-61.1396,-26.1457,-58.8912,-24.0121],"geometry": {"type": "MultiPolygon","coordinates": [[[[-60.1172,-25.6567,105.3893],[-60.1124,-25.6636,106.7045],[-60.1034,-25.6595,101.8351],[-60.099,-25.6607,103.1101],[-60.0921,-25.6682,104.8957],[-60.0982,-25.6708,103.8912],[-60.0979,-25.6756,103.7172],[-60.092,-25.6777,107.8063],[-60.0809,-25.6761,103.0269],[-60.0697,-25.6808,106.2647],[-60.0637,-25.6811,99.0841],[-60.0582,-25.6787,105.0685],[-60.0542,-25.68,104.7249],[-60.0528,-25.6854,103.2111],[-60.0474,-25.6878,103.1485],[-60.0413,-25.6937,103.2519],[-60.0353,-25.6953,98.0],[-60.0326,-25.6994,106.3892],[-60.0387,-25.7008,103.156],[-60.0428,-25.7078,104.4666],[-60.037,-25.7084,104.8001],[-60.0354,-25.7138,101.6946],[-60.0295,-25.7153,102.5313],[-60.0195,-25.7213,100.3266],[-60.0175,-25.7262,98.3225],[-59.9938,-25.7282,98.0794],[-59.9767,-25.7435,103.274],[-59.9706,-25.7425,102.2637],[-59.9654,-25.7438,105.8937],[-59.9587,-25.7529,100.9718],[-59.9582,-25.7585,102.2444],[-59.9541,-25.7623,101.867],[-59.9251,-25.7694,107.0571],[-59.9099,-25.7866,97.2496],[-59.8829,-25.7982,105.4446],[-59.8792,-25.8028,92.5],[-59.8691,-25.8061,107.5316],[-59.8768,-25.8148,107.2389],[-59.8786,-25.8199,92.9391],[-59.8748,-25.8214,95.5608],[-59.8725,-25.8261,95.4577],[-59.8782,-25.8419,94.0897],[-59.8735,-25.8444,99.9993],[-59.8686,-25.8411,98.2144],[-59.8628,-25.840699999999998,94.6111],[-59.8582,-25.8442,99.2843],[-59.8604,-25.8482,95.1938],[-59.8508,-25.8549,104.0396],[-59.8397,-25.868,101.5386],[-59.8343,-25.8779,92.4556],[-59.8289,-25.8787,102.4473],[-59.8115,-25.8736,100.7148],[-59.8116,-25.8783,101.0785],[-59.8169,-25.8881,102.1487],[-59.814,-25.8924,104.7727],[-59.8086,-25.8922,104.6898],[-59.8026,-25.8896,104.0273],[-59.8,-25.8927,98.8917],[-59.7998,-25.8981,92.8036],[-59.7892,-25.9009,94.436],[-59.7851,-25.9042,94.5167],[-59.7848,-25.9099,90.5804],[-59.7811,-25.9143,98.1223],[-59.771,-25.9194,105.3024],[-59.7697,-25.9236,100.7275],[-59.7564,-25.9293,102.7419],[-59.7561,-25.9347,86.5],[-59.7499,-25.9354,100.9466],[-59.7488,-25.9405,86.7179],[-59.7545,-25.9506,91.514],[-59.7503,-25.9521,100.5941],[-59.7469,-25.9558,93.7059],[-59.7467,-25.9613,96.3363],[-59.744,-25.966,102.1894],[-59.7394,-25.9699,101.8096],[-59.7289,-25.9696,84.5],[-59.732,-25.9794,94.9014],[-59.7264,-25.9803,95.7347],[-59.7275,-25.9916,93.5139],[-59.7164,-25.9939,97.6717],[-59.7137,-25.9964,100.9879],[-59.706,-26.0149,91.2794],[-59.7019,-26.0121,91.1414],[-59.6887,-26.0135,89.3207],[-59.6773,-26.0087,89.8439],[-59.6707,-26.0123,83.1053],[-59.6712,-26.0158,94.9108],[-59.6755,-26.0164,96.3013],[-59.6716,-26.031,86.3618],[-59.676,-26.0399,83.2643],[-59.6728,-26.042,94.7021],[-59.6709,-26.0464,84.8911],[-59.6744,-26.0521,92.9824],[-59.6732,-26.0639,97.0509],[-59.6614,-26.0651,86.7758],[-59.666,-26.0736,84.8337],[-59.6648,-26.0776,81.5101],[-59.6664,-26.0821,96.3937],[-59.6705,-26.0851,98.4504],[-59.6743,-26.0933,79.5],[-59.6748,-26.101,80.6923],[-59.6701,-26.1103,90.1165],[-59.6749,-26.1134,85.9604],[-59.6745,-26.1172,84.8693],[-59.659,-26.121,98.6347],[-59.6526,-26.1287,85.725],[-59.6597,-26.1422,85.4445],[-59.6499,-26.1457,90.9482],[-59.6494,-26.1415,85.4672],[-59.6405,-26.1369,87.7759],[-59.6361,-26.128,80.0433],[-59.6385,-26.1172,81.662],[-59.6368,-26.1127,89.3176],[-59.6351,-25.6075,101.129],[-58.8912,-25.052,86.7993],[-58.8918,-24.7147,97.9491],[-58.9023,-24.7065,97.1972],[-58.915,-24.7014,95.6434],[-58.9257,-24.6919,96.8861],[-58.9334,-24.6885,97.1784],[-58.9402,-24.6818,97.4679],[-58.9601,-24.6736,97.46],[-58.9687,-24.6665,97.2962],[-58.9776,-24.6634,100.1592],[-58.9907,-24.6645,97.9978],[-58.9976,-24.6597,97.8757],[-59.0089,-24.6596,98.024],[-59.0243,-24.6466,98.3616],[-59.0392,-24.6427,94.5721],[-59.0434,-24.6399,99.7042],[-59.0493,-24.6309,100.4371],[-59.0529,-24.6287,101.7992],[-59.0648,-24.6262,100.5193],[-59.0895,-24.6162,102.9452],[-59.0961,-24.6219,99.6563],[-59.1023,-24.6235,102.6332],[-59.1091,-24.6233,101.0482],[-59.1132,-24.6195,105.8119],[-59.1218,-24.6191,99.1688],[-59.1258,-24.6126,105.3867],[-59.1442,-24.6038,103.5741],[-59.1474,-24.6002,102.6211],[-59.1499,-24.5934,106.2297],[-59.1564,-24.5883,102.2625],[-59.1707,-24.5824,101.2711],[-59.1815,-24.5697,102.0574],[-59.2103,-24.5566,103.957],[-59.2174,-24.5561,105.5529],[-59.2354,-24.5503,105.0993],[-59.2488,-24.5351,105.8933],[-59.2518,-24.5274,106.6115],[-59.2631,-24.5223,100.4499],[-59.2898,-24.5192,106.7345],[-59.2997,-24.5152,107.0394],[-59.3275,-24.497,107.7194],[-59.3424,-24.4926,104.1761],[-59.353,-24.4847,106.8861],[-59.3649,-24.4553,107.9374],[-59.3733,-24.4436,109.3063],[-59.3818,-24.4253,108.6861],[-59.388,-24.42,108.7516],[-59.4027,-24.4147,106.4895],[-59.4218,-24.4128,109.8154],[-59.429,-24.401,110.6428],[-59.4517,-24.3829,109.0435],[-59.4627,-24.3697,111.4152],[-59.4623,-24.3608,111.4657],[-59.4701,-24.353,111.3822],[-59.4728,-24.3469,111.5308],[-59.4723,-24.3423,112.385],[-59.476,-24.3371,112.6087],[-59.4791,-24.3366,112.4394],[-59.4901,-24.3302,112.4844],[-59.495,-24.3251,112.9489],[-59.5562,-24.2917,116.2206],[-59.56,-24.2881,115.9124],[-59.5875,-24.2728,116.2395],[-59.656,-24.2362,116.8066],[-60.0466,-24.0121,129.0452],[-60.0605,-24.0159,129.8711],[-60.0752,-24.0241,131.0846],[-60.1167,-24.0395,130.0845],[-60.1545,-24.0424,133.0426],[-60.1758,-24.0404,133.0175],[-60.2032,-24.0429,134.178],[-60.2957,-24.0468,139.9756],[-60.3016,-24.0486,136.5649],[-60.3201,-24.0485,137.3774],[-60.3346,-24.0456,139.3508],[-60.3582,-24.0333,138.8556],[-60.3695,-24.0301,140.0012],[-60.3725,-24.0278,139.983],[-61.1394,-24.7933,148.8655],[-61.1396,-24.7955,148.8591],[-61.1354,-24.7985,148.0849],[-61.1291,-24.798,144.3991],[-61.1279,-24.8078,145.4076],[-61.1247,-24.8125,146.0802],[-61.124,-24.818,146.6884],[-61.1101,-24.8284,148.7117],[-61.1061,-24.8301,144.6796],[-61.0979,-24.8219,145.0682],[-61.0934,-24.8247,144.7224],[-61.0884,-24.8343,144.9777],[-61.0887,-24.8398,141.0119],[-61.086,-24.8449,147.4172],[-61.0808,-24.8436,145.0196],[-61.0761,-24.8473,144.8397],[-61.0733,-24.8521,144.4237],[-61.0742,-24.8577,143.5382],[-61.0707,-24.8619,142.3566],[-61.0474,-24.8742,143.5102],[-61.0442,-24.8852,143.5213],[-61.0397,-24.8885,146.2219],[-61.0338,-24.8898,141.9616],[-61.0278,-24.8885,133.4865],[-61.0228,-24.8896,135.5441],[-61.0206,-24.8946,138.715],[-61.0144,-24.895,136.398],[-61.003,-24.8994,135.8209],[-61.0058,-24.9091,135.7619],[-61.0115,-24.9107,142.9307],[-61.008,-24.9146,142.5563],[-60.9958,-24.9156,136.0881],[-60.992,-24.9193,139.701],[-60.9915,-24.9248,143.0065],[-60.9891,-24.9295,142.9982],[-60.9831,-24.931,136.5463],[-60.9751,-24.9386,142.7968],[-60.9694,-24.9406,142.9306],[-60.9656,-24.9449,143.7652],[-60.9484,-24.9502,140.4486],[-60.9368,-24.9628,132.0066],[-60.9206,-24.9704,139.6908],[-60.9183,-24.9756,140.1905],[-60.9331,-24.9853,140.9928],[-60.9289,-24.9879,131.7558],[-60.9106,-24.9896,134.593],[-60.9054,-24.9923,138.5955],[-60.9017,-24.9967,138.0054],[-60.9017,-25.0135,132.5598],[-60.8935,-25.0203,136.8849],[-60.8877,-25.0212,136.2764],[-60.8826,-25.0177,130.0],[-60.8738,-25.0223,134.312],[-60.8617,-25.024,138.9726],[-60.856,-25.0264,138.2961],[-60.8588,-25.0306,138.9486],[-60.856,-25.0341,134.0407],[-60.8407,-25.0428,135.6842],[-60.8316,-25.0437,131.083],[-60.8271,-25.0465,136.9692],[-60.8193,-25.0548,129.3999],[-60.8156,-25.0646,132.1279],[-60.7945,-25.0749,136.3991],[-60.7827,-25.0749,135.4015],[-60.7712,-25.0783,134.991],[-60.7653,-25.0764,131.6468],[-60.7596,-25.0766,131.7932],[-60.7541,-25.0794,126.5],[-60.7532,-25.0845,130.7863],[-60.7492,-25.0871,134.1482],[-60.7434,-25.0855,132.9017],[-60.7377,-25.1008,130.5269],[-60.7267,-25.1055,131.8112],[-60.7178,-25.1127,130.6264],[-60.7215,-25.1215,126.6819],[-60.7099,-25.1243,130.7313],[-60.7052,-25.1281,125.043],[-60.7,-25.1299,129.0305],[-60.6939,-25.1285,127.5476],[-60.6765,-25.1327,126.8549],[-60.6646,-25.131,129.8579],[-60.6525,-25.1335,126.9],[-60.6496,-25.1367,130.4134],[-60.6521,-25.1421,123.065],[-60.6589,-25.1476,126.9079],[-60.6615,-25.1523,122.0275],[-60.6609,-25.1583,122.0],[-60.6572,-25.1593,125.4094],[-60.652,-25.1521,122.8771],[-60.6457,-25.1512,125.8084],[-60.644,-25.155,121.034],[-60.6487,-25.1607,129.2017],[-60.6454,-25.1647,120.4597],[-60.6392,-25.1646,127.4415],[-60.6336,-25.1625,123.3302],[-60.6295,-25.1707,124.8643],[-60.6019,-25.1819,129.0785],[-60.5952,-25.1754,118.574],[-60.5894,-25.1801,120.7537],[-60.5742,-25.1733,125.4431],[-60.5708,-25.1782,118.0252],[-60.5742,-25.1822,126.2968],[-60.573,-25.1869,122.9964],[-60.5676,-25.1896,125.5768],[-60.561,-25.1896,124.1455],[-60.5589,-25.1929,126.3828],[-60.559,-25.199,126.176],[-60.5542,-25.2008,123.0812],[-60.5482,-25.199,125.715],[-60.5437,-25.1955,124.392],[-60.5347,-25.1809,126.1479],[-60.5289,-25.1791,125.1203],[-60.5194,-25.1929,122.8378],[-60.498,-25.2021,124.0406],[-60.4921,-25.2002,126.5224],[-60.4863,-25.2018,125.3898],[-60.4867,-25.2056,125.1046],[-60.4955,-25.2098,116.5379],[-60.4909,-25.2191,123.0317],[-60.4869,-25.2238,115.5],[-60.4859,-25.2281,119.5938],[-60.489,-25.2298,116.8729],[-60.4859,-25.2401,122.811],[-60.4756,-25.2456,125.4624],[-60.4747,-25.2511,125.0758],[-60.4696,-25.2543,117.7467],[-60.4709,-25.2588,124.9846],[-60.4764,-25.2638,125.3366],[-60.4551,-25.276,120.563],[-60.4496,-25.278,122.8395],[-60.4428,-25.2761,123.2763],[-60.4359,-25.2856,117.3143],[-60.4295,-25.307,116.4309],[-60.4246,-25.3171,112.964],[-60.4188,-25.3157,121.6615],[-60.4147,-25.3117,117.7507],[-60.4127,-25.3065,120.0988],[-60.4083,-25.3048,122.4133],[-60.4072,-25.3103,122.5948],[-60.414,-25.3197,119.142],[-60.4184,-25.3304,118.8886],[-60.4154,-25.3334,121.6248],[-60.4032,-25.3312,112.4101],[-60.4028,-25.3361,121.3924],[-60.3991,-25.3393,121.8017],[-60.3834,-25.3478,120.114],[-60.3779,-25.3499,118.9528],[-60.3656,-25.349,120.5036],[-60.3613,-25.3518,119.0668],[-60.3666,-25.3613,120.1893],[-60.3609,-25.3629,119.7203],[-60.3512,-25.3692,118.8145],[-60.3519,-25.375,119.819],[-60.3506,-25.3804,118.735],[-60.3442,-25.3961,116.9691],[-60.3401,-25.3933,117.7467],[-60.3375,-25.3882,119.6065],[-60.3328,-25.3863,115.2917],[-60.3306,-25.3912,110.3101],[-60.3236,-25.393,114.0521],[-60.3322,-25.4026,114.2362],[-60.3321,-25.4082,119.2993],[-60.3347,-25.4132,117.7566],[-60.3488,-25.422,114.5535],[-60.3383,-25.4279,116.6815],[-60.3305,-25.4362,117.0071],[-60.3244,-25.4356,116.6102],[-60.31,-25.426,118.4695],[-60.3038,-25.4266,118.1466],[-60.3014,-25.4312,117.0825],[-60.3041,-25.4363,116.0538],[-60.3027,-25.4475,115.6273],[-60.3004,-25.4511,114.4566],[-60.2889,-25.4493,117.0054],[-60.2892,-25.4554,116.7178],[-60.2925,-25.46,113.7597],[-60.2981,-25.4624,116.237],[-60.302,-25.4666,110.368],[-60.3023,-25.4723,113.589],[-60.2994,-25.4766,114.8244],[-60.2931,-25.478,114.5296],[-60.2881,-25.4755,114.3745],[-60.2842,-25.4706,111.537],[-60.2808,-25.4741,108.8226],[-60.2854,-25.4848,114.9995],[-60.2826,-25.4889,116.5255],[-60.2774,-25.4876,115.5329],[-60.2728,-25.4837,114.4711],[-60.261,-25.4813,111.3589],[-60.238,-25.4892,113.9017],[-60.2351,-25.493,113.1939],[-60.2449,-25.4996,107.5637],[-60.2459,-25.5045,106.0],[-60.2402,-25.504,109.6742],[-60.235,-25.5063,108.1817],[-60.2346,-25.511,110.9615],[-60.227,-25.5201,113.8657],[-60.2288,-25.5243,113.1128],[-60.2348,-25.5252,112.8391],[-60.2374,-25.5295,112.277],[-60.2331,-25.5337,114.1094],[-60.2326,-25.5387,110.6677],[-60.2385,-25.548,105.2901],[-60.2317,-25.5574,112.4873],[-60.2233,-25.5652,107.9326],[-60.221,-25.5702,107.2427],[-60.2209,-25.5868,109.6796],[-60.2183,-25.5974,102.5],[-60.2127,-25.5995,110.8476],[-60.2089,-25.5951,109.4306],[-60.2013,-25.5986,110.7126],[-60.196,-25.5956,107.8813],[-60.2006,-25.6083,106.9215],[-60.2,-25.6135,106.7707],[-60.193,-25.6086,105.9819],[-60.1911,-25.6124,108.854],[-60.1934,-25.6176,110.1687],[-60.1921,-25.6222,102.0],[-60.1856,-25.6203,108.4113],[-60.1887,-25.6309,107.4123],[-60.1946,-25.6405,111.0175],[-60.1948,-25.6464,106.2802],[-60.1909,-25.6498,102.1226],[-60.185,-25.652,105.4425],[-60.1813,-25.6565,105.9049],[-60.1762,-25.6572,105.8084],[-60.174,-25.6519,108.0382],[-60.1694,-25.649,104.4638],[-60.1635,-25.6487,100.5],[-60.1646,-25.6432,107.4414],[-60.1493,-25.652,106.3979],[-60.1377,-25.6553,108.1338],[-60.1257,-25.6572,101.6633],[-60.1172,-25.6567,105.3893]]]]}
,"properties": {"GID_2": "ARG.9.5_1","GID_0": "ARG","country": "Argentina","GID_1": "ARG.9_1","state": "Formosa","NL_NAME_1": "NA","county": "Patiño","VARNAME_2": "ComandanteFontana","NL_NAME_2": "NA","TYPE_2": "Departamento","ENGTYPE_2": "Department","CC_2": "NA","HASC_2": "AR.FM.PA","name": "Patiño.county","area_km2": 26232.33,"hist_schema_id": "Elevation0-9000","hist_area_km2": {"75": 20.26,"100": 11856.24,"125": 11793.75,"150": 2562.08}}}