{"type": "Feature","bbox": [-58.6007,-34.5352,-58.4787,-34.4474],"geometry": {"type": "MultiPolygon","coordinates": [[[[-58.5543,-34.5352,27.0893],[-58.5394,-34.5224,27.0483],[-58.5378,-34.5237,26.6733],[-58.5313,-34.5191,27.4348],[-58.5319,-34.5182,26.0687],[-58.4787,-34.4943,3.0782],[-58.4818,-34.479,0.0],[-58.4924,-34.4696,2.4593],[-58.4938,-34.464,0.0],[-58.4996,-34.4613,3.3019],[-58.5021,-34.4582,0.6408],[-58.5051,-34.4532,3.24],[-58.5057,-34.4487,1.1266],[-58.5116,-34.4474,0.0],[-58.5198,-34.4538,5.4648],[-58.5359,-34.4621,12.3036],[-58.5791,-34.4816,14.3303],[-58.5946,-34.4923,5.3848],[-58.5999,-34.4923,5.4743],[-58.6007,-34.4947,2.8719],[-58.5543,-34.5352,27.0893]]]]}
,"properties": {"GID_2": "ARG.1.110_1","GID_0": "ARG","country": "Argentina","GID_1": "ARG.1_1","state": "BuenosAires","NL_NAME_1": "NA","county": "SanIsidro","VARNAME_2": "NA","NL_NAME_2": "NA","TYPE_2": "Partido","ENGTYPE_2": "Part","CC_2": "NA","HASC_2": "AR.BA.SI","name": "SanIsidro.county","area_km2": 54.12058,"hist_schema_id": "Elevation0-9000","hist_area_km2": {"0": 8.24962,"25": 45.83602,"50": 0.03494}}}