{"type": "Feature","bbox": [-65.2327,-25.7623,-63.8777,-25.0586],"geometry": {"type": "MultiPolygon","coordinates": [[[[-64.9626,-25.1467,758.9996],[-64.9832,-25.1329,796.389],[-64.9998,-25.1247,719.955],[-65.0175,-25.1187,737.4335],[-65.0423,-25.114,777.4821],[-65.0671,-25.112,761.7314],[-65.0787,-25.1075,810.4732],[-65.0893,-25.1013,749.3331],[-65.0954,-25.1,757.5554],[-65.1206,-25.1015,781.2139],[-65.1388,-25.1062,793.4727],[-65.1439,-25.1095,773.3543],[-65.1559,-25.1229,806.2873],[-65.1691,-25.1552,828.2258],[-65.173,-25.1596,888.8059],[-65.1834,-25.166,1376.4556],[-65.1909,-25.1753,935.0709],[-65.2005,-25.2026,877.0261],[-65.221,-25.2382,1161.2512],[-65.2327,-25.2705,915.5771],[-65.2231,-25.2813,1070.6628],[-65.1949,-25.294,1277.1708],[-65.1793,-25.3036,1597.533],[-65.1707,-25.319,2082.3188],[-65.1684,-25.3303,2182.5327],[-65.1619,-25.3464,2701.5908],[-65.1614,-25.3579,2330.1802],[-65.17,-25.3732,2674.6348],[-65.1819,-25.3847,2805.874],[-65.1807,-25.3947,3010.8071],[-65.1784,-25.4,2853.385],[-65.1642,-25.419,2222.4917],[-65.1575,-25.4411,2879.6519],[-65.1597,-25.464,2706.842],[-65.1587,-25.4696,2775.3916],[-65.1484,-25.4843,2244.1455],[-65.1554,-25.5119,2767.6763],[-65.1476,-25.5211,2386.2241],[-65.1451,-25.5263,2374.7437],[-65.1524,-25.5423,2744.427],[-65.1639,-25.556,2357.4661],[-65.1684,-25.5668,2276.8672],[-65.1669,-25.5722,2246.2568],[-65.1398,-25.6041,2392.1016],[-65.1236,-25.6353,2007.8082],[-65.1049,-25.6586,1468.9082],[-65.0871,-25.6646,1271.5897],[-65.0809,-25.6653,1216.5262],[-65.0556,-25.6628,1103.8942],[-65.0495,-25.6636,1089.9163],[-65.026,-25.672,957.0615],[-65.0196,-25.6719,944.5097],[-65.007,-25.6704,904.0994],[-64.9893,-25.6641,870.6057],[-64.9709,-25.6598,841.5553],[-64.9583,-25.6588,829.7549],[-64.9466,-25.6545,805.4608],[-64.8782,-25.6428,723.2166],[-64.8719,-25.6432,718.0803],[-64.8544,-25.6499,698.6346],[-64.8482,-25.6507,697.9069],[-64.8229,-25.6494,679.7825],[-64.8111,-25.6452,670.2065],[-64.7862,-25.641,652.9938],[-64.7588,-25.6264,637.4576],[-64.7401,-25.6242,631.0372],[-64.706,-25.6092,617.5581],[-64.6809,-25.6064,635.4886],[-64.6477,-25.5901,623.1667],[-64.6352,-25.5885,612.1061],[-64.61,-25.5896,589.5356],[-64.5492,-25.6055,653.3553],[-64.5184,-25.612,723.7719],[-64.5057,-25.6126,722.3774],[-64.4943,-25.6165,824.4406],[-64.4878,-25.6151,923.7704],[-64.485,-25.6108,936.7133],[-64.4852,-25.5933,849.5311],[-64.4825,-25.5763,820.4202],[-64.4845,-25.536,679.8256],[-64.4837,-25.5305,675.1442],[-64.4744,-25.5228,700.7067],[-64.4435,-25.5168,776.8607],[-64.4372,-25.5175,730.4828],[-64.4322,-25.5212,723.2126],[-64.4263,-25.5226,716.2567],[-64.4013,-25.5259,635.4193],[-64.3573,-25.5211,596.8578],[-64.3266,-25.5141,538.4532],[-64.3076,-25.5135,509.4799],[-64.2774,-25.5222,481.327],[-64.2485,-25.5338,449.8295],[-64.2112,-25.5411,416.5303],[-64.2064,-25.544,414.7448],[-64.2042,-25.5612,411.135],[-64.2148,-25.7313,384.6985],[-64.2134,-25.7315,384.6985],[-64.2063,-25.7488,379.8253],[-64.0444,-25.7623,307.6122],[-64.0427,-25.7435,309.3081],[-64.0344,-25.7144,304.1448],[-64.0323,-25.7014,304.3582],[-64.0292,-25.696,304.1174],[-64.0087,-25.7005,297.7626],[-63.9599,-25.7067,292.369],[-63.9283,-25.7072,291.5852],[-63.8816,-25.7042,288.8339],[-63.8777,-25.6809,291.1071],[-63.8787,-25.6695,291.8038],[-63.8803,-25.6639,292.1125],[-63.8908,-25.6496,297.0228],[-63.895,-25.6387,297.1458],[-63.9115,-25.6215,297.7974],[-63.921,-25.6065,302.3845],[-63.941,-25.5843,305.5201],[-63.9511,-25.5697,307.8822],[-63.9648,-25.5577,308.9211],[-63.9707,-25.5476,310.5324],[-63.9798,-25.5397,312.9703],[-63.9954,-25.5147,317.4525],[-64.0104,-25.4962,318.1448],[-64.0245,-25.4706,322.452],[-64.0409,-25.4271,329.5902],[-64.0485,-25.4114,329.766],[-64.0522,-25.3771,338.0425],[-64.0568,-25.3545,335.8755],[-64.0619,-25.344,341.3245],[-64.0824,-25.315,345.7516],[-64.0869,-25.3042,347.3202],[-64.0892,-25.2929,349.0016],[-64.0911,-25.2413,358.0416],[-64.1051,-25.1853,368.0058],[-64.1223,-25.1483,370.1182],[-64.1315,-25.1332,376.1774],[-64.15,-25.1099,382.2118],[-64.1667,-25.0856,384.8561],[-64.1758,-25.0777,383.8765],[-64.2013,-25.0608,415.201],[-64.2199,-25.0586,422.9891],[-64.2563,-25.0681,428.3484],[-64.2978,-25.0943,430.4476],[-64.3266,-25.1246,438.4131],[-64.3653,-25.1904,432.4141],[-64.3757,-25.2049,439.4329],[-64.3802,-25.2086,445.1129],[-64.3925,-25.2117,452.5447],[-64.4678,-25.2196,484.0676],[-64.5097,-25.2327,474.5],[-64.564,-25.272,478.9988],[-64.5995,-25.3124,493.1171],[-64.6128,-25.3247,501.142],[-64.6197,-25.3343,505.3722],[-64.6286,-25.3424,510.5994],[-64.6542,-25.3594,519.3004],[-64.6844,-25.3677,534.6984],[-64.7159,-25.3672,554.5986],[-64.7346,-25.3639,561.9644],[-64.7462,-25.3594,572.6141],[-64.7651,-25.3591,582.0244],[-64.7775,-25.357,589.8975],[-64.7833,-25.3546,597.2303],[-64.7877,-25.3505,605.8895],[-64.8334,-25.3308,603.4424],[-64.8496,-25.3218,616.9531],[-64.8762,-25.2973,678.8817],[-64.88,-25.2864,798.3331],[-64.8783,-25.2693,883.8636],[-64.8825,-25.2525,759.7485],[-64.8944,-25.2323,681.0032],[-64.9057,-25.2184,689.3713],[-64.9141,-25.203,692.5601],[-64.9212,-25.181,817.7477],[-64.9243,-25.176,904.984],[-64.9448,-25.1625,838.7399],[-64.9626,-25.1467,758.9996]]]]}
,"properties": {"GID_2": "ARG.17.16_1","GID_0": "ARG","country": "Argentina","GID_1": "ARG.17_1","state": "Salta","NL_NAME_1": "NA","county": "Metán","VARNAME_2": "NA","NL_NAME_2": "NA","TYPE_2": "Departamento","ENGTYPE_2": "Department","CC_2": "NA","HASC_2": "AR.SA.ME","name": "Metán.county","area_km2": 5484.02,"hist_schema_id": "Elevation0-9000","hist_area_km2": {"275": 0.611,"300": 197.303,"325": 267.531,"350": 311.287,"375": 338.825,"400": 226.535,"425": 208.44,"450": 185.11,"475": 204.597,"500": 258.917,"525": 254.963,"550": 241.842,"575": 215.596,"600": 204.111,"625": 218.129,"650": 170.201,"675": 155.94,"700": 134.923,"725": 112.784,"750": 101.069,"775": 95.806,"800": 89.698,"825": 82.931,"850": 71.194,"875": 58.022,"900": 48.084,"925": 45.981,"950": 42.668,"975": 40.006,"1000": 38.45,"1025": 36.938,"1050": 37.185,"1075": 36.591,"1100": 38.674,"1125": 39.746,"1150": 37.657,"1175": 36.125,"1200": 34.534,"1225": 33.462,"1250": 29.307,"1275": 28.314,"1300": 27.645,"1325": 24.792,"1350": 22.071,"1375": 18.525,"1400": 18.582,"1425": 17.222,"1450": 15.995,"1475": 15.919,"1500": 14.923,"1525": 14.27,"1550": 12.719,"1575": 12.431,"1600": 12.2,"1625": 10.801,"1650": 11.107,"1675": 10.78,"1700": 9.803,"1725": 9.669,"1750": 9.133,"1775": 8.788,"1800": 8.136,"1825": 7.447,"1850": 7.103,"1875": 7.486,"1900": 6.815,"1925": 6.127,"1950": 6.473,"1975": 5.993,"2000": 5.63,"2025": 4.615,"2050": 5.343,"2075": 4.596,"2100": 5.248,"2125": 4.692,"2150": 4.558,"2175": 4.462,"2200": 4.864,"2225": 4.04,"2250": 4.233,"2275": 4.175,"2300": 4.425,"2325": 4.366,"2350": 4.156,"2375": 3.754,"2400": 3.85,"2425": 3.715,"2450": 3.811,"2475": 3.735,"2500": 4.06,"2525": 2.892,"2550": 3.16,"2575": 3.217,"2600": 2.796,"2625": 2.585,"2650": 2.585,"2675": 2.375,"2700": 1.8,"2725": 2.03,"2750": 1.226,"2775": 1.149,"2800": 1.034,"2825": 0.517,"2850": 0.67,"2875": 0.192,"2900": 0.211,"2925": 0.115}}}