{"type": "Feature","bbox": [-63.7864,-26.9285,-61.7108,-26.2353],"geometry": {"type": "MultiPolygon","coordinates": [[[[-61.7108,-26.2353,151.6201],[-62.1736,-26.2391,171.388],[-62.4739,-26.2398,188.6436],[-63.7825,-26.2392,231.0645],[-63.7864,-26.2728,231.3029],[-63.7836,-26.3014,231.0506],[-63.7589,-26.3329,227.2992],[-63.749,-26.39,222.7974],[-63.737,-26.4116,219.488],[-63.7198,-26.4624,216.2614],[-63.7113,-26.4746,213.4584],[-63.7003,-26.4852,215.1436],[-63.6732,-26.5268,209.1421],[-63.6699,-26.5358,208.6462],[-63.6702,-26.5504,207.2139],[-63.6831,-26.6071,203.9901],[-63.6844,-26.6117,203.8587],[-63.6906,-26.6201,203.5037],[-63.6853,-26.6319,203.0602],[-63.6899,-26.6351,202.4622],[-63.6945,-26.6437,203.2624],[-63.6963,-26.6629,202.6331],[-63.6964,-26.716,195.239],[-63.7,-26.74,192.9768],[-63.7016,-26.7737,191.0517],[-63.7063,-26.7875,190.3629],[-63.7077,-26.8019,191.181],[-63.7122,-26.8208,189.5031],[-63.7136,-26.8353,189.0467],[-63.7125,-26.8497,189.1057],[-63.7134,-26.8545,188.5703],[-63.7213,-26.867,186.2917],[-63.729,-26.885,185.7578],[-63.7291,-26.8899,185.3769],[-63.7174,-26.9169,187.2102],[-63.7166,-26.9216,184.8904],[-63.7189,-26.9285,182.6704],[-63.5735,-26.9277,179.8872],[-63.5725,-26.9113,180.8998],[-63.4111,-26.9082,182.8316],[-63.4085,-26.7882,190.325],[-63.2497,-26.7865,187.7041],[-63.2491,-26.8128,188.5431],[-62.937,-26.8095,180.7181],[-62.9371,-26.8369,179.6842],[-62.7658,-26.8369,177.1817],[-62.7658,-26.8467,176.4251],[-62.5025,-26.8449,168.9684],[-62.5002,-26.8041,171.0689],[-61.7133,-26.7902,161.2271],[-61.7108,-26.2353,151.6201]]]]}
,"properties": {"GID_2": "ARG.22.2_1","GID_0": "ARG","country": "Argentina","GID_1": "ARG.22_1","state": "SantiagodelEstero","NL_NAME_1": "NA","county": "Alberdi","VARNAME_2": "CampoGallo","NL_NAME_2": "NA","TYPE_2": "Departamento","ENGTYPE_2": "Department","CC_2": "NA","HASC_2": "AR.SE.AL","name": "Alberdi.county","area_km2": 13046.66,"hist_schema_id": "Elevation0-9000","hist_area_km2": {"150": 1221.96,"175": 5262.79,"200": 5134.28,"225": 1427.64}}}