{"type":"Feature","properties":{"GID_2":"ARG.6.15_1","GID_0":"ARG","country":"Argentina","GID_1":"ARG.6_1","state":"Córdoba","NL_NAME_1":"NA","county":"RióPrimero","VARNAME_2":"SantaRosadelRioPrimer|RioPr","NL_NAME_2":"NA","TYPE_2":"Departamento","ENGTYPE_2":"Department","CC_2":"NA","HASC_2":"AR.CB.RP","name":"RióPrimero.county"},
"geometry":{"type": "MultiPolygon","coordinates": [[[[-63.9655,-31.4619,354.9009],[-63.9681,-31.5568,342.837],[-63.958,-31.5666,341.6898],[-63.9438,-31.5569,331.8898],[-63.9045,-31.5625,329.6268],[-63.8533,-31.5645,319.7168],[-63.8419,-31.5595,316.5397],[-63.823,-31.5568,310.9813],[-63.8135,-31.5492,308.4437],[-63.8079,-31.5469,307.7024],[-63.7949,-31.5472,304.9483],[-63.7889,-31.5457,303.4723],[-63.76,-31.5338,297.1061],[-63.7152,-31.5348,285.0901],[-63.7031,-31.5307,281.2606],[-63.6997,-31.5264,280.2701],[-63.6895,-31.4942,278.9945],[-63.6854,-31.4903,278.0774],[-63.6735,-31.4858,275.0453],[-63.6608,-31.4838,271.3108],[-63.648,-31.483,269.6316],[-63.642,-31.4848,268.9279],[-63.6359,-31.4836,267.4234],[-63.6309,-31.4799,266.148],[-63.6122,-31.4764,260.9297],[-63.597,-31.4667,255.5596],[-63.5844,-31.4644,247.5258],[-63.5803,-31.46,247.1772],[-63.5682,-31.4287,244.4313],[-63.5631,-31.4256,242.2796],[-63.5505,-31.4228,239.1616],[-63.5484,-31.4179,238.5998],[-63.5475,-31.4013,237.9379],[-63.5443,-31.397,236.758],[-63.5315,-31.3984,232.9707],[-63.5256,-31.4009,232.9408],[-63.523,-31.4053,233.6091],[-63.504,-31.4107,230.9344],[-63.5018,-31.4072,230.2989],[-63.5019,-31.4011,230.9603],[-63.4999,-31.3955,230.1733],[-63.4966,-31.3942,229.2596],[-63.4971,-31.3886,228.8054],[-63.4591,-31.3851,220.4643],[-63.4539,-31.3707,216.5482],[-63.4269,-31.3756,207.8708],[-63.3629,-31.3712,196.7953],[-63.3706,-31.3268,192.9939],[-63.2859,-31.3412,180.0383],[-63.2568,-31.2596,160.5318],[-63.1823,-31.2736,155.1059],[-63.1452,-31.1402,129.1201],[-63.1268,-31.1391,124.6826],[-63.1136,-31.1008,124.9635],[-63.0402,-31.1127,118.5105],[-63.0231,-31.0594,105.2743],[-62.9889,-31.0663,106.4521],[-62.9806,-31.0419,97.454],[-62.9672,-31.0432,95.2778],[-62.947,-30.952,84.6298],[-62.8276,-30.9171,78.4957],[-62.8385,-30.7874,67.5],[-62.8526,-30.7818,67.5],[-62.8896,-30.7734,67.5],[-62.9013,-30.7691,67.5],[-62.9047,-30.7646,67.5],[-62.9059,-30.7481,67.5],[-62.9112,-30.7382,67.5],[-62.915,-30.7165,67.5],[-62.923,-30.7082,67.5],[-62.9253,-30.7031,67.5],[-62.9304,-30.6998,67.5],[-62.9486,-30.6947,67.5],[-62.9529,-30.6907,67.5],[-62.9586,-30.6883,67.5],[-62.964,-30.6904,67.5],[-62.9678,-30.6943,67.5],[-62.9933,-30.6913,67.5],[-62.9942,-30.6868,67.5],[-63.01,-30.6886,67.5],[-63.0285,-30.6847,70.49],[-63.0288,-30.6791,69.5887],[-63.2205,-30.6497,79.0001],[-63.2168,-30.6318,76.6366],[-63.3877,-30.604,81.8944],[-63.3823,-30.5368,79.0922],[-63.573,-30.5091,172.7219],[-63.6002,-30.6592,173.7885],[-63.6165,-30.6574,185.2347],[-63.625,-30.682,187.4608],[-63.6325,-30.6821,191.4594],[-63.6424,-30.729,192.7734],[-63.6549,-30.7276,202.6161],[-63.6683,-30.8497,199.5717],[-63.6736,-30.8627,204.1035],[-63.6752,-30.8901,206.8279],[-63.6775,-30.901,209.2992],[-63.682,-30.9113,214.6962],[-63.6897,-30.9199,221.4106],[-63.6961,-30.9206,224.0726],[-63.721,-30.9157,234.5698],[-63.7386,-30.9091,242.1761],[-63.7637,-30.906,259.5389],[-63.7819,-30.9007,269.1953],[-63.7853,-30.9658,283.2591],[-63.8415,-30.9675,320.5072],[-63.844,-31.0804,315.5504],[-63.8573,-31.0817,326.2625],[-63.8417,-31.0989,311.5217],[-63.852,-31.11,321.7842],[-63.8709,-31.112,331.1248],[-63.8719,-31.2763,316.8959],[-63.957,-31.2798,353.1537],[-63.962,-31.357,353.2983],[-63.9321,-31.3606,344.3246],[-63.9351,-31.3833,347.3444],[-63.9634,-31.3818,355.3461],[-63.9655,-31.4619,354.9009]]]]}}