{"type": "Feature","id": "1309","bbox": [-60.76923,-34.04898,-57.79499,-30.15144],"geometry": {"type": "Polygon","coordinates": [[[-58.50136,-30.1855,66.2604],[-58.52211,-30.18302,60.8596],[-58.53495,-30.17888,60.9503],[-58.54006,-30.17635,60.5219],[-58.56275,-30.1609,58.4668],[-58.5736,-30.15609,56.7578],[-58.58714,-30.15304,56.6131],[-58.60174,-30.15144,59.0296],[-58.62975,-30.15227,57.5258],[-58.75687,-30.19717,52.4746],[-58.77475,-30.20611,51.8974],[-58.79364,-30.21164,51.2908],[-58.87617,-30.22699,52.036],[-58.88594,-30.2272,53.5371],[-58.91593,-30.22363,50.7739],[-58.97311,-30.20735,47.4944],[-59.005,-30.2041,49.7651],[-59.02045,-30.20922,44.2511],[-59.04489,-30.22007,42.266],[-59.09869,-30.2504,43.5274],[-59.13848,-30.28105,42.8762],[-59.1453,-30.29138,39.3586],[-59.16587,-30.30575,39.23],[-59.24131,-30.34347,41.2243],[-59.33692,-30.31272,33.336],[-59.38854,-30.30595,32.1709],[-59.45587,-30.3198,24.7691],[-59.46391,-30.31918,31.8775],[-59.48996,-30.31029,30.2375],[-59.49499,-30.30936,30.1594],[-59.49866,-30.30905,30.3073],[-59.50411,-30.31029,46.6536],[-59.56812,-30.33257,22.8219],[-59.58003,-30.33427,23.3266],[-59.66152,-30.33691,21.7592],[-59.65299,-30.38388,24.6502],[-59.64597,-30.39985,22.2944],[-59.61811,-30.44677,22.7786],[-59.61478,-30.46269,21.4878],[-59.61553,-30.47907,21.0],[-59.62222,-30.51679,21.1307],[-59.62235,-30.57483,19.0],[-59.62506,-30.59255,21.2735],[-59.64602,-30.64066,23.1251],[-59.65018,-30.65952,18.0],[-59.65416,-30.71719,23.279],[-59.66064,-30.73606,17.5],[-59.71984,-30.83099,16.5],[-59.77379,-30.89243,23.4198],[-59.79487,-30.92504,15.5],[-59.84099,-30.97733,19.3353],[-59.88071,-31.04203,14.5],[-59.94044,-31.11614,14.5],[-60.0008,-31.21225,21.2868],[-60.01308,-31.22435,15.9163],[-60.05331,-31.25608,17.0066],[-60.06338,-31.26951,13.0],[-60.09403,-31.35369,16.9464],[-60.09806,-31.35457,18.0698],[-60.10439,-31.36806,15.6334],[-60.14485,-31.41198,11.5],[-60.16366,-31.44206,15.3722],[-60.16898,-31.44712,16.1127],[-60.17617,-31.45053,12.5327],[-60.19113,-31.45503,14.6069],[-60.19795,-31.45803,23.3382],[-60.20565,-31.46273,11.5],[-60.21177,-31.468,11.5],[-60.22306,-31.4849,22.0234],[-60.22684,-31.4879,21.4867],[-60.24001,-31.49306,16.5197],[-60.25471,-31.50531,11.5],[-60.26221,-31.51311,18.8079],[-60.27497,-31.53022,11.5],[-60.30213,-31.55518,16.0991],[-60.35166,-31.6206,10.0],[-60.38073,-31.64908,56.0313],[-60.41411,-31.67352,9.0],[-60.43318,-31.6838,9.0],[-60.45302,-31.69176,9.0],[-60.47367,-31.69734,9.0],[-60.49511,-31.70044,9.0],[-60.56361,-31.70091,9.0],[-60.58547,-31.69843,14.2247],[-60.60526,-31.69972,13.864],[-60.63239,-31.70633,11.768],[-60.6405,-31.70995,11.5974],[-60.64777,-31.71605,10.5],[-60.65172,-31.72308,12.5197],[-60.65371,-31.73222,10.9423],[-60.65311,-31.74147,15.8123],[-60.64932,-31.74886,16.3273],[-60.65053,-31.74969,16.1505],[-60.65311,-31.75227,12.4489],[-60.65435,-31.7531,12.1013],[-60.65092,-31.76581,10.9927],[-60.65497,-31.78183,9.0],[-60.66658,-31.81108,11.9566],[-60.67107,-31.8425,19.0434],[-60.67404,-31.85289,10.7693],[-60.68105,-31.86617,10.6533],[-60.70921,-31.89929,10.5768],[-60.71996,-31.92234,11.4695],[-60.72252,-31.94725,10.0346],[-60.71763,-31.9719,8.0],[-60.70598,-31.99453,14.8023],[-60.67782,-32.02916,7.5],[-60.66624,-32.04833,8.8194],[-60.6618,-32.06926,7.5],[-60.66632,-32.08807,10.8953],[-60.69973,-32.13757,6.5],[-60.70693,-32.15618,6.5],[-60.70898,-32.17473,6.5],[-60.70146,-32.23436,9.4673],[-60.70177,-32.25488,11.2601],[-60.70515,-32.27503,8.884],[-60.72637,-32.33446,5.5],[-60.73117,-32.35446,6.6544],[-60.73249,-32.37544,12.2659],[-60.72714,-32.43523,7.5917],[-60.72934,-32.45543,5.0],[-60.73657,-32.47771,5.0],[-60.76567,-32.54106,11.6566],[-60.76923,-32.56054,6.3125],[-60.76701,-32.57832,7.2762],[-60.7598,-32.59491,5.5],[-60.72283,-32.64271,10.7117],[-60.7127,-32.65992,10.3838],[-60.70582,-32.6795,6.8838],[-60.69854,-32.76994,9.5728],[-60.69001,-32.80952,4.5],[-60.67546,-32.84652,6.9104],[-60.62239,-32.94062,4.0],[-60.6056,-32.96259,4.0],[-60.60108,-32.96641,8.9204],[-60.591,-32.97313,4.0],[-60.58694,-32.97685,4.0],[-60.58268,-32.98439,7.671],[-60.55733,-33.05219,3.5],[-60.55211,-33.06108,3.5],[-60.49542,-33.12206,6.5243],[-60.43227,-33.1586,7.6804],[-60.41458,-33.16511,6.3509],[-60.40142,-33.17146,3.6662],[-60.39303,-33.1742,2.5],[-60.38192,-33.18226,2.5],[-60.36476,-33.19932,5.2307],[-60.35267,-33.21802,18.2343],[-60.34747,-33.22412,17.0921],[-60.32466,-33.24159,30.4546],[-60.29409,-33.25657,17.1417],[-60.24614,-33.27843,4.7967],[-60.11808,-33.39357,4.9907],[-59.94773,-33.49501,5.6706],[-59.93047,-33.49982,2.8581],[-59.90791,-33.50359,0.0],[-59.86009,-33.524,0.0],[-59.84389,-33.53392,1.5],[-59.82474,-33.54979,3.3039],[-59.78647,-33.59883,2.3633],[-59.77239,-33.61051,0.0],[-59.64062,-33.67102,0.5407],[-59.60276,-33.67779,2.7477],[-59.577,-33.67112,0.7566],[-59.5207,-33.65531,0.0],[-59.48016,-33.68006,2.7296],[-59.44197,-33.71737,2.9632],[-59.39265,-33.73939,0.0],[-59.30637,-33.73939,2.4382],[-59.30317,-33.73737,2.8148],[-59.29622,-33.72838,0.0],[-59.29273,-33.72636,0.0],[-59.27803,-33.72404,0.0],[-59.26893,-33.72125,0.0],[-59.26232,-33.72425,0.0],[-59.25485,-33.73939,2.6409],[-59.25235,-33.75267,3.512],[-59.25266,-33.77696,0.0],[-59.24865,-33.78719,0.0],[-59.24483,-33.78786,2.2002],[-59.23907,-33.79349,3.146],[-59.23131,-33.79799,0.706],[-59.22134,-33.80145,3.4235],[-59.21793,-33.80031,3.4603],[-59.21297,-33.79706,3.2737],[-59.20703,-33.79432,3.2318],[-59.20085,-33.79463,3.2258],[-59.19571,-33.79799,3.4654],[-59.18633,-33.80657,0.0],[-59.18349,-33.80827,0.0],[-59.18015,-33.81148,2.9647],[-59.17685,-33.81856,3.3184],[-59.17165,-33.82558,2.9771],[-59.16269,-33.82879,2.5408],[-59.05856,-33.82693,2.9725],[-59.03182,-33.82956,3.0891],[-59.01156,-33.83902,2.0244],[-58.99523,-33.85075,3.2554],[-58.92185,-33.88765,3.8458],[-58.86785,-33.92806,0.0],[-58.84935,-33.93731,5.2912],[-58.80026,-33.94656,0.0],[-58.78191,-33.95229,4.3775],[-58.6798,-34.0312,5.2361],[-58.63851,-34.04852,6.6039],[-58.59097,-34.04898,9.0568],[-58.4996,-34.01668,3.7242],[-58.44697,-34.00694,4.6273],[-58.44697,-34.00693,4.6273],[-58.44664,-34.0014,0.0],[-58.44172,-33.98992,2.5304],[-58.43936,-33.97967,2.5719],[-58.45206,-33.92457,2.1705],[-58.45556,-33.879,0.0],[-58.46105,-33.85947,2.2015],[-58.46939,-33.84246,2.443],[-58.52432,-33.77776,2.3852],[-58.54068,-33.74521,3.4182],[-58.54922,-33.70534,3.2908],[-58.54939,-33.68304,0.0],[-58.54084,-33.60898,12.6608],[-58.531,-33.58896,0.0],[-58.5288,-33.57903,0.0],[-58.53563,-33.53395,3.8915],[-58.53185,-33.49391,0.0],[-58.52172,-33.44931,0.0],[-58.5065,-33.40586,2.1235],[-58.48786,-33.36956,2.2289],[-58.45995,-33.33473,5.2199],[-58.44005,-33.31609,6.3951],[-58.42235,-33.30804,0.0],[-58.41234,-33.29827,0.0],[-58.41706,-33.27549,0.0],[-58.43322,-33.23235,0.0],[-58.43196,-33.21307,2.3933],[-58.4215,-33.16839,0.0],[-58.41893,-33.14666,0.0],[-58.41649,-33.13649,4.2097],[-58.41271,-33.1264,2.7894],[-58.41283,-33.11875,2.7959],[-58.432,-33.11159,7.3371],[-58.43017,-33.10263,0.0],[-58.42349,-33.09336,0.0],[-58.41893,-33.08831,0.0],[-58.38317,-33.07545,0.0],[-58.24144,-33.09515,0.0],[-58.22867,-33.09515,0.0],[-58.20446,-33.09189,2.5857],[-58.19298,-33.08831,3.8432],[-58.15575,-33.06113,1.0],[-58.1468,-33.04998,1.0],[-58.14908,-33.025,2.8896],[-58.15949,-32.97975,3.9295],[-58.15612,-32.95778,2.9655],[-58.14118,-32.91912,2.8019],[-58.13777,-32.90032,3.0015],[-58.14318,-32.88502,3.0241],[-58.16967,-32.84824,3.2918],[-58.17935,-32.8283,4.1317],[-58.19298,-32.72584,2.5671],[-58.21158,-32.65732,6.8478],[-58.22281,-32.53427,11.3394],[-58.22008,-32.48952,7.2284],[-58.20043,-32.44459,2.0],[-58.20011,-32.44713,2.0],[-58.19972,-32.44479,2.0],[-58.18996,-32.43394,3.1182],[-58.16495,-32.38949,6.9327],[-58.10159,-32.31136,2.9508],[-58.09653,-32.28097,2.0],[-58.10691,-32.25183,2.0],[-58.17523,-32.17411,3.2407],[-58.18655,-32.15292,3.1882],[-58.18086,-32.13246,2.5],[-58.1588,-32.10155,8.4482],[-58.14831,-32.0629,3.0],[-58.14531,-32.01789,3.5],[-58.14903,-31.9752,7.2923],[-58.1588,-31.94389,3.5],[-58.19032,-31.9133,3.5],[-58.20262,-31.89314,3.5],[-58.196,-31.87258,3.5],[-58.16862,-31.84601,3.5],[-58.15285,-31.83599,3.5],[-58.13084,-31.82782,3.5],[-58.08345,-31.81976,3.5],[-58.05927,-31.81149,11.4617],[-58.04888,-31.79713,11.5206],[-57.98863,-31.64282,13.8132],[-57.97958,-31.59879,4.0],[-57.98682,-31.55415,27.3774],[-58.01333,-31.52562,4.0],[-58.03898,-31.50864,4.0],[-58.05079,-31.50082,4.0],[-58.07524,-31.47518,14.3037],[-58.06258,-31.44428,6.0],[-58.04356,-31.43064,6.5],[-58.00594,-31.411,7.0],[-57.99023,-31.39932,7.0],[-57.98051,-31.38051,7.0],[-57.97555,-31.33514,22.2248],[-57.96635,-31.31457,15.6091],[-57.95948,-31.30796,16.6552],[-57.943,-31.2968,26.9304],[-57.93561,-31.29029,38.2483],[-57.91483,-31.25246,33.5],[-57.90512,-31.24099,33.5],[-57.90501,-31.21504,33.5],[-57.91173,-31.1706,33.5],[-57.89902,-31.12647,33.5],[-57.87375,-31.09309,33.5],[-57.85525,-31.05898,33.5],[-57.86331,-31.01227,33.5],[-57.90548,-30.95883,33.5],[-57.91173,-30.94736,33.5],[-57.90398,-30.92969,33.5],[-57.88533,-30.91884,33.5],[-57.8428,-30.90922,44.5313],[-57.81964,-30.9116,33.5],[-57.80724,-30.90757,33.5],[-57.80187,-30.89248,33.5],[-57.79613,-30.8684,33.5],[-57.79499,-30.85796,33.5],[-57.79603,-30.81621,33.5],[-57.7994,-30.79146,33.5],[-57.80187,-30.77331,33.5],[-57.80866,-30.74733,33.5],[-57.80923,-30.74712,33.5],[-57.81675,-30.74427,33.5],[-57.87034,-30.70789,46.898],[-57.98726,-30.60351,52.4449],[-57.99679,-30.59033,62.4749],[-58.03699,-30.52175,47.4635],[-58.04433,-30.49907,56.5522],[-58.05152,-30.45328,55.0076],[-58.05542,-30.44067,49.1607],[-58.068,-30.42073,49.531],[-58.11366,-30.38977,59.0378],[-58.17223,-30.34058,61.8021],[-58.19347,-30.31551,58.659],[-58.2082,-30.29076,61.0343],[-58.21789,-30.27035,70.9745],[-58.22039,-30.26363,73.5073],[-58.22964,-30.25299,72.9416],[-58.26075,-30.23071,72.85],[-58.45488,-30.184,66.5848],[-58.50136,-30.1855,66.2604]]]}
,"properties": {"ISO3166-1-Alpha-3": "ARG","country": "Argentina","fill": "#00F","name": "Entre Ríos","area_km2": 78241.57,"hist_schema_id": "Elevation0-9000","hist_area_km2": {"0": 17453.17,"25": 11038.4,"50": 27349.29,"75": 20204.22,"100": 2138.76,"125": 57.73}}}