{"type": "Feature","bbox": [-65.8378,-28.7761,-65.5623,-28.4137],"geometry": {"type": "MultiPolygon","coordinates": [[[[-65.6338,-28.6121,1583.3629],[-65.6222,-28.5876,1655.324],[-65.6138,-28.5599,1742.7004],[-65.6108,-28.5313,1790.6354],[-65.6051,-28.503,1774.8781],[-65.6066,-28.4858,1544.9338],[-65.5963,-28.4714,1784.8394],[-65.5867,-28.45,1316.1859],[-65.5719,-28.4389,1922.807],[-65.5642,-28.4294,1943.8057],[-65.5623,-28.4242,1980.7213],[-65.5626,-28.4137,2029.5024],[-65.6702,-28.4143,634.947],[-65.679,-28.4329,645.1841],[-65.6836,-28.4368,625.7842],[-65.6884,-28.4368,530.37],[-65.7021,-28.4266,539.3661],[-65.7075,-28.4248,532.6398],[-65.7272,-28.4257,534.8204],[-65.7376,-28.4626,512.7197],[-65.7439,-28.4711,512.2563],[-65.7578,-28.4806,504.9518],[-65.7652,-28.4883,497.1815],[-65.7756,-28.5068,485.9556],[-65.7814,-28.5266,479.6431],[-65.7978,-28.5595,474.4477],[-65.7987,-28.5644,474.9619],[-65.7947,-28.5849,457.6225],[-65.8079,-28.6016,458.4556],[-65.811,-28.6168,451.9418],[-65.8127,-28.6424,444.67],[-65.8081,-28.6626,432.4177],[-65.8085,-28.6727,427.186],[-65.8168,-28.6862,418.9479],[-65.8331,-28.7009,413.6097],[-65.8361,-28.7053,410.4005],[-65.8378,-28.7103,409.7601],[-65.8375,-28.7153,408.2364],[-65.8335,-28.7251,403.7847],[-65.8226,-28.737,399.7348],[-65.8132,-28.7431,399.4045],[-65.8027,-28.7474,397.2492],[-65.7626,-28.754,404.2447],[-65.6565,-28.7761,1396.7285],[-65.6481,-28.7655,1382.08],[-65.6474,-28.7545,1383.2122],[-65.6662,-28.693,1534.8391],[-65.6667,-28.67,1489.0992],[-65.6614,-28.6537,1491.8921],[-65.6468,-28.6345,1534.1665],[-65.6338,-28.6121,1583.3629]]]]}
,"properties": {"GID_2": "ARG.2.16_1","GID_0": "ARG","country": "Argentina","GID_1": "ARG.2_1","state": "Catamarca","NL_NAME_1": "NA","county": "ValleViejo","VARNAME_2": "SanIsidro","NL_NAME_2": "NA","TYPE_2": "Departamento","ENGTYPE_2": "Department","CC_2": "NA","HASC_2": "AR.CT.VV","name": "ValleViejo.county","area_km2": 612.9763,"hist_schema_id": "Elevation0-9000","hist_area_km2": {"400": 31.4771,"425": 62.6422,"450": 66.431,"475": 64.1709,"500": 65.333,"525": 63.6271,"550": 23.4678,"575": 13.1294,"600": 12.3856,"625": 12.2765,"650": 13.377,"675": 14.3099,"700": 10.6563,"725": 7.6373,"750": 7.0219,"775": 7.0777,"800": 5.7177,"825": 5.8476,"850": 4.4505,"875": 4.5061,"900": 4.5992,"925": 3.7601,"950": 3.1645,"975": 3.4252,"1000": 2.7924,"1025": 3.3883,"1050": 2.9788,"1075": 2.9413,"1100": 2.7368,"1125": 2.8487,"1150": 2.3832,"1175": 2.4578,"1200": 2.1414,"1225": 2.6441,"1250": 2.4952,"1275": 2.5132,"1300": 2.3826,"1325": 3.0339,"1350": 4.3164,"1375": 6.4911,"1400": 7.1236,"1425": 7.8111,"1450": 4.0559,"1475": 4.057,"1500": 3.9823,"1525": 3.9271,"1550": 4.0385,"1575": 2.3455,"1600": 1.5086,"1625": 1.4158,"1650": 1.6392,"1675": 1.453,"1700": 1.1364,"1725": 1.844,"1750": 2.9429,"1775": 1.9372,"1800": 0.3353,"1825": 0.1864,"1850": 0.1678,"1875": 0.1865,"1900": 0.3729,"1925": 0.5221,"1950": 0.3543,"1975": 0.4102,"2000": 0.1865}}}