{"type":"Feature","properties":{"GID_2":"ARG.1.84_1","GID_0":"ARG","country":"Argentina","GID_1":"ARG.1_1","state":"BuenosAires","NL_NAME_1":"NA","county":"Necochea","VARNAME_2":"NA","NL_NAME_2":"NA","TYPE_2":"Partido","ENGTYPE_2":"Part","CC_2":"NA","HASC_2":"AR.BA.NE","name":"Necochea.county"},
"geometry":{"type": "MultiPolygon","coordinates": [[[[-59.6411,-38.0281,153.2729],[-59.6344,-38.0302,152.2197],[-59.6319,-38.0327,152.9053],[-59.6307,-38.04,151.5597],[-59.6242,-38.0481,151.4502],[-59.6091,-38.0473,150.0515],[-59.5914,-38.0508,147.8454],[-59.5905,-38.0544,147.2593],[-59.5761,-38.0564,145.7246],[-59.5735,-38.0601,145.2628],[-59.5574,-38.0615,144.1611],[-59.5467,-38.0659,142.621],[-59.5399,-38.0621,142.8038],[-59.5337,-38.0637,141.7643],[-59.5231,-38.0746,139.4037],[-59.5131,-38.0769,138.6918],[-59.5049,-38.086,138.0186],[-59.4898,-38.0888,136.812],[-59.4695,-38.098,135.2132],[-59.4531,-38.101,132.2462],[-59.4136,-38.1171,127.0776],[-59.4064,-38.118899999999996,129.2838],[-59.3771,-38.1172,124.1622],[-59.357,-38.1194,121.5658],[-59.3129,-38.1337,116.5864],[-59.3003,-38.1399,110.9461],[-59.299,-38.1457,115.0664],[-59.289,-38.1488,116.6146],[-59.256,-38.1509,114.0726],[-59.2454,-38.1538,103.6944],[-59.2417,-38.1579,101.4063],[-59.3075,-38.2106,121.976],[-59.3231,-38.2607,112.7618],[-59.3551,-38.3075,96.3538],[-59.3511,-38.3148,103.4721],[-59.3424,-38.3215,99.2019],[-59.3364,-38.3287,89.477],[-59.3394,-38.3386,83.5254],[-59.3144,-38.3895,72.2543],[-59.4064,-38.463,56.3794],[-59.3479,-38.5039,42.8229],[-59.3339,-38.5038,42.959],[-59.3377,-38.5478,34.0313],[-59.3432,-38.5559,33.3589],[-59.3575,-38.5635,32.032],[-59.4424,-38.5912,30.0113],[-59.4369,-38.6005,28.584],[-59.4372,-38.6036,28.2426],[-59.4306,-38.6047,27.839],[-59.4306,-38.6096,27.3161],[-59.4241,-38.6109,27.3566],[-59.4226,-38.6058,26.7468],[-59.4167,-38.6019,26.8655],[-59.4107,-38.6032,26.0404],[-59.4056,-38.5997,25.8368],[-59.4042,-38.6027,26.204],[-59.4041,-38.6109,26.0102],[-59.4055,-38.6278,25.6892],[-59.4009,-38.6371,23.6584],[-59.3945,-38.6383,23.0824],[-59.3892,-38.6545,19.7716],[-59.3809,-38.6649,20.1143],[-59.3712,-38.6657,19.0049],[-59.3675,-38.6864,16.0573],[-59.3637,-38.689,17.5223],[-59.3635,-38.6968,15.3957],[-59.3509,-38.7095,30.9061],[-59.3371,-38.7264,8.3651],[-59.326,-38.7363,0.0],[-59.3065,-38.7299,-0.0125],[-59.2762,-38.7265,0.0],[-59.2649,-38.7221,2.2235],[-59.2343,-38.7168,0.0],[-59.1985,-38.7135,0.0],[-59.1807,-38.7135,0.0],[-59.1651,-38.709,3.2502],[-59.1557,-38.7085,0.0],[-59.1521,-38.7062,3.8839],[-59.1168,-38.7021,0.0],[-59.0687,-38.689,4.1259],[-59.0385,-38.6849,0.0],[-59.0376,-38.6835,0.0],[-59.0235,-38.6813,0.0],[-59.0185,-38.679,2.9514],[-59.0121,-38.6793,0.5526],[-59.0074,-38.6721,6.0459],[-58.9993,-38.6715,0.0],[-58.9829,-38.6662,2.5383],[-58.9535,-38.6601,0.0],[-58.9504,-38.6582,0.0],[-58.9465,-38.6585,0.0],[-58.9426,-38.6546,0.0],[-58.9315,-38.6507,1.1145],[-58.9235,-38.646,6.7701],[-58.8662,-38.6315,3.5058],[-58.8543,-38.6299,0.0],[-58.8376,-38.6243,5.8006],[-58.8354,-38.6249,0.0],[-58.8293,-38.6224,7.206],[-58.8276,-38.6232,0.0],[-58.8213,-38.6176,5.7566],[-58.7993,-38.6093,1.5539],[-58.7868,-38.6024,11.4575],[-58.7754,-38.6012,4.0826],[-58.7707,-38.5985,9.3034],[-58.7604,-38.5971,1.5146],[-58.7607,-38.5957,13.2595],[-58.7504,-38.5932,0.0],[-58.7382,-38.5868,9.1005],[-58.7257,-38.584,4.9257],[-58.7204,-38.5799,14.0221],[-58.7024,-38.5815,0.0],[-58.7021,-38.5799,0.0],[-58.7038,-38.5804,2.3485],[-58.7046,-38.5776,0.0],[-58.7113,-38.5762,0.0],[-58.7135,-38.5751,2.6951],[-58.7132,-38.5735,0.0],[-58.7024,-38.5774,0.7494],[-58.6968,-38.5776,1.7592],[-58.6888,-38.574,8.4949],[-58.6704,-38.571,4.8114],[-58.6557,-38.5704,0.0],[-58.6286,-38.5638,2.7316],[-58.7056,-38.5021,22.6191],[-58.7377,-38.5256,5.6524],[-58.7404,-38.5217,6.1727],[-58.7396,-38.5169,6.121],[-58.7421,-38.5075,12.7062],[-58.7501,-38.4994,20.77],[-58.7507,-38.4943,13.0106],[-58.7451,-38.4913,19.9778],[-58.7435,-38.4869,7.919],[-58.7469,-38.4831,18.9105],[-58.7566,-38.4801,25.588],[-58.7553,-38.4761,11.6068],[-58.7578,-38.471,12.9029],[-58.7571,-38.4659,11.1149],[-58.7589,-38.4601,16.1571],[-58.7736,-38.4424,41.4807],[-58.7699,-38.438,17.2353],[-58.771,-38.435,20.6495],[-58.7778,-38.429,28.7343],[-58.7747,-38.4256,20.7104],[-58.7747,-38.4219,24.5415],[-58.7823,-38.4171,28.3635],[-58.7825,-38.4134,24.1892],[-58.7873,-38.4112,33.3956],[-58.7889,-38.4059,34.8963],[-58.7874,-38.4001,22.661],[-58.7836,-38.3942,29.2005],[-58.784,-38.3902,25.9674],[-58.7804,-38.3872,33.72],[-58.7926,-38.3665,27.0238],[-58.7997,-38.358,35.1773],[-58.7997,-38.3511,35.9653],[-58.81,-38.3437,45.0773],[-58.8095,-38.3358,44.8316],[-58.8138,-38.3311,47.5786],[-58.8144,-38.328,40.2307],[-58.8378,-38.3069,43.1401],[-58.8574,-38.3021,54.6038],[-58.8671,-38.2974,52.147],[-58.868899999999996,-38.29,39.7045],[-58.879,-38.2831,59.2084],[-58.8778,-38.2749,46.3764],[-58.8834,-38.2729,63.0617],[-58.9018,-38.2545,59.411],[-58.9036,-38.2356,59.3609],[-58.9213,-38.1982,68.2565],[-58.933,-38.1901,77.9691],[-58.9516,-38.1865,84.4307],[-58.9502,-38.1717,77.6743],[-58.9558,-38.1609,85.6775],[-58.9683,-38.1552,90.6206],[-58.98,-38.1387,92.0813],[-59.0323,-38.0879,101.1231],[-59.0406,-38.0745,111.2965],[-59.0487,-38.054,113.7786],[-59.053,-38.0477,108.9739],[-59.0571,-38.0459,112.1537],[-59.0749,-38.0299,114.8426],[-59.0757,-38.0246,116.2001],[-59.1034,-38.0123,125.1839],[-59.1209,-38.0012,130.8564],[-59.1295,-37.9758,130.5373],[-59.1403,-37.9724,137.5399],[-59.149,-37.9649,137.3558],[-59.1558,-37.9503,136.6402],[-59.1664,-37.9446,138.9121],[-59.1667,-37.8942,150.1755],[-59.1626,-37.8844,153.4535],[-59.1542,-37.8761,155.6675],[-59.1323,-37.8649,159.5752],[-59.1275,-37.8529,162.5314],[-59.1185,-37.85,164.1542],[-59.1106,-37.8454,166.0121],[-59.1108,-37.8066,174.2336],[-59.1141,-37.795,175.9632],[-59.1227,-37.789,182.5738],[-59.1282,-37.7818,180.4585],[-59.1318,-37.7713,183.4349],[-59.1413,-37.7593,192.3394],[-59.1492,-37.7523,192.8064],[-59.159,-37.7516,198.7337],[-59.159,-37.747,193.6346],[-59.1653,-37.7422,194.8806],[-59.1662,-37.7214,199.5575],[-59.1691,-37.706,205.2295],[-59.1591,-37.6757,212.9077],[-59.1527,-37.663,217.5066],[-59.1558,-37.6482,218.7687],[-59.1597,-37.6409,219.4324],[-59.1667,-37.6322,224.1191],[-59.1749,-37.628,226.5539],[-59.1847,-37.6196,233.3055],[-59.2514,-37.6773,248.6185],[-59.2535,-37.6862,242.7122],[-59.2686,-37.7015,239.2542],[-59.2877,-37.7155,233.3034],[-59.3231,-37.7326,208.2534],[-59.3337,-37.7356,204.2058],[-59.3451,-37.7423,199.9033],[-59.3539,-37.7536,195.36],[-59.3678,-37.7636,189.4718],[-59.3846,-37.7667,184.6325],[-59.3877,-37.7751,183.6451],[-59.3963,-37.779,181.2679],[-59.4001,-37.7842,180.3302],[-59.4011,-37.7897,179.071],[-59.6718,-38.0024,156.9396],[-59.6672,-38.0073,155.8495],[-59.6602,-38.0114,155.8663],[-59.6542,-38.0204,154.5584],[-59.6411,-38.0281,153.2729]]]]}}