{"type": "Feature","bbox": [-64.743,-24.5035,-64.1553,-23.5055],"geometry": {"type": "MultiPolygon","coordinates": [[[[-64.7003,-24.082,401.4472],[-64.709,-24.1092,410.2892],[-64.7143,-24.1517,429.1288],[-64.7136,-24.1582,432.4886],[-64.7049,-24.1833,438.5216],[-64.7043,-24.2128,439.3675],[-64.6996,-24.2388,460.2408],[-64.7144,-24.2687,461.9547],[-64.7319,-24.2974,471.3807],[-64.7386,-24.3052,470.2697],[-64.743,-24.321,481.3344],[-64.743,-24.3275,482.7202],[-64.7351,-24.3339,490.3668],[-64.7115,-24.3421,512.793],[-64.6974,-24.3445,529.1624],[-64.6795,-24.345,552.5524],[-64.6691,-24.3475,574.1671],[-64.6443,-24.3439,634.1713],[-64.6155,-24.3434,684.3337],[-64.5843,-24.3358,781.6187],[-64.5665,-24.3333,828.4574],[-64.5558,-24.3343,889.5576],[-64.543,-24.3401,1107.3345],[-64.5248,-24.3388,1238.6268],[-64.5224,-24.3403,1157.9114],[-64.519,-24.3532,1251.3784],[-64.5118,-24.3683,1188.4446],[-64.51,-24.3846,1250.6318],[-64.5016,-24.3953,1289.9077],[-64.4904,-24.4008,1429.8267],[-64.5344,-24.5035,2077.9534],[-64.5278,-24.4927,2033.8228],[-64.513,-24.4949,2016.9106],[-64.491,-24.4913,1782.4753],[-64.4776,-24.4936,1526.7529],[-64.4681,-24.4897,1612.1145],[-64.4506,-24.4778,2107.4551],[-64.4399,-24.4603,2044.3715],[-64.4316,-24.4518,2260.0581],[-64.4151,-24.4388,1881.5433],[-64.4014,-24.4318,1473.4961],[-64.3708,-24.4271,1456.204],[-64.3339,-24.4324,1088.0769],[-64.3251,-24.4296,1043.7256],[-64.3178,-24.4242,913.0604],[-64.3035,-24.4183,940.326],[-64.2796,-24.4128,819.9467],[-64.2767,-24.4076,806.0963],[-64.2754,-24.3934,934.1835],[-64.2594,-24.376,762.199],[-64.2508,-24.3576,1020.9648],[-64.2476,-24.3465,870.8691],[-64.2416,-24.3365,901.0577],[-64.2292,-24.3237,772.0325],[-64.1999,-24.3024,722.4561],[-64.1911,-24.2908,784.2051],[-64.1762,-24.2593,868.0019],[-64.1754,-24.2451,837.5887],[-64.1732,-24.2368,624.4199],[-64.1592,-24.218,773.8927],[-64.1553,-24.204,739.298],[-64.1564,-24.1959,678.1487],[-64.1663,-24.1779,892.2802],[-64.1666,-24.1437,773.3264],[-64.174,-24.128,764.443],[-64.1761,-24.1168,750.0931],[-64.1749,-24.0911,859.3607],[-64.1758,-24.0569,858.6053],[-64.1728,-23.9991,577.9801],[-64.1735,-23.507,307.5836],[-64.2384,-23.5055,316.7037],[-64.356,-23.5066,343.7108],[-64.3702,-23.5162,350.5731],[-64.3815,-23.535,325.4847],[-64.3943,-23.5461,345.4911],[-64.4001,-23.5555,351.1438],[-64.4065,-23.5873,343.7755],[-64.4155,-23.6074,351.8063],[-64.4226,-23.616,350.4427],[-64.4405,-23.63,343.7693],[-64.45,-23.644,340.5531],[-64.4594,-23.6539,338.864],[-64.4685,-23.6717,339.9594],[-64.4938,-23.6841,345.6228],[-64.4956,-23.6867,348.4219],[-64.4952,-23.6934,354.5269],[-64.497,-23.6962,351.121],[-64.5117,-23.7058,354.7081],[-64.5177,-23.7176,356.7672],[-64.5351,-23.7207,402.9594],[-64.5554,-23.7342,352.7349],[-64.5638,-23.7449,354.9799],[-64.5662,-23.7544,357.531],[-64.5642,-23.7676,357.6888],[-64.5653,-23.7705,358.0049],[-64.5697,-23.7758,354.5836],[-64.575,-23.788,355.4735],[-64.5842,-23.7981,357.576],[-64.5905,-23.8099,362.509],[-64.5976,-23.8171,362.5341],[-64.6035,-23.8326,368.4143],[-64.617,-23.8435,367.3495],[-64.6191,-23.8565,361.3819],[-64.6241,-23.8612,365.0333],[-64.6257,-23.8708,363.3281],[-64.6384,-23.8907,373.1785],[-64.6453,-23.9059,376.1067],[-64.6469,-23.919,376.0382],[-64.653,-23.9308,377.212],[-64.6587,-23.9498,382.3827],[-64.6637,-23.9723,381.8635],[-64.6637,-23.9854,383.3726],[-64.6689,-24.008,394.8833],[-64.6801,-24.0247,388.9072],[-64.6853,-24.0438,389.1886],[-64.7003,-24.082,401.4472]]]]}
,"properties": {"GID_2": "ARG.10.10_1","GID_0": "ARG","country": "Argentina","GID_1": "ARG.10_1","state": "Jujuy","NL_NAME_1": "NA","county": "SantaBárbara","VARNAME_2": "SantaClara","NL_NAME_2": "NA","TYPE_2": "Departamento","ENGTYPE_2": "Department","CC_2": "NA","HASC_2": "AR.JY.SB","name": "SantaBárbara.county","area_km2": 4350.755,"hist_schema_id": "Elevation0-9000","hist_area_km2": {"300": 31.276,"325": 286.837,"350": 152.752,"375": 105.496,"400": 177.758,"425": 221.367,"450": 223.124,"475": 221.293,"500": 209.572,"525": 161.016,"550": 140.337,"575": 126.319,"600": 86.306,"625": 67.834,"650": 62.38,"675": 61.228,"700": 59.456,"725": 62.894,"750": 58.233,"775": 59.442,"800": 55.602,"825": 54.591,"850": 57.55,"875": 58.358,"900": 60.004,"925": 56.58,"950": 56.116,"975": 54.935,"1000": 54.085,"1025": 49.888,"1050": 47.219,"1075": 41.975,"1100": 39.443,"1125": 37.353,"1150": 35.942,"1175": 31.898,"1200": 31.569,"1225": 29.478,"1250": 28.277,"1275": 28.877,"1300": 28.701,"1325": 29.764,"1350": 29.204,"1375": 28.255,"1400": 29.704,"1425": 30.32,"1450": 30.956,"1475": 31.688,"1500": 33.061,"1525": 35.379,"1550": 33.31,"1575": 30.642,"1600": 31.57,"1625": 30.526,"1650": 27.956,"1675": 28.669,"1700": 26.619,"1725": 26.291,"1750": 23.855,"1775": 23.972,"1800": 21.633,"1825": 19.641,"1850": 19.544,"1875": 17.999,"1900": 16.548,"1925": 16.355,"1950": 14.383,"1975": 13.86,"2000": 12.45,"2025": 12.1,"2050": 10.4,"2075": 9.936,"2100": 8.022,"2125": 8.003,"2150": 8.235,"2175": 8.506,"2200": 6.708,"2225": 8.081,"2250": 6.514,"2275": 6.67,"2300": 6.09,"2325": 5.085,"2350": 4.331,"2375": 3.673,"2400": 3.074,"2425": 2.9,"2450": 1.778,"2475": 1.508,"2500": 0.966,"2525": 0.464,"2550": 0.116,"2575": 0.077}}}