{"type": "Feature","bbox": [-69.7616,-49.4548,-66.8685,-48.0917],"geometry": {"type": "MultiPolygon","coordinates": [[[[-67.6762,-49.4437,22.7649],[-67.669,-49.4238,5.4496],[-67.6685,-49.4121,22.5142],[-67.6649,-49.4012,5.9007],[-67.6596,-49.3926,0.0],[-67.6476,-49.3796,0.0],[-67.6476,-49.3771,3.8755],[-67.6407,-49.3665,0.0],[-67.6338,-49.3596,1.6371],[-67.629,-49.3507,4.1364],[-67.6221,-49.3274,1.6619],[-67.604,-49.2993,-0.4338],[-67.6026,-49.276,0.4221],[-67.6085,-49.2704,14.5995],[-67.6093,-49.259,0.2015],[-67.6126,-49.249,2.1827],[-67.6357,-49.2518,6.4873],[-67.6368,-49.2537,15.8038],[-67.6429,-49.2557,0.7034],[-67.6668,-49.2543,0.0],[-67.6732,-49.2482,0.0],[-67.6679,-49.246,16.0602],[-67.666,-49.2412,0.7493],[-67.6743,-49.2201,2.8674],[-67.6671,-49.2165,0.0],[-67.6665,-49.209,0.0],[-67.6637,-49.2029,17.0451],[-67.6596,-49.2029,0.0],[-67.6549,-49.1993,57.7389],[-67.6499,-49.1993,2.6227],[-67.6443,-49.1971,1.8624],[-67.6346,-49.1974,0.0],[-67.634,-49.1957,20.8868],[-67.6315,-49.196,2.635],[-67.6246,-49.1904,0.0],[-67.6176,-49.1896,0.0],[-67.6093,-49.1804,0.0],[-67.6093,-49.1771,0.0],[-67.6146,-49.1729,0.0],[-67.6171,-49.1668,14.2212],[-67.6171,-49.164,11.8777],[-67.6129,-49.1624,0.0],[-67.6132,-49.1599,0.0],[-67.626,-49.1565,17.1076],[-67.6321,-49.1565,9.0365],[-67.6363,-49.1504,2.9737],[-67.6363,-49.1399,3.5849],[-67.6307,-49.129,0.0],[-67.6188,-49.1151,4.2667],[-67.6115,-49.111,7.4286],[-67.601,-49.1076,1.3395],[-67.5982,-49.1029,6.0515],[-67.599,-49.0954,3.4379],[-67.5926,-49.0899,1.314],[-67.591,-49.0865,1.9291],[-67.5826,-49.0676,2.4121],[-67.5815,-49.0563,8.1767],[-67.579,-49.0535,0.0],[-67.5751,-49.0418,0.0],[-67.5696,-49.0343,2.0654],[-67.564,-49.0299,0.0],[-67.556,-49.0185,8.9068],[-67.5415,-49.0065,1.0364],[-67.5285,-49.0001,1.0926],[-67.4965,-48.9729,2.5464],[-67.494,-48.9696,0.1071],[-67.4946,-48.9649,6.6511],[-67.4907,-48.9601,0.8706],[-67.486,-48.9585,0.1592],[-67.4832,-48.9551,2.8413],[-67.4635,-48.9421,1.7231],[-67.4143,-48.9132,0.6358],[-67.3307,-48.874,6.0596],[-67.2962,-48.8626,8.0932],[-67.2668,-48.856,9.3232],[-67.246,-48.8543,0.5856],[-67.2379,-48.8465,4.7771],[-67.2199,-48.8385,0.723],[-67.216,-48.8349,0.8235],[-67.2132,-48.8271,8.1893],[-67.1971,-48.8149,4.7164],[-67.1924,-48.8135,0.0],[-67.1926,-48.8101,0.9426],[-67.1974,-48.8096,9.9518],[-67.1971,-48.8015,8.5553],[-67.1954,-48.7974,10.014],[-67.1896,-48.7935,0.0],[-67.1937,-48.7912,0.0],[-67.1937,-48.786,0.0],[-67.1851,-48.7715,0.0],[-67.1663,-48.7571,4.7595],[-67.1513,-48.749,0.0],[-67.1482,-48.7279,3.344],[-67.1415,-48.7135,10.3181],[-67.1387,-48.7118,0.0],[-67.1407,-48.709,0.0],[-67.1382,-48.7046,0.0],[-67.1404,-48.6965,0.0],[-67.1268,-48.6829,7.3561],[-67.106,-48.6735,0.0],[-67.0821,-48.6651,1.054],[-67.0757,-48.659,6.5544],[-67.0638,-48.6515,4.2049],[-67.0399,-48.646,3.4358],[-67.0215,-48.6374,0.7211],[-67.0207,-48.6357,0.0],[-67.0235,-48.6351,2.8987],[-67.0235,-48.6321,1.5009],[-67.0171,-48.626,4.1734],[-67.0096,-48.6213,0.0],[-66.991,-48.6135,4.2276],[-66.959,-48.6063,0.0],[-66.9324,-48.6054,2.1187],[-66.919,-48.6065,0.0],[-66.9051,-48.6024,4.0849],[-66.8962,-48.6018,1.4214],[-66.8749,-48.5946,0.0],[-66.8685,-48.586,0.0],[-66.8707,-48.5774,0.8616],[-66.8805,-48.5804,18.6517],[-67.1719,-48.4839,76.0233],[-67.5531,-48.113,186.7919],[-67.5874,-48.1123,221.3257],[-67.6161,-48.0917,188.0758],[-68.1855,-48.4446,183.8825],[-68.3354,-48.3796,282.8416],[-68.9883,-48.4183,358.6897],[-69.3553,-48.4383,713.8644],[-69.7344,-48.3221,756.4024],[-69.7616,-49.3182,134.7163],[-68.8268,-49.3168,321.2869],[-68.8226,-49.4548,231.0146],[-67.6762,-49.4437,22.7649]]]]}
,"properties": {"GID_2": "ARG.20.6_1","GID_0": "ARG","country": "Argentina","GID_1": "ARG.20_1","state": "SantaCruz","NL_NAME_1": "NA","county": "Magallanes","VARNAME_2": "SanJulian","NL_NAME_2": "NA","TYPE_2": "Departamento","ENGTYPE_2": "Department","CC_2": "NA","HASC_2": "AR.SC.MA","name": "Magallanes.county","area_km2": 20356.47,"hist_schema_id": "Elevation0-9000","hist_area_km2": {"-50": 2.1,"-25": 23.03,"0": 516.34,"25": 599.53,"50": 409.0,"75": 471.02,"100": 624.19,"125": 1096.93,"150": 1524.09,"175": 2351.82,"200": 2067.89,"225": 2401.17,"250": 1887.14,"275": 1754.34,"300": 1075.05,"325": 668.61,"350": 501.05,"375": 401.52,"400": 354.91,"425": 257.42,"450": 192.93,"475": 97.17,"500": 122.56,"525": 149.29,"550": 171.67,"575": 142.81,"600": 122.24,"625": 78.43,"650": 57.09,"675": 63.96,"700": 45.46,"725": 36.12,"750": 43.76,"775": 25.91,"800": 10.9,"825": 6.22,"850": 2.66}}}