{"type": "Feature","bbox": [-60.7037,-27.0441,-60.2401,-26.5302],"geometry": {"type": "MultiPolygon","coordinates": [[[[-60.5158,-26.5302,100.1194],[-60.7037,-26.9452,94.8758],[-60.4227,-27.0441,84.4147],[-60.2401,-26.6286,89.832],[-60.5158,-26.5302,100.1194]]]]}
,"properties": {"GID_2": "ARG.3.4_1","GID_0": "ARG","country": "Argentina","GID_1": "ARG.3_1","state": "Chaco","NL_NAME_1": "NA","county": "ComandanteFernández","VARNAME_2": "Pcia.RoqueSaenzPena|Comandant","NL_NAME_2": "NA","TYPE_2": "Departamento","ENGTYPE_2": "Department","CC_2": "NA","HASC_2": "AR.CC.CF","name": "ComandanteFernández.county","area_km2": 1477.484,"hist_schema_id": "Elevation0-9000","hist_area_km2": {"75": 85.4,"100": 1392.084}}}