{"type":"Feature","properties":{"GID_2":"ARG.22.23_1","GID_0":"ARG","country":"Argentina","GID_1":"ARG.22_1","state":"SantiagodelEstero","NL_NAME_1":"NA","county":"Robles","VARNAME_2":"Fernandez","NL_NAME_2":"NA","TYPE_2":"Departamento","ENGTYPE_2":"Department","CC_2":"NA","HASC_2":"AR.SE.RO","name":"Robles.county"},
"geometry":{"type": "MultiPolygon","coordinates": [[[[-64.2267,-27.8153,182.1387],[-64.2183,-27.8172,184.0609],[-64.2165,-27.8208,182.9624],[-64.2185,-27.835,180.7008],[-64.2171,-27.8397,181.0196],[-64.2076,-27.8511,180.2392],[-64.2085,-27.8654,176.3796],[-64.1972,-27.8756,174.8659],[-64.1945,-27.8798,174.0783],[-64.1931,-27.8844,175.2787],[-64.1931,-27.8989,172.3085],[-64.1874,-27.9071,173.5215],[-64.1696,-27.9254,171.3004],[-64.1695,-27.9296,171.0948],[-64.1748,-27.9434,167.9221],[-64.1731,-27.9479,167.7003],[-64.17,-27.952,167.5853],[-64.1654,-27.9544,167.1261],[-64.1552,-27.9512,166.9993],[-64.1503,-27.9516,166.8104],[-64.141,-27.9569,169.8563],[-64.1259,-27.9707,164.1715],[-64.1281,-27.9801,163.8139],[-64.1351,-27.9932,161.7936],[-64.1358,-28.0009,162.537],[-64.0726,-27.9882,165.3896],[-64.0688,-28.0131,159.5263],[-63.985,-28.022,153.7269],[-63.9879,-28.0501,152.9446],[-63.9512,-28.0543,148.504],[-63.9466,-28.0246,150.0984],[-63.9579,-28.0214,150.3103],[-63.9518,-27.9835,153.6254],[-63.8081,-28.006,146.1602],[-63.7837,-28.0189,143.859],[-63.7795,-28.0131,144.8153],[-63.7598,-28.0145,143.4793],[-63.7486,-27.995,142.0311],[-63.7201,-27.9988,139.9266],[-63.7029,-27.9375,145.3307],[-63.6854,-27.8426,145.1726],[-63.6933,-27.7711,149.4105],[-63.7256,-27.7667,146.907],[-63.754,-27.7535,150.0349],[-63.8435,-27.7552,155.7068],[-63.8455,-27.7073,155.6945],[-63.8931,-27.6863,159.455],[-63.9137,-27.6883,159.1506],[-63.9089,-27.7009,160.2612],[-63.9236,-27.7014,160.5741],[-63.9321,-27.716,162.0401],[-63.9474,-27.7152,162.7124],[-63.9529,-27.7589,164.9131],[-64.1121,-27.7749,175.8613],[-64.1133,-27.7674,181.2955],[-64.2267,-27.8153,182.1387]]]]}}