{"type": "Feature","bbox": [-60.3101,-33.8072,-59.1101,-32.5196],"geometry": {"type": "MultiPolygon","coordinates": [[[[-59.1857,-33.7994,3.3538],[-59.1857,-33.7807,0.0],[-59.1879,-33.7615,3.5716],[-59.1869,-33.7537,3.6516],[-59.1894,-33.7422,2.0019],[-59.192,-33.7392,0.0],[-59.2264,-33.7191,0.0],[-59.2479,-33.6938,3.1809],[-59.265,-33.6621,2.6623],[-59.2685,-33.6469,2.7306],[-59.2778,-33.6249,2.9415],[-59.2827,-33.6184,0.0],[-59.2999,-33.6054,2.1338],[-59.3114,-33.5932,2.3489],[-59.3182,-33.5788,2.3779],[-59.3269,-33.5651,2.4999],[-59.3274,-33.5534,2.4375],[-59.3346,-33.5488,2.4206],[-59.3576,-33.5427,2.2123],[-59.3735,-33.5347,2.8281],[-59.387,-33.519,2.5368],[-59.3934,-33.5087,0.5502],[-59.41,-33.4952,0.0],[-59.4388,-33.4649,2.5552],[-59.4482,-33.4516,2.8365],[-59.4794,-33.4447,0.0],[-59.5049,-33.4356,1.5461],[-59.5315,-33.429,0.0],[-59.5461,-33.4193,2.661],[-59.5524,-33.4091,2.6668],[-59.555,-33.386,2.5997],[-59.5594,-33.3793,1.3541],[-59.5809,-33.3721,0.0],[-59.6076,-33.3664,0.0],[-59.6242,-33.3603,2.7611],[-59.6297,-33.354,2.7844],[-59.6369,-33.349,2.9208],[-59.6395,-33.3459,3.043],[-59.6399,-33.3419,2.9454],[-59.6387,-33.3381,2.9635],[-59.631,-33.3338,2.8148],[-59.6193,-33.3219,0.5],[-59.6199,-33.318,2.4982],[-59.6225,-33.315,2.8558],[-59.6454,-33.3121,1.2541],[-59.6517,-33.3061,0.5],[-59.6528,-33.3026,0.5],[-59.6403,-33.286,3.3706],[-59.6354,-33.2752,3.3691],[-59.6283,-33.2706,3.2961],[-59.6259,-33.2673,2.5893],[-59.6145,-33.246,3.3508],[-59.5806,-33.2093,3.6727],[-59.5736,-33.2043,3.7965],[-59.5652,-33.201,3.6448],[-59.5475,-33.1972,0.5],[-59.5398,-33.2016,4.2834],[-59.5338,-33.2124,4.3848],[-59.5303,-33.2142,5.286],[-59.5254,-33.2139,4.4366],[-59.5143,-33.2201,6.1634],[-59.4961,-33.223,3.7695],[-59.4777,-33.2243,0.9435],[-59.4692,-33.2213,0.912],[-59.4507,-33.2208,4.389],[-59.4336,-33.2153,3.9476],[-59.4245,-33.2161,3.6339],[-59.4068,-33.2208,4.7327],[-59.3885,-33.2215,5.0347],[-59.3803,-33.2184,5.795],[-59.3642,-33.2043,8.1821],[-59.3611,-33.2051,7.6578],[-59.3552,-33.2126,6.589],[-59.3475,-33.2088,4.9879],[-59.3438,-33.2063,2.8495],[-59.3458,-33.195,5.9395],[-59.3436,-33.1914,6.1918],[-59.3253,-33.1924,4.2245],[-59.3146,-33.1851,4.9693],[-59.3119,-33.182,2.7265],[-59.3119,-33.1784,3.3634],[-59.3154,-33.1668,5.8319],[-59.3052,-33.154,8.1495],[-59.2986,-33.1488,6.4324],[-59.2932,-33.1382,6.4996],[-59.2927,-33.1265,10.819],[-59.2889,-33.1074,14.4123],[-59.2855,-33.1001,13.2463],[-59.2905,-33.0854,15.5157],[-59.2881,-33.074,14.1014],[-59.2619,-33.0472,12.489],[-59.2511,-33.04,7.5424],[-59.2183,-32.9889,11.8164],[-59.2,-32.9762,10.1957],[-59.198,-32.9732,10.7472],[-59.202,-32.9616,11.6069],[-59.2015,-32.9581,10.3474],[-59.1971,-32.9516,10.3734],[-59.1847,-32.9395,11.092],[-59.1638,-32.9243,14.1489],[-59.152,-32.9181,12.2762],[-59.1475,-32.9115,12.861],[-59.1466,-32.9,11.852],[-59.1509,-32.8932,13.7487],[-59.154,-32.8819,12.4467],[-59.1517,-32.8704,13.4343],[-59.1421,-32.8528,14.4453],[-59.1312,-32.8459,14.0253],[-59.1276,-32.8387,13.277],[-59.1277,-32.8349,12.8187],[-59.1365,-32.821,15.2989],[-59.136,-32.8176,14.6476],[-59.124,-32.8056,16.1805],[-59.1155,-32.8018,13.4932],[-59.115,-32.7988,14.3854],[-59.1187,-32.7912,14.5819],[-59.1223,-32.7642,16.8542],[-59.1202,-32.7608,15.517],[-59.1101,-32.7526,15.3116],[-59.1112,-32.7499,15.5171],[-59.1207,-32.7479,15.9823],[-59.1232,-32.7451,17.2648],[-59.13,-32.7143,17.4697],[-59.1268,-32.706,17.4151],[-59.1421,-32.7009,16.8202],[-59.1513,-32.7004,21.5742],[-59.1644,-32.7034,26.6946],[-59.1916,-32.6998,43.7356],[-59.2084,-32.6935,44.7246],[-59.2352,-32.6785,47.5867],[-59.2477,-32.6732,41.5074],[-59.2649,-32.6773,37.7089],[-59.2737,-32.6753,41.0226],[-59.3574,-32.6352,63.9171],[-59.3879,-32.6265,42.7418],[-59.4111,-32.6287,38.5385],[-59.4136,-32.6265,38.5232],[-59.4145,-32.6182,38.6729],[-59.4142,-32.6143,39.2978],[-59.4096,-32.6077,40.178],[-59.4088,-32.6039,40.2941],[-59.4119,-32.5966,40.9228],[-59.4254,-32.5863,46.7054],[-59.43,-32.5714,43.1114],[-59.435,-32.5649,44.0234],[-59.4602,-32.5558,42.14],[-59.4737,-32.5454,45.9215],[-59.4795,-32.5348,47.813],[-59.479,-32.5209,48.9374],[-59.4912,-32.5196,48.9022],[-59.5049,-32.5204,56.7535],[-59.5176,-32.5249,60.5442],[-59.532,-32.5342,56.1156],[-59.5774,-32.538,75.824],[-59.591,-32.5406,78.253],[-59.595,-32.5423,68.2136],[-59.6012,-32.548,71.1716],[-59.6119,-32.5694,83.184],[-59.622,-32.5824,75.6931],[-59.6353,-32.5856,63.1407],[-59.6538,-32.585,53.4695],[-59.6613,-32.5888,55.4991],[-59.6744,-32.6,54.7284],[-59.6828,-32.603,46.4841],[-59.6919,-32.6042,39.7609],[-59.7009,-32.6028,39.1045],[-59.7559,-32.5833,27.3242],[-59.7651,-32.5824,28.568],[-59.7735,-32.5848,29.6756],[-59.7877,-32.6002,24.3164],[-59.7901,-32.6195,23.5452],[-59.7949,-32.6305,21.8276],[-59.7961,-32.642,23.1882],[-59.8008,-32.657,23.821],[-59.8084,-32.6953,21.3815],[-59.8035,-32.7299,16.8257],[-59.8057,-32.7531,16.5683],[-59.8096,-32.7682,16.018],[-59.8224,-32.7975,15.8741],[-59.827,-32.8041,11.0244],[-59.8306,-32.8065,12.8599],[-59.8396,-32.808,14.866],[-59.8478,-32.8114,15.9129],[-59.8553,-32.8212,22.8957],[-59.8673,-32.833,40.2154],[-59.8843,-32.8459,6.2175],[-59.8886,-32.861,5.9822],[-59.8949,-32.8755,6.6268],[-59.9019,-32.8853,7.2939],[-59.903,-32.8892,6.4534],[-59.9018,-32.8926,5.2719],[-59.8857,-32.9064,5.0293],[-59.873,-32.9114,4.9738],[-59.87,-32.9143,4.9526],[-59.8665,-32.9215,4.9586],[-59.8692,-32.929,5.0337],[-59.8722,-32.9319,5.1185],[-59.8807,-32.9352,5.1865],[-59.8896,-32.9347,5.0317],[-59.9077,-32.9227,4.9014],[-59.9375,-32.9122,4.7931],[-59.9487,-32.9048,4.6771],[-59.9526,-32.9046,4.608],[-59.9653,-32.9098,4.6212],[-60.0054,-32.9185,4.9507],[-60.0208,-32.9269,4.7924],[-60.0306,-32.9351,4.7094],[-60.0356,-32.9416,4.6328],[-60.0367,-32.9491,4.4587],[-60.0336,-32.9565,4.3656],[-60.0275,-32.9625,4.5241],[-60.0145,-32.9592,3.0],[-60.0056,-32.9603,3.0],[-60.0003,-32.9665,3.9951],[-59.999,-32.9742,2.5],[-60.0001,-32.9779,4.7841],[-60.0063,-32.9836,4.0848],[-60.0335,-32.9875,3.3037],[-60.0455,-32.9935,2.9158],[-60.0394,-33.0039,3.8368],[-60.0362,-33.0064,4.0031],[-60.027,-33.0074,3.7312],[-59.9951,-33.0043,4.4199],[-59.9912,-33.0062,4.2716],[-59.9892,-33.0098,4.376],[-59.9808,-33.0128,3.164],[-59.9762,-33.0127,3.4397],[-59.9692,-33.0084,3.7776],[-59.9615,-33.0123,3.7509],[-59.9562,-33.0267,4.1072],[-59.9332,-33.0241,4.1214],[-59.9157,-33.0288,4.1757],[-59.9033,-33.0343,3.7334],[-59.9002,-33.037,1.0],[-59.8966,-33.0442,3.5149],[-59.8949,-33.0557,3.633],[-59.8928,-33.0591,3.5967],[-59.8745,-33.0815,3.7991],[-59.8604,-33.0915,1.0],[-59.8525,-33.0877,3.519],[-59.8482,-33.0683,3.8723],[-59.8445,-33.0681,3.8535],[-59.8354,-33.0713,3.7283],[-59.8289,-33.0768,3.6538],[-59.8254,-33.0879,3.5167],[-59.8275,-33.0955,3.4846],[-59.8271,-33.1033,3.587],[-59.8239,-33.1103,3.7294],[-59.8168,-33.1153,3.8417],[-59.7876,-33.126,2.9042],[-59.7863,-33.1299,3.2067],[-59.7922,-33.1446,3.4763],[-59.7969,-33.1511,3.4179],[-59.819,-33.1652,3.4802],[-59.832,-33.1763,3.5242],[-59.8363,-33.1829,3.7146],[-59.8377,-33.1907,3.6826],[-59.8347,-33.214,3.2803],[-59.8332,-33.2176,2.815],[-59.8216,-33.2239,1.5468],[-59.8122,-33.2327,3.4286],[-59.8123,-33.2363,3.3404],[-59.8163,-33.2436,3.3866],[-59.831,-33.2529,3.3608],[-59.8397,-33.262,2.4132],[-59.855,-33.2707,3.36],[-59.868,-33.2748,4.3948],[-59.8818,-33.2747,3.2768],[-59.8897,-33.271,3.6705],[-59.8997,-33.263,3.9136],[-59.9023,-33.2555,4.141],[-59.9045,-33.2323,3.6748],[-59.9074,-33.2295,3.8144],[-59.9205,-33.2256,3.8309],[-59.9273,-33.2306,3.6255],[-59.9285,-33.2344,3.6831],[-59.9213,-33.2612,3.5876],[-59.921,-33.2648,3.6365],[-59.9237,-33.2674,3.6944],[-59.9412,-33.2738,2.0371],[-59.9546,-33.2707,3.5371],[-59.958,-33.2683,3.4438],[-59.9622,-33.2612,3.7989],[-59.9631,-33.2416,2.1557],[-59.9652,-33.2385,3.8352],[-59.9745,-33.2375,4.0775],[-59.9835,-33.2393,3.9836],[-59.9934,-33.2475,4.1797],[-60.0108,-33.2704,4.0921],[-60.0184,-33.2745,4.1571],[-60.0274,-33.2775,1.5],[-60.0315,-33.2772,4.7225],[-60.037,-33.2707,4.3663],[-60.0376,-33.267,3.0],[-60.0342,-33.2516,4.3693],[-60.0358,-33.2361,4.4355],[-60.0402,-33.2293,1.5],[-60.0442,-33.2275,4.37],[-60.0581,-33.2259,4.567],[-60.0657,-33.2309,4.6385],[-60.0591,-33.2353,4.745],[-60.0537,-33.2419,4.5409],[-60.0547,-33.2453,3.6627],[-60.0586,-33.2479,4.1427],[-60.0672,-33.2508,3.0391],[-60.0811,-33.251,4.4723],[-60.0898,-33.2491,4.5516],[-60.1053,-33.2404,3.9347],[-60.1126,-33.2306,4.5589],[-60.1195,-33.2254,4.8703],[-60.1362,-33.2192,3.5],[-60.1413,-33.2197,4.6544],[-60.1525,-33.2265,4.7984],[-60.1668,-33.2468,4.4349],[-60.1706,-33.2469,4.6217],[-60.1883,-33.2403,4.3776],[-60.1984,-33.2277,5.122],[-60.2065,-33.2242,5.1976],[-60.2113,-33.2239,5.0358],[-60.2152,-33.2255,5.1067],[-60.2206,-33.232,4.5],[-60.2286,-33.2456,4.0448],[-60.2334,-33.2462,2.0],[-60.2403,-33.2277,5.6677],[-60.2481,-33.2136,6.6959],[-60.2537,-33.2076,5.7911],[-60.2869,-33.1866,4.5126],[-60.2952,-33.1832,2.0],[-60.3101,-33.1804,2.0],[-60.306,-33.1896,7.6797],[-60.3068,-33.2104,5.1146],[-60.3032,-33.234,2.0],[-60.2999,-33.2391,2.0],[-60.2921,-33.2451,1.875],[-60.237,-33.265,1.5],[-60.2061,-33.2847,1.5],[-60.1978,-33.2941,1.0],[-60.1927,-33.3052,1.0],[-60.1908,-33.3109,1.0],[-60.1904,-33.3287,1.5],[-60.1847,-33.3394,1.125],[-60.1641,-33.351,1.0],[-60.1481,-33.3574,0.5],[-60.1312,-33.3616,0.5],[-60.1193,-33.368,0.5],[-60.1039,-33.3803,0.5],[-60.076,-33.4069,0.5],[-60.0698,-33.4175,0.5],[-60.0683,-33.4234,0.5],[-60.06,-33.4329,0.5],[-60.0387,-33.4433,0.5],[-60.0214,-33.4538,0.5],[-60.0118,-33.4575,6.5727],[-59.9979,-33.4596,3.5192],[-59.9731,-33.4599,3.746],[-59.949,-33.4635,0.0],[-59.9352,-33.4728,0.0],[-59.9224,-33.4905,0.0],[-59.9124,-33.4988,0.0],[-59.8613,-33.5111,5.3428],[-59.832,-33.5216,0.0],[-59.8266,-33.5254,0.0],[-59.8204,-33.5327,0.0],[-59.8182,-33.5564,3.3213],[-59.8203,-33.5681,3.2525],[-59.8186,-33.58,0.0],[-59.8154,-33.585,0.0],[-59.7971,-33.5992,0.0],[-59.7674,-33.6087,0.0],[-59.7532,-33.6096,0.0],[-59.7362,-33.6054,0.0],[-59.7291,-33.6056,0.0],[-59.7089,-33.611,3.5091],[-59.6845,-33.6148,3.4425],[-59.6782,-33.6175,0.5242],[-59.6525,-33.633,0.0],[-59.6461,-33.6435,2.9663],[-59.6428,-33.661,2.9902],[-59.6378,-33.6722,0.0],[-59.63,-33.682,0.0],[-59.6191,-33.6898,0.0],[-59.6086,-33.69,0.0],[-59.5962,-33.6842,2.8081],[-59.5618,-33.6543,0.0],[-59.5448,-33.6352,2.1262],[-59.5355,-33.6315,0.0],[-59.5178,-33.6317,0.0],[-59.508,-33.6354,2.1752],[-59.5028,-33.6393,3.6114],[-59.4899,-33.6535,2.7097],[-59.4814,-33.6698,1.6325],[-59.4702,-33.704,0.0],[-59.4594,-33.7194,0.0],[-59.4514,-33.7251,0.0],[-59.4113,-33.737,0.0],[-59.383,-33.7374,0.0],[-59.369,-33.7354,0.0],[-59.3351,-33.7265,1.6179],[-59.3033,-33.7259,0.0],[-59.2733,-33.7167,2.5195],[-59.2557,-33.7182,1.1841],[-59.2501,-33.722,0.0],[-59.2465,-33.7269,0.0],[-59.2453,-33.7329,1.3028],[-59.2548,-33.7614,3.0468],[-59.2551,-33.7791,0.0],[-59.2411,-33.7998,2.8482],[-59.2324,-33.8047,4.7452],[-59.2221,-33.8072,3.0071],[-59.1959,-33.7979,3.4547],[-59.1857,-33.7994,3.3538]]]]}
,"properties": {"GID_2": "ARG.8.7_1","GID_0": "ARG","country": "Argentina","GID_1": "ARG.8_1","state": "EntreRíos","NL_NAME_1": "NA","county": "Gualeguay","VARNAME_2": "NA","NL_NAME_2": "NA","TYPE_2": "Departamento","ENGTYPE_2": "Department","CC_2": "NA","HASC_2": "AR.ER.GG","name": "Gualeguay.county","area_km2": 6690.228,"hist_schema_id": "Elevation0-9000","hist_area_km2": {"0": 3941.216,"25": 1300.492,"50": 1066.358,"75": 378.108,"100": 4.054}}}