{"type":"Feature","properties":{"GID_2":"ARG.12.2_1","GID_0":"ARG","country":"Argentina","GID_1":"ARG.12_1","state":"LaRioja","NL_NAME_1":"NA","county":"Capital","VARNAME_2":"LaRioja|Capital(LaRioja)","NL_NAME_2":"NA","TYPE_2":"Departamento","ENGTYPE_2":"Department","CC_2":"NA","HASC_2":"AR.LR.LR","name":"Capital.county"},
"geometry":{"type": "MultiPolygon","coordinates": [[[[-66.3397,-28.7288,1350.6326],[-66.7347,-28.8523,859.0613],[-66.7754,-29.049,1817.0488],[-66.7907,-29.0615,2201.6055],[-66.7997,-29.0714,2464.0244],[-66.8163,-29.1204,1542.5249],[-66.8322,-29.1516,1396.4575],[-66.8446,-29.1647,1298.7197],[-66.8686,-29.1792,2026.7881],[-66.8781,-29.1889,2087.2627],[-66.8851,-29.2047,1774.5455],[-66.8913,-29.2384,1998.5953],[-66.8981,-29.2544,1866.3098],[-66.9096,-29.2681,2210.324],[-66.9273,-29.2826,1938.5878],[-66.9311,-29.2905,1688.8572],[-66.9351,-29.3028,1599.3792],[-66.9419,-29.345,1524.8286],[-66.9482,-29.3611,1791.8397],[-66.9865,-29.3997,925.2296],[-67.0094,-29.4156,1462.8481],[-67.0297,-29.4273,1442.7711],[-67.0386,-29.4308,1461.4774],[-67.0529,-29.4333,1465.8243],[-67.0672,-29.4307,1967.4508],[-67.0715,-29.4288,2244.4072],[-67.0818,-29.4197,2256.3325],[-67.09,-29.4055,2482.9634],[-67.097,-29.4179,2461.4971],[-67.1014,-29.43,2255.96],[-67.1011,-29.4428,2322.5522],[-67.0972,-29.4552,2535.3755],[-67.0885,-29.4704,2438.5452],[-67.0791,-29.48,2230.5439],[-67.0626,-29.4892,1842.9487],[-67.0516,-29.4977,1933.0219],[-67.0403,-29.5165,1628.0266],[-67.0319,-29.5364,2119.7683],[-67.0298,-29.5491,1991.401],[-67.0308,-29.5533,2257.9841],[-67.0458,-29.5847,2275.9399],[-67.0596,-29.6301,2362.3538],[-67.0606,-29.6386,2332.6265],[-67.0559,-29.6638,2334.3853],[-67.0458,-29.6968,2036.874],[-67.0336,-29.7152,1523.8171],[-67.03,-29.7534,1573.2432],[-67.019,-29.7723,1294.8721],[-66.9974,-29.7896,1080.5884],[-66.9762,-29.819,972.4485],[-66.6092,-29.8491,334.2946],[-66.6322,-30.1102,372.3465],[-66.5256,-30.1472,382.0943],[-66.4822,-30.1864,376.9083],[-66.4303,-30.0243,336.2161],[-65.7008,-29.8271,256.625],[-65.5331,-29.8278,202.3931],[-65.5468,-29.7964,204.6823],[-65.5857,-29.693,215.2415],[-65.6347,-29.5759,227.1523],[-65.7201,-29.3555,252.8081],[-65.7526,-29.2773,263.6662],[-65.829,-29.2534,270.0891],[-65.8286,-29.1809,280.1783],[-66.1098,-28.9408,323.7824],[-66.1695,-28.9111,352.0109],[-66.2199,-28.8898,379.7755],[-66.2365,-28.8992,373.6946],[-66.2484,-28.9014,374.961],[-66.2635,-28.9017,376.0123],[-66.2783,-28.8991,382.3991],[-66.2925,-28.8945,392.4069],[-66.3126,-28.8829,411.6165],[-66.3354,-28.8755,444.6998],[-66.3806,-28.8735,537.3109],[-66.3892,-28.8708,542.4114],[-66.396,-28.8656,564.5515],[-66.4034,-28.854,613.3402],[-66.4018,-28.8408,704.9709],[-66.3739,-28.8095,1202.3792],[-66.3662,-28.7894,1242.7821],[-66.3635,-28.7709,1154.2859],[-66.3598,-28.7608,1198.1908],[-66.3552,-28.7575,1237.6729],[-66.3373,-28.7538,1522.8107],[-66.3335,-28.75,1694.8016],[-66.331,-28.7395,1741.1342],[-66.3334,-28.7346,1596.6752],[-66.3397,-28.7288,1350.6326]]]]}}