{"type": "Feature","bbox": [-58.3031,-27.9905,-57.2329,-27.4141],"geometry": {"type": "MultiPolygon","coordinates": [[[[-57.8363,-27.4611,64.9356],[-57.8378,-27.4667,71.4275],[-57.8468,-27.4824,65.5688],[-57.8782,-27.5279,65.439],[-57.8954,-27.5426,65.6826],[-57.9144,-27.5556,65.6151],[-57.9195,-27.5611,65.8648],[-57.9239,-27.571,65.5714],[-57.9313,-27.5985,65.4142],[-57.9457,-27.6155,65.3798],[-57.9531,-27.6185,65.2629],[-57.9686,-27.6213,65.1973],[-57.9888,-27.6384,65.17],[-58.0163,-27.6419,64.8695],[-58.0366,-27.6533,64.9126],[-58.0476,-27.6576,64.8574],[-58.0591,-27.6603,64.7326],[-58.079,-27.6621,64.4941],[-58.0971,-27.6695,64.4007],[-58.137,-27.6933,64.1849],[-58.1661,-27.7176,63.9476],[-58.2059,-27.7473,63.6796],[-58.2387,-27.7604,62.7314],[-58.2858,-27.7681,64.0682],[-58.3016,-27.7789,63.1638],[-58.3031,-27.782,63.0306],[-58.3008,-27.7888,62.9771],[-58.2942,-27.7925,62.9888],[-58.2826,-27.7951,63.99],[-58.276,-27.7992,63.8822],[-58.2541,-27.8197,68.4218],[-58.2295,-27.8316,65.3109],[-58.2218,-27.8331,65.7257],[-58.21,-27.8313,65.6701],[-58.1796,-27.8226,65.1187],[-58.1547,-27.8113,64.8519],[-58.1324,-27.8036,66.8955],[-58.1007,-27.7996,65.403],[-58.0773,-27.7948,65.8051],[-58.0246,-27.7987,65.5581],[-58.0889,-27.8457,70.1639],[-58.0783,-27.8821,71.7615],[-58.0416,-27.8866,68.0255],[-58.0337,-27.8863,68.1351],[-58.0014,-27.9577,68.2085],[-57.9827,-27.9499,69.1413],[-57.9778,-27.9582,67.2898],[-57.934,-27.9398,67.5678],[-57.9159,-27.9791,69.7459],[-57.9145,-27.9905,64.862],[-57.8513,-27.9727,65.1934],[-57.796,-27.9518,65.1848],[-57.7408,-27.923,65.1286],[-57.7199,-27.9065,65.8489],[-57.7095,-27.8872,65.7779],[-57.6945,-27.8662,65.9315],[-57.6917,-27.8595,66.8581],[-57.6516,-27.8107,67.0286],[-57.6287,-27.786,70.9136],[-57.6038,-27.7629,67.2365],[-57.5886,-27.7513,67.2733],[-57.5556,-27.7312,67.3646],[-57.5025,-27.6934,67.8631],[-57.4853,-27.6845,68.379],[-57.4453,-27.6683,67.8384],[-57.4187,-27.6525,67.9415],[-57.4069,-27.643,68.0015],[-57.4002,-27.6343,72.1434],[-57.3998,-27.6236,68.0221],[-57.3959,-27.6175,68.0058],[-57.3469,-27.587,67.9382],[-57.3346,-27.573,68.063],[-57.3124,-27.5579,67.9494],[-57.2968,-27.5418,68.0707],[-57.2704,-27.5202,69.1989],[-57.2409,-27.4913,55.5881],[-57.2349,-27.482,59.651],[-57.2353,-27.4786,57.6876],[-57.2477,-27.4697,56.1673],[-57.2615,-27.4624,59.9228],[-57.2645,-27.4557,53.5],[-57.2623,-27.4533,53.5],[-57.2329,-27.4422,53.5],[-57.2503,-27.4374,55.4252],[-57.2883,-27.4216,53.5],[-57.3081,-27.4163,53.5],[-57.3258,-27.4141,53.5],[-57.3971,-27.4238,50.0],[-57.3991,-27.4414,68.7109],[-57.4112,-27.479,68.3201],[-57.4541,-27.5302,68.5807],[-57.4648,-27.5492,68.4078],[-57.4873,-27.5561,68.5094],[-57.4991,-27.5656,68.3171],[-57.5204,-27.5752,67.8654],[-57.5391,-27.5886,67.6045],[-57.5637,-27.6118,67.9039],[-57.5828,-27.6172,67.9569],[-57.5911,-27.6245,67.8282],[-57.5981,-27.6278,67.7558],[-57.602,-27.6276,67.7164],[-57.6027,-27.6241,67.7265],[-57.6012,-27.6136,67.6875],[-57.5962,-27.6039,67.6328],[-57.5904,-27.5992,67.5166],[-57.6713,-27.5808,67.0129],[-57.6643,-27.5623,67.2033],[-57.7203,-27.5473,66.5141],[-57.7034,-27.5023,65.4416],[-57.7014,-27.4846,65.8331],[-57.7128,-27.4825,65.6945],[-57.7526,-27.4841,65.3795],[-57.7633,-27.4794,65.4068],[-57.8139,-27.47,63.9117],[-57.8363,-27.4611,64.9356]]]]}
,"properties": {"GID_2": "ARG.7.9_1","GID_0": "ARG","country": "Argentina","GID_1": "ARG.7_1","state": "Corrientes","NL_NAME_1": "NA","county": "GeneralPaz","VARNAME_2": "GaneralPaz","NL_NAME_2": "NA","TYPE_2": "Departamento","ENGTYPE_2": "Department","CC_2": "NA","HASC_2": "AR.CN.GP","name": "GeneralPaz.county","area_km2": 2592.775,"hist_schema_id": "Elevation0-9000","hist_area_km2": {"50": 50.457,"75": 2539.054,"100": 3.265}}}