{"type":"Feature","properties":{"GID_2":"ARG.18.11_1","GID_0":"ARG","country":"Argentina","GID_1":"ARG.18_1","state":"SanJuan","NL_NAME_1":"NA","county":"Rivadavia","VARNAME_2":"NA","NL_NAME_2":"NA","TYPE_2":"Departamento","ENGTYPE_2":"Department","CC_2":"NA","HASC_2":"AR.SJ.RI","name":"Rivadavia.county"},
"geometry":{"type": "MultiPolygon","coordinates": [[[[-68.6324,-31.5016,703.5686],[-68.6368,-31.5002,707.3884],[-68.6425,-31.4945,733.0817],[-68.6471,-31.4799,749.3597],[-68.6499,-31.477,774.9298],[-68.6563,-31.4783,919.2834],[-68.6648,-31.4886,922.1722],[-68.6797,-31.5216,970.679],[-68.7019,-31.5582,924.7542],[-68.7017,-31.5599,833.5222],[-68.6895,-31.5614,911.47],[-68.689,-31.5633,984.104],[-68.6935,-31.5837,1415.5293],[-68.6934,-31.6014,1459.5266],[-68.6962,-31.6144,1502.5117],[-68.6521,-31.6151,723.9187],[-68.6307,-31.6128,667.8353],[-68.6303,-31.6018,676.1282],[-68.616,-31.5768,687.7776],[-68.6088,-31.5688,687.7197],[-68.6064,-31.5635,689.7295],[-68.6015,-31.564,686.4904],[-68.6078,-31.543,693.4397],[-68.6067,-31.5364,691.8021],[-68.5974,-31.5376,683.4592],[-68.5596,-31.5539,655.2058],[-68.5533,-31.5543,650.01],[-68.5489,-31.5494,648.3141],[-68.5462,-31.5443,647.2629],[-68.549,-31.5415,650.1572],[-68.5494,-31.5386,651.7809],[-68.564,-31.5366,662.7073],[-68.5665,-31.5299,665.4264],[-68.568,-31.5162,664.4812],[-68.5637,-31.516,661.9854],[-68.5637,-31.5112,661.9227],[-68.5551,-31.5105,657.0573],[-68.5556,-31.5016,658.1611],[-68.5688,-31.5027,663.6159],[-68.5922,-31.5011,679.8607],[-68.5994,-31.5028,688.9802],[-68.6324,-31.5016,703.5686]]]]}}