{"type":"Feature","properties":{"GID_2":"ARG.1.61_1","GID_0":"ARG","country":"Argentina","GID_1":"ARG.1_1","state":"BuenosAires","NL_NAME_1":"NA","county":"LaCosta","VARNAME_2":"NN","NL_NAME_2":"NA","TYPE_2":"Partido","ENGTYPE_2":"Part","CC_2":"NA","HASC_2":"AR.BA.LC","name":"LaCosta.county"},
"geometry":{"type": "MultiPolygon","coordinates": [[[[-56.8361,-37.0237,3.8354],[-56.7932,-37.0374,0.5069],[-56.7513,-36.9824,4.3283],[-56.7262,-36.956,2.5336],[-56.7151,-36.941,3.3898],[-56.686,-36.9082,1.0108],[-56.6854,-36.9051,3.1124],[-56.6782,-36.8968,1.8059],[-56.6674,-36.8782,3.1465],[-56.6685,-36.8607,1.0689],[-56.6763,-36.8326,3.2563],[-56.6751,-36.7943,0.0],[-56.6765,-36.7796,3.1391],[-56.6749,-36.7765,0.0],[-56.6732,-36.7529,0.0],[-56.6732,-36.7212,0.0],[-56.6785,-36.6596,0.0],[-56.6846,-36.6171,3.2234],[-56.691,-36.4915,1.8874],[-56.7004,-36.4057,0.0],[-56.7143,-36.3599,0.0],[-56.7229,-36.3443,0.0],[-56.7332,-36.3321,1.8642],[-56.7313,-36.329,0.0],[-56.734,-36.3249,1.1589],[-56.7454,-36.3126,1.8742],[-56.749,-36.3124,1.9502],[-56.7574,-36.3018,0.0],[-56.7738,-36.2957,0.0],[-56.7768,-36.2965,0.0],[-56.7735,-36.3021,0.4815],[-56.7782,-36.3046,0.0],[-56.7779,-36.3074,0.0],[-56.781,-36.3132,0.0],[-56.7765,-36.316,0.0],[-56.7729,-36.3265,0.0],[-56.7663,-36.3288,0.3474],[-56.7679,-36.3312,0.9448],[-56.7704,-36.3301,0.0],[-56.7699,-36.3346,0.0],[-56.7571,-36.3413,0.4914],[-56.7571,-36.3451,0.2702],[-56.7508,-36.3499,1.0289],[-56.7466,-36.3578,1.3144],[-56.7435,-36.387,2.5103],[-56.7282,-36.4173,2.6312],[-56.7228,-36.4597,2.9643],[-56.7241,-36.4794,2.8986],[-56.721,-36.5338,2.9152],[-56.7447,-36.5322,2.6679],[-56.732,-36.5486,3.2654],[-56.7205,-36.5599,2.8344],[-56.7162,-36.6072,3.6906],[-56.7167,-36.617,4.158],[-56.7106,-36.6371,3.83],[-56.7083,-36.7136,5.1565],[-56.7085,-36.7621,7.382],[-56.7215,-36.8167,8.3915],[-56.7087,-36.8443,10.424],[-56.7223,-36.8769,11.7168],[-56.744,-36.9006,9.9784],[-56.7588,-36.9232,8.5584],[-56.7871,-36.9562,3.6858],[-56.7985,-36.9752,5.5448],[-56.8361,-37.0237,3.8354]]]]}}