{"type":"Feature","properties":{"GID_2":"ARG.1.14_1","GID_0":"ARG","country":"Argentina","GID_1":"ARG.1_1","state":"BuenosAires","NL_NAME_1":"NA","county":"Berazategui","VARNAME_2":"NA","NL_NAME_2":"NA","TYPE_2":"Partido","ENGTYPE_2":"Part","CC_2":"NA","HASC_2":"AR.BA.BZ","name":"Berazategui.county"},
"geometry":{"type": "MultiPolygon","coordinates": [[[[-58.1918,-34.7373,0.0],[-58.2684,-34.7773,22.3253],[-58.2537,-34.794,17.7971],[-58.2401,-34.8038,20.3361],[-58.2265,-34.8099,18.901],[-58.2157,-34.8121,17.3169],[-58.2004,-34.818,8.8136],[-58.1962,-34.8245,12.3829],[-58.1812,-34.869,24.905],[-58.2476,-34.9264,26.9181],[-58.2124,-34.954,26.4774],[-58.2051,-34.9477,26.5408],[-58.2095,-34.9443,27.0528],[-58.1481,-34.8913,22.3006],[-58.1494,-34.8904,24.8685],[-58.0148,-34.7804,1.0609],[-58.0243,-34.7779,0.0],[-58.0557,-34.776,0.0],[-58.0713,-34.771,0.0],[-58.1018,-34.7551,1.4811],[-58.1138,-34.751,0.0],[-58.1674,-34.7471,0.8169],[-58.1765,-34.7438,0.0],[-58.179,-34.7443,0.0],[-58.1918,-34.7373,0.0]]]]}}