{"type":"Feature","properties":{"GID_2":"ARG.7.8_1","GID_0":"ARG","country":"Argentina","GID_1":"ARG.7_1","state":"Corrientes","NL_NAME_1":"NA","county":"GeneralAlvear","VARNAME_2":"Alvear","NL_NAME_2":"NA","TYPE_2":"Departamento","ENGTYPE_2":"Department","CC_2":"NA","HASC_2":"AR.CN.GA","name":"GeneralAlvear.county"},
"geometry":{"type": "MultiPolygon","coordinates": [[[[-56.5973,-29.1267,45.5],[-56.5966,-29.1276,45.5],[-56.5931,-29.123,45.5],[-56.5863,-29.1199,45.5],[-56.5761,-29.1169,45.5],[-56.5395,-29.1098,46.0],[-56.5125,-29.0963,52.4035],[-56.4963,-29.0901,46.5],[-56.4521,-29.0854,47.0],[-56.4348,-29.08,47.0],[-56.4284,-29.0765,47.0],[-56.4173,-29.0627,47.0],[-56.4147,-29.0527,47.5],[-56.4032,-29.0297,47.5],[-56.4015,-29.0207,47.5],[-56.4028,-29.0142,48.0],[-56.4124,-28.9985,56.4582],[-56.4102,-28.9766,48.0],[-56.3907,-28.9566,48.0],[-56.3803,-28.9499,48.0],[-56.3453,-28.937,48.0],[-56.3238,-28.9244,48.0],[-56.3225,-28.9252,48.0],[-56.314,-28.916,48.0],[-56.306399999999996,-28.8997,52.3487],[-56.3245,-28.7834,51.6641],[-56.3233,-28.7763,53.2301],[-56.3385,-28.7788,55.1571],[-56.3604,-28.7872,61.5203],[-56.3636,-28.7853,68.4021],[-56.3722,-28.7736,56.0705],[-56.3978,-28.7631,61.6577],[-56.4224,-28.7396,64.519],[-56.4277,-28.73,65.8597],[-56.4348,-28.6942,64.1899],[-56.4774,-28.6941,66.5742],[-56.3898,-28.6089,66.3047],[-56.3932,-28.5725,66.9707],[-56.3935,-28.5335,68.3679],[-56.4014,-28.5096,76.4895],[-56.4089,-28.497,75.1178],[-56.4164,-28.4887,75.9884],[-56.4202,-28.4677,87.087],[-56.4244,-28.4577,84.1439],[-56.4292,-28.452,88.8872],[-56.4392,-28.446,86.7969],[-56.4685,-28.4345,87.8978],[-56.4842,-28.4313,75.1546],[-56.5001,-28.4333,67.681],[-56.5202,-28.4327,68.9456],[-56.5313,-28.4286,59.6235],[-56.5552,-28.4262,66.9401],[-56.5621,-28.421,73.7913],[-56.5889,-28.4477,71.5281],[-56.5942,-28.4573,74.9796],[-56.5988,-28.4745,71.2803],[-56.6105,-28.4888,67.1299],[-56.6116,-28.4958,64.8521],[-56.6053,-28.505,64.7692],[-56.6041,-28.5118,58.3164],[-56.6095,-28.5252,57.5929],[-56.6139,-28.5312,57.3138],[-56.6206,-28.5348,57.0975],[-56.6402,-28.5304,57.0446],[-56.6439,-28.5308,57.0461],[-56.6579,-28.5437,56.3038],[-56.6735,-28.5549,69.5151],[-56.6778,-28.5648,68.9441],[-56.6751,-28.5824,63.8647],[-56.6783,-28.5927,68.5641],[-56.6774,-28.596,59.6387],[-56.6726,-28.6017,55.5026],[-56.6633,-28.6086,55.0646],[-56.6617,-28.6118,55.9983],[-56.6625,-28.6224,54.758],[-56.6672,-28.6433,54.6789],[-56.6668,-28.6469,53.9652],[-56.6623,-28.6528,54.1503],[-56.662,-28.6564,54.3698],[-56.6726,-28.6714,54.3274],[-56.6771,-28.685,53.8134],[-56.6894,-28.6943,53.5402],[-56.6978,-28.7063,52.7999],[-56.7074,-28.7129,64.3718],[-56.7103,-28.7195,61.2012],[-56.72,-28.731,67.8352],[-56.7192,-28.7339,67.5499],[-56.7123,-28.7376,72.4202],[-56.7111,-28.7588,52.2842],[-56.7173,-28.7679,57.5632],[-56.7192,-28.7749,63.8059],[-56.7126,-28.7877,52.6424],[-56.7151,-28.7982,53.0424],[-56.7109,-28.808,52.1489],[-56.7202,-28.8195,52.3703],[-56.7212,-28.8301,51.8101],[-56.7189,-28.8329,51.5914],[-56.7118,-28.8351,51.2447],[-56.7114,-28.8423,51.1195],[-56.7012,-28.8467,50.9968],[-56.699,-28.8532,50.8854],[-56.6915,-28.8558,50.3547],[-56.6895,-28.8588,49.4755],[-56.6936,-28.8687,50.1805],[-56.6916,-28.8754,49.8574],[-56.6917,-28.8822,50.2669],[-56.6891,-28.8889,50.2784],[-56.6916,-28.8991,50.229],[-56.6888,-28.9203,50.9139],[-56.6825,-28.9333,50.6515],[-56.6854,-28.9507,49.5482],[-56.6836,-28.9611,52.2934],[-56.6822,-28.9645,59.0959],[-56.679,-28.9666,54.2002],[-56.6676,-28.9679,47.5931],[-56.6696,-28.9787,59.987],[-56.6684,-28.9821,59.1987],[-56.6528,-28.9984,48.1644],[-56.645,-28.9989,46.867],[-56.6417,-28.9975,48.9306],[-56.6406,-28.9867,47.5531],[-56.6338,-28.9832,49.1192],[-56.6309,-28.985,49.167],[-56.6249,-28.9946,46.2757],[-56.6272,-29.0087,47.4368],[-56.626,-29.0119,48.0168],[-56.619,-29.0159,47.5953],[-56.6193,-29.0192,48.7131],[-56.625,-29.0286,48.4075],[-56.6257,-29.0432,48.1559],[-56.6234,-29.045,48.3447],[-56.615,-29.0453,48.8135],[-56.5991,-29.0419,48.7363],[-56.5972,-29.044,49.1674],[-56.5998,-29.0584,46.0],[-56.5993,-29.069,49.9805],[-56.6016,-29.0718,49.5791],[-56.6123,-29.0766,49.728],[-56.6152,-29.0832,48.3893],[-56.614,-29.0898,49.5082],[-56.622,-29.0907,50.0529],[-56.6247,-29.0972,50.2348],[-56.6237,-29.1007,50.1797],[-56.6165,-29.1026,50.2452],[-56.6102,-29.1071,50.4966],[-56.5973,-29.1267,45.5]]]]}}