{"type": "Feature","bbox": [-71.9096,-42.0105,-71.1206,-41.0225],"geometry": {"type": "MultiPolygon","coordinates": [[[[-71.1699,-41.9995,724.4816],[-71.2365,-41.9518,987.4509],[-71.2208,-41.8577,1529.5554],[-71.3006,-41.8211,1884.3561],[-71.2214,-41.6692,1262.7789],[-71.2293,-41.392,1975.8972],[-71.2202,-41.3381,1760.7501],[-71.2022,-41.3363,1421.0509],[-71.1906,-41.3334,1359.9644],[-71.1866,-41.3305,1344.783],[-71.185,-41.3237,1290.1782],[-71.1859,-41.3215,1225.4849],[-71.1953,-41.316,1313.5415],[-71.2092,-41.3118,1326.4486],[-71.2135,-41.3086,1343.0992],[-71.2171,-41.3025,1337.9102],[-71.2167,-41.2912,1267.762],[-71.2136,-41.2848,1147.6831],[-71.2042,-41.2793,1116.2858],[-71.1964,-41.2724,1143.9753],[-71.1845,-41.2493,962.9179],[-71.1696,-41.2297,1034.7611],[-71.163,-41.2124,912.0964],[-71.1617,-41.192,886.9874],[-71.1539,-41.1774,865.9797],[-71.1482,-41.1694,855.075],[-71.1331,-41.1585,840.0034],[-71.1236,-41.147,826.7375],[-71.1206,-41.136,817.2183],[-71.1255,-41.1231,808.3172],[-71.1308,-41.1177,847.9037],[-71.1361,-41.1156,800.9304],[-71.1399,-41.1095,795.8571],[-71.1465,-41.105,795.6393],[-71.1514,-41.0919,820.0807],[-71.1547,-41.0883,802.2853],[-71.1692,-41.0906,777.7422],[-71.1837,-41.088,771.41],[-71.2133,-41.0907,768.0],[-71.2251,-41.0896,768.0],[-71.2366,-41.0944,768.0],[-71.2888,-41.0964,768.0],[-71.3194,-41.0951,768.0],[-71.3525,-41.0902,768.0],[-71.3613,-41.0882,768.0],[-71.3737,-41.0814,768.0],[-71.43,-41.058,768.0],[-71.4591,-41.0411,768.0],[-71.4954,-41.0384,768.0],[-71.5377,-41.0247,768.0],[-71.5587,-41.0272,768.0],[-71.599,-41.038,768.0],[-71.6388,-41.0361,768.0],[-71.6687,-41.0311,768.0],[-71.7172,-41.0259,768.0],[-71.7385,-41.0254,768.0],[-71.7566,-41.0225,768.0],[-71.7805,-41.0262,897.0928],[-71.7984,-41.0232,768.0],[-71.8107,-41.0235,800.3193],[-71.822,-41.0269,858.8409],[-71.8398,-41.0242,927.0229],[-71.847,-41.0312,1449.3315],[-71.8428,-41.0353,1414.2567],[-71.8385,-41.0367,1375.4978],[-71.8334,-41.0431,1453.9175],[-71.8358,-41.0504,1334.244],[-71.8282,-41.0575,1340.5022],[-71.8248,-41.056,1312.0292],[-71.8182,-41.0626,1311.9636],[-71.8199,-41.0668,1158.205],[-71.8278,-41.069,1033.0587],[-71.829,-41.0748,1097.932],[-71.8362,-41.0779,1351.8236],[-71.8391,-41.0776,1466.6882],[-71.8444,-41.0813,1593.5214],[-71.8461,-41.0837,1611.6748],[-71.8461,-41.0889,1659.2288],[-71.8482,-41.0913,1724.512],[-71.848,-41.096,1661.4934],[-71.8512,-41.0987,1554.8265],[-71.8482,-41.1018,1552.3583],[-71.8426,-41.1036,1600.5479],[-71.8462,-41.1076,1540.6075],[-71.8454,-41.1107,1540.2563],[-71.8358,-41.1176,1714.1676],[-71.843,-41.1306,1851.6206],[-71.8403,-41.1339,2041.9487],[-71.8396,-41.1389,2173.6311],[-71.8413,-41.1422,2193.8979],[-71.8395,-41.1433,2108.8623],[-71.8389,-41.1489,1985.6143],[-71.8422,-41.151,2014.1199],[-71.8653,-41.1541,2363.3657],[-71.8686,-41.159,2628.5498],[-71.8724,-41.1604,2897.8542],[-71.8867,-41.1611,3397.0112],[-71.8856,-41.1636,3233.3682],[-71.8871,-41.1683,3088.8193],[-71.8826,-41.1737,2861.6753],[-71.8823,-41.1783,2669.6406],[-71.8782,-41.1885,2380.1328],[-71.8723,-41.1964,2200.4607],[-71.8731,-41.2055,2083.0894],[-71.8549,-41.2139,1801.2229],[-71.8583,-41.2242,1422.845],[-71.854,-41.2294,1480.3281],[-71.8577,-41.2294,1463.3594],[-71.8594,-41.2337,1542.5374],[-71.8547,-41.2361,1491.2451],[-71.8503,-41.236,1440.827],[-71.8439,-41.2445,1495.4434],[-71.8506,-41.2439,1470.7809],[-71.8557,-41.2469,1474.5114],[-71.8555,-41.2483,1465.0931],[-71.8506,-41.2506,1454.5757],[-71.834,-41.2717,1765.5182],[-71.8367,-41.2736,1832.6058],[-71.8396,-41.2707,1752.6367],[-71.8458,-41.2691,1842.9092],[-71.8483,-41.2616,1723.9817],[-71.8562,-41.2578,1615.9094],[-71.8627,-41.2583,1579.6902],[-71.8671,-41.2561,1568.8694],[-71.8773,-41.2606,1351.9318],[-71.8847,-41.2605,1351.286],[-71.899,-41.2555,1609.9349],[-71.8886,-41.2655,1290.8951],[-71.8901,-41.2685,1272.7346],[-71.8967,-41.2715,1460.183],[-71.8976,-41.2778,1376.0074],[-71.8912,-41.2787,1445.146],[-71.8924,-41.2845,1513.0601],[-71.8897,-41.2885,1762.8032],[-71.8928,-41.2925,1828.8301],[-71.8837,-41.2932,1596.2056],[-71.8761,-41.2961,1805.5718],[-71.8775,-41.2989,1754.5076],[-71.8762,-41.3088,1772.6047],[-71.8813,-41.31,1701.5081],[-71.8864,-41.3148,1689.0725],[-71.881,-41.3229,1701.092],[-71.8861,-41.3268,1435.2859],[-71.9007,-41.3311,1353.6907],[-71.9012,-41.3329,1386.7935],[-71.897,-41.3371,1423.6624],[-71.8982,-41.3406,1451.6951],[-71.9057,-41.3404,1567.5648],[-71.9089,-41.3421,1660.8621],[-71.9071,-41.3473,1758.368],[-71.9096,-41.3587,1698.4839],[-71.9082,-41.3624,1677.6851],[-71.9012,-41.3629,1615.1846],[-71.8973,-41.3658,1583.5032],[-71.8903,-41.3675,1674.0181],[-71.8901,-41.3732,1660.3293],[-71.8869,-41.3807,1581.9126],[-71.8796,-41.3829,1597.0485],[-71.877,-41.3855,1513.9092],[-71.8755,-41.3886,1417.7761],[-71.877,-41.3923,1335.7466],[-71.8658,-41.3972,1740.6721],[-71.8656,-41.3997,1793.8334],[-71.8709,-41.4088,1732.9939],[-71.8644,-41.422,1730.4937],[-71.8493,-41.4287,1382.7205],[-71.8397,-41.4288,1093.5413],[-71.8364,-41.4327,1099.965],[-71.8394,-41.4401,1332.1844],[-71.8348,-41.4424,1447.4103],[-71.8443,-41.4543,1504.1781],[-71.8422,-41.4636,1966.7422],[-71.8362,-41.4661,1970.1997],[-71.8382,-41.4729,1892.067],[-71.8371,-41.4756,1747.571],[-71.8287,-41.4805,1778.4753],[-71.8313,-41.4842,1672.0404],[-71.8395,-41.4902,1133.7834],[-71.8406,-41.4932,1024.8524],[-71.8386,-41.4999,896.7177],[-71.8442,-41.5031,561.3162],[-71.8467,-41.5094,443.069],[-71.849,-41.5103,472.6213],[-71.8524,-41.5155,609.9081],[-71.8472,-41.5262,1162.4471],[-71.8488,-41.5326,1152.0833],[-71.848,-41.5359,1138.7783],[-71.8397,-41.5397,1443.8335],[-71.8389,-41.5481,1518.4344],[-71.8281,-41.5512,1633.4398],[-71.8311,-41.5558,1507.2819],[-71.83,-41.5612,1301.6404],[-71.8176,-41.5756,1683.7986],[-71.8244,-41.5754,1621.5543],[-71.832,-41.5728,1388.2399],[-71.836,-41.5671,1254.5813],[-71.8386,-41.5661,1209.1543],[-71.848,-41.5664,1324.8828],[-71.8501,-41.5726,1631.5637],[-71.8606,-41.575,1519.7744],[-71.8637,-41.5815,1489.1941],[-71.8634,-41.5845,1485.9052],[-71.8704,-41.5858,1324.4552],[-71.8744,-41.5886,1359.0823],[-71.8759,-41.5971,1398.8969],[-71.875,-41.6001,1478.575],[-71.8811,-41.6016,1520.439],[-71.8854,-41.6064,1453.6084],[-71.8791,-41.6138,1430.4388],[-71.8728,-41.6158,1468.2927],[-71.8666,-41.6222,1547.0885],[-71.8656,-41.6302,1329.1295],[-71.8569,-41.6446,1238.9258],[-71.8509,-41.6467,1008.0694],[-71.8429,-41.6444,995.4767],[-71.8359,-41.6471,1328.307],[-71.8361,-41.6518,1281.9961],[-71.8339,-41.6539,1245.3602],[-71.8362,-41.6667,1329.0454],[-71.8307,-41.676,1663.5544],[-71.8221,-41.6708,1764.6082],[-71.8178,-41.6699,1687.3043],[-71.8158,-41.675,1461.8632],[-71.8176,-41.6898,1185.7587],[-71.811,-41.6934,1458.6781],[-71.7998,-41.6915,1685.365],[-71.7943,-41.6944,1825.6814],[-71.7917,-41.7021,2025.7886],[-71.7969,-41.705,1750.7007],[-71.8002,-41.7113,1409.6704],[-71.8048,-41.7137,1502.0055],[-71.8101,-41.7207,1765.5264],[-71.7987,-41.7255,1645.2295],[-71.7927,-41.7313,1826.6826],[-71.7842,-41.735,1925.0989],[-71.7852,-41.7397,1720.6287],[-71.782,-41.7476,1423.0087],[-71.7833,-41.7514,1732.6067],[-71.7751,-41.7595,1826.2703],[-71.7753,-41.7676,1735.1671],[-71.7683,-41.7732,1609.6257],[-71.7637,-41.7821,1756.6024],[-71.753,-41.7856,1769.1321],[-71.7564,-41.7879,1770.4054],[-71.7686,-41.7861,1632.0884],[-71.7731,-41.795,1870.6699],[-71.7712,-41.797,1817.6686],[-71.7711,-41.8,1676.2678],[-71.7658,-41.8034,1490.0446],[-71.7686,-41.8094,1426.3065],[-71.7643,-41.8138,1429.8396],[-71.7639,-41.817,1566.7631],[-71.753,-41.8192,1699.3749],[-71.7508,-41.8247,1673.9021],[-71.7542,-41.8258,1635.7289],[-71.7596,-41.8248,1506.0773],[-71.7682,-41.8294,1313.8295],[-71.7928,-41.8319,1958.6915],[-71.7953,-41.841,1893.979],[-71.7975,-41.8429,1973.6851],[-71.7908,-41.8511,2025.1997],[-71.7908,-41.8578,1973.1548],[-71.7894,-41.8594,1948.236],[-71.7919,-41.874,1828.1973],[-71.7879,-41.8853,2079.5398],[-71.7892,-41.888,1959.9263],[-71.7885,-41.891,1945.405],[-71.782,-41.8958,1951.9452],[-71.7821,-41.901,1965.9473],[-71.7738,-41.9095,1869.7181],[-71.7754,-41.918,1739.735],[-71.7723,-41.9296,1486.5321],[-71.7748,-41.9338,1451.2925],[-71.7723,-41.9381,1378.0696],[-71.7755,-41.9386,1374.5156],[-71.7831,-41.9445,1776.5498],[-71.7942,-41.9451,1844.0393],[-71.7909,-41.9561,1630.338],[-71.7945,-41.9616,1764.7848],[-71.7918,-41.9643,1744.8599],[-71.7901,-41.9713,1784.6616],[-71.7865,-41.9733,1788.7354],[-71.7835,-41.9795,1790.4231],[-71.7788,-41.9843,1822.0217],[-71.7786,-41.991,1918.0284],[-71.7736,-41.9991,1875.4585],[-71.7749,-42.0026,1748.8068],[-71.7721,-42.0087,1666.3792],[-71.7698,-42.01,1628.0295],[-71.7645,-42.0089,1524.8712],[-71.7622,-42.0105,1464.3818],[-71.7641,-41.9995,1743.8085],[-71.1699,-41.9995,724.4816]]]]}
,"properties": {"GID_2": "ARG.16.3_1","GID_0": "ARG","country": "Argentina","GID_1": "ARG.16_1","state": "RíoNegro","NL_NAME_1": "NA","county": "Bariloche","VARNAME_2": "SanCarlosdeBarioche|Barioche","NL_NAME_2": "NA","TYPE_2": "Departamento","ENGTYPE_2": "Department","CC_2": "NA","HASC_2": "AR.RN.BA","name": "Bariloche.county","area_km2": 5428.83,"hist_schema_id": "Elevation0-9000","hist_area_km2": {"250": 4.381,"275": 5.721,"300": 6.873,"325": 7.442,"350": 7.537,"375": 7.774,"400": 5.884,"425": 14.706,"450": 41.408,"475": 36.673,"500": 23.861,"525": 36.14,"550": 31.131,"575": 34.532,"600": 37.705,"625": 36.015,"650": 36.887,"675": 38.255,"700": 43.134,"725": 50.415,"750": 67.343,"775": 242.432,"800": 193.8,"825": 159.734,"850": 155.211,"875": 118.383,"900": 110.394,"925": 113.318,"950": 109.831,"975": 100.317,"1000": 94.283,"1025": 95.555,"1050": 98.106,"1075": 97.038,"1100": 95.917,"1125": 94.581,"1150": 96.373,"1175": 95.675,"1200": 97.704,"1225": 95.164,"1250": 94.444,"1275": 99.524,"1300": 99.309,"1325": 101.942,"1350": 103.68,"1375": 108.851,"1400": 105.932,"1425": 105.903,"1450": 104.758,"1475": 103.699,"1500": 102.327,"1525": 101.431,"1550": 98.279,"1575": 98.015,"1600": 97.132,"1625": 93.272,"1650": 89.088,"1675": 85.455,"1700": 83.367,"1725": 78.096,"1750": 76.45,"1775": 69.771,"1800": 63.976,"1825": 58.357,"1850": 54.844,"1875": 48.821,"1900": 44.184,"1925": 38.252,"1950": 33.07,"1975": 27.102,"2000": 24.171,"2025": 20.75,"2050": 17.044,"2075": 13.631,"2100": 11.088,"2125": 8.469,"2150": 5.881,"2175": 4.054,"2200": 2.877,"2225": 2.433,"2250": 1.384,"2275": 1.147,"2300": 1.004,"2325": 0.861,"2350": 0.638,"2375": 0.575,"2400": 0.479,"2425": 0.479,"2450": 0.479,"2475": 0.271,"2500": 0.287,"2525": 0.399,"2550": 0.207,"2575": 0.319,"2600": 0.144,"2625": 0.271,"2650": 0.192,"2675": 0.303,"2700": 0.16,"2725": 0.144,"2750": 0.223,"2775": 0.144,"2800": 0.096,"2825": 0.144,"2850": 0.144,"2875": 0.128,"2900": 0.096,"2925": 0.144,"2950": 0.048,"2975": 0.064,"3000": 0.08,"3025": 0.048,"3050": 0.048,"3075": 0.064,"3100": 0.048,"3150": 0.08}}}