{"type":"Feature","properties":{"GID_2":"ARG.1.27_1","GID_0":"ARG","country":"Argentina","GID_1":"ARG.1_1","state":"BuenosAires","NL_NAME_1":"NA","county":"Chascomús","VARNAME_2":"NA","NL_NAME_2":"NA","TYPE_2":"Partido","ENGTYPE_2":"Part","CC_2":"NA","HASC_2":"AR.BA.CH","name":"Chascomús.county"},
"geometry":{"type": "MultiPolygon","coordinates": [[[[-58.1573,-35.4091,17.3138],[-58.1988,-35.4427,15.2353],[-58.1571,-35.4763,13.9078],[-58.211,-35.5201,14.7592],[-58.2075,-35.5237,14.8675],[-58.3411,-35.6373,16.3898],[-58.353,-35.6571,16.2521],[-58.4437,-35.733,13.085],[-58.4413,-35.7358,11.0827],[-58.4433,-35.7378,10.4473],[-58.457,-35.7428,13.0955],[-58.458,-35.7531,15.0061],[-58.4555,-35.7586,15.2603],[-58.4607,-35.7666,17.926],[-58.4609,-35.7701,14.1708],[-58.4594,-35.7748,20.2586],[-58.4426,-35.7733,12.2614],[-58.4361,-35.7839,12.7303],[-58.4275,-35.7872,11.385],[-58.4254,-35.7927,11.1589],[-58.4256,-35.8078,11.5398],[-58.4213,-35.8159,11.9955],[-58.4128,-35.8215,11.9455],[-58.3918,-35.8216,13.1714],[-58.3882,-35.8301,11.5406],[-58.3798,-35.8351,11.2153],[-58.366,-35.8386,12.9796],[-58.359,-35.8438,14.3306],[-58.3505,-35.8462,12.8501],[-58.3491,-35.8517,12.8767],[-58.3498,-35.859,13.872],[-58.3418,-35.8661,13.2452],[-58.3169,-35.8705,13.2593],[-58.309,-35.8618,9.9511],[-58.3056,-35.8614,9.7213],[-58.3029,-35.8582,11.7956],[-58.2851,-35.8632,12.0996],[-58.2809,-35.863,11.3727],[-58.2778,-35.8612,8.7595],[-58.2819,-35.8496,11.8147],[-58.2721,-35.8261,10.897],[-58.2618,-35.8205,9.048],[-58.2573,-35.8208,10.8262],[-58.2446,-35.8266,12.2329],[-58.2347,-35.8275,8.3224],[-58.2326,-35.8226,10.168],[-58.2298,-35.822,9.9573],[-58.2129,-35.8276,8.8385],[-58.2059,-35.8364,7.9358],[-58.208,-35.8422,10.5136],[-58.2062,-35.8462,10.0089],[-58.2027,-35.8476,10.1107],[-58.1917,-35.865,11.1729],[-58.1723,-35.8706,8.8587],[-58.1546,-35.8694,9.6366],[-58.1547,-35.8753,9.3228],[-58.149,-35.8783,9.0288],[-58.1479,-35.8818,6.8179],[-58.1519,-35.889,10.8079],[-58.1395,-35.899,10.8805],[-58.14,-35.9058,8.6831],[-58.1344,-35.917,7.7961],[-58.1238,-35.9228,9.5321],[-58.1169,-35.9211,9.763],[-58.1103,-35.9251,10.325],[-58.1151,-35.9368,9.1393],[-58.1125,-35.94,9.5486],[-58.0982,-35.9421,9.5898],[-58.0939,-35.9442,9.2069],[-58.0954,-35.9508,8.6084],[-58.0933,-35.9552,10.1517],[-58.0862,-35.9558,9.2056],[-58.0795,-35.9591,8.7989],[-58.0717,-35.9596,11.5144],[-58.0456,-35.9488,5.9544],[-58.0399,-35.9542,5.5091],[-58.0269,-35.953,6.6616],[-58.0232,-35.9497,5.9764],[-58.0193,-35.9523,7.8269],[-58.0147,-35.9709,6.6321],[-58.0259,-35.9795,6.7407],[-58.0343,-36.0012,4.8451],[-58.0366,-36.012,6.2867],[-58.0305,-36.0313,6.9993],[-58.0158,-36.0441,6.3232],[-58.0063,-36.0407,9.2317],[-57.997,-36.0328,5.822],[-57.9953,-36.0273,7.1182],[-57.9874,-36.0203,4.3542],[-57.9905,-36.0333,7.5141],[-57.9815,-36.0374,7.413],[-57.9717,-36.0362,8.3641],[-57.9616,-36.0319,6.8236],[-57.9437,-36.0069,4.8019],[-57.9362,-36.0022,19.9156],[-57.9299,-36.0013,4.467],[-57.9211,-36.0025,5.0578],[-57.9065,-35.9817,3.2241],[-57.8582,-35.9659,4.3596],[-57.8462,-35.9587,4.7597],[-57.8352,-35.9445,3.0549],[-57.7809,-35.9375,4.7511],[-57.7681,-35.9267,2.0],[-57.7586,-35.9267,5.4364],[-57.7554,-35.9281,5.2661],[-57.7393,-35.9276,3.8435],[-57.7317,-35.9234,4.4364],[-57.727,-35.917,5.2515],[-57.7312,-35.9089,4.616],[-57.7361,-35.9048,6.174],[-57.7367,-35.8964,4.4026],[-57.7242,-35.8811,3.4296],[-57.7174,-35.8768,5.2359],[-57.7136,-35.864,2.3155],[-57.7176,-35.8508,4.7519],[-57.7154,-35.8409,5.853],[-57.7102,-35.8374,4.7408],[-57.6969,-35.8381,4.3663],[-57.691,-35.8344,3.2031],[-57.6656,-35.8464,3.8454],[-57.6583,-35.8515,6.3989],[-57.6585,-35.8448,8.3298],[-57.6525,-35.8407,4.9083],[-57.6448,-35.8406,6.8091],[-57.6274,-35.8353,4.5299],[-57.6082,-35.8333,3.3845],[-57.6024,-35.8345,3.2387],[-57.5948,-35.8338,5.2772],[-57.5884,-35.835,4.5665],[-57.5795,-35.8447,4.1189],[-57.5757,-35.8564,6.3172],[-57.5686,-35.8581,4.1256],[-57.5575,-35.8462,3.4087],[-57.5514,-35.8438,2.1267],[-57.5503,-35.8467,4.7833],[-57.5472,-35.8488,4.5471],[-57.5281,-35.8407,1.6574],[-57.5237,-35.8336,1.1061],[-57.5125,-35.8293,4.9091],[-57.5024,-35.8279,1.5168],[-57.4905,-35.812,1.6242],[-57.4853,-35.8027,4.6996],[-57.4877,-35.7983,4.8687],[-57.4818,-35.7927,4.1768],[-57.4811,-35.7888,4.7946],[-57.4768,-35.7863,2.5946],[-57.4721,-35.7896,5.0281],[-57.465,-35.7874,3.3778],[-57.4661,-35.7832,4.8149],[-57.4644,-35.7806,5.6335],[-57.4469,-35.7849,5.5275],[-57.4425,-35.7845,4.3709],[-57.4395,-35.7874,5.7031],[-57.4277,-35.7868,5.2201],[-57.4292,-35.7834,4.3615],[-57.4364,-35.7802,5.4167],[-57.4349,-35.7777,5.3111],[-57.4289,-35.777,3.3172],[-57.4228,-35.7705,4.9742],[-57.414,-35.7722,5.042],[-57.4141,-35.7678,2.4224],[-57.4161,-35.7648,3.1301],[-57.4097,-35.7615,3.1389],[-57.4175,-35.7521,6.1795],[-57.4164,-35.7485,4.5487],[-57.3966,-35.743,4.4085],[-57.391,-35.7457,1.9437],[-57.3624,-35.7508,0.0],[-57.3635,-35.7454,0.0],[-57.3607,-35.7396,1.7106],[-57.3585,-35.7399,0.0],[-57.3557,-35.7335,1.6015],[-57.3543,-35.7335,0.0],[-57.349,-35.7265,0.2134],[-57.3499,-35.7235,0.3883],[-57.346,-35.7209,0.0],[-57.37,-35.7117,2.4366],[-57.3871,-35.7127,3.1473],[-57.3849,-35.7002,3.433],[-57.3902,-35.6964,5.0572],[-57.3839,-35.6903,5.192],[-57.3752,-35.6876,2.9734],[-57.3756,-35.6832,4.8347],[-57.3803,-35.6782,3.8938],[-57.3885,-35.6794,5.0123],[-57.3927,-35.6771,4.8123],[-57.3941,-35.6738,5.1992],[-57.3984,-35.6741,5.1888],[-57.4087,-35.6652,3.8433],[-57.4124,-35.6642,4.4145],[-57.4199,-35.6556,4.3387],[-57.4202,-35.6494,4.1125],[-57.4286,-35.6425,4.1242],[-57.4354,-35.642,3.7339],[-57.44,-35.6333,3.5293],[-57.4361,-35.621,4.5998],[-57.437,-35.6154,4.3787],[-57.4449,-35.6135,4.9799],[-57.4547,-35.6038,3.434],[-57.464,-35.5912,4.637],[-57.4537,-35.5618,3.4127],[-57.459,-35.561,3.8956],[-57.4539,-35.5442,3.7619],[-57.4422,-35.5226,4.7859],[-57.4368,-35.5163,4.2404],[-57.4477,-35.5118,3.8881],[-57.4519,-35.5078,5.1932],[-57.4571,-35.5081,4.3764],[-57.4648,-35.5044,3.1233],[-57.471,-35.4986,3.4025],[-57.4738,-35.4926,3.8895],[-57.4807,-35.4936,4.0779],[-57.4843,-35.4889,5.3254],[-57.4859,-35.4787,4.7716],[-57.4909,-35.4764,5.7204],[-57.4943,-35.4726,5.2995],[-57.5027,-35.4786,6.1615],[-57.5082,-35.4731,3.9529],[-57.528,-35.4772,3.2985],[-57.5372,-35.4751,3.6877],[-57.545,-35.4767,5.8084],[-57.5536,-35.4745,3.6631],[-57.5577,-35.476,5.9345],[-57.5605,-35.4681,5.9184],[-57.5669,-35.4631,3.1907],[-57.5803,-35.4628,3.0],[-57.5877,-35.4653,4.5934],[-57.5915,-35.4637,5.9823],[-57.6117,-35.4655,3.5572],[-57.6158,-35.4684,4.1636],[-57.6219,-35.4701,6.3369],[-57.6287,-35.4755,3.3502],[-57.6378,-35.4773,3.2082],[-57.6611,-35.4714,5.7083],[-57.6658,-35.4735,6.0161],[-57.6781,-35.4719,3.5748],[-57.6901,-35.4901,5.099],[-57.6995,-35.4912,6.7666],[-57.7106,-35.4895,6.3429],[-57.7154,-35.4868,6.5945],[-57.7248,-35.4861,5.8038],[-57.7299,-35.4828,5.2841],[-57.7504,-35.481,6.4479],[-57.7533,-35.4725,6.3781],[-57.7647,-35.4677,4.2047],[-57.7727,-35.4681,3.9959],[-57.7769,-35.4619,6.9341],[-57.7783,-35.4481,5.8514],[-57.781,-35.4464,6.2034],[-57.7994,-35.4511,7.1628],[-57.8155,-35.4502,5.4003],[-57.8264,-35.4443,7.8842],[-57.8353,-35.4358,6.6899],[-57.8385,-35.426,6.2516],[-57.8454,-35.42,7.4215],[-57.854,-35.4192,10.9194],[-57.8667,-35.4122,8.2593],[-57.8713,-35.4069,7.4782],[-57.8773,-35.4051,6.3232],[-57.8786,-35.3936,5.9985],[-57.8831,-35.3926,6.085],[-57.8892,-35.3962,8.1844],[-57.8971,-35.3975,7.0648],[-57.8978,-35.3927,7.3243],[-57.9059,-35.3882,5.8867],[-57.9209,-35.3891,6.9558],[-57.9232,-35.387,6.2838],[-57.9259,-35.3784,7.4077],[-57.9454,-35.3829,7.9856],[-57.9496,-35.3796,6.6156],[-57.9538,-35.3804,7.1255],[-57.957,-35.3786,7.1193],[-57.9611,-35.3689,7.2535],[-57.9777,-35.3588,5.801],[-57.9851,-35.3484,7.0099],[-57.9873,-35.3382,7.25],[-57.99,-35.3348,7.2965],[-58.0087,-35.3418,6.5486],[-58.0149,-35.3528,7.2714],[-58.0208,-35.3562,8.2126],[-58.0292,-35.3577,7.2201],[-58.0364,-35.3572,7.8586],[-58.05,-35.3439,8.2871],[-58.1411,-35.4216,17.0356],[-58.1573,-35.4091,17.3138]]]]}}