{"type":"Feature","properties":{"GID_2":"ARG.9.6_1","GID_0":"ARG","country":"Argentina","GID_1":"ARG.9_1","state":"Formosa","NL_NAME_1":"NA","county":"Pilagás","VARNAME_2":"Espinillo","NL_NAME_2":"NA","TYPE_2":"Departamento","ENGTYPE_2":"Department","CC_2":"NA","HASC_2":"AR.FM.PG","name":"Pilagás.county"},
"geometry":{"type": "MultiPolygon","coordinates": [[[[-59.0536,-25.174,89.9408],[-58.6051,-25.4707,76.3004],[-58.6052,-25.3943,85.7325],[-58.3783,-25.393,73.8403],[-58.3809,-24.9552,80.1727],[-58.3888,-24.9483,79.5145],[-58.4021,-24.927,84.8616],[-58.4079,-24.9231,80.7816],[-58.4197,-24.9231,80.8298],[-58.4226,-24.9209,81.6195],[-58.423,-24.9163,80.7692],[-58.4197,-24.9008,82.6722],[-58.424,-24.8908,84.316],[-58.438,-24.8804,79.1487],[-58.4639,-24.8655,79.2317],[-58.4811,-24.8625,82.8372],[-58.4935,-24.8512,82.0767],[-58.4994,-24.8489,81.4857],[-58.5073,-24.8506,82.2545],[-58.5126,-24.8497,80.9712],[-58.5477,-24.8312,80.6868],[-58.566,-24.8262,83.8463],[-58.6068,-24.8323,82.8782],[-58.6547,-24.8336,89.43],[-58.6654,-24.8312,89.85],[-58.6711,-24.827,90.097],[-58.6777,-24.8151,87.9891],[-58.6831,-24.8123,84.4911],[-58.6911,-24.8126,84.0557],[-58.6966,-24.8089,87.9702],[-58.7119,-24.7849,87.8533],[-58.7188,-24.7785,85.0471],[-58.7246,-24.7773,88.8457],[-58.735,-24.7814,92.7849],[-58.758,-24.7771,87.7067],[-58.7958,-24.7748,88.0932],[-58.8135,-24.7683,97.1896],[-58.8267,-24.7529,89.7481],[-58.8431,-24.7391,89.77],[-58.8474,-24.739,90.72],[-58.86,-24.7328,96.198],[-58.8678,-24.7323,97.4647],[-58.871,-24.7338,96.6345],[-58.8755,-24.7328,94.8522],[-58.8815,-24.7227,98.4575],[-58.8918,-24.7147,97.9491],[-58.8912,-25.052,86.7993],[-59.0536,-25.174,89.9408]]]]}}