{"type": "Feature","bbox": [-59.1726,-30.6769,-58.2602,-30.1632],"geometry": {"type": "MultiPolygon","coordinates": [[[[-58.5961,-30.1689,56.6474],[-58.6133,-30.1763,56.1299],[-58.6308,-30.1801,55.392],[-58.6493,-30.1632,55.9439],[-58.667,-30.1655,57.4691],[-58.6724,-30.1632,54.8022],[-58.6815,-30.1645,55.7462],[-58.6854,-30.1674,54.1154],[-58.6853,-30.1724,53.9948],[-58.6994,-30.1775,53.5778],[-58.7093,-30.1834,52.7369],[-58.7209,-30.1857,53.2459],[-58.7381,-30.1963,52.476],[-58.7602,-30.2138,52.0662],[-58.7663,-30.2145,51.5557],[-58.7733,-30.2101,51.467],[-58.7813,-30.2142,51.338],[-58.7858,-30.2109,51.4227],[-58.797,-30.2136,50.9102],[-58.8084,-30.2109,51.1659],[-58.8152,-30.2197,50.342],[-58.8212,-30.2205,50.8886],[-58.8237,-30.2249,50.0903],[-58.8315,-30.2286,50.2684],[-58.8371,-30.2299,49.6938],[-58.8492,-30.2286,49.5829],[-58.854,-30.2312,49.4271],[-58.8568,-30.2299,49.3916],[-58.864,-30.2336,48.7106],[-58.8728,-30.2325,48.8164],[-58.8808,-30.2399,48.5218],[-58.9137,-30.241,46.8872],[-58.9177,-30.2367,46.8109],[-58.9319,-30.2336,44.9074],[-58.9558,-30.2225,45.8837],[-58.9651,-30.2158,45.2328],[-58.9709,-30.2173,45.6713],[-58.9818,-30.2141,44.905],[-58.9906,-30.2163,45.3597],[-59.0206,-30.2188,43.6072],[-59.029,-30.2293,43.2564],[-59.041,-30.2369,42.3881],[-59.053,-30.238,44.7449],[-59.0644,-30.2343,41.4125],[-59.0702,-30.2341,46.2823],[-59.076,-30.2402,45.0223],[-59.0775,-30.2505,40.3089],[-59.081,-30.2548,40.0743],[-59.0914,-30.26,38.9952],[-59.1065,-30.2605,41.0202],[-59.1125,-30.2695,40.2466],[-59.1218,-30.2764,39.2318],[-59.1224,-30.2786,39.4345],[-59.1193,-30.2863,39.1919],[-59.1198,-30.2939,39.6693],[-59.1493,-30.3122,36.7628],[-59.1726,-30.3222,34.3977],[-59.1628,-30.3384,43.0367],[-59.1564,-30.3433,50.2996],[-59.1477,-30.3454,51.3248],[-59.1298,-30.345,52.3416],[-59.1165,-30.3466,53.2831],[-59.092,-30.357,59.8342],[-59.085,-30.3614,56.8491],[-59.084,-30.3689,58.262],[-59.0702,-30.3788,53.4228],[-59.0635,-30.3932,55.8309],[-59.0594,-30.4162,48.23],[-59.0611,-30.4395,53.0322],[-59.0505,-30.4563,62.2972],[-59.0355,-30.4708,61.1222],[-59.0192,-30.4771,60.0845],[-59.002,-30.4894,56.8476],[-58.9862,-30.4968,57.5087],[-58.9559,-30.52,55.5814],[-58.9532,-30.5312,59.6648],[-58.947,-30.5416,59.4596],[-58.9478,-30.5493,60.1695],[-58.9577,-30.5569,53.0932],[-58.9777,-30.5778,54.6105],[-58.9599,-30.5717,48.0507],[-58.9512,-30.5739,48.5503],[-58.9348,-30.5867,50.6723],[-58.9214,-30.5885,56.8564],[-58.8995,-30.6081,62.799],[-58.8873,-30.6122,61.9826],[-58.8772,-30.62,61.7655],[-58.8652,-30.6252,56.9416],[-58.8569,-30.6344,62.6784],[-58.8498,-30.639,61.1477],[-58.7831,-30.646,64.6494],[-58.7707,-30.657,61.8262],[-58.7467,-30.6676,65.3194],[-58.7154,-30.6671,68.5004],[-58.7027,-30.671,69.1418],[-58.6675,-30.6769,66.7769],[-58.6451,-30.6766,72.5675],[-58.6279,-30.6726,73.1122],[-58.6114,-30.667,71.6544],[-58.5914,-30.6513,74.0282],[-58.5863,-30.6449,74.2654],[-58.5792,-30.623,73.4916],[-58.5718,-30.6335,74.6984],[-58.5649,-30.6182,74.3568],[-58.5544,-30.6057,71.0882],[-58.5264,-30.5934,75.0893],[-58.5005,-30.5871,75.8445],[-58.4842,-30.5807,75.9608],[-58.4692,-30.5723,76.1333],[-58.4546,-30.5577,75.954],[-58.4436,-30.5407,74.8416],[-58.4409,-30.5333,76.1074],[-58.4418,-30.5257,76.1021],[-58.4454,-30.5186,76.0355],[-58.443,-30.5072,74.0083],[-58.4296,-30.4871,76.2438],[-58.429,-30.4794,76.4961],[-58.4141,-30.4555,76.3576],[-58.4064,-30.4374,75.4957],[-58.4022,-30.4187,76.4655],[-58.3892,-30.4082,76.7223],[-58.3727,-30.3807,76.7949],[-58.3539,-30.3588,77.0306],[-58.3388,-30.3506,76.7996],[-58.3326,-30.345,76.239],[-58.3241,-30.3417,77.3492],[-58.3231,-30.3385,77.3468],[-58.3248,-30.3344,73.8532],[-58.3279,-30.3319,76.1122],[-58.3726,-30.3137,75.5813],[-58.3739,-30.3096,75.443],[-58.3729,-30.3065,74.4673],[-58.3593,-30.305,72.688],[-58.3562,-30.3022,75.7161],[-58.3521,-30.3014,75.2755],[-58.3352,-30.306,70.6205],[-58.3306,-30.3058,70.2419],[-58.3279,-30.3028,73.8871],[-58.3239,-30.3021,75.8893],[-58.3076,-30.3088,75.6397],[-58.2987,-30.3094,75.8698],[-58.2944,-30.308,76.6291],[-58.2851,-30.2869,77.2335],[-58.2659,-30.2709,75.3299],[-58.2621,-30.2639,74.839],[-58.2602,-30.255,71.5536],[-58.2689,-30.2487,76.2616],[-58.2834,-30.2456,70.2193],[-58.3002,-30.2518,71.2282],[-58.3244,-30.2673,67.4602],[-58.3574,-30.2633,68.2075],[-58.3654,-30.2602,71.7245],[-58.3824,-30.2493,70.0555],[-58.4149,-30.2356,64.5172],[-58.4373,-30.2281,63.954],[-58.4611,-30.2077,62.4664],[-58.4696,-30.2072,62.3074],[-58.4752,-30.2095,62.1688],[-58.4813,-30.2155,63.3351],[-58.49,-30.2151,61.2133],[-58.498,-30.2113,62.2701],[-58.5111,-30.2009,60.0996],[-58.5294,-30.1937,59.6574],[-58.5412,-30.1953,61.25],[-58.5485,-30.1907,60.9071],[-58.5574,-30.1899,61.7751],[-58.5681,-30.1807,62.3878],[-58.5807,-30.1658,58.1457],[-58.5859,-30.1648,56.8856],[-58.5961,-30.1689,56.6474]]]]}
,"properties": {"GID_2": "ARG.8.6_1","GID_0": "ARG","country": "Argentina","GID_1": "ARG.8_1","state": "EntreRíos","NL_NAME_1": "NA","county": "Feliciano","VARNAME_2": "SanJasedeFeliciano","NL_NAME_2": "NA","TYPE_2": "Departamento","ENGTYPE_2": "Department","CC_2": "NA","HASC_2": "AR.ER.FL","name": "Feliciano.county","area_km2": 2934.061,"hist_schema_id": "Elevation0-9000","hist_area_km2": {"25": 3.752,"50": 1091.621,"75": 1838.303,"100": 0.384}}}