{"type": "Feature","bbox": [-58.3419,-38.4482,-57.7783,-37.9581],"geometry": {"type": "MultiPolygon","coordinates": [[[[-58.3265,-38.0765,86.791],[-58.3355,-38.1103,74.6691],[-58.3308,-38.125,72.5144],[-58.3337,-38.1526,63.249],[-58.3406,-38.1636,60.3727],[-58.3419,-38.1709,58.9248],[-58.3416,-38.1787,57.0708],[-58.3379,-38.1828,55.8293],[-58.3349,-38.1902,53.7118],[-58.3319,-38.2026,51.5839],[-58.3286,-38.2049,49.9988],[-58.3279,-38.2108,48.4934],[-58.3312,-38.2126,48.2755],[-58.3286,-38.2191,47.4612],[-58.3214,-38.2292,44.9082],[-58.3218,-38.2326,44.1276],[-58.3292,-38.235,44.0789],[-58.3363,-38.2514,41.2749],[-58.3374,-38.2588,40.5103],[-58.331,-38.2666,38.5941],[-58.326,-38.278,37.0871],[-58.3112,-38.2802,35.6111],[-58.3003,-38.3094,31.2731],[-58.2939,-38.311,30.9404],[-58.2881,-38.3212,40.3094],[-58.2841,-38.3232,26.2104],[-58.2833,-38.3338,25.8437],[-58.2749,-38.3411,23.3864],[-58.2707,-38.3544,22.1198],[-58.2788,-38.3837,21.5622],[-58.2831,-38.3873,16.4197],[-58.282,-38.396,17.9531],[-58.2758,-38.3971,15.1314],[-58.2698,-38.4049,16.8068],[-58.2701,-38.4115,14.5093],[-58.2559,-38.4339,7.7019],[-58.2568,-38.4401,11.7174],[-58.2472,-38.4445,5.8459],[-58.244,-38.4482,0.7124],[-58.2076,-38.434,5.7202],[-58.1574,-38.4193,0.6553],[-58.1226,-38.4062,4.9679],[-58.1021,-38.3965,0.6763],[-58.0921,-38.3943,2.7693],[-58.0696,-38.3843,9.9249],[-58.0557,-38.3804,0.0],[-58.0224,-38.3657,2.615],[-58.0021,-38.3535,1.3799],[-57.9932,-38.3504,1.0596],[-57.9732,-38.3407,1.6654],[-57.9671,-38.336,4.1266],[-57.9501,-38.3288,3.5695],[-57.896,-38.311,2.3394],[-57.876,-38.3029,11.8557],[-57.8526,-38.2965,0.0],[-57.8349,-38.2865,0.0],[-57.8332,-38.2818,0.0],[-57.834,-38.2762,11.1245],[-57.8288,-38.2713,8.2079],[-57.8246,-38.2704,0.0],[-57.819,-38.2663,0.0],[-57.7943,-38.2551,0.0],[-57.7783,-38.246,0.5686],[-57.7842,-38.2315,7.456],[-57.7838,-38.2093,12.325],[-57.7926,-38.2024,21.6324],[-57.8109,-38.1492,38.2036],[-57.8094,-38.1444,40.7565],[-57.8209,-38.1287,42.6466],[-57.8195,-38.1152,46.8577],[-57.8146,-38.1097,62.1643],[-57.8132,-38.105,63.3693],[-57.8149,-38.0927,53.9409],[-57.8182,-38.0892,54.2721],[-57.8245,-38.0875,57.5738],[-57.8358,-38.0871,65.0468],[-57.8366,-38.0791,62.5281],[-57.8434,-38.0671,76.1245],[-57.8467,-38.0644,76.4323],[-57.8296,-38.0521,89.2717],[-57.8566,-38.0366,96.3412],[-57.8822,-38.0578,85.4722],[-57.9435,-38.0146,119.6272],[-57.9599,-38.0273,131.3039],[-58.0469,-37.9581,240.3858],[-58.2624,-38.1344,65.1139],[-58.3176,-38.0896,80.6804],[-58.3122,-38.088,82.1086],[-58.3265,-38.0765,86.791]]]]}
,"properties": {"GID_2": "ARG.1.41_1","GID_0": "ARG","country": "Argentina","GID_1": "ARG.1_1","state": "BuenosAires","NL_NAME_1": "NA","county": "GeneralAlvarado","VARNAME_2": "Miramar","NL_NAME_2": "NA","TYPE_2": "Partido","ENGTYPE_2": "Part","CC_2": "NA","HASC_2": "AR.BA.GD","name": "GeneralAlvarado.county","area_km2": 1616.468,"hist_schema_id": "Elevation0-9000","hist_area_km2": {"0": 112.463,"25": 654.73,"50": 420.956,"75": 253.619,"100": 90.865,"125": 42.285,"150": 19.06,"175": 11.36,"200": 7.386,"225": 3.393,"250": 0.351}}}