{"type":"Feature","properties":{"GID_2":"ARG.22.8_1","GID_0":"ARG","country":"Argentina","GID_1":"ARG.22_1","state":"SantiagodelEstero","NL_NAME_1":"NA","county":"Choya","VARNAME_2":"Frias","NL_NAME_2":"NA","TYPE_2":"Departamento","ENGTYPE_2":"Department","CC_2":"NA","HASC_2":"AR.SE.CH","name":"Choya.county"},
"geometry":{"type": "MultiPolygon","coordinates": [[[[-65.1811,-28.6006,345.7687],[-65.1809,-28.6531,333.8315],[-65.1441,-28.6663,326.8273],[-65.1324,-28.7174,317.2568],[-65.0254,-28.7495,296.8826],[-65.0012,-28.7733,288.3854],[-64.9905,-28.7982,279.4308],[-64.9598,-28.8379,270.7483],[-64.9536,-28.8435,268.0447],[-64.9292,-28.8594,268.9655],[-64.9185,-28.8689,255.8602],[-64.9129,-28.8782,252.0203],[-64.9066,-28.8961,245.9075],[-64.9003,-28.9437,241.3362],[-64.8945,-28.9615,235.2119],[-64.8764,-28.9922,224.5752],[-64.8368,-29.0394,224.6171],[-64.8314,-29.0488,233.045],[-64.8306,-29.0728,234.6532],[-64.8274,-29.0858,235.4079],[-64.8247,-29.1151,223.8951],[-64.8257,-29.1256,221.1127],[-64.8346,-29.1483,226.043],[-64.8474,-29.1663,208.1154],[-64.8524,-29.1761,205.5515],[-64.8539,-29.1839,200.1087],[-64.8528,-29.1999,200.8653],[-64.8586,-29.2206,188.1392],[-64.8852,-29.2654,205.7683],[-64.8903,-29.2807,212.0817],[-64.8892,-29.2886,213.6812],[-64.8835,-29.2949,215.6855],[-64.8781,-29.2969,219.5194],[-64.8659,-29.2979,217.5754],[-64.8518,-29.3035,225.4121],[-64.848,-29.3073,225.6328],[-64.8473,-29.3129,232.4668],[-64.8512,-29.3166,233.9668],[-64.8659,-29.3204,219.5595],[-64.885,-29.3287,207.3819],[-64.8902,-29.3352,204.4347],[-64.8917,-29.3431,199.4365],[-64.8905,-29.351,195.5182],[-64.886,-29.361,191.0149],[-64.8646,-29.3834,181.9166],[-64.8483,-29.412,180.755],[-64.8384,-29.4254,180.1126],[-64.8354,-29.433,179.8702],[-64.8346,-29.4622,179.4432],[-64.8298,-29.4993,179.3168],[-64.8349,-29.5088,178.8746],[-64.8374,-29.5193,178.7101],[-64.8299,-29.5367,180.6759],[-64.8278,-29.563,178.6048],[-64.7368,-29.555,221.001],[-64.6574,-29.544,151.1424],[-64.5572,-29.5325,119.6666],[-64.5314,-29.002,116.2589],[-64.589,-29.0013,119.0614],[-64.5767,-28.9543,131.0624],[-64.5707,-28.9418,130.0695],[-64.5628,-28.9071,134.735],[-64.5771,-28.9048,144.0209],[-64.5594,-28.852,143.2411],[-64.5645,-28.8499,144.936],[-64.5506,-28.7928,152.3187],[-64.5289,-28.7956,146.1059],[-64.51,-28.7324,160.8743],[-64.5746,-28.7215,186.2014],[-64.5688,-28.6872,188.6455],[-64.5988,-28.6804,200.5977],[-64.5894,-28.6483,205.5138],[-64.5732,-28.6509,199.2535],[-64.5482,-28.5585,199.0598],[-64.5896,-28.548,214.6592],[-64.5716,-28.49,219.9375],[-64.5844,-28.4882,224.9297],[-64.5804,-28.4626,228.4183],[-64.5777,-28.4527,225.3513],[-64.5715,-28.4532,224.2968],[-64.5681,-28.4465,221.4343],[-64.567,-28.4353,221.4184],[-64.5552,-28.4367,217.1611],[-64.5507,-28.4214,212.5515],[-64.4814,-28.4335,182.8013],[-64.4762,-28.4142,183.5493],[-64.5183,-28.4064,198.599],[-64.5081,-28.3588,206.8781],[-64.5685,-28.3491,227.1742],[-64.561,-28.3072,236.7014],[-64.5663,-28.3055,241.5956],[-64.5418,-28.2082,256.8047],[-64.7691,-28.1632,414.325],[-64.7719,-28.1708,413.3015],[-64.7927,-28.1664,446.8347],[-64.7953,-28.1738,452.7061],[-64.8418,-28.1632,643.6883],[-64.876,-28.2534,519.0012],[-64.9621,-28.2327,472.4559],[-64.9746,-28.2698,451.4178],[-65.1145,-28.2415,495.0679],[-65.1113,-28.3071,481.2049],[-65.0994,-28.4695,390.3565],[-65.1257,-28.6091,340.959],[-65.1669,-28.6082,341.4133],[-65.1789,-28.6004,345.4722],[-65.1811,-28.6006,345.7687]]]]}}