{"type": "Feature","bbox": [-66.1467,-27.437,-65.4635,-27.0521],"geometry": {"type": "MultiPolygon","coordinates": [[[[-65.9704,-27.3805,1911.6305],[-65.9515,-27.3829,1700.5671],[-65.9306,-27.3808,1190.0339],[-65.9271,-27.3785,1305.3546],[-65.9213,-27.3704,1497.6742],[-65.9156,-27.3684,1330.3892],[-65.9137,-27.3648,1144.0162],[-65.9064,-27.3611,1033.9221],[-65.9006,-27.3529,1150.5646],[-65.897,-27.3511,973.1523],[-65.8843,-27.349,919.0369],[-65.8714,-27.3497,951.4898],[-65.8697,-27.3485,990.7073],[-65.8613,-27.3498,857.4852],[-65.8462,-27.3428,788.1276],[-65.8206,-27.3456,737.6866],[-65.8146,-27.3436,709.5865],[-65.8082,-27.3387,643.8268],[-65.778,-27.3394,565.1632],[-65.7657,-27.3431,551.0474],[-65.755,-27.3435,525.9045],[-65.7381,-27.3469,499.7734],[-65.7209,-27.347,471.3821],[-65.7112,-27.3514,458.6856],[-65.6918,-27.3633,429.3401],[-65.6859,-27.3713,418.0642],[-65.6805,-27.3745,413.8712],[-65.675,-27.387,406.662],[-65.6659,-27.3977,390.7626],[-65.6574,-27.3977,387.9047],[-65.6535,-27.3931,389.4204],[-65.6497,-27.3924,391.3013],[-65.644,-27.3979,386.1037],[-65.642,-27.3973,389.6758],[-65.6391,-27.3999,382.4798],[-65.6331,-27.4005,380.042],[-65.6221,-27.4099,373.1231],[-65.6199,-27.4098,372.5997],[-65.6195,-27.4041,376.0515],[-65.6171,-27.401,376.579],[-65.6108,-27.4018,370.7201],[-65.6077,-27.404,372.8317],[-65.6079,-27.4116,366.6303],[-65.606,-27.4126,366.6303],[-65.5852,-27.4096,361.7922],[-65.5661,-27.4126,358.9282],[-65.5607,-27.4157,359.0031],[-65.5559,-27.4221,354.7972],[-65.5499,-27.4242,354.1035],[-65.5393,-27.4249,349.7051],[-65.5166,-27.4303,348.3209],[-65.5018,-27.4279,342.3263],[-65.486,-27.4342,339.983],[-65.4797,-27.4334,337.93],[-65.4724,-27.437,336.4669],[-65.4666,-27.4208,336.4687],[-65.4698,-27.4201,336.6143],[-65.4677,-27.4119,335.1438],[-65.471,-27.406,336.3175],[-65.4689,-27.3927,336.5541],[-65.4754,-27.3923,341.1917],[-65.4762,-27.3911,336.6996],[-65.4749,-27.3835,337.9945],[-65.4765,-27.3822,336.9074],[-65.4771,-27.3765,341.7474],[-65.4665,-27.3372,339.8318],[-65.4676,-27.3341,339.7778],[-65.4635,-27.3175,341.294],[-65.4716,-27.3149,343.3866],[-65.4684,-27.2999,341.603],[-65.4703,-27.2963,344.8791],[-65.4965,-27.2918,350.1807],[-65.504,-27.288,353.8556],[-65.5185,-27.2844,356.4846],[-65.5292,-27.2848,360.3546],[-65.5348,-27.2819,362.6931],[-65.543,-27.2819,363.437],[-65.5592,-27.2773,369.3031],[-65.5703,-27.2712,376.0056],[-65.5826,-27.2684,381.1868],[-65.6035,-27.2547,384.7377],[-65.6218,-27.2495,393.8504],[-65.6324,-27.2403,414.2234],[-65.6579,-27.2302,445.6916],[-65.6642,-27.2295,450.3508],[-65.6855,-27.2141,472.3751],[-65.6905,-27.1994,528.6384],[-65.6931,-27.1964,540.7658],[-65.709,-27.1906,550.05],[-65.7237,-27.1929,592.5747],[-65.7296,-27.1908,639.9921],[-65.7415,-27.1948,596.4064],[-65.7451,-27.1926,704.2233],[-65.7563,-27.1979,622.221],[-65.7637,-27.1939,714.0537],[-65.7699,-27.1938,711.9068],[-65.7716,-27.1901,791.6631],[-65.7734,-27.1895,794.3556],[-65.7821,-27.1888,725.3855],[-65.7859,-27.1903,780.6933],[-65.7898,-27.1886,860.8579],[-65.7916,-27.1852,897.6807],[-65.7875,-27.1783,842.0299],[-65.782,-27.1729,945.014],[-65.7848,-27.1538,1261.687],[-65.7886,-27.1493,1309.3237],[-65.7964,-27.1464,1320.8745],[-65.806,-27.1392,1348.9637],[-65.8088,-27.1328,1280.1663],[-65.8161,-27.1346,1529.7909],[-65.8412,-27.1201,1711.46],[-65.844,-27.1199,1757.1533],[-65.8514,-27.1233,2053.5796],[-65.8611,-27.1182,2273.229],[-65.872,-27.1171,2776.9404],[-65.884,-27.111,3107.6128],[-65.8884,-27.1112,3094.4131],[-65.8978,-27.1018,3372.1191],[-65.9229,-27.0957,4026.5889],[-65.9753,-27.0521,4716.5908],[-65.9841,-27.0711,4611.2764],[-65.9994,-27.0966,4652.0171],[-66.0052,-27.1027,4884.6714],[-66.0134,-27.1057,4730.1416],[-66.0352,-27.1093,4653.1499],[-66.0432,-27.1166,4634.2266],[-66.0646,-27.1458,4569.8604],[-66.0665,-27.155,4911.4771],[-66.0766,-27.1552,4776.8203],[-66.083,-27.1864,4969.5439],[-66.0959,-27.2038,4926.0908],[-66.1017,-27.2106,5258.2515],[-66.1216,-27.22,5014.9092],[-66.1364,-27.2298,4811.8672],[-66.1467,-27.2432,4866.9878],[-66.1334,-27.248,5332.624],[-66.1273,-27.2524,5183.875],[-66.1178,-27.2563,4809.6875],[-66.1033,-27.2663,4103.8716],[-66.0912,-27.2787,3561.2959],[-66.0705,-27.2809,3393.6558],[-66.0533,-27.2865,2823.1372],[-66.0327,-27.2901,2514.3672],[-66.0134,-27.2972,2119.0586],[-66.0027,-27.3041,2068.6116],[-65.9955,-27.3048,1864.6692],[-65.9886,-27.3149,1796.6808],[-65.9844,-27.3333,1616.3322],[-65.9729,-27.3645,1664.4006],[-65.9704,-27.3805,1911.6305]]]]}
,"properties": {"GID_2": "ARG.24.3_1","GID_0": "ARG","country": "Argentina","GID_1": "ARG.24_1","state": "Tucumán","NL_NAME_1": "NA","county": "Chicligasta","VARNAME_2": "Concepcion","NL_NAME_2": "NA","TYPE_2": "Departamento","ENGTYPE_2": "Department","CC_2": "NA","HASC_2": "AR.TM.CH","name": "Chicligasta.county","area_km2": 1292.4099,"hist_schema_id": "Elevation0-9000","hist_area_km2": {"325": 3.6137,"350": 141.0403,"375": 107.7526,"400": 47.074,"425": 29.9159,"450": 21.3843,"475": 22.0272,"500": 22.7257,"525": 22.4066,"550": 22.2566,"575": 20.8619,"600": 19.3929,"625": 17.8288,"650": 15.7368,"675": 12.9285,"700": 12.2878,"725": 12.4572,"750": 11.7973,"775": 10.2702,"800": 9.5164,"825": 9.008,"850": 9.102,"875": 8.9705,"900": 8.518,"925": 9.1591,"950": 7.9715,"975": 7.8588,"1000": 7.1612,"1025": 6.9164,"1050": 6.5773,"1075": 7.3123,"1100": 7.3312,"1125": 7.7649,"1150": 8.1794,"1175": 7.426,"1200": 8.3313,"1225": 6.955,"1250": 6.8988,"1275": 6.1826,"1300": 7.1438,"1325": 6.7294,"1350": 6.4841,"1375": 6.1262,"1400": 6.0695,"1425": 6.3713,"1450": 6.1264,"1475": 6.3708,"1500": 6.8798,"1525": 7.2003,"1550": 7.257,"1575": 6.8799,"1600": 6.4844,"1625": 6.9557,"1650": 7.0874,"1675": 7.2195,"1700": 6.6353,"1725": 6.6541,"1750": 6.5599,"1775": 6.1446,"1800": 5.7113,"1825": 6.6542,"1850": 5.8247,"1875": 5.8814,"1900": 6.0696,"1925": 5.8059,"1950": 4.9573,"1975": 5.1085,"2000": 4.8066,"2025": 5.0523,"2050": 3.6574,"2075": 4.0907,"2100": 3.9776,"2125": 4.2227,"2150": 3.0353,"2175": 3.1107,"2200": 2.6395,"2225": 2.9226,"2250": 2.6021,"2275": 2.5644,"2300": 3.1865,"2325": 2.8851,"2350": 2.6209,"2375": 2.8662,"2400": 3.2246,"2425": 2.6775,"2450": 2.8473,"2475": 3.017,"2500": 2.8664,"2525": 3.1303,"2550": 2.6777,"2575": 2.6023,"2600": 2.4892,"2625": 2.5648,"2650": 3.4511,"2675": 2.8288,"2700": 2.5649,"2725": 2.6212,"2750": 2.6404,"2775": 2.5459,"2800": 2.7533,"2825": 2.5459,"2850": 2.3949,"2875": 3.0928,"2900": 2.8099,"2925": 2.0744,"2950": 2.5648,"2975": 2.4328,"3000": 2.0367,"3025": 2.5081,"3050": 2.659,"3075": 2.2065,"3100": 2.3761,"3125": 2.2064,"3150": 2.1875,"3175": 2.0178,"3200": 2.1687,"3225": 2.2818,"3250": 2.0555,"3275": 2.3761,"3300": 2.1877,"3325": 2.4327,"3350": 1.8292,"3375": 2.376,"3400": 2.3385,"3425": 2.2066,"3450": 2.263,"3475": 2.131,"3500": 1.8668,"3525": 2.1124,"3550": 2.0744,"3575": 2.1687,"3600": 2.4706,"3625": 1.9801,"3650": 1.8292,"3675": 2.2818,"3700": 2.282,"3725": 2.1499,"3750": 1.9801,"3775": 2.131,"3800": 2.1498,"3825": 1.999,"3850": 2.3949,"3875": 1.9803,"3900": 1.9613,"3925": 2.263,"3950": 2.1124,"3975": 2.4331,"4000": 2.2065,"4025": 2.1499,"4050": 2.4519,"4075": 2.0936,"4100": 2.4331,"4125": 2.8289,"4150": 2.2445,"4175": 2.3012,"4200": 2.6971,"4225": 2.6218,"4250": 2.9046,"4275": 3.0557,"4300": 3.0556,"4325": 3.1311,"4350": 3.2067,"4375": 3.3388,"4400": 3.4897,"4425": 3.8483,"4450": 3.9994,"4475": 3.8292,"4500": 4.4521,"4525": 4.3769,"4550": 4.8486,"4575": 5.0939,"4600": 5.6599,"4625": 5.5469,"4650": 5.3957,"4675": 5.3013,"4700": 5.5276,"4725": 5.32,"4750": 5.3767,"4775": 5.1313,"4800": 5.3386,"4825": 4.6028,"4850": 4.2066,"4875": 4.3954,"4900": 4.1689,"4925": 3.9424,"4950": 3.8669,"4975": 3.3197,"5000": 2.7349,"5025": 2.1312,"5050": 2.1122,"5075": 1.6407,"5100": 1.8857,"5125": 1.3577,"5150": 1.3577,"5175": 1.5461,"5200": 1.2634,"5225": 1.0748,"5250": 0.8674,"5275": 0.6977,"5300": 0.6788,"5325": 0.6411,"5350": 0.3583,"5375": 0.3771,"5400": 0.1886,"5425": 0.1131,"5450": 0.0754,"5475": 0.0754,"5500": 0.0566}}}