{"type":"Feature","properties":{"GID_2":"ARG.1.81_1","GID_0":"ARG","country":"Argentina","GID_1":"ARG.1_1","state":"BuenosAires","NL_NAME_1":"NA","county":"Moreno","VARNAME_2":"MarianoMoreno","NL_NAME_2":"NA","TYPE_2":"Partido","ENGTYPE_2":"Part","CC_2":"NA","HASC_2":"AR.BA.MR","name":"Moreno.county"},
"geometry":{"type": "MultiPolygon","coordinates": [[[[-58.861,-34.6888,18.0],[-58.8351,-34.6901,17.0101],[-58.8244,-34.6864,16.983],[-58.8187,-34.6894,18.5709],[-58.8098,-34.6845,18.5394],[-58.8098,-34.681,14.0869],[-58.795,-34.6771,14.5373],[-58.7803,-34.6697,13.6816],[-58.7691,-34.6688,15.9241],[-58.7671,-34.6659,13.9093],[-58.757,-34.6639,14.307],[-58.7365,-34.6485,12.2659],[-58.7322,-34.6468,11.4336],[-58.7321,-34.6424,11.1912],[-58.7246,-34.6318,10.6882],[-58.724,-34.6237,9.7946],[-58.7143,-34.6105,13.0852],[-58.7774,-34.5631,28.6273],[-58.7766,-34.5624,29.3116],[-58.8235,-34.5134,22.6987],[-58.8308,-34.5272,24.8787],[-58.8399,-34.5381,25.9186],[-58.8415,-34.5445,27.3648],[-58.8489,-34.5563,38.1221],[-58.8688,-34.5726,33.1645],[-58.8908,-34.5845,33.4499],[-58.8647,-34.6216,30.9256],[-58.8845,-34.6315,29.7168],[-58.8814,-34.6332,27.3244],[-58.8811,-34.6368,26.3834],[-58.8834,-34.6477,29.2572],[-58.8815,-34.6539,20.518],[-58.8846,-34.6725,18.2243],[-58.8828,-34.6761,18.8925],[-58.861,-34.6888,18.0]]]]}}