{"type": "Feature","bbox": [-59.6889,-30.4256,-58.7381,-29.4676],"geometry": {"type": "MultiPolygon","coordinates": [[[[-58.9021,-29.4676,39.7615],[-58.909,-29.4765,39.4212],[-58.9283,-29.4894,39.3854],[-58.9416,-29.5073,36.9229],[-58.9497,-29.5152,36.9009],[-58.9532,-29.5215,37.1833],[-58.9545,-29.5321,40.419],[-58.9581,-29.5383,38.7522],[-58.9806,-29.5465,35.7244],[-59.0005,-29.5587,37.3453],[-59.0194,-29.5651,36.6039],[-59.0228,-29.5669,37.5775],[-59.027,-29.5729,41.917],[-59.037,-29.579,37.3411],[-59.0484,-29.5827,35.2143],[-59.0597,-29.583,41.3406],[-59.0641,-29.589,40.7655],[-59.0654,-29.5996,31.8419],[-59.0761,-29.6145,37.5095],[-59.0818,-29.6279,38.4706],[-59.0827,-29.6455,31.9207],[-59.0842,-29.6488,35.1537],[-59.093,-29.6561,34.1472],[-59.0998,-29.6648,32.8393],[-59.1202,-29.6763,33.0853],[-59.1386,-29.6836,33.1744],[-59.1478,-29.6953,35.8488],[-59.1485,-29.6988,33.5131],[-59.1446,-29.7088,32.3113],[-59.1477,-29.7154,32.5893],[-59.1543,-29.7193,33.8313],[-59.1663,-29.7206,32.3586],[-59.1695,-29.7228,32.7115],[-59.1753,-29.736,38.722],[-59.1828,-29.7443,38.1271],[-59.1974,-29.7503,39.7807],[-59.2243,-29.7575,31.2719],[-59.2388,-29.7641,31.7324],[-59.255,-29.7654,37.7839],[-59.2712,-29.7759,30.757],[-59.2786,-29.7789,30.4524],[-59.319,-29.7831,34.9492],[-59.3749,-29.8035,30.9832],[-59.383,-29.8039,33.5323],[-59.3985,-29.8082,32.683],[-59.4106,-29.8072,36.4079],[-59.4144,-29.8085,36.1064],[-59.4318,-29.8174,39.0878],[-59.4418,-29.8284,26.992],[-59.4494,-29.8305,28.7704],[-59.458,-29.8425,27.6621],[-59.4653,-29.8456,27.087],[-59.4734,-29.8461,27.4128],[-59.476,-29.8481,26.8386],[-59.4792,-29.8547,26.9052],[-59.4859,-29.8586,26.2297],[-59.493,-29.9106,25.96],[-59.4998,-29.9274,24.6288],[-59.5026,-29.9486,24.7494],[-59.5055,-29.9552,25.3378],[-59.532,-29.9909,25.6301],[-59.537,-30.0006,24.8811],[-59.5631,-30.0211,22.0],[-59.5633,-30.0311,22.0],[-59.5675,-30.0379,22.0],[-59.5741,-30.0431,22.0],[-59.5915,-30.0469,24.5871],[-59.5995,-30.061,23.0087],[-59.6,-30.066,22.0],[-59.5942,-30.0837,24.0329],[-59.5927,-30.0967,26.0418],[-59.6011,-30.1162,21.5],[-59.6194,-30.1432,22.4649],[-59.624,-30.161,25.4022],[-59.6249,-30.1688,21.5],[-59.623,-30.1949,23.0498],[-59.6182,-30.2098,23.7605],[-59.6224,-30.228,24.534],[-59.6296,-30.2359,26.3312],[-59.648,-30.2451,21.9373],[-59.6808,-30.268,26.9368],[-59.6866,-30.274,22.8135],[-59.6889,-30.2789,23.1171],[-59.6889,-30.2841,23.4358],[-59.6867,-30.2889,23.2923],[-59.6722,-30.3057,21.0],[-59.6583,-30.316,22.0],[-59.6552,-30.3202,23.1781],[-59.655,-30.3253,23.3724],[-59.6608,-30.3486,21.0],[-59.6388,-30.3554,25.2099],[-59.6298,-30.3625,26.0759],[-59.6277,-30.3699,23.1444],[-59.6277,-30.3857,21.871],[-59.6202,-30.4,24.0868],[-59.614,-30.4177,21.7643],[-59.6105,-30.4217,21.4914],[-59.6019,-30.4252,22.3726],[-59.5959,-30.4256,21.235],[-59.5884,-30.4217,21.6097],[-59.583,-30.4151,22.3983],[-59.5696,-30.3749,21.7079],[-59.5693,-30.3619,22.9777],[-59.5669,-30.3514,22.8727],[-59.5642,-30.3472,22.7607],[-59.5607,-30.3472,22.6618],[-59.5595,-30.337,23.2305],[-59.5545,-30.3341,24.2666],[-59.5483,-30.333,23.0259],[-59.5459,-30.3378,23.2901],[-59.5436,-30.338,24.4673],[-59.5378,-30.3355,23.4459],[-59.5319,-30.3353,30.0354],[-59.5119,-30.3411,23.7038],[-59.4758,-30.3385,24.1076],[-59.4685,-30.3344,24.9106],[-59.4601,-30.3338,25.2494],[-59.4579,-30.3283,25.0815],[-59.456,-30.3273,27.1252],[-59.45,-30.3293,24.7384],[-59.4444,-30.3273,24.7996],[-59.4385,-30.328,24.2899],[-59.434,-30.3245,23.6402],[-59.428,-30.3244,25.2071],[-59.4171,-30.3198,26.656],[-59.4064,-30.3236,25.8554],[-59.3977,-30.3207,26.1766],[-59.3782,-30.3271,27.8146],[-59.3515,-30.3288,29.099],[-59.3278,-30.3487,28.9429],[-59.3096,-30.3477,33.3541],[-59.2975,-30.3552,31.1013],[-59.2919,-30.357,34.931399999999996],[-59.2768,-30.3578,33.3174],[-59.2652,-30.3546,44.3051],[-59.2487,-30.3607,34.3184],[-59.2423,-30.3613,37.1597],[-59.2369,-30.3599,33.0888],[-59.2281,-30.3491,35.764],[-59.2123,-30.3415,34.799],[-59.2043,-30.3304,39.482],[-59.1836,-30.3285,35.2055],[-59.1709,-30.3213,35.5644],[-59.1493,-30.3122,36.7628],[-59.1288,-30.2992,38.348],[-59.1328,-30.2089,47.4858],[-59.1046,-30.1951,43.7719],[-59.0883,-30.1845,47.8725],[-59.0759,-30.1753,42.0806],[-59.0723,-30.169,40.0335],[-59.0725,-30.1548,34.7147],[-59.0673,-30.1433,34.8529],[-59.0795,-30.1385,35.9893],[-59.0417,-29.8653,37.5518],[-58.9868,-29.8523,38.1499],[-58.9746,-29.8431,38.7519],[-58.9633,-29.8392,38.1991],[-58.9341,-29.82,38.855],[-58.8968,-29.7873,39.3483],[-58.8806,-29.7764,39.5477],[-58.8666,-29.7692,39.8512],[-58.8549,-29.7594,40.2823],[-58.8524,-29.7528,40.4899],[-58.8555,-29.7281,41.5655],[-58.854,-29.7176,47.404],[-58.8506,-29.7164,47.0722],[-58.8474,-29.7229,42.8773],[-58.8437,-29.724,41.2878],[-58.8401,-29.7224,41.0568],[-58.8319,-29.7144,40.9485],[-58.7972,-29.6959,43.5306],[-58.7791,-29.6817,43.1897],[-58.7714,-29.6794,44.5813],[-58.7633,-29.6792,44.3126],[-58.7523,-29.6744,44.9163],[-58.7423,-29.6684,45.5124],[-58.7382,-29.6626,45.7907],[-58.7381,-29.6306,45.9802],[-58.7396,-29.6237,45.594],[-58.7568,-29.5996,45.7792],[-58.7755,-29.5859,42.1342],[-58.7907,-29.5814,41.8637],[-58.8191,-29.5794,41.1096],[-58.8879,-29.5696,39.4337],[-58.8777,-29.4892,40.7896],[-58.9021,-29.4676,39.7615]]]]}
,"properties": {"GID_2": "ARG.7.7_1","GID_0": "ARG","country": "Argentina","GID_1": "ARG.7_1","state": "Corrientes","NL_NAME_1": "NA","county": "Esquina","VARNAME_2": "NA","NL_NAME_2": "NA","TYPE_2": "Departamento","ENGTYPE_2": "Department","CC_2": "NA","HASC_2": "AR.CN.ES","name": "Esquina.county","area_km2": 3850.943,"hist_schema_id": "Elevation0-9000","hist_area_km2": {"25": 2221.483,"50": 1624.547,"75": 4.912}}}