{"type":"Feature","properties":{"GID_2":"ARG.24.4_1","GID_0":"ARG","country":"Argentina","GID_1":"ARG.24_1","state":"Tucumán","NL_NAME_1":"NA","county":"CruzAlta","VARNAME_2":"BandadelR.Sali","NL_NAME_2":"NA","TYPE_2":"Departamento","ENGTYPE_2":"Department","CC_2":"NA","HASC_2":"AR.TM.CA","name":"CruzAlta.county"},
"geometry":{"type": "MultiPolygon","coordinates": [[[[-64.7345,-26.8744,335.2122],[-64.7981,-26.8634,363.1899],[-64.7964,-26.8494,361.9628],[-64.8247,-26.844,372.4873],[-64.8211,-26.8253,377.8193],[-64.9008,-26.8126,428.7982],[-64.8943,-26.7854,463.02],[-64.9529,-26.7766,509.0182],[-64.9618,-26.8149,468.5156],[-65.1128,-26.7884,476.1263],[-65.1084,-26.7673,495.4273],[-65.1516,-26.7582,468.5267],[-65.1631,-26.7664,458.399],[-65.17,-26.7679,476.309],[-65.1683,-26.7809,459.0138],[-65.1693,-26.7924,447.0623],[-65.1672,-26.7957,445.0825],[-65.1657,-26.8052,436.4154],[-65.1663,-26.8283,427.7247],[-65.1817,-26.8466,420.2946],[-65.1851,-26.8556,415.114],[-65.1954,-26.8678,410.1937],[-65.1999,-26.8766,405.6796],[-65.2098,-26.8891,402.9976],[-65.2176,-26.9112,396.4844],[-65.2188,-26.9226,391.7267],[-65.2224,-26.9316,390.5013],[-65.2218,-26.9527,385.3663],[-65.2297,-26.959,381.4326],[-65.2321,-26.9704,375.5927],[-65.2363,-26.9745,374.0483],[-65.2508,-26.9996,366.3615],[-65.1897,-27.0121,368.004],[-65.1888,-27.0143,367.1221],[-65.1702,-27.0184,366.3913],[-65.1705,-27.0216,365.8802],[-65.1256,-27.0317,361.4612],[-65.1231,-27.0229,365.7047],[-65.057,-27.0369,359.9083],[-65.0524,-27.0224,365.5066],[-64.9059,-27.045,357.921],[-64.9068,-27.0501,356.9388],[-64.7799,-27.0693,398.9628],[-64.7603,-27.0078,367.6933],[-64.7558,-26.9666,380.2814],[-64.7446,-26.9258,347.2469],[-64.7345,-26.8744,335.2122]]]]}}