{"type": "Feature","bbox": [-63.9388,-35.4602,-63.3894,-34.9982],"geometry": {"type": "MultiPolygon","coordinates": [[[[-63.3927,-34.9984,125.7122],[-63.9388,-34.9982,146.0904],[-63.937,-35.4602,145.2011],[-63.3894,-35.4591,116.6635],[-63.3932,-35.0658,124.4943],[-63.3927,-34.9984,125.7122]]]]}
,"properties": {"GID_2": "ARG.11.6_1","GID_0": "ARG","country": "Argentina","GID_1": "ARG.11_1","state": "LaPampa","NL_NAME_1": "NA","county": "Chapaleufú","VARNAME_2": "IntendenteAlvear","NL_NAME_2": "NA","TYPE_2": "Departamento","ENGTYPE_2": "Department","CC_2": "NA","HASC_2": "AR.LP.CP","name": "Chapaleufú.county","area_km2": 2546.417,"hist_schema_id": "Elevation0-9000","hist_area_km2": {"125": 1757.311,"150": 789.106}}}