{"type":"Feature","properties":{"GID_2":"ARG.19.3_1","GID_0":"ARG","country":"Argentina","GID_1":"ARG.19_1","state":"SanLuis","NL_NAME_1":"NA","county":"Chacabuco","VARNAME_2":"Concaran","NL_NAME_2":"NA","TYPE_2":"Departamento","ENGTYPE_2":"Department","CC_2":"NA","HASC_2":"AR.SL.CH","name":"Chacabuco.county"},
"geometry":{"type": "MultiPolygon","coordinates": [[[[-64.9297,-32.4493,1982.0522],[-64.9524,-32.4546,1348.3243],[-64.96,-32.4599,1228.1022],[-64.9655,-32.4612,1182.9446],[-64.987,-32.4559,922.1851],[-64.9983,-32.4564,880.4919],[-65.009,-32.459,850.0312],[-65.0246,-32.4545,821.7015],[-65.0357,-32.4558,815.4065],[-65.0408,-32.454,806.262],[-65.0499,-32.4419,773.2868],[-65.0575,-32.4349,761.0567],[-65.0731,-32.4296,737.2263],[-65.392,-32.5049,835.6935],[-65.3951,-32.5228,855.28],[-65.4216,-32.7917,815.0522],[-65.4484,-32.7993,818.0402],[-65.4727,-32.8195,837.0],[-65.4864,-32.8403,840.2462],[-65.5075,-32.8563,873.0895],[-65.5208,-32.8928,885.9187],[-65.526,-32.9012,894.6258],[-65.5298,-32.9048,892.8486],[-65.5632,-32.9228,905.5018],[-65.5912,-32.9521,932.9509],[-65.5874,-32.9569,926.145],[-65.578,-32.962,919.4617],[-65.5828,-32.9964,902.5823],[-65.2275,-32.996,908.0249],[-65.0233,-33.0252,1231.7048],[-65.0182,-33.0151,1268.2192],[-65.0171,-32.9973,1304.9647],[-65.0142,-32.9874,1402.6107],[-65.0159,-32.9825,1478.8856],[-65.0262,-32.9772,1424.1772],[-65.028,-32.9722,1242.8362],[-65.0273,-32.9698,1340.1298],[-65.0146,-32.963,1556.4373],[-65.0097,-32.9566,1550.5833],[-65.0035,-32.9238,1172.4802],[-64.9984,-32.9146,1170.8368],[-64.9836,-32.9018,1513.297],[-64.9783,-32.8992,1523.1403],[-64.9773,-32.897,1549.2407],[-64.9855,-32.8865,1397.1991],[-64.9756,-32.8809,1520.2407],[-64.9709,-32.848,1448.3551],[-64.9722,-32.82,1549.1318],[-64.9667,-32.8054,1580.0208],[-64.9604,-32.7967,1617.8589],[-64.9571,-32.7869,1622.8243],[-64.9551,-32.7614,1577.9231],[-64.9553,-32.7384,1552.0583],[-64.9409,-32.7103,1837.5394],[-64.9369,-32.7065,1863.3813],[-64.9265,-32.7017,1798.7151],[-64.927,-32.6965,1658.8196],[-64.9323,-32.6874,1349.8926],[-64.9319,-32.6722,1564.8379],[-64.9406,-32.6649,1473.5221],[-64.9408,-32.6574,1335.6765],[-64.9372,-32.6503,1361.1287],[-64.9297,-32.6459,1402.0414],[-64.9288,-32.6438,1404.3572],[-64.9289,-32.6309,1720.6127],[-64.9259,-32.6209,1747.7971],[-64.9094,-32.6148,1851.6077],[-64.899,-32.6057,1903.837],[-64.8892,-32.587,1832.756],[-64.884,-32.5808,1771.7861],[-64.8811,-32.5734,1725.4092],[-64.8846,-32.5667,1806.6394],[-64.8997,-32.554,1825.5254],[-64.8957,-32.5472,1878.0394],[-64.8882,-32.5395,1948.4985],[-64.8867,-32.5292,1952.812],[-64.8882,-32.5278,1946.4474],[-64.9063,-32.5269,1867.7451],[-64.9109,-32.5236,1907.3945],[-64.916,-32.5143,1927.9567],[-64.9055,-32.5019,1928.6465],[-64.8978,-32.499,1927.9344],[-64.8949,-32.4916,1904.5266],[-64.9034,-32.4845,1917.6777],[-64.9152,-32.4828,1945.1626],[-64.9233,-32.4793,1941.5243],[-64.93,-32.4681,1918.3269],[-64.9297,-32.4493,1982.0522]]]]}}