{"type": "Feature","bbox": [-57.7771,-28.3874,-56.9605,-27.4422],"geometry": {"type": "MultiPolygon","coordinates": [[[[-57.655,-28.3874,57.7538],[-57.6163,-28.3639,57.9019],[-57.5942,-28.3557,58.0859],[-57.5355,-28.3438,59.7724],[-57.5275,-28.3439,59.6072],[-57.5171,-28.3387,60.1483],[-57.502,-28.3339,60.2866],[-57.4814,-28.3172,58.0],[-57.4603,-28.307,59.6923],[-57.452,-28.2994,58.7275],[-57.4412,-28.2803,58.0],[-57.4343,-28.2716,60.0932],[-57.4297,-28.2617,60.1713],[-57.4317,-28.2442,60.1107],[-57.4252,-28.2274,60.5758],[-57.4249,-28.2203,60.3264],[-57.4311,-28.2034,60.2003],[-57.4311,-28.1963,60.044],[-57.4246,-28.1834,60.0019],[-57.4197,-28.1626,60.5669],[-57.4106,-28.1467,60.8587],[-57.4076,-28.1364,61.0919],[-57.4191,-28.0877,61.7048],[-57.4196,-28.0592,62.5842],[-57.4168,-28.0345,63.3372],[-57.408,-28.0034,64.3112],[-57.3991,-27.9836,64.7166],[-57.3894,-27.9681,65.5032],[-57.3768,-27.9381,66.2387],[-57.3521,-27.9015,92.1238],[-57.3222,-27.8681,67.6891],[-57.2984,-27.8491,71.1269],[-57.2752,-27.8351,67.1742],[-57.2276,-27.797,71.9235],[-57.2112,-27.7815,67.9562],[-57.1865,-27.7331,68.7808],[-57.1758,-27.7226,69.3197],[-57.1341,-27.6952,69.4746],[-57.1243,-27.6841,69.7004],[-57.1168,-27.6716,69.8235],[-57.1081,-27.648,70.0819],[-57.095,-27.6346,70.4874],[-57.0722,-27.6203,70.9],[-57.0507,-27.6109,71.0128],[-57.0089,-27.599,71.3155],[-56.9917,-27.5844,71.5646],[-56.9797,-27.5702,71.9738],[-56.9685,-27.5601,72.0343],[-56.9609,-27.5477,71.3413],[-56.9605,-27.537,59.0513],[-56.9625,-27.5264,53.5],[-56.9848,-27.5158,55.2357],[-57.0,-27.5106,53.5],[-57.0,-27.4648,53.5],[-57.0159,-27.4729,53.5],[-57.0336,-27.4787,53.5],[-57.0759,-27.4871,53.5],[-57.1222,-27.4795,53.5],[-57.1621,-27.4671,53.5],[-57.1774,-27.4593,53.5],[-57.1956,-27.4525,53.5],[-57.2329,-27.4422,53.5],[-57.2623,-27.4533,53.5],[-57.2645,-27.4557,53.5],[-57.2615,-27.4624,59.9228],[-57.2379,-27.4759,55.7051],[-57.2353,-27.4786,57.6876],[-57.2349,-27.482,59.651],[-57.2409,-27.4913,55.5881],[-57.2566,-27.5073,69.2923],[-57.294,-27.5392,68.6273],[-57.3124,-27.5579,67.9494],[-57.3346,-27.573,68.063],[-57.3469,-27.587,67.9382],[-57.3959,-27.6175,68.0058],[-57.3998,-27.6236,68.0221],[-57.4002,-27.6343,72.1434],[-57.4017,-27.6375,69.1575],[-57.4187,-27.6525,67.9415],[-57.4453,-27.6683,67.8384],[-57.4992,-27.6915,67.9373],[-57.5556,-27.7312,67.3646],[-57.5886,-27.7513,67.2733],[-57.6038,-27.7629,67.2365],[-57.6416,-27.7995,70.2662],[-57.6806,-27.8447,65.5],[-57.7095,-27.8872,65.7779],[-57.7199,-27.9065,65.8489],[-57.7408,-27.923,65.1286],[-57.7771,-27.9423,65.1258],[-57.7329,-27.9968,65.6274],[-57.7061,-28.0263,65.814],[-57.6952,-28.049,75.9092],[-57.6466,-28.1225,73.5035],[-57.6714,-28.1413,73.7916],[-57.6073,-28.2358,62.1207],[-57.645,-28.2747,61.3215],[-57.6904,-28.3143,61.2249],[-57.6791,-28.3255,59.4916],[-57.6712,-28.3265,59.4793],[-57.6645,-28.3307,59.4567],[-57.6627,-28.3336,59.243],[-57.6659,-28.3476,58.6607],[-57.6651,-28.3511,59.7669],[-57.6545,-28.3615,58.9409],[-57.6541,-28.3651,58.7168],[-57.6572,-28.3754,58.7199],[-57.655,-28.3874,57.7538]]]]}
,"properties": {"GID_2": "ARG.7.22_1","GID_0": "ARG","country": "Argentina","GID_1": "ARG.7_1","state": "Corrientes","NL_NAME_1": "NA","county": "SanMiguel","VARNAME_2": "NA","NL_NAME_2": "NA","TYPE_2": "Departamento","ENGTYPE_2": "Department","CC_2": "NA","HASC_2": "AR.CN.SG","name": "SanMiguel.county","area_km2": 2945.792,"hist_schema_id": "Elevation0-9000","hist_area_km2": {"50": 607.753,"75": 2321.841,"100": 16.198}}}