{"type": "Feature","bbox": [-58.0428,-35.7209,-57.1249,-34.931],"geometry": {"type": "MultiPolygon","coordinates": [[[[-57.7567,-34.9745,4.9714],[-57.8249,-35.0348,7.194],[-57.8289,-35.0337,9.3166],[-57.9744,-35.1606,21.6748],[-57.9412,-35.1866,17.1652],[-57.9384,-35.1841,15.5334],[-57.9152,-35.2007,13.95],[-57.9176,-35.2035,14.127],[-57.8909,-35.2244,12.6903],[-58.0428,-35.3509,7.743],[-58.0364,-35.3572,7.8586],[-58.0208,-35.3562,8.2126],[-58.0149,-35.3528,7.2714],[-58.0087,-35.3418,6.5486],[-57.99,-35.3348,7.2965],[-57.9873,-35.3382,7.25],[-57.9851,-35.3484,7.0099],[-57.9777,-35.3588,5.801],[-57.9611,-35.3689,7.2535],[-57.957,-35.3786,7.1193],[-57.9538,-35.3804,7.1255],[-57.9496,-35.3796,6.6156],[-57.9454,-35.3829,7.9856],[-57.9259,-35.3784,7.4077],[-57.9232,-35.387,6.2838],[-57.9209,-35.3891,6.9558],[-57.9059,-35.3882,5.8867],[-57.8978,-35.3927,7.3243],[-57.8971,-35.3975,7.0648],[-57.8892,-35.3962,8.1844],[-57.8831,-35.3926,6.085],[-57.8786,-35.3936,5.9985],[-57.8773,-35.4051,6.3232],[-57.8713,-35.4069,7.4782],[-57.8667,-35.4122,8.2593],[-57.854,-35.4192,10.9194],[-57.8454,-35.42,7.4215],[-57.8385,-35.426,6.2516],[-57.8353,-35.4358,6.6899],[-57.8264,-35.4443,7.8842],[-57.8155,-35.4502,5.4003],[-57.7994,-35.4511,7.1628],[-57.781,-35.4464,6.2034],[-57.7783,-35.4481,5.8514],[-57.7769,-35.4619,6.9341],[-57.7727,-35.4681,3.9959],[-57.7647,-35.4677,4.2047],[-57.7533,-35.4725,6.3781],[-57.7504,-35.481,6.4479],[-57.7299,-35.4828,5.2841],[-57.7248,-35.4861,5.8038],[-57.7154,-35.4868,6.5945],[-57.7106,-35.4895,6.3429],[-57.6995,-35.4912,6.7666],[-57.6901,-35.4901,5.099],[-57.6781,-35.4719,3.5748],[-57.6658,-35.4735,6.0161],[-57.6611,-35.4714,5.7083],[-57.6378,-35.4773,3.2082],[-57.6287,-35.4755,3.3502],[-57.6219,-35.4701,6.3369],[-57.6158,-35.4684,4.1636],[-57.6117,-35.4655,3.5572],[-57.5915,-35.4637,5.9823],[-57.5877,-35.4653,4.5934],[-57.5803,-35.4628,3.0],[-57.5669,-35.4631,3.1907],[-57.5605,-35.4681,5.9184],[-57.5577,-35.476,5.9345],[-57.5536,-35.4745,3.6631],[-57.545,-35.4767,5.8084],[-57.5372,-35.4751,3.6877],[-57.528,-35.4772,3.2985],[-57.5082,-35.4731,3.9529],[-57.5027,-35.4786,6.1615],[-57.4943,-35.4726,5.2995],[-57.4909,-35.4764,5.7204],[-57.4859,-35.4787,4.7716],[-57.4843,-35.4889,5.3254],[-57.4807,-35.4936,4.0779],[-57.4738,-35.4926,3.8895],[-57.471,-35.4986,3.4025],[-57.4648,-35.5044,3.1233],[-57.4571,-35.5081,4.3764],[-57.4519,-35.5078,5.1932],[-57.4477,-35.5118,3.8881],[-57.4368,-35.5163,4.2404],[-57.4422,-35.5226,4.7859],[-57.4539,-35.5442,3.7619],[-57.459,-35.561,3.8956],[-57.4537,-35.5618,3.4127],[-57.464,-35.5912,4.637],[-57.4547,-35.6038,3.434],[-57.4449,-35.6135,4.9799],[-57.437,-35.6154,4.3787],[-57.4361,-35.621,4.5998],[-57.44,-35.6333,3.5293],[-57.4354,-35.642,3.7339],[-57.4286,-35.6425,4.1242],[-57.4202,-35.6494,4.1125],[-57.4199,-35.6556,4.3387],[-57.4124,-35.6642,4.4145],[-57.4087,-35.6652,3.8433],[-57.3984,-35.6741,5.1888],[-57.3941,-35.6738,5.1992],[-57.3927,-35.6771,4.8123],[-57.3885,-35.6794,5.0123],[-57.3803,-35.6782,3.8938],[-57.3756,-35.6832,4.8347],[-57.3752,-35.6876,2.9734],[-57.3839,-35.6903,5.192],[-57.3902,-35.6964,5.0572],[-57.3849,-35.7002,3.433],[-57.3871,-35.7127,3.1473],[-57.37,-35.7117,2.4366],[-57.346,-35.7209,0.0],[-57.3471,-35.7199,2.0255],[-57.3462,-35.7168,0.0],[-57.3401,-35.7137,0.0],[-57.3401,-35.7099,0.9973],[-57.3357,-35.7068,0.0],[-57.3318,-35.6999,0.0],[-57.3229,-35.6924,0.0],[-57.319,-35.686,0.0],[-57.316,-35.684,0.2567],[-57.3157,-35.6815,0.2387],[-57.3138,-35.6813,0.0],[-57.3076,-35.6712,0.0],[-57.2993,-35.6624,0.0],[-57.2996,-35.6601,0.0],[-57.2901,-35.6485,0.0],[-57.2854,-35.6451,0.0],[-57.2863,-35.6429,0.0],[-57.2799,-35.6362,0.0],[-57.2796,-35.6338,0.0],[-57.2724,-35.6279,0.0],[-57.2724,-35.6251,0.3382],[-57.2674,-35.6179,0.0],[-57.2582,-35.6085,0.0],[-57.2543,-35.6007,0.0],[-57.2454,-35.589,0.3776],[-57.2393,-35.5851,0.0],[-57.2396,-35.5835,0.0],[-57.2379,-35.5838,0.0],[-57.2376,-35.5799,0.0],[-57.2313,-35.5751,0.0],[-57.229,-35.5707,1.6657],[-57.219,-35.5635,0.1526],[-57.2135,-35.5557,0.2872],[-57.194,-35.5382,0.0],[-57.1849,-35.5265,0.0],[-57.1682,-35.5115,0.0],[-57.1599,-35.5013,0.0],[-57.1538,-35.4968,0.9438],[-57.1485,-35.486,1.2877],[-57.1421,-35.4785,0.0],[-57.1401,-35.469,0.2496],[-57.1287,-35.4512,0.2056],[-57.1268,-35.4437,0.0],[-57.1249,-35.4429,0.0],[-57.1268,-35.441,0.0],[-57.1271,-35.426,0.0],[-57.1296,-35.4251,0.0],[-57.1279,-35.4229,0.0],[-57.1418,-35.3982,0.0],[-57.1435,-35.3979,0.0],[-57.1443,-35.3949,0.0],[-57.1429,-35.3946,0.0],[-57.1465,-35.3868,0.0],[-57.1529,-35.3804,0.2344],[-57.1574,-35.3713,0.0],[-57.1596,-35.371,0.0],[-57.1629,-35.366,0.0],[-57.1646,-35.366,0.0],[-57.1654,-35.3604,0.0],[-57.179,-35.3479,0.0],[-57.1807,-35.3429,0.0],[-57.1865,-35.3349,1.2665],[-57.1893,-35.3254,0.6257],[-57.2024,-35.3029,0.3774],[-57.214,-35.2899,0.1853],[-57.2154,-35.2857,0.1826],[-57.2235,-35.2757,1.1893],[-57.2226,-35.2718,0.0],[-57.2249,-35.2724,2.404],[-57.2251,-35.2701,0.8388],[-57.2296,-35.269,0.3203],[-57.2326,-35.2629,0.0],[-57.2404,-35.2551,0.0],[-57.2446,-35.2535,0.4779],[-57.249,-35.2471,0.0],[-57.2588,-35.2393,0.0],[-57.2637,-35.2376,0.1497],[-57.2721,-35.2282,0.0],[-57.2743,-35.2282,1.6537],[-57.2868,-35.2121,0.5258],[-57.3024,-35.1985,0.0],[-57.3162,-35.1824,0.0],[-57.3168,-35.1796,0.0],[-57.3226,-35.1779,0.0],[-57.3257,-35.1721,0.0],[-57.339,-35.1601,3.2668],[-57.3424,-35.1549,0.0],[-57.3499,-35.1504,0.0],[-57.3529,-35.146,0.0],[-57.371,-35.1329,0.0],[-57.3899,-35.116,0.0],[-57.3924,-35.1157,3.4282],[-57.3946,-35.1121,0.0],[-57.4076,-35.1046,1.1283],[-57.4385,-35.0768,0.0],[-57.4615,-35.0599,1.6096],[-57.4712,-35.0546,1.7495],[-57.5001,-35.031,0.0],[-57.5051,-35.0304,3.4613],[-57.5074,-35.0246,1.3424],[-57.5176,-35.0213,2.1126],[-57.5204,-35.0176,0.0],[-57.5301,-35.0137,0.0],[-57.5368,-35.0135,0.5386],[-57.5446,-35.0101,0.0],[-57.5651,-35.0054,1.5333],[-57.5899,-34.9957,0.9044],[-57.6082,-34.984,1.257],[-57.6196,-34.9738,0.9138],[-57.6437,-34.9568,0.3851],[-57.6576,-34.9493,2.0726],[-57.6735,-34.9376,1.0587],[-57.6832,-34.9332,0.6986],[-57.6851,-34.934,1.0779],[-57.7066,-34.931,1.7432],[-57.7567,-34.9745,4.9714]]]]}
,"properties": {"GID_2": "ARG.1.73_1","GID_0": "ARG","country": "Argentina","GID_1": "ARG.1_1","state": "BuenosAires","NL_NAME_1": "NA","county": "Magdalena","VARNAME_2": "NA","NL_NAME_2": "NA","TYPE_2": "Partido","ENGTYPE_2": "Part","CC_2": "NA","HASC_2": "AR.BA.ML","name": "Magdalena.county","area_km2": 3532.333,"hist_schema_id": "Elevation0-9000","hist_area_km2": {"0": 2214.654,"25": 1317.455,"50": 0.225}}}