{"type":"Feature","properties":{"GID_2":"ARG.1.125_1","GID_0":"ARG","country":"Argentina","GID_1":"ARG.1_1","state":"BuenosAires","NL_NAME_1":"NA","county":"VicenteLópez","VARNAME_2":"Olivos","NL_NAME_2":"NA","TYPE_2":"Partido","ENGTYPE_2":"Part","CC_2":"NA","HASC_2":"AR.BA.VL","name":"VicenteLópez.county"},
"geometry":{"type": "MultiPolygon","coordinates": [[[[-58.5103,-34.5745,23.0951],[-58.5005,-34.5541,16.0811],[-58.4546,-34.534,0.0],[-58.4551,-34.5326,5.0369],[-58.4529,-34.5315,0.0],[-58.4532,-34.5293,0.0],[-58.4568,-34.5262,0.0],[-58.4626,-34.5274,2.2977],[-58.4679,-34.5229,0.7642],[-58.4699,-34.5187,5.1783],[-58.4685,-34.5165,0.0],[-58.4693,-34.5112,0.0],[-58.4749,-34.509,3.0951],[-58.474,-34.5032,0.0],[-58.4757,-34.5032,0.0],[-58.479,-34.4945,3.0782],[-58.5319,-34.5182,26.0687],[-58.5313,-34.5191,27.4348],[-58.5378,-34.5237,26.6733],[-58.5394,-34.5224,27.0483],[-58.5543,-34.5352,27.0893],[-58.5382,-34.5493,28.0328],[-58.5304,-34.5423,26.3835],[-58.5281,-34.5467,26.6424],[-58.5294,-34.5476,26.6424],[-58.5242,-34.5566,27.8041],[-58.5103,-34.5745,23.0951]]]]}}