{"type": "Feature","bbox": [-60.9472,-34.1752,-60.1429,-33.5413],"geometry": {"type": "MultiPolygon","coordinates": [[[[-60.1557,-33.7496,53.2077],[-60.1459,-33.721,55.8633],[-60.1433,-33.717,56.0077],[-60.1429,-33.6931,56.4188],[-60.1645,-33.6894,58.9885],[-60.1762,-33.6765,56.4964],[-60.1749,-33.6673,57.3076],[-60.2459,-33.6557,38.3841],[-60.2447,-33.6628,38.7613],[-60.3127,-33.6534,41.242],[-60.3193,-33.6605,41.5645],[-60.3269,-33.6746,42.5462],[-60.3837,-33.6314,53.2448],[-60.3903,-33.6363,53.4079],[-60.4242,-33.6114,51.4378],[-60.4282,-33.6163,53.8659],[-60.459,-33.594,39.1097],[-60.4596,-33.6018,41.3072],[-60.4619,-33.6044,41.625],[-60.4583,-33.621,45.0916],[-60.4595,-33.6266,43.5513],[-60.4618,-33.6292,42.2127],[-60.4676,-33.63,43.1015],[-60.4735,-33.6331,45.1704],[-60.4805,-33.6335,50.6677],[-60.4964,-33.6398,48.054],[-60.507,-33.6403,51.6002],[-60.5275,-33.6452,46.6379],[-60.5417,-33.6449,47.7942],[-60.5737,-33.6324,52.4112],[-60.5843,-33.6313,50.1439],[-60.5895,-33.6274,51.1002],[-60.6068,-33.6264,51.0803],[-60.6114,-33.6221,55.0528],[-60.6219,-33.6203,56.9337],[-60.6484,-33.6008,55.0468],[-60.6593,-33.5894,55.9519],[-60.6843,-33.5781,56.798],[-60.6979,-33.5749,59.9003],[-60.7289,-33.5812,59.278],[-60.7499,-33.5794,60.8859],[-60.793,-33.5659,61.4158],[-60.7988,-33.5624,63.9042],[-60.8078,-33.5499,62.3465],[-60.8153,-33.5435,62.6213],[-60.8291,-33.5413,63.4324],[-60.8468,-33.5417,64.8683],[-60.857,-33.5441,65.6089],[-60.872,-33.552,66.1412],[-60.9085,-33.5833,71.0286],[-60.8795,-33.6094,81.9723],[-60.8437,-33.6488,79.2439],[-60.8113,-33.6745,80.8729],[-60.9041,-33.7521,78.6972],[-60.8658,-33.7826,77.9887],[-60.9472,-33.8566,80.2059],[-60.9082,-33.8897,85.2237],[-60.9051,-33.8871,84.7448],[-60.8101,-33.9612,80.7633],[-60.8015,-33.9537,80.4861],[-60.6985,-34.0346,74.6526],[-60.7068,-34.0434,72.1299],[-60.701,-34.0533,70.088],[-60.6759,-34.0703,70.5894],[-60.6544,-34.0942,65.6582],[-60.6363,-34.0985,64.2853],[-60.6271,-34.1132,65.5967],[-60.6061,-34.1165,62.0162],[-60.5765,-34.1185,59.538],[-60.5459,-34.1374,56.5888],[-60.5163,-34.147,55.4542],[-60.4984,-34.1676,54.287],[-60.4954,-34.1752,52.8504],[-60.4066,-34.0937,73.952],[-60.4131,-34.0918,72.2393],[-60.3317,-34.0187,50.8546],[-60.3154,-34.0021,42.6725],[-60.303,-33.9992,41.6398],[-60.282,-34.0079,39.8081],[-60.2723,-34.0102,40.893],[-60.2431,-34.0091,37.5977],[-60.2388,-34.0143,37.4098],[-60.2355,-33.867,62.6709],[-60.1934,-33.8157,60.8569],[-60.1567,-33.748,53.2837],[-60.1557,-33.7496,53.2077]]]]}
,"properties": {"GID_2": "ARG.1.90_1","GID_0": "ARG","country": "Argentina","GID_1": "ARG.1_1","state": "BuenosAires","NL_NAME_1": "NA","county": "Pergamino","VARNAME_2": "NA","NL_NAME_2": "NA","TYPE_2": "Partido","ENGTYPE_2": "Part","CC_2": "NA","HASC_2": "AR.BA.PG","name": "Pergamino.county","area_km2": 3047.493,"hist_schema_id": "Elevation0-9000","hist_area_km2": {"25": 0.176,"50": 983.33,"75": 2063.424,"100": 0.563}}}