{"type":"Feature","properties":{"GID_2":"ARG.3.12_1","GID_0":"ARG","country":"Argentina","GID_1":"ARG.3_1","state":"Chaco","NL_NAME_1":"NA","county":"LibertadorGeneralSanMartín","VARNAME_2":"Gral.JosedeSanMartin|Liberta","NL_NAME_2":"NA","TYPE_2":"Departamento","ENGTYPE_2":"Department","CC_2":"NA","HASC_2":"AR.CC.LM","name":"LibertadorGeneralSanMartín.county"},
"geometry":{"type": "MultiPolygon","coordinates": [[[[-58.6889,-26.6013,64.2971],[-58.6962,-26.585,62.1784],[-58.703,-26.5843,61.3181],[-58.7098,-26.5887,61.0099],[-58.7167,-26.589,61.255],[-58.7251,-26.5944,61.4194],[-58.7464,-26.5959,62.7828],[-58.7509,-26.5946,60.4237],[-58.7573,-26.579,68.9811],[-58.7557,-26.575,60.9281],[-58.7637,-26.5646,66.9666],[-58.765,-26.5564,59.6894],[-58.7789,-26.5428,73.5006],[-58.7763,-26.5395,66.4681],[-58.7801,-26.5377,69.4495],[-58.7889,-26.5375,64.4155],[-58.7915,-26.531,73.4762],[-58.7986,-26.5269,70.7001],[-58.8002,-26.5238,76.3975],[-58.7998,-26.5176,67.3113],[-58.8058,-26.5164,65.5965],[-58.8208,-26.519,67.4751],[-58.8317,-26.5187,71.1551],[-58.8519,-26.5102,75.9066],[-58.8566,-26.5067,73.4837],[-58.8592,-26.5035,75.4102],[-58.8593,-26.487,68.2656],[-58.8693,-26.4698,68.2752],[-58.8725,-26.468,66.2224],[-58.8816,-26.4682,67.0366],[-58.9027,-26.4602,67.0403],[-58.9098,-26.454,79.5886],[-58.911,-26.4503,80.3616],[-58.9142,-26.4475,63.8961],[-58.9189,-26.4455,69.5442],[-58.9356,-26.4318,72.7679],[-58.9463,-26.4181,64.0],[-58.9551,-26.3964,78.6418],[-58.9623,-26.387,72.6519],[-58.9853,-26.3805,65.6584],[-58.9889,-26.377,74.8232],[-59.0053,-26.3723,73.1432],[-59.0149,-26.3736,72.859],[-59.0235,-26.3724,71.2456],[-59.0434,-26.3635,74.6743],[-59.0533,-26.3681,71.7761],[-59.0606,-26.369,72.8798],[-59.0714,-26.3665,71.1264],[-59.0994,-26.3435,72.7529],[-59.1036,-26.3356,73.8204],[-59.1177,-26.3372,66.5],[-59.1183,-26.3287,75.8141],[-59.1148,-26.3234,71.0634],[-59.1505,-26.3164,74.1627],[-59.1494,-26.313,73.8129],[-59.1446,-26.3122,67.8698],[-59.1423,-26.3083,70.8699],[-59.1439,-26.3037,71.4358],[-59.1395,-26.3009,67.0],[-59.1405,-26.2971,81.6184],[-59.1485,-26.2897,76.4058],[-59.158,-26.2957,82.1194],[-59.1704,-26.2982,79.9426],[-59.1771,-26.302,76.6257],[-59.1851,-26.3089,67.9403],[-59.1874,-26.3173,69.2495],[-59.192,-26.3213,78.1012],[-59.2113,-26.3257,76.23],[-59.2229,-26.3327,78.7043],[-59.2673,-26.3435,77.8127],[-59.276,-26.3439,78.6676],[-59.2838,-26.342,78.26],[-59.3045,-26.3326,79.9779],[-59.3076,-26.3296,81.9848],[-59.3085,-26.3235,75.6472],[-59.3149,-26.3171,79.0602],[-59.3142,-26.3231,77.0087],[-59.3167,-26.3265,72.9544],[-59.322,-26.3226,78.9996],[-59.326,-26.3241,72.3565],[-59.3292,-26.3316,76.3731],[-59.3337,-26.3327,77.1502],[-59.337,-26.3308,79.468],[-59.3489,-26.3314,80.8459],[-59.3551,-26.3331,83.6705],[-59.3676,-26.3219,80.2799],[-59.3763,-26.3103,83.176],[-59.3869,-26.3022,75.7101],[-59.3875,-26.2976,77.596],[-59.3906,-26.2941,80.654],[-59.3852,-26.2909,76.0786],[-59.3847,-26.2763,81.4118],[-59.3792,-26.2644,81.2692],[-59.3819,-26.2614,74.6159],[-59.3893,-26.2647,84.1651],[-59.3944,-26.2409,82.9837],[-59.4049,-26.2222,83.4818],[-59.4083,-26.2099,73.0327],[-59.4158,-26.1986,82.7476],[-59.4106,-26.1936,81.9379],[-59.4097,-26.1859,82.9289],[-59.4019,-26.1804,83.521],[-59.4099,-26.1714,85.0464],[-59.4141,-26.1704,79.8559],[-59.4183,-26.1619,84.8376],[-59.4279,-26.154,85.4963],[-59.4545,-26.1515,81.5783],[-59.4724,-26.1622,83.2921],[-59.4771,-26.1592,86.1639],[-59.4858,-26.1592,85.6691],[-59.4851,-26.1548,86.404],[-59.5004,-26.1572,92.1844],[-59.5041,-26.1565,80.5126],[-59.5097,-26.1537,83.6064],[-59.5159,-26.1479,82.8758],[-59.5243,-26.1479,77.4813],[-59.5342,-26.15,91.6422],[-59.5359,-26.1464,87.033],[-59.5419,-26.1459,87.2713],[-59.5533,-26.1497,78.7195],[-59.5626,-26.147,89.1242],[-59.5732,-26.148,85.9488],[-59.5769,-26.147,79.5616],[-59.5798,-26.1436,81.4895],[-59.5807,-26.1378,83.9173],[-59.5788,-26.1311,85.0291],[-59.5827,-26.1284,77.3627],[-59.5877,-26.1257,80.9555],[-59.5986,-26.1261,90.5608],[-59.6001,-26.123,89.0571],[-59.6075,-26.1215,84.9788],[-59.617,-26.1251,90.2973],[-59.6197,-26.1223,92.2417],[-59.6292,-26.1201,91.387],[-59.6295,-26.1165,77.0409],[-59.6326,-26.1127,85.4031],[-59.6368,-26.1127,89.3176],[-59.6385,-26.1172,81.662],[-59.6361,-26.128,80.0433],[-59.6405,-26.1369,87.7759],[-59.6494,-26.1415,85.4672],[-59.6499,-26.1457,90.9482],[-59.6597,-26.1422,85.4445],[-59.6526,-26.1287,85.725],[-59.659,-26.121,98.6347],[-59.6745,-26.1172,84.8693],[-59.6749,-26.1134,85.9604],[-59.6701,-26.1103,90.1165],[-59.6748,-26.101,80.6923],[-59.6743,-26.0933,79.5],[-59.6705,-26.0851,98.4504],[-59.6664,-26.0821,96.3937],[-59.6648,-26.0776,81.5101],[-59.666,-26.0736,84.8337],[-59.6614,-26.0651,86.7758],[-59.6732,-26.0639,97.0509],[-59.6744,-26.0521,92.9824],[-59.6709,-26.0464,84.8911],[-59.6728,-26.042,94.7021],[-59.676,-26.0399,83.2643],[-59.6716,-26.031,86.3618],[-59.6755,-26.0164,96.3013],[-59.6712,-26.0158,94.9108],[-59.6707,-26.0123,83.1053],[-59.6773,-26.0087,89.8439],[-59.6887,-26.0135,89.3207],[-59.7019,-26.0121,91.1414],[-59.706,-26.0149,91.2794],[-59.7137,-25.9964,100.9879],[-59.7164,-25.9939,97.6717],[-59.7275,-25.9916,93.5139],[-59.7264,-25.9803,95.7347],[-59.732,-25.9794,94.9014],[-59.7289,-25.9696,84.5],[-59.7394,-25.9699,101.8096],[-59.744,-25.966,102.1894],[-59.7467,-25.9613,96.3363],[-59.7469,-25.9558,93.7059],[-59.7503,-25.9521,100.5941],[-59.7545,-25.9506,91.514],[-59.7488,-25.9405,86.7179],[-59.7499,-25.9354,100.9466],[-59.7561,-25.9347,86.5],[-59.7564,-25.9293,102.7419],[-59.7697,-25.9236,100.7275],[-59.771,-25.9194,105.3024],[-59.7811,-25.9143,98.1223],[-59.7848,-25.9099,90.5804],[-59.7851,-25.9042,94.5167],[-59.7892,-25.9009,94.436],[-59.7998,-25.8981,92.8036],[-59.8,-25.8927,98.8917],[-59.8026,-25.8896,104.0273],[-59.8086,-25.8922,104.6898],[-59.814,-25.8924,104.7727],[-59.8169,-25.8881,102.1487],[-59.8116,-25.8783,101.0785],[-59.8115,-25.8736,100.7148],[-59.8289,-25.8787,102.4473],[-59.8343,-25.8779,92.4556],[-59.8397,-25.868,101.5386],[-59.8508,-25.8549,104.0396],[-59.8604,-25.8482,95.1938],[-59.8582,-25.8442,99.2843],[-59.8628,-25.840699999999998,94.6111],[-59.8686,-25.8411,98.2144],[-59.8735,-25.8444,99.9993],[-59.8782,-25.8419,94.0897],[-59.8725,-25.8261,95.4577],[-59.8748,-25.8214,95.5608],[-59.8786,-25.8199,92.9391],[-59.8768,-25.8148,107.2389],[-59.8691,-25.8061,107.5316],[-59.8792,-25.8028,92.5],[-59.8829,-25.7982,105.4446],[-59.9099,-25.7866,97.2496],[-59.9251,-25.7694,107.0571],[-59.9541,-25.7623,101.867],[-59.9582,-25.7585,102.2444],[-59.9587,-25.7529,100.9718],[-59.9654,-25.7438,105.8937],[-59.9706,-25.7425,102.2637],[-59.9767,-25.7435,103.274],[-59.9938,-25.7282,98.0794],[-60.0175,-25.7262,98.3225],[-60.0195,-25.7213,100.3266],[-60.0295,-25.7153,102.5313],[-60.0354,-25.7138,101.6946],[-60.037,-25.7084,104.8001],[-60.0428,-25.7078,104.4666],[-60.0387,-25.7008,103.156],[-60.0326,-25.6994,106.3892],[-60.0353,-25.6953,98.0],[-60.0413,-25.6937,103.2519],[-60.0474,-25.6878,103.1485],[-60.0528,-25.6854,103.2111],[-60.0542,-25.68,104.7249],[-60.0582,-25.6787,105.0685],[-60.0637,-25.6811,99.0841],[-60.0697,-25.6808,106.2647],[-60.0809,-25.6761,103.0269],[-60.092,-25.6777,107.8063],[-60.0979,-25.6756,103.7172],[-60.0982,-25.6708,103.8912],[-60.0921,-25.6682,104.8957],[-60.099,-25.6607,103.1101],[-60.1034,-25.6595,101.8351],[-60.1124,-25.6636,106.7045],[-60.1172,-25.6567,105.3893],[-60.1174,-26.3073,93.31],[-59.8716,-26.3055,91.6165],[-59.8688,-26.3284,93.0876],[-59.8203,-26.3328,92.6465],[-59.8194,-26.5254,86.0896],[-59.7202,-26.5253,79.29],[-59.7202,-26.6111,80.203],[-59.5187,-26.6142,77.4967],[-59.5165,-26.6984,71.674],[-59.465,-26.7018,73.8264],[-59.4658,-26.7915,80.5198],[-59.2292,-26.7954,67.3358],[-59.2292,-26.8064,65.7258],[-59.1796,-26.8093,68.9366],[-59.1758,-26.8564,67.9732],[-58.9504,-26.8574,70.9747],[-58.9498,-26.7929,68.9593],[-58.9437,-26.7919,68.1188],[-58.94,-26.7889,70.1695],[-58.9381,-26.7845,60.7783],[-58.9337,-26.7822,69.587],[-58.9308,-26.7841,61.4671],[-58.9254,-26.7846,61.7729],[-58.918,-26.7795,69.2143],[-58.9048,-26.7848,66.1111],[-58.9004,-26.7828,62.3132],[-58.795,-26.6948,60.776],[-58.6889,-26.6013,64.2971]]]]}}