{"type":"Feature","properties":{"ISO3166-1-Alpha-3":"ARG","country":"Argentina","fill":"#FF0","id":"1299","name":"Córdoba"},
"geometry":{"type": "Polygon","coordinates": [[[-63.74812,-29.65411,625.8298],[-63.80765,-29.64977,607.2859],[-63.81576,-29.64734,617.1588],[-63.82434,-29.64388,608.4267],[-63.83581,-29.63664,609.4252],[-63.84734,-29.62718,626.1559],[-63.85238,-29.62377,630.2798],[-63.86235,-29.62041,630.5535],[-63.92578,-29.60946,633.5516],[-63.93268,-29.6062,633.8858],[-63.93974,-29.59917,587.2826],[-63.94976,-29.58419,611.1801],[-63.95317,-29.58036,571.1114],[-64.02759,-29.54517,460.6572],[-64.04185,-29.53453,432.0927],[-64.04867,-29.52569,413.3232],[-64.04554,-29.51365,412.2295],[-64.04384,-29.48905,403.0872],[-64.04446,-29.47789,417.1846],[-64.04906,-29.47303,431.8798],[-64.05841,-29.46926,420.6998],[-64.25375,-29.4243,135.3585],[-64.29408,-29.42513,114.5],[-64.40325,-29.44849,117.3295],[-64.5905,-29.49153,120.5799],[-64.88247,-29.55711,178.3506],[-64.95115,-29.57897,180.3459],[-64.96164,-29.61049,179.4774],[-64.93133,-29.84216,178.7692],[-64.93316,-29.86154,178.3313],[-64.94339,-29.87833,178.9432],[-65.05163,-29.98463,180.624],[-65.13819,-30.06307,181.5786],[-65.18819,-30.08685,181.7769],[-65.40189,-30.14018,185.0805],[-65.48476,-30.34786,192.3368],[-65.4999,-30.37706,193.6524],[-65.52114,-30.40522,194.8739],[-65.52638,-30.41597,195.5063],[-65.53938,-30.45659,196.9816],[-65.56455,-30.52594,198.9821],[-65.57157,-30.55503,201.4819],[-65.57351,-30.57095,201.9214],[-65.65493,-30.78236,226.6761],[-65.67524,-30.83176,229.4362],[-65.68826,-30.86458,234.1748],[-65.75378,-31.0348,258.9105],[-65.76727,-31.09624,259.1051],[-65.76577,-31.27075,248.6477],[-65.76303,-31.61988,287.382],[-65.75965,-31.8855,341.4464],[-65.67152,-31.8857,344.7208],[-65.64059,-31.89325,351.8703],[-65.58966,-31.91521,368.4797],[-65.31053,-32.06114,469.9877],[-65.2835,-32.08884,486.4901],[-65.25549,-32.11163,498.5369],[-65.24916,-32.11871,499.9005],[-65.24508,-32.12512,503.2788],[-65.24097,-32.14057,513.518],[-65.24041,-32.14625,524.0629],[-65.24082,-32.16439,524.6889],[-65.23994,-32.17571,525.8271],[-65.23787,-32.18667,528.6422],[-65.23206,-32.20744,538.5646],[-65.22237,-32.22553,542.2747],[-65.20643,-32.24568,553.0845],[-65.20397,-32.25023,554.8616],[-65.20111,-32.26051,558.3936],[-65.20281,-32.3034,582.2331],[-65.2024,-32.30909,586.2358],[-65.19997,-32.31963,587.8622],[-65.19599,-32.32412,590.7469],[-65.18966,-32.32764,596.7512],[-65.17689,-32.32965,604.9163],[-65.06949,-32.31958,741.6881],[-64.97021,-32.29488,1654.6736],[-64.95166,-32.29095,2222.998],[-64.94502,-32.29048,2166.571],[-64.93843,-32.29126,2182.0317],[-64.93239,-32.29317,2138.6201],[-64.92743,-32.29596,2149.3081],[-64.92283,-32.29917,2150.8042],[-64.91939,-32.30816,2172.5007],[-64.91694,-32.3218,2209.0234],[-64.9157,-32.35229,2129.7402],[-64.91756,-32.3789,2073.5593],[-64.92185,-32.40515,2138.0469],[-64.92249,-32.42898,2085.7236],[-64.91993,-32.43735,2106.5532],[-64.91554,-32.44773,2014.6311],[-64.89249,-32.48437,1920.1117],[-64.888,-32.50375,1920.0166],[-64.88324,-32.52308,1950.0112],[-64.87531,-32.54411,1746.4233],[-64.8742,-32.54938,1718.2969],[-64.87412,-32.55822,1742.0403],[-64.8773,-32.59207,1814.4213],[-64.88319,-32.61951,1800.7656],[-64.90608,-32.66436,1621.1017],[-64.91298,-32.7055,1795.9772],[-64.91544,-32.71232,1776.5427],[-64.91911,-32.71914,1734.7374],[-64.92619,-32.72705,1759.1372],[-64.94107,-32.73893,1685.3221],[-64.94425,-32.74425,1672.4127],[-64.94626,-32.75123,1672.4006],[-64.94634,-32.76219,1644.7007],[-64.94518,-32.77598,1634.6699],[-64.94624,-32.78224,1597.4686],[-64.94892,-32.78942,1603.5864],[-64.96267,-32.81025,1567.9626],[-64.96528,-32.81722,1558.1041],[-64.96732,-32.8259,1527.7131],[-64.96846,-32.86218,1413.1832],[-64.97016,-32.87014,1441.8734],[-64.97357,-32.87965,1501.2666],[-65.01246,-32.94181,1169.234],[-65.01466,-32.94817,1289.173],[-65.01595,-32.95546,1340.8861],[-65.01339,-32.96765,1509.8851],[-65.00587,-32.98548,1365.1552],[-65.0076,-32.99457,1382.3428],[-65.01238,-33.00682,1252.1597],[-65.03853,-33.04966,1158.8973],[-65.04336,-33.0601,1211.135],[-65.04383,-33.07659,1108.2291],[-65.03202,-33.09953,1062.3125],[-65.03137,-33.10521,1027.2461],[-65.03248,-33.11126,1004.6589],[-65.03838,-33.11927,1022.1451],[-65.04419,-33.12315,1055.4846],[-65.05088,-33.12521,1040.4504],[-65.07592,-33.12878,1005.7294],[-65.08419,-33.13167,978.4699],[-65.08762,-33.13358,968.2965],[-65.09114,-33.13684,960.4697],[-65.09439,-33.14103,957.556],[-65.12488,-33.18893,892.4658],[-65.12984,-33.19952,879.2086],[-65.1317,-33.20547,871.7587],[-65.0869,-33.96237,374.1007],[-65.08662,-34.99993,272.5931],[-65.08662,-35.00179,271.8679],[-64.48689,-35.0005,193.4477],[-63.95689,-35.0005,146.1438],[-63.38406,-35.0021,126.9749],[-63.38189,-34.57965,134.5137],[-63.37359,-34.41361,137.1746],[-63.33962,-34.38049,135.4597],[-62.85381,-34.38214,120.6541],[-62.45024,-33.83659,123.8786],[-62.14496,-33.42013,113.8762],[-61.91991,-33.1141,82.0305],[-61.89169,-33.08325,97.800299999999993],[-61.87764,-33.08501,79.3244],[-61.87038,-33.08527,80.0923],[-61.8573,-33.08356,92.179],[-61.85144,-33.08186,93.8848],[-61.84604,-33.07984,96.1319],[-61.83131,-33.07193,90.4786],[-61.81648,-33.06155,83.5855],[-61.78025,-33.02992,60.706],[-61.76607,-33.00646,79.6007],[-61.76284,-32.99985,85.4638],[-61.75958,-32.98114,91.5367],[-61.7577,-32.95732,86.2652],[-61.7586,-32.89634,69.2714],[-61.75491,-32.87587,85.2001],[-61.7408,-32.85164,100.2998],[-61.73491,-32.8366,92.6531],[-61.73297,-32.82745,98.5683],[-61.73338,-32.81924,93.6486],[-61.7353,-32.81226,99.2051],[-61.74227,-32.79696,89.6767],[-61.74566,-32.79185,89.2688],[-61.74956,-32.78802,87.9528],[-61.77677,-32.76854,83.7946],[-61.78028,-32.76482,85.1784],[-61.78426,-32.75909,86.8207],[-61.80139,-32.72441,100.3642],[-61.82937,-32.68064,92.8945],[-61.83302,-32.67692,89.9966],[-61.83754,-32.67361,84.422],[-61.84283,-32.67103,80.1706],[-61.84922,-32.66896,77.1305],[-61.87976,-32.66467,74.5817],[-61.88748,-32.66271,75.0144],[-61.89449,-32.65878,75.809],[-61.89552,-32.65403,75.7165],[-61.89407,-32.64979,76.0753],[-61.8789,-32.63372,77.3609],[-61.87573,-32.62922,78.0411],[-61.87061,-32.61873,78.0275],[-61.86865,-32.61284,78.2264],[-61.86699,-32.60561,78.8959],[-61.86591,-32.59754,79.9208],[-61.86611,-32.58618,80.4309],[-61.86839,-32.57956,80.7028],[-61.8725,-32.57481,80.6266],[-61.88343,-32.56861,80.3809],[-61.88883,-32.56396,80.261],[-61.89508,-32.5562,80.6105],[-61.89753,-32.54959,80.6511],[-61.90012,-32.51646,83.0013],[-61.90622,-32.48598,88.3507],[-61.91412,-32.46293,94.305],[-61.91699,-32.45869,92.2953],[-61.93081,-32.44314,89.6912],[-61.94345,-32.43239,87.2689],[-62.01463,-32.38629,90.0656],[-62.03745,-32.35317,91.3347],[-62.04458,-32.33849,90.0432],[-62.07287,-32.25364,91.2561],[-62.07822,-32.24408,91.6669],[-62.08217,-32.24051,91.8775],[-62.10119,-32.22832,92.7456],[-62.1309,-32.2169,93.9403],[-62.13889,-32.21173,94.2602],[-62.17093,-32.17907,95.8654],[-62.19111,-32.16367,96.5059],[-62.21857,-32.1385,97.1892],[-62.2156,-32.05851,98.7497],[-62.21217,-32.03298,97.6695],[-62.20584,-32.01603,97.7136],[-62.19728,-32.00084,97.9069],[-62.18529,-31.9719,97.6353],[-62.18408,-31.96275,97.683],[-62.18475,-31.95552,97.7286],[-62.18739,-31.95143,97.8506],[-62.19785,-31.93996,98.3636],[-62.21,-31.92286,98.7151],[-62.2124,-31.91831,98.8073],[-62.21421,-31.91335,98.7058],[-62.21563,-31.90756,98.9741],[-62.22266,-31.84793,99.9715],[-62.22291,-31.83382,100.3373],[-62.21705,-31.78886,101.105],[-62.21669,-31.77785,101.2574],[-62.21733,-31.76953,100.7652],[-62.21906,-31.76452,100.5495],[-62.22121,-31.75971,100.5707],[-62.2363,-31.7378,101.4933],[-62.23754,-31.73098,101.9396],[-62.23589,-31.71977,101.3737],[-62.22276,-31.7068,101.2333],[-62.18214,-31.67652,106.7897],[-62.1384,-31.64148,105.3609],[-62.12155,-31.60856,104.2781],[-61.8658,-30.78877,98.9882],[-61.8571,-30.73146,98.0533],[-61.90392,-30.67255,98.4925],[-62.12532,-30.45768,93.7195],[-62.13207,-30.44104,93.5981],[-62.13408,-30.41685,93.1291],[-62.08713,-30.15661,88.5149],[-62.24258,-29.80562,74.9077],[-62.28816,-29.77674,74.7126],[-62.45187,-29.77234,75.2991],[-62.79252,-29.77622,78.8548],[-63.36282,-29.77348,103.0308],[-63.38406,-29.77131,115.9845],[-63.38742,-29.76924,116.9113],[-63.39264,-29.76351,122.98],[-63.39354,-29.75751,122.3504],[-63.39372,-29.73896,124.7214],[-63.3946,-29.73338,127.2864],[-63.39633,-29.72852,129.1178],[-63.403,-29.72439,133.2944],[-63.41357,-29.72118,138.2901],[-63.44896,-29.7171,167.1219],[-63.4579,-29.71431,183.7679],[-63.46155,-29.70826,186.9616],[-63.46173,-29.70211,195.0462],[-63.45731,-29.67597,196.3601],[-63.45708,-29.66987,196.6725],[-63.45777,-29.66418,199.1683],[-63.45948,-29.65927,199.4776],[-63.46271,-29.65524,203.6327],[-63.4693,-29.65276,212.2483],[-63.47834,-29.65209,223.3222],[-63.51503,-29.65943,276.427],[-63.52439,-29.65876,290.3011],[-63.59609,-29.63855,378.4402],[-63.61074,-29.63716,485.4192],[-63.72856,-29.65349,597.8836],[-63.74812,-29.65411,625.8298]]]}}