{"type": "Feature","bbox": [-65.7783,-34.9984,-61.7777,-29.5033],"geometry": {"type": "MultiPolygon","coordinates": [[[[-63.049,-34.3842,125.5],[-62.8892,-34.3843,123.0575],[-62.8867,-34.3809,122.5462],[-62.872,-34.3722,122.7286],[-62.8617,-34.3631,121.7484],[-62.6184,-34.0436,119.8725],[-62.5761,-33.9948,121.0175],[-62.497,-33.8941,120.8663],[-62.2063,-33.5125,109.0],[-62.0135,-33.2557,112.4064],[-61.9678,-33.1847,103.5901],[-61.925,-33.1247,82.6934],[-61.9142,-33.1203,76.5],[-61.8865,-33.1047,78.6628],[-61.879,-33.0967,78.2109],[-61.8692,-33.0808,76.6226],[-61.8533,-33.0689,79.394],[-61.8499,-33.0619,73.6164],[-61.815,-33.0378,66.8674],[-61.8122,-33.0332,66.1928],[-61.7954,-33.0186,62.9295],[-61.7906,-32.9959,63.3753],[-61.7949,-32.9863,64.7679],[-61.7939,-32.9788,65.4197],[-61.7949,-32.9713,66.2157],[-61.789,-32.9464,66.6159],[-61.7889,-32.9386,66.822],[-61.7841,-32.9324,66.506],[-61.7777,-32.9075,67.5381],[-61.7804,-32.8976,67.5859],[-61.7964,-32.8732,68.4711],[-61.7915,-32.8637,67.9155],[-61.7858,-32.8465,68.8585],[-61.7829,-32.8287,69.7741],[-61.7883,-32.8063,70.9395],[-61.7893,-32.791,71.3953],[-61.7977,-32.7841,71.2915],[-61.8002,-32.7714,71.6899],[-61.8048,-32.7649,71.3505],[-61.8323,-32.7493,72.67],[-61.8437,-32.7228,73.0462],[-61.8649,-32.6978,73.902],[-61.8883,-32.6944,73.9913],[-61.9034,-32.6956,74.1049],[-61.9153,-32.6941,75.2755],[-61.9319,-32.6879,74.852],[-61.9532,-32.6737,77.5019],[-61.9495,-32.6433,77.8472],[-61.9132,-32.6233,77.1796],[-61.8972,-32.6221,77.306],[-61.8907,-32.6168,77.6048],[-61.8874,-32.607,78.2907],[-61.8883,-32.5891,78.9126],[-61.8938,-32.5872,78.3915],[-61.9119,-32.5887,78.4327],[-61.9201,-32.5858,78.9707],[-61.9196,-32.5806,79.1005],[-61.9179,-32.5787,79.113],[-61.9044,-32.5684,79.2577],[-61.9014,-32.5612,80.1234],[-61.9012,-32.5561,80.5454],[-61.9028,-32.5511,80.889],[-61.9066,-32.5473,80.6757],[-61.9215,-32.5449,80.7863],[-61.9268,-32.5425,81.0373],[-61.9282,-32.5403,81.0594],[-61.9279,-32.5376,81.1918],[-61.9144,-32.5275,81.6075],[-61.9111,-32.5203,82.1579],[-61.9206,-32.4882,83.5823],[-61.9315,-32.4589,84.8326],[-61.9436,-32.4383,85.6877],[-61.9638,-32.4194,87.039],[-61.985,-32.3946,87.8534],[-61.9835,-32.3829,91.2753],[-62.005,-32.3567,89.603],[-62.0393,-32.2575,90.6646],[-62.1273,-32.2083,93.5568],[-62.1767,-32.1585,96.0136],[-62.1948,-32.1171,96.7247],[-62.1772,-32.0554,97.6703],[-62.1824,-32.0467,97.8602],[-62.1749,-31.997,97.5443],[-62.1761,-31.9727,97.7104],[-62.1794,-31.96,97.7315],[-62.1929,-31.9308,98.5926],[-62.2015,-31.9201,98.8891],[-62.2243,-31.8986,98.873],[-62.2296,-31.8867,99.1241],[-62.2321,-31.8657,99.5657],[-62.231,-31.8474,100.0732],[-62.2275,-31.8321,100.4868],[-62.2146,-31.797,101.4013],[-62.215,-31.7815,101.0939],[-62.2184,-31.7607,100.4741],[-62.2235,-31.743,100.5873],[-62.2354,-31.7218,101.2729],[-62.2496,-31.7016,101.4721],[-62.132,-31.6086,104.3186],[-62.1047,-31.534,105.1285],[-62.0597,-31.3991,111.3532],[-61.8611,-30.7928,98.9578],[-61.8323,-30.6735,97.4022],[-61.8794,-30.6609,98.4301],[-61.9826,-30.6463,99.1031],[-61.9782,-30.598,97.9133],[-62.0235,-30.5924,96.8327],[-62.0938,-30.5249,95.5367],[-62.1277,-30.4881,93.3174],[-62.1261,-30.479,94.0286],[-62.1626,-30.3791,88.2076],[-62.1773,-30.3304,71.5522],[-62.1891,-30.326,69.4399],[-62.522,-30.3263,68.0699],[-62.5274,-30.3169,67.5],[-62.5374,-30.3117,67.5],[-62.5437,-30.3027,67.5],[-62.563,-30.2905,67.5],[-62.5664,-30.2862,67.5],[-62.5689,-30.2761,68.0478],[-62.5778,-30.2746,70.3544],[-62.5801,-30.2729,70.0],[-62.583,-30.2575,70.8964],[-62.5828,-30.2496,70.9314],[-62.588,-30.2435,69.9918],[-62.5815,-30.238,71.7962],[-62.5837,-30.2332,71.9017],[-62.5895,-30.2272,71.8021],[-62.5847,-30.2245,70.0],[-62.5845,-30.2224,70.9293],[-62.5853,-30.2197,71.7979],[-62.584,-30.2145,71.8663],[-62.5874,-30.2104,70.5],[-62.5862,-30.2081,70.5],[-62.5788,-30.204,71.6294],[-62.5789,-30.1988,71.7735],[-62.575,-30.1947,71.7829],[-62.5784,-30.1909,71.9315],[-62.5748,-30.1866,70.772],[-62.5788,-30.1801,71.0424],[-62.5825,-30.1837,71.2512],[-62.5925,-30.1769,71.4811],[-62.5893,-30.1736,71.3148],[-62.5906,-30.1684,70.0],[-62.5873,-30.1641,71.896],[-62.586,-30.1588,71.8887],[-62.5848,-30.1569,71.873],[-62.5815,-30.157,71.8411],[-62.58,-30.1548,71.6699],[-62.5865,-30.1457,72.1455],[-62.5764,-30.1424,72.0767],[-62.5714,-30.1329,72.1116],[-62.57,-30.1252,71.9254],[-62.5627,-30.1111,71.9536],[-62.5581,-30.1083,72.2001],[-62.5554,-30.1035,71.7763],[-62.561,-30.0927,72.414],[-62.5599,-30.0823,72.4736],[-62.5661,-30.0767,72.3507],[-62.5657,-30.072,71.5],[-62.5723,-30.0609,71.5],[-62.5814,-30.061,72.3681],[-62.5866,-30.0587,72.6353],[-62.6011,-30.0598,72.8582],[-62.6097,-30.0575,73.1285],[-62.6181,-30.059,73.0826],[-62.628,-30.0531,73.1073],[-62.6367,-30.0512,73.4715],[-62.6378,-30.0459,73.2732],[-62.6464,-30.0441,73.4586],[-62.6557,-30.0375,73.621],[-62.6611,-30.0311,73.7436],[-62.6693,-30.0285,73.7438],[-62.6815,-30.0137,74.1949],[-62.6955,-29.9871,74.3002],[-62.7022,-29.9819,74.0947],[-62.7027,-29.9766,74.7676],[-62.716,-29.9709,74.7167],[-62.7256,-29.9543,75.0573],[-62.7635,-29.9392,75.6651],[-62.7657,-29.9342,76.3761],[-62.7662,-29.9155,75.8488],[-62.7693,-29.9081,76.0585],[-62.7842,-29.8913,76.39],[-62.7862,-29.8837,76.5785],[-62.7948,-29.8809,76.9416],[-62.799,-29.8772,77.1362],[-62.8024,-29.8698,77.1526],[-62.8031,-29.8566,77.2612],[-62.8079,-29.8497,77.5321],[-62.8107,-29.8422,77.572],[-62.8097,-29.8316,77.7874],[-62.8064,-29.8272,77.8228],[-62.7995,-29.822,77.9892],[-62.7883,-29.8182,77.1938],[-62.7836,-29.8148,78.2032],[-63.3383,-29.7765,91.4309],[-63.4519,-29.7759,166.7126],[-63.4506,-29.7492,167.4412],[-63.4523,-29.7237,172.842],[-63.4833,-29.7227,202.1023],[-63.4691,-29.6634,212.9691],[-63.5079,-29.6684,262.5669],[-63.525,-29.6621,284.1893],[-63.5634,-29.6576,326.9489],[-63.6255,-29.6474,482.6999],[-63.7228,-29.6634,589.4827],[-63.7729,-29.6411,606.8],[-63.8035,-29.604,607.7657],[-63.7798,-29.5982,598.0062],[-63.7819,-29.5806,602.941],[-63.8072,-29.57,596.1619],[-63.8508,-29.5664,599.3625],[-63.8653,-29.5698,604.3582],[-63.8926,-29.6177,633.2797],[-63.9625,-29.6172,573.2403],[-63.9623,-29.5781,537.9957],[-63.9771,-29.546,507.3835],[-64.3319,-29.5033,122.794],[-64.4196,-29.5131,118.1607],[-64.501,-29.5268,119.0934],[-64.6574,-29.544,151.1424],[-64.7368,-29.555,221.001],[-64.8506,-29.565,178.3107],[-64.9697,-29.5856,180.775],[-64.9238,-29.827,178.607],[-64.9073,-29.9066,178.0933],[-65.0285,-30.0007,180.0353],[-65.086,-30.0373,180.7152],[-65.1253,-30.0656,181.6305],[-65.4137,-30.1224,185.1929],[-65.5331,-30.4823,196.8878],[-65.7697,-31.0317,264.5917],[-65.7783,-31.8852,339.4717],[-65.7425,-31.8852,342.7145],[-65.6823,-31.8895,345.3023],[-65.6616,-31.8842,346.3391],[-65.6551,-31.885,347.3725],[-65.6461,-31.8952,350.4727],[-65.4043,-32.0066,433.0894],[-65.3199,-32.0399,462.2667],[-65.2921,-32.0549,471.5019],[-65.2865,-32.0609,474.6222],[-65.2781,-32.0745,479.7548],[-65.2573,-32.0928,490.2068],[-65.2559,-32.0978,491.8924],[-65.2485,-32.1088,496.4122],[-65.2486,-32.1138,500.0993],[-65.2526,-32.1177,497.7421],[-65.2518,-32.1252,505.3288],[-65.2433,-32.1354,510.3492],[-65.243,-32.1405,514.0715],[-65.2397,-32.1446,516.3861],[-65.2391,-32.1548,520.6937],[-65.2351,-32.1644,521.2164],[-65.2418,-32.1917,540.9689],[-65.2424,-32.2069,537.4795],[-65.2293,-32.2197,540.8143],[-65.2246,-32.2326,544.9863],[-65.2206,-32.2365,548.5519],[-65.217,-32.2434,552.3392],[-65.2122,-32.2608,554.022],[-65.2169,-32.2756,566.3925],[-65.2131,-32.3009,575.6088],[-65.2134,-32.3213,583.2797],[-65.0728,-32.3178,737.1082],[-65.059,-32.3223,754.6183],[-65.0179,-32.3161,857.0535],[-65.007,-32.3198,904.8976],[-64.9833,-32.3222,1073.1204],[-64.9763,-32.3173,1307.4126],[-64.9646,-32.3155,1468.9697],[-64.9487,-32.3077,2159.8169],[-64.9288,-32.3183,2209.2168],[-64.9238,-32.3244,2218.2197],[-64.9189,-32.3522,2167.5391],[-64.9194,-32.3573,2167.6882],[-64.9244,-32.3692,2086.9646],[-64.9232,-32.3715,2092.5854],[-64.915,-32.3727,2067.7639],[-64.9165,-32.3779,2052.7026],[-64.9261,-32.3877,2068.9536],[-64.9313,-32.3969,2039.7234],[-64.9343,-32.412,2020.5072],[-64.9374,-32.4192,1823.8528],[-64.938,-32.4345,1989.1556],[-64.9366,-32.4394,2020.1379],[-64.9298,-32.4477,1992.7817],[-64.93,-32.4681,1918.3269],[-64.925,-32.4773,1926.385],[-64.9152,-32.4828,1945.1626],[-64.9034,-32.4845,1917.6777],[-64.8949,-32.4916,1904.5266],[-64.8978,-32.499,1927.9344],[-64.9055,-32.5019,1928.6465],[-64.9116,-32.5077,1936.0054],[-64.916,-32.5143,1927.9567],[-64.915,-32.5167,1935.0819],[-64.9109,-32.5236,1907.3945],[-64.9063,-32.5269,1867.7451],[-64.8882,-32.5278,1946.4474],[-64.8867,-32.5292,1952.812],[-64.8882,-32.5395,1948.4985],[-64.8957,-32.5472,1878.0394],[-64.8997,-32.554,1825.5254],[-64.8827,-32.5688,1805.1049],[-64.8811,-32.5734,1725.4092],[-64.8828,-32.5784,1756.0559],[-64.8892,-32.587,1832.756],[-64.899,-32.6057,1903.837],[-64.9094,-32.6148,1851.6077],[-64.9259,-32.6209,1747.7971],[-64.9289,-32.6309,1720.6127],[-64.9288,-32.6438,1404.3572],[-64.9297,-32.6459,1402.0414],[-64.9372,-32.6503,1361.1287],[-64.9408,-32.6574,1335.6765],[-64.9406,-32.6649,1473.5221],[-64.9319,-32.6722,1564.8379],[-64.9323,-32.6874,1349.8926],[-64.927,-32.6965,1658.8196],[-64.9265,-32.7017,1798.7151],[-64.9369,-32.7065,1863.3813],[-64.9409,-32.7103,1837.5394],[-64.9553,-32.7384,1552.0583],[-64.9551,-32.7614,1577.9231],[-64.9571,-32.7869,1622.8243],[-64.9604,-32.7967,1617.8589],[-64.9667,-32.8054,1580.0208],[-64.9722,-32.82,1549.1318],[-64.9709,-32.848,1448.3551],[-64.9756,-32.8809,1520.2407],[-64.9855,-32.8865,1397.1991],[-64.9773,-32.897,1549.2407],[-64.9783,-32.8992,1523.1403],[-64.9836,-32.9018,1513.297],[-64.9984,-32.9146,1170.8368],[-65.0035,-32.9238,1172.4802],[-65.0097,-32.9566,1550.5833],[-65.0146,-32.963,1556.4373],[-65.0273,-32.9698,1340.1298],[-65.028,-32.9722,1242.8362],[-65.0262,-32.9772,1424.1772],[-65.0159,-32.9825,1478.8856],[-65.0146,-32.9847,1423.0497],[-65.0182,-33.0151,1268.2192],[-65.0297,-33.0414,1235.6873],[-65.0365,-33.0498,1190.553],[-65.0481,-33.0579,1124.1608],[-65.0516,-33.0622,1111.3665],[-65.054,-33.0798,1108.7633],[-65.0628,-33.0931,1061.397],[-65.0571,-33.1103,1055.5502],[-65.0574,-33.1205,1036.5798],[-65.0521,-33.1324,1019.645],[-65.0523,-33.14,1029.4174],[-65.0599,-33.148,994.9762],[-65.0712,-33.1516,970.0938],[-65.0828,-33.1493,951.8452],[-65.0893,-33.1436,956.866],[-65.0993,-33.1481,946.3475],[-65.1097,-33.1574,935.7211],[-65.1149,-33.1665,921.1837],[-65.1428,-33.1883,878.6207],[-65.1464,-33.1934,873.3789],[-65.1483,-33.2025,864.3271],[-65.1201,-33.6315,479.534],[-65.1098,-33.9125,387.8384],[-65.1106,-34.0609,366.489],[-65.1067,-34.9977,278.6206],[-63.3927,-34.9984,125.7122],[-63.3911,-34.4865,136.6662],[-63.3939,-34.385,136.9701],[-63.049,-34.3842,125.5]]]]}
,"properties": {"GID_1": "ARG.6_1","GID_0": "ARG","country": "Argentina","state": "Córdoba","VARNAME_1": "Cordova","NL_NAME_1": "NA","TYPE_1": "Provincia","ENGTYPE_1": "Province","CC_1": "NA","HASC_1": "AR.CB","ISO_1": "NA","name": "Córdoba.state","area_km2": 164773.68,"hist_schema_id": "Elevation0-9000","hist_area_km2": {"75": 12390.23,"100": 14797.91,"125": 22573.97,"150": 12959.35,"175": 10854.98,"200": 8605.32,"225": 8245.29,"250": 7581.06,"275": 6494.83,"300": 5332.82,"325": 4623.89,"350": 3815.22,"375": 3228.51,"400": 2802.35,"425": 2401.77,"450": 2219.91,"475": 2115.66,"500": 1898.85,"525": 1839.69,"550": 1757.67,"575": 1689.14,"600": 1678.53,"625": 1708.19,"650": 1633.46,"675": 1519.29,"700": 1387.23,"725": 1180.29,"750": 1087.24,"775": 966.98,"800": 843.97,"825": 782.54,"850": 767.84,"875": 737.93,"900": 724.96,"925": 706.56,"950": 649.39,"975": 610.85,"1000": 669.71,"1025": 746.41,"1050": 683.68,"1075": 574.86,"1100": 505.37,"1125": 475.42,"1150": 418.13,"1175": 352.01,"1200": 301.22,"1225": 256.58,"1250": 223.94,"1275": 196.02,"1300": 177.6,"1325": 167.92,"1350": 157.24,"1375": 144.76,"1400": 139.17,"1425": 136.94,"1450": 132.11,"1475": 122.48,"1500": 119.68,"1525": 117.89,"1550": 112.9,"1575": 109.89,"1600": 107.05,"1625": 108.64,"1650": 108.06,"1675": 114.04,"1700": 119.23,"1725": 115.15,"1750": 112.96,"1775": 113.44,"1800": 106.34,"1825": 101.32,"1850": 93.52,"1875": 86.6,"1900": 79.72,"1925": 72.3,"1950": 66.43,"1975": 64.67,"2000": 65.0,"2025": 66.76,"2050": 82.08,"2075": 87.51,"2100": 90.87,"2125": 85.77,"2150": 79.81,"2175": 66.02,"2200": 57.09,"2225": 51.84,"2250": 47.2,"2275": 34.99,"2300": 34.21,"2325": 22.06,"2350": 10.53,"2375": 8.19,"2400": 7.69,"2425": 7.3,"2450": 7.75,"2475": 7.21,"2500": 7.4,"2525": 4.98,"2550": 3.92,"2575": 2.91,"2600": 2.77,"2625": 2.95,"2650": 2.1}}}