{"type":"Feature","properties":{"GID_2":"ARG.15.4_1","GID_0":"ARG","country":"Argentina","GID_1":"ARG.15_1","state":"Neuquén","NL_NAME_1":"NA","county":"ChosMalal","VARNAME_2":"NA","NL_NAME_2":"NA","TYPE_2":"Departamento","ENGTYPE_2":"Department","CC_2":"NA","HASC_2":"AR.NQ.CM","name":"ChosMalal.county"},
"geometry":{"type": "MultiPolygon","coordinates": [[[[-70.415,-36.1077,2699.8416],[-70.4159,-36.1121,2704.2705],[-70.42,-36.1151,2735.6711],[-70.4223,-36.1252,2782.522],[-70.4186,-36.1302,2826.5564],[-70.4178,-36.1377,2827.6914],[-70.4214,-36.1432,2826.4932],[-70.421,-36.156,2692.2036],[-70.4421,-36.1636,2901.7522],[-70.4447,-36.1701,3018.2698],[-70.4483,-36.1725,3048.0754],[-70.4558,-36.1713,2990.9016],[-70.4605,-36.1731,2892.9856],[-70.4702,-36.1721,2746.5493],[-70.4765,-37.3643,905.2688],[-70.454,-37.3595,883.4388],[-70.4425,-37.3602,877.8015],[-70.4261,-37.3758,861.0],[-70.421,-37.3787,862.7655],[-70.4038,-37.3854,864.4885],[-70.3917,-37.3879,883.5607],[-70.3795,-37.3876,1025.2645],[-70.3363,-37.379,881.3537],[-70.3241,-37.3798,900.5385],[-70.3063,-37.3853,880.3395],[-70.2674,-37.4017,845.5093],[-70.2308,-37.4081,817.0214],[-70.2049,-37.4223,901.9213],[-70.1706,-37.4517,929.4457],[-70.1503,-37.4634,1097.0823],[-70.1325,-37.484,786.2748],[-70.1067,-37.5077,958.4929],[-70.1057,-37.478,1099.5743],[-70.0876,-37.452,1102.0172],[-70.0813,-37.4275,1156.0626],[-70.0815,-37.4124,1164.0647],[-70.0895,-37.3882,1122.3646],[-70.0894,-37.3733,1244.0751],[-70.0747,-37.3513,1341.9414],[-70.0672,-37.3218,1691.9928],[-70.0526,-37.2887,1997.9852],[-70.0401,-37.2715,2112.2861],[-70.0202,-37.252,2313.7617],[-70.016,-37.2427,2579.8865],[-70.0143,-37.2325,2497.6333],[-70.0146,-37.2275,2739.1826],[-70.0174,-37.2233,2887.5674],[-70.0327,-37.2137,2992.21],[-70.0355,-37.2098,2978.9805],[-70.0323,-36.6496,1262.385],[-70.0515,-36.6431,1153.8923],[-70.0583,-36.6388,1158.3245],[-70.0825,-36.5992,1314.8832],[-70.1229,-36.5701,1272.9277],[-70.1304,-36.5595,1509.9609],[-70.1361,-36.5431,1324.1562],[-70.1617,-36.51,1477.2415],[-70.1787,-36.4961,1416.0786],[-70.1834,-36.49,1417.2021],[-70.1874,-36.4807,1420.2183],[-70.1902,-36.4662,1425.9531],[-70.1996,-36.4537,1422.9984],[-70.2024,-36.4466,1423.6772],[-70.2022,-36.4418,1462.5664],[-70.1932,-36.4318,1501.6666],[-70.192,-36.4273,1435.324],[-70.1945,-36.4201,1477.2354],[-70.2041,-36.4076,1428.8711],[-70.2102,-36.3964,1489.4727],[-70.2111,-36.3892,1432.7565],[-70.2099,-36.3746,1446.7609],[-70.2151,-36.3632,1441.5251],[-70.2145,-36.346,1452.589],[-70.2186,-36.3397,1536.4547],[-70.228,-36.3331,1685.8911],[-70.2391,-36.3294,1565.3376],[-70.2695,-36.3265,1640.4634],[-70.2833,-36.3297,1592.4771],[-70.2909,-36.3377,1604.5481],[-70.3005,-36.344,1672.5995],[-70.3096,-36.3446,1653.5964],[-70.3388,-36.3392,1637.1064],[-70.3532,-36.3305,1754.1974],[-70.365,-36.3194,1881.6146],[-70.3826,-36.283,1853.1592],[-70.3862,-36.2637,1849.9097],[-70.3853,-36.2418,1944.2222],[-70.3986,-36.2067,2057.4736],[-70.399,-36.1995,2163.884],[-70.3936,-36.188,2171.5151],[-70.3923,-36.1784,2182.2773],[-70.3935,-36.1516,2175.5],[-70.3966,-36.1322,2181.8096],[-70.4042,-36.1083,2572.0625],[-70.4123,-36.1031,2681.3391],[-70.4132,-36.1075,2700.7073],[-70.415,-36.1077,2699.8416]]]]}}