{"type":"Feature","properties":{"GID_2":"ARG.7.24_1","GID_0":"ARG","country":"Argentina","GID_1":"ARG.7_1","state":"Corrientes","NL_NAME_1":"NA","county":"SantoTomé","VARNAME_2":"NA","NL_NAME_2":"NA","TYPE_2":"Departamento","ENGTYPE_2":"Department","CC_2":"NA","HASC_2":"AR.CN.ST","name":"SantoTomé.county"},
"geometry":{"type": "MultiPolygon","coordinates": [[[[-56.306399999999996,-28.8997,52.3487],[-56.3003,-28.8674,48.0],[-56.3039,-28.83,58.3318],[-56.3028,-28.8239,48.0],[-56.2974,-28.8085,48.0],[-56.2843,-28.791,48.0],[-56.2669,-28.7818,48.0],[-56.2481,-28.7764,48.5],[-56.2268,-28.7732,54.2815],[-56.1917,-28.7727,48.5],[-56.1842,-28.7679,49.6783],[-56.172,-28.7555,49.0],[-56.1622,-28.7348,50.538],[-56.1394,-28.7007,55.5489],[-56.0597,-28.6327,50.5],[-56.0454,-28.623,51.0],[-56.0285,-28.6162,51.0],[-56.0122,-28.6042,56.8167],[-56.0066,-28.5908,61.9702],[-56.0079,-28.5782,63.7633],[-56.0238,-28.539,51.5],[-56.0216,-28.5224,51.5],[-56.0151,-28.5127,51.5],[-55.999,-28.5031,51.5],[-55.9641,-28.4959,52.0],[-55.9451,-28.4938,52.0],[-55.9331,-28.4908,52.0],[-55.9135,-28.483,52.0],[-55.8935,-28.4813,53.0],[-55.888,-28.4792,57.7413],[-55.8839,-28.4686,66.312],[-55.8844,-28.4625,53.0],[-55.8899,-28.4399,53.0],[-55.9011,-28.4066,53.0],[-55.9004,-28.4005,53.0],[-55.885,-28.3729,53.0],[-55.8677,-28.3538,57.6786],[-55.8588,-28.3528,59.8267],[-55.8477,-28.3538,53.0],[-55.8063,-28.3627,75.0818],[-55.7696,-28.367,55.0],[-55.7446,-28.3743,55.5],[-55.7327,-28.3811,67.1462],[-55.729,-28.3857,55.5],[-55.7229,-28.4028,56.0],[-55.7113,-28.4205,71.9462],[-55.7038,-28.4248,56.5],[-55.6949,-28.4224,56.5],[-55.6898,-28.4154,56.5],[-55.6797,-28.3763,57.0],[-55.6713,-28.3586,57.5],[-55.6683,-28.3371,57.5],[-55.6699,-28.3303,57.5],[-55.676,-28.3209,61.4341],[-55.6886,-28.3117,61.6946],[-55.7461,-28.2833,59.0],[-55.7567,-28.2746,72.1211],[-55.7651,-28.2718,71.73],[-55.7731,-28.2614,68.9268],[-55.7748,-28.2478,59.5],[-55.7724,-28.2441,59.5],[-55.7562,-28.2331,60.0],[-55.7101,-28.2215,72.4146],[-55.6926,-28.2153,60.5],[-55.6632,-28.1908,61.0],[-55.635,-28.1768,61.0],[-55.6218,-28.1637,61.0],[-55.6172,-28.1533,61.0],[-55.6194,-28.1413,65.8652],[-55.6163,-28.1322,64.5505],[-55.6271,-28.1264,74.0036],[-55.6332,-28.1255,76.4038],[-55.643,-28.1157,88.9993],[-55.6619,-28.1031,84.3722],[-55.6665,-28.0962,86.455],[-55.6723,-28.0974,82.3009],[-55.6773,-28.0882,70.1391],[-55.689,-28.0802,91.3013],[-55.6981,-28.0808,95.9989],[-55.7085,-28.0756,109.1901],[-55.712,-28.0683,84.8031],[-55.7122,-28.0576,77.2917],[-55.7135,-28.0556,84.3276],[-55.7191,-28.0533,87.1244],[-55.7338,-28.0512,98.6428],[-55.739,-28.0486,100.845],[-55.743899999999996,-28.0419,97.1336],[-55.7431,-28.0366,90.5755],[-55.7377,-28.0272,114.8215],[-55.7397,-28.0168,110.0204],[-55.7512,-28.0047,128.0994],[-55.7739,-27.9939,95.5273],[-55.7841,-27.9915,90.0523],[-55.7936,-27.9847,98.7483],[-55.8054,-27.9723,92.2459],[-55.8087,-27.962,94.3004],[-55.8199,-27.9484,98.2418],[-55.8369,-27.9606,111.7144],[-55.8782,-28.0041,94.1431],[-55.889,-28.0085,98.0344],[-55.9009,-28.0087,133.5521],[-55.904,-28.0063,125.5681],[-55.9048,-28.0029,127.7645],[-55.8993,-27.9785,117.3495],[-55.9019,-27.9537,157.5473],[-55.9008,-27.936,136.7791],[-55.9039,-27.9295,157.298],[-55.9094,-27.9244,166.0281],[-55.9289,-27.8974,178.7144],[-55.9406,-27.8953,166.747],[-55.9556,-27.8997,169.0159],[-55.9676,-27.8999,145.5372],[-55.9874,-27.8972,134.9527],[-55.9983,-27.893,135.4953],[-56.0083,-27.8819,114.6465],[-56.0246,-27.8716,117.7727],[-56.0413,-27.8563,98.032],[-56.0582,-27.8468,95.5652],[-56.0695,-27.8432,94.4042],[-56.0853,-27.8413,91.7504],[-56.1193,-27.8308,87.5391],[-56.1272,-27.8302,87.0213],[-56.1431,-27.832,85.1635],[-56.1507,-27.8297,90.8131],[-56.1632,-27.8209,82.1291],[-56.1642,-27.7997,81.2101],[-56.1712,-27.7869,80.8829],[-56.2019,-27.7703,77.6677],[-56.2255,-27.7668,75.4634],[-56.2517,-27.7584,79.8236],[-56.2593,-27.7607,82.7232],[-56.2649,-27.7657,85.9423],[-56.2731,-27.7968,99.2686],[-56.2906,-27.8175,84.8627],[-56.2883,-27.8315,75.0807],[-56.2905,-27.8456,75.4149],[-56.3007,-27.861,82.7373],[-56.3094,-27.8679,72.7747],[-56.325,-27.8696,81.2242],[-56.3304,-27.8829,83.2614],[-56.3389,-27.8905,83.3004],[-56.3493,-27.8955,82.8894],[-56.3549,-27.9087,81.5662],[-56.3575,-27.9112,82.2322],[-56.3648,-27.9084,82.762],[-56.3951,-27.885,81.7564],[-56.3983,-27.8853,79.7022],[-56.4102,-27.8954,80.9752],[-56.4136,-27.897,81.2204],[-56.4175,-27.8961,85.4646],[-56.4398,-27.881,82.8208],[-56.4507,-27.8706,85.3832],[-56.4543,-27.8694,85.827],[-56.4678,-27.8825,81.5463],[-56.491,-27.9158,81.2752],[-56.5002,-27.9218,80.823],[-56.5147,-27.9158,79.3441],[-56.5483,-27.8965,70.3934],[-56.562,-27.8837,70.4669],[-56.5893,-27.8629,70.5277],[-56.6097,-27.8516,70.3913],[-56.6289,-27.8389,70.4673],[-56.6311,-27.8358,70.5055],[-56.6342,-27.8377,70.4873],[-56.6427,-27.8454,70.434],[-56.6549,-27.8637,70.0972],[-56.666,-27.8979,69.6857],[-56.6785,-27.9241,69.3539],[-56.6984,-27.9507,68.8227],[-56.714,-27.9669,68.6248],[-56.7265,-27.9759,68.5388],[-56.7451,-27.9991,68.1085],[-56.7578,-28.0077,67.9161],[-56.7862,-28.0546,65.5],[-56.7957,-28.0781,65.5],[-56.8091,-28.0958,65.5],[-56.8223,-28.1177,65.5],[-56.8774,-28.1921,67.2467],[-56.8968,-28.2148,66.3282],[-56.9067,-28.2241,66.5997],[-56.9019,-28.2296,66.1754],[-56.8875,-28.2356,66.3227],[-56.8572,-28.245,66.2324],[-56.8413,-28.2468,66.2483],[-56.8049,-28.2417,66.4043],[-56.7544,-28.2576,67.7048],[-56.729,-28.2624,75.5009],[-56.7125,-28.2503,72.9521],[-56.6591,-28.2565,73.6869],[-56.6651,-28.2745,73.5238],[-56.5688,-28.3033,72.812],[-56.5631,-28.3082,71.5],[-56.5531,-28.3236,68.2776],[-56.5504,-28.3303,65.9309],[-56.5483,-28.3443,70.2956],[-56.5373,-28.3672,60.7923],[-56.5357,-28.3777,74.9361],[-56.5375,-28.3846,75.1255],[-56.5426,-28.3901,74.9705],[-56.5429,-28.3971,72.4588],[-56.5449,-28.4,68.6771],[-56.5582,-28.4076,75.3855],[-56.5621,-28.421,73.7913],[-56.5586,-28.4246,76.4033],[-56.5473,-28.4278,59.1735],[-56.5313,-28.4286,59.6235],[-56.5162,-28.4332,62.6109],[-56.5001,-28.4333,67.681],[-56.4842,-28.4313,75.1546],[-56.4685,-28.4345,87.8978],[-56.4392,-28.446,86.7969],[-56.4265,-28.4547,84.0241],[-56.4202,-28.4677,87.087],[-56.4164,-28.4887,75.9884],[-56.405,-28.5032,74.7465],[-56.3952,-28.5265,67.8722],[-56.3929,-28.537,68.7395],[-56.3932,-28.5725,66.9707],[-56.3898,-28.6089,66.3047],[-56.4774,-28.6941,66.5742],[-56.4348,-28.6942,64.1899],[-56.4277,-28.73,65.8597],[-56.4224,-28.7396,64.519],[-56.3978,-28.7631,61.6577],[-56.3722,-28.7736,56.0705],[-56.3636,-28.7853,68.4021],[-56.3604,-28.7872,61.5203],[-56.3385,-28.7788,55.1571],[-56.3233,-28.7763,53.2301],[-56.3245,-28.7834,51.6641],[-56.306399999999996,-28.8997,52.3487]]]]}}