{"type":"Feature","properties":{"GID_2":"ARG.21.1_1","GID_0":"ARG","country":"Argentina","GID_1":"ARG.21_1","state":"SantaFe","NL_NAME_1":"NA","county":"Belgrano","VARNAME_2":"LasRosas","NL_NAME_2":"NA","TYPE_2":"Departamento","ENGTYPE_2":"Department","CC_2":"NA","HASC_2":"AR.SF.BE","name":"Belgrano.county"},
"geometry":{"type": "MultiPolygon","coordinates": [[[[-61.8066,-33.0291,65.3944],[-61.7999,-33.0385,72.9007],[-61.7801,-33.058,67.0101],[-61.7769,-33.0639,73.2192],[-61.7651,-33.0718,69.2748],[-61.7506,-33.0756,63.0411],[-61.7311,-33.0862,60.6862],[-61.7033,-32.9958,122.2881],[-61.672,-32.8847,110.1063],[-61.6536,-32.8704,106.4057],[-61.5305,-32.8488,116.9268],[-61.5516,-32.8425,116.3274],[-61.5278,-32.7513,113.1703],[-61.5357,-32.7494,113.9444],[-61.4926,-32.5755,87.4021],[-61.5067,-32.5753,99.421],[-61.4537,-32.3959,65.5777],[-61.724,-32.3467,101.1603],[-61.8509,-32.3271,110.3173],[-61.9372,-32.308,112.0138],[-61.9333,-32.3235,113.0537],[-62.0097,-32.3431,90.0136],[-62.005,-32.3567,89.603],[-61.9835,-32.3829,91.2753],[-61.985,-32.3946,87.8534],[-61.9638,-32.4194,87.039],[-61.9436,-32.4383,85.6877],[-61.9326,-32.4565,84.6225],[-61.9257,-32.4734,83.852],[-61.9111,-32.5203,82.1579],[-61.9144,-32.5275,81.6075],[-61.9279,-32.5376,81.1918],[-61.9282,-32.5403,81.0594],[-61.9268,-32.5425,81.0373],[-61.9215,-32.5449,80.7863],[-61.9066,-32.5473,80.6757],[-61.9028,-32.5511,80.889],[-61.901,-32.5586,80.5967],[-61.9044,-32.5684,79.2577],[-61.9179,-32.5787,79.113],[-61.9196,-32.5806,79.1005],[-61.9201,-32.5858,78.9707],[-61.9119,-32.5887,78.4327],[-61.8907,-32.5876,78.4313],[-61.8876,-32.5914,79.0575],[-61.8878,-32.6095,77.9531],[-61.8924,-32.6189,77.396],[-61.9,-32.6231,77.1114],[-61.9132,-32.6233,77.1796],[-61.9495,-32.6433,77.8472],[-61.9532,-32.6737,77.5019],[-61.9319,-32.6879,74.852],[-61.9153,-32.6941,75.2755],[-61.9034,-32.6956,74.1049],[-61.8883,-32.6944,73.9913],[-61.8649,-32.6978,73.902],[-61.8437,-32.7228,73.0462],[-61.8323,-32.7493,72.67],[-61.8048,-32.7649,71.3505],[-61.8002,-32.7714,71.6899],[-61.7977,-32.7841,71.2915],[-61.7893,-32.791,71.3953],[-61.7883,-32.8063,70.9395],[-61.7829,-32.8287,69.7741],[-61.7858,-32.8465,68.8585],[-61.7915,-32.8637,67.9155],[-61.7964,-32.8732,68.4711],[-61.7804,-32.8976,67.5859],[-61.7777,-32.9075,67.5381],[-61.7841,-32.9324,66.506],[-61.7889,-32.9386,66.822],[-61.789,-32.9464,66.6159],[-61.7949,-32.9713,66.2157],[-61.7939,-32.9788,65.4197],[-61.7949,-32.9863,64.7679],[-61.7906,-32.9959,63.3753],[-61.7948,-33.0161,63.7947],[-61.7969,-33.0207,62.5654],[-61.8066,-33.0291,65.3944]]]]}}