{"type": "Feature","bbox": [-58.841,-36.6183,-57.9649,-35.8205],"geometry": {"type": "MultiPolygon","coordinates": [[[[-58.2171,-36.6183,22.7722],[-58.1279,-36.5368,17.2966],[-58.1036,-36.5262,16.6944],[-58.1949,-36.4563,16.4738],[-57.9649,-36.2546,9.1769],[-58.0973,-36.1546,8.1736],[-58.0601,-36.1237,8.1186],[-58.0449,-36.1314,7.7529],[-57.976,-36.0684,8.1108],[-58.0102,-36.0453,4.9278],[-58.009,-36.0417,4.9905],[-58.0158,-36.0441,6.3232],[-58.0305,-36.0313,6.9993],[-58.0366,-36.012,6.2867],[-58.0343,-36.0012,4.8451],[-58.0259,-35.9795,6.7407],[-58.0147,-35.9709,6.6321],[-58.0193,-35.9523,7.8269],[-58.0232,-35.9497,5.9764],[-58.0269,-35.953,6.6616],[-58.0399,-35.9542,5.5091],[-58.0456,-35.9488,5.9544],[-58.0717,-35.9596,11.5144],[-58.0795,-35.9591,8.7989],[-58.0862,-35.9558,9.2056],[-58.0933,-35.9552,10.1517],[-58.0954,-35.9508,8.6084],[-58.0939,-35.9442,9.2069],[-58.0982,-35.9421,9.5898],[-58.1125,-35.94,9.5486],[-58.1151,-35.9368,9.1393],[-58.1103,-35.9251,10.325],[-58.1169,-35.9211,9.763],[-58.1238,-35.9228,9.5321],[-58.1344,-35.917,7.7961],[-58.14,-35.9058,8.6831],[-58.1395,-35.899,10.8805],[-58.1519,-35.889,10.8079],[-58.1479,-35.8818,6.8179],[-58.149,-35.8783,9.0288],[-58.1547,-35.8753,9.3228],[-58.1546,-35.8694,9.6366],[-58.1723,-35.8706,8.8587],[-58.1917,-35.865,11.1729],[-58.2027,-35.8476,10.1107],[-58.2062,-35.8462,10.0089],[-58.208,-35.8422,10.5136],[-58.2059,-35.8364,7.9358],[-58.2129,-35.8276,8.8385],[-58.2298,-35.822,9.9573],[-58.2326,-35.8226,10.168],[-58.2347,-35.8275,8.3224],[-58.2446,-35.8266,12.2329],[-58.2573,-35.8208,10.8262],[-58.2618,-35.8205,9.048],[-58.2721,-35.8261,10.897],[-58.2819,-35.8496,11.8147],[-58.2778,-35.8612,8.7595],[-58.2851,-35.8632,12.0996],[-58.291,-35.8611,12.2624],[-58.5769,-36.1227,21.005],[-58.7122,-36.0198,24.361],[-58.8028,-36.0972,25.9565],[-58.7992,-36.1006,26.0433],[-58.8078,-36.1111,27.0255],[-58.8202,-36.1156,27.7074],[-58.8288,-36.1167,27.5368],[-58.8339,-36.1286,28.2837],[-58.8363,-36.1414,28.667],[-58.841,-36.148,29.5198],[-58.8199,-36.1633,29.9187],[-58.8262,-36.1699,30.3427],[-58.7684,-36.2101,30.299],[-58.7897,-36.2299,31.0641],[-58.6006,-36.3678,30.3247],[-58.5805,-36.3503,28.4261],[-58.2171,-36.6183,22.7722]]]]}
,"properties": {"GID_2": "ARG.1.91_1","GID_0": "ARG","country": "Argentina","GID_1": "ARG.1_1","state": "BuenosAires","NL_NAME_1": "NA","county": "Pila","VARNAME_2": "NA","NL_NAME_2": "NA","TYPE_2": "Partido","ENGTYPE_2": "Part","CC_2": "NA","HASC_2": "AR.BA.PL","name": "Pila.county","area_km2": 3450.923,"hist_schema_id": "Elevation0-9000","hist_area_km2": {"0": 1041.378,"25": 2409.357,"50": 0.188}}}