{"type":"Feature","properties":{"GID_2":"ARG.7.23_1","GID_0":"ARG","country":"Argentina","GID_1":"ARG.7_1","state":"Corrientes","NL_NAME_1":"NA","county":"SanRoque","VARNAME_2":"NA","NL_NAME_2":"NA","TYPE_2":"Departamento","ENGTYPE_2":"Department","CC_2":"NA","HASC_2":"AR.CN.SR","name":"SanRoque.county"},
"geometry":{"type": "MultiPolygon","coordinates": [[[[-58.9704,-28.8251,54.6918],[-58.9701,-28.8335,50.9858],[-58.9347,-28.8358,58.9409],[-58.9065,-28.8345,63.5159],[-58.8945,-28.8359,63.1813],[-58.8804,-28.8428,61.7545],[-58.7587,-28.9304,58.6137],[-58.607,-29.0544,45.3508],[-58.5864,-29.0366,44.2208],[-58.5791,-29.0281,46.0914],[-58.5741,-29.0185,44.9161],[-58.5653,-29.0113,43.3533],[-58.563,-28.9973,45.8306],[-58.5561,-28.9845,43.0],[-58.5523,-28.9831,44.099],[-58.5492,-28.9847,45.0777],[-58.5473,-28.9879,44.4725],[-58.5436,-28.989,45.2057],[-58.5287,-28.9723,46.5006],[-58.5182,-28.9671,46.6452],[-58.5124,-28.9621,46.263],[-58.51,-28.9517,43.0],[-58.5023,-28.9434,46.6011],[-58.5013,-28.9401,43.5163],[-58.5023,-28.933,43.6953],[-58.5,-28.9303,46.731],[-58.496,-28.9295,46.5773],[-58.4848,-28.9326,46.691],[-58.4668,-28.9244,45.9454],[-58.464,-28.9307,46.1366],[-58.4566,-28.933,46.149],[-58.4423,-28.9261,45.1647],[-58.428,-28.9316,46.3961],[-58.4205,-28.9289,45.4092],[-58.4049,-28.927,44.9357],[-58.3958,-28.9199,45.0473],[-58.3879,-28.9179,45.1903],[-58.3838,-28.9045,45.0],[-58.3793,-28.8988,46.1765],[-58.36,-28.8934,46.5882],[-58.3595,-28.8866,46.4074],[-58.3517,-28.8784,46.4883],[-58.3467,-28.8687,47.3537],[-58.3287,-28.8546,47.1524],[-58.322,-28.8457,47.0674],[-58.3112,-28.8354,47.7222],[-58.3084,-28.825,46.8307],[-58.419,-28.7312,56.7638],[-58.4271,-28.7318,56.7289],[-58.4411,-28.7389,56.7612],[-58.4605,-28.757,56.6862],[-58.4869,-28.7734,56.549],[-58.498,-28.7777,56.4892],[-58.5059,-28.7786,59.22],[-58.5187,-28.77,55.7463],[-58.5448,-28.7341,56.5527],[-58.5496,-28.7133,56.5121],[-58.547,-28.7068,56.0554],[-58.5412,-28.7017,56.5518],[-58.5012,-28.6777,57.4162],[-58.4952,-28.673,57.906],[-58.4883,-28.6642,57.9298],[-58.486,-28.6574,58.341],[-58.4868,-28.6254,60.1951],[-58.484,-28.6078,62.1272],[-58.4803,-28.5977,59.3198],[-58.4563,-28.5567,60.0018],[-58.4466,-28.5504,59.8405],[-58.411,-28.5336,60.2512],[-58.4049,-28.529,60.2977],[-58.3935,-28.519,60.2681],[-58.3661,-28.4883,60.5905],[-58.3518,-28.4757,60.5195],[-58.3378,-28.4584,60.5425],[-58.3086,-28.4339,60.6112],[-58.4267,-28.2992,55.7564],[-58.4567,-28.3231,55.7134],[-58.4603,-28.3248,55.453],[-58.4722,-28.3244,60.5522],[-58.4757,-28.326,62.1914],[-58.4933,-28.3454,55.6634],[-58.5036,-28.3509,56.3692],[-58.5108,-28.3594,54.6697],[-58.5325,-28.3686,54.6149],[-58.5572,-28.3919,54.217],[-58.5588,-28.3952,54.2192],[-58.577,-28.4141,53.7774],[-58.6039,-28.4535,54.0274],[-58.6253,-28.4747,53.1799],[-58.633,-28.4899,54.3881],[-58.6415,-28.4975,54.4938],[-58.6458,-28.5073,54.7826],[-58.6576,-28.5106,53.6666],[-58.6639,-28.5147,52.7926],[-58.6756,-28.5292,52.1173],[-58.6923,-28.5445,52.2872],[-58.7023,-28.56,51.2203],[-58.7469,-28.6057,60.4483],[-58.7637,-28.6154,56.278],[-58.7832,-28.6197,52.1791],[-58.8013,-28.6273,51.8203],[-58.8245,-28.6335,53.3082],[-58.8342,-28.6398,54.7687],[-58.8555,-28.65,50.3742],[-58.8649,-28.6567,49.2008],[-58.8696,-28.6625,49.275],[-58.8766,-28.683,57.9758],[-58.8935,-28.7025,51.2656],[-58.8964,-28.7131,54.8669],[-58.9064,-28.7147,48.8243],[-58.9149,-28.7267,52.3222],[-58.9258,-28.7372,47.5772],[-58.931,-28.7467,46.7313],[-58.9394,-28.7544,48.9928],[-58.9474,-28.7745,48.7293],[-58.95,-28.7849,52.2044],[-58.9704,-28.8251,54.6918]]]]}}