{"type": "Feature","bbox": [-67.111,-37.7108,-65.9566,-36.7806],"geometry": {"type": "MultiPolygon","coordinates": [[[[-67.111,-36.8007,292.3663],[-67.0961,-37.7108,357.4777],[-66.5282,-37.7009,296.6137],[-65.9566,-37.6887,232.0394],[-65.9823,-36.7806,291.5401],[-67.111,-36.8007,292.3663]]]]}
,"properties": {"GID_2": "ARG.11.13_1","GID_0": "ARG","country": "Argentina","GID_1": "ARG.11_1","state": "LaPampa","NL_NAME_1": "NA","county": "LimayMahuida","VARNAME_2": "NA","NL_NAME_2": "NA","TYPE_2": "Departamento","ENGTYPE_2": "Department","CC_2": "NA","HASC_2": "AR.LP.LM","name": "LimayMahuida.county","area_km2": 10157.759,"hist_schema_id": "Elevation0-9000","hist_area_km2": {"225": 272.739,"250": 4450.818,"275": 4130.259,"300": 767.534,"325": 404.623,"350": 131.786}}}