{"type":"Feature","properties":{"GID_2":"ARG.6.3_1","GID_0":"ARG","country":"Argentina","GID_1":"ARG.6_1","state":"Córdoba","NL_NAME_1":"NA","county":"Colón","VARNAME_2":"JesusMaria","NL_NAME_2":"NA","TYPE_2":"Departamento","ENGTYPE_2":"Department","CC_2":"NA","HASC_2":"AR.CB.CO","name":"Colón.county"},
"geometry":{"type": "MultiPolygon","coordinates": [[[[-64.0595,-31.4407,386.9905],[-64.0501,-31.4375,380.294],[-64.0247,-31.4396,375.1385],[-63.993,-31.4581,367.3941],[-63.9871,-31.46,365.2961],[-63.9655,-31.4619,354.9009],[-63.9634,-31.3818,355.3461],[-63.9351,-31.3833,347.3444],[-63.9321,-31.3606,344.3246],[-63.962,-31.357,353.2983],[-63.957,-31.2798,353.1537],[-63.8719,-31.2763,316.8959],[-63.8709,-31.112,331.1248],[-63.852,-31.11,321.7842],[-63.8417,-31.0989,311.5217],[-63.8573,-31.0817,326.2625],[-63.844,-31.0804,315.5504],[-63.8425,-31.015,326.8861],[-63.9304,-31.0172,386.899],[-63.9328,-30.9404,383.2361],[-63.9455,-30.9398,395.8247],[-63.9637,-30.9346,409.0806],[-64.0012,-30.9279,442.8773],[-64.0139,-30.9275,455.7271],[-64.0192,-30.9303,459.4471],[-64.0225,-30.9352,464.9264],[-64.0324,-30.9555,475.8513],[-64.0369,-30.9593,480.2192],[-64.0428,-30.9613,485.8366],[-64.0683,-30.9629,509.7605],[-64.0851,-30.9708,525.2065],[-64.0974,-30.9738,530.8261],[-64.1288,-30.9693,560.3262],[-64.1478,-30.9708,568.1454],[-64.1664,-30.9744,587.5033],[-64.1967,-30.9664,614.6669],[-64.2349,-30.9654,652.3511],[-64.2603,-30.9622,684.7485],[-64.2885,-30.9495,725.8645],[-64.3063,-30.9436,855.2142],[-64.3218,-30.9341,1035.9436],[-64.3711,-30.923,1244.3951],[-64.409,-30.9189,1385.7495],[-64.4139,-30.9155,1461.1045],[-64.4246,-30.9017,1609.3638],[-64.4295,-30.8982,1697.0544],[-64.4352,-30.8958,1801.9402],[-64.4487,-30.8952,1630.6427],[-64.4517,-30.9106,1513.7739],[-64.4504,-30.9214,1648.4456],[-64.4517,-30.971,1462.1631],[-64.4512,-30.9821,1395.5872],[-64.4461,-30.992,1379.1904],[-64.4451,-30.9973,1378.3333],[-64.4512,-31.0411,1409.991],[-64.4501,-31.0687,1354.5027],[-64.4369,-31.1111,1171.9612],[-64.4363,-31.1386,1099.2327],[-64.4295,-31.1655,1182.4863],[-64.4329,-31.1816,990.7381],[-64.4293,-31.1859,984.1965],[-64.423,-31.1877,1060.2148],[-64.4127,-31.194,1209.589],[-64.4094,-31.1988,1200.5409],[-64.4087,-31.2042,1207.7078],[-64.4101,-31.2096,1138.2728],[-64.4187,-31.22,1054.7249],[-64.4265,-31.2361,953.7171],[-64.4305,-31.2527,996.1617],[-64.4366,-31.2974,904.3956],[-64.435,-31.3371,893.7961],[-64.4413,-31.3538,857.623],[-64.4295,-31.3503,857.5852],[-64.4228,-31.3532,754.4563],[-64.4021,-31.3535,608.5632],[-64.3914,-31.3523,632.3545],[-64.3802,-31.3472,654.3901],[-64.3743,-31.347,641.8514],[-64.3663,-31.3555,539.2686],[-64.3539,-31.3584,507.171],[-64.3412,-31.3576,507.9],[-64.3353,-31.3555,490.5511],[-64.326,-31.3482,595.5775],[-64.3174,-31.3475,528.0148],[-64.3176,-31.3141,489.0496],[-64.0617,-31.3153,402.5137],[-64.0595,-31.4407,386.9905]]]]}}