{"type":"Feature","properties":{"GID_2":"ARG.7.16_1","GID_0":"ARG","country":"Argentina","GID_1":"ARG.7_1","state":"Corrientes","NL_NAME_1":"NA","county":"MonteCaseros","VARNAME_2":"NA","NL_NAME_2":"NA","TYPE_2":"Departamento","ENGTYPE_2":"Department","CC_2":"NA","HASC_2":"AR.CN.MC","name":"MonteCaseros.county"},
"geometry":{"type": "MultiPolygon","coordinates": [[[[-58.0871,-30.4161,46.0168],[-58.0707,-30.4195,44.3432],[-58.0669,-30.4222,47.5153],[-58.0712,-30.4667,42.5022],[-58.0521,-30.508,49.0783],[-58.0518,-30.5129,47.2088],[-58.0581,-30.5278,40.8437],[-58.0591,-30.5382,40.7404],[-58.0572,-30.5459,40.6187],[-58.0498,-30.5574,39.8666],[-58.0265,-30.5739,38.9844],[-58.0211,-30.5914,38.1786],[-58.0122,-30.6021,37.3197],[-58.0034,-30.6092,37.1081],[-57.9823,-30.6195,53.6286],[-57.9679,-30.6329,38.199],[-57.9582,-30.639,48.3946],[-57.9028,-30.6599,33.5],[-57.8773,-30.6823,33.5],[-57.8571,-30.687,37.2765],[-57.8313,-30.7053,62.4384],[-57.8263,-30.7116,46.4129],[-57.8218,-30.7215,33.5],[-57.8162,-30.7471,33.5],[-57.8079,-30.7554,33.5],[-57.8104,-30.7357,33.5],[-57.8038,-30.7092,33.5],[-57.8093,-30.6944,33.5],[-57.8164,-30.6821,33.5],[-57.831,-30.6711,33.5],[-57.8336,-30.6667,33.5],[-57.841,-30.6293,33.5],[-57.8471,-30.6126,33.5],[-57.8596,-30.6022,33.5],[-57.8781,-30.5924,33.5],[-57.8852,-30.5858,33.5],[-57.887,-30.5819,33.5],[-57.8885,-30.5742,33.5],[-57.8854,-30.5631,36.2178],[-57.8857,-30.5549,33.5],[-57.8865,-30.5458,33.5],[-57.8927,-30.5205,33.5],[-57.8922,-30.513,33.5],[-57.8856,-30.501,33.5],[-57.8592,-30.477,33.5],[-57.7988,-30.4505,33.5],[-57.7919,-30.4458,33.5],[-57.7726,-30.4236,34.0],[-57.7067,-30.3929,34.5],[-57.6689,-30.3671,34.5],[-57.6523,-30.3536,34.5],[-57.6416,-30.341,35.0],[-57.6369,-30.332,35.0],[-57.6284,-30.2888,35.0],[-57.6182,-30.2635,35.5],[-57.6156,-30.2525,35.5],[-57.62,-30.2417,35.5],[-57.6414,-30.217,36.0],[-57.6473,-30.2076,37.6513],[-57.6492,-30.1989,36.0],[-57.6474,-30.1948,36.0],[-57.6451,-30.1935,36.0],[-57.6446,-30.1848,36.0],[-57.6536,-30.1775,40.8106],[-57.665,-30.174,41.2605],[-57.6676,-30.1713,41.5742],[-57.6671,-30.1677,58.2905],[-57.6651,-30.1646,52.2534],[-57.6612,-30.1641,51.3094],[-57.6529,-30.1644,48.6093],[-57.6454,-30.1669,40.417],[-57.6313,-30.1599,39.0941],[-57.631,-30.1564,38.8958],[-57.636,-30.1468,42.0619],[-57.6379,-30.1363,42.0275],[-57.6364,-30.1257,44.0389],[-57.6326,-30.1156,44.5971],[-57.6251,-30.1029,42.7176],[-57.6176,-30.0945,40.4784],[-57.6108,-30.0905,38.7252],[-57.5917,-30.0844,41.2021],[-57.5877,-30.0782,43.0464],[-57.5932,-30.0731,43.5157],[-57.597,-30.0718,43.8574],[-57.6092,-30.0725,43.8841],[-57.6119,-30.0661,46.1204],[-57.5968,-30.0542,39.9876],[-57.5889,-30.0525,41.0265],[-57.5877,-30.0458,41.4299],[-57.5903,-30.0319,43.1822],[-57.5995,-30.0253,43.8228],[-57.6315,-30.0307,49.8423],[-57.6478,-30.0294,45.435],[-57.6753,-30.023,53.6718],[-57.6811,-30.0183,43.5585],[-57.6874,-30.0249,44.2614],[-57.7012,-30.0324,56.3286],[-57.7132,-30.0336,59.0806],[-57.7209,-30.0313,56.9843],[-57.7269,-30.0265,47.4777],[-57.7431,-29.9979,57.9597],[-57.7618,-29.9907,58.4875],[-57.7718,-29.9844,57.52],[-57.7958,-29.9812,66.0925],[-57.8153,-29.9759,61.6014],[-57.8285,-29.9675,71.0871],[-57.8436,-29.9624,56.6221],[-57.8511,-29.9541,65.6935],[-57.8667,-29.9427,56.3406],[-57.8827,-29.9222,58.0015],[-57.8868,-29.9012,60.4659],[-57.8987,-29.8869,57.3088],[-57.9131,-29.8743,56.9979],[-57.9163,-29.8678,61.6457],[-57.9182,-29.8574,58.5161],[-57.9305,-29.8481,62.4829],[-57.9477,-29.8386,64.1713],[-57.9589,-29.8343,61.3308],[-57.9861,-29.827,62.4896],[-57.9983,-29.8276,62.7762],[-58.0056,-29.8306,63.6239],[-58.0135,-29.8313,66.1899],[-58.0271,-29.8392,66.8123],[-58.0383,-29.8495,70.4318],[-58.0571,-29.8631,78.7395],[-58.0653,-29.871,79.9727],[-58.0693,-29.8772,80.1261],[-58.0697,-29.902,87.3849],[-58.0666,-29.9232,87.1339],[-58.0608,-29.9365,79.3633],[-58.0467,-29.9539,83.9886],[-58.0224,-29.9729,87.5091],[-57.9919,-29.9829,75.5668],[-57.9812,-29.9935,73.4961],[-57.9761,-30.0072,82.0206],[-57.9768,-30.0105,83.8312],[-57.9795,-30.0131,94.0072],[-58.0174,-30.0404,79.5914],[-58.0405,-30.0604,69.5354],[-58.0442,-30.0705,65.6235],[-58.0503,-30.0798,65.5],[-58.0606,-30.0908,60.8983],[-58.0674,-30.1038,61.0441],[-58.0687,-30.1215,66.2846],[-58.0665,-30.1283,67.4392],[-58.0608,-30.1377,62.8364],[-58.0523,-30.1455,59.0739],[-58.0425,-30.1518,61.2012],[-58.0342,-30.168,60.2601],[-58.0322,-30.1892,56.9101],[-58.035,-30.2104,55.0748],[-58.0324,-30.2316,54.8819],[-58.0338,-30.2386,55.0528],[-58.0372,-30.2451,53.813],[-58.0381,-30.2556,53.1192],[-58.0449,-30.2644,52.1886],[-58.0468,-30.2856,52.1752],[-58.0515,-30.3028,51.1538],[-58.053,-30.3241,49.8595],[-58.0679,-30.3533,48.2406],[-58.0751,-30.3811,48.5695],[-58.0808,-30.3944,46.1858],[-58.0871,-30.4161,46.0168]]]]}}