{"type": "Feature","bbox": [-70.646,-50.7658,-67.6762,-49.2039],"geometry": {"type": "MultiPolygon","coordinates": [[[[-70.5808,-49.2039,225.866],[-70.6215,-50.2125,116.7484],[-70.6311,-50.2193,123.6184],[-70.6387,-50.3681,424.0632],[-70.6301,-50.3745,422.6704],[-70.646,-50.7368,320.0929],[-69.965,-50.7523,233.3715],[-69.138,-50.7658,0.0],[-69.1381,-50.7574,0.0],[-69.1414,-50.7438,5.2235],[-69.1403,-50.7249,0.0],[-69.1369,-50.7163,0.0],[-69.1292,-50.7038,0.0],[-69.1264,-50.6904,3.1243],[-69.1264,-50.6815,7.8899],[-69.1242,-50.6749,4.1403],[-69.1203,-50.6679,2.6057],[-69.1153,-50.6629,3.3512],[-69.1136,-50.6629,3.3512],[-69.1075,-50.6551,0.0],[-69.1075,-50.6524,0.0],[-69.0919,-50.6224,0.0],[-69.0903,-50.6132,27.2036],[-69.0803,-50.5893,0.0],[-69.0786,-50.5654,14.4121],[-69.0764,-50.5646,0.0],[-69.0781,-50.5635,25.0763],[-69.0725,-50.5621,0.0],[-69.0742,-50.559,8.3359],[-69.0719,-50.5549,0.8017],[-69.0703,-50.5546,0.0],[-69.0708,-50.5535,0.0],[-69.0647,-50.5488,0.0],[-69.0581,-50.539,0.0],[-69.0514,-50.5329,7.4304],[-69.0469,-50.5251,0.0],[-69.0419,-50.5243,0.0],[-69.0469,-50.521,26.6262],[-69.0392,-50.5112,0.0],[-69.0375,-50.5024,4.6631],[-69.0342,-50.4957,2.7976],[-69.0258,-50.4896,0.0],[-69.0053,-50.469,0.0],[-69.0003,-50.4601,20.6113],[-68.9975,-50.4585,10.491],[-68.9947,-50.451,5.5794],[-68.9886,-50.4435,0.0],[-68.9853,-50.4362,19.0512],[-68.9831,-50.4354,1.7016],[-68.9814,-50.4313,1.9282],[-68.9736,-50.4246,0.0],[-68.9714,-50.4207,4.8916],[-68.9586,-50.4104,2.7392],[-68.9447,-50.3963,0.0],[-68.9242,-50.3843,0.0],[-68.9253,-50.3787,13.0707],[-68.9175,-50.3737,0.0],[-68.9064,-50.3632,0.0],[-68.9003,-50.361,5.8391],[-68.8936,-50.3618,0.0],[-68.8919,-50.3596,0.0],[-68.8875,-50.3582,0.0],[-68.8842,-50.3582,0.9542],[-68.8836,-50.3601,0.0],[-68.8792,-50.361,0.0],[-68.8814,-50.3571,15.538],[-68.8808,-50.3546,14.2193],[-68.8847,-50.3532,12.2135],[-68.8847,-50.351,15.1576],[-68.8775,-50.3468,0.0],[-68.8792,-50.3446,9.8183],[-68.8742,-50.3451,0.0],[-68.8786,-50.3413,13.8515],[-68.8786,-50.3379,3.0436],[-68.8808,-50.3365,14.6379],[-68.8775,-50.3329,9.1569],[-68.8547,-50.321,9.3549],[-68.8069,-50.3082,0.0],[-68.8019,-50.3057,0.0],[-68.8019,-50.3018,0.0],[-68.7731,-50.2882,2.4907],[-68.7342,-50.284,0.0],[-68.7308,-50.2829,2.4208],[-68.7314,-50.2788,0.0],[-68.7131,-50.2726,24.9845],[-68.6803,-50.266,8.6121],[-68.6697,-50.2629,0.0],[-68.6692,-50.261,0.0],[-68.6653,-50.2599,0.0],[-68.6586,-50.2626,0.0],[-68.6603,-50.2579,39.624],[-68.6458,-50.2535,10.7311],[-68.6342,-50.2518,0.0],[-68.6336,-50.2496,17.1909],[-68.6297,-50.2499,0.0],[-68.6281,-50.2476,8.4534],[-68.6108,-50.2443,0.0],[-68.5836,-50.2349,5.6294],[-68.5397,-50.2232,0.0],[-68.5319,-50.2224,2.7206],[-68.5281,-50.2187,37.5145],[-68.5236,-50.2174,3.4819],[-68.4642,-50.2032,0.0],[-68.4569,-50.1993,18.3038],[-68.4014,-50.1851,0.0],[-68.3619,-50.1646,0.0],[-68.3569,-50.1593,0.0],[-68.3564,-50.1546,3.5483],[-68.3542,-50.1518,0.4546],[-68.3558,-50.1457,6.5078],[-68.3553,-50.1399,5.8786],[-68.3575,-50.1368,5.3241],[-68.3619,-50.1349,2.6804],[-68.3464,-50.1204,0.0],[-68.3419,-50.1221,0.0],[-68.3236,-50.1232,0.0],[-68.2692,-50.1196,0.0],[-68.2386,-50.1207,2.7205],[-68.1958,-50.1165,0.0],[-68.1503,-50.1074,0.0],[-68.1042,-50.0904,6.3682],[-68.0619,-50.0776,0.0],[-68.0625,-50.0768,0.0],[-68.0336,-50.0665,0.0],[-68.0092,-50.054,7.7092],[-67.9964,-50.0493,0.0],[-67.9692,-50.0337,0.0],[-67.9581,-50.0249,4.2701],[-67.9164,-50.006,7.6924],[-67.8518,-49.961,0.0],[-67.8379,-49.9468,0.0],[-67.8299,-49.9329,7.0441],[-67.8215,-49.9263,0.0],[-67.8026,-49.9032,0.0],[-67.7937,-49.8899,3.5668],[-67.7868,-49.8768,0.0],[-67.7835,-49.8668,12.5976],[-67.7729,-49.8512,36.0747],[-67.7682,-49.841,12.1598],[-67.7654,-49.8396,0.0],[-67.7596,-49.8282,4.5178],[-67.7554,-49.8262,0.0],[-67.729,-49.7762,0.0],[-67.7293,-49.7718,0.0],[-67.7207,-49.7404,0.0],[-67.7207,-49.7218,0.0],[-67.7151,-49.6982,0.0],[-67.7157,-49.6818,4.7371],[-67.7213,-49.6724,0.0],[-67.716,-49.6526,0.0],[-67.7199,-49.6357,0.6959],[-67.7087,-49.6201,0.0],[-67.7054,-49.6018,15.1584],[-67.7065,-49.5899,7.968],[-67.7029,-49.5585,67.775],[-67.6963,-49.5251,22.9183],[-67.689,-49.5074,43.6717],[-67.6876,-49.5004,8.205],[-67.6879,-49.4835,16.3124],[-67.681,-49.456,15.2833],[-67.6762,-49.4443,22.7649],[-67.6762,-49.4437,22.7649],[-68.8226,-49.4548,231.0146],[-68.8268,-49.3168,321.2869],[-69.7616,-49.3182,134.7163],[-69.7582,-49.2087,370.4318],[-70.5808,-49.2039,225.866]]]]}
,"properties": {"GID_2": "ARG.20.1_1","GID_0": "ARG","country": "Argentina","GID_1": "ARG.20_1","state": "SantaCruz","NL_NAME_1": "NA","county": "CorpenAike","VARNAME_2": "SataCruz","NL_NAME_2": "NA","TYPE_2": "Departamento","ENGTYPE_2": "Department","CC_2": "NA","HASC_2": "AR.SC.CA","name": "CorpenAike.county","area_km2": 26379.0,"hist_schema_id": "Elevation0-9000","hist_area_km2": {"-75": 181.79,"-50": 195.79,"-25": 174.71,"0": 634.95,"25": 1232.96,"50": 1826.21,"75": 2411.29,"100": 1973.32,"125": 2660.94,"150": 1500.21,"175": 1130.74,"200": 766.94,"225": 747.73,"250": 822.18,"275": 999.19,"300": 1200.48,"325": 1652.59,"350": 2416.86,"375": 1234.33,"400": 360.01,"425": 430.46,"450": 321.67,"475": 260.02,"500": 239.46,"525": 257.44,"550": 213.82,"575": 194.28,"600": 136.61,"625": 87.74,"650": 69.43,"675": 39.58,"700": 5.26}}}