{"type":"Feature","properties":{"GID_2":"ARG.24.6_1","GID_0":"ARG","country":"Argentina","GID_1":"ARG.24_1","state":"Tucumán","NL_NAME_1":"NA","county":"Graneros","VARNAME_2":"NA","NL_NAME_2":"NA","TYPE_2":"Departamento","ENGTYPE_2":"Department","CC_2":"NA","HASC_2":"AR.TM.GR","name":"Graneros.county"},
"geometry":{"type": "MultiPolygon","coordinates": [[[[-65.1834,-27.9355,372.8937],[-65.1874,-27.9152,365.3827],[-65.1791,-27.9123,363.3548],[-65.1675,-27.9021,359.4288],[-65.1587,-27.8815,348.7343],[-65.1546,-27.8661,344.0924],[-65.1274,-27.8684,338.2724],[-65.1265,-27.8787,339.5616],[-65.0935,-27.8908,348.9262],[-65.0872,-27.891,352.0813],[-65.0494,-27.8722,368.8861],[-65.0144,-27.7712,337.7921],[-64.9596,-27.7596,367.0687],[-65.0426,-27.5895,272.0],[-65.0302,-27.5739,272.0],[-65.0619,-27.5676,272.0],[-65.077,-27.5681,273.5689],[-65.0876,-27.5734,273.3862],[-65.0937,-27.5715,276.3496],[-65.1085,-27.5737,275.7715],[-65.1138,-27.5706,275.6438],[-65.1175,-27.5638,277.8223],[-65.1279,-27.5621,277.9373],[-65.1341,-27.5638,277.5435],[-65.1424,-27.57,278.1623],[-65.1508,-27.5709,279.6439],[-65.17,-27.579,283.9879],[-65.176,-27.5766,285.5106],[-65.1835,-27.5697,285.4852],[-65.1899,-27.5598,287.6712],[-65.1995,-27.5562,289.5297],[-65.2077,-27.5583,289.8368],[-65.2187,-27.5526,292.2096],[-65.2403,-27.5543,291.7668],[-65.2476,-27.5507,293.282],[-65.2684,-27.5553,297.3534],[-65.2769,-27.5543,299.9915],[-65.286,-27.5504,297.8617],[-65.2936,-27.5439,303.1319],[-65.2978,-27.5376,300.4527],[-65.3043,-27.5371,303.77],[-65.3203,-27.5315,305.925],[-65.3397,-27.5332,305.4397],[-65.3482,-27.5318,305.4041],[-65.3537,-27.5264,308.9447],[-65.3576,-27.5251,306.8134],[-65.3609,-27.5206,307.6561],[-65.3903,-27.5256,316.2453],[-65.4055,-27.5259,318.3047],[-65.4157,-27.5325,320.9249],[-65.4284,-27.534,322.1705],[-65.454,-27.5324,326.6916],[-65.4602,-27.5303,326.3255],[-65.4657,-27.5328,327.8306],[-65.4721,-27.5323,327.0517],[-65.4884,-27.5372,329.2979],[-65.5073,-27.5336,332.7744],[-65.5244,-27.5349,336.6468],[-65.5414,-27.5896,353.2449],[-65.5372,-27.5914,352.0413],[-65.5426,-27.6116,351.2654],[-65.5283,-27.6037,350.0779],[-65.5197,-27.604,347.5634],[-65.5188,-27.6056,346.1412],[-65.5199,-27.6071,347.4956],[-65.5282,-27.6131,354.7606],[-65.5259,-27.6162,349.5118],[-65.5217,-27.6172,342.8333],[-65.5307,-27.6523,365.3045],[-65.5075,-27.6565,350.1889],[-65.5214,-27.7255,378.8538],[-65.472,-27.7349,343.5251],[-65.4818,-27.778199999999998,361.494],[-65.427,-27.7876,343.177],[-65.4462,-27.8817,387.0981],[-65.414,-27.8598,364.3004],[-65.3941,-27.8488,356.6021],[-65.3676,-27.8411,346.5242],[-65.1834,-27.9355,372.8937]]]]}}