{"type":"Feature","properties":{"GID_2":"ARG.18.9_1","GID_0":"ARG","country":"Argentina","GID_1":"ARG.18_1","state":"SanJuan","NL_NAME_1":"NA","county":"Pocito","VARNAME_2":"VillaAlberastain","NL_NAME_2":"NA","TYPE_2":"Departamento","ENGTYPE_2":"Department","CC_2":"NA","HASC_2":"AR.SJ.PO","name":"Pocito.county"},
"geometry":{"type": "MultiPolygon","coordinates": [[[[-68.6015,-31.564,686.4904],[-68.6064,-31.5635,689.7295],[-68.6088,-31.5688,687.7197],[-68.616,-31.5768,687.7776],[-68.6303,-31.6018,676.1282],[-68.6307,-31.6128,667.8353],[-68.6521,-31.6151,723.9187],[-68.6962,-31.6144,1502.5117],[-68.7013,-31.6412,1516.2736],[-68.6964,-31.6789,1791.2024],[-68.6899,-31.6929,1942.0182],[-68.67,-31.7116,1931.075],[-68.6649,-31.7492,2103.1189],[-68.6669,-31.8275,1795.8877],[-68.6751,-31.8749,1471.6816],[-68.6813,-31.8914,1407.6825],[-68.553,-31.8646,623.5147],[-68.4442,-31.8661,558.037],[-68.4337,-31.8765,555.8973],[-68.4308,-31.8733,557.0261],[-68.432,-31.8246,561.1472],[-68.4781,-31.7891,566.2462],[-68.4941,-31.7742,568.8698],[-68.4976,-31.7673,570.6675],[-68.5065,-31.7353,573.8909],[-68.5094,-31.7178,574.8903],[-68.524,-31.6741,587.6033],[-68.5229,-31.6641,590.7683],[-68.5182,-31.6549,590.3193],[-68.5164,-31.6474,594.0497],[-68.506,-31.6293,594.7029],[-68.5229,-31.6252,605.092],[-68.5311,-31.6218,614.4556],[-68.5317,-31.6197,613.4246],[-68.5259,-31.6109,613.3663],[-68.5208,-31.5886,619.3778],[-68.5226,-31.5864,621.4164],[-68.5507,-31.5777,643.7125],[-68.6015,-31.564,686.4904]]]]}}