{"type": "Feature","bbox": [-67.8582,-29.819,-66.9762,-29.008],"geometry": {"type": "MultiPolygon","coordinates": [[[[-67.09,-29.4055,2482.9634],[-67.099,-29.394,2230.9736],[-67.1068,-29.3694,2684.4124],[-67.1175,-29.3551,2468.7156],[-67.1342,-29.3396,2531.2188],[-67.1392,-29.3323,2466.6982],[-67.1437,-29.3201,2552.9397],[-67.1481,-29.2992,2151.2197],[-67.1506,-29.2955,2246.7998],[-67.1578,-29.2898,2430.7725],[-67.1744,-29.2807,2655.5767],[-67.1809,-29.2745,2582.3335],[-67.1846,-29.2666,2825.2266],[-67.1959,-29.2251,3016.5833],[-67.2111,-29.1985,2694.0542],[-67.2216,-29.1746,2961.0928],[-67.2231,-29.1576,2783.1255],[-67.2187,-29.1367,2695.5317],[-67.2138,-29.1293,2768.1997],[-67.2026,-29.1213,2529.4485],[-67.1991,-29.1134,2408.1558],[-67.2164,-29.0558,2922.7603],[-67.2178,-29.0302,3156.1189],[-67.2161,-29.0145,3194.9099],[-67.8352,-29.0146,6039.2061],[-67.8341,-29.0088,5912.7583],[-67.8355,-29.008,5823.291],[-67.8409,-29.0228,5931.2388],[-67.8522,-29.0686,5375.8848],[-67.8558,-29.094,5195.4209],[-67.8559,-29.1239,4969.0537],[-67.8582,-29.1408,4733.4141],[-67.8564,-29.1706,4083.7405],[-67.8512,-29.2043,3476.9224],[-67.8512,-29.2129,3093.7783],[-67.8447,-29.2287,2685.3882],[-67.8353,-29.2617,2483.6467],[-67.8226,-29.2895,2645.0403],[-67.8001,-29.3223,2412.2476],[-67.7881,-29.3357,2231.7554],[-67.7679,-29.3542,2305.8181],[-67.765,-29.3624,2491.2434],[-67.7613,-29.3877,2674.8979],[-67.7542,-29.4036,2560.6323],[-67.7442,-29.4182,2699.9143],[-67.7227,-29.4413,2690.0493],[-67.7139,-29.465699999999998,2555.5735],[-67.6945,-29.5,2906.0391],[-67.6929,-29.5126,2839.9946],[-67.6842,-29.5324,2817.0352],[-67.5368,-29.7861,2302.0601],[-66.9762,-29.819,972.4485],[-66.9974,-29.7896,1080.5884],[-67.0159,-29.7757,1197.3906],[-67.0286,-29.7575,1619.6388],[-67.0315,-29.745,1313.7119],[-67.0336,-29.7152,1523.8171],[-67.0458,-29.6968,2036.874],[-67.0559,-29.6638,2334.3853],[-67.0603,-29.6428,2434.0762],[-67.0596,-29.6301,2362.3538],[-67.0458,-29.5847,2275.9399],[-67.0308,-29.5533,2257.9841],[-67.0303,-29.5449,2020.1152],[-67.0332,-29.5324,2079.5854],[-67.0488,-29.5012,1954.2942],[-67.0586,-29.4917,1789.1021],[-67.0827,-29.4773,2225.9155],[-67.0956,-29.4592,2569.2312],[-67.1011,-29.4428,2322.5522],[-67.1014,-29.43,2255.96],[-67.097,-29.4179,2461.4971],[-67.09,-29.4055,2482.9634]]]]}
,"properties": {"GID_2": "ARG.12.5_1","GID_0": "ARG","country": "Argentina","GID_1": "ARG.12_1","state": "LaRioja","NL_NAME_1": "NA","county": "Chilecito","VARNAME_2": "NA","NL_NAME_2": "NA","TYPE_2": "Departamento","ENGTYPE_2": "Department","CC_2": "NA","HASC_2": "AR.LR.CL","name": "Chilecito.county","area_km2": 5245.272,"hist_schema_id": "Elevation0-9000","hist_area_km2": {"675": 17.922,"700": 70.499,"725": 173.645,"750": 241.693,"775": 234.872,"800": 243.984,"825": 225.789,"850": 210.143,"875": 180.739,"900": 161.516,"925": 140.603,"950": 128.738,"975": 132.352,"1000": 94.92,"1025": 76.5,"1050": 67.765,"1075": 60.458,"1100": 55.408,"1125": 51.279,"1150": 48.193,"1175": 47.613,"1200": 48.108,"1225": 47.443,"1250": 45.573,"1275": 44.925,"1300": 41.774,"1325": 41.595,"1350": 41.978,"1375": 40.611,"1400": 43.658,"1425": 43.31,"1450": 42.667,"1475": 41.629,"1500": 40.761,"1525": 39.618,"1550": 38.734,"1575": 38.224,"1600": 36.953,"1625": 37.562,"1650": 36.517,"1675": 34.871,"1700": 36.367,"1725": 35.477,"1750": 36.325,"1775": 34.203,"1800": 32.558,"1825": 32.099,"1850": 32.242,"1875": 30.285,"1900": 30.375,"1925": 32.484,"1950": 31.949,"1975": 31.186,"2000": 30.636,"2025": 31.368,"2050": 31.227,"2075": 31.1,"2100": 27.902,"2125": 28.084,"2150": 29.895,"2175": 29.947,"2200": 30.571,"2225": 31.068,"2250": 29.61,"2275": 28.872,"2300": 28.668,"2325": 28.613,"2350": 29.773,"2375": 28.043,"2400": 25.753,"2425": 24.577,"2450": 24.888,"2475": 26.092,"2500": 25.443,"2525": 26.532,"2550": 27.176,"2575": 27.178,"2600": 23.358,"2625": 21.475,"2650": 22.065,"2675": 20.83,"2700": 20.333,"2725": 21.48,"2750": 22.532,"2775": 23.553,"2800": 23.959,"2825": 24.603,"2850": 23.37,"2875": 24.578,"2900": 23.843,"2925": 19.852,"2950": 15.579,"2975": 13.063,"3000": 10.77,"3025": 10.587,"3050": 8.846,"3075": 8.663,"3100": 8.07,"3125": 7.681,"3150": 7.292,"3175": 6.532,"3200": 7.125,"3225": 7.072,"3250": 5.941,"3275": 6.643,"3300": 5.866,"3325": 5.498,"3350": 4.776,"3375": 4.61,"3400": 4.407,"3425": 4.296,"3450": 4.074,"3475": 3.982,"3500": 3.834,"3525": 3.352,"3550": 3.945,"3575": 3.445,"3600": 4.075,"3625": 4.038,"3650": 3.89,"3675": 3.594,"3700": 3.02,"3725": 3.649,"3750": 2.834,"3775": 3.557,"3800": 3.187,"3825": 3.001,"3850": 3.816,"3875": 3.02,"3900": 3.001,"3925": 3.298,"3950": 3.205,"3975": 2.816,"4000": 2.853,"4025": 3.113,"4050": 2.705,"4075": 2.946,"4100": 2.705,"4125": 2.798,"4150": 2.464,"4175": 2.576,"4200": 2.631,"4225": 2.761,"4250": 2.576,"4275": 2.539,"4300": 2.149,"4325": 2.279,"4350": 2.335,"4375": 2.205,"4400": 2.094,"4425": 2.223,"4450": 1.834,"4475": 2.075,"4500": 2.168,"4525": 1.779,"4550": 1.631,"4575": 1.593,"4600": 1.908,"4625": 2.057,"4650": 1.705,"4675": 1.779,"4700": 1.76,"4725": 1.927,"4750": 1.742,"4775": 1.464,"4800": 1.594,"4825": 1.668,"4850": 1.649,"4875": 1.575,"4900": 1.371,"4925": 1.612,"4950": 1.501,"4975": 1.946,"5000": 1.334,"5025": 1.279,"5050": 1.482,"5075": 1.408,"5100": 1.371,"5125": 1.834,"5150": 1.501,"5175": 1.186,"5200": 1.723,"5225": 1.445,"5250": 1.575,"5275": 1.427,"5300": 1.464,"5325": 1.835,"5350": 1.242,"5375": 1.575,"5400": 1.742,"5425": 1.742,"5450": 1.316,"5475": 1.761,"5500": 1.464,"5525": 1.26,"5550": 1.168,"5575": 1.297,"5600": 0.723,"5625": 0.908,"5650": 0.834,"5675": 0.779,"5700": 0.519,"5725": 0.538,"5750": 0.667,"5775": 0.871,"5800": 0.463,"5825": 0.519,"5850": 0.371,"5875": 0.426,"5900": 0.501,"5925": 0.501,"5950": 0.352,"5975": 0.315,"6000": 0.334,"6025": 0.241,"6050": 0.13,"6075": 0.056}}}