{"type":"Feature","properties":{"GID_2":"ARG.21.3_1","GID_0":"ARG","country":"Argentina","GID_1":"ARG.21_1","state":"SantaFe","NL_NAME_1":"NA","county":"Castellanos","VARNAME_2":"Rafaela","NL_NAME_2":"NA","TYPE_2":"Departamento","ENGTYPE_2":"Department","CC_2":"NA","HASC_2":"AR.SF.CL","name":"Castellanos.county"},
"geometry":{"type": "MultiPolygon","coordinates": [[[[-62.1449,-31.6188,104.7489],[-62.0239,-31.6417,103.702],[-62.0327,-31.6793,103.9084],[-61.8682,-31.7089,106.3376],[-61.7226,-31.7305,96.1017],[-61.7223,-31.7485,96.7219],[-61.626,-31.7685,71.6168],[-61.6242,-31.7611,70.3468],[-61.5489,-31.7725,64.8682],[-61.5473,-31.7517,69.4794],[-61.5078,-31.59,74.5992],[-61.4567,-31.5961,64.6369],[-61.4454,-31.5432,68.8763],[-61.4044,-31.5465,63.7621],[-61.3432,-31.2715,66.4413],[-61.2776,-31.0087,67.7431],[-61.2483,-30.8708,68.9119],[-61.2207,-30.7516,68.5181],[-61.4363,-30.715,79.6201],[-61.4506,-30.7679,80.6104],[-61.6637,-30.7335,95.0877],[-61.6725,-30.7705,95.0579],[-61.8485,-30.7408,97.7962],[-61.8611,-30.7928,98.9578],[-62.1047,-31.534,105.1285],[-62.132,-31.6086,104.3186],[-62.1449,-31.6188,104.7489]]]]}}