{"type":"Feature","properties":{"GID_2":"ARG.1.78_1","GID_0":"ARG","country":"Argentina","GID_1":"ARG.1_1","state":"BuenosAires","NL_NAME_1":"NA","county":"Merlo","VARNAME_2":"NA","NL_NAME_2":"NA","TYPE_2":"Partido","ENGTYPE_2":"Part","CC_2":"NA","HASC_2":"AR.BA.ME","name":"Merlo.county"},
"geometry":{"type": "MultiPolygon","coordinates": [[[[-58.8613,-34.6896,18.0],[-58.8647,-34.6974,18.0],[-58.8645,-34.702,18.0],[-58.83,-34.7278,27.2072],[-58.7707,-34.7648,24.8606],[-58.7508,-34.7805,24.0569],[-58.7291,-34.7626,16.0621],[-58.7045,-34.7818,16.5984],[-58.6826,-34.7627,21.664],[-58.6741,-34.7695,15.9995],[-58.659,-34.7563,20.9716],[-58.6756,-34.7431,17.9387],[-58.6555,-34.7261,25.335],[-58.6502,-34.7303,21.4333],[-58.6366,-34.7188,29.5677],[-58.6436,-34.7135,28.2308],[-58.6415,-34.7084,29.4265],[-58.6578,-34.6984,27.5285],[-58.7297,-34.6394,13.7161],[-58.7322,-34.6426,11.1912],[-58.7323,-34.6469,11.4336],[-58.7365,-34.6485,12.2659],[-58.7565,-34.6637,14.307],[-58.7671,-34.6659,13.9093],[-58.7691,-34.6688,15.9241],[-58.7803,-34.6697,13.6816],[-58.795,-34.6771,14.5373],[-58.8098,-34.681,14.0869],[-58.8098,-34.6845,18.5394],[-58.8184,-34.6893,18.5709],[-58.8244,-34.6864,16.983],[-58.8351,-34.6901,17.0101],[-58.8545,-34.6884,17.2215],[-58.8613,-34.6896,18.0]]]]}}