{"type": "Feature","bbox": [-65.2462,-39.8644,-63.3886,-38.8008],"geometry": {"type": "MultiPolygon","coordinates": [[[[-63.3888,-39.3254,41.2294],[-63.3886,-39.3183,41.5025],[-63.3993,-39.3208,54.9692],[-63.4135,-39.3209,61.7156],[-63.459,-39.3161,52.2018],[-63.5053,-39.296,46.5049],[-63.5257,-39.2913,47.0031],[-63.5318,-39.2884,48.0316],[-63.5343,-39.2834,47.9471],[-63.5358,-39.2696,52.5779],[-63.551,-39.2584,83.4346],[-63.5945,-39.2466,49.311],[-63.6184,-39.2421,49.3546],[-63.6288,-39.242,52.9741],[-63.6314,-39.2401,52.8017],[-63.6352,-39.2327,51.894],[-63.6545,-39.221,53.5575],[-63.6643,-39.2177,53.3426],[-63.6741,-39.2068,54.9247],[-63.6873,-39.203,55.4055],[-63.7072,-39.1917,56.5455],[-63.7315,-39.1809,58.9144],[-63.7305,-39.1674,75.3438],[-63.7318,-39.1649,77.1783],[-63.7375,-39.158,87.3577],[-63.7539,-39.1477,58.5152],[-63.7618,-39.1324,58.957],[-63.766,-39.128,56.6572],[-63.7975,-39.1164,61.6552],[-63.8121,-39.1142,63.4639],[-63.8291,-39.115,65.2132],[-63.8442,-39.1082,61.8749],[-63.8687,-39.1068,63.8336],[-63.8889,-39.1023,67.4085],[-63.9046,-39.096,63.5],[-63.9125,-39.078,66.0547],[-63.931,-39.0653,66.7209],[-63.9465,-39.059,71.9082],[-63.9501,-39.0512,70.7068],[-63.9865,-39.0414,72.6443],[-63.9882,-39.0364,71.0553],[-63.9969,-39.0315,72.0924],[-63.9967,-39.0289,72.9293],[-63.9885,-39.0199,72.7286],[-63.9889,-39.0173,74.3655],[-64.0015,-39.0078,73.7066],[-64.0184,-39.004,73.7103],[-64.0499,-39.0041,75.7239],[-64.0602,-39.0023,76.2236],[-64.0673,-38.9965,77.4433],[-64.0689,-38.9883,87.3926],[-64.0714,-38.9865,94.1207],[-64.1138,-38.9727,87.5883],[-64.1386,-38.9623,88.182],[-64.165,-38.9546,81.2607],[-64.1885,-38.9426,108.3956],[-64.2296,-38.9271,84.1085],[-64.2468,-38.9177,86.4927],[-64.2719,-38.9076,92.5884],[-64.2957,-38.9028,83.6923],[-64.3097,-38.902,85.5189],[-64.3268,-38.8929,88.7578],[-64.3479,-38.8922,85.2422],[-64.3686,-38.8778,89.9314],[-64.3749,-38.8753,90.4814],[-64.4099,-38.8742,89.7803],[-64.4306,-38.8717,89.4526],[-64.452,-38.8624,95.9307],[-64.4566,-38.8582,104.4634],[-64.4771,-38.8552,96.4904],[-64.4806,-38.8552,94.6941],[-64.4922,-38.8613,91.2685],[-64.5173,-38.8531,97.3691],[-64.572,-38.8514,93.8344],[-64.5899,-38.8426,102.1917],[-64.6197,-38.8384,99.6633],[-64.6434,-38.8273,122.3906],[-64.6518,-38.8273,124.1909],[-64.6755,-38.8332,99.0897],[-64.6965,-38.8306,109.0118],[-64.7178,-38.832,106.4283],[-64.7235,-38.8309,108.8144],[-64.7413,-38.8217,146.6012],[-64.7626,-38.8218,131.7486],[-64.8004,-38.8126,133.4815],[-64.8122,-38.8129,124.1834],[-64.8419,-38.8184,127.368],[-64.8747,-38.8119,122.3587],[-64.8833,-38.8117,119.7852],[-64.9082,-38.8214,125.2467],[-64.9166,-38.8232,127.533],[-64.9632,-38.812,156.4458],[-65.0056,-38.8119,130.0388],[-65.0294,-38.8084,133.0662],[-65.0506,-38.8098,126.3454],[-65.0739,-38.8045,126.8975],[-65.086,-38.8046,125.9295],[-65.0978,-38.8022,125.72],[-65.1158,-38.8042,127.2466],[-65.1286,-38.8107,125.8141],[-65.1345,-38.8116,127.4426],[-65.1432,-38.8095,132.818],[-65.1505,-38.8008,156.9065],[-65.1536,-38.8014,148.6573],[-65.158,-38.8089,129.4037],[-65.1624,-38.8129,129.9601],[-65.1697,-38.8159,131.3329],[-65.178,-38.8078,131.586],[-65.1829,-38.8278,133.0072],[-65.1883,-38.8318,132.3414],[-65.204,-38.8297,133.8595],[-65.2189,-38.8314,133.7548],[-65.2299,-38.8271,134.2294],[-65.2386,-38.8275,135.3442],[-65.2462,-39.851,93.5846],[-64.4868,-39.8625,119.124],[-64.0272,-39.8644,54.3882],[-63.3907,-39.8624,37.5073],[-63.3902,-39.3684,52.9073],[-63.3888,-39.3254,41.2294]]]]}
,"properties": {"GID_2": "ARG.16.9_1","GID_0": "ARG","country": "Argentina","GID_1": "ARG.16_1","state": "RíoNegro","NL_NAME_1": "NA","county": "PichiMahuida","VARNAME_2": "RioColorado","NL_NAME_2": "NA","TYPE_2": "Departamento","ENGTYPE_2": "Department","CC_2": "NA","HASC_2": "AR.RN.PM","name": "PichiMahuida.county","area_km2": 15745.34,"hist_schema_id": "Elevation0-9000","hist_area_km2": {"0": 202.57,"25": 157.61,"50": 1115.11,"75": 1861.63,"100": 3039.12,"125": 3388.13,"150": 3669.74,"175": 2259.48,"200": 51.95}}}