{"type":"Feature","properties":{"GID_2":"ARG.17.12_1","GID_0":"ARG","country":"Argentina","GID_1":"ARG.17_1","state":"Salta","NL_NAME_1":"NA","county":"LaCandelaria","VARNAME_2":"Candelaria","NL_NAME_2":"NA","TYPE_2":"Departamento","ENGTYPE_2":"Department","CC_2":"NA","HASC_2":"AR.SA.LD","name":"LaCandelaria.county"},
"geometry":{"type": "MultiPolygon","coordinates": [[[[-65.5321,-26.0903,1199.6379],[-65.5205,-26.0921,1198.8757],[-65.5015,-26.0905,1059.2502],[-65.4905,-26.0932,1039.6855],[-65.4708,-26.1052,992.0931],[-65.4575,-26.1081,944.4891],[-65.4288,-26.1103,914.1443],[-65.4189,-26.1053,905.5941],[-65.4119,-26.0995,896.5706],[-65.3932,-26.0968,903.941],[-65.3849,-26.0922,904.6937],[-65.3747,-26.0894,941.4355],[-65.3487,-26.0748,905.0951],[-65.3441,-26.0735,892.0248],[-65.3199,-26.0739,850.626],[-65.2984,-26.0827,824.9874],[-65.2916,-26.0887,821.9026],[-65.2874,-26.1259,805.2136],[-65.2782,-26.147,802.2532],[-65.2744,-26.1674,788.5942],[-65.2706,-26.1779,778.2951],[-65.2624,-26.1931,779.7645],[-65.0419,-26.2417,2123.0725],[-65.0306,-26.2393,1741.1664],[-65.0118,-26.2444,1476.6934],[-64.983,-26.2354,1284.4915],[-64.9624,-26.2409,1346.4758],[-64.9243,-26.1795,1778.9388],[-64.9205,-26.1672,1851.2917],[-64.911,-26.1538,1969.9913],[-64.8992,-26.1307,1707.877],[-64.8981,-26.1229,1814.6528],[-64.9022,-26.1041,2149.4666],[-64.901,-26.093,2140.1892],[-64.8881,-26.0843,2343.9751],[-64.8799,-26.0755,2058.04],[-64.8772,-26.0704,2151.8677],[-64.8754,-26.059,2178.1636],[-64.8781,-26.0419,2196.8955],[-64.876,-26.0303,2216.7378],[-64.878,-26.0257,2316.5386],[-64.884,-26.023,2243.4446],[-64.9021,-26.0176,2188.8794],[-64.9147,-26.0157,1624.3191],[-64.9528,-26.0151,1375.1313],[-64.9904,-26.0208,1223.2952],[-65.0275,-26.0131,1155.9408],[-65.0719,-26.0107,1037.1602],[-65.0779,-26.0123,1035.8083],[-65.0827,-26.0161,1012.7244],[-65.0843,-26.0216,990.978],[-65.0826,-26.0328,988.6292],[-65.0877,-26.0363,986.9574],[-65.1005,-26.0366,972.1677],[-65.1131,-26.0348,982.4926],[-65.1428,-26.0248,939.377],[-65.1641,-26.0123,915.9365],[-65.1824,-26.0074,927.579],[-65.2107,-25.9947,963.9078],[-65.2244,-25.9826,1095.2013],[-65.2318,-25.973,1132.4354],[-65.2332,-25.9677,1214.259],[-65.2316,-25.9562,1264.2748],[-65.2385,-25.9347,1159.8105],[-65.262,-25.9318,1167.3979],[-65.285,-25.9221,1219.6421],[-65.2972,-25.9187,1255.5319],[-65.3098,-25.9173,1383.5154],[-65.3416,-25.9179,1218.4033],[-65.3664,-25.9227,1517.2412],[-65.3771,-25.9288,1502.1317],[-65.4053,-25.9737,1333.0054],[-65.4225,-25.9978,1756.7286],[-65.4382,-26.0159,1569.636],[-65.4593,-26.0286,1456.155],[-65.4716,-26.0318,1251.7089],[-65.4817,-26.0386,1173.7096],[-65.494,-26.0415,1302.1271],[-65.513,-26.0413,1153.918],[-65.5207,-26.0499,1111.3853],[-65.5323,-26.0548,1253.6881],[-65.5363,-26.0592,1219.1864],[-65.5359,-26.0706,1373.8372],[-65.5316,-26.0873,1307.0994],[-65.5321,-26.0903,1199.6379]]]]}}