{"type":"Feature","properties":{"GID_2":"ARG.1.26_1","GID_0":"ARG","country":"Argentina","GID_1":"ARG.1_1","state":"BuenosAires","NL_NAME_1":"NA","county":"Chacabuco","VARNAME_2":"NA","NL_NAME_2":"NA","TYPE_2":"Partido","ENGTYPE_2":"Part","CC_2":"NA","HASC_2":"AR.BA.CB","name":"Chacabuco.county"},
"geometry":{"type": "MultiPolygon","coordinates": [[[[-60.2454,-34.8256,59.483],[-60.1836,-34.7741,55.898],[-60.2004,-34.7579,56.9044],[-60.1823,-34.7409,58.9197],[-60.1954,-34.7307,58.054],[-60.1105,-34.6566,62.5315],[-60.0679,-34.6902,61.3928],[-60.0133,-34.6449,58.5487],[-59.9955,-34.6628,54.0678],[-59.9914,-34.6759,53.3243],[-59.9872,-34.6808,53.2612],[-59.9811,-34.6833,53.482],[-59.9719,-34.6932,52.9967],[-59.886,-34.6214,54.8038],[-59.9337,-34.5779,66.3949],[-59.914,-34.5588,57.9693],[-59.9656,-34.5213,50.8171],[-59.9804,-34.5129,50.5846],[-60.0193,-34.5473,53.8445],[-60.1005,-34.4825,63.0011],[-60.0877,-34.4708,62.985],[-60.1556,-34.4105,59.8922],[-60.2104,-34.4591,60.6674],[-60.244,-34.4328,67.0884],[-60.3248,-34.4972,67.0416],[-60.3764,-34.4566,65.4824],[-60.4043,-34.48,69.2286],[-60.489,-34.4152,65.1804],[-60.5182,-34.4391,70.3862],[-60.5614,-34.4074,63.0362],[-60.6772,-34.5093,69.4696],[-60.6484,-34.5317,70.3787],[-60.7633,-34.6334,65.148],[-60.7476,-34.6424,64.3358],[-60.7418,-34.6491,63.277],[-60.7342,-34.6468,63.7191],[-60.7165,-34.6456,63.1227],[-60.7034,-34.6529,62.232],[-60.6845,-34.6573,62.1063],[-60.6824,-34.6633,61.8822],[-60.6841,-34.6683,61.6805],[-60.6811,-34.673,61.4934],[-60.6824,-34.6901,60.0546],[-60.6788,-34.7044,60.2863],[-60.6657,-34.7056,60.5695],[-60.653,-34.7185,62.1407],[-60.6498,-34.7268,59.5887],[-60.6409,-34.73,59.4752],[-60.6335,-34.7418,59.8035],[-60.626,-34.747,60.0631],[-60.626,-34.7577,59.0765],[-60.6127,-34.7703,57.7411],[-60.5985,-34.7951,56.8831],[-60.5985,-34.8005,56.8964],[-60.5883,-34.8199,56.5266],[-60.573,-34.8222,56.0049],[-60.5717,-34.8266,55.66],[-60.5545,-34.8322,55.795],[-60.5536,-34.8285,55.2329],[-60.5382,-34.8233,54.8555],[-60.5277,-34.83,54.3591],[-60.5272,-34.8353,54.2392],[-60.5301,-34.8411,54.9128],[-60.5271,-34.8467,54.743],[-60.5201,-34.8481,55.2915],[-60.5019,-34.8412,53.8838],[-60.4944,-34.843,53.431399999999996],[-60.4874,-34.8494,54.0125],[-60.4811,-34.8516,53.4211],[-60.475,-34.858,53.3452],[-60.4637,-34.8632,53.4646],[-60.38,-34.7932,63.5083],[-60.3685,-34.8015,62.3527],[-60.3636,-34.7979,62.965],[-60.3662,-34.794,62.3889],[-60.3273,-34.7595,63.3744],[-60.2454,-34.8256,59.483]]]]}}