{"type": "Feature","bbox": [-65.9753,-27.2963,-65.3619,-26.8884],"geometry": {"type": "MultiPolygon","coordinates": [[[[-65.9753,-27.0521,4716.5908],[-65.9229,-27.0957,4026.5889],[-65.8978,-27.1018,3372.1191],[-65.8884,-27.1112,3094.4131],[-65.884,-27.111,3107.6128],[-65.872,-27.1171,2776.9404],[-65.8611,-27.1182,2273.229],[-65.8514,-27.1233,2053.5796],[-65.844,-27.1199,1757.1533],[-65.8412,-27.1201,1711.46],[-65.8161,-27.1346,1529.7909],[-65.8088,-27.1328,1280.1663],[-65.806,-27.1392,1348.9637],[-65.7964,-27.1464,1320.8745],[-65.7886,-27.1493,1309.3237],[-65.7848,-27.1538,1261.687],[-65.782,-27.1729,945.014],[-65.7875,-27.1783,842.0299],[-65.7916,-27.1852,897.6807],[-65.7879,-27.1895,832.8146],[-65.7734,-27.1895,794.3556],[-65.7716,-27.1901,791.6631],[-65.7699,-27.1938,711.9068],[-65.7637,-27.1939,714.0537],[-65.7563,-27.1979,622.221],[-65.7451,-27.1926,704.2233],[-65.7415,-27.1948,596.4064],[-65.7296,-27.1908,639.9921],[-65.7237,-27.1929,592.5747],[-65.709,-27.1906,550.05],[-65.6916,-27.1977,551.7594],[-65.6855,-27.2141,472.3751],[-65.6642,-27.2295,450.3508],[-65.6579,-27.2302,445.6916],[-65.6324,-27.2403,414.2234],[-65.6273,-27.2438,404.5903],[-65.6238,-27.2485,395.3103],[-65.6035,-27.2547,384.7377],[-65.5807,-27.2693,379.8484],[-65.5723,-27.2705,376.8864],[-65.5592,-27.2773,369.3031],[-65.543,-27.2819,363.437],[-65.5369,-27.2814,362.0586],[-65.5271,-27.285,360.5466],[-65.5185,-27.2844,356.4846],[-65.504,-27.288,353.8556],[-65.4965,-27.2918,350.1807],[-65.4703,-27.2963,344.8791],[-65.4678,-27.2854,342.2465],[-65.4644,-27.2807,342.2844],[-65.4618,-27.2634,343.3667],[-65.4565,-27.2606,340.9466],[-65.4559,-27.2588,341.1133],[-65.4597,-27.2543,343.998],[-65.4574,-27.249,343.2207],[-65.4555,-27.2317,344.3521],[-65.4533,-27.2264,342.9142],[-65.45,-27.2237,343.3135],[-65.4458,-27.209,342.4629],[-65.4427,-27.2042,341.0652],[-65.4406,-27.2038,339.9417],[-65.4308,-27.2077,338.0402],[-65.4254,-27.2017,336.6754],[-65.4174,-27.1992,333.5096],[-65.414,-27.1862,332.2165],[-65.4073,-27.1721,335.4158],[-65.3979,-27.1762,327.9008],[-65.3899,-27.174,330.4531],[-65.3866,-27.1763,329.8096],[-65.378,-27.177,329.1115],[-65.3722,-27.1793,327.8466],[-65.3658,-27.1781,326.3967],[-65.3619,-27.1751,325.5071],[-65.371,-27.1704,327.8766],[-65.3762,-27.1558,331.7247],[-65.3923,-27.1462,334.1736],[-65.4007,-27.1471,336.8868],[-65.4094,-27.1415,339.1925],[-65.4099,-27.1322,341.1404],[-65.4133,-27.1279,340.5362],[-65.4235,-27.1287,344.4501],[-65.4337,-27.1218,347.1587],[-65.4376,-27.1228,346.9949],[-65.4413,-27.1211,349.663],[-65.4495,-27.1123,352.3702],[-65.4538,-27.1115,352.9712],[-65.4629,-27.1036,356.8304],[-65.4647,-27.1001,357.7983],[-65.4639,-27.0928,360.5228],[-65.4694,-27.0898,363.956],[-65.4763,-27.0823,368.0425],[-65.4802,-27.0812,373.8525],[-65.4827,-27.0781,369.7037],[-65.4831,-27.0704,373.3039],[-65.4798,-27.0655,376.984],[-65.4743,-27.0625,377.0788],[-65.474,-27.0531,383.0375],[-65.471,-27.0488,386.4661],[-65.474,-27.0458,388.9552],[-65.4773,-27.0366,394.7949],[-65.482,-27.0302,400.4887],[-65.4831,-27.0226,411.2414],[-65.4881,-27.0192,419.1655],[-65.5007,-27.0014,515.1326],[-65.5106,-26.9979,552.9424],[-65.5246,-26.989,740.898],[-65.5272,-26.9821,675.463],[-65.5331,-26.9804,759.1493],[-65.542,-26.972,887.8625],[-65.5464,-26.9616,937.571],[-65.5537,-26.9574,1022.3461],[-65.5578,-26.953,998.6421],[-65.5619,-26.9521,1007.6403],[-65.5669,-26.9485,1341.6934],[-65.5687,-26.9392,1362.4346],[-65.5706,-26.9402,1421.5419],[-65.5739,-26.9378,1496.142],[-65.5753,-26.9284,1477.1348],[-65.5723,-26.9234,1233.9185],[-65.5715,-26.9177,1418.8262],[-65.5766,-26.9087,1456.7466],[-65.5999,-26.9185,2330.5513],[-65.6062,-26.9195,2374.3464],[-65.6221,-26.8988,2147.3171],[-65.6345,-26.8901,2604.6897],[-65.6438,-26.8884,2550.4429],[-65.6453,-26.8895,2593.0081],[-65.6473,-26.899,2494.7505],[-65.6534,-26.909,2271.2097],[-65.6505,-26.9261,1943.4135],[-65.6441,-26.936,1896.5483],[-65.6452,-26.9434,1913.5734],[-65.6655,-26.954,1869.733],[-65.6804,-26.9523,2211.0427],[-65.6893,-26.9576,2267.0479],[-65.6939,-26.9684,2558.9136],[-65.6936,-26.9742,2540.1938],[-65.6956,-26.9796,2343.7876],[-65.7172,-27.0009,2554.0098],[-65.727,-27.0156,2189.1787],[-65.7267,-27.0212,2039.5796],[-65.7211,-27.027,1946.5999],[-65.723,-27.0303,1832.9569],[-65.7507,-27.032,2289.877],[-65.7577,-27.0393,1962.4902],[-65.7655,-27.0426,1745.2812],[-65.7671,-27.0614,1673.8865],[-65.7584,-27.085,1455.5109],[-65.7613,-27.0875,1529.3009],[-65.7694,-27.0891,1290.7778],[-65.7747,-27.0954,1202.7196],[-65.7808,-27.0942,1315.658],[-65.7882,-27.0901,1575.1067],[-65.7887,-27.0882,1550.3058],[-65.7854,-27.0865,1513.6096],[-65.7898,-27.0823,1678.4337],[-65.7908,-27.0788,1706.0433],[-65.7864,-27.0753,1631.6172],[-65.7903,-27.0704,1810.0137],[-65.7956,-27.0672,1766.1445],[-65.7968,-27.0618,1859.278],[-65.8129,-27.0523,2036.0775],[-65.8129,-27.0503,2076.0142],[-65.807,-27.0447,2178.3438],[-65.8074,-27.039,1966.5455],[-65.8166,-27.0313,2444.2583],[-65.8208,-27.0246,2670.2388],[-65.8397,-27.0062,2972.1514],[-65.844,-26.9996,3329.1145],[-65.8493,-26.9963,3283.3684],[-65.8534,-26.9895,3360.2119],[-65.8612,-26.9829,3468.1941],[-65.8662,-26.9743,3800.3206],[-65.8718,-26.9719,4150.0039],[-65.8871,-26.9543,4444.1523],[-65.8896,-26.9632,4596.7974],[-65.894,-26.9707,4685.9727],[-65.9093,-26.9893,4743.9399],[-65.9059,-26.995,4614.7798],[-65.9061,-26.9999,4522.6064],[-65.9153,-27.0082,4771.2178],[-65.9673,-27.0375,4558.0503],[-65.9753,-27.0521,4716.5908]]]]}
,"properties": {"GID_2": "ARG.24.11_1","GID_0": "ARG","country": "Argentina","GID_1": "ARG.24_1","state": "Tucumán","NL_NAME_1": "NA","county": "Monteros","VARNAME_2": "NA","NL_NAME_2": "NA","TYPE_2": "Departamento","ENGTYPE_2": "Department","CC_2": "NA","HASC_2": "AR.TM.MO","name": "Monteros.county","area_km2": 1195.1782,"hist_schema_id": "Elevation0-9000","hist_area_km2": {"325": 18.7683,"350": 163.9608,"375": 135.5198,"400": 59.2961,"425": 34.8162,"450": 27.6057,"475": 21.4929,"500": 21.6861,"525": 18.2127,"550": 18.3062,"575": 18.0047,"600": 16.6269,"625": 16.9475,"650": 14.834,"675": 13.003,"700": 11.0595,"725": 11.5317,"750": 10.6444,"775": 11.0217,"800": 9.493,"825": 9.4556,"850": 9.0589,"875": 8.3049,"900": 7.2104,"925": 7.1541,"950": 7.2485,"975": 6.2863,"1000": 5.8525,"1025": 6.1732,"1050": 6.7774,"1075": 6.1171,"1100": 6.9668,"1125": 7.4579,"1150": 7.4012,"1175": 6.8726,"1200": 6.8348,"1225": 6.4576,"1250": 6.6086,"1275": 7.0052,"1300": 6.7977,"1325": 7.2699,"1350": 6.6846,"1375": 6.817,"1400": 6.5526,"1425": 6.6848,"1450": 6.4585,"1475": 6.3832,"1500": 7.3271,"1525": 6.5716,"1550": 6.9121,"1575": 6.9685,"1600": 6.7607,"1625": 6.9304,"1650": 7.611,"1675": 6.742,"1700": 6.1189,"1725": 6.6289,"1750": 6.8371,"1775": 6.2329,"1800": 6.6671,"1825": 6.8186,"1850": 6.5164,"1875": 6.3653,"1900": 6.8181,"1925": 6.3653,"1950": 5.7417,"1975": 5.6286,"2000": 4.9484,"2025": 5.4961,"2050": 5.4773,"2075": 5.1944,"2100": 5.0993,"2125": 4.7406,"2150": 4.4197,"2175": 4.6278,"2200": 4.0232,"2225": 4.1551,"2250": 3.6455,"2275": 3.1921,"2300": 3.551,"2325": 3.4944,"2350": 3.3243,"2375": 2.5877,"2400": 3.0787,"2425": 2.8331,"2450": 3.0409,"2475": 2.7385,"2500": 2.7387,"2525": 2.5309,"2550": 2.1911,"2575": 2.7198,"2600": 2.2099,"2625": 2.5689,"2650": 2.2856,"2675": 2.1345,"2700": 1.7564,"2725": 1.6621,"2750": 1.7754,"2775": 1.7372,"2800": 1.3028,"2825": 1.4728,"2850": 1.284,"2875": 1.605,"2900": 1.5671,"2925": 1.4916,"2950": 1.5294,"2975": 1.5294,"3000": 1.4728,"3025": 1.5105,"3050": 1.1518,"3075": 1.2273,"3100": 1.9826,"3125": 1.2085,"3150": 1.3028,"3175": 1.3784,"3200": 1.4918,"3225": 1.7939,"3250": 1.3784,"3275": 1.6428,"3300": 1.2463,"3325": 1.5107,"3350": 1.4917,"3375": 1.4729,"3400": 1.3784,"3425": 1.5673,"3450": 1.6428,"3475": 1.303,"3500": 1.2463,"3525": 1.5862,"3550": 1.6807,"3575": 1.5295,"3600": 1.2085,"3625": 1.0953,"3650": 1.6807,"3675": 1.4729,"3700": 1.624,"3725": 1.2275,"3750": 1.2652,"3775": 1.3974,"3800": 1.5297,"3825": 1.3596,"3850": 1.1708,"3875": 1.2653,"3900": 1.3598,"3925": 1.4353,"3950": 0.9442,"3975": 1.2842,"4000": 1.4541,"4025": 1.4353,"4050": 1.2842,"4075": 1.3597,"4100": 1.2654,"4125": 1.7376,"4150": 1.4354,"4175": 1.492,"4200": 1.1331,"4225": 1.3976,"4250": 1.7942,"4275": 1.5676,"4300": 1.7753,"4325": 1.8131,"4350": 2.1343,"4375": 1.851,"4400": 1.9265,"4425": 1.9832,"4450": 2.0022,"4475": 2.0966,"4500": 1.9643,"4525": 1.9455,"4550": 1.4922,"4575": 1.3789,"4600": 1.0578,"4625": 1.3033,"4650": 1.0578,"4675": 1.0578,"4700": 0.6611,"4725": 0.5289,"4750": 0.3589,"4775": 0.3022,"4800": 0.2267,"4825": 0.2456,"4850": 0.0945}}}