{"type": "Feature","bbox": [-57.6778,-37.5329,-56.8361,-36.7883],"geometry": {"type": "MultiPolygon","coordinates": [[[[-57.6778,-37.2073,15.8688],[-57.2217,-37.5329,3.9631],[-57.1711,-37.4794,6.7284],[-57.1102,-37.4076,8.8425],[-57.054,-37.3349,12.3566],[-57.0395,-37.3098,13.4108],[-57.0206,-37.2918,16.4321],[-56.993,-37.2475,12.5029],[-57.0448,-37.242,6.7443],[-57.0438,-37.2366,5.2042],[-56.9907,-37.2416,18.9574],[-56.9718,-37.2139,11.642],[-56.9624,-37.2057,13.0935],[-56.9413,-37.18,21.1308],[-56.9355,-37.1673,19.4505],[-56.9233,-37.1547,27.3434],[-56.8868,-37.1099,15.507],[-56.859,-37.0578,3.9882],[-56.847,-37.0381,3.9273],[-56.8361,-37.0237,3.8354],[-56.8987,-37.0035,2.9522],[-56.9045,-37.0059,3.8992],[-56.928,-37.0062,2.4754],[-56.9563,-36.9978,3.2866],[-56.9556,-36.993,2.9002],[-56.9512,-36.9896,2.4047],[-56.9495,-36.9824,2.3167],[-56.9525,-36.9762,3.995],[-56.9469,-36.9637,1.8474],[-56.9634,-36.9626,4.7981],[-56.9758,-36.9598,3.6814],[-56.9897,-36.9544,2.6352],[-56.9878,-36.9324,3.1287],[-56.982,-36.9137,2.3339],[-56.9861,-36.9103,2.9789],[-56.9914,-36.9074,2.905],[-57.008,-36.9141,1.097],[-57.0114,-36.9174,2.7009],[-57.0183,-36.9152,2.6128],[-57.0165,-36.9116,3.1576],[-56.9979,-36.902,1.0],[-56.9982,-36.8954,2.8014],[-56.9992,-36.8885,3.0479],[-57.008,-36.8848,3.2536],[-57.0101,-36.88,3.4146],[-57.0104,-36.8713,2.884],[-57.0141,-36.8696,2.3871],[-57.014,-36.8641,3.1927],[-57.0233,-36.8632,2.3642],[-57.0244,-36.8573,1.8506],[-57.0927,-36.8348,1.9662],[-57.1055,-36.837,2.7376],[-57.1143,-36.8364,3.8997],[-57.1776,-36.7883,2.072],[-57.239,-36.7897,3.5236],[-57.2306,-36.909,5.3503],[-57.3267,-36.9098,6.2714],[-57.3111,-37.0081,6.0929],[-57.4991,-37.0185,7.5531],[-57.4907,-37.1064,12.7915],[-57.5691,-37.1076,11.1457],[-57.6778,-37.2073,15.8688]]]]}
,"properties": {"GID_2": "ARG.1.46_1","GID_0": "ARG","country": "Argentina","GID_1": "ARG.1_1","state": "BuenosAires","NL_NAME_1": "NA","county": "GeneralJuanMadariaga","VARNAME_2": "GeneralJuan","NL_NAME_2": "NA","TYPE_2": "Partido","ENGTYPE_2": "Part","CC_2": "NA","HASC_2": "AR.BA.GJ","name": "GeneralJuanMadariaga.county","area_km2": 2999.909,"hist_schema_id": "Elevation0-9000","hist_area_km2": {"0": 2866.307,"25": 133.602}}}