{"type": "Feature","bbox": [-64.4774,-30.0989,-63.7645,-29.5033],"geometry": {"type": "MultiPolygon","coordinates": [[[[-63.7645,-29.6449,615.8798],[-63.7729,-29.6411,606.8],[-63.8035,-29.604,607.7657],[-63.7798,-29.5982,598.0062],[-63.7819,-29.5806,602.941],[-63.8072,-29.57,596.1619],[-63.8508,-29.5664,599.3625],[-63.8653,-29.5698,604.3582],[-63.8926,-29.6177,633.2797],[-63.9625,-29.6172,573.2403],[-63.9623,-29.5781,537.9957],[-63.9771,-29.546,507.3835],[-64.3319,-29.5033,122.794],[-64.4196,-29.5131,118.1607],[-64.4732,-29.5222,119.1433],[-64.4774,-29.7916,181.5331],[-64.4076,-29.8027,208.9552],[-64.4026,-29.8695,241.7172],[-64.4177,-29.8964,270.0153],[-64.2029,-29.9435,788.384],[-64.161,-30.0301,885.4412],[-64.1629,-30.0781,841.2219],[-64.0255,-30.0935,745.7801],[-64.0077,-30.0989,710.5604],[-64.0015,-30.0979,709.0232],[-63.9842,-30.0912,674.3405],[-63.96,-30.0849,655.6171],[-63.9319,-30.0824,599.6694],[-63.9223,-30.0452,646.7319],[-63.9076,-29.9783,648.3383],[-63.9077,-29.9722,649.7589],[-63.8981,-29.9585,625.9265],[-63.8934,-29.9485,630.1783],[-63.8946,-29.9212,644.038],[-63.886,-29.9067,630.7823],[-63.8869,-29.8792,638.1858],[-63.8841,-29.8688,635.2148],[-63.8688,-29.8591,652.1029],[-63.8601,-29.8511,651.8689],[-63.8494,-29.8454,618.6748],[-63.8438,-29.8431,619.0152],[-63.8187,-29.842,598.8454],[-63.8162,-29.7783,657.6841],[-63.7963,-29.7771,629.7083],[-63.7711,-29.6516,622.2392],[-63.7645,-29.6449,615.8798]]]]}
,"properties": {"GID_2": "ARG.6.22_1","GID_0": "ARG","country": "Argentina","GID_1": "ARG.6_1","state": "Córdoba","NL_NAME_1": "NA","county": "Sobremonte","VARNAME_2": "SanFranciscodelCanar","NL_NAME_2": "NA","TYPE_2": "Departamento","ENGTYPE_2": "Department","CC_2": "NA","HASC_2": "AR.CB.SO","name": "Sobremonte.county","area_km2": 3106.366,"hist_schema_id": "Elevation0-9000","hist_area_km2": {"125": 219.046,"150": 122.828,"175": 111.556,"200": 83.045,"225": 88.343,"250": 85.09,"275": 73.718,"300": 70.459,"325": 67.698,"350": 65.747,"375": 66.341,"400": 60.923,"425": 57.942,"450": 62.402,"475": 60.542,"500": 57.797,"525": 59.906,"550": 73.514,"575": 77.555,"600": 114.296,"625": 160.928,"650": 221.084,"675": 238.419,"700": 236.376,"725": 149.728,"750": 109.549,"775": 79.751,"800": 58.1,"825": 47.054,"850": 44.161,"875": 38.997,"900": 27.465,"925": 13.639,"950": 2.093,"975": 0.202,"1000": 0.073}}}