{"type": "Feature","bbox": [-71.8518,-44.678,-69.5091,-43.7609],"geometry": {"type": "MultiPolygon","coordinates": [[[[-71.6497,-43.9347,922.5],[-71.6492,-43.9471,954.2681],[-71.6557,-43.951,1076.0928],[-71.6607,-43.9594,1410.7279],[-71.6616,-43.9639,1621.5114],[-71.6729,-43.97,1859.356],[-71.6736,-43.9719,1897.605],[-71.6803,-43.9716,1833.3385],[-71.6825,-43.9753,1877.1478],[-71.6822,-43.98,1988.1003],[-71.6851,-43.9884,1793.0435],[-71.6964,-44.0016,1700.132],[-71.6968,-44.0064,1700.1044],[-71.7158,-44.0249,1650.3546],[-71.7171,-44.0314,1713.2168],[-71.7148,-44.0342,1746.2341],[-71.7148,-44.0378,1662.9478],[-71.7204,-44.0414,1713.4856],[-71.7217,-44.0497,1721.0748],[-71.726,-44.0516,1700.6448],[-71.7321,-44.0624,1569.6294],[-71.7359,-44.0646,1458.2249],[-71.7366,-44.0727,1504.7305],[-71.7473,-44.0772,1627.4646],[-71.7464,-44.0842,1718.5181],[-71.7494,-44.0916,1640.4802],[-71.7637,-44.1021,1560.8778],[-71.7674,-44.1072,1745.6704],[-71.7727,-44.1079,1670.293],[-71.7801,-44.1118,1612.033],[-71.8011,-44.1115,838.4009],[-71.8179,-44.1157,1251.2197],[-71.8279,-44.112,1485.6865],[-71.8343,-44.107,1500.6909],[-71.8469,-44.1104,1600.0096],[-71.8495,-44.1149,1531.3645],[-71.849,-44.1221,1522.3531],[-71.8518,-44.13,1543.3413],[-71.8429,-44.1391,1715.9862],[-71.8407,-44.1453,1697.6318],[-71.8416,-44.1498,1630.4767],[-71.8473,-44.156,1623.9855],[-71.8452,-44.1608,1550.1019],[-71.8414,-44.1639,1505.3845],[-71.835,-44.163,1430.8359],[-71.8262,-44.1669,1338.5138],[-71.8259,-44.169,1335.8781],[-71.8183,-44.1762,1219.7177],[-71.8167,-44.1819,846.0502],[-71.8108,-44.1869,768.7166],[-71.7978,-44.1929,492.4535],[-71.8012,-44.1985,361.1446],[-71.7968,-44.2086,548.1935],[-71.8,-44.2121,548.2045],[-71.7984,-44.2131,554.2992],[-71.7991,-44.2155,581.8708],[-71.7934,-44.2144,508.5033],[-71.7858,-44.2154,675.1183],[-71.7817,-44.213,693.2949],[-71.7802,-44.2171,662.2142],[-71.7819,-44.2208,584.6995],[-71.7795,-44.2239,672.4869],[-71.785,-44.2237,589.5623],[-71.787,-44.2221,552.8988],[-71.7909,-44.2248,540.6929],[-71.7996,-44.2254,515.0049],[-71.8075,-44.2283,606.6963],[-71.8081,-44.2297,603.8585],[-71.8041,-44.2319,634.8219],[-71.8129,-44.2383,632.4333],[-71.8054,-44.2428,510.5782],[-71.8058,-44.2473,515.3345],[-71.8132,-44.2505,529.1293],[-71.8086,-44.2549,537.5144],[-71.806,-44.2552,577.8714],[-71.8063,-44.2583,540.207],[-71.8119,-44.2613,638.5186],[-71.8175,-44.2589,583.3812],[-71.8276,-44.2597,634.8875],[-71.8266,-44.264,553.2814],[-71.8314,-44.266,606.5038],[-71.8202,-44.2685,570.497],[-71.8064,-44.2689,851.5145],[-71.8031,-44.2719,1053.3455],[-71.8077,-44.2736,1055.5605],[-71.808,-44.2758,1049.4474],[-71.8049,-44.2764,1077.2794],[-71.8042,-44.2804,1269.5806],[-71.807,-44.2819,1293.066],[-71.8083,-44.2897,1449.5045],[-71.8042,-44.2915,1497.6251],[-71.7988,-44.3022,1548.0221],[-71.7923,-44.3079,1500.1913],[-71.792,-44.3217,938.3554],[-71.7861,-44.331,1347.0272],[-71.7934,-44.3352,1442.9336],[-71.7972,-44.3396,1386.3384],[-71.8018,-44.3408,1430.5315],[-71.8126,-44.3391,1588.8767],[-71.8187,-44.3466,1423.2947],[-71.8236,-44.3454,1471.7643],[-71.8293,-44.3485,1414.8392],[-71.8351,-44.3473,1497.5957],[-71.8401,-44.3508,1584.6599],[-71.8356,-44.3571,1336.4025],[-71.8359,-44.3588,1336.1471],[-71.8283,-44.3634,1428.1078],[-71.834,-44.3671,1615.7588],[-71.835,-44.3697,1560.897],[-71.8305,-44.3719,1597.0115],[-71.8228,-44.3728,1629.9706],[-71.8177,-44.3776,1594.2124],[-71.8177,-44.3801,1510.0754],[-71.8229,-44.3836,1500.4056],[-71.82,-44.3863,1412.6542],[-71.8213,-44.3919,1354.2151],[-71.8129,-44.3936,1311.6073],[-71.8062,-44.398,1228.6978],[-71.8064,-44.4046,1386.465],[-71.8133,-44.41,1524.5671],[-71.813,-44.4149,1613.635],[-71.8147,-44.4168,1674.9763],[-71.8024,-44.4205,1509.5693],[-71.797,-44.4158,1664.4108],[-71.7939,-44.4145,1661.8223],[-71.7891,-44.4154,1673.0819],[-71.7834,-44.4112,1665.8168],[-71.7737,-44.4086,1694.4127],[-71.7674,-44.4106,1768.4105],[-71.7656,-44.4053,1717.8506],[-71.7503,-44.399,1712.7734],[-71.7471,-44.3986,1742.2705],[-71.7455,-44.401,1675.6949],[-71.7407,-44.4022,1784.373],[-71.72,-44.3913,1626.3081],[-71.7172,-44.3819,1616.6406],[-71.7145,-44.381,1679.225],[-71.6962,-44.3831,1727.9834],[-71.6951,-44.3847,1695.449],[-71.6975,-44.3901,1661.2682],[-71.6936,-44.3975,1639.1464],[-71.6799,-44.402,1655.8529],[-71.6783,-44.4044,1672.6603],[-71.673,-44.4055,1664.7498],[-71.6694,-44.4094,1622.1865],[-71.6611,-44.4073,1795.967],[-71.6549,-44.4093,1993.8571],[-71.6471,-44.4043,2020.9325],[-71.6425,-44.4039,2063.0735],[-71.6401,-44.3991,1903.6001],[-71.6381,-44.3982,1886.8688],[-71.6307,-44.4,1738.5723],[-71.6184,-44.3983,1685.199],[-71.6124,-44.4017,1575.6621],[-71.5908,-44.3982,992.4055],[-71.5842,-44.4044,962.0608],[-71.5754,-44.4051,941.5472],[-71.5675,-44.4078,936.5013],[-71.5517,-44.4089,945.3041],[-71.5394,-44.4069,914.8383],[-71.5331,-44.4016,926.3597],[-71.524,-44.3969,901.2867],[-71.5123,-44.3943,886.4812],[-71.5085,-44.3941,874.8622],[-71.4991,-44.3981,927.267],[-71.4865,-44.4,953.0988],[-71.4839,-44.3964,965.7112],[-71.4711,-44.3928,1000.0273],[-71.4673,-44.3888,1014.0829],[-71.447,-44.3968,1001.2369],[-71.4296,-44.3918,1200.8818],[-71.4268,-44.3924,1311.0457],[-71.421,-44.3884,1318.9517],[-71.4136,-44.3888,1312.084],[-71.4094,-44.3925,1314.2745],[-71.3872,-44.3854,1306.8921],[-71.3765,-44.3916,1283.9834],[-71.3679,-44.3904,1287.7617],[-71.3666,-44.3916,1283.5112],[-71.368,-44.3946,1262.1053],[-71.3663,-44.3969,1255.1332],[-71.3526,-44.4031,1288.4122],[-71.3568,-44.4063,1257.9995],[-71.3571,-44.4097,1250.7656],[-71.3486,-44.4245,1320.7791],[-71.3444,-44.4195,1270.9143],[-71.3373,-44.4186,1265.7223],[-71.3327,-44.4204,1272.5062],[-71.3311,-44.4239,1213.5652],[-71.3262,-44.4268,1154.0289],[-71.3122,-44.4303,1151.8126],[-71.3085,-44.4243,1175.8127],[-71.2946,-44.4231,1136.1487],[-71.2679,-44.4238,1110.5166],[-71.2545,-44.418,1093.2601],[-71.2468,-44.4175,1082.8955],[-71.241,-44.4184,1074.5071],[-71.2359,-44.4215,1055.6865],[-71.2336,-44.4279,1015.291],[-71.2279,-44.4333,1000.8049],[-71.2223,-44.4362,995.6375],[-71.2182,-44.4368,989.8063],[-71.2104,-44.4336,988.1975],[-71.1979,-44.436,979.5703],[-71.1861,-44.4407,968.0314],[-71.1723,-44.4394,960.5308],[-71.1582,-44.4558,940.8429],[-71.1458,-44.4625,939.8306],[-71.1429,-44.4665,935.7961],[-71.1289,-44.4711,976.834],[-71.1391,-44.479,988.5821],[-71.1484,-44.4833,986.6243],[-71.1489,-44.4863,1024.3741],[-71.154,-44.4889,1044.0522],[-71.1559,-44.4923,1063.5894],[-71.1596,-44.4945,1114.5649],[-71.1617,-44.4992,1107.1833],[-71.1582,-44.5019,1102.6586],[-71.1438,-44.5067,1010.4677],[-71.1292,-44.5066,1014.6828],[-71.1256,-44.5093,1019.1377],[-71.1241,-44.5128,1025.9504],[-71.112799999999993,-44.5156,1013.4149],[-71.1069,-44.5227,1000.8685],[-71.0918,-44.5323,968.4688],[-71.0917,-44.5353,960.9166],[-71.095,-44.5392,949.8896],[-71.0953,-44.5468,936.4196],[-71.1034,-44.5531,918.3052],[-71.0987,-44.5593,939.7597],[-71.1021,-44.5641,922.621],[-71.0979,-44.5707,930.2784],[-71.1058,-44.5756,924.5463],[-71.1047,-44.5796,926.1394],[-71.0959,-44.5861,927.9796],[-71.1044,-44.5909,941.233],[-71.1097,-44.5892,918.6842],[-71.1111,-44.593,926.4535],[-71.1141,-44.5951,943.4283],[-71.1208,-44.5966,1057.6145],[-71.1251,-44.5944,982.1462],[-71.1329,-44.5969,1009.5481],[-71.1479,-44.5909,1013.9543],[-71.1646,-44.5925,1101.8623],[-71.1725,-44.5981,986.0472],[-71.1788,-44.599,996.4822],[-71.1859,-44.5938,1090.2556],[-71.2008,-44.5916,1055.3015],[-71.1999,-44.5971,986.6281],[-71.1949,-44.5999,995.3162],[-71.1993,-44.6036,1020.0979],[-71.1995,-44.6072,1056.7955],[-71.2041,-44.6116,1023.0423],[-71.2084,-44.6151,1089.7454],[-71.2156,-44.6178,1028.6289],[-71.2148,-44.6225,1027.427],[-71.2086,-44.6246,1074.2217],[-71.2149,-44.6272,1051.3995],[-71.214,-44.6335,1081.0032],[-71.2165,-44.6353,1074.069],[-71.2242,-44.6364,1062.8542],[-71.2287,-44.6404,1050.8092],[-71.2325,-44.6387,1052.0669],[-71.2353,-44.6403,1056.6371],[-71.2317,-44.6444,1038.4235],[-71.2346,-44.6501,1034.2411],[-71.2342,-44.6523,1035.0265],[-71.2316,-44.6538,1044.2742],[-70.4082,-44.6706,582.3931],[-69.9187,-44.678,458.7975],[-69.5091,-44.1449,1177.6077],[-69.5314,-43.7847,689.311],[-69.9997,-43.7791,953.4431],[-70.9923,-43.7609,938.1827],[-70.9959,-43.8507,1380.1281],[-71.1162,-43.8493,990.2336],[-71.1177,-43.9399,956.2578],[-71.3717,-43.9354,941.9786],[-71.3693,-43.8831,914.6257],[-71.3839,-43.8789,932.2799],[-71.3938,-43.8805,916.3881],[-71.4341,-43.9026,922.5],[-71.4689,-43.9177,922.5],[-71.4783,-43.9201,922.5],[-71.5181,-43.9263,922.5],[-71.5485,-43.926,922.5],[-71.5991,-43.9285,922.5],[-71.6497,-43.9347,922.5]]]]}
,"properties": {"GID_2": "ARG.4.14_1","GID_0": "ARG","country": "Argentina","GID_1": "ARG.4_1","state": "Chubut","NL_NAME_1": "NA","county": "Tehuelches","VARNAME_2": "JosedeSanMartin","NL_NAME_2": "NA","TYPE_2": "Departamento","ENGTYPE_2": "Department","CC_2": "NA","HASC_2": "AR.CH.TH","name": "Tehuelches.county","area_km2": 14565.99,"hist_schema_id": "Elevation0-9000","hist_area_km2": {"350": 0.26,"375": 0.43,"400": 0.56,"425": 8.99,"450": 19.45,"475": 23.22,"500": 57.05,"525": 46.24,"550": 82.53,"575": 478.96,"600": 657.55,"625": 650.1,"650": 529.19,"675": 522.77,"700": 521.11,"725": 523.84,"750": 512.9,"775": 561.11,"800": 630.78,"825": 682.69,"850": 670.55,"875": 669.67,"900": 656.14,"925": 684.43,"950": 582.74,"975": 542.48,"1000": 521.78,"1025": 482.98,"1050": 429.12,"1075": 397.39,"1100": 382.29,"1125": 334.57,"1150": 291.28,"1175": 247.35,"1200": 219.41,"1225": 179.21,"1250": 148.94,"1275": 120.17,"1300": 96.84,"1325": 78.48,"1350": 56.34,"1375": 43.09,"1400": 30.42,"1425": 24.69,"1450": 20.76,"1475": 18.07,"1500": 17.34,"1525": 15.29,"1550": 14.21,"1575": 13.93,"1600": 12.0,"1625": 10.87,"1650": 9.53,"1675": 7.61,"1700": 6.94,"1725": 5.05,"1750": 3.41,"1775": 2.63,"1800": 2.01,"1825": 1.55,"1850": 1.32,"1875": 0.82,"1900": 0.67,"1925": 0.59,"1950": 0.37,"1975": 0.27,"2000": 0.23,"2025": 0.17}}}