{"type": "Feature","id": "1306","bbox": [-63.39858,-28.00268,-58.35127,-24.12065],"geometry": {"type": "Polygon","coordinates": [[[-61.80519,-24.33836,178.8728],[-61.82831,-24.33603,176.0562],[-61.86661,-24.32518,175.8271],[-61.8864,-24.32353,178.9203],[-61.89335,-24.32131,179.3425],[-61.90203,-24.31728,179.6156],[-61.93888,-24.28865,180.7955],[-61.98321,-24.2642,181.7974],[-61.99174,-24.25692,183.2344],[-61.99696,-24.25051,177.2592],[-62.00016,-24.241,174.0],[-62.00117,-24.23914,174.0],[-62.00342,-24.23588,181.7475],[-62.00972,-24.22849,174.8544],[-62.02189,-24.21878,181.4856],[-62.02662,-24.21599,177.0],[-62.03608,-24.21258,185.7882],[-62.04951,-24.20917,183.2168],[-62.12323,-24.19852,188.7352],[-62.33921,-24.12065,195.3045],[-62.33438,-24.4029,188.8336],[-63.09188,-25.3013,253.4653],[-63.39858,-25.65936,266.43],[-61.75387,-25.66143,162.802],[-61.72233,-25.74416,160.4494],[-61.71052,-26.14657,152.3472],[-61.70933,-26.26026,148.7463],[-61.70938,-26.79382,157.3131],[-61.70964,-27.81127,119.3503],[-61.70995,-28.00041,75.3548],[-60.74468,-28.00268,64.8498],[-60.04132,-28.0001,60.047],[-59.59744,-28.00041,57.3444],[-58.86475,-27.99932,43.3391],[-58.84157,-27.91633,45.1638],[-58.8409,-27.89706,41.5],[-58.84446,-27.85975,43.6067],[-58.84374,-27.84161,46.4935],[-58.8385,-27.82316,42.0],[-58.8179,-27.77257,42.0],[-58.81496,-27.75391,42.0],[-58.81573,-27.71686,42.5],[-58.82232,-27.67991,42.5],[-58.834,-27.64415,42.5],[-58.8501,-27.61072,46.2145],[-58.87813,-27.56674,48.0388],[-58.88475,-27.55057,43.0],[-58.88811,-27.53294,43.0],[-58.88885,-27.51496,44.3644],[-58.88653,-27.47894,48.1989],[-58.87901,-27.47595,43.0],[-58.77589,-27.41254,44.0],[-58.7684,-27.40582,46.1423],[-58.76496,-27.39952,50.3425],[-58.69086,-27.35786,49.0716],[-58.65597,-27.33115,44.5],[-58.64326,-27.32552,44.5],[-58.615,-27.31828,45.0],[-58.6042,-27.31626,45.0],[-58.60413,-27.31555,45.5228],[-58.59991,-27.26614,50.356],[-58.60156,-27.24567,47.0],[-58.61401,-27.22666,53.485],[-58.63872,-27.21012,48.9216],[-58.65236,-27.19803,50.7687],[-58.6584,-27.18511,52.1484],[-58.65329,-27.15627,53.563],[-58.63882,-27.13591,52.3982],[-58.61613,-27.12382,54.7396],[-58.56549,-27.11597,54.3433],[-58.56053,-27.10553,57.2065],[-58.56239,-27.09013,54.7184],[-58.56218,-27.07214,53.8961],[-58.5597,-27.06336,54.7952],[-58.5564,-27.05551,47.5],[-58.55169,-27.04817,51.6877],[-58.54544,-27.04104,59.1333],[-58.53626,-27.03629,53.2781],[-58.53603,-27.03618,47.5],[-58.53051,-27.04052,51.9245],[-58.52802,-27.04775,50.2866],[-58.52802,-27.05168,51.6769],[-58.52704,-27.05416,52.9457],[-58.52003,-27.05837,48.0],[-58.51981,-27.0585,48.0],[-58.51154,-27.06016,48.0],[-58.50756,-27.05509,51.1333],[-58.50673,-27.03845,55.6333],[-58.50487,-27.03153,48.5],[-58.50136,-27.02367,52.3894],[-58.49237,-27.00972,49.9474],[-58.47454,-26.99008,51.015],[-58.46663,-26.97592,56.5235],[-58.48162,-26.96383,49.0],[-58.48369,-26.9506,55.3418],[-58.47547,-26.93799,51.7205],[-58.45981,-26.92817,49.0],[-58.41553,-26.91753,58.3688],[-58.39387,-26.90967,55.8168],[-58.38467,-26.89707,51.1792],[-58.3747,-26.88756,55.1311],[-58.35127,-26.88581,55.4808],[-58.35274,-26.88513,55.5213],[-58.37302,-26.8766,49.0],[-58.37635,-26.87288,49.0],[-58.37767,-26.86606,49.0],[-58.37697,-26.86239,52.301],[-58.3755,-26.85795,54.1159],[-58.37517,-26.8533,58.7851],[-58.37765,-26.84896,52.8324],[-58.38214,-26.84565,59.2618],[-58.3901,-26.84384,50.0],[-58.39648,-26.84425,54.6053],[-58.41351,-26.8488,57.1004],[-58.41968,-26.84937,59.8883],[-58.42617,-26.84859,58.9524],[-58.43718,-26.8443,53.8396],[-58.45759,-26.83423,53.9408],[-58.46239,-26.8304,52.0229],[-58.46658,-26.82513,57.5239],[-58.47387,-26.8025,56.5094],[-58.47604,-26.7979,57.5559],[-58.4833,-26.79103,62.0925],[-58.53474,-26.75434,53.5],[-58.54588,-26.74136,65.4735],[-58.54929,-26.7346,58.4518],[-58.55169,-26.72824,58.0631],[-58.55464,-26.71744,55.9976],[-58.5566,-26.71248,56.1966],[-58.56164,-26.70374,56.58],[-58.56474,-26.69977,56.7426],[-58.56983,-26.6948,57.3671],[-58.57712,-26.68959,66.0613],[-58.65267,-26.64793,59.2765],[-58.67331,-26.62654,60.6547],[-58.68646,-26.60757,61.911],[-58.69078,-26.60334,61.2052],[-58.69659,-26.59962,62.6235],[-58.70734,-26.59621,72.0886],[-58.71468,-26.5961,60.8255],[-58.7275,-26.5976,61.2033],[-58.73411,-26.59719,61.6816],[-58.74181,-26.59342,61.8516],[-58.75016,-26.58696,66.9368],[-58.77514,-26.55895,62.6843],[-58.7871,-26.54282,63.939],[-58.79206,-26.53833,68.2815],[-58.79907,-26.53414,67.0286],[-58.83966,-26.51869,62.2574],[-58.85214,-26.51208,74.951],[-58.86333,-26.50386,65.0994],[-58.88904,-26.4789,66.2826],[-58.90102,-26.46366,69.8138],[-58.90898,-26.45074,74.9871],[-58.93363,-26.4235,69.1574],[-58.95353,-26.40562,67.8349],[-58.9821,-26.3896,70.3112],[-59.02634,-26.37436,65.0],[-59.05993,-26.36159,70.6762],[-59.09528,-26.34976,76.155],[-59.10334,-26.34464,70.2373],[-59.13171,-26.32098,75.7189],[-59.13918,-26.31178,73.6203],[-59.1468,-26.29948,73.5453],[-59.1523,-26.29638,70.6189],[-59.16284,-26.2956,81.2072],[-59.16987,-26.29684,77.4022],[-59.17594,-26.29901,76.4479],[-59.18049,-26.3016,76.322],[-59.1846,-26.3047,75.5502],[-59.18822,-26.30837,78.0595],[-59.1915,-26.31245,77.731],[-59.19865,-26.31989,74.8839],[-59.20695,-26.32594,76.3607],[-59.21697,-26.33028,81.7054],[-59.23416,-26.33426,78.5146],[-59.25374,-26.34325,70.8195],[-59.26452,-26.34666,68.5],[-59.27041,-26.34775,77.1673],[-59.28348,-26.34785,73.1219],[-59.29214,-26.34552,74.585],[-59.31707,-26.33565,79.2388],[-59.325,-26.3355,80.2309],[-59.33113,-26.3372,80.4446],[-59.3357,-26.33968,78.7185],[-59.3412,-26.34061,79.5267],[-59.34699,-26.3401,87.2822],[-59.35549,-26.33467,85.6175],[-59.36518,-26.32516,74.4069],[-59.38239,-26.30284,79.8183],[-59.38722,-26.29137,75.9211],[-59.38776,-26.2832,80.5315],[-59.38482,-26.27943,77.2209],[-59.3849,-26.27343,84.0804],[-59.38952,-26.26558,84.1651],[-59.40151,-26.25111,82.1556],[-59.40686,-26.24238,83.0452],[-59.40993,-26.23494,83.0382],[-59.41272,-26.20641,79.4494],[-59.41185,-26.19509,81.6378],[-59.41314,-26.19008,82.7662],[-59.41962,-26.184449999999998,83.9172],[-59.42993,-26.17845,81.068],[-59.45283,-26.16863,82.7137],[-59.46559,-26.16497,83.9088],[-59.47559,-26.16357,81.9721],[-59.49391,-26.16476,84.3238],[-59.50078,-26.16435,90.5625],[-59.50399,-26.16357,89.1708],[-59.52636,-26.15618,85.2782],[-59.53336,-26.15535,90.1942],[-59.54011,-26.15535,88.817],[-59.55881,-26.15752,85.3265],[-59.56548,-26.15727,87.2739],[-59.57375,-26.15504,86.6523],[-59.59713,-26.1428,88.4891],[-59.61928,-26.13453,86.2249],[-59.62491,-26.13339,81.0],[-59.63046,-26.13391,85.667],[-59.64046,-26.13768,87.7759],[-59.64604,-26.13866,99.9057],[-59.65204,-26.13789,99.1404],[-59.65793,-26.13572,82.4378],[-59.6632,-26.1322,90.152],[-59.66731,-26.12492,87.6645],[-59.66901,-26.11717,97.7218],[-59.66715,-26.10321,94.0994],[-59.6663,-26.07696,85.519],[-59.67356,-26.0135,88.5335],[-59.6909,-26.01392,89.5988],[-59.69738,-26.01268,90.5188],[-59.7032,-26.00808,90.2777],[-59.77007,-25.92121,103.3412],[-59.8105,-25.8855,101.8615],[-59.82939,-25.87609,90.5],[-59.84831,-25.86953,95.5374],[-59.85368,-25.86612,95.0275],[-59.85818,-25.86121,93.9134],[-59.86138,-25.85196,95.1682],[-59.86138,-25.84499,96.4281],[-59.85973,-25.83289,95.7477],[-59.86066,-25.82788,99.0408],[-59.86246,-25.82313,104.8576],[-59.86784,-25.8177,105.1695],[-59.87567,-25.81186,105.5064],[-59.90877,-25.79393,99.9478],[-59.93665,-25.78323,101.6752],[-59.94236,-25.7793,101.8436],[-59.94778,-25.77388,100.3822],[-59.95765,-25.75672,100.7206],[-59.9623,-25.75099,104.7637],[-59.96819,-25.74696,100.2791],[-59.97943,-25.74313,100.2238],[-60.01036,-25.73698,104.8243],[-60.01589,-25.73512,102.8293],[-60.02119,-25.73125,102.3038],[-60.02571,-25.72551,102.1083],[-60.02948,-25.71461,102.5313],[-60.03021,-25.70742,106.0694],[-60.03341,-25.70122,104.8165],[-60.03863,-25.69719,101.0],[-60.04943,-25.69357,108.745],[-60.06524,-25.69187,108.1008],[-60.07281,-25.69032,105.9977],[-60.08139,-25.68665,106.471],[-60.09449,-25.67833,105.6136],[-60.10397,-25.67476,106.1193],[-60.1125,-25.67244,101.0],[-60.1194,-25.67135,106.3073],[-60.12545,-25.66944,103.6078],[-60.13054,-25.66712,103.9909],[-60.13862,-25.66205,104.7089],[-60.14302,-25.65998,105.8109],[-60.14824,-25.65942,108.8188],[-60.15289,-25.66107,108.3209],[-60.16069,-25.66763,106.0804],[-60.16534,-25.66996,108.3682],[-60.17162,-25.66898,106.464],[-60.17805,-25.6651,110.7921],[-60.18467,-25.65513,107.0177],[-60.18735,-25.64768,105.2448],[-60.18854,-25.64066,102.8443],[-60.18885,-25.63466,102.8559],[-60.18963,-25.62908,106.9183],[-60.19126,-25.62412,102.0],[-60.19573,-25.61766,109.8929],[-60.21516,-25.59565,102.5],[-60.22058,-25.58717,108.7829],[-60.22392,-25.57983,111.2695],[-60.2257,-25.56888,110.7124],[-60.22715,-25.56366,107.9553],[-60.22996,-25.55834,109.1803],[-60.23882,-25.54495,110.1557],[-60.2396,-25.53963,108.3115],[-60.23727,-25.53575,110.1849],[-60.23296,-25.53317,114.1094],[-60.22911,-25.52986,113.37],[-60.22671,-25.52557,112.7608],[-60.22624,-25.52041,113.8657],[-60.22802,-25.51488,113.0014],[-60.23102,-25.5095,114.5],[-60.23758,-25.50092,105.0],[-60.23795,-25.49937,108.7005],[-60.23727,-25.49803,105.3576],[-60.23869,-25.49524,116.5358],[-60.2441,-25.49229,115.5238],[-60.25603,-25.48888,108.0977],[-60.28316,-25.48671,115.7308],[-60.28885,-25.48397,113.1907],[-60.29332,-25.47927,114.5296],[-60.29732,-25.47002,111.4435],[-60.29851,-25.46273,116.237],[-60.29874,-25.45566,116.2525],[-60.30042,-25.44961,114.4566],[-60.30448,-25.44429,116.9727],[-60.33923,-25.42806,115.0854],[-60.34424,-25.42403,116.95],[-60.34802,-25.41674,116.446],[-60.34647,-25.4124,117.4828],[-60.33952,-25.40605,118.3471],[-60.33918,-25.40114,120.1599],[-60.34169,-25.39561,118.0338],[-60.35391,-25.37716,119.7135],[-60.36034,-25.36326,119.9449],[-60.36466,-25.35902,119.8092],[-60.37047,-25.35499,118.9112],[-60.39463,-25.34424,119.9728],[-60.40755,-25.33509,122.0508],[-60.4254,-25.31928,122.9384],[-60.43592,-25.30719,115.0],[-60.45062,-25.28528,118.3312],[-60.46341,-25.27112,124.9616],[-60.47207,-25.2583,124.5004],[-60.48545,-25.23097,121.8828],[-60.49586,-25.21448,124.066],[-60.49966,-25.20957,120.2475],[-60.50974,-25.2042,119.601],[-60.52444,-25.19877,125.1343],[-60.53369,-25.19738,125.48],[-60.54116,-25.19769,125.7999],[-60.55162,-25.20094,122.0073],[-60.557,-25.20105,128.6483],[-60.56346,-25.19825,120.6489],[-60.58387,-25.18508,128.7653],[-60.59239,-25.18068,118.9313],[-60.60012,-25.17784,128.2009],[-60.63831,-25.16813,129.4907],[-60.64513,-25.16451,120.3786],[-60.65242,-25.15929,120.0],[-60.66407,-25.14741,126.7879],[-60.67337,-25.1396,127.3486],[-60.70324,-25.12296,131.2177],[-60.70905,-25.12105,125.0],[-60.77063,-25.08519,134.481],[-60.79993,-25.07542,136.1547],[-60.80755,-25.06948,132.0771],[-60.83866,-25.03919,131.7462],[-60.86556,-25.01966,137.5587],[-60.87227,-25.01656,138.35059999999999],[-60.884,-25.01279,137.9613],[-60.89506,-25.00628,134.9162],[-61.03425,-24.89796,146.8815],[-61.0388,-24.89543,142.834],[-61.04392,-24.89424,143.683],[-61.04862,-24.89533,145.4888],[-61.05653,-24.90158,141.0354],[-61.06133,-24.90303,141.4809],[-61.06854,-24.90055,140.0823],[-61.07647,-24.89528,140.0162],[-61.09588,-24.87719,140.8893],[-61.10086,-24.87021,140.3092],[-61.10373,-24.86344,144.008],[-61.1058,-24.85161,144.6394],[-61.10487,-24.84427,146.8794],[-61.10247,-24.83854,145.3566],[-61.09606,-24.8314,144.8283],[-61.0949,-24.82732,145.9474],[-61.10001,-24.81823,145.7219],[-61.13975,-24.76355,147.7056],[-61.14487,-24.75342,143.9933],[-61.1458,-24.74211,148.0559],[-61.14458,-24.73048,146.9998],[-61.1452,-24.72567,147.5223],[-61.14898,-24.72211,148.238],[-61.16481,-24.71797,148.2821],[-61.17164,-24.71374,147.5587],[-61.19874,-24.67493,147.9635],[-61.20393,-24.66966,146.6984],[-61.20853,-24.66578,146.9258],[-61.22295,-24.65808,147.9916],[-61.26078,-24.64713,153.9003],[-61.27581,-24.64542,153.5032],[-61.32943,-24.64459,154.8831],[-61.33633,-24.64382,154.555],[-61.35581,-24.63917,155.3264],[-61.39074,-24.6263,156.3754],[-61.39842,-24.62568,155.6163],[-61.40493,-24.6263,155.5872],[-61.41632,-24.62837,156.0591],[-61.42263,-24.62832,155.1797],[-61.44366,-24.62397,155.4897],[-61.4511,-24.61938,156.9446],[-61.49748,-24.57958,161.1736],[-61.51115,-24.56325,161.8663],[-61.55102,-24.5307,161.3248],[-61.56066,-24.51912,162.3489],[-61.56314,-24.51489,162.5518],[-61.56585,-24.50553,166.145],[-61.56639,-24.49912,160.4619],[-61.56771,-24.49354,161.0216],[-61.56941,-24.48982,159.3522],[-61.57337,-24.4861,161.9134],[-61.57879,-24.483,162.5338],[-61.58856,-24.48145,164.6006],[-61.59494,-24.48228,160.9818],[-61.60579,-24.486,165.2006],[-61.61344,-24.48548,164.6093],[-61.62236,-24.48352,164.207],[-61.6361,-24.47907,166.6272],[-61.64168,-24.48119,165.409],[-61.64577,-24.48445,165.4298],[-61.64959,-24.486,164.7157],[-61.6546,-24.48362,164.2982],[-61.66031,-24.47644,166.0523],[-61.69793,-24.41453,161.5061],[-61.7022,-24.40554,159.6897],[-61.70504,-24.39536,169.3147],[-61.71109,-24.38895,161.3799],[-61.72101,-24.38166,172.2752],[-61.74312,-24.36823,170.5219],[-61.77571,-24.34172,172.6913],[-61.78199,-24.33929,173.1422],[-61.79049,-24.33779,177.4044],[-61.80519,-24.33836,178.8728]]]}
,"properties": {"ISO3166-1-Alpha-3": "ARG","country": "Argentina","fill": "#F0F","name": "Chaco","area_km2": 99435.35,"hist_schema_id": "Elevation0-9000","hist_area_km2": {"50": 10918.0,"75": 27739.46,"100": 18425.06,"125": 13748.9,"150": 11438.07,"175": 7993.2,"200": 5038.75,"225": 2752.04,"250": 1317.64,"275": 63.98}}}