{"type": "Feature","bbox": [-63.4276,-28.0,-58.3639,-24.0931],"geometry": {"type": "MultiPolygon","coordinates": [[[[-60.1163,-25.6566,105.3893],[-60.1257,-25.6572,101.6633],[-60.1377,-25.6553,108.1338],[-60.1493,-25.652,106.3979],[-60.1646,-25.6432,107.4414],[-60.1635,-25.6487,100.5],[-60.1694,-25.649,104.4638],[-60.174,-25.6519,108.0382],[-60.1762,-25.6572,105.8084],[-60.1813,-25.6565,105.9049],[-60.185,-25.652,105.4425],[-60.1909,-25.6498,102.1226],[-60.1948,-25.6464,106.2802],[-60.1946,-25.6405,111.0175],[-60.1887,-25.6309,107.4123],[-60.1856,-25.6203,108.4113],[-60.1921,-25.6222,102.0],[-60.1934,-25.6176,110.1687],[-60.1911,-25.6124,108.854],[-60.193,-25.6086,105.9819],[-60.2,-25.6135,106.7707],[-60.2006,-25.6083,106.9215],[-60.196,-25.5956,107.8813],[-60.2013,-25.5986,110.7126],[-60.2089,-25.5951,109.4306],[-60.2127,-25.5995,110.8476],[-60.2183,-25.5974,102.5],[-60.2209,-25.5868,109.6796],[-60.221,-25.5702,107.2427],[-60.2233,-25.5652,107.9326],[-60.2317,-25.5574,112.4873],[-60.2385,-25.548,105.2901],[-60.2326,-25.5387,110.6677],[-60.2331,-25.5337,114.1094],[-60.2374,-25.5295,112.277],[-60.2348,-25.5252,112.8391],[-60.2288,-25.5243,113.1128],[-60.227,-25.5201,113.8657],[-60.2346,-25.511,110.9615],[-60.235,-25.5063,108.1817],[-60.2402,-25.504,109.6742],[-60.2459,-25.5045,106.0],[-60.2449,-25.4996,107.5637],[-60.2351,-25.493,113.1939],[-60.238,-25.4892,113.9017],[-60.261,-25.4813,111.3589],[-60.2728,-25.4837,114.4711],[-60.2774,-25.4876,115.5329],[-60.2826,-25.4889,116.5255],[-60.2854,-25.4848,114.9995],[-60.2808,-25.4741,108.8226],[-60.2842,-25.4706,111.537],[-60.2881,-25.4755,114.3745],[-60.2931,-25.478,114.5296],[-60.2994,-25.4766,114.8244],[-60.3023,-25.4723,113.589],[-60.302,-25.4666,110.368],[-60.2981,-25.4624,116.237],[-60.2925,-25.46,113.7597],[-60.2892,-25.4554,116.7178],[-60.2889,-25.4493,117.0054],[-60.3004,-25.4511,114.4566],[-60.3027,-25.4475,115.6273],[-60.3041,-25.4363,116.0538],[-60.3014,-25.4312,117.0825],[-60.3038,-25.4266,118.1466],[-60.31,-25.426,118.4695],[-60.3244,-25.4356,116.6102],[-60.3305,-25.4362,117.0071],[-60.3383,-25.4279,116.6815],[-60.3488,-25.422,114.5535],[-60.3347,-25.4132,117.7566],[-60.3321,-25.4082,119.2993],[-60.3322,-25.4026,114.2362],[-60.3236,-25.393,114.0521],[-60.3306,-25.3912,110.3101],[-60.3328,-25.3863,115.2917],[-60.3375,-25.3882,119.6065],[-60.3401,-25.3933,117.7467],[-60.3442,-25.3961,116.9691],[-60.3506,-25.3804,118.735],[-60.3519,-25.375,119.819],[-60.3512,-25.3692,118.8145],[-60.3609,-25.3629,119.7203],[-60.3666,-25.3613,120.1893],[-60.3613,-25.3518,119.0668],[-60.3656,-25.349,120.5036],[-60.3779,-25.3499,118.9528],[-60.3834,-25.3478,120.114],[-60.3991,-25.3393,121.8017],[-60.4028,-25.3361,121.3924],[-60.4032,-25.3312,112.4101],[-60.4154,-25.3334,121.6248],[-60.4184,-25.3304,118.8886],[-60.414,-25.3197,119.142],[-60.4072,-25.3103,122.5948],[-60.4083,-25.3048,122.4133],[-60.4127,-25.3065,120.0988],[-60.4147,-25.3117,117.7507],[-60.4188,-25.3157,121.6615],[-60.4246,-25.3171,112.964],[-60.4295,-25.307,116.4309],[-60.4359,-25.2856,117.3143],[-60.4428,-25.2761,123.2763],[-60.4496,-25.278,122.8395],[-60.4551,-25.276,120.563],[-60.4764,-25.2638,125.3366],[-60.4709,-25.2588,124.9846],[-60.4696,-25.2543,117.7467],[-60.4747,-25.2511,125.0758],[-60.4756,-25.2456,125.4624],[-60.4859,-25.2401,122.811],[-60.489,-25.2298,116.8729],[-60.4859,-25.2281,119.5938],[-60.4869,-25.2238,115.5],[-60.4909,-25.2191,123.0317],[-60.4955,-25.2098,116.5379],[-60.4867,-25.2056,125.1046],[-60.4863,-25.2018,125.3898],[-60.4921,-25.2002,126.5224],[-60.498,-25.2021,124.0406],[-60.5194,-25.1929,122.8378],[-60.5289,-25.1791,125.1203],[-60.5347,-25.1809,126.1479],[-60.5437,-25.1955,124.392],[-60.5482,-25.199,125.715],[-60.5542,-25.2008,123.0812],[-60.559,-25.199,126.176],[-60.5589,-25.1929,126.3828],[-60.561,-25.1896,124.1455],[-60.5676,-25.1896,125.5768],[-60.573,-25.1869,122.9964],[-60.5742,-25.1822,126.2968],[-60.5708,-25.1782,118.0252],[-60.5742,-25.1733,125.4431],[-60.5894,-25.1801,120.7537],[-60.5952,-25.1754,118.574],[-60.6019,-25.1819,129.0785],[-60.6295,-25.1707,124.8643],[-60.6336,-25.1625,123.3302],[-60.6392,-25.1646,127.4415],[-60.6454,-25.1647,120.4597],[-60.6487,-25.1607,129.2017],[-60.644,-25.155,121.034],[-60.6457,-25.1512,125.8084],[-60.652,-25.1521,122.8771],[-60.6572,-25.1593,125.4094],[-60.6609,-25.1583,122.0],[-60.6615,-25.1523,122.0275],[-60.6589,-25.1476,126.9079],[-60.6521,-25.1421,123.065],[-60.6496,-25.1367,130.4134],[-60.6525,-25.1335,126.9],[-60.6646,-25.131,129.8579],[-60.6765,-25.1327,126.8549],[-60.6939,-25.1285,127.5476],[-60.7,-25.1299,129.0305],[-60.7052,-25.1281,125.043],[-60.7099,-25.1243,130.7313],[-60.7215,-25.1215,126.6819],[-60.7178,-25.1127,130.6264],[-60.7267,-25.1055,131.8112],[-60.7377,-25.1008,130.5269],[-60.7434,-25.0855,132.9017],[-60.7492,-25.0871,134.1482],[-60.7532,-25.0845,130.7863],[-60.7541,-25.0794,126.5],[-60.7596,-25.0766,131.7932],[-60.7653,-25.0764,131.6468],[-60.7712,-25.0783,134.991],[-60.7827,-25.0749,135.4015],[-60.7945,-25.0749,136.3991],[-60.8156,-25.0646,132.1279],[-60.8193,-25.0548,129.3999],[-60.8271,-25.0465,136.9692],[-60.8316,-25.0437,131.083],[-60.8407,-25.0428,135.6842],[-60.856,-25.0341,134.0407],[-60.8588,-25.0306,138.9486],[-60.856,-25.0264,138.2961],[-60.8617,-25.024,138.9726],[-60.8738,-25.0223,134.312],[-60.8826,-25.0177,130.0],[-60.8877,-25.0212,136.2764],[-60.8935,-25.0203,136.8849],[-60.9017,-25.0135,132.5598],[-60.9017,-24.9967,138.0054],[-60.9054,-24.9923,138.5955],[-60.9106,-24.9896,134.593],[-60.9289,-24.9879,131.7558],[-60.9331,-24.9853,140.9928],[-60.9183,-24.9756,140.1905],[-60.9206,-24.9704,139.6908],[-60.9368,-24.9628,132.0066],[-60.9484,-24.9502,140.4486],[-60.9656,-24.9449,143.7652],[-60.9694,-24.9406,142.9306],[-60.9751,-24.9386,142.7968],[-60.9831,-24.931,136.5463],[-60.9891,-24.9295,142.9982],[-60.9915,-24.9248,143.0065],[-60.992,-24.9193,139.701],[-60.9958,-24.9156,136.0881],[-61.008,-24.9146,142.5563],[-61.0115,-24.9107,142.9307],[-61.0058,-24.9091,135.7619],[-61.003,-24.8994,135.8209],[-61.0144,-24.895,136.398],[-61.0206,-24.8946,138.715],[-61.0228,-24.8896,135.5441],[-61.0278,-24.8885,133.4865],[-61.0338,-24.8898,141.9616],[-61.0397,-24.8885,146.2219],[-61.0442,-24.8852,143.5213],[-61.0474,-24.8742,143.5102],[-61.0707,-24.8619,142.3566],[-61.0742,-24.8577,143.5382],[-61.0733,-24.8521,144.4237],[-61.0761,-24.8473,144.8397],[-61.0808,-24.8436,145.0196],[-61.086,-24.8449,147.4172],[-61.0887,-24.8398,141.0119],[-61.0884,-24.8343,144.9777],[-61.0934,-24.8247,144.7224],[-61.0979,-24.8219,145.0682],[-61.1061,-24.8301,144.6796],[-61.124,-24.818,146.6884],[-61.1247,-24.8125,146.0802],[-61.1279,-24.8078,145.4076],[-61.1291,-24.798,144.3991],[-61.1354,-24.7985,148.0849],[-61.1396,-24.7955,148.8591],[-61.14,-24.7732,146.6051],[-61.1419,-24.768,145.9769],[-61.1489,-24.7591,147.0675],[-61.1514,-24.7491,143.8677],[-61.1436,-24.7407,148.0143],[-61.1555,-24.7421,148.5727],[-61.1586,-24.7378,141.2332],[-61.1627,-24.719,142.4235],[-61.1598,-24.7085,144.8393],[-61.1703,-24.7059,148.2107],[-61.1758,-24.7149,147.4624],[-61.1747,-24.7204,150.0407],[-61.1793,-24.7234,144.9126],[-61.1845,-24.7208,142.149],[-61.1899,-24.7121,142.0209],[-61.1952,-24.7143,150.8689],[-61.1976,-24.7093,149.6906],[-61.1958,-24.6992,149.6951],[-61.2002,-24.6964,150.5058],[-61.2009,-24.6854,141.8496],[-61.1991,-24.6804,143.9102],[-61.2042,-24.6774,142.6804],[-61.2111,-24.6683,144.2888],[-61.223,-24.6681,152.274],[-61.2249,-24.663,158.3231],[-61.2216,-24.6584,147.9916],[-61.2208,-24.6529,151.6216],[-61.2256,-24.65,145.6792],[-61.2436,-24.6483,149.9672],[-61.2551,-24.6452,151.3791],[-61.2573,-24.6402,152.5297],[-61.2673,-24.6355,150.2567],[-61.2725,-24.6359,145.3224],[-61.2813,-24.6439,153.2294],[-61.3053,-24.6427,149.0825],[-61.3112,-24.6441,151.5977],[-61.3155,-24.6478,153.684],[-61.3197,-24.658,153.4184],[-61.325,-24.6585,154.2267],[-61.3249,-24.6531,153.3959],[-61.3217,-24.6483,153.0661],[-61.324,-24.6438,152.5446],[-61.3416,-24.6402,146.6577],[-61.3531,-24.6422,155.0062],[-61.3587,-24.6399,155.5483],[-61.3705,-24.6391,157.2547],[-61.3841,-24.6281,156.5699],[-61.389,-24.6263,155.7496],[-61.4068,-24.6285,156.2027],[-61.4162,-24.6217,156.3457],[-61.4396,-24.6166,157.2678],[-61.4509,-24.6197,156.8906],[-61.4595,-24.6262,159.3734],[-61.4671,-24.6176,159.4944],[-61.4664,-24.6122,158.7301],[-61.4678,-24.6069,156.4977],[-61.4796,-24.5818,161.095],[-61.4839,-24.5773,158.906],[-61.4887,-24.5751,157.3817],[-61.4943,-24.5783,161.7583],[-61.4982,-24.5762,159.4649],[-61.5009,-24.5722,160.5038],[-61.5108,-24.5658,159.939],[-61.5148,-24.5615,162.5339],[-61.5171,-24.5502,154.0771],[-61.5215,-24.5482,160.8304],[-61.5278,-24.5503,159.9687],[-61.532,-24.5466,160.6006],[-61.5328,-24.541,161.461],[-61.5401,-24.5319,159.8733],[-61.5571,-24.5249,162.3631],[-61.5615,-24.5207,161.1278],[-61.5687,-24.5114,161.1375],[-61.5707,-24.5058,165.4486],[-61.5725,-24.489,163.4606],[-61.5748,-24.4838,163.9216],[-61.583,-24.4752,164.5725],[-61.5934,-24.469,163.9238],[-61.6014,-24.4602,164.7178],[-61.6061,-24.4594,169.0784],[-61.6092,-24.4647,162.9979],[-61.6164,-24.4693,164.5125],[-61.6228,-24.4689,164.1645],[-61.6339,-24.4646,167.0827],[-61.6434,-24.4638,168.1265],[-61.6469,-24.4537,167.3839],[-61.6529,-24.4535,169.2327],[-61.6626,-24.4605,165.9229],[-61.6685,-24.46,166.1705],[-61.6784,-24.4531,167.0683],[-61.6953,-24.4364,170.537],[-61.7012,-24.4263,170.9723],[-61.7087,-24.4177,172.7431],[-61.7091,-24.412,172.2132],[-61.7162,-24.3961,172.8551],[-61.7129,-24.3854,160.8561],[-61.7143,-24.3798,162.8135],[-61.7179,-24.3753,171.5376],[-61.7283,-24.3689,171.2716],[-61.7633,-24.3567,171.52],[-61.7689,-24.3504,171.1902],[-61.7748,-24.3341,174.4219],[-61.7864,-24.3139,177.1601],[-61.7902,-24.3139,178.3853],[-61.7846,-24.3309,175.8553],[-61.7846,-24.3367,173.694],[-61.7879,-24.3406,175.2657],[-61.7938,-24.3384,173.3268],[-61.8023,-24.3302,168.9766],[-61.813,-24.3242,175.2393],[-61.8193,-24.3143,171.224],[-61.8247,-24.3134,172.3832],[-61.8213,-24.3245,178.3039],[-61.8276,-24.3257,181.4161],[-61.8338,-24.3159,166.3698],[-61.8392,-24.3134,172.9777],[-61.8515,-24.3115,175.7422],[-61.8614,-24.3045,177.652],[-61.8669,-24.3038,178.9195],[-61.8677,-24.3095,173.1375],[-61.8704,-24.3138,172.367],[-61.8763,-24.3123,176.3696],[-61.8806,-24.3044,170.2339],[-61.8829,-24.2937,170.0299],[-61.8871,-24.2895,180.8832],[-61.8986,-24.2854,179.6344],[-61.9035,-24.2818,178.8432],[-61.9078,-24.2776,173.3955],[-61.9117,-24.2667,179.5568],[-61.9582,-24.2514,178.8704],[-61.9679,-24.2443,179.869],[-61.9698,-24.2391,183.9676],[-61.9696,-24.2331,172.9892],[-61.9734,-24.2299,179.3412],[-61.9797,-24.2306,176.5956],[-61.989,-24.2377,179.7837],[-62.0074,-24.2355,181.9938],[-62.0187,-24.2313,181.6331],[-62.0282,-24.2388,177.9505],[-62.0339,-24.241,175.0497],[-62.0389,-24.2385,181.1106],[-62.0409,-24.2271,180.9876],[-62.0459,-24.2239,184.7529],[-62.0769,-24.2253,180.2434],[-62.1002,-24.2179,186.2739],[-62.1054,-24.2147,182.8269],[-62.1045,-24.21,186.8137],[-62.0912,-24.1963,182.2039],[-62.0959,-24.1906,183.3323],[-62.1043,-24.1988,187.1791],[-62.1307,-24.214,180.8949],[-62.1368,-24.2136,187.8148],[-62.1399,-24.209,181.3226],[-62.1413,-24.2034,186.1832],[-62.1498,-24.1973,181.6229],[-62.1461,-24.1926,186.6473],[-62.1469,-24.1875,186.1392],[-62.153,-24.1888,189.0246],[-62.1579,-24.1922,189.9444],[-62.1675,-24.2068,184.3409],[-62.1718,-24.2105,188.8054],[-62.1779,-24.2084,189.8347],[-62.1763,-24.1919,184.1297],[-62.1725,-24.1872,186.7457],[-62.1743,-24.1769,180.2223],[-62.1719,-24.1713,185.7111],[-62.1766,-24.167,182.157],[-62.1829,-24.168,187.1452],[-62.1881,-24.1713,186.3522],[-62.1944,-24.1717,187.8941],[-62.1964,-24.1668,192.2706],[-62.1875,-24.159,187.9255],[-62.1929,-24.1539,181.193],[-62.2048,-24.1505,188.8416],[-62.2099,-24.1473,186.8367],[-62.2282,-24.1452,186.8439],[-62.2352,-24.1357,186.4978],[-62.2433,-24.1358,191.3467],[-62.2552,-24.1391,187.696],[-62.2673,-24.1367,187.199],[-62.2703,-24.1321,184.3266],[-62.2762,-24.1339,189.8581],[-62.2884,-24.1323,195.8365],[-62.29,-24.1271,183.1016],[-62.2949,-24.1244,182.5],[-62.2984,-24.1198,188.5788],[-62.2998,-24.114,195.1714],[-62.3119,-24.1126,186.2763],[-62.3215,-24.1134,188.6817],[-62.3216,-24.109,192.0684],[-62.3163,-24.1058,190.3866],[-62.3082,-24.0974,196.0956],[-62.3118,-24.0931,188.1353],[-62.3476,-24.1102,192.2305],[-62.3463,-24.318,190.3596],[-62.3478,-24.3944,188.4149],[-63.0253,-25.1904,246.4442],[-63.4276,-25.6519,267.316],[-63.0536,-25.6549,241.1752],[-61.7123,-25.6555,160.6295],[-61.7099,-25.9614,156.8953],[-61.7111,-26.0708,156.7757],[-61.7106,-26.3316,147.4475],[-61.7136,-26.8442,157.3954],[-61.7172,-27.9939,82.8649],[-61.6646,-27.9984,73.062],[-61.5833,-27.9973,71.2012],[-61.4189,-27.9988,68.2202],[-60.3884,-28.0,64.0839],[-60.0996,-27.9979,60.2304],[-58.893,-27.9993,45.104],[-58.8918,-27.9955,44.1325],[-58.8814,-27.9837,40.5],[-58.8777,-27.9768,40.5],[-58.8746,-27.9664,42.8393],[-58.856,-27.9253,41.0],[-58.8541,-27.9156,41.0],[-58.8543,-27.8993,46.782],[-58.8509,-27.8834,41.5],[-58.8431,-27.8687,41.5],[-58.8305,-27.8569,41.5],[-58.825,-27.8472,41.5],[-58.8236,-27.8202,42.0],[-58.8142,-27.8003,42.0],[-58.8111,-27.7843,42.0],[-58.8114,-27.7735,42.0],[-58.8175,-27.7414,42.0],[-58.825,-27.6714,42.5],[-58.8392,-27.6538,42.5],[-58.8532,-27.6297,44.3418],[-58.8625,-27.6229,49.3623],[-58.8777,-27.6058,43.0],[-58.8796,-27.6008,43.0],[-58.8778,-27.5683,47.5918],[-58.87,-27.5536,46.5078],[-58.8688,-27.5484,45.3365],[-58.8733,-27.5271,44.9147],[-58.8802,-27.5182,43.0],[-58.8882,-27.5036,48.4189],[-58.889,-27.4873,47.6092],[-58.8872,-27.4822,43.6861],[-58.8725,-27.4727,43.0],[-58.8561,-27.4658,43.0],[-58.8359,-27.4536,43.5],[-58.8159,-27.4334,47.4034],[-58.8023,-27.4122,43.5],[-58.7821,-27.3921,46.108],[-58.7686,-27.3812,48.3992],[-58.7626,-27.3804,47.4954],[-58.7507,-27.3826,44.0],[-58.7388,-27.3809,44.0],[-58.7192,-27.3682,44.5],[-58.6905,-27.3593,46.3219],[-58.6683,-27.3564,44.5],[-58.641,-27.3473,44.5],[-58.6312,-27.3409,44.5],[-58.6237,-27.3324,44.5],[-58.6203,-27.3282,44.5],[-58.6174,-27.3176,45.0],[-58.6064,-27.2953,45.0],[-58.6078,-27.2901,45.0],[-58.6048,-27.2764,45.0],[-58.595,-27.2586,45.5],[-58.5923,-27.2385,45.5],[-58.5937,-27.2296,50.1396],[-58.6037,-27.2131,46.0],[-58.6342,-27.1963,49.5329],[-58.6439,-27.1934,54.7285],[-58.655,-27.1859,51.8226],[-58.6625,-27.1722,46.25],[-58.6578,-27.1562,46.5],[-58.6474,-27.1349,50.992],[-58.6401,-27.1243,52.2651],[-58.6269,-27.1156,46.5],[-58.6165,-27.1127,47.0],[-58.58,-27.1094,47.0],[-58.5752,-27.1074,47.0],[-58.5596,-27.1059,52.3577],[-58.5538,-27.103,48.1354],[-58.5504,-27.0992,52.8905],[-58.5538,-27.0685,47.5],[-58.5522,-27.0457,52.5221],[-58.5476,-27.0384,53.8032],[-58.5272,-27.0377,48.0],[-58.5212,-27.0391,48.0],[-58.518,-27.0427,48.0],[-58.5125,-27.0565,53.8299],[-58.5088,-27.0591,48.0],[-58.5052,-27.0576,48.0],[-58.5014,-27.0504,50.2805],[-58.5007,-27.0434,51.2368],[-58.5064,-27.0197,53.2827],[-58.508,-27.0074,52.5431],[-58.5066,-27.003,52.9976],[-58.5016,-26.9996,56.1783],[-58.488,-26.995,50.9376],[-58.4826,-26.9948,50.3656],[-58.4776,-26.9918,55.0523],[-58.4751,-26.9862,54.2164],[-58.4799,-26.9643,49.0],[-58.4889,-26.9458,49.0],[-58.4913,-26.933,52.3875],[-58.4878,-26.9244,50.8165],[-58.4826,-26.9212,51.8092],[-58.4523,-26.9213,52.5582],[-58.4424,-26.9196,49.0],[-58.4316,-26.9144,49.0],[-58.4144,-26.903,49.0],[-58.4046,-26.8989,49.0],[-58.3884,-26.8892,52.7004],[-58.3698,-26.8655,49.0],[-58.3643,-26.865,49.0],[-58.3639,-26.8503,52.0026],[-58.3681,-26.8457,52.4108],[-58.3725,-26.8464,54.7588],[-58.376,-26.849,52.9682],[-58.3806,-26.8642,52.7177],[-58.3837,-26.8614,52.9673],[-58.3876,-26.8532,59.892],[-58.4,-26.8516,51.9805],[-58.4021,-26.8474,53.7018],[-58.3995,-26.8425,60.6633],[-58.3911,-26.8404,55.9251],[-58.3889,-26.834,60.8163],[-58.3888,-26.825,54.2423],[-58.3911,-26.8213,51.7979],[-58.397,-26.8215,56.8345],[-58.398,-26.8306,50.0],[-58.4015,-26.8324,52.2653],[-58.4051,-26.8299,53.6362],[-58.405,-26.8234,53.1401],[-58.4015,-26.8103,56.4252],[-58.4042,-26.8074,54.4633],[-58.4103,-26.8091,52.911],[-58.4112,-26.8224,53.9574],[-58.4146,-26.8269,64.0084],[-58.4187,-26.8249,55.3738],[-58.4246,-26.8183,54.0507],[-58.4201,-26.8109,52.4306],[-58.4209,-26.8045,54.7629],[-58.4265,-26.7974,53.6981],[-58.4298,-26.799,53.2766],[-58.4363,-26.8079,51.8492],[-58.4496,-26.8077,55.3572],[-58.452,-26.8027,55.9279],[-58.4507,-26.7939,52.7387],[-58.454,-26.7884,56.1247],[-58.4618,-26.7837,54.1711],[-58.4655,-26.7848,54.986],[-58.4668,-26.7891,54.3244],[-58.4618,-26.7993,55.3636],[-58.4658,-26.8025,54.8274],[-58.4746,-26.8018,56.5094],[-58.4867,-26.7958,54.0961],[-58.4858,-26.7924,58.3472],[-58.4821,-26.7893,61.3734],[-58.4791,-26.7836,54.9357],[-58.4818,-26.7807,54.7482],[-58.4968,-26.7806,62.1514],[-58.5119,-26.7675,57.0887],[-58.5163,-26.7541,65.7649],[-58.5207,-26.7504,61.5644],[-58.523,-26.7567,57.5174],[-58.5275,-26.7559,58.8113],[-58.5293,-26.7465,65.7472],[-58.5381,-26.7514,66.466],[-58.5415,-26.7479,56.8405],[-58.5399,-26.7395,58.521],[-58.5445,-26.7338,57.2544],[-58.5538,-26.7351,69.4804],[-58.5625,-26.7201,61.059],[-58.572,-26.7086,64.0055],[-58.5761,-26.6929,66.7259],[-58.5793,-26.6891,67.3446],[-58.5765,-26.6816,57.0144],[-58.5806,-26.6771,57.116],[-58.6018,-26.6769,57.523],[-58.6104,-26.6706,57.7951],[-58.6216,-26.666,61.0268],[-58.6342,-26.6511,59.3424],[-58.6411,-26.6501,60.5114],[-58.652,-26.6517,60.1597],[-58.6566,-26.6473,59.3946],[-58.6603,-26.646,59.946],[-58.6702,-26.6361,60.428],[-58.6826,-26.633,60.3833],[-58.6842,-26.6285,57.1173],[-58.6825,-26.6237,56.6803],[-58.6868,-26.607,61.911],[-58.6923,-26.5915,64.7832],[-58.6962,-26.585,62.1784],[-58.703,-26.5843,61.3181],[-58.7098,-26.5887,61.0099],[-58.7167,-26.589,61.255],[-58.7251,-26.5944,61.4194],[-58.7464,-26.5959,62.7828],[-58.7509,-26.5946,60.4237],[-58.7573,-26.579,68.9811],[-58.7557,-26.575,60.9281],[-58.7637,-26.5646,66.9666],[-58.765,-26.5564,59.6894],[-58.7789,-26.5428,73.5006],[-58.7763,-26.5395,66.4681],[-58.7801,-26.5377,69.4495],[-58.7889,-26.5375,64.4155],[-58.7915,-26.531,73.4762],[-58.7986,-26.5269,70.7001],[-58.8002,-26.5238,76.3975],[-58.7998,-26.5176,67.3113],[-58.8058,-26.5164,65.5965],[-58.8208,-26.519,67.4751],[-58.8317,-26.5187,71.1551],[-58.8519,-26.5102,75.9066],[-58.8566,-26.5067,73.4837],[-58.8592,-26.5035,75.4102],[-58.8593,-26.487,68.2656],[-58.8693,-26.4698,68.2752],[-58.8725,-26.468,66.2224],[-58.8816,-26.4682,67.0366],[-58.9027,-26.4602,67.0403],[-58.9098,-26.454,79.5886],[-58.911,-26.4503,80.3616],[-58.9142,-26.4475,63.8961],[-58.9189,-26.4455,69.5442],[-58.9356,-26.4318,72.7679],[-58.9463,-26.4181,64.0],[-58.9551,-26.3964,78.6418],[-58.9623,-26.387,72.6519],[-58.9853,-26.3805,65.6584],[-58.9889,-26.377,74.8232],[-59.0053,-26.3723,73.1432],[-59.0149,-26.3736,72.859],[-59.0235,-26.3724,71.2456],[-59.0434,-26.3635,74.6743],[-59.0533,-26.3681,71.7761],[-59.0606,-26.369,72.8798],[-59.0714,-26.3665,71.1264],[-59.0994,-26.3435,72.7529],[-59.1036,-26.3356,73.8204],[-59.1177,-26.3372,66.5],[-59.1183,-26.3287,75.8141],[-59.1148,-26.3234,71.0634],[-59.1505,-26.3164,74.1627],[-59.1494,-26.313,73.8129],[-59.1446,-26.3122,67.8698],[-59.1423,-26.3083,70.8699],[-59.1439,-26.3037,71.4358],[-59.1395,-26.3009,67.0],[-59.1405,-26.2971,81.6184],[-59.1485,-26.2897,76.4058],[-59.158,-26.2957,82.1194],[-59.1704,-26.2982,79.9426],[-59.1771,-26.302,76.6257],[-59.1851,-26.3089,67.9403],[-59.1874,-26.3173,69.2495],[-59.192,-26.3213,78.1012],[-59.2113,-26.3257,76.23],[-59.2229,-26.3327,78.7043],[-59.2673,-26.3435,77.8127],[-59.276,-26.3439,78.6676],[-59.2838,-26.342,78.26],[-59.3045,-26.3326,79.9779],[-59.3076,-26.3296,81.9848],[-59.3085,-26.3235,75.6472],[-59.3149,-26.3171,79.0602],[-59.3142,-26.3231,77.0087],[-59.3167,-26.3265,72.9544],[-59.322,-26.3226,78.9996],[-59.326,-26.3241,72.3565],[-59.3292,-26.3316,76.3731],[-59.3337,-26.3327,77.1502],[-59.337,-26.3308,79.468],[-59.3489,-26.3314,80.8459],[-59.3551,-26.3331,83.6705],[-59.3676,-26.3219,80.2799],[-59.3763,-26.3103,83.176],[-59.3869,-26.3022,75.7101],[-59.3875,-26.2976,77.596],[-59.3906,-26.2941,80.654],[-59.3852,-26.2909,76.0786],[-59.3847,-26.2763,81.4118],[-59.3792,-26.2644,81.2692],[-59.3819,-26.2614,74.6159],[-59.3893,-26.2647,84.1651],[-59.3944,-26.2409,82.9837],[-59.4049,-26.2222,83.4818],[-59.4083,-26.2099,73.0327],[-59.4158,-26.1986,82.7476],[-59.4106,-26.1936,81.9379],[-59.4097,-26.1859,82.9289],[-59.4019,-26.1804,83.521],[-59.4099,-26.1714,85.0464],[-59.4141,-26.1704,79.8559],[-59.4183,-26.1619,84.8376],[-59.4279,-26.154,85.4963],[-59.4545,-26.1515,81.5783],[-59.4724,-26.1622,83.2921],[-59.4771,-26.1592,86.1639],[-59.4858,-26.1592,85.6691],[-59.4851,-26.1548,86.404],[-59.5004,-26.1572,92.1844],[-59.5041,-26.1565,80.5126],[-59.5097,-26.1537,83.6064],[-59.5159,-26.1479,82.8758],[-59.5243,-26.1479,77.4813],[-59.5342,-26.15,91.6422],[-59.5359,-26.1464,87.033],[-59.5419,-26.1459,87.2713],[-59.5533,-26.1497,78.7195],[-59.5626,-26.147,89.1242],[-59.5732,-26.148,85.9488],[-59.5769,-26.147,79.5616],[-59.5798,-26.1436,81.4895],[-59.5807,-26.1378,83.9173],[-59.5788,-26.1311,85.0291],[-59.5827,-26.1284,77.3627],[-59.5877,-26.1257,80.9555],[-59.5986,-26.1261,90.5608],[-59.6001,-26.123,89.0571],[-59.6075,-26.1215,84.9788],[-59.617,-26.1251,90.2973],[-59.6197,-26.1223,92.2417],[-59.6292,-26.1201,91.387],[-59.6295,-26.1165,77.0409],[-59.6326,-26.1127,85.4031],[-59.6368,-26.1127,89.3176],[-59.6385,-26.1172,81.662],[-59.6361,-26.128,80.0433],[-59.6405,-26.1369,87.7759],[-59.6494,-26.1415,85.4672],[-59.6499,-26.1457,90.9482],[-59.6597,-26.1422,85.4445],[-59.6526,-26.1287,85.725],[-59.659,-26.121,98.6347],[-59.6745,-26.1172,84.8693],[-59.6749,-26.1134,85.9604],[-59.6701,-26.1103,90.1165],[-59.6748,-26.101,80.6923],[-59.6743,-26.0933,79.5],[-59.6705,-26.0851,98.4504],[-59.6664,-26.0821,96.3937],[-59.6648,-26.0776,81.5101],[-59.666,-26.0736,84.8337],[-59.6614,-26.0651,86.7758],[-59.6732,-26.0639,97.0509],[-59.6744,-26.0521,92.9824],[-59.6709,-26.0464,84.8911],[-59.6728,-26.042,94.7021],[-59.676,-26.0399,83.2643],[-59.6716,-26.031,86.3618],[-59.6755,-26.0164,96.3013],[-59.6712,-26.0158,94.9108],[-59.6707,-26.0123,83.1053],[-59.6773,-26.0087,89.8439],[-59.6887,-26.0135,89.3207],[-59.7019,-26.0121,91.1414],[-59.706,-26.0149,91.2794],[-59.7137,-25.9964,100.9879],[-59.7164,-25.9939,97.6717],[-59.7275,-25.9916,93.5139],[-59.7264,-25.9803,95.7347],[-59.732,-25.9794,94.9014],[-59.7289,-25.9696,84.5],[-59.7394,-25.9699,101.8096],[-59.744,-25.966,102.1894],[-59.7467,-25.9613,96.3363],[-59.7469,-25.9558,93.7059],[-59.7503,-25.9521,100.5941],[-59.7545,-25.9506,91.514],[-59.7488,-25.9405,86.7179],[-59.7499,-25.9354,100.9466],[-59.7561,-25.9347,86.5],[-59.7564,-25.9293,102.7419],[-59.7697,-25.9236,100.7275],[-59.771,-25.9194,105.3024],[-59.7811,-25.9143,98.1223],[-59.7848,-25.9099,90.5804],[-59.7851,-25.9042,94.5167],[-59.7892,-25.9009,94.436],[-59.7998,-25.8981,92.8036],[-59.8,-25.8927,98.8917],[-59.8026,-25.8896,104.0273],[-59.8086,-25.8922,104.6898],[-59.814,-25.8924,104.7727],[-59.8169,-25.8881,102.1487],[-59.8116,-25.8783,101.0785],[-59.8115,-25.8736,100.7148],[-59.8289,-25.8787,102.4473],[-59.8343,-25.8779,92.4556],[-59.8397,-25.868,101.5386],[-59.8508,-25.8549,104.0396],[-59.8604,-25.8482,95.1938],[-59.8582,-25.8442,99.2843],[-59.8628,-25.840699999999998,94.6111],[-59.8686,-25.8411,98.2144],[-59.8735,-25.8444,99.9993],[-59.8782,-25.8419,94.0897],[-59.8725,-25.8261,95.4577],[-59.8748,-25.8214,95.5608],[-59.8786,-25.8199,92.9391],[-59.8768,-25.8148,107.2389],[-59.8691,-25.8061,107.5316],[-59.8792,-25.8028,92.5],[-59.8829,-25.7982,105.4446],[-59.9099,-25.7866,97.2496],[-59.9251,-25.7694,107.0571],[-59.9541,-25.7623,101.867],[-59.9582,-25.7585,102.2444],[-59.9587,-25.7529,100.9718],[-59.9654,-25.7438,105.8937],[-59.9706,-25.7425,102.2637],[-59.9767,-25.7435,103.274],[-59.9938,-25.7282,98.0794],[-60.0175,-25.7262,98.3225],[-60.0195,-25.7213,100.3266],[-60.0295,-25.7153,102.5313],[-60.0354,-25.7138,101.6946],[-60.037,-25.7084,104.8001],[-60.0428,-25.7078,104.4666],[-60.0387,-25.7008,103.156],[-60.0326,-25.6994,106.3892],[-60.0353,-25.6953,98.0],[-60.0413,-25.6937,103.2519],[-60.0474,-25.6878,103.1485],[-60.0528,-25.6854,103.2111],[-60.0542,-25.68,104.7249],[-60.0582,-25.6787,105.0685],[-60.0637,-25.6811,99.0841],[-60.0697,-25.6808,106.2647],[-60.0809,-25.6761,103.0269],[-60.092,-25.6777,107.8063],[-60.0979,-25.6756,103.7172],[-60.0982,-25.6708,103.8912],[-60.0921,-25.6682,104.8957],[-60.099,-25.6607,103.1101],[-60.1034,-25.6595,101.8351],[-60.1124,-25.6636,106.7045],[-60.1149,-25.6613,100.1769],[-60.1163,-25.6566,105.3893]]]]}
,"properties": {"GID_1": "ARG.3_1","GID_0": "ARG","country": "Argentina","state": "Chaco","VARNAME_1": "ElChaco|PresidenteJuanPeron","NL_NAME_1": "NA","TYPE_1": "Provincia","ENGTYPE_1": "Province","CC_1": "NA","HASC_1": "AR.CC","ISO_1": "AR-H","name": "Chaco.state","area_km2": 99947.42,"hist_schema_id": "Elevation0-9000","hist_area_km2": {"50": 10882.99,"75": 27757.22,"100": 18501.8,"125": 13805.36,"150": 11450.27,"175": 8031.45,"200": 5149.24,"225": 2812.7,"250": 1425.0,"275": 131.14}}}