{"type": "Feature","bbox": [-64.3286,-23.5878,-63.1187,-21.9993],"geometry": {"type": "MultiPolygon","coordinates": [[[[-63.1336,-22.0037,332.7719],[-63.6671,-22.0035,625.0364],[-63.6703,-22.0132,615.6295],[-63.6674,-22.0151,614.3433],[-63.6678,-22.0185,607.0214],[-63.6712,-22.0229,608.7008],[-63.6698,-22.0277,606.4329],[-63.6735,-22.0304,597.0306],[-63.675,-22.0364,586.8213],[-63.6763,-22.0367,593.103],[-63.6741,-22.0386,585.8844],[-63.6744,-22.0405,582.906],[-63.6786,-22.0429,589.4739],[-63.6766,-22.0453,580.4681],[-63.68,-22.0485,581.2416],[-63.6784,-22.0511,571.0468],[-63.6836,-22.0548,568.9359],[-63.6837,-22.0471,581.2946],[-63.6866,-22.0404,596.0856],[-63.6847,-22.0408,590.5634],[-63.6868,-22.0394,598.3128],[-63.6846,-22.033,599.7562],[-63.6817,-22.0315,604.0434],[-63.6831,-22.0307,605.6281],[-63.6824,-22.0293,606.9736],[-63.6877,-22.0259,618.8316],[-63.6889,-22.0117,663.0178],[-63.6968,-22.0152,733.6952],[-63.6982,-22.0135,693.2148],[-63.7025,-22.0159,710.3632],[-63.707,-22.0122,797.3784],[-63.7063,-22.0095,771.4573],[-63.7099,-22.0037,874.2163],[-63.7177,-21.9995,1132.3225],[-63.9308,-21.9993,699.3626],[-63.9384,-22.0069,651.6658],[-63.9379,-22.0114,663.3607],[-63.9408,-22.0088,653.9998],[-63.9442,-22.0093,686.6057],[-63.9436,-22.0121,678.3005],[-63.9388,-22.0143,680.6638],[-63.9379,-22.0162,658.1116],[-63.9452,-22.0248,641.2002],[-63.9413,-22.029,638.2592],[-63.9446,-22.0342,634.1183],[-63.9484,-22.0368,635.6835],[-63.9535,-22.0368,634.6781],[-63.9496,-22.0431,631.9402],[-63.9555,-22.0461,634.1703],[-63.95,-22.0501,627.9865],[-63.9551,-22.0527,639.22],[-63.9566,-22.0574,628.1249],[-63.954,-22.0577,624.8099],[-63.9507,-22.0556,624.5549],[-63.9498,-22.0578,625.983],[-63.9623,-22.0651,632.861],[-63.9573,-22.0677,644.0947],[-63.9602,-22.0772,633.4669],[-63.9575,-22.081,652.5531],[-63.9619,-22.0837,615.4273],[-63.9613,-22.0848,622.6735],[-63.9581,-22.0841,613.528],[-63.9582,-22.0861,614.7752],[-63.9607,-22.0871,619.0403],[-63.9632,-22.0923,618.3173],[-63.9663,-22.0926,607.7744],[-63.9703,-22.0885,611.0977],[-63.9745,-22.0872,620.7207],[-63.975,-22.0803,609.6896],[-63.9798,-22.0809,608.3521],[-63.9828,-22.0863,617.4458],[-63.9773,-22.0859,598.9671],[-63.9768,-22.092,597.422],[-63.9781,-22.0931,609.2407],[-63.9801,-22.0912,604.2712],[-63.9865,-22.0936,599.9097],[-63.9909,-22.104,590.4044],[-63.9901,-22.1051,588.3459],[-63.9862,-22.1044,625.0729],[-63.9859,-22.109,592.53],[-63.9888,-22.1097,607.3851],[-63.9898,-22.1066,585.0522],[-63.9928,-22.1051,583.9707],[-64.0001,-22.1076,620.3629],[-63.9976,-22.1107,581.5693],[-63.9927,-22.1083,594.1879],[-63.9932,-22.1139,587.5748],[-63.9894,-22.1143,595.4918],[-63.99,-22.1178,577.1819],[-63.9956,-22.1205,575.3231],[-63.9985,-22.1247,568.7243],[-63.9975,-22.129,565.2124],[-63.9937,-22.1302,563.8083],[-63.9925,-22.133,603.6857],[-63.996,-22.1333,563.9189],[-63.9995,-22.1382,579.0281],[-63.9969,-22.142,561.3599],[-64.005,-22.1533,574.8272],[-64.0004,-22.1564,551.5361],[-64.0006,-22.158,551.8603],[-64.0037,-22.1607,554.5325],[-64.0069,-22.1606,550.5213],[-64.0094,-22.166,550.9056],[-64.0168,-22.1679,546.3604],[-64.0238,-22.1766,542.791],[-64.0166,-22.1873,558.9156],[-64.0257,-22.1882,532.9331],[-64.0331,-22.1965,529.6372],[-64.0323,-22.2027,527.6267],[-64.0258,-22.21,534.9969],[-64.0312,-22.2182,526.2221],[-64.039,-22.2214,534.1648],[-64.0383,-22.2259,548.5474],[-64.032,-22.2274,516.1213],[-64.0322,-22.2346,516.6975],[-64.0398,-22.235,518.1932],[-64.0391,-22.238,519.1082],[-64.0334,-22.2393,521.4926],[-64.0333,-22.2424,530.9507],[-64.0357,-22.2435,527.2072],[-64.0422,-22.2418,513.6128],[-64.0429,-22.244,509.4817],[-64.0395,-22.245,509.4486],[-64.0426,-22.2474,508.2742],[-64.0511,-22.2446,506.4043],[-64.0563,-22.2457,506.1539],[-64.058,-22.2379,518.0421],[-64.0618,-22.2379,527.0859],[-64.0738,-22.2592,499.8748],[-64.0733,-22.2672,492.6438],[-64.0765,-22.2746,489.1668],[-64.0734,-22.2767,487.8157],[-64.0739,-22.2807,487.0538],[-64.075,-22.2829,485.1433],[-64.0775,-22.2836,484.6057],[-64.0796,-22.2775,492.1279],[-64.082,-22.2783,498.9763],[-64.0806,-22.282,488.7429],[-64.0813,-22.285,484.4182],[-64.0915,-22.3004,482.205],[-64.0909,-22.3035,476.2602],[-64.086,-22.3046,476.9941],[-64.0859,-22.3097,481.2534],[-64.0947,-22.3135,475.5736],[-64.0985,-22.317,472.0463],[-64.0974,-22.3187,473.1577],[-64.0927,-22.3174,477.9321],[-64.0903,-22.3189,474.9579],[-64.0922,-22.324,476.372],[-64.0998,-22.3262,494.2189],[-64.1018,-22.329,478.2257],[-64.0993,-22.3352,464.3455],[-64.1035,-22.3368,471.5666],[-64.0991,-22.3381,466.2953],[-64.0981,-22.343,480.3108],[-64.1041,-22.3554,459.6843],[-64.1171,-22.3643,456.7492],[-64.1166,-22.3677,486.701],[-64.1086,-22.3818,454.7171],[-64.1121,-22.3842,451.8789],[-64.1172,-22.3818,452.4519],[-64.1199,-22.3821,451.7244],[-64.1208,-22.3843,456.4492],[-64.1195,-22.3941,449.4528],[-64.1161,-22.4035,470.0555],[-64.1167,-22.4071,447.7099],[-64.1214,-22.4084,447.0162],[-64.1334,-22.4067,447.6342],[-64.1426,-22.4117,442.7494],[-64.1446,-22.4162,441.2408],[-64.1384,-22.4271,438.4012],[-64.1387,-22.4306,435.4993],[-64.1421,-22.4333,436.4564],[-64.1506,-22.4361,434.6465],[-64.1544,-22.4525,434.4944],[-64.1609,-22.4546,427.2943],[-64.1618,-22.4673,435.7054],[-64.1664,-22.47,431.4587],[-64.1738,-22.4664,431.1343],[-64.1832,-22.4732,422.2575],[-64.1868,-22.4798,438.9802],[-64.1876,-22.4887,419.4741],[-64.1901,-22.4916,424.3367],[-64.1977,-22.4896,422.0266],[-64.2074,-22.5057,414.561],[-64.214,-22.5259,412.1694],[-64.2163,-22.5435,411.9217],[-64.2274,-22.5432,408.4283],[-64.2308,-22.5574,408.6781],[-64.2398,-22.5554,418.8927],[-64.2428,-22.5639,402.8911],[-64.2441,-22.58,397.2812],[-64.2432,-22.5986,397.623],[-64.2379,-22.6087,398.3444],[-64.2389,-22.6206,399.4574],[-64.2412,-22.6274,393.6682],[-64.2476,-22.6329,393.2673],[-64.2561,-22.6283,391.8358],[-64.2645,-22.65,385.6001],[-64.2422,-22.6653,387.4886],[-64.2444,-22.6706,387.3701],[-64.2572,-22.6721,384.2061],[-64.2612,-22.6763,385.2197],[-64.2616,-22.6872,379.7489],[-64.2648,-22.696,378.1831],[-64.2639,-22.7009,381.1051],[-64.2711,-22.7083,376.1447],[-64.2717,-22.7164,377.7274],[-64.2673,-22.728,374.5618],[-64.2707,-22.7343,373.6471],[-64.2701,-22.737,370.4395],[-64.269,-22.7395,370.7561],[-64.2641,-22.7408,369.8874],[-64.2679,-22.7444,374.5557],[-64.2752,-22.7446,373.3162],[-64.2814,-22.7475,372.5847],[-64.2835,-22.752,372.4193],[-64.2788,-22.7552,371.885],[-64.2674,-22.7577,372.9308],[-64.2651,-22.7641,372.0898],[-64.2676,-22.7701,369.8532],[-64.2776,-22.7784,366.3362],[-64.2785,-22.7838,372.9415],[-64.2757,-22.7888,370.7252],[-64.2769,-22.7912,367.8749],[-64.2851,-22.7953,363.3676],[-64.2863,-22.808,363.5394],[-64.2845,-22.8298,356.3975],[-64.2878,-22.8361,354.6922],[-64.305,-22.8378,359.4747],[-64.3066,-22.840699999999998,356.8782],[-64.2981,-22.8542,350.1831],[-64.296,-22.8509,354.9453],[-64.2981,-22.8622,347.9853],[-64.2993,-22.8623,347.9853],[-64.2976,-22.8762,355.2009],[-64.2988,-22.8817,356.693],[-64.3096,-22.8954,353.6179],[-64.309,-22.9011,351.7477],[-64.3135,-22.9051,352.5865],[-64.3158,-22.9105,355.0709],[-64.3164,-22.9161,349.4826],[-64.3137,-22.9213,348.9037],[-64.3146,-22.9267,347.8124],[-64.3249,-22.9333,345.4364],[-64.3286,-22.9376,344.7744],[-64.3254,-22.9488,344.2949],[-64.324,-22.9718,346.7173],[-64.3209,-22.9828,341.289],[-64.3109,-22.9897,338.7477],[-64.2943,-22.9969,335.6207],[-64.285,-23.0182,345.7969],[-64.2748,-23.0245,340.9995],[-64.2631,-23.028,420.4766],[-64.248,-23.053,445.1382],[-64.2433,-23.0569,456.6774],[-64.2404,-23.062,408.3367],[-64.2385,-23.0675,432.1684],[-64.2395,-23.0734,408.5314],[-64.2366,-23.0781,379.0231],[-64.2322,-23.0768,398.6347],[-64.2297,-23.0709,437.2535],[-64.2247,-23.0673,473.3143],[-64.2186,-23.0679,444.2172],[-64.2133,-23.0711,447.271],[-64.2107,-23.076,481.431],[-64.2058,-23.1044,326.832],[-64.2084,-23.1096,320.7274],[-64.2138,-23.1125,346.9593],[-64.2174,-23.1169,346.8992],[-64.2135,-23.121,343.5663],[-64.2018,-23.1176,363.0756],[-64.2032,-23.1291,326.9194],[-64.2004,-23.1333,331.9507],[-64.1889,-23.1289,339.119],[-64.195,-23.1454,377.6114],[-64.1957,-23.1512,312.1317],[-64.1932,-23.156,323.6418],[-64.1747,-23.1712,390.4269],[-64.1797,-23.1747,367.8925],[-64.1855,-23.1745,364.3911],[-64.2105,-23.157,313.786],[-64.2166,-23.1554,325.812],[-64.222,-23.1576,374.1244],[-64.2284,-23.1675,394.3705],[-64.23,-23.173,361.0496],[-64.2298,-23.1845,342.2886],[-64.2282,-23.1901,336.8607],[-64.219,-23.2049,302.6288],[-64.209,-23.2119,309.8526],[-64.2032,-23.2138,307.7538],[-64.1906,-23.2127,336.3733],[-64.1777,-23.2449,304.6007],[-64.1722,-23.2453,333.5062],[-64.1663,-23.2432,346.8216],[-64.1504,-23.234,350.7156],[-64.1381,-23.2337,349.999],[-64.1081,-23.2261,287.7345],[-64.102,-23.2269,285.5566],[-64.0908,-23.2318,283.3329],[-64.0811,-23.2388,285.7311],[-64.0717,-23.2539,287.7555],[-64.0665,-23.2562,288.506],[-64.0352,-23.2557,287.8505],[-64.022,-23.2532,286.7856],[-64.017,-23.2549,285.476],[-64.0073,-23.2621,287.9374],[-63.9959,-23.2666,278.2697],[-63.9914,-23.27,283.1679],[-63.9907,-23.2756,283.6417],[-64.0039,-23.2874,284.9435],[-64.0041,-23.2929,282.9938],[-64.0,-23.2971,283.6528],[-63.9943,-23.2999,283.9114],[-63.9889,-23.3015,283.8111],[-63.9783,-23.2949,283.2547],[-63.9726,-23.2934,278.6537],[-63.9684,-23.289,277.4469],[-63.9626,-23.287,278.4043],[-63.9565,-23.2876,275.1114],[-63.9397,-23.2949,278.0111],[-63.8975,-23.3046,268.0],[-63.8854,-23.3026,267.5],[-63.8806,-23.2988,271.7014],[-63.8685,-23.2961,271.1292],[-63.8563,-23.2967,272.4763],[-63.8291,-23.3103,272.4372],[-63.816,-23.3226,264.0],[-63.8065,-23.3375,270.6901],[-63.797,-23.3447,272.57],[-63.785,-23.3475,268.1634],[-63.7539,-23.3484,262.7235],[-63.7454,-23.3569,268.6467],[-63.7402,-23.3594,267.8617],[-63.7277,-23.3604,268.6762],[-63.7089,-23.3594,258.3846],[-63.6794,-23.3887,260.3217],[-63.6729,-23.3985,262.2382],[-63.6604,-23.4112,263.1613],[-63.6299,-23.431,260.6902],[-63.6042,-23.456,257.2476],[-63.5992,-23.4572,254.54],[-63.594,-23.4538,255.5553],[-63.5644,-23.424,257.4355],[-63.5356,-23.4458,249.2013],[-63.5146,-23.4581,247.2115],[-63.4913,-23.4662,250.5926],[-63.4292,-23.5042,243.9106],[-63.4105,-23.5192,243.5006],[-63.3979,-23.5318,248.3857],[-63.3833,-23.5503,238.5038],[-63.3696,-23.5631,238.9306],[-63.3451,-23.5772,240.2003],[-63.3195,-23.5878,237.2306],[-63.2944,-23.4505,240.2189],[-63.2706,-23.4518,239.1205],[-63.1952,-22.9195,237.6988],[-63.119,-22.9197,237.394],[-63.1187,-22.4818,294.8859],[-63.1319,-22.4811,297.8061],[-63.1336,-22.0037,332.7719]]]]}
,"properties": {"GID_2": "ARG.17.8_1","GID_0": "ARG","country": "Argentina","GID_1": "ARG.17_1","state": "Salta","NL_NAME_1": "NA","county": "GeneralJosédeSanMartín","VARNAME_2": "GeneralJosedeSanMarti|Genera","NL_NAME_2": "NA","TYPE_2": "Departamento","ENGTYPE_2": "Department","CC_2": "NA","HASC_2": "AR.SA.GM","name": "GeneralJosédeSanMartín.county","area_km2": 15958.21,"hist_schema_id": "Elevation0-9000","hist_area_km2": {"225": 59.81,"250": 3278.55,"275": 1811.15,"300": 1166.54,"325": 1168.15,"350": 1029.39,"375": 968.47,"400": 888.86,"425": 690.73,"450": 510.01,"475": 375.76,"500": 330.48,"525": 363.09,"550": 377.68,"575": 370.05,"600": 317.31,"625": 256.95,"650": 226.26,"675": 208.46,"700": 208.11,"725": 196.46,"750": 179.56,"775": 164.74,"800": 152.41,"825": 136.62,"850": 112.18,"875": 88.12,"900": 63.0,"925": 49.05,"950": 41.6,"975": 36.55,"1000": 32.57,"1025": 27.0,"1050": 22.02,"1075": 14.74,"1100": 10.89,"1125": 8.87,"1150": 5.63,"1175": 3.51,"1200": 2.65,"1225": 1.67,"1250": 1.35,"1275": 0.9,"1300": 0.24}}}