{"type": "Feature","bbox": [-68.944784388394311,-38.645775016536305,-68.511480393256491,-38.459148159934841],"geometry": {"type": "Polygon","coordinates": [[[-68.555046284071977,-38.573950169516195,409.0],[-68.5747686805898,-38.549812311091387,409.0],[-68.585807335357245,-38.538920838387526,426.641],[-68.599053721078164,-38.530089914573551,443.8898],[-68.6170099328332,-38.522730811395263,427.7717],[-68.636143601096748,-38.518904077742548,435.1638],[-68.655718815551012,-38.518609713615433,432.6795],[-68.701786801447113,-38.526851909175122,410.0],[-68.714002912723075,-38.524202632030921,410.0],[-68.72445283923625,-38.513899887581317,410.0],[-68.733578127177339,-38.491822578046452,410.0],[-68.739023863529269,-38.484757838995279,410.0],[-68.746235784644,-38.478576192325534,410.0],[-68.754036434012988,-38.473866366291418,410.0],[-68.7625729936998,-38.4700396326387,410.0],[-68.771551099577323,-38.46739035549453,410.0],[-68.837930210245517,-38.459148159934841,432.4947],[-68.851323778030007,-38.4606199805705,416.6618],[-68.863981435496669,-38.465329806604586,410.0],[-68.8759031826455,-38.473866366291418,410.0],[-68.882379193442389,-38.480342377088306,410.0],[-68.88414537820519,-38.482697290105364,410.0],[-68.886058745031548,-38.486524023758079,410.0],[-68.886353109158676,-38.487701480266594,410.0],[-68.886500291222234,-38.488878936775137,410.0],[-68.886353109158676,-38.490056393283652,410.0],[-68.885175652650148,-38.492705670427853,410.0],[-68.88414537820519,-38.5100731539286,410.0],[-68.885617198840848,-38.516549164725518,410.0],[-68.889002386302863,-38.524202632030921,410.0],[-68.893123484082707,-38.530089914573551,410.0],[-68.89798049218038,-38.535388468861925,410.0],[-68.903426228532311,-38.54009829489604,410.0],[-68.909313511074942,-38.543925028548756,410.0],[-68.916525432189673,-38.546868669820071,410.0],[-68.930213364101292,-38.550695403472787,410.0],[-68.936395010771065,-38.554816501252617,473.0019],[-68.944784388394311,-38.568945979354936,439.7148],[-68.941693565059424,-38.580426180313083,416.2964],[-68.93094927441912,-38.589257104127029,410.0],[-68.892387573764879,-38.605741495246406,410.0],[-68.867219440895113,-38.62104842985724,410.0],[-68.858094152954038,-38.624875163509955,410.0],[-68.848527318822249,-38.627230076527013,410.0],[-68.830865471194357,-38.626346984145613,410.0],[-68.813792351820723,-38.620459701602982,410.0],[-68.782736936408327,-38.602209125720833,410.0],[-68.769637732750965,-38.5927894736526,410.0],[-68.76007089861919,-38.582781093330141,410.0],[-68.743292143372685,-38.55834887077819,410.0],[-68.731959124478109,-38.548046126328586,410.0],[-68.718712738757191,-38.546279941565814,410.0],[-68.704877624782,-38.550695403472787,410.0],[-68.667934926826973,-38.577776903168882,429.7099],[-68.654982905233183,-38.5842529139658,409.0],[-68.621425394740172,-38.592495109525487,409.0],[-68.605676913938623,-38.599854212703775,409.0],[-68.591694617899876,-38.610156957153379,409.0],[-68.56829266979291,-38.633411723196787,409.0],[-68.557695561216164,-38.641065190502189,409.0],[-68.545773814067331,-38.645480652409191,409.0],[-68.531055607710755,-38.645775016536305,409.0],[-68.518839496434779,-38.64283137526499,409.0],[-68.512069121510763,-38.637532820976617,409.0],[-68.511480393256491,-38.629879353671186,409.0],[-68.5179564040534,-38.619282245094467,409.0],[-68.555046284071977,-38.573950169516195,409.0]]]}
,"properties": {"featurecla": "Lake","scalerank": 9,"name": "null425","name_abb": null,"name_alt": null,"note": "_untitled_327","delta": null,"dam_name": null,"year": -99,"admin": null,"min_zoom": 7.0,"min_label": 8.0,"area_km2": 350.8385,"hist_schema_id": "Elevation0-9000","hist_area_km2": {"400": 333.1953,"425": 12.1222,"450": 4.1617,"475": 1.1108,"500": 0.2487}}}