{"type": "Feature","bbox": [-68.5903,-26.9134,-66.5294,-25.1563],"geometry": {"type": "MultiPolygon","coordinates": [[[[-68.4833,-25.1563,5149.6479],[-68.4863,-25.1593,5151.2324],[-68.4869,-25.1627,5157.5635],[-68.4987,-25.1613,5341.6147],[-68.5073,-25.1681,5675.9165],[-68.5087,-25.1988,5438.1709],[-68.504,-25.2107,5367.0273],[-68.5064,-25.2171,5324.959],[-68.5042,-25.2182,5296.5483],[-68.5034,-25.221,5287.7871],[-68.51,-25.2274,5192.9834],[-68.509,-25.2326,5168.7891],[-68.5106,-25.2342,5156.0542],[-68.5147,-25.2317,5116.4819],[-68.5272,-25.2313,5104.8359],[-68.5276,-25.2345,5105.7778],[-68.5362,-25.2381,5156.248],[-68.5347,-25.2422,5264.5859],[-68.5354,-25.2473,5196.4316],[-68.5411,-25.2515,5194.5195],[-68.5438,-25.2513,5189.2051],[-68.5441,-25.2588,5161.5254],[-68.5429,-25.2607,5200.5605],[-68.55,-25.2613,5263.3345],[-68.5419,-25.2723,5240.333],[-68.5421,-25.2757,5225.123],[-68.533,-25.2824,5036.0181],[-68.5317,-25.2878,4967.7793],[-68.5288,-25.289,4996.5044],[-68.5301,-25.2913,5060.7666],[-68.5359,-25.2934,5106.1123],[-68.5392,-25.2983,5228.3325],[-68.5455,-25.2989,5410.3628],[-68.5441,-25.3138,5063.4248],[-68.5358,-25.321,5220.7134],[-68.5319,-25.3193,5200.1494],[-68.5303,-25.3201,5189.4458],[-68.5213,-25.3296,5355.1592],[-68.5221,-25.3322,5396.2397],[-68.5205,-25.3352,5452.8076],[-68.5218,-25.3368,5454.0317],[-68.5189,-25.3398,5384.7329],[-68.5191,-25.3422,5366.9673],[-68.5209,-25.3479,5365.833],[-68.5253,-25.3492,5340.8828],[-68.5272,-25.352,5256.9712],[-68.5244,-25.3597,5145.8408],[-68.5269,-25.3628,5171.2612],[-68.5249,-25.3649,5163.3345],[-68.5251,-25.3669,5126.9146],[-68.5284,-25.3701,5044.6924],[-68.523,-25.375,5072.0425],[-68.5234,-25.3771,5147.4268],[-68.5292,-25.3817,5217.5845],[-68.5359,-25.3786,5108.2134],[-68.5459,-25.3855,5028.8145],[-68.552,-25.3936,5239.7119],[-68.5485,-25.3948,5239.7344],[-68.5495,-25.3993,5205.2935],[-68.5549,-25.4019,5092.1406],[-68.557,-25.4065,5094.1562],[-68.5635,-25.4074,5139.9707],[-68.5668,-25.4097,5166.54],[-68.5711,-25.4146,5327.0361],[-68.5707,-25.4178,5342.5073],[-68.578,-25.4194,5274.7378],[-68.5842,-25.4145,5345.1885],[-68.5903,-25.4156,5350.0498],[-68.5879,-25.4236,5278.5811],[-68.5886,-25.4378,5078.4443],[-68.587,-25.4416,5096.8818],[-68.5895,-25.4484,5096.0229],[-68.5818,-25.4589,4790.3818],[-68.574,-25.4754,4707.5967],[-68.5745,-25.4785,4692.0967],[-68.5697,-25.4817,4655.9043],[-68.5717,-25.4878,4724.0952],[-68.5702,-25.4921,4839.501],[-68.5711,-25.4986,4999.0088],[-68.5654,-25.4998,4968.9043],[-68.564,-25.5014,4891.7075],[-68.5654,-25.5029,4904.7666],[-68.5626,-25.5059,4842.9854],[-68.5544,-25.5043,4739.0913],[-68.5514,-25.5068,4742.2144],[-68.5471,-25.5065,4752.4814],[-68.5435,-25.5087,4759.0757],[-68.5413,-25.5071,4768.0366],[-68.5389,-25.5092,4761.0635],[-68.5431,-25.5233,4638.54],[-68.5482,-25.527,4710.4668],[-68.5438,-25.5304,4728.4736],[-68.5436,-25.5354,4772.9736],[-68.5375,-25.5431,4917.603],[-68.5399,-25.5475,4869.8057],[-68.543,-25.5492,4904.9604],[-68.5382,-25.5538,4830.6201],[-68.5257,-25.5578,4893.7319],[-68.5262,-25.5668,4816.8257],[-68.5186,-25.5724,5099.9673],[-68.5322,-25.5814,4852.7793],[-68.5337,-25.5855,4835.5938],[-68.5325,-25.588,4770.7715],[-68.541,-25.5969,5013.8335],[-68.5409,-25.6057,5090.2227],[-68.5387,-25.6111,5249.5532],[-68.5452,-25.6174,5327.563],[-68.5462,-25.6294,5025.0684],[-68.5446,-25.6341,4972.3604],[-68.5395,-25.6402,5049.6846],[-68.5241,-25.6439,4934.3843],[-68.5115,-25.6722,5651.1406],[-68.5048,-25.671,5601.2559],[-68.4999,-25.6729,5638.9678],[-68.4982,-25.6789,5620.0967],[-68.4948,-25.6785,5630.9365],[-68.4927,-25.6803,5615.5254],[-68.4919,-25.6861,5567.0913],[-68.4841,-25.6995,5662.1157],[-68.4797,-25.699,5691.0723],[-68.4769,-25.7025,5729.9502],[-68.4785,-25.706,5756.0063],[-68.4403,-25.8928,4829.4585],[-68.4198,-25.9765,4591.6108],[-68.4042,-26.0659,4987.5098],[-68.3811,-26.1779,6030.082],[-68.5574,-26.2865,5401.292],[-68.5651,-26.3171,4339.5552],[-68.588,-26.4921,6103.6309],[-68.4373,-26.7021,4816.0552],[-68.3643,-26.8002,5888.1035],[-68.2986,-26.8026,5536.0205],[-68.2588,-26.7993,5243.4917],[-68.2421,-26.8027,5140.4053],[-68.2103,-26.7913,5152.8911],[-68.1994,-26.7887,4954.0674],[-68.177,-26.7928,4822.4604],[-68.1486,-26.7953,4784.9453],[-68.0974,-26.7909,5139.2476],[-68.0632,-26.7906,5003.2158],[-68.0347,-26.7929,5120.7778],[-68.0123,-26.7969,5090.5459],[-67.9794,-26.8056,5137.6108],[-67.9433,-26.8215,4597.8423],[-67.9152,-26.8237,4608.7998],[-67.8407,-26.8226,4158.7534],[-67.8123,-26.82,4478.291],[-67.7732,-26.8123,4318.4946],[-67.7469,-26.8022,4195.7627],[-67.7305,-26.7977,4086.1982],[-67.7136,-26.7954,4080.0364],[-67.7022,-26.7959,4064.7795],[-67.6853,-26.7991,4215.3042],[-67.6693,-26.8047,4412.4028],[-67.6427,-26.8241,4058.2617],[-67.6227,-26.8422,3862.1311],[-67.5369,-26.8832,4495.8018],[-67.4988,-26.906,4668.4307],[-67.483,-26.9122,4491.001],[-67.4661,-26.9134,4396.5488],[-67.455,-26.9099,4456.1289],[-67.4465,-26.9034,4319.8267],[-67.4374,-26.8902,4288.96],[-67.419,-26.8525,4116.1611],[-67.3927,-26.819,3989.999],[-67.375,-26.7988,4090.8533],[-67.3309,-26.7587,3756.7217],[-67.3023,-26.7417,3782.6509],[-67.2715,-26.7282,3728.5366],[-67.2389,-26.7187,3854.2063],[-67.1835,-26.706,3716.9705],[-67.1521,-26.6938,3786.731],[-67.1376,-26.6856,3931.0879],[-67.0797,-26.6439,4751.3613],[-67.0503,-26.6195,4728.8457],[-67.0406,-26.6069,4902.46],[-67.0314,-26.5881,4727.5361],[-67.0261,-26.5681,4526.6816],[-67.0237,-26.5477,4716.2178],[-67.0232,-26.5221,4845.6885],[-67.0265,-26.4811,5145.708],[-67.0378,-26.4309,5325.4619],[-67.0363,-26.4105,5439.0527],[-67.0327,-26.3954,5685.3882],[-67.0265,-26.3811,5648.1226],[-66.9962,-26.3318,4729.7588],[-66.9822,-26.2715,4381.8511],[-66.9817,-26.2613,4399.7944],[-66.9847,-26.2357,4313.0942],[-66.9909,-26.2214,4365.6426],[-66.9939,-26.2063,4388.3823],[-66.9943,-26.1858,4481.5811],[-66.9919,-26.1705,4592.0479],[-66.9866,-26.1559,4699.0347],[-66.9791,-26.142,4790.0596],[-66.9509,-26.1098,4675.6016],[-66.9231,-26.0919,4839.5576],[-66.8851,-26.0822,4923.9023],[-66.8662,-26.0708,4901.8833],[-66.8414,-26.0244,4786.7446],[-66.8398,-26.0196,4776.2324],[-66.8414,-26.0151,4729.8193],[-66.8733,-25.9788,4957.6084],[-66.8845,-25.9608,5105.6108],[-66.886,-25.9509,5213.0625],[-66.8855,-25.9457,5082.7866],[-66.8525,-25.8982,4900.7993],[-66.8422,-25.8916,4745.2002],[-66.8014,-25.8914,4792.3232],[-66.8061,-25.8503,4656.9351],[-66.814,-25.8095,4609.0547],[-66.8171,-25.7789,4621.4111],[-66.8157,-25.7423,4561.3599],[-66.7922,-25.7186,4368.9946],[-66.7855,-25.7093,4302.2505],[-66.7739,-25.7,4212.7407],[-66.7685,-25.6976,4243.3906],[-66.7408,-25.6961,4370.7305],[-66.7183,-25.6871,4338.9922],[-66.6747,-25.6901,4377.2344],[-66.6275,-25.6796,4592.1772],[-66.6152,-25.6786,4378.2119],[-66.5958,-25.6807,4074.1965],[-66.5906,-25.6795,3894.5034],[-66.5871,-25.6757,3839.0884],[-66.5764,-25.6484,4217.0444],[-66.5584,-25.6129,3914.9773],[-66.5439,-25.5615,3291.9729],[-66.5339,-25.5149,4250.9639],[-66.5309,-25.4927,4516.9546],[-66.5294,-25.4591,4432.0718],[-66.5321,-25.4341,4315.1265],[-66.5465,-25.3741,4264.6567],[-66.548,-25.3294,4273.6938],[-66.5571,-25.2746,4331.4795],[-66.6336,-25.2779,4545.6216],[-66.9373,-25.279,4025.7244],[-67.3683,-25.2655,4407.1943],[-67.4983,-25.2596,3382.0532],[-67.5716,-25.2599,4211.5542],[-67.9854,-25.2397,4338.873],[-68.158,-25.2124,3910.8428],[-68.4833,-25.1563,5149.6479]]]]}
,"properties": {"GID_2": "ARG.2.4_1","GID_0": "ARG","country": "Argentina","GID_1": "ARG.2_1","state": "Catamarca","NL_NAME_1": "NA","county": "AntofagastadelaSierra","VARNAME_2": "Antofagasta","NL_NAME_2": "NA","TYPE_2": "Departamento","ENGTYPE_2": "Department","CC_2": "NA","HASC_2": "AR.CT.AS","name": "AntofagastadelaSierra.county","area_km2": 28512.57,"hist_schema_id": "Elevation0-9000","hist_area_km2": {"3000": 121.96,"3025": 115.77,"3050": 136.02,"3075": 123.22,"3100": 96.97,"3125": 78.65,"3150": 73.7,"3175": 74.56,"3200": 67.37,"3225": 72.63,"3250": 76.92,"3275": 135.39,"3300": 97.55,"3325": 891.65,"3350": 276.14,"3375": 234.85,"3400": 213.69,"3425": 200.73,"3450": 224.4,"3475": 203.93,"3500": 203.57,"3525": 196.68,"3550": 197.9,"3575": 199.77,"3600": 208.63,"3625": 210.31,"3650": 212.26,"3675": 216.13,"3700": 208.58,"3725": 256.99,"3750": 258.46,"3775": 270.68,"3800": 287.62,"3825": 294.9,"3850": 329.38,"3875": 330.15,"3900": 325.36,"3925": 314.53,"3950": 324.69,"3975": 956.47,"4000": 449.89,"4025": 470.72,"4050": 450.41,"4075": 441.77,"4100": 421.89,"4125": 422.55,"4150": 460.38,"4175": 466.81,"4200": 485.46,"4225": 503.87,"4250": 540.49,"4275": 566.99,"4300": 582.91,"4325": 597.89,"4350": 568.86,"4375": 542.14,"4400": 499.51,"4425": 481.13,"4450": 472.53,"4475": 480.19,"4500": 478.74,"4525": 457.49,"4550": 456.83,"4575": 462.04,"4600": 448.68,"4625": 427.42,"4650": 416.07,"4675": 385.73,"4700": 355.41,"4725": 337.69,"4750": 331.22,"4775": 323.69,"4800": 305.84,"4825": 292.17,"4850": 280.18,"4875": 270.35,"4900": 266.25,"4925": 244.24,"4950": 219.06,"4975": 199.84,"5000": 184.75,"5025": 173.25,"5050": 164.42,"5075": 154.72,"5100": 147.41,"5125": 135.61,"5150": 130.42,"5175": 122.42,"5200": 108.74,"5225": 93.91,"5250": 85.5,"5275": 79.58,"5300": 71.89,"5325": 65.2,"5350": 57.89,"5375": 55.17,"5400": 49.11,"5425": 42.68,"5450": 39.25,"5475": 36.34,"5500": 34.64,"5525": 30.39,"5550": 29.08,"5575": 26.71,"5600": 24.41,"5625": 21.49,"5650": 18.42,"5675": 17.74,"5700": 14.02,"5725": 12.2,"5750": 10.62,"5775": 9.53,"5800": 8.48,"5825": 7.56,"5850": 5.91,"5875": 6.69,"5900": 5.78,"5925": 5.34,"5950": 5.95,"5975": 5.27,"6000": 4.47,"6025": 3.65,"6050": 3.24,"6075": 2.59,"6100": 2.59,"6125": 1.93,"6150": 1.72,"6175": 1.81,"6200": 1.3,"6225": 1.16,"6250": 1.26,"6275": 1.09,"6300": 0.86,"6325": 0.8,"6350": 0.44,"6375": 0.46}}}