{"type":"Feature","properties":{"GID_2":"ARG.11.14_1","GID_0":"ARG","country":"Argentina","GID_1":"ARG.11_1","state":"LaPampa","NL_NAME_1":"NA","county":"Loventué","VARNAME_2":"Victorica","NL_NAME_2":"NA","TYPE_2":"Departamento","ENGTYPE_2":"Department","CC_2":"NA","HASC_2":"AR.LP.LO","name":"Loventué.county"},
"geometry":{"type": "MultiPolygon","coordinates": [[[[-65.9823,-36.7806,291.5401],[-65.9774,-36.961,278.3978],[-65.7861,-36.9557,297.4057],[-65.6223,-36.9534,320.98],[-65.6232,-36.9787,301.1671],[-65.0603,-36.9869,303.0727],[-65.0437,-35.9993,286.5759],[-65.1022,-35.9969,293.6699],[-66.0034,-35.999,343.7941],[-65.9823,-36.7806,291.5401]]]]}}