{"type":"Feature","properties":{"GID_2":"ARG.1.56_1","GID_0":"ARG","country":"Argentina","GID_1":"ARG.1_1","state":"BuenosAires","NL_NAME_1":"NA","county":"GeneralViamonte","VARNAME_2":"NA","NL_NAME_2":"NA","TYPE_2":"Partido","ENGTYPE_2":"Part","CC_2":"NA","HASC_2":"AR.BA.GT","name":"GeneralViamonte.county"},
"geometry":{"type": "MultiPolygon","coordinates": [[[[-60.8168,-34.7882,78.6038],[-60.846,-34.7646,80.8602],[-60.9012,-34.8106,77.6819],[-61.0496,-34.6915,75.7663],[-61.1837,-34.804,77.797],[-61.1321,-34.8485,74.6419],[-61.4236,-35.0834,81.6876],[-61.2992,-35.1873,76.6197],[-61.2773,-35.1692,76.9996],[-61.158,-35.266,75.8516],[-61.0622,-35.1874,68.6769],[-60.9863,-35.2458,69.3283],[-60.8694,-35.148,63.614],[-60.875,-35.1437,61.9088],[-60.7552,-35.0406,62.6822],[-60.8482,-34.969,64.2215],[-60.7273,-34.8605,70.4705],[-60.8168,-34.7882,78.6038]]]]}}