{"type":"Feature","properties":{"GID_2":"ARG.1.22_1","GID_0":"ARG","country":"Argentina","GID_1":"ARG.1_1","state":"BuenosAires","NL_NAME_1":"NA","county":"CarlosCasares","VARNAME_2":"NA","NL_NAME_2":"NA","TYPE_2":"Partido","ENGTYPE_2":"Part","CC_2":"NA","HASC_2":"AR.BA.CC","name":"CarlosCasares.county"},
"geometry":{"type": "MultiPolygon","coordinates": [[[[-61.038,-35.8773,80.7262],[-61.1081,-35.8228,79.9863],[-61.0382,-35.7628,79.1793],[-61.1781,-35.6525,81.1132],[-61.1688,-35.6435,81.2631],[-61.2731,-35.5604,82.2918],[-61.2899,-35.5741,82.0807],[-61.5311,-35.3782,87.5131],[-61.725,-35.5368,82.0],[-61.6622,-35.5867,84.036],[-61.6553,-35.5801,84.1979],[-61.5737,-35.648,82.1052],[-61.5973,-35.6669,84.6428],[-61.5085,-35.7409,83.7228],[-61.6385,-35.8452,85.2457],[-61.5352,-35.929,87.042],[-61.5539,-35.9463,87.5239],[-61.3965,-36.0677,92.1159],[-61.3386,-36.0181,89.31],[-61.2716,-36.0713,89.5992],[-61.038,-35.8773,80.7262]]]]}}