{"type":"Feature","properties":{"GID_2":"ARG.12.3_1","GID_0":"ARG","country":"Argentina","GID_1":"ARG.12_1","state":"LaRioja","NL_NAME_1":"NA","county":"CastroBarros","VARNAME_2":"Aminga","NL_NAME_2":"NA","TYPE_2":"Departamento","ENGTYPE_2":"Department","CC_2":"NA","HASC_2":"AR.LR.CB","name":"CastroBarros.county"},
"geometry":{"type": "MultiPolygon","coordinates": [[[[-67.0119,-28.6038,3050.9883],[-67.0138,-28.6209,3299.3137],[-67.0232,-28.6358,3356.8413],[-67.0477,-28.6494,3295.2866],[-67.0647,-28.6526,2999.3857],[-67.0687,-28.7186,3784.759],[-67.1422,-28.8482,3997.7427],[-67.0444,-28.9711,2486.4675],[-66.9625,-29.0092,1431.6362],[-66.9482,-29.0925,1554.3025],[-66.9433,-29.109,1600.6187],[-66.9355,-29.1198,1743.873],[-66.923,-29.1328,1759.8917],[-66.8747,-29.1614,2476.1655],[-66.8618,-29.1749,1831.3978],[-66.8446,-29.1647,1298.7197],[-66.8322,-29.1516,1396.4575],[-66.8163,-29.1204,1542.5249],[-66.7997,-29.0714,2464.0244],[-66.7907,-29.0615,2201.6055],[-66.7754,-29.049,1817.0488],[-66.7346,-28.8525,859.0613],[-66.8366,-28.628,1016.6889],[-67.0119,-28.6038,3050.9883]]]]}}