{"type":"Feature","properties":{"GID_2":"ARG.3.23_1","GID_0":"ARG","country":"Argentina","GID_1":"ARG.3_1","state":"Chaco","NL_NAME_1":"NA","county":"Tapenagá","VARNAME_2":"Charadai|Tapenag","NL_NAME_2":"NA","TYPE_2":"Departamento","ENGTYPE_2":"Department","CC_2":"NA","HASC_2":"AR.CC.TA","name":"Tapenagá.county"},
"geometry":{"type": "MultiPolygon","coordinates": [[[[-59.6105,-27.2829,67.1171],[-60.2236,-27.2799,74.4776],[-60.2258,-27.9989,60.673],[-60.0996,-27.9979,60.2304],[-59.4123,-27.9991,56.1042],[-59.4149,-27.9546,54.3094],[-59.4086,-27.4645,60.8352],[-59.5896,-27.4634,64.0847],[-59.5865,-27.2991,68.8196],[-59.6048,-27.2829,67.727],[-59.6105,-27.2829,67.1171]]]]}}