{"type": "Feature","bbox": [-57.3365,-37.0237,-56.7083,-36.3185],"geometry": {"type": "MultiPolygon","coordinates": [[[[-56.8361,-37.0237,3.8354],[-56.7985,-36.9752,5.5448],[-56.7871,-36.9562,3.6858],[-56.7588,-36.9232,8.5584],[-56.744,-36.9006,9.9784],[-56.7223,-36.8769,11.7168],[-56.7087,-36.8443,10.424],[-56.7215,-36.8167,8.3915],[-56.7085,-36.7621,7.382],[-56.7083,-36.7136,5.1565],[-56.7106,-36.6371,3.83],[-56.7167,-36.617,4.158],[-56.7162,-36.6072,3.6906],[-56.7205,-36.5599,2.8344],[-56.732,-36.5486,3.2654],[-56.7447,-36.5322,2.6679],[-56.721,-36.5338,2.9152],[-56.7241,-36.4794,2.8986],[-56.7228,-36.4597,2.9643],[-56.7282,-36.4173,2.6312],[-56.7435,-36.387,2.5103],[-56.7466,-36.3578,1.3144],[-56.7508,-36.3499,1.0289],[-56.7585,-36.3446,0.6338],[-56.759,-36.3415,0.0],[-56.764,-36.3376,0.0],[-56.7682,-36.3371,0.0],[-56.7685,-36.3357,0.0],[-56.7715,-36.3382,0.4806],[-56.7754,-36.331,0.0],[-56.7771,-36.3301,0.0],[-56.7779,-36.3321,0.1623],[-56.7793,-36.3271,0.3304],[-56.7768,-36.3257,0.6474],[-56.7762,-36.3224,0.0],[-56.7785,-36.3196,0.3766],[-56.7924,-36.3282,0.8856],[-56.7954,-36.3274,0.0],[-56.7999,-36.3299,0.5666],[-56.8079,-36.3293,0.0],[-56.8146,-36.3343,0.0],[-56.8165,-36.3321,0.0],[-56.8226,-36.3301,0.2036],[-56.8235,-36.3321,1.0233],[-56.8274,-36.3332,1.2043],[-56.831,-36.3296,0.3108],[-56.841,-36.3312,0.0],[-56.8446,-36.3293,0.0],[-56.8512,-36.3299,0.0],[-56.8543,-36.3279,0.0],[-56.866,-36.3276,0.0],[-56.869,-36.329,0.0],[-56.8688,-36.3321,0.5395],[-56.8718,-36.334,0.3002],[-56.8735,-36.3335,0.5523],[-56.8704,-36.3307,0.1425],[-56.8701,-36.3282,0.0],[-56.8785,-36.3288,0.0],[-56.8782,-36.3326,0.4223],[-56.8826,-36.3343,0.517],[-56.8829,-36.3315,0.2055],[-56.8793,-36.3293,0.0],[-56.8821,-36.329,0.0],[-56.9035,-36.3343,0.0],[-56.906,-36.3371,0.0],[-56.9038,-36.3418,0.0],[-56.9057,-36.3443,0.0],[-56.9074,-36.3432,0.4941],[-56.9065,-36.3382,0.059],[-56.9093,-36.3401,0.0],[-56.9185,-36.3335,0.0],[-56.9246,-36.3318,0.0],[-56.9318,-36.3335,0.404],[-56.9354,-36.3321,0.0],[-56.9346,-36.3338,0.0611],[-56.9382,-36.3332,0.0],[-56.9435,-36.3382,1.1484],[-56.9446,-36.3363,0.4162],[-56.9437,-36.3324,0.0],[-56.951,-36.3326,0.0],[-56.9535,-36.3365,0.8662],[-56.9535,-36.3326,0.0],[-56.9665,-36.3324,0.0],[-56.9718,-36.3346,1.2304],[-56.9712,-36.3329,0.0],[-56.9732,-36.3315,0.0],[-56.9796,-36.3321,0.0],[-56.9843,-36.3299,0.0],[-57.0085,-36.3257,0.0],[-57.0115,-36.326,0.0],[-57.0182,-36.3304,0.0],[-57.0176,-36.3271,0.0],[-57.0149,-36.3276,0.0],[-57.0146,-36.3251,0.0],[-57.0174,-36.3221,0.0],[-57.0255,-36.3185,0.4082],[-57.0354,-36.339,1.4652],[-57.0358,-36.3451,1.5247],[-57.0494,-36.3555,1.3801],[-57.0695,-36.3762,1.5785],[-57.0775,-36.3893,1.4622],[-57.0648,-36.4008,1.5441],[-57.0594,-36.4099,1.7392],[-57.0517,-36.4166,1.6696],[-57.0512,-36.4285,1.5035],[-57.0678,-36.4341,1.4552],[-57.071,-36.4382,1.4403],[-57.0859,-36.4429,2.0305],[-57.0904,-36.4544,1.8454],[-57.1,-36.4505,2.1169],[-57.1064,-36.4448,2.444],[-57.1824,-36.5141,1.2548],[-57.1729,-36.5219,1.0217],[-57.3365,-36.6702,4.5595],[-57.2492,-36.7338,2.8956],[-57.1143,-36.8364,3.8997],[-57.1055,-36.837,2.7376],[-57.0927,-36.8348,1.9662],[-57.0244,-36.8573,1.8506],[-57.0233,-36.8632,2.3642],[-57.014,-36.8641,3.1927],[-57.0141,-36.8696,2.3871],[-57.0104,-36.8713,2.884],[-57.0101,-36.88,3.4146],[-57.008,-36.8848,3.2536],[-56.9992,-36.8885,3.0479],[-56.9979,-36.902,1.0],[-57.0165,-36.9116,3.1576],[-57.0183,-36.9152,2.6128],[-57.0114,-36.9174,2.7009],[-57.008,-36.9141,1.097],[-56.9914,-36.9074,2.905],[-56.982,-36.9137,2.3339],[-56.9878,-36.9324,3.1287],[-56.9897,-36.9544,2.6352],[-56.9758,-36.9598,3.6814],[-56.9634,-36.9626,4.7981],[-56.9469,-36.9637,1.8474],[-56.9525,-36.9762,3.995],[-56.9495,-36.9824,2.3167],[-56.9512,-36.9896,2.4047],[-56.9556,-36.993,2.9002],[-56.9563,-36.9978,3.2866],[-56.928,-37.0062,2.4754],[-56.9045,-37.0059,3.8992],[-56.8987,-37.0035,2.9522],[-56.8361,-37.0237,3.8354]]]]}
,"properties": {"GID_2": "ARG.1.49_1","GID_0": "ARG","country": "Argentina","GID_1": "ARG.1_1","state": "BuenosAires","NL_NAME_1": "NA","county": "GeneralLavalle","VARNAME_2": "NA","NL_NAME_2": "NA","TYPE_2": "Partido","ENGTYPE_2": "Part","CC_2": "NA","HASC_2": "AR.BA.GL","name": "GeneralLavalle.county","area_km2": 2714.793,"hist_schema_id": "Elevation0-9000","hist_area_km2": {"0": 2713.656,"25": 1.137}}}