{"type": "Feature","bbox": [-63.1967,-36.5685,-62.0772,-35.5545],"geometry": {"type": "MultiPolygon","coordinates": [[[[-62.6214,-35.5545,92.106],[-62.9272,-35.7978,96.3902],[-62.9182,-35.8065,99.0997],[-63.1967,-36.0318,107.8298],[-63.0313,-36.1705,104.3966],[-62.8114,-36.3515,107.21],[-62.8129,-36.3544,107.3747],[-62.6379,-36.4937,114.1017],[-62.6103,-36.5685,116.9528],[-62.4042,-36.4093,113.2049],[-62.4125,-36.4022,110.5307],[-62.2022,-36.2412,100.2837],[-62.1959,-36.2467,100.837],[-62.0772,-36.1548,95.4676],[-62.434,-35.8613,84.338],[-62.3368,-35.7844,87.1818],[-62.4134,-35.7215,85.5286],[-62.4152,-35.725,85.5901],[-62.6214,-35.5545,92.106]]]]}
,"properties": {"GID_2": "ARG.1.120_1","GID_0": "ARG","country": "Argentina","GID_1": "ARG.1_1","state": "BuenosAires","NL_NAME_1": "NA","county": "TrenqueLauquen","VARNAME_2": "NA","NL_NAME_2": "NA","TYPE_2": "Partido","ENGTYPE_2": "Part","CC_2": "NA","HASC_2": "AR.BA.TR","name": "TrenqueLauquen.county","area_km2": 5460.121,"hist_schema_id": "Elevation0-9000","hist_area_km2": {"75": 840.863,"100": 4435.194,"125": 184.064}}}