{"type":"Feature","properties":{"GID_2":"ARG.8.14_1","GID_0":"ARG","country":"Argentina","GID_1":"ARG.8_1","state":"EntreRíos","NL_NAME_1":"NA","county":"Tala","VARNAME_2":"RosariodelTala","NL_NAME_2":"NA","TYPE_2":"Departamento","ENGTYPE_2":"Department","CC_2":"NA","HASC_2":"AR.ER.TA","name":"Tala.county"},
"geometry":{"type": "MultiPolygon","coordinates": [[[[-59.1268,-32.706,17.4151],[-59.1231,-32.6879,18.3996],[-59.1221,-32.6724,19.6578],[-59.1198,-32.669,18.2113],[-59.1188,-32.6614,18.4366],[-59.1008,-32.6215,20.608],[-59.0975,-32.5984,17.9929],[-59.0995,-32.5869,21.7178],[-59.0951,-32.5802,23.2138],[-59.0919,-32.5689,18.0],[-59.0936,-32.5653,19.8254],[-59.0979,-32.5635,21.8689],[-59.0993,-32.5603,21.9027],[-59.0997,-32.5404,22.4023],[-59.1017,-32.5373,21.7423],[-59.1124,-32.5301,21.5345],[-59.1097,-32.5106,23.2942],[-59.1016,-32.4926,23.1147],[-59.1011,-32.4888,24.4096],[-59.1036,-32.4813,22.5215],[-59.1007,-32.466,24.5503],[-59.1123,-32.4492,23.5924],[-59.1121,-32.4456,24.0929],[-59.1094,-32.4379,22.9671],[-59.1008,-32.4292,23.4303],[-59.0957,-32.4184,22.92],[-59.095,-32.4146,26.0382],[-59.0996,-32.4035,26.7435],[-59.0992,-32.3999,25.4594],[-59.088,-32.3743,27.4165],[-59.0869,-32.3627,25.5817],[-59.0871,-32.359,25.1056],[-59.093,-32.3485,27.4664],[-59.0896,-32.3458,26.4602],[-59.0865,-32.3346,26.9445],[-59.0822,-32.3277,27.4754],[-59.0732,-32.3191,27.4416],[-59.0769,-32.304,27.8868],[-59.0768,-32.2886,27.8325],[-59.0869,-32.2759,28.5681],[-59.09,-32.2529,29.1136],[-59.1064,-32.246,32.3209],[-59.1095,-32.2431,30.1104],[-59.1141,-32.2282,30.2697],[-59.1079,-32.2095,29.4193],[-59.0911,-32.1821,31.5404],[-59.0846,-32.1676,30.0705],[-59.085,-32.156,30.2177],[-59.0923,-32.1419,27.5],[-59.091,-32.1225,33.3052],[-59.0865,-32.1075,31.7923],[-59.0905,-32.0887,32.2578],[-59.0893,-32.085,31.2281],[-59.082,-32.0751,30.9768],[-59.0693,-32.064,30.5942],[-59.0618,-32.0542,33.4603],[-59.0605,-32.0506,32.4271],[-59.0603,-32.0389,32.4077],[-59.0607,-32.0377,32.5557],[-59.0666,-32.0382,32.2201],[-59.0669,-32.033,32.8211],[-59.0786,-32.0242,31.9316],[-59.0845,-32.0158,34.6457],[-59.0851,-32.0092,35.1782],[-59.0798,-31.9862,33.7672],[-59.0912,-31.9822,34.2083],[-59.1319,-31.9784,38.0567],[-59.1578,-31.97,38.2098],[-59.1779,-31.9608,37.4563],[-59.1811,-31.9584,37.1905],[-59.185,-31.9512,43.0316],[-59.1936,-31.9496,40.9521],[-59.2048,-31.9429,42.1453],[-59.2158,-31.9308,46.2104],[-59.229,-31.9202,49.2298],[-59.2558,-31.916,43.2002],[-59.2666,-31.9089,50.8151],[-59.275,-31.9059,53.42],[-59.2886,-31.9047,50.5399],[-59.2975,-31.9059,49.1842],[-59.3148,-31.9138,48.9698],[-59.3191,-31.9229,46.0737],[-59.3328,-31.9331,47.7694],[-59.3379,-31.9396,47.4162],[-59.3426,-31.9664,48.5956],[-59.3565,-31.9864,49.1132],[-59.3602,-31.9976,51.1298],[-59.3723,-32.0092,55.5039],[-59.3802,-32.0131,56.042],[-59.3895,-32.0216,53.3539],[-59.4039,-32.0456,53.23],[-59.4301,-32.0773,56.5957],[-59.4455,-32.0916,57.8699],[-59.4726,-32.1124,66.165],[-59.4773,-32.119,63.1121],[-59.4793,-32.1266,62.5281],[-59.4801,-32.1537,63.9234],[-59.4984,-32.2016,75.8852],[-59.5072,-32.2357,77.2552],[-59.5149,-32.2581,67.0897],[-59.5166,-32.2696,75.4214],[-59.5225,-32.2843,75.7706],[-59.5193,-32.3152,83.7169],[-59.5204,-32.3268,81.4274],[-59.5262,-32.3415,80.9174],[-59.5348,-32.3509,77.7111],[-59.535,-32.3545,81.8002],[-59.5324,-32.3578,82.8967],[-59.5283,-32.3593,82.4522],[-59.5146,-32.3615,73.2451],[-59.5006,-32.3603,83.5273],[-59.498,-32.3622,82.5489],[-59.5006,-32.37,79.6002],[-59.5049,-32.4085,84.0461],[-59.5039,-32.4278,66.445],[-59.4923,-32.4341,68.556],[-59.4816,-32.4511,63.0179],[-59.4655,-32.4649,67.0358],[-59.4613,-32.4759,63.3251],[-59.4632,-32.4913,58.7207],[-59.4786,-32.5194,49.1624],[-59.4802,-32.5271,48.3153],[-59.4795,-32.5348,47.813],[-59.4737,-32.5454,45.9215],[-59.4675,-32.551,46.1677],[-59.4521,-32.5595,44.6903],[-59.435,-32.5649,44.0234],[-59.432,-32.5679,43.6985],[-59.4254,-32.5863,46.7054],[-59.415,-32.5938,41.0831],[-59.4099,-32.6002,40.5657],[-59.4096,-32.6077,40.178],[-59.4127,-32.6106,39.9728],[-59.4145,-32.6182,38.6729],[-59.4136,-32.6265,38.5232],[-59.4111,-32.6287,38.5385],[-59.3879,-32.6265,42.7418],[-59.3574,-32.6352,63.9171],[-59.2737,-32.6753,41.0226],[-59.2649,-32.6773,37.7089],[-59.2477,-32.6732,41.5074],[-59.2352,-32.6785,47.5867],[-59.2084,-32.6935,44.7246],[-59.1916,-32.6998,43.7356],[-59.1644,-32.7034,26.6946],[-59.1513,-32.7004,21.5742],[-59.1421,-32.7009,16.8202],[-59.1268,-32.706,17.4151]]]]}}