{"type": "Feature","bbox": [-72.9883172207385,-50.652593398109985,-72.9874341283571,-50.645823023185955],"geometry": {"type": "Polygon","coordinates": [[[-72.9883172207385,-50.652593398109985,188.9199],[-72.9874341283571,-50.650532849220042,196.0825],[-72.9883172207385,-50.645823023185955,186.5903],[-72.9883172207385,-50.652593398109985,188.9199]]]}
,"properties": {"featurecla": "Lake","scalerank": 4,"name": "null331","name_abb": null,"name_alt": null,"note": "_untitled_5","delta": null,"dam_name": null,"year": -99,"admin": null,"min_zoom": 4.0,"min_label": 5.0,"area_km2": 0.08066103,"hist_schema_id": "Elevation0-9000","hist_area_km2": {"175": 0.04033087,"200": 0.04033015}}}