{"type": "Feature","bbox": [-71.382119361044531,-49.008569748079594,-71.0759806688276,-48.769840440975827],"geometry": {"type": "Polygon","coordinates": [[[-71.150749157119037,-48.796333212417665,462.0943],[-71.172237738399659,-48.781320641933945,529.5656],[-71.208297343973285,-48.769840440975827,580.4653],[-71.225076099219791,-48.780731913679688,506.5985],[-71.2224268220756,-48.803692315595953,401.8456],[-71.2000551484136,-48.829007630529276,283.0],[-71.206383977146928,-48.832834364181991,283.0],[-71.257897699394974,-48.844608929267253,422.0408],[-71.323099353554639,-48.822825983859531,448.2692],[-71.342085839754631,-48.824886532749446,298.556],[-71.35577377166625,-48.838721646724622,305.9413],[-71.356068135793379,-48.853734217208341,283.0],[-71.350475217377877,-48.870512972454861,283.0],[-71.346795665788733,-48.889057912464153,283.0],[-71.348561850551519,-48.9099577654905,283.0],[-71.354743497221293,-48.922321058830022,283.0],[-71.382119361044531,-48.947636373763345,333.1204],[-71.3706391600864,-48.956172933450176,299.1204],[-71.2767370035314,-48.973246052823811,283.0],[-71.198141781587239,-49.008569748079594,283.0],[-71.163701178712842,-49.003859922045507,283.0],[-71.124403567740757,-48.966770042026894,283.0],[-71.082603861688057,-48.911723950253275,284.1802],[-71.0759806688276,-48.88464245055718,283.0],[-71.090257328993488,-48.8569722226068,283.0],[-71.150749157119037,-48.796333212417665,462.0943]]]}
,"properties": {"featurecla": "Lake","scalerank": 9,"name": "Lago Cardiel","name_abb": "L. Cardiel","name_alt": null,"note": null,"delta": null,"dam_name": null,"year": -99,"admin": null,"min_zoom": 7.0,"min_label": 8.0,"area_km2": 350.1839,"hist_schema_id": "Elevation0-9000","hist_area_km2": {"275": 294.0598,"300": 18.195,"325": 5.3874,"350": 4.2433,"375": 4.9546,"400": 4.1594,"425": 7.0758,"450": 4.5089,"475": 1.4666,"500": 1.6204,"525": 2.1374,"550": 1.2434,"575": 0.7825,"600": 0.3214,"625": 0.0279}}}