{"type": "Feature","bbox": [-73.054107603152417,-49.788634684978518,-72.0905066329869,-49.39683603176627],"geometry": {"type": "Polygon","coordinates": [[[-72.180729237952747,-49.78627977196146,251.0],[-72.168365944613228,-49.7771544840204,251.0],[-72.158504746354311,-49.774799571003342,251.0],[-72.127302148878357,-49.776271391639,251.0],[-72.118176860937268,-49.774799571003342,251.0],[-72.0947749128303,-49.755077174485507,251.0],[-72.0905066329869,-49.723285848755296,251.0],[-72.100073467118676,-49.690317066516542,251.0],[-72.118176860937268,-49.665590479837476,251.0],[-72.13127606459463,-49.65675955602353,251.0],[-72.156591379527953,-49.644101898556869,251.0],[-72.185880610177563,-49.623202045530519,251.0],[-72.2029537295512,-49.617020398860774,253.2022],[-72.327764119455026,-49.602302192504169,251.0],[-72.37118282820694,-49.591705083927451,251.0],[-72.391788317106162,-49.569627774392558,260.4453],[-72.426081737917,-49.578164334079389,251.0],[-72.455076604439469,-49.5699221385197,251.0],[-72.48318837858055,-49.556087024544496,251.0],[-72.514979704310761,-49.549022285493351,251.0],[-72.5794454481526,-49.550494106129008,251.0],[-72.643764009930862,-49.530477345484059,251.0],[-72.686446808364963,-49.524001334687142,251.0],[-72.77608068507655,-49.487500182922815,251.0],[-72.871160298140083,-49.46365668862515,251.0],[-72.892796061484262,-49.445994840997258,496.9973],[-72.89470942831062,-49.435397732420512,625.8386],[-72.891912969102862,-49.410965509868589,659.2542],[-72.895886884819149,-49.401251493673243,765.7966],[-72.9047178086331,-49.39683603176627,780.6748],[-72.912371275938511,-49.399779673037585,761.2103],[-72.917522648163327,-49.407138776215874,568.0286],[-72.923409930705958,-49.438341373691827,594.7582],[-72.933859857219133,-49.455708857192604,420.4192],[-72.949166791829981,-49.468660878786409,282.6824],[-72.976984201843919,-49.485733998160043,251.0],[-72.986845400102837,-49.490149460067016,251.0],[-72.998914329315227,-49.492798737211189,254.633],[-73.015251538371032,-49.493681829592589,1032.4805],[-73.0283507420284,-49.496625470863904,550.3883],[-73.0292338344098,-49.503395845787935,521.6614],[-73.021874731231492,-49.518114052144512,384.05],[-73.014368445989646,-49.539308269298004,564.7659],[-72.996412234234612,-49.556970116925896,853.8783],[-72.913254368319912,-49.614076757589459,251.0],[-72.905306536887352,-49.631149876963093,299.7074],[-72.930033123566417,-49.638508980141381,1302.7728],[-72.985226397403608,-49.639686436649896,1493.7245],[-73.013338171544675,-49.643807534429754,666.436],[-73.036151391397382,-49.652049729989443,733.1207],[-73.054107603152417,-49.671477762380107,1165.3499],[-73.047190046164829,-49.686784696990969,939.1719],[-73.027026103456308,-49.692083251279342,251.0],[-73.005390340112129,-49.682663599211111,727.4175],[-72.9869925821664,-49.672066490634393,251.0],[-72.854381542893577,-49.652049729989443,251.0],[-72.842606977808316,-49.654110278879358,251.0],[-72.8211183965277,-49.663529930947561,273.8922],[-72.810226923823834,-49.665590479837476,297.5539],[-72.780054600792838,-49.667356664600277,260.283],[-72.764453302054861,-49.665590479837476,251.0],[-72.755033649986643,-49.658231376659188,251.0],[-72.756947016813,-49.6508722734809,251.381],[-72.766661033008347,-49.646162447446784,251.0],[-72.777405323648651,-49.6423357137941,251.0],[-72.782851060000581,-49.638508980141381,251.0],[-72.7750504106316,-49.617903491242146,251.0],[-72.751206916333928,-49.617609127115031,255.336],[-72.7035199277386,-49.63173860521735,251.0],[-72.643764009930862,-49.63497661061578,251.0],[-72.561047690206877,-49.648811724590985,251.0],[-72.552658312583617,-49.652932822370815,251.6841],[-72.545152027341757,-49.67177212650725,269.2643],[-72.534702100828582,-49.679425593812681,281.1803],[-72.522191625425492,-49.684429783973911,284.4703],[-72.491872120330925,-49.690317066516542,286.6052],[-72.254761815926372,-49.788634684978518,393.3619],[-72.190148890020964,-49.788634684978518,251.0],[-72.180729237952747,-49.78627977196146,251.0]]]}
,"properties": {"featurecla": "Lake","scalerank": 5,"name": "Lago Viedma","name_abb": "L. Viedma","name_alt": null,"note": null,"delta": null,"dam_name": null,"year": -99,"admin": null,"min_zoom": 4.7,"min_label": 6.0,"area_km2": 1076.8261,"hist_schema_id": "Elevation0-9000","hist_area_km2": {"250": 968.6592,"275": 21.2943,"300": 11.1035,"325": 9.3759,"350": 7.2784,"375": 4.1505,"400": 2.7104,"425": 3.0136,"450": 2.6146,"475": 2.7241,"500": 2.3254,"525": 2.2706,"550": 2.7521,"575": 2.2572,"600": 2.6438,"625": 2.5056,"650": 2.5461,"675": 3.219,"700": 2.5175,"725": 2.0625,"750": 1.5408,"775": 1.1273,"800": 0.7557,"825": 1.1123,"850": 0.783,"875": 0.6182,"900": 0.6317,"925": 0.7689,"950": 0.522,"975": 0.7003,"1000": 0.412,"1025": 0.6042,"1050": 0.6316,"1075": 0.4119,"1100": 0.4805,"1125": 0.3706,"1150": 0.3294,"1175": 0.4942,"1200": 0.453,"1225": 0.4667,"1250": 0.4667,"1275": 0.3569,"1300": 0.4393,"1325": 0.5079,"1350": 0.4942,"1375": 0.4118,"1400": 0.3295,"1425": 0.357,"1450": 0.3844,"1475": 0.2334,"1500": 0.2197,"1525": 0.1648,"1550": 0.1648,"1575": 0.1922,"1600": 0.0824,"1625": 0.1098,"1650": 0.1236,"1675": 0.1373,"1700": 0.1373,"1725": 0.1373,"1750": 0.0961,"1775": 0.0412}}}