{"type": "Feature","bbox": [-62.2746,-35.5857,-61.1321,-34.5927],"geometry": {"type": "MultiPolygon","coordinates": [[[[-62.2746,-35.1503,99.7577],[-62.2125,-35.2029,97.0962],[-62.2283,-35.216,97.195],[-61.785,-35.5857,84.141],[-61.2992,-35.1873,76.6197],[-61.4236,-35.0834,81.6876],[-61.1321,-34.8485,74.6419],[-61.1837,-34.804,77.797],[-61.1521,-34.7775,76.4186],[-61.2222,-34.7189,77.4286],[-61.2037,-34.7036,74.6225],[-61.3389,-34.5927,80.6072],[-61.4397,-34.6757,83.9276],[-61.5242,-34.6062,87.3481],[-61.5978,-34.6674,87.6967],[-61.6126,-34.6564,87.7972],[-61.644,-34.6823,89.8943],[-61.71,-34.6271,89.8605],[-61.7734,-34.6775,91.9093],[-61.6734,-34.763,88.2061],[-61.7387,-34.8149,97.5032],[-61.7331,-34.8166,96.3995],[-61.9031,-34.9539,105.2067],[-61.9817,-34.8883,99.4766],[-62.1817,-35.0526,116.9951],[-62.1705,-35.0648,111.1473],[-62.2746,-35.1503,99.7577]]]]}
,"properties": {"GID_2": "ARG.1.68_1","GID_0": "ARG","country": "Argentina","GID_1": "ARG.1_1","state": "BuenosAires","NL_NAME_1": "NA","county": "Lincoln","VARNAME_2": "NA","NL_NAME_2": "NA","TYPE_2": "Partido","ENGTYPE_2": "Part","CC_2": "NA","HASC_2": "AR.BA.LI","name": "Lincoln.county","area_km2": 5754.097,"hist_schema_id": "Elevation0-9000","hist_area_km2": {"75": 2344.003,"100": 3369.986,"125": 40.109}}}