{"type": "Feature","id": "1295","bbox": [-63.38881,-41.04502,-56.66487,-33.25657],"geometry": {"type": "MultiPolygon","coordinates": [[[[-62.03759,-40.48436,0.0],[-62.02852,-40.45488,0.0],[-62.04949,-40.42716,0.0],[-62.06672,-40.39946,0.0],[-62.094,-40.37742,0.1945],[-62.12905,-40.37722,0.246],[-62.1553,-40.37421,0.0],[-62.17284,-40.37505,2.3266],[-62.19348,-40.42349,3.5682],[-62.19903,-40.46347,4.4095],[-62.21949,-40.49194,0.7116],[-62.23733,-40.50995,0.2812],[-62.22118,-40.52244,0.155],[-62.19355,-40.5226,-0.6074],[-62.16573,-40.5094,0.2584],[-62.15467,-40.52663,0.3374],[-62.16134,-40.5571,0.0],[-62.13633,-40.56487,0.0],[-62.10871,-40.56406,0.0],[-62.08588,-40.54321,0.0],[-62.06671,-40.51185,0.0],[-62.03759,-40.48436,0.0]]],
[[[-62.01477,-40.32836,0.0],[-62.0205,-40.27315,0.0],[-62.01876,-40.21797,0.0],[-62.01466,-40.17516,0.0],[-62.04058,-40.14646,0.0],[-62.07039,-40.13676,0.1463],[-62.10025,-40.12989,0.4169],[-62.11896,-40.13072,0.0],[-62.13318,-40.18109,0.3812],[-62.11111,-40.21932,1.5469],[-62.06543,-40.2729,0.0],[-62.04194,-40.29682,0.086],[-62.03095,-40.32257,0.0921],[-62.02116,-40.34355,0.0],[-62.01477,-40.32836,0.0]]],
[[[-61.91926,-39.15252,0.9795],[-61.92146,-39.14349,0.9456],[-61.9418,-39.11777,0.8607],[-62.04137,-39.0997,1.9373],[-62.07848,-39.08554,2.1304],[-62.09801,-39.08782,0.7895],[-62.09704,-39.10361,0.0],[-62.08605,-39.12298,0.9808],[-62.0445,-39.16953,0.0],[-62.02684,-39.18288,0.0],[-62.00402,-39.19411,0.0],[-61.94099,-39.2116,0.0],[-61.92455,-39.22519,0.0],[-61.91047,-39.23406,0.0],[-61.8885,-39.24066,0.0],[-61.86828,-39.23943,0.0],[-61.85936,-39.22519,1.8218],[-61.86172,-39.20989,1.5772],[-61.88048,-39.16058,1.2167],[-61.89476,-39.13983,0.2873],[-61.90339,-39.13209,1.3821],[-61.90722,-39.13665,1.2539],[-61.90941,-39.14723,0.7555],[-61.9143,-39.15309,1.4861],[-61.91926,-39.15252,0.9795]]],
[[[-62.00267,-39.01474,1.3194],[-62.04019,-39.00547,1.4578],[-62.11946,-39.00221,2.5975],[-62.13077,-39.0206,2.7302],[-62.11998,-39.03289,1.803],[-62.10045,-39.03509,0.6549],[-62.08593,-39.02337,0.9916],[-62.03002,-39.05755,1.4186],[-62.01024,-39.06439,1.2984],[-61.99161,-39.06406,0.6844],[-61.97545,-39.05771,1.1639],[-61.96727,-39.04697,1.4985],[-61.97232,-39.03395,1.7303],[-62.00267,-39.01474,1.3194]]],
[[[-58.28315,-34.21844,0.4232],[-58.28776,-34.2027,0.0],[-58.30854,-34.18999,1.5265],[-58.31507,-34.17816,0.0],[-58.32634,-34.16394,1.3742],[-58.33091,-34.14426,0.0],[-58.33843,-34.13556,0.0],[-58.34329,-34.14809,0.0],[-58.33401,-34.17094,1.136],[-58.32851,-34.19297,0.6503],[-58.32866,-34.20945,0.4859],[-58.33729,-34.21724,0.8334],[-58.34496,-34.22581,1.3782],[-58.33562,-34.24236,0.5218],[-58.32714,-34.24949,1.0466],[-58.32136,-34.24169,0.9008],[-58.3108,-34.22921,0.8624],[-58.29852,-34.23716,0.7185],[-58.29202,-34.25289,0.7695],[-58.28736,-34.26234,0.1444],[-58.28352,-34.25845,0.0],[-58.28237,-34.23649,0.0],[-58.28315,-34.21844,0.4232]]],
[[[-59.77239,-33.61051,0.0],[-59.78647,-33.59883,2.3633],[-59.82474,-33.54979,3.3039],[-59.84389,-33.53392,1.5],[-59.86009,-33.524,0.0],[-59.90791,-33.50359,0.0],[-59.93047,-33.49982,2.8581],[-59.94773,-33.49501,5.6706],[-60.11808,-33.39357,4.9907],[-60.24614,-33.27843,4.7967],[-60.29409,-33.25657,17.1417],[-60.27559,-33.27761,20.0681],[-60.27531,-33.28122,20.1631],[-60.27453,-33.29104,10.9413],[-60.27753,-33.30644,18.4408],[-60.28058,-33.31213,18.7256],[-60.28606,-33.31864,18.1523],[-60.29794,-33.32851,20.0669],[-60.30626,-33.33275,18.8949],[-60.31414,-33.33523,22.8037],[-60.32675,-33.33765,26.4655],[-60.33238,-33.33957,27.9611],[-60.3368,-33.342,29.4433],[-60.34052,-33.34644,30.4633],[-60.34313,-33.35218,30.4295],[-60.34709,-33.36535,29.7616],[-60.34869,-33.37429,29.2286],[-60.34926,-33.38194,32.2904],[-60.34858,-33.38768,27.3463],[-60.34595,-33.39817,26.6623],[-60.34533,-33.40354,26.8448],[-60.34781,-33.41005,27.3866],[-60.35303,-33.41718,27.878],[-60.36458,-33.42737,28.6664],[-60.40615,-33.4546,37.572],[-60.41013,-33.45956,36.8258],[-60.41357,-33.46612,32.1413],[-60.41995,-33.51232,34.7497],[-60.42623,-33.53697,40.9345],[-60.43057,-33.54793,49.012],[-60.46682,-33.612,42.1398],[-60.47566,-33.62219,48.4919],[-60.49992,-33.63402,59.2781],[-60.52217,-33.63851,50.0695],[-60.52785,-33.64022,48.7661],[-60.54271,-33.64286,51.9399],[-60.56676,-33.64032,47.7592],[-60.58294,-33.63521,48.0095],[-60.5919,-33.63133,49.4503],[-60.59818,-33.62751,51.1075],[-60.62658,-33.60286,62.2568],[-60.66554,-33.57888,58.3343],[-60.67151,-33.57692,59.7701],[-60.67763,-33.57568,59.059],[-60.77378,-33.57351,61.4465],[-60.78639,-33.57134,61.1909],[-60.8185,-33.55526,63.3322],[-60.82471,-33.55304,63.404],[-60.8408,-33.55041,64.8217],[-60.85972,-33.55046,66.9672],[-60.87362,-33.55201,66.2036],[-60.89783,-33.5579,74.4559],[-60.9038,-33.56023,74.6425],[-60.91046,-33.56374,76.7902],[-60.91925,-33.57103,77.8143],[-60.92721,-33.57893,77.1295],[-60.93715,-33.60291,77.7824],[-60.92798,-33.63371,74.7939],[-60.96307,-33.67722,75.9612],[-61.14215,-33.84827,84.9151],[-61.3808,-34.07053,104.391],[-61.71052,-34.37682,89.8549],[-61.76271,-34.37738,92.8218],[-62.28826,-34.38074,101.0],[-62.85381,-34.38214,120.6541],[-63.33962,-34.38049,135.4597],[-63.37359,-34.41361,137.1746],[-63.38189,-34.57965,134.5137],[-63.38406,-35.0021,126.9749],[-63.38551,-35.27351,119.3313],[-63.38605,-35.49902,116.2068],[-63.38858,-35.9498,112.4158],[-63.38881,-35.98457,111.2192],[-63.38858,-36.40191,124.1382],[-63.38858,-36.62707,125.9697],[-63.38858,-36.85238,133.5371],[-63.38799,-37.28548,133.5049],[-63.38773,-37.73578,161.3998],[-63.38783,-37.7794,173.1778],[-63.38713,-38.27234,125.9992],[-63.38713,-38.82549,60.5439],[-63.38858,-39.32576,41.2294],[-63.38729,-39.871,36.5978],[-63.38744,-40.41407,53.6516],[-63.38765,-40.67235,11.3115],[-63.38742,-40.70909,6.5],[-63.18239,-40.72904,6.8392],[-63.1178,-40.74614,5.7743],[-63.10302,-40.75395,20.9203],[-63.02449,-40.80919,2.9769],[-62.98171,-40.85316,3.4438],[-62.97142,-40.86174,4.292],[-62.92163,-40.89146,4.1069],[-62.86145,-40.93838,4.8556],[-62.84799,-40.95357,5.4621],[-62.80952,-41.01605,1.9852],[-62.80173,-41.04088,0.0],[-62.80163,-41.04168,0.0],[-62.77741,-41.04502,0.0],[-62.75133,-41.0442,0.0],[-62.7294,-41.04111,0.0],[-62.71007,-41.03379,1.955],[-62.69176,-41.02044,1.9273],[-62.67447,-41.011,1.7922],[-62.60676,-40.98984,0.0],[-62.48644,-40.93255,4.8381],[-62.3378,-40.87274,6.6504],[-62.31127,-40.8458,6.166],[-62.28392,-40.79168,6.6241],[-62.25426,-40.74635,0.0],[-62.24983,-40.73309,0.0],[-62.24779,-40.71649,5.0755],[-62.23888,-40.68629,4.354],[-62.23681,-40.67132,2.7113],[-62.22924,-40.65862,2.2003],[-62.19335,-40.63787,1.6117],[-62.18155,-40.62664,2.564],[-62.21353,-40.62802,4.6727],[-62.24425,-40.63698,4.1481],[-62.32238,-40.67295,5.4175],[-62.32974,-40.66912,4.5884],[-62.33918,-40.65399,5.3049],[-62.33568,-40.6535,4.8598],[-62.33056,-40.6487,7.2536],[-62.32885,-40.64056,1.3297],[-62.33544,-40.63006,0.0],[-62.34162,-40.6233,0.0582],[-62.34537,-40.61647,0.6557],[-62.34691,-40.60858,0.0466],[-62.34602,-40.5993,-0.1055],[-62.33536,-40.60467,0.0],[-62.32014,-40.62274,0.0],[-62.31501,-40.62664,0.0],[-62.2672,-40.63348,5.2745],[-62.25064,-40.62225,0.7863],[-62.25048,-40.59677,1.6034],[-62.26415,-40.55153,0.699],[-62.28368,-40.56439,1.5076],[-62.29686,-40.55527,2.6659],[-62.30809,-40.53916,0.0],[-62.32213,-40.53045,0.9858],[-62.32604,-40.52508,2.5965],[-62.3251,-40.50164,0.0],[-62.32868,-40.49627,0.0],[-62.34024,-40.49334,0.0],[-62.37393,-40.47576,0.0],[-62.40526,-40.46795,1.5421],[-62.41491,-40.46209,0.0],[-62.43147,-40.43857,10.7786],[-62.43163,-40.43426,11.4314],[-62.44066,-40.42498,12.2401],[-62.45592,-40.3659,0.0],[-62.48546,-40.3222,2.4302],[-62.49006,-40.30788,2.9724],[-62.4842,-40.28753,3.554],[-62.4698,-40.26735,3.9113],[-62.45177,-40.24961,3.6386],[-62.4348,-40.23626,13.0814],[-62.41503,-40.22845,11.1863],[-62.39013,-40.22177,7.6796],[-62.36872,-40.2112,1.9821],[-62.35969,-40.19183,6.8114],[-62.35582,-40.17539,5.3139],[-62.3404,-40.13372,2.2297],[-62.33918,-40.11273,1.5834],[-62.36632,-40.05413,5.1074],[-62.36311,-40.04437,5.1304],[-62.35505,-40.0359,4.9491],[-62.3356,-39.99432,2.6882],[-62.32885,-39.96022,0.3933],[-62.31542,-39.92449,0.1366],[-62.31127,-39.90732,0.0],[-62.31212,-39.88242,1.5849],[-62.31456,-39.8694,1.6036],[-62.30866,-39.8615,2.2082],[-62.28392,-39.85263,2.5825],[-62.30455,-39.83221,7.5198],[-62.30875,-39.82187,1.9802],[-62.30504,-39.81113,2.2927],[-62.26163,-39.83856,0.5],[-62.23957,-39.84873,1.7505],[-62.16417,-39.85882,1.3159],[-62.16047,-39.85442,1.2932],[-62.12536,-39.83766,1.8891],[-62.11946,-39.83831,0.9783],[-62.11437,-39.82147,0.0],[-62.11168,-39.73252,1.4956],[-62.08666,-39.59596,0.0],[-62.08218,-39.58457,0.0],[-62.07506,-39.5735,0.0],[-62.07234,-39.50319,2.0686],[-62.06688,-39.4944,2.516],[-62.05508,-39.48553,1.1994],[-62.05061,-39.4747,0.883],[-62.0526,-39.46168,1.9162],[-62.05578,-39.45192,2.0746],[-62.06143,-39.44736,3.7051],[-62.08642,-39.4459,2.736],[-62.13557,-39.43572,4.5454],[-62.1542,-39.42742,4.9525],[-62.19542,-39.39715,2.3121],[-62.21483,-39.37615,2.8945],[-62.22313,-39.35556,2.293],[-62.22814,-39.34637,1.6044],[-62.23986,-39.34515,1.603],[-62.25349,-39.34661,1.9227],[-62.26415,-39.34547,2.0477],[-62.27253,-39.33864,2.1048],[-62.27819,-39.32969,2.392],[-62.28173,-39.31992,2.1445],[-62.28392,-39.31072,2.2614],[-62.22785,-39.30722,0.9112],[-62.20885,-39.31072,0.7891],[-62.20409,-39.31048,1.049],[-62.20059,-39.30836,1.203],[-62.19616,-39.30739,1.2444],[-62.18834,-39.31072,0.803],[-62.18383,-39.31512,0.6557],[-62.17837,-39.32586,1.1223],[-62.17467,-39.33123,1.1618],[-62.156,-39.35215,0.0],[-62.09854,-39.39186,0.1586],[-62.07848,-39.40008,1.0261],[-62.07136,-39.40447,0.0],[-62.06505,-39.40944,0.0],[-62.057,-39.41155,0.0],[-62.04442,-39.40691,1.1134],[-62.03466,-39.39935,2.4996],[-62.02717,-39.38893,3.1768],[-62.0231,-39.37705,2.8535],[-62.02392,-39.36484,2.8285],[-62.04662,-39.33864,0.0],[-62.08902,-39.31422,3.6498],[-62.16788,-39.28338,0.1942],[-62.19237,-39.27874,1.239],[-62.27033,-39.27663,2.5495],[-62.29434,-39.27272,3.5765],[-62.3164,-39.26523,1.8814],[-62.32559,-39.25465,3.2358],[-62.31127,-39.24188,3.5899],[-62.2849,-39.25254,2.2319],[-62.27257,-39.2553,0.724],[-62.25723,-39.25555,1.0074],[-62.27697,-39.23756,2.9717],[-62.32169,-39.21054,3.5824],[-62.33918,-39.19411,5.7833],[-62.34704,-39.17571,4.774],[-62.34508,-39.16009,3.3862],[-62.3402,-39.14463,2.7427],[-62.33918,-39.1264,2.7243],[-62.34398,-39.11793,2.5351],[-62.35204,-39.1098,3.1675],[-62.35782,-39.10223,4.2517],[-62.35595,-39.09539,4.6059],[-62.3485,-39.08758,4.2204],[-62.34236,-39.07855,3.8122],[-62.33178,-39.05755,5.014],[-62.31851,-39.02207,3.9646],[-62.3085,-39.01263,2.4296],[-62.28392,-39.00221,2.8259],[-62.28661,-38.98805,3.1695],[-62.28108,-38.97234,1.7764],[-62.2744,-38.95965,0.0],[-62.27404,-38.95452,0.7693],[-62.30651,-38.96014,1.9811],[-62.32046,-38.96071,0.3549],[-62.33178,-38.95452,0.9624],[-62.33446,-38.94736,0.3625],[-62.33178,-38.91009,5.655],[-62.33601,-38.89691,5.6335],[-62.34651,-38.88991,3.225],[-62.36018,-38.89039,3.9712],[-62.37393,-38.9,5.7497],[-62.36807,-38.88275,3.9566],[-62.38634,-38.84515,2.5858],[-62.3802,-38.82415,0.3488],[-62.39021,-38.81471,1.944],[-62.37975,-38.79844,2.185],[-62.35847,-38.78729,1.8813],[-62.33544,-38.79339,2.0385],[-62.31871,-38.80055,2.3305],[-62.15734,-38.81048,3.0076],[-62.14293,-38.81829,2.1425],[-62.13003,-38.8366,1.9625],[-62.11327,-38.87265,0.0],[-62.09317,-38.90195,0.1571],[-62.06404,-38.92295,0.6463],[-62.02672,-38.9376,0.3132],[-61.83902,-38.98089,0.0],[-61.79052,-38.98252,3.133],[-61.7495,-38.97568,0.0],[-61.74401,-38.97389,0.0],[-61.73803,-38.97088,0.0],[-61.73111,-38.96836,0.0],[-61.72281,-38.96819,0.0],[-61.7167,-38.97096,0.0],[-61.70653,-38.9804,0.0],[-61.68859,-38.98455,0.0],[-61.67516,-38.99391,0.0],[-61.51806,-39.01149,0.0],[-61.50308,-39.00604,0.0],[-61.49307,-38.9992,3.7022],[-61.42805,-38.98252,9.4158],[-61.33776,-38.98138,10.1874],[-61.14338,-39.00107,0.0],[-61.05065,-38.98252,4.5522],[-61.03718,-38.97405,5.2587],[-61.02855,-38.96998,9.0765],[-61.01647,-38.96819,10.2577],[-61.00304,-38.96901,6.6295],[-60.97826,-38.97438,4.0319],[-60.86571,-38.97568,1.5646],[-60.65909,-38.94305,2.9854],[-60.50357,-38.92767,0.7139],[-60.34488,-38.90667,0.0],[-59.88931,-38.83847,4.8862],[-59.8192,-38.84075,0.0],[-59.79686,-38.83847,0.0],[-59.63239,-38.78379,7.0411],[-59.34781,-38.73878,4.4283],[-59.06322,-38.69378,0.0],[-59.02831,-38.68182,0.0],[-58.99714,-38.67604,0.0],[-58.9403,-38.64609,13.3668],[-58.72924,-38.58847,0.0],[-58.56701,-38.55885,0.0],[-58.49364,-38.52435,24.3629],[-58.4195,-38.50416,10.4123],[-58.33096,-38.49277,0.0],[-58.31261,-38.48642,0.0],[-58.2755,-38.46852,0.0],[-58.15567,-38.43011,0.0],[-58.11791,-38.41326,0.0],[-58.06607,-38.37819,19.3006],[-58.05272,-38.37282,9.9225],[-58.01871,-38.36793,0.0],[-57.86189,-38.29412,29.6718],[-57.79027,-38.25221,0.0],[-57.68639,-38.20477,8.3925],[-57.59358,-38.15276,0.0],[-57.55842,-38.12086,0.0],[-57.53572,-38.08424,0.0],[-57.53279,-38.07252,0.0],[-57.53572,-38.04323,0.0],[-57.53441,-38.03932,0.548],[-57.52941,-38.02972,0.0],[-57.52888,-38.02353,15.4156],[-57.53148,-38.0167,43.7048],[-57.54011,-38.00514,9.3952],[-57.54186,-37.99896,11.194],[-57.5382,-37.95534,7.0701],[-57.52888,-37.91367,14.0533],[-57.51187,-37.87233,0.0],[-57.48742,-37.83221,0.0],[-57.45788,-37.79502,0.0],[-57.37694,-37.71461,0.0],[-57.36067,-37.70761,0.0],[-57.34874,-37.6985,0.0],[-57.30915,-37.64544,5.0825],[-57.20084,-37.56732,0.0],[-57.16576,-37.53558,0.0],[-57.0559,-37.41269,0.0],[-57.01928,-37.34759,0.0],[-56.88866,-37.16204,2.2999],[-56.79027,-37.03834,0.0],[-56.68643,-36.92767,0.0],[-56.66885,-36.89422,0.0],[-56.66487,-36.85101,0.0],[-56.66832,-36.73642,0.0],[-56.67227,-36.60052,0.0],[-56.67577,-36.57635,0.0],[-56.69957,-36.52142,5.8706],[-56.69762,-36.39617,0.0],[-56.71638,-36.37802,8.4349],[-56.7224,-36.36932,4.9487],[-56.73485,-36.32887,2.4099],[-56.74059,-36.31658,0.0],[-56.76244,-36.30332,1.6299],[-56.77603,-36.30641,2.7655],[-56.77868,-36.32147,0.6361],[-56.76789,-36.34393,1.3058],[-56.83397,-36.34075,1.1271],[-56.85668,-36.34393,1.2701],[-56.90022,-36.35898,1.1094],[-56.92077,-36.37005,0.0],[-56.9392,-36.38486,1.2225],[-56.94603,-36.37802,1.159],[-56.9287,-36.3637,1.3038],[-56.93773,-36.35076,1.5354],[-56.96032,-36.34124,1.417],[-57.00552,-36.33367,1.3764],[-57.10827,-36.28232,1.5684],[-57.24804,-36.17034,1.69],[-57.26232,-36.15016,1.7219],[-57.26818,-36.12786,0.0],[-57.27188,-36.12363,0.0],[-57.29113,-36.10719,0.9599],[-57.30883,-36.09987,1.7644],[-57.31265,-36.09075,1.6805],[-57.31599,-36.06951,1.024],[-57.34203,-36.01393,0.0],[-57.34386,-36.01116,0.0],[-57.34801,-36.00107,0.0],[-57.36644,-35.98789,2.1683],[-57.37059,-35.97698,0.7226],[-57.37247,-35.96836,0.0],[-57.37356,-35.93948,0.0],[-57.38348,-35.89956,0.8861],[-57.3933,-35.86297,2.0692],[-57.38123,-35.83142,0.0],[-57.37138,-35.78999,1.4921],[-57.36563,-35.76377,0.8812],[-57.35263,-35.72752,2.2511],[-57.3236,-35.69638,0.0],[-57.22378,-35.56927,0.0],[-57.18045,-35.52206,1.7611],[-57.14491,-35.4842,0.7555],[-57.12814,-35.44132,2.0012],[-57.13358,-35.41666,0.0],[-57.16223,-35.37174,2.2212],[-57.20158,-35.31015,2.307],[-57.24877,-35.24879,0.0],[-57.27027,-35.22971,0.7],[-57.31393,-35.18909,2.9204],[-57.34958,-35.14988,0.0],[-57.4467,-35.07053,0.0],[-57.48748,-35.04439,2.4604],[-57.52203,-35.01315,0.0],[-57.60357,-34.9877,4.7299],[-57.68682,-34.93387,2.4711],[-57.75884,-34.90966,6.1525],[-57.80644,-34.87232,0.0],[-57.85157,-34.84805,5.2688],[-57.87103,-34.82991,0.0],[-57.88202,-34.82887,1.2272],[-57.93822,-34.83367,4.4694],[-57.96503,-34.82453,4.829],[-58.00019,-34.78726,0.0],[-58.03064,-34.7791,4.3303],[-58.06354,-34.77293,2.3678],[-58.09392,-34.75773,0.0],[-58.11829,-34.7536,5.4755],[-58.15487,-34.7504,3.0489],[-58.19012,-34.73516,0.0],[-58.23615,-34.7008,0.0],[-58.31503,-34.65719,0.0],[-58.32269,-34.67097,6.6384],[-58.34316,-34.68987,6.2392],[-58.37939,-34.6946,6.6286],[-58.40617,-34.71507,8.2063],[-58.44397,-34.77493,12.3809],[-58.54163,-34.71035,17.2763],[-58.56053,-34.65364,27.81],[-58.53848,-34.56701,23.8776],[-58.47419,-34.52158,10.7811],[-58.47496,-34.51198,4.9587],[-58.4737,-34.49179,0.0],[-58.47728,-34.48333,0.0],[-58.50322,-34.46313,4.7618],[-58.5104,-34.44901,2.5379],[-58.51147,-34.43594,1.7732],[-58.49664,-34.418,0.5192],[-58.48551,-34.40707,0.6322],[-58.47321,-34.39815,0.0],[-58.45461,-34.36618,1.9758],[-58.46662,-34.34799,4.2116],[-58.49462,-34.32855,5.3352],[-58.51228,-34.31569,2.4389],[-58.57042,-34.28818,0.0],[-58.55834,-34.28541,2.683],[-58.55285,-34.27947,2.2875],[-58.54931,-34.27264,1.8646],[-58.54308,-34.26767,4.5564],[-58.50642,-34.26898,1.6455],[-58.49836,-34.27077,1.8292],[-58.48013,-34.27744,0.0],[-58.46019,-34.27288,8.1119],[-58.44107,-34.26116,7.2242],[-58.42577,-34.24668,3.3827],[-58.4215,-34.23992,5.9102],[-58.41633,-34.22601,3.0091],[-58.4121,-34.21868,7.6036],[-58.37857,-34.18825,2.7679],[-58.38073,-34.17718,2.7011],[-58.39013,-34.1596,4.9353],[-58.39224,-34.15407,9.0995],[-58.39135,-34.14202,6.5873],[-58.38537,-34.11004,4.6393],[-58.38443,-34.06634,5.6949],[-58.38781,-34.04648,2.765],[-58.39538,-34.03118,2.9444],[-58.4027,-34.02597,2.6864],[-58.42699,-34.01621,2.7962],[-58.43627,-34.01442,2.8941],[-58.44717,-34.01051,9.3574],[-58.44697,-34.00694,4.6273],[-58.4996,-34.01668,3.7242],[-58.59097,-34.04898,9.0568],[-58.63851,-34.04852,6.6039],[-58.6798,-34.0312,5.2361],[-58.78191,-33.95229,4.3775],[-58.80026,-33.94656,0.0],[-58.84935,-33.93731,5.2912],[-58.86785,-33.92806,0.0],[-58.92185,-33.88765,3.8458],[-58.99523,-33.85075,3.2554],[-59.01156,-33.83902,2.0244],[-59.03182,-33.82956,3.0891],[-59.05856,-33.82693,2.9725],[-59.16269,-33.82879,2.5408],[-59.17165,-33.82558,2.9771],[-59.17685,-33.81856,3.3184],[-59.18015,-33.81148,2.9647],[-59.18349,-33.80827,0.0],[-59.18633,-33.80657,0.0],[-59.19571,-33.79799,3.4654],[-59.20085,-33.79463,3.2258],[-59.20703,-33.79432,3.2318],[-59.21297,-33.79706,3.2737],[-59.21793,-33.80031,3.4603],[-59.22134,-33.80145,3.4235],[-59.23131,-33.79799,0.706],[-59.23907,-33.79349,3.146],[-59.24483,-33.78786,2.2002],[-59.24865,-33.78719,0.0],[-59.25266,-33.77696,0.0],[-59.25235,-33.75267,3.512],[-59.25485,-33.73939,2.6409],[-59.26232,-33.72425,0.0],[-59.26893,-33.72125,0.0],[-59.27803,-33.72404,0.0],[-59.29273,-33.72636,0.0],[-59.29622,-33.72838,0.0],[-59.30317,-33.73737,2.8148],[-59.30637,-33.73939,2.4382],[-59.39265,-33.73939,0.0],[-59.44197,-33.71737,2.9632],[-59.48016,-33.68006,2.7296],[-59.5207,-33.65531,0.0],[-59.577,-33.67112,0.7566],[-59.60276,-33.67779,2.7477],[-59.64062,-33.67102,0.5407],[-59.77239,-33.61051,0.0]]]]}
,"properties": {"ISO3166-1-Alpha-3": "ARG","country": "Argentina","fill": "#F0F","name": "Buenos Aires","area_km2": 306033.61,"hist_schema_id": "Elevation0-9000","hist_area_km2": {"-50": 62.52,"-25": 202.86,"0": 35055.58,"25": 54137.56,"50": 39440.33,"75": 41319.33,"100": 43583.32,"125": 28648.55,"150": 11204.67,"175": 12956.79,"200": 14285.06,"225": 10321.34,"250": 5915.08,"275": 2879.28,"300": 1727.08,"325": 1317.25,"350": 823.29,"375": 558.53,"400": 386.81,"425": 279.44,"450": 199.92,"475": 149.43,"500": 117.02,"525": 88.36,"550": 66.93,"575": 51.77,"600": 42.72,"625": 34.36,"650": 29.85,"675": 26.02,"700": 21.7,"725": 19.28,"750": 15.24,"775": 13.62,"800": 11.58,"825": 8.65,"850": 8.1,"875": 6.28,"900": 4.91,"925": 3.86,"950": 2.8}}}