{"type":"Feature","properties":{"GID_2":"ARG.6.18_1","GID_0":"ARG","country":"Argentina","GID_1":"ARG.6_1","state":"Córdoba","NL_NAME_1":"NA","county":"SanAlberto","VARNAME_2":"VillaCuraBrochero","NL_NAME_2":"NA","TYPE_2":"Departamento","ENGTYPE_2":"Department","CC_2":"NA","HASC_2":"AR.CB.SA","name":"SanAlberto.county"},
"geometry":{"type": "MultiPolygon","coordinates": [[[[-64.9323,-31.4094,1632.1479],[-64.9498,-31.4106,1475.9073],[-64.9741,-31.4176,1474.2913],[-64.9868,-31.4193,1446.9546],[-65.0114,-31.4256,1315.9387],[-65.0497,-31.4278,1138.9792],[-65.0616,-31.4318,1112.2465],[-65.0722,-31.4381,1085.4641],[-65.0883,-31.4552,1074.6625],[-65.1146,-31.4993,1050.7325],[-65.129,-31.5175,1036.7909],[-65.1654,-31.54,1043.8932],[-65.1936,-31.5533,1059.4969],[-65.208,-31.5641,1076.843],[-65.2325,-31.5961,1144.2977],[-65.2787,-31.6258,916.6821],[-65.2858,-31.6351,768.8331],[-65.287,-31.6404,638.1119],[-65.2855,-31.6514,492.0036],[-65.4064,-31.6471,337.9197],[-65.4101,-31.6198,331.9584],[-65.4739,-31.622,314.9862],[-65.4773,-31.7004,335.1482],[-65.4916,-31.702,331.2603],[-65.5064,-31.7591,348.0985],[-65.6205,-31.7574,322.6829],[-65.623,-31.751,321.2107],[-65.7769,-31.7448,309.7369],[-65.7783,-31.8852,339.4717],[-65.7425,-31.8852,342.7145],[-65.6823,-31.8895,345.3023],[-65.6581,-31.8841,346.6768],[-65.6527,-31.8869,348.5277],[-65.6461,-31.8952,350.4727],[-65.6203,-31.9066,359.4426],[-65.6154,-31.8964,358.8217],[-65.57,-31.897,369.5958],[-65.5644,-31.8989,372.0256],[-65.5622,-31.9044,372.8713],[-65.5563,-31.9051,374.605],[-65.5177,-31.9033,381.3044],[-65.4468,-31.9058,410.2209],[-65.4086,-31.9008,425.3772],[-65.3893,-31.9004,430.2637],[-65.3704,-31.9045,439.8517],[-65.3678,-31.9091,441.6191],[-65.3668,-31.9203,445.4287],[-65.3645,-31.9254,446.5873],[-65.3592,-31.9281,450.7439],[-65.3207,-31.9311,465.9501],[-65.3081,-31.9334,471.907],[-65.2966,-31.9383,475.9406],[-65.2518,-31.9418,494.46],[-65.1941,-31.9376,518.2743],[-65.1618,-31.938,541.4192],[-65.1562,-31.9355,546.1397],[-65.1423,-31.9239,544.5007],[-65.1194,-31.9138,552.3855],[-65.0889,-31.9052,684.1157],[-65.0786,-31.8985,761.0992],[-65.0602,-31.8831,708.0887],[-65.0119,-31.8681,861.2357],[-65.0054,-31.868,887.3133],[-64.9814,-31.8759,955.158],[-64.9603,-31.8885,1185.8906],[-64.9485,-31.8927,1391.1703],[-64.9269,-31.9048,2364.0903],[-64.921,-31.9064,2341.4346],[-64.9095,-31.9062,2286.5833],[-64.9033,-31.9004,2265.146],[-64.8862,-31.8649,2248.1084],[-64.8786,-31.856,2197.7549],[-64.8562,-31.8362,2311.9182],[-64.8502,-31.834,2281.125],[-64.831,-31.8351,2156.9458],[-64.7735,-31.8307,1773.6864],[-64.7678,-31.828,1762.0842],[-64.7632,-31.8242,1474.6824],[-64.7574,-31.8145,1879.0776],[-64.7585,-31.7925,1986.5488],[-64.7564,-31.7874,1970.7993],[-64.7414,-31.7701,1857.3132],[-64.7408,-31.7626,1865.6824],[-64.7475,-31.7493,1993.0182],[-64.7479,-31.7374,2075.7075],[-64.7521,-31.7166,2000.9808],[-64.7495,-31.7066,2006.7622],[-64.7287,-31.6795,1871.0542],[-64.7398,-31.6693,1970.7006],[-64.7661,-31.6205,2132.3887],[-64.7902,-31.5652,2091.3152],[-64.7915,-31.5138,2258.4038],[-64.8157,-31.509,2311.1128],[-64.8095,-31.4281,2286.9578],[-64.8242,-31.4276,2244.9919],[-64.886,-31.4132,1812.8015],[-64.9114,-31.41,1699.6206],[-64.9323,-31.4094,1632.1479]]]]}}