{"type": "Feature","bbox": [-64.5129,-38.2571,-63.3892,-37.7152],"geometry": {"type": "MultiPolygon","coordinates": [[[[-63.3925,-37.721,172.7117],[-63.9367,-37.7193,186.1887],[-64.5081,-37.7152,279.5014],[-64.5129,-38.2507,175.6487],[-63.919,-38.2558,52.4977],[-63.3893,-38.2571,154.1707],[-63.3892,-38.0712,153.7476],[-63.3932,-38.0082,183.7155],[-63.3925,-37.721,172.7117]]]]}
,"properties": {"GID_2": "ARG.11.11_1","GID_0": "ARG","country": "Argentina","GID_1": "ARG.11_1","state": "LaPampa","NL_NAME_1": "NA","county": "Hucal","VARNAME_2": "Bernasconi","NL_NAME_2": "NA","TYPE_2": "Departamento","ENGTYPE_2": "Department","CC_2": "NA","HASC_2": "AR.LP.HU","name": "Hucal.county","area_km2": 5846.337,"hist_schema_id": "Elevation0-9000","hist_area_km2": {"0": 102.248,"25": 240.32,"50": 226.049,"75": 312.158,"100": 430.228,"125": 637.908,"150": 1525.331,"175": 1297.374,"200": 547.471,"225": 274.421,"250": 188.769,"275": 64.06}}}