{"type": "Feature","bbox": [-71.9706,-48.3221,-69.6563,-45.9962],"geometry": {"type": "MultiPolygon","coordinates": [[[[-71.6461,-46.0057,672.0796],[-71.6485,-46.0078,665.0197],[-71.6462,-46.0108,683.3613],[-71.6505,-46.0163,689.7492],[-71.6554,-46.017,692.6698],[-71.6574,-46.019,693.9605],[-71.658,-46.0229,705.0728],[-71.6642,-46.0252,716.781],[-71.6673,-46.0282,726.2737],[-71.6662,-46.0396,756.0149],[-71.6714,-46.0422,765.1714],[-71.6787,-46.0509,806.0048],[-71.683,-46.0517,803.6418],[-71.6968,-46.0617,850.9606],[-71.6975,-46.0692,914.9796],[-71.7105,-46.0709,963.5305],[-71.713,-46.0862,1020.6802],[-71.7153,-46.0893,1044.6924],[-71.7308,-46.0955,1176.538],[-71.7438,-46.0916,1265.5222],[-71.7529,-46.0929,1365.5139],[-71.7603,-46.0992,1418.9363],[-71.7589,-46.1069,1676.3174],[-71.7605,-46.1096,1745.6028],[-71.7734,-46.1162,1690.5142],[-71.7829,-46.119,1766.5122],[-71.7943,-46.1181,1788.4928],[-71.8071,-46.1197,1841.3955],[-71.813,-46.116,1894.8492],[-71.8157,-46.1105,1876.8494],[-71.8253,-46.1096,1882.637],[-71.8456,-46.1207,1992.5685],[-71.8596,-46.1194,1911.5764],[-71.8669,-46.1229,1984.4084],[-71.8874,-46.1267,1979.2042],[-71.8937,-46.1337,2010.1202],[-71.901,-46.1368,1848.7322],[-71.9157,-46.1388,2065.4949],[-71.9083,-46.1459,2048.4199],[-71.9098,-46.1597,2169.6353],[-71.9046,-46.1596,2090.1301],[-71.9009,-46.1648,2127.9561],[-71.8808,-46.1626,2073.7671],[-71.8666,-46.1571,2280.9192],[-71.8748,-46.1606,2229.1846],[-71.8738,-46.1654,2116.2888],[-71.8772,-46.1684,2052.7764],[-71.8601,-46.1939,2117.8003],[-71.842,-46.1912,1781.5625],[-71.8333,-46.1939,1820.3375],[-71.83,-46.199,1768.7341],[-71.8237,-46.2015,1755.899],[-71.8072,-46.1971,1735.2721],[-71.8032,-46.1939,1713.2791],[-71.7961,-46.1921,1728.9871],[-71.7903,-46.1927,1732.1096],[-71.7839,-46.1979,1794.5131],[-71.7782,-46.1982,1799.7083],[-71.7752,-46.2088,1705.8124],[-71.773,-46.2117,1712.8905],[-71.7733,-46.2171,1756.4753],[-71.7673,-46.2154,1734.0386],[-71.7583,-46.2204,1581.2284],[-71.7563,-46.226,1622.2886],[-71.7531,-46.2281,1528.417],[-71.749,-46.2458,1401.8827],[-71.7422,-46.2497,1201.0253],[-71.7431,-46.2577,879.0963],[-71.7352,-46.2649,950.8881],[-71.7336,-46.2688,770.0769],[-71.731,-46.2691,711.6531],[-71.7275,-46.2724,470.0143],[-71.7272,-46.2798,500.5768],[-71.7245,-46.2815,512.1326],[-71.7239,-46.2848,496.3354],[-71.7289,-46.3047,282.8323],[-71.7356,-46.3102,283.7795],[-71.7377,-46.3206,259.7788],[-71.7366,-46.3235,245.872],[-71.7392,-46.326,217.9432],[-71.7387,-46.3273,219.0901],[-71.7428,-46.3273,249.3442],[-71.7459,-46.3298,252.9225],[-71.7444,-46.334,291.3627],[-71.7453,-46.3371,280.6229],[-71.7507,-46.3378,256.0043],[-71.7553,-46.3407,248.2917],[-71.757,-46.3456,239.7991],[-71.6687,-46.5291,207.8088],[-71.6691,-46.5332,211.0966],[-71.6723,-46.5365,213.3759],[-71.6692,-46.5404,215.9354],[-71.6688,-46.546,219.8842],[-71.6649,-46.5491,223.1032],[-71.6668,-46.5552,228.7247],[-71.6665,-46.56,233.2502],[-71.66,-46.5699,242.652],[-71.6635,-46.5767,249.1016],[-71.6613,-46.5828,254.2616],[-71.6615,-46.5878,260.1754],[-71.6666,-46.5937,273.9073],[-71.6658,-46.6082,285.0269],[-71.6686,-46.6133,290.5443],[-71.6668,-46.6174,294.852],[-71.6568,-46.6268,311.9314],[-71.6547,-46.6268,320.6653],[-71.6545,-46.6291,324.7198],[-71.6501,-46.6333,360.5143],[-71.6474,-46.6341,351.3544],[-71.6478,-46.6366,329.5648],[-71.6459,-46.638,325.454],[-71.6505,-46.6512,341.9985],[-71.6484,-46.6586,351.8323],[-71.6461,-46.6611,360.4779],[-71.6492,-46.6676,364.4343],[-71.6471,-46.6764,377.1365],[-71.6447,-46.6799,381.9309],[-71.6478,-46.6883,405.6429],[-71.6631,-46.6917,427.8702],[-71.6678,-46.6959,424.9083],[-71.6787,-46.6969,442.4868],[-71.6889,-46.7011,465.7199],[-71.6935,-46.7087,457.1205],[-71.6965,-46.7091,459.722],[-71.7026,-46.7137,482.4856],[-71.7064,-46.7127,512.5266],[-71.7094,-46.7167,480.1823],[-71.7152,-46.7192,479.1432],[-71.7162,-46.7222,492.707],[-71.7266,-46.7257,492.2408],[-71.7285,-46.7274,507.7591],[-71.7282,-46.7308,503.2699],[-71.7343,-46.73,513.7237],[-71.7396,-46.7314,513.8097],[-71.7401,-46.736,515.1934],[-71.7499,-46.7428,531.1484],[-71.754,-46.7516,567.4946],[-71.7582,-46.7562,544.9767],[-71.7681,-46.762,553.2584],[-71.7709,-46.7655,584.5082],[-71.7827,-46.7694,574.5284],[-71.7859,-46.7739,575.3992],[-71.7915,-46.7734,576.5585],[-71.796,-46.7749,579.4072],[-71.7978,-46.7778,586.0117],[-71.8033,-46.7795,590.4951],[-71.8066,-46.7826,593.3307],[-71.8134,-46.7831,597.8058],[-71.8338,-46.7963,620.5591],[-71.8531,-46.8002,642.6807],[-71.8612,-46.8039,648.3241],[-71.8706,-46.8011,720.7999],[-71.8889,-46.8006,680.4485],[-71.8922,-46.7988,677.6915],[-71.896,-46.8008,680.9766],[-71.9021,-46.8006,686.8003],[-71.9062,-46.7982,693.4283],[-71.9116,-46.7984,699.0313],[-71.9141,-46.8009,703.1998],[-71.9213,-46.8015,718.4255],[-71.9292,-46.8056,719.4799],[-71.9376,-46.8056,731.1161],[-71.9414,-46.8086,742.8058],[-71.9456,-46.8082,746.0428],[-71.9492,-46.8102,767.3498],[-71.9471,-46.8124,778.8425],[-71.9525,-46.8128,787.1324],[-71.9558,-46.8152,771.3063],[-71.9492,-46.8238,1005.9583],[-71.9358,-46.834,1454.8958],[-71.9344,-46.8403,1624.4862],[-71.9308,-46.8453,1871.996],[-71.9355,-46.8519,1862.1672],[-71.9324,-46.8601,1937.5881],[-71.9316,-46.8683,1935.3956],[-71.9368,-46.8751,1834.9271],[-71.945,-46.8788,2006.6978],[-71.9457,-46.8837,1917.436],[-71.9507,-46.8884,2000.0383],[-71.9565,-46.8904,1986.2802],[-71.9583,-46.8983,1947.2219],[-71.9701,-46.9038,1921.8931],[-71.9706,-46.911,1989.6418],[-71.969,-46.9184,2014.8013],[-71.9657,-46.9244,1984.5627],[-71.9633,-46.9257,2057.1357],[-71.9644,-46.9325,1921.1234],[-71.9576,-46.9372,2072.8604],[-71.9577,-46.9482,2216.5791],[-71.9519,-46.9584,2075.5676],[-71.9566,-46.9618,2139.9592],[-71.9577,-46.9736,2361.468],[-71.9509,-46.9771,2289.4749],[-71.9318,-46.9756,2308.1558],[-71.9184,-46.9847,2490.063],[-71.9227,-46.9884,2303.2141],[-71.9308,-46.9919,2417.7341],[-71.9321,-46.9945,2415.3474],[-71.9171,-46.9966,2191.2627],[-71.915,-46.9984,2283.5054],[-71.9023,-46.9953,2130.71],[-71.8964,-46.9955,2001.5552],[-71.8918,-47.0003,1913.5109],[-71.8892,-47.0057,1973.3274],[-71.8822,-47.008,2053.4854],[-71.8802,-47.011,2125.2209],[-71.8853,-47.0216,2141.033],[-71.8862,-47.0273,2264.3577],[-71.8963,-47.0384,1994.8252],[-71.9045,-47.0507,2105.8557],[-71.9112,-47.0538,2036.157],[-71.9149,-47.0588,2240.1697],[-71.9287,-47.0587,1917.3181],[-71.9397,-47.0631,2116.271],[-71.9455,-47.0696,2193.6838],[-71.952,-47.0704,2359.6467],[-71.9552,-47.0769,2162.2922],[-71.951,-47.0797,2186.1355],[-71.9505,-47.0872,2256.7761],[-71.938,-47.0893,1919.3087],[-71.9302,-47.093,2195.6467],[-71.9246,-47.0933,2086.2456],[-71.915,-47.0984,2202.5691],[-71.9066,-47.0988,1907.2202],[-71.88,-47.1075,1369.068],[-71.8769,-47.1115,1264.3364],[-71.8764,-47.1197,1062.7996],[-71.8644,-47.1258,870.662],[-71.8599,-47.1321,784.6177],[-71.8593,-47.1347,742.3788],[-71.8635,-47.1392,708.7517],[-71.8636,-47.1456,687.1416],[-71.8499,-47.163,693.3375],[-71.8549,-47.1667,704.0085],[-71.8746,-47.1715,628.355],[-71.8778,-47.1773,633.5991],[-71.8814,-47.1803,646.5916],[-71.8879,-47.1803,638.0881],[-71.8903,-47.1873,632.328],[-71.8885,-47.1994,755.941],[-71.8811,-47.2018,757.6381],[-71.8804,-47.2065,778.2534],[-71.885,-47.2084,752.1221],[-71.8906,-47.2084,737.7452],[-71.8926,-47.2138,718.5507],[-71.8879,-47.2185,707.3956],[-71.8831,-47.2171,732.7969],[-71.8756,-47.2223,752.5894],[-71.8645,-47.2244,860.7579],[-71.8648,-47.231,838.5494],[-71.87,-47.2334,790.197],[-71.8656,-47.2355,830.7212],[-71.8698,-47.237,826.8327],[-71.5715,-47.3639,1191.704],[-70.7689,-47.3199,748.2856],[-70.2498,-47.8453,498.3994],[-69.783,-48.307,750.5754],[-69.7344,-48.3221,756.4024],[-69.7076,-47.2347,647.8019],[-69.6867,-47.1613,642.1299],[-69.6563,-46.0051,445.8796],[-70.1881,-46.001,586.8224],[-70.5129,-45.9963,646.0101],[-70.7014,-45.9962,692.8953],[-71.5455,-45.9992,672.2727],[-71.6461,-46.0057,672.0796]]],
[[[-71.7076,-46.4575,205.5],[-71.7035,-46.4572,205.5],[-71.7104,-46.4577,205.5],[-71.7076,-46.4575,205.5]]]]}
,"properties": {"GID_2": "ARG.20.5_1","GID_0": "ARG","country": "Argentina","GID_1": "ARG.20_1","state": "SantaCruz","NL_NAME_1": "NA","county": "LagoBuenosAires","VARNAME_2": "PeritoMoreno","NL_NAME_2": "NA","TYPE_2": "Departamento","ENGTYPE_2": "Department","CC_2": "NA","HASC_2": "AR.SC.LB","name": "LagoBuenosAires.county","area_km2": 28472.72,"hist_schema_id": "Elevation0-9000","hist_area_km2": {"200": 869.52,"225": 92.85,"250": 113.04,"275": 199.86,"300": 198.68,"325": 266.15,"350": 306.79,"375": 420.92,"400": 395.37,"425": 501.52,"450": 550.89,"475": 559.15,"500": 573.53,"525": 681.91,"550": 1028.73,"575": 1527.32,"600": 1666.66,"625": 1359.99,"650": 1290.87,"675": 1169.77,"700": 1154.89,"725": 1160.67,"750": 1215.07,"775": 1152.76,"800": 960.87,"825": 799.89,"850": 675.7,"875": 669.19,"900": 602.83,"925": 543.74,"950": 481.51,"975": 422.86,"1000": 360.52,"1025": 252.87,"1050": 188.34,"1075": 142.64,"1100": 112.45,"1125": 108.57,"1150": 141.81,"1175": 176.02,"1200": 168.73,"1225": 165.2,"1250": 151.18,"1275": 153.58,"1300": 142.64,"1325": 145.68,"1350": 149.34,"1375": 141.43,"1400": 152.89,"1425": 175.34,"1450": 164.43,"1475": 229.19,"1500": 209.11,"1525": 155.34,"1550": 121.07,"1575": 104.82,"1600": 90.38,"1625": 81.45,"1650": 68.96,"1675": 64.83,"1700": 58.44,"1725": 48.77,"1750": 45.36,"1775": 41.83,"1800": 36.09,"1825": 33.07,"1850": 30.91,"1875": 30.65,"1900": 31.23,"1925": 28.75,"1950": 23.75,"1975": 17.4,"2000": 15.11,"2025": 13.61,"2050": 10.01,"2075": 8.42,"2100": 8.33,"2125": 8.44,"2150": 6.19,"2175": 5.0,"2200": 4.47,"2225": 4.38,"2250": 4.09,"2275": 3.67,"2300": 3.09,"2325": 2.96,"2350": 2.44,"2375": 2.3,"2400": 2.33,"2425": 1.72,"2450": 1.71,"2475": 1.62,"2500": 1.29,"2525": 0.91,"2550": 0.62,"2575": 0.51,"2600": 0.45,"2625": 0.26}}}