{"type": "Feature","bbox": [-65.6079,-31.4292,-64.6319,-29.9856],"geometry": {"type": "MultiPolygon","coordinates": [[[[-65.4137,-30.1224,185.1929],[-65.5331,-30.4823,196.8878],[-65.6079,-30.6566,210.0665],[-65.377,-30.6954,420.9191],[-65.3736,-30.7048,387.6995],[-65.3598,-30.7161,480.5508],[-65.3575,-30.7212,418.0839],[-65.3528,-30.7251,508.1048],[-65.3509,-30.7302,463.8495],[-65.349,-30.7412,467.0935],[-65.3506,-30.752,553.8546],[-65.3477,-30.757,632.2638],[-65.3472,-30.7622,674.4935],[-65.3495,-30.7674,662.0944],[-65.3491,-30.7784,649.0905],[-65.3451,-30.7945,613.2977],[-65.3497,-30.8039,641.1293],[-65.3499,-30.8204,638.4936],[-65.3485,-30.8258,579.3851],[-65.3501,-30.8477,519.4491],[-65.3448,-30.8635,582.6013],[-65.3394,-30.8734,851.9884],[-65.3371,-30.8838,917.8593],[-65.3312,-30.8861,933.3412],[-65.2418,-30.8848,591.3345],[-65.223,-30.8817,505.7001],[-65.2113,-30.8773,472.9452],[-65.1728,-30.8761,463.5157],[-65.1608,-30.8774,485.71],[-65.1609,-30.8832,529.6923],[-65.1565,-30.8993,540.3978],[-65.1534,-30.9212,568.6674],[-65.1542,-30.9377,512.2723],[-65.1505,-30.9594,580.9158],[-65.1434,-30.9748,584.701],[-65.1343,-30.9893,606.1891],[-65.1166,-31.0419,652.0146],[-65.09,-31.0729,673.1234],[-65.0398,-31.0573,711.9775],[-65.0081,-31.0838,851.9323],[-64.9927,-31.094,995.4088],[-64.9899,-31.0984,1024.4048],[-64.989,-31.1151,1052.0454],[-64.9848,-31.1255,1045.558],[-64.9818,-31.1303,1077.5612],[-64.9584,-31.1491,1274.8704],[-64.9566,-31.1542,1319.4663],[-64.9555,-31.1762,1362.7266],[-64.9343,-31.2162,1527.7151],[-64.9303,-31.2267,1465.5247],[-64.9164,-31.2916,1689.1035],[-64.9142,-31.3576,1730.3812],[-64.9226,-31.3897,1699.5331],[-64.9323,-31.4094,1632.1479],[-64.9114,-31.41,1699.6206],[-64.886,-31.4132,1812.8015],[-64.8242,-31.4276,2244.9919],[-64.7987,-31.4292,2114.4285],[-64.7923,-31.4278,2024.1389],[-64.7884,-31.4118,1818.8341],[-64.7892,-31.3842,1764.3867],[-64.7866,-31.3737,1771.6985],[-64.7729,-31.3619,1806.1564],[-64.7653,-31.353,1769.7845],[-64.7605,-31.3428,1791.6141],[-64.7539,-31.3159,1826.9816],[-64.7419,-31.2844,1756.2726],[-64.7389,-31.2797,1787.822],[-64.7244,-31.2687,1755.8164],[-64.7155,-31.2541,1644.4995],[-64.7145,-31.2431,1627.3171],[-64.716,-31.2212,1752.9631],[-64.7218,-31.1942,1554.6749],[-64.722,-31.1831,1533.2866],[-64.7128,-31.1512,1351.2963],[-64.7139,-31.1347,1283.1104],[-64.7031,-31.1213,1263.3613],[-64.6986,-31.1111,1191.7874],[-64.6978,-31.1001,1151.3245],[-64.7039,-31.073,1112.9675],[-64.7025,-31.0678,1094.0615],[-64.6987,-31.0633,1103.7476],[-64.6777,-31.0426,965.9634],[-64.674,-31.0322,980.4727],[-64.6752,-31.0212,952.374],[-64.6877,-31.0205,992.0877],[-64.6926,-31.0168,1004.4728],[-64.6945,-31.0117,973.6908],[-64.6919,-30.9621,860.5584],[-64.6872,-30.9461,784.1691],[-64.6826,-30.9189,747.1291],[-64.6805,-30.8695,701.4265],[-64.685,-30.8272,615.6536],[-64.6732,-30.812,565.3452],[-64.6425,-30.7876,655.0007],[-64.638,-30.781,636.1613],[-64.6319,-30.766,725.2311],[-64.6382,-30.7501,678.891],[-64.6399,-30.7369,658.42],[-64.6436,-30.7306,675.3353],[-64.6442,-30.7245,666.706],[-64.6463,-30.7193,646.7501],[-64.6544,-30.7107,616.9415],[-64.6537,-30.6905,650.7057],[-64.7188,-30.6916,572.4218],[-64.72,-30.6406,546.2378],[-64.8855,-30.642,417.2133],[-64.8977,-30.6293,409.7417],[-64.9117,-30.6181,397.1179],[-64.9311,-30.5837,375.4315],[-64.9668,-30.5382,348.6819],[-64.9885,-30.5045,325.4604],[-65.0189,-30.4626,300.9692],[-65.0485,-30.4263,278.4796],[-65.0014,-30.4223,286.1665],[-65.009,-29.9856,179.9683],[-65.0285,-30.0007,180.0353],[-65.086,-30.0373,180.7152],[-65.1253,-30.0656,181.6305],[-65.4137,-30.1224,185.1929]]]]}
,"properties": {"GID_2": "ARG.6.4_1","GID_0": "ARG","country": "Argentina","GID_1": "ARG.6_1","state": "Córdoba","NL_NAME_1": "NA","county": "CruzdelEje","VARNAME_2": "NA","NL_NAME_2": "NA","TYPE_2": "Departamento","ENGTYPE_2": "Department","CC_2": "NA","HASC_2": "AR.CB.CE","name": "CruzdelEje.county","area_km2": 6543.146,"hist_schema_id": "Elevation0-9000","hist_area_km2": {"175": 736.0,"200": 852.652,"225": 468.527,"250": 339.18,"275": 240.018,"300": 186.659,"325": 183.966,"350": 173.025,"375": 173.321,"400": 160.681,"425": 148.05,"450": 169.941,"475": 173.891,"500": 164.843,"525": 174.428,"550": 185.486,"575": 144.77,"600": 120.878,"625": 101.304,"650": 82.931,"675": 67.534,"700": 53.405,"725": 50.646,"750": 53.044,"775": 49.602,"800": 43.924,"825": 43.847,"850": 44.915,"875": 40.93,"900": 39.6,"925": 38.996,"950": 36.372,"975": 41.272,"1000": 39.379,"1025": 37.938,"1050": 35.863,"1075": 30.61,"1100": 25.266,"1125": 24.41,"1150": 19.904,"1175": 21.9,"1200": 22.244,"1225": 21.807,"1250": 17.03,"1275": 16.502,"1300": 16.447,"1325": 18.079,"1350": 16.408,"1375": 14.102,"1400": 13.23,"1425": 14.898,"1450": 16.82,"1475": 15.403,"1500": 16.291,"1525": 17.724,"1550": 17.614,"1575": 18.648,"1600": 22.109,"1625": 22.575,"1650": 27.514,"1675": 37.113,"1700": 39.884,"1725": 39.142,"1750": 40.034,"1775": 41.082,"1800": 41.28,"1825": 41.039,"1850": 32.482,"1875": 24.017,"1900": 14.125,"1925": 4.598,"1950": 2.751,"1975": 1.846,"2000": 1.719,"2025": 1.755,"2050": 1.828,"2075": 1.9,"2100": 1.484,"2125": 1.466,"2150": 1.574,"2175": 1.122,"2200": 1.049,"2225": 1.122,"2250": 0.995,"2275": 1.104,"2300": 0.706,"2325": 0.488,"2350": 0.09}}}