{"type":"Feature","properties":{"GID_2":"ARG.18.15_1","GID_0":"ARG","country":"Argentina","GID_1":"ARG.18_1","state":"SanJuan","NL_NAME_1":"NA","county":"Ullum","VARNAME_2":"Ullun|Ullun","NL_NAME_2":"NA","TYPE_2":"Departamento","ENGTYPE_2":"Department","CC_2":"NA","HASC_2":"AR.SJ.UL","name":"Ullum.county"},
"geometry":{"type": "MultiPolygon","coordinates": [[[[-68.5038,-31.0146,840.4708],[-68.5061,-31.0162,840.0657],[-68.7426,-31.0166,1273.1418],[-68.7454,-30.9821,1293.0507],[-68.7534,-30.9418,2219.1975],[-68.7537,-30.926,1984.3125],[-68.7516,-30.901,1800.7152],[-68.7551,-30.8727,2091.874],[-68.7593,-30.8642,2258.7412],[-68.7811,-30.8349,1738.0962],[-68.7932,-30.8231,2030.2034],[-68.7995,-30.8117,2693.1333],[-68.8008,-30.8056,2422.5635],[-68.7977,-30.7965,2515.6077],[-68.7986,-30.7871,1992.2739],[-68.8012,-30.7812,2185.8357],[-68.8135,-30.7656,2380.9131],[-68.8186,-30.7473,1959.1897],[-68.8213,-30.7253,1950.8547],[-68.821,-30.6939,2048.8801],[-68.8225,-30.6845,2145.9858],[-68.8432,-30.6514,1990.1388],[-68.8761,-30.6139,2139.6638],[-68.8757,-30.5981,2147.6636],[-68.8703,-30.5702,1841.1389],[-68.8717,-30.564,1789.9125],[-68.8806,-30.5585,1823.5164],[-68.9077,-30.5497,2067.7991],[-68.9219,-30.5468,2239.8975],[-68.9473,-30.5458,2392.2009],[-68.9976,-30.5391,3118.6294],[-69.0684,-30.5352,2853.5625],[-69.0699,-30.5479,2824.6914],[-69.0642,-30.6003,2712.071],[-69.058,-30.6201,2770.6157],[-69.0576,-30.6334,2738.4048],[-69.056,-30.6362,2720.6104],[-69.0851,-30.6344,2610.0156],[-69.0932,-30.6346,2685.3384],[-69.0981,-30.6369,2680.3188],[-69.1118,-30.6357,2797.1904],[-69.1158,-30.6398,2608.8774],[-69.1156,-30.6592,2658.2246],[-69.1068,-30.6802,2626.8572],[-69.1065,-30.6924,2596.115],[-69.0943,-30.7135,2692.7859],[-69.0921,-30.7221,2707.8047],[-69.092,-30.7334,2724.6326],[-69.0996,-30.7571,2885.0127],[-69.1024,-30.7819,3152.2295],[-69.1066,-30.7901,3217.5156],[-69.1156,-30.8002,3133.5435],[-69.1262,-30.8199,3333.3472],[-69.1276,-30.8381,3406.2144],[-69.1262,-30.8521,3520.8296],[-69.1354,-30.9041,3615.4087],[-69.1409,-30.9166,3479.3552],[-69.1493,-30.9258,3612.1592],[-69.1547,-30.9361,3389.1528],[-69.1661,-30.9676,3433.3713],[-69.1732,-30.9984,3513.3794],[-69.1782,-31.0088,3364.7097],[-69.1982,-31.0346,3178.4104],[-69.2139,-31.0596,3195.9253],[-69.2311,-31.0925,3070.2051],[-69.2478,-31.1645,3308.6001],[-69.2486,-31.1753,3104.4697],[-69.2473,-31.1875,3226.165],[-69.2361,-31.2219,1992.4055],[-69.2325,-31.2395,1825.0762],[-69.2039,-31.2409,1408.6882],[-69.1818,-31.2399,1525.1418],[-69.1568,-31.2442,1508.7537],[-69.1449,-31.2479,1564.1071],[-69.1259,-31.2489,1529.4037],[-69.1105,-31.2523,1401.3792],[-69.0945,-31.2611,1728.7495],[-69.0763,-31.2658,1444.3229],[-69.0609,-31.2756,1870.8892],[-69.0572,-31.283,1520.7582],[-69.043,-31.2939,1454.917],[-69.039,-31.3014,1247.0115],[-69.0279,-31.3384,1147.22],[-69.0214,-31.3479,1139.156],[-69.0086,-31.356,1297.0409],[-68.9995,-31.3671,1194.8812],[-68.9993,-31.4082,1181.3416],[-68.9877,-31.4306,1236.3431],[-68.9859,-31.4386,1335.83],[-68.9871,-31.455,1264.0573],[-68.9987,-31.4919,1054.0],[-68.9984,-31.5001,1076.4232],[-68.9956,-31.5081,1054.0],[-68.9935,-31.5098,1112.1696],[-68.9777,-31.5125,1238.2177],[-68.911,-31.509,1333.2242],[-68.8759,-31.5101,911.0747],[-68.8569,-31.5081,937.6166],[-68.8282,-31.5079,1266.3811],[-68.7901,-31.5047,856.7792],[-68.762,-31.4994,811.9786],[-68.7141,-31.4971,775.9534],[-68.7027,-31.4927,769.9124],[-68.6761,-31.469,752.5],[-68.6706,-31.4663,752.5],[-68.6618,-31.4649,752.5],[-68.6546,-31.4699,752.5],[-68.6484,-31.4776,735.2139],[-68.6449,-31.4898,725.7358],[-68.6409,-31.4966,738.892],[-68.6368,-31.5002,707.3884],[-68.6324,-31.5016,703.5686],[-68.6296,-31.495,723.2292],[-68.6278,-31.4833,906.9465],[-68.6132,-31.4597,951.9291],[-68.6045,-31.442,808.1783],[-68.5993,-31.4121,789.2358],[-68.5882,-31.3766,899.8154],[-68.5781,-31.3605,1039.0844],[-68.5679,-31.3393,1535.6638],[-68.5567,-31.3238,1424.3027],[-68.5485,-31.2953,1551.5752],[-68.5395,-31.2757,1622.3694],[-68.5327,-31.2399,1366.0646],[-68.5319,-31.1803,1493.8782],[-68.5278,-31.1531,1443.9343],[-68.5172,-31.1147,1272.7081],[-68.496,-31.0687,877.9393],[-68.49,-31.0407,879.5336],[-68.4851,-31.0275,853.9302],[-68.4876,-31.0147,847.7415],[-68.5038,-31.0146,840.4708]]]]}}