{"type": "Feature","bbox": [-59.1141,-33.0513,-58.0841,-31.9712],"geometry": {"type": "MultiPolygon","coordinates": [[[[-58.7071,-31.9712,52.2565],[-58.7179,-31.9768,61.1973],[-58.7439,-32.0038,62.9338],[-58.7548,-32.0105,62.634],[-58.7681,-32.0135,54.9235],[-58.7908,-32.0129,60.0906],[-58.8075,-32.019,68.7227],[-58.8396,-32.0223,69.03],[-58.8426,-32.0243,68.9407],[-58.8425,-32.0482,64.0065],[-58.8449,-32.0505,61.8817],[-58.8682,-32.0521,53.5225],[-58.8773,-32.0511,52.7232],[-58.89,-32.0471,51.7579],[-58.8991,-32.047,55.4941],[-58.9077,-32.0496,49.0969],[-58.9145,-32.0548,50.0125],[-58.919,-32.0549,52.8554],[-58.928,-32.0533,58.4331],[-58.9572,-32.0425,56.4001],[-58.9706,-32.0446,56.5887],[-58.9841,-32.0444,62.5847],[-58.9995,-32.0364,60.9916],[-59.0083,-32.0388,53.3525],[-59.0305,-32.0346,46.8686],[-59.0607,-32.0377,32.5557],[-59.0605,-32.0506,32.4271],[-59.0618,-32.0542,33.4603],[-59.0693,-32.064,30.5942],[-59.082,-32.0751,30.9768],[-59.0893,-32.085,31.2281],[-59.0905,-32.0887,32.2578],[-59.0865,-32.1075,31.7923],[-59.091,-32.1225,33.3052],[-59.0923,-32.1419,27.5],[-59.085,-32.156,30.2177],[-59.0846,-32.1676,30.0705],[-59.0911,-32.1821,31.5404],[-59.1079,-32.2095,29.4193],[-59.1141,-32.2282,30.2697],[-59.1095,-32.2431,30.1104],[-59.1064,-32.246,32.3209],[-59.09,-32.2529,29.1136],[-59.0869,-32.2759,28.5681],[-59.0768,-32.2886,27.8325],[-59.0769,-32.304,27.8868],[-59.0732,-32.3191,27.4416],[-59.0822,-32.3277,27.4754],[-59.0865,-32.3346,26.9445],[-59.0896,-32.3458,26.4602],[-59.093,-32.3485,27.4664],[-59.0871,-32.359,25.1056],[-59.0869,-32.3627,25.5817],[-59.088,-32.3743,27.4165],[-59.0992,-32.3999,25.4594],[-59.0996,-32.4035,26.7435],[-59.095,-32.4146,26.0382],[-59.0957,-32.4184,22.92],[-59.1008,-32.4292,23.4303],[-59.1094,-32.4379,22.9671],[-59.1123,-32.4486,23.5924],[-59.0894,-32.4553,25.8026],[-59.0712,-32.4669,27.9998],[-59.0468,-32.4776,38.625],[-59.021,-32.4856,52.4338],[-58.9929,-32.4985,48.6949],[-58.9781,-32.5082,51.1806],[-58.97,-32.5108,52.9232],[-58.9572,-32.5063,47.5409],[-58.9514,-32.5002,54.5355],[-58.9407,-32.4753,51.6632],[-58.9365,-32.4697,45.7906],[-58.9285,-32.4812,50.6515],[-58.9165,-32.4761,46.3813],[-58.9142,-32.4954,56.6531],[-58.9099,-32.5065,63.1665],[-58.9048,-32.5128,62.3452],[-58.8965,-32.515,56.3141],[-58.883,-32.5118,54.6824],[-58.879,-32.5131,53.4094],[-58.8576,-32.5278,50.7608],[-58.8495,-32.5373,48.0721],[-58.8426,-32.5422,45.1048],[-58.8304,-32.5477,43.4282],[-58.8078,-32.5509,43.3825],[-58.7822,-32.5593,39.1988],[-58.7731,-32.559,38.456],[-58.7495,-32.5471,39.5009],[-58.7362,-32.5492,39.3989],[-58.7182,-32.5478,31.7827],[-58.6939,-32.537,30.5377],[-58.6795,-32.5275,29.6933],[-58.6706,-32.5274,30.0241],[-58.6623,-32.5239,28.8911],[-58.6531,-32.5154,27.8245],[-58.6492,-32.5131,26.7732],[-58.6449,-32.5129,26.4389],[-58.6278,-32.5188,27.4197],[-58.6123,-32.527,30.5821],[-58.6017,-32.5345,27.9804],[-58.5936,-32.5439,29.9497],[-58.5823,-32.5504,27.1095],[-58.5735,-32.5522,25.5135],[-58.5504,-32.5518,24.2112],[-58.5421,-32.5545,23.4316],[-58.5295,-32.566,22.2144],[-58.5252,-32.5728,21.2156],[-58.5246,-32.5765,19.9045],[-58.5247,-32.5922,19.7621],[-58.5322,-32.6104,17.2931],[-58.5269,-32.6292,20.3067],[-58.5371,-32.655,18.6346],[-58.5365,-32.6628,15.8357],[-58.5312,-32.6734,16.3365],[-58.5201,-32.6805,15.2494],[-58.5195,-32.6841,14.8169],[-58.5236,-32.7035,16.337],[-58.5139,-32.7167,13.0403],[-58.5107,-32.7277,12.1967],[-58.4997,-32.7401,13.9368],[-58.5031,-32.7514,13.4921],[-58.5042,-32.767,13.1526],[-58.4937,-32.7926,11.4327],[-58.495,-32.8002,11.2906],[-58.5002,-32.8066,10.7584],[-58.5013,-32.8103,10.9366],[-58.5009,-32.8143,11.0839],[-58.4959,-32.825,10.7293],[-58.4955,-32.8289,10.2077],[-58.4984,-32.8358,10.3527],[-58.4927,-32.8507,7.9096],[-58.5003,-32.8689,10.3128],[-58.5063,-32.8782,9.4063],[-58.2668,-32.8748,33.7453],[-58.2674,-32.9995,12.2719],[-58.1463,-33.0007,3.9205],[-58.1443,-33.0039,2.7216],[-58.1564,-33.0229,2.6796],[-58.1586,-33.0338,2.4942],[-58.1578,-33.0358,2.6273],[-58.1515,-33.0375,2.9066],[-58.151,-33.046,1.5],[-58.1523,-33.0513,1.0],[-58.1422,-33.0401,1.5],[-58.109,-33.0249,1.5],[-58.0974,-33.0165,2.0],[-58.0882,-33.0072,2.0],[-58.0841,-32.9978,2.0],[-58.0885,-32.9689,2.0],[-58.0871,-32.9572,2.0],[-58.0896,-32.9529,2.0],[-58.0973,-32.9471,2.0],[-58.1051,-32.9376,2.0],[-58.1115,-32.9279,2.0],[-58.1163,-32.9144,2.0],[-58.1171,-32.8987,2.0],[-58.1156,-32.8783,2.0],[-58.1223,-32.8606,2.0],[-58.1244,-32.8327,2.0],[-58.1193,-32.8152,2.0],[-58.1232,-32.8028,2.5708],[-58.1337,-32.7837,2.0],[-58.1395,-32.7542,2.0],[-58.1457,-32.7462,2.0],[-58.1494,-32.7338,2.0],[-58.1504,-32.727,2.0],[-58.1485,-32.6959,2.0],[-58.1448,-32.6773,2.0],[-58.1451,-32.6684,2.0],[-58.1517,-32.6397,2.0],[-58.1497,-32.6292,2.0],[-58.1506,-32.6246,2.0],[-58.161,-32.5915,2.0],[-58.1605,-32.5685,2.0],[-58.1713,-32.5471,2.0],[-58.184,-32.5353,2.0],[-58.1877,-32.5298,2.0],[-58.1875,-32.5134,2.0],[-58.1956,-32.4918,2.0],[-58.1965,-32.4789,2.0],[-58.2046,-32.4605,2.0],[-58.204,-32.4533,2.0],[-58.1967,-32.4318,2.0],[-58.1948,-32.4111,2.0],[-58.1852,-32.3933,2.0],[-58.1838,-32.3746,2.0],[-58.1759,-32.3651,2.0],[-58.1915,-32.3576,4.9474],[-58.1961,-32.3585,4.3522],[-58.2028,-32.3634,10.444],[-58.2113,-32.3627,5.7275],[-58.2199,-32.3537,25.929],[-58.2246,-32.3346,8.5001],[-58.2266,-32.3314,8.5039],[-58.2491,-32.3281,23.7553],[-58.2525,-32.3211,22.0035],[-58.2704,-32.3089,36.5536],[-58.2884,-32.3076,26.2495],[-58.2963,-32.304,18.9679],[-58.3045,-32.2946,19.8258],[-58.3158,-32.2734,33.1842],[-58.3315,-32.2585,33.2765],[-58.3351,-32.2567,39.5999],[-58.3389,-32.2577,34.3131],[-58.3421,-32.2611,26.8221],[-58.3442,-32.2687,25.6787],[-58.3474,-32.2714,30.2907],[-58.3564,-32.2737,41.3741],[-58.3606,-32.2729,37.8038],[-58.3699,-32.2643,37.1834],[-58.3709,-32.2604,32.6953],[-58.3687,-32.2532,30.2156],[-58.3723,-32.2461,32.6285],[-58.3813,-32.2443,47.6982],[-58.4042,-32.2441,53.8315],[-58.4128,-32.2412,51.6123],[-58.4146,-32.238,54.4505],[-58.4156,-32.23,56.1982],[-58.4148,-32.2106,52.1689],[-58.4095,-32.1921,46.5032],[-58.4102,-32.1889,48.7965],[-58.4176,-32.1841,45.539],[-58.4266,-32.1838,42.4666],[-58.4484,-32.1887,40.1391],[-58.4666,-32.1897,38.9633],[-58.4885,-32.1858,40.6362],[-58.4971,-32.1884,36.9502],[-58.5081,-32.1949,42.2669],[-58.5237,-32.1871,35.4178],[-58.5374,-32.1883,35.0048],[-58.5458,-32.1916,34.6759],[-58.5479,-32.1945,34.129],[-58.5476,-32.2182,37.4526],[-58.5507,-32.2255,34.9648],[-58.5572,-32.2307,38.5687],[-58.5654,-32.2274,35.2879],[-58.5695,-32.2042,35.608],[-58.5752,-32.1938,38.7645],[-58.5865,-32.1872,46.7213],[-58.6173,-32.1809,48.5529],[-58.6302,-32.1765,45.1325],[-58.6337,-32.1743,52.5741],[-58.6382,-32.1674,46.8312],[-58.6409,-32.16,45.6495],[-58.6467,-32.1216,42.5467],[-58.6457,-32.0944,50.7668],[-58.6467,-32.0867,48.6657],[-58.6504,-32.0797,51.5188],[-58.6626,-32.0682,46.3252],[-58.6704,-32.0499,47.1168],[-58.6913,-32.0111,52.313],[-58.6914,-31.9878,53.9712],[-58.6935,-31.9848,52.9855],[-58.7017,-31.9805,51.2009],[-58.7071,-31.9712,52.2565]]]]}
,"properties": {"GID_2": "ARG.8.15_1","GID_0": "ARG","country": "Argentina","GID_1": "ARG.8_1","state": "EntreRíos","NL_NAME_1": "NA","county": "Uruguay","VARNAME_2": "ConcepciondelUruguay","NL_NAME_2": "NA","TYPE_2": "Departamento","ENGTYPE_2": "Department","CC_2": "NA","HASC_2": "AR.ER.UR","name": "Uruguay.county","area_km2": 5201.7,"hist_schema_id": "Elevation0-9000","hist_area_km2": {"0": 597.263,"25": 1867.034,"50": 2513.807,"75": 223.597}}}