{"type":"Feature","properties":{"GID_2":"ARG.24.5_1","GID_0":"ARG","country":"Argentina","GID_1":"ARG.24_1","state":"Tucumán","NL_NAME_1":"NA","county":"Famaillá","VARNAME_2":"NA","NL_NAME_2":"NA","TYPE_2":"Departamento","ENGTYPE_2":"Department","CC_2":"NA","HASC_2":"AR.TM.FA","name":"Famaillá.county"},
"geometry":{"type": "MultiPolygon","coordinates": [[[[-65.6184,-26.8397,3083.6479],[-65.6226,-26.8535,3064.1353],[-65.6229,-26.865,2768.314],[-65.6252,-26.8764,2883.0393],[-65.6292,-26.8853,2633.8638],[-65.6345,-26.8901,2604.6897],[-65.6221,-26.8988,2147.3171],[-65.6062,-26.9195,2374.3464],[-65.5999,-26.9185,2330.5513],[-65.5766,-26.9087,1456.7466],[-65.5715,-26.9177,1418.8262],[-65.5723,-26.9234,1233.9185],[-65.5753,-26.9284,1477.1348],[-65.5739,-26.9378,1496.142],[-65.5706,-26.9402,1421.5419],[-65.5687,-26.9392,1362.4346],[-65.5669,-26.9485,1341.6934],[-65.5619,-26.9521,1007.6403],[-65.5578,-26.953,998.6421],[-65.5537,-26.9574,1022.3461],[-65.5464,-26.9616,937.571],[-65.542,-26.972,887.8625],[-65.5331,-26.9804,759.1493],[-65.5272,-26.9821,675.463],[-65.5246,-26.989,740.898],[-65.5106,-26.9979,552.9424],[-65.5007,-27.0014,515.1326],[-65.4881,-27.0192,419.1655],[-65.4831,-27.0226,411.2414],[-65.482,-27.0302,400.4887],[-65.4773,-27.0366,394.7949],[-65.474,-27.0458,388.9552],[-65.471,-27.0488,386.4661],[-65.474,-27.0531,383.0375],[-65.4743,-27.0625,377.0788],[-65.4798,-27.0655,376.984],[-65.4831,-27.0704,373.3039],[-65.4827,-27.0781,369.7037],[-65.4802,-27.0812,373.8525],[-65.4763,-27.0823,368.0425],[-65.4694,-27.0898,363.956],[-65.4639,-27.0928,360.5228],[-65.4647,-27.1001,357.7983],[-65.4629,-27.1036,356.8304],[-65.4538,-27.1115,352.9712],[-65.4495,-27.1123,352.3702],[-65.4413,-27.1211,349.663],[-65.4376,-27.1228,346.9949],[-65.4337,-27.1218,347.1587],[-65.4275,-27.1271,343.9601],[-65.4214,-27.1288,342.0283],[-65.4133,-27.1279,340.5362],[-65.4194,-27.1196,343.9703],[-65.4211,-27.1108,346.323],[-65.4103,-27.1109,344.4027],[-65.4045,-27.1137,343.2691],[-65.3994,-27.1011,346.1208],[-65.3937,-27.1028,346.3378],[-65.3923,-27.1012,346.2044],[-65.3864,-27.0868,347.9983],[-65.3709,-27.0925,343.2996],[-65.3699,-27.0981,343.013],[-65.3655,-27.1038,341.9285],[-65.3634,-27.1034,342.2667],[-65.3606,-27.099,342.2197],[-65.3483,-27.1033,339.1537],[-65.3443,-27.1033,340.4047],[-65.3452,-27.0976,341.0753],[-65.3507,-27.0893,344.4944],[-65.351,-27.0855,344.086],[-65.3441,-27.0782,345.8575],[-65.3428,-27.0687,347.3361],[-65.3276,-27.0484,353.9449],[-65.3257,-27.039,359.9698],[-65.3288,-27.0342,359.0903],[-65.3288,-27.0283,360.407],[-65.3365,-27.0193,366.4287],[-65.346,-27.015,366.4269],[-65.3522,-27.01,370.1838],[-65.3531,-27.0042,375.1688],[-65.3623,-26.9938,382.3041],[-65.3625,-26.9842,385.0858],[-65.3713,-26.9757,391.647],[-65.3728,-26.9701,393.4329],[-65.3767,-26.9655,396.7425],[-65.3783,-26.9642,401.2524],[-65.3889,-26.9636,406.2717],[-65.3973,-26.9575,427.1407],[-65.4051,-26.9593,427.8548],[-65.4107,-26.9511,442.4221],[-65.4183,-26.9479,455.9747],[-65.4304,-26.9369,474.1873],[-65.4341,-26.93,501.0449],[-65.4401,-26.9316,525.5577],[-65.448,-26.918,547.8046],[-65.4491,-26.9067,590.02],[-65.4541,-26.9004,665.7346],[-65.458,-26.8987,680.2264],[-65.4636,-26.8906,684.5347],[-65.4765,-26.8848,859.1774],[-65.4777,-26.8815,792.3232],[-65.4834,-26.8758,929.1521],[-65.4985,-26.865,1010.8011],[-65.5062,-26.862,1173.2015],[-65.5173,-26.8478,1612.1506],[-65.5431,-26.8498,1899.0549],[-65.545,-26.847,1826.2034],[-65.5557,-26.8471,2075.1213],[-65.5641,-26.8452,2039.1199],[-65.5747,-26.8458,2247.1821],[-65.5888,-26.8409,2472.885],[-65.5938,-26.8434,2723.4297],[-65.6058,-26.8394,2729.1162],[-65.6184,-26.8397,3083.6479]]]]}}