{"type":"Feature","properties":{"GID_2":"ARG.13.7_1","GID_0":"ARG","country":"Argentina","GID_1":"ARG.13_1","state":"Mendoza","NL_NAME_1":"NA","county":"LasHeras","VARNAME_2":"NA","NL_NAME_2":"NA","TYPE_2":"Departamento","ENGTYPE_2":"Department","CC_2":"NA","HASC_2":"AR.MZ.LH","name":"LasHeras.county"},
"geometry":{"type": "MultiPolygon","coordinates": [[[[-68.817,-32.8729,719.385],[-68.792,-32.8591,698.3865],[-68.7692,-32.851,681.3245],[-68.7297,-32.8335,654.0984],[-68.7131,-32.797,633.9762],[-68.7124,-32.7891,632.3596],[-68.6838,-32.7188,620.0797],[-68.6753,-32.7173,616.9353],[-68.6644,-32.6959,611.8038],[-68.659,-32.6591,603.7366],[-68.6718,-32.6133,590.2948],[-68.6664,-32.5791,584.1329],[-68.6581,-32.5789,583.1802],[-68.6501,-32.5418,579.7738],[-68.6393,-32.5412,577.1777],[-68.5897,-32.4284,563.3244],[-68.5791,-32.4125,562.2261],[-68.5561,-32.3846,560.5979],[-68.5381,-32.3485,557.4432],[-68.5197,-32.2851,550.921],[-68.52,-32.2747,550.6486],[-68.5242,-32.2621,550.7773],[-68.5244,-32.2569,550.431],[-68.5155,-32.2074,547.2147],[-68.5104,-32.1945,546.7792],[-68.5775,-32.2572,573.6918],[-68.6632,-32.331,601.8079],[-68.8283,-32.3286,862.4539],[-68.9315,-32.3235,1884.579],[-68.9311,-32.0975,1535.8695],[-68.9518,-32.0969,1615.282],[-68.9575,-32.098,1634.5714],[-68.9699,-32.1091,1740.2666],[-68.9871,-32.1133,1866.3092],[-69.011,-32.1139,2345.2241],[-69.0214,-32.1089,2583.1145],[-69.0308,-32.1025,2436.5107],[-69.0331,-32.0979,2565.7561],[-69.0514,-32.0851,2901.0615],[-69.0593,-32.0776,2867.6252],[-69.0644,-32.0753,2975.3262],[-69.0684,-32.0716,2956.8572],[-69.0705,-32.0668,3067.0825],[-69.0875,-32.0529,3445.4824],[-69.0907,-32.0486,3183.9736],[-69.0937,-32.0336,3577.4937],[-69.0973,-32.0297,3518.8301],[-69.1081,-32.0253,3757.7383],[-69.117,-32.0188,3797.9409],[-69.1162,-32.0044,3759.7295],[-69.1253,-31.9918,3914.7778],[-69.1271,-31.9868,3986.8718],[-69.1252,-31.9764,4066.7095],[-69.1268,-31.9718,4085.136],[-69.1324,-31.9698,4007.9412],[-69.1508,-31.9679,3550.4751],[-69.1568,-31.9687,3540.2417],[-69.1627,-31.9702,3448.6362],[-69.179,-31.9785,3583.1816],[-69.1818,-31.9822,3585.5461],[-69.1755,-31.9973,3471.4285],[-69.178,-32.0038,3599.9348],[-69.2058,-32.0068,3251.927],[-69.2111,-32.0091,3253.2798],[-69.2152,-32.0132,3103.8889],[-69.22,-32.0142,3003.625],[-69.2247,-32.0107,2995.0432],[-69.2301,-32.0094,2949.2075],[-69.246,-32.0162,2832.0254],[-69.2637,-32.0298,2678.9521],[-69.2665,-32.0344,2643.6797],[-69.2703,-32.0494,2577.4644],[-69.2839,-32.0709,2379.1511],[-69.3005,-32.0757,2324.7261],[-69.3056,-32.0785,2301.8296],[-69.3128,-32.0867,2263.5781],[-69.3174,-32.0896,2258.3767],[-69.3293,-32.0891,2240.3113],[-69.3407,-32.0858,2218.2593],[-69.3572,-32.0797,2202.2065],[-69.3718,-32.0709,2271.6582],[-69.3828,-32.0664,2436.2129],[-69.3871,-32.0682,2476.8218],[-69.3951,-32.0757,2523.9575],[-69.4005,-32.0778,2479.7729],[-69.4066,-32.0776,2594.7307],[-69.4117,-32.0754,2565.0459],[-69.4137,-32.0706,2599.6636],[-69.4181,-32.067,2582.019],[-69.4232,-32.0665,2509.5942],[-69.4382,-32.0752,2622.553],[-69.4562,-32.0758,2705.4224],[-69.4617,-32.0775,2817.2566],[-69.4814,-32.0968,3091.4229],[-69.4851,-32.1065,3215.5732],[-69.4888,-32.1104,3316.1501],[-69.5003,-32.1123,3595.8457],[-69.5082,-32.1199,3780.5454],[-69.52,-32.1279,4031.3381],[-69.541,-32.1378,4239.438],[-69.5525,-32.1369,4184.8384],[-69.5626,-32.1316,4699.084],[-69.5683,-32.1321,4497.2773],[-69.5776,-32.1384,4583.7139],[-69.5893,-32.1372,4552.6753],[-69.5944,-32.1398,4595.8281],[-69.6059,-32.1574,4631.0825],[-69.6059,-32.1625,4404.5469],[-69.6019,-32.1771,4734.7725],[-69.6071,-32.1864,4746.1768],[-69.6077,-32.2014,5115.4834],[-69.6178,-32.2141,4962.4419],[-69.6197,-32.2189,4670.9009],[-69.6205,-32.2239,4562.8394],[-69.6188,-32.234,5010.3882],[-69.6199,-32.239,5170.1816],[-69.6316,-32.2507,4746.0322],[-69.6362,-32.26,4737.1006],[-69.6463,-32.2656,4752.7144],[-69.661,-32.2818,4850.1855],[-69.6667,-32.2907,4897.9033],[-69.6801,-32.301,5561.1738],[-69.6905,-32.3134,5076.4341],[-69.7063,-32.3253,4704.0317],[-69.7115,-32.3345,4625.8052],[-69.7147,-32.3494,4677.7744],[-69.7069,-32.3687,4309.2041],[-69.698,-32.3754,4489.0039],[-69.6952,-32.38,4451.1997],[-69.6914,-32.3949,3839.686],[-69.6907,-32.4103,4253.4941],[-69.6923,-32.4254,3861.4658],[-69.6908,-32.4356,4027.2598],[-69.6914,-32.4406,4066.3936],[-69.6966,-32.4498,4584.7769],[-69.6969,-32.4547,4531.7725],[-69.6859,-32.4729,4169.2349],[-69.682,-32.4825,4347.5142],[-69.6856,-32.4923,4115.5332],[-69.6864,-32.5076,4419.9243],[-69.6882,-32.5124,4450.9531],[-69.6961,-32.5202,4303.103],[-69.7072,-32.524,4094.5637],[-69.7153,-32.5315,3998.0649],[-69.7321,-32.5371,3878.5369],[-69.7557,-32.5326,4464.751],[-69.7798,-32.5314,4685.8491],[-69.7907,-32.5355,4411.5747],[-69.8025,-32.5373,3957.5825],[-69.8155,-32.5479,4449.9492],[-69.8186,-32.5523,4193.4102],[-69.8227,-32.567,4253.4893],[-69.8344,-32.5696,4453.5845],[-69.8461,-32.5674,4376.8232],[-69.8558,-32.5614,4324.5503],[-69.8615,-32.5603,4248.9316],[-69.8857,-32.5617,4257.7334],[-69.9032,-32.5577,4432.9316],[-69.9215,-32.5445,4485.1831],[-69.9327,-32.5409,4292.2529],[-69.9446,-32.5411,4279.2285],[-69.9616,-32.5462,4700.9194],[-69.9768,-32.5386,4721.2676],[-69.9829,-32.5396,4589.2832],[-70.004,-32.5495,4661.2466],[-70.0325,-32.5683,4688.3809],[-70.0358,-32.5725,4793.751],[-70.0351,-32.598,4833.3555],[-70.0449,-32.6167,4926.4829],[-70.056,-32.6287,4769.4736],[-70.0736,-32.6319,4778.3418],[-70.0796,-32.6309,4889.4204],[-70.0886,-32.6244,5299.0962],[-70.0926,-32.6147,4958.4678],[-70.0966,-32.5947,4719.9497],[-70.1131,-32.5796,4638.5576],[-70.1263,-32.5727,4842.7207],[-70.1265,-32.5757,5022.2798],[-70.1294,-32.5774,4890.1216],[-70.1355,-32.5773,4736.7861],[-70.1459,-32.5819,4944.2393],[-70.1496,-32.5809,4966.6201],[-70.1627,-32.5973,4623.0977],[-70.1635,-32.6042,4789.9619],[-70.1655,-32.6073,4768.3931],[-70.1655,-32.6163,4575.8916],[-70.1721,-32.6211,4557.002],[-70.1696,-32.6257,4642.1826],[-70.1585,-32.6292,4408.4829],[-70.1508,-32.6371,4411.7207],[-70.1521,-32.6448,4446.8228],[-70.1482,-32.6476,4361.3867],[-70.146,-32.6521,4391.1543],[-70.1495,-32.6573,4294.5039],[-70.1467,-32.6591,4385.7168],[-70.1461,-32.6743,4348.2764],[-70.1427,-32.6788,4273.6758],[-70.1427,-32.6937,4442.959],[-70.1465,-32.7066,4434.5425],[-70.1438,-32.711,4508.8984],[-70.1441,-32.718,4492.2378],[-70.1451,-32.7251,4313.1631],[-70.1465,-32.725,4383.6123],[-70.1476,-32.7281,4462.4307],[-70.1472,-32.7291,4457.1064],[-70.1427,-32.7287,4412.1807],[-70.1373,-32.732,4675.0039],[-70.1367,-32.7398,4516.6924],[-70.1317,-32.7456,4511.1523],[-70.1307,-32.7539,4083.6436],[-70.1324,-32.7558,4034.084],[-70.127,-32.7612,4169.2197],[-70.1159,-32.7671,4174.4033],[-70.1131,-32.7716,4109.0576],[-70.1123,-32.7786,4204.7319],[-70.1072,-32.7924,4177.7275],[-70.1079,-32.8007,4409.2197],[-70.1023,-32.8,4148.9829],[-70.0921,-32.8016,4040.6335],[-70.087,-32.8055,3907.7051],[-70.0838,-32.8126,3853.5837],[-70.0609,-32.8116,3192.074],[-70.0282,-32.807,3504.8228],[-70.0128,-32.8086,3401.1597],[-69.9901,-32.8168,2938.415],[-69.947,-32.8128,3021.3196],[-69.9255,-32.8146,3015.9587],[-69.8781,-32.8265,2698.353],[-69.862799999999993,-32.8287,3000.6074],[-69.7929,-32.8498,2945.2354],[-69.7775,-32.8519,3143.8667],[-69.7382,-32.845,2400.3806],[-69.7119,-32.8314,2352.2749],[-69.7026,-32.8244,2448.3787],[-69.6805,-32.8152,2274.0708],[-69.668,-32.8074,2234.4729],[-69.646,-32.7891,2231.0046],[-69.6074,-32.7724,2403.2534],[-69.5966,-32.7631,2151.3984],[-69.5861,-32.7576,2082.8999],[-69.5709,-32.7446,2110.6377],[-69.5503,-32.7331,2097.5396],[-69.5298,-32.7171,2233.0781],[-69.5224,-32.7087,2129.4639],[-69.5145,-32.6945,2037.0178],[-69.4936,-32.648,1958.9768],[-69.4818,-32.6359,1921.1377],[-69.4762,-32.6342,1914.3193],[-69.4514,-32.6332,1882.3154],[-69.4132,-32.6439,1831.2223],[-69.3898,-32.6565,1795.2493],[-69.3746,-32.6729,1762.366],[-69.3631,-32.6817,1739.4729],[-69.3558,-32.6901,1718.8757],[-69.3464,-32.7066,2040.8336],[-69.3362,-32.7198,1964.0001],[-69.3324,-32.7296,1710.7573],[-69.3292,-32.7452,1882.0294],[-69.3269,-32.7765,1741.6761],[-69.3207,-32.7967,1703.6655],[-69.3017,-32.8236,1656.4397],[-69.2784,-32.8448,1781.1951],[-69.2734,-32.8512,1987.0129],[-69.2714,-32.8747,1565.7056],[-69.2647,-32.8865,1582.0725],[-69.2672,-32.9021,1523.4858],[-69.265,-32.9097,1463.6824],[-69.2572,-32.9136,1470.4641],[-69.2389,-32.9172,1453.3973],[-69.2306,-32.9207,1494.1501],[-69.1939,-32.9489,1375.0],[-69.1685,-32.9718,1375.0],[-69.1357,-32.9915,1375.0],[-69.126,-33.0016,1282.8684],[-69.1197,-33.0168,1341.0239],[-69.1054,-33.0368,1200.4436],[-69.0972,-33.0448,1173.2576],[-69.0899,-33.0481,1192.1407],[-69.0831,-33.0489,1162.6375],[-69.0657,-33.0439,1183.5735],[-69.0232,-33.0427,1088.3898],[-68.9975,-33.0397,1083.6886],[-68.9647,-33.0228,1082.3621],[-68.934,-33.0108,1029.4783],[-68.9075,-32.9966,976.6877],[-68.8784,-32.9669,932.0535],[-68.8781,-32.956,933.2946],[-68.9657,-32.9551,1218.7163],[-68.9639,-32.859,1361.0144],[-68.8262,-32.861,718.7935],[-68.8264,-32.8649,725.2034],[-68.8158,-32.8668,714.4655],[-68.817,-32.8729,719.385]]]]}}