{"type": "Feature","bbox": [-55.6228,-27.401,-55.097,-26.9405],"geometry": {"type": "MultiPolygon","coordinates": [[[[-55.0972,-27.053,233.1519],[-55.097,-27.0475,217.5172],[-55.1388,-27.0468,189.68],[-55.142,-27.0541,164.645],[-55.1447,-27.0552,166.8845],[-55.1474,-27.0542,168.9881],[-55.154,-27.0394,167.9302],[-55.1684,-27.037,169.1884],[-55.1709,-27.0325,151.0122],[-55.171,-27.0245,174.067],[-55.1761,-27.0231,160.1519],[-55.1777,-27.0208,146.8853],[-55.1797,-27.003,135.2626],[-55.1752,-27.0001,176.7207],[-55.1748,-26.9975,163.1117],[-55.1826,-26.9943,161.4034],[-55.1795,-26.9902,151.1961],[-55.1805,-26.988,155.3513],[-55.1855,-26.9903,150.0999],[-55.1883,-26.9902,149.1299],[-55.1914,-26.9868,149.4457],[-55.1991,-26.9905,89.5934],[-55.2041,-26.9885,111.0159],[-55.2044,-26.9859,122.585],[-55.198,-26.9807,125.5385],[-55.201,-26.9767,96.3046],[-55.201,-26.9721,89.7739],[-55.1655,-26.9618,113.2487],[-55.153,-26.9605,112.8149],[-55.1439,-26.9577,110.5766],[-55.1348,-26.9501,86.0],[-55.1315,-26.9438,86.0],[-55.1431,-26.9548,86.0],[-55.1523,-26.9576,86.0],[-55.1648,-26.9589,86.0],[-55.1964,-26.9689,86.0],[-55.2125,-26.9677,86.0],[-55.2356,-26.9463,86.0],[-55.251,-26.9407,88.2007],[-55.2555,-26.9405,94.3365],[-55.2731,-26.9435,86.0],[-55.2895,-26.9556,86.0],[-55.3016,-26.9617,86.0],[-55.3126,-26.9639,86.0],[-55.3705,-26.965699999999998,86.0],[-55.3777,-26.9676,86.0],[-55.4197,-26.9962,86.0],[-55.4304,-27.0058,86.0],[-55.4413,-27.0197,85.5],[-55.4522,-27.0405,85.5],[-55.4565,-27.0549,85.0],[-55.4578,-27.0727,85.0],[-55.4538,-27.0913,84.5],[-55.4566,-27.1022,84.375],[-55.4677,-27.1089,84.0],[-55.4768,-27.1113,84.0],[-55.4864,-27.1119,83.75],[-55.5092,-27.1098,123.7518],[-55.5188,-27.1061,83.0],[-55.5367,-27.1074,83.0],[-55.5483,-27.1118,82.5],[-55.5584,-27.1203,88.6032],[-55.5639,-27.1312,82.5],[-55.566,-27.1385,82.5],[-55.5619,-27.1534,82.5],[-55.5658,-27.1625,82.5],[-55.5696,-27.1657,82.5],[-55.5803,-27.1682,82.0],[-55.602,-27.1654,82.0],[-55.6112,-27.1703,82.0],[-55.6154,-27.1756,82.0],[-55.6228,-27.1937,82.0],[-55.6206,-27.2035,82.0],[-55.6133,-27.2137,82.0],[-55.5909,-27.2313,81.5],[-55.5804,-27.2482,81.5],[-55.5803,-27.2518,81.5],[-55.5842,-27.2628,81.5],[-55.6009,-27.2884,81.5],[-55.6003,-27.2929,81.5],[-55.5965,-27.2973,81.0],[-55.5921,-27.3144,81.0],[-55.5909,-27.3161,81.0],[-55.5552,-27.2943,81.5],[-55.5346,-27.2927,93.6656],[-55.5321,-27.2913,111.7122],[-55.5297,-27.284,82.0],[-55.522,-27.2798,82.5],[-55.5132,-27.2786,99.0148],[-55.5105,-27.28,83.287],[-55.5098,-27.2824,83.2348],[-55.5234,-27.2872,97.3369],[-55.5249,-27.2894,83.4915],[-55.5241,-27.2918,89.6396],[-55.5161,-27.2957,97.916],[-55.5015,-27.2949,116.0448],[-55.5027,-27.3026,101.5652],[-55.4961,-27.3078,105.0311],[-55.4931,-27.3083,91.0311],[-55.4849,-27.3009,105.7617],[-55.4821,-27.3015,101.834],[-55.4808,-27.3039,109.2702],[-55.482,-27.309,94.2886],[-55.4801,-27.3111,101.4041],[-55.4743,-27.3112,109.8488],[-55.4694,-27.3177,92.3999],[-55.4706,-27.32,97.2751],[-55.4733,-27.3205,105.9709],[-55.4786,-27.3179,93.2747],[-55.4799,-27.3198,109.9081],[-55.4798,-27.3302,139.6818],[-55.4765,-27.3378,112.4091],[-55.4771,-27.3404,108.9414],[-55.4828,-27.3398,95.5698],[-55.4914,-27.3466,100.0635],[-55.493,-27.3597,99.4008],[-55.4899,-27.3644,110.1487],[-55.4843,-27.3653,96.7997],[-55.4792,-27.3625,107.0952],[-55.4763,-27.3627,128.5364],[-55.4658,-27.3679,107.0761],[-55.4571,-27.3695,168.5882],[-55.4539,-27.3735,151.5119],[-55.453,-27.3787,120.8656],[-55.4413,-27.3801,124.0089],[-55.438,-27.3842,104.4721],[-55.4397,-27.3884,116.6305],[-55.431399999999996,-27.3913,119.6102],[-55.4255,-27.3897,107.9774],[-55.426,-27.3874,109.8057],[-55.431,-27.3851,121.4143],[-55.4317,-27.3824,104.9008],[-55.4307,-27.3775,134.9101],[-55.4278,-27.3766,133.3597],[-55.4219,-27.3769,130.4035],[-55.4204,-27.3838,129.3706],[-55.4065,-27.3864,125.6829],[-55.4058,-27.3812,155.0417],[-55.4133,-27.3775,117.4291],[-55.4127,-27.3748,113.6402],[-55.4113,-27.3725,110.1973],[-55.403,-27.37,114.6785],[-55.4,-27.3658,115.3118],[-55.3963,-27.3693,129.3146],[-55.3904,-27.3681,112.1151],[-55.3901,-27.3783,123.985],[-55.3875,-27.3777,129.8022],[-55.3839,-27.3734,153.784],[-55.3812,-27.3733,153.3232],[-55.3791,-27.3752,140.8172],[-55.3776,-27.3802,123.7889],[-55.3813,-27.3843,120.5682],[-55.3813,-27.3899,119.864],[-55.3792,-27.3903,118.4636],[-55.3751,-27.3864,122.9623],[-55.3633,-27.3852,125.127],[-55.3592,-27.3781,159.9538],[-55.3565,-27.3772,146.9841],[-55.3522,-27.3809,118.1014],[-55.3466,-27.3816,136.2438],[-55.3445,-27.3891,165.2905],[-55.3562,-27.3908,142.8006],[-55.3587,-27.3923,166.5923],[-55.358,-27.3946,138.3354],[-55.3377,-27.3979,138.4944],[-55.3228,-27.398,132.068],[-55.3206,-27.3962,158.1216],[-55.3198,-27.3937,142.2717],[-55.3222,-27.3888,140.732],[-55.3141,-27.3746,187.0479],[-55.3111,-27.3738,173.4771],[-55.3093,-27.3752,163.0931],[-55.3098,-27.3832,131.77],[-55.3045,-27.3895,158.9182],[-55.3035,-27.3974,166.0966],[-55.295,-27.3966,179.9819],[-55.2921,-27.401,163.3294],[-55.2872,-27.4005,148.5458],[-55.2889,-27.3992,146.8919],[-55.2876,-27.3973,139.3758],[-55.2817,-27.3967,161.1188],[-55.2806,-27.3943,156.913],[-55.2874,-27.3907,145.6038],[-55.2828,-27.3886,162.6891],[-55.2835,-27.3859,148.2198],[-55.2937,-27.3828,145.7288],[-55.2958,-27.3781,145.07],[-55.2947,-27.3758,164.4493],[-55.2894,-27.3783,152.151],[-55.2838,-27.3769,151.7607],[-55.2838,-27.3691,151.9666],[-55.2802,-27.3654,173.9049],[-55.289,-27.3591,151.9756],[-55.2896,-27.354,168.8981],[-55.2786,-27.3522,153.0684],[-55.2726,-27.3344,165.9756],[-55.2701,-27.3331,160.3976],[-55.2596,-27.3374,183.6479],[-55.2511,-27.336,183.1177],[-55.2409,-27.3304,170.6546],[-55.237,-27.3233,196.316],[-55.2353,-27.3278,175.2342],[-55.2326,-27.3291,188.3795],[-55.2152,-27.3262,186.4933],[-55.2119,-27.322,188.649],[-55.2174,-27.321,183.6526],[-55.218,-27.3187,181.2741],[-55.2122,-27.3097,255.5764],[-55.2107,-27.3166,193.7465],[-55.2081,-27.3161,243.0039],[-55.2046,-27.3117,284.7737],[-55.2018,-27.311,234.4715],[-55.1906,-27.3143,197.907],[-55.1856,-27.3113,255.5687],[-55.1844,-27.3089,205.9689],[-55.1858,-27.3068,204.5284],[-55.1916,-27.3066,209.541],[-55.1924,-27.3044,200.2758],[-55.1907,-27.3022,204.7221],[-55.1934,-27.2949,228.874],[-55.1911,-27.29,263.2283],[-55.1857,-27.2883,237.1696],[-55.1775,-27.291,266.1876],[-55.1722,-27.289,217.3858],[-55.1678,-27.2927,223.2028],[-55.1649,-27.2932,222.6566],[-55.1633,-27.2911,219.1045],[-55.1644,-27.2886,220.2593],[-55.1634,-27.2837,262.2354],[-55.1606,-27.283,271.5178],[-55.1541,-27.2881,224.394],[-55.1511,-27.2876,225.4327],[-55.1507,-27.2824,272.4259],[-55.1429,-27.2802,231.8158],[-55.1446,-27.2725,279.2313],[-55.1434,-27.27,293.3897],[-55.1354,-27.2715,265.3597],[-55.1358,-27.18,240.9645],[-55.1004,-27.1795,349.2995],[-55.0972,-27.053,233.1519]]]]}
,"properties": {"GID_2": "ARG.14.14_1","GID_0": "ARG","country": "Argentina","GID_1": "ARG.14_1","state": "Misiones","NL_NAME_1": "NA","county": "SanIgnacio","VARNAME_2": "NA","NL_NAME_2": "NA","TYPE_2": "Departamento","ENGTYPE_2": "Department","CC_2": "NA","HASC_2": "AR.MN.SI","name": "SanIgnacio.county","area_km2": 1658.179,"hist_schema_id": "Elevation0-9000","hist_area_km2": {"75": 52.726,"100": 83.295,"125": 186.63,"150": 262.931,"175": 304.574,"200": 271.179,"225": 199.131,"250": 109.634,"275": 59.334,"300": 37.062,"325": 27.485,"350": 22.492,"375": 17.288,"400": 14.216,"425": 8.391,"450": 1.584,"475": 0.226}}}