{"type": "Feature","bbox": [-68.3814,-31.9017,-66.7154,-30.9174],"geometry": {"type": "MultiPolygon","coordinates": [[[[-66.8573,-31.7612,387.2139],[-66.8581,-31.673,385.5466],[-66.8602,-31.6608,395.3488],[-66.8695,-31.6381,405.0458],[-66.9461,-31.6378,422.227],[-66.9832,-31.6053,411.3708],[-67.0309,-31.5792,398.2398],[-67.0436,-31.5685,397.8773],[-67.0518,-31.5587,397.8193],[-67.0588,-31.5415,397.4698],[-67.068,-31.4569,402.2577],[-67.0708,-31.4483,403.237],[-67.0818,-31.4345,404.7591],[-67.1152,-31.4336,411.5385],[-67.2175,-31.4401,468.5363],[-67.2537,-31.4453,501.151],[-67.2675,-31.4493,515.6177],[-67.275,-31.4489,523.2023],[-67.2818,-31.4468,528.3242],[-67.2957,-31.4363,549.8731],[-67.3257,-31.4087,693.5793],[-67.3365,-31.3961,792.577],[-67.3478,-31.3799,876.118],[-67.3508,-31.358,1112.1145],[-67.3592,-31.3406,995.254],[-67.3727,-31.2981,1086.8564],[-67.3826,-31.2778,1221.0189],[-67.3967,-31.2421,1642.0958],[-67.4064,-31.2288,1633.056],[-67.4133,-31.2142,1725.3081],[-67.4136,-31.186,2032.6543],[-67.4113,-31.1704,2069.4153],[-67.4071,-31.1583,1917.2676],[-67.4074,-31.1458,2057.1609],[-67.4134,-31.1243,2157.2129],[-67.4312,-31.097,2438.0334],[-67.4368,-31.0822,2133.0928],[-67.4322,-31.0701,1958.8287],[-67.4247,-31.0635,2005.6084],[-67.4242,-31.0603,2108.6145],[-67.4252,-31.0574,2268.3467],[-67.4349,-31.0479,2397.2217],[-67.4507,-31.0348,2334.3806],[-67.4761,-31.0227,2517.1863],[-67.49,-31.0189,2497.9697],[-67.4946,-31.0146,2492.0835],[-67.4884,-31.003,2363.3328],[-67.4756,-30.9919,2180.9346],[-67.4621,-30.977,2046.9957],[-67.4592,-30.9713,2171.5369],[-67.4589,-30.9649,2065.2356],[-67.4618,-30.9558,1809.3073],[-67.4672,-30.9476,1939.7134],[-67.4904,-30.9327,2063.6179],[-67.4951,-30.928,2138.314],[-67.5006,-30.9174,1932.566],[-67.9293,-30.9205,656.059],[-67.9212,-30.933,653.8895],[-67.9133,-30.9415,651.598],[-67.8778,-30.9645,648.5648],[-67.8253,-30.9836,646.2246],[-67.7847,-30.9936,643.1731],[-67.8035,-31.0298,643.3873],[-67.8548,-31.1189,1900.0305],[-67.8714,-31.1515,2197.2014],[-67.8752,-31.1898,2549.7126],[-67.8849,-31.241,2949.2808],[-67.8961,-31.2865,2905.9385],[-67.9006,-31.2967,3103.0984],[-67.9145,-31.3214,3113.7502],[-67.9371,-31.3511,3001.1997],[-67.964,-31.3816,2438.7144],[-68.0013,-31.4153,2208.1423],[-68.0188,-31.4382,2435.5186],[-68.0265,-31.4512,2389.0566],[-67.9844,-31.6108,1417.7534],[-68.3814,-31.5571,582.0156],[-68.3755,-31.5614,584.6823],[-68.3631,-31.5667,582.9009],[-68.3599,-31.5714,580.9857],[-68.3594,-31.5824,577.8705],[-68.3559,-31.588,580.6599],[-68.354,-31.6026,576.6307],[-68.3498,-31.6149,576.4849],[-68.3486,-31.6415,573.6871],[-68.3408,-31.6595,572.4943],[-68.3439,-31.6868,570.3582],[-68.0723,-31.7414,691.3524],[-67.3873,-31.8762,529.4756],[-67.38,-31.8728,530.5538],[-67.3472,-31.8686,529.5947],[-67.3261,-31.8685,527.5886],[-67.2911,-31.8738,528.3527],[-67.2637,-31.8801,563.6974],[-67.2435,-31.8865,785.1878],[-67.2367,-31.8869,774.3505],[-67.1841,-31.8794,649.0249],[-67.1451,-31.8791,602.7111],[-67.113,-31.8824,570.896],[-67.1024,-31.8894,564.6846],[-67.101,-31.8925,565.7555],[-67.0941,-31.8982,564.663],[-67.0582,-31.8961,522.858],[-66.9803,-31.9003,465.5874],[-66.9306,-31.899,436.353],[-66.8916,-31.8958,417.7509],[-66.8797,-31.9012,412.6273],[-66.8727,-31.9017,410.2613],[-66.8157,-31.9006,377.8707],[-66.7663,-31.8963,367.937],[-66.7526,-31.8931,367.2061],[-66.7403,-31.887,367.0632],[-66.7154,-31.8871,366.0609],[-66.7337,-31.8711,367.0652],[-66.742,-31.8614,367.7151],[-66.7549,-31.8265,369.3471],[-66.768,-31.8173,370.8286],[-66.8028,-31.8102,373.2062],[-66.8229,-31.8035,375.0005],[-66.835,-31.7975,380.0275],[-66.8451,-31.789,383.1533],[-66.8526,-31.7785,385.4465],[-66.8573,-31.7612,387.2139]]]]}
,"properties": {"GID_2": "ARG.18.5_1","GID_0": "ARG","country": "Argentina","GID_1": "ARG.18_1","state": "SanJuan","NL_NAME_1": "NA","county": "Caucete","VARNAME_2": "NA","NL_NAME_2": "NA","TYPE_2": "Departamento","ENGTYPE_2": "Department","CC_2": "NA","HASC_2": "AR.SJ.CC","name": "Caucete.county","area_km2": 7805.207,"hist_schema_id": "Elevation0-9000","hist_area_km2": {"375": 111.326,"400": 292.135,"425": 342.981,"450": 219.817,"475": 183.11,"500": 175.012,"525": 348.62,"550": 993.994,"575": 989.285,"600": 585.419,"625": 514.113,"650": 419.057,"675": 182.621,"700": 155.574,"725": 126.19,"750": 108.645,"775": 99.326,"800": 91.893,"825": 79.059,"850": 73.786,"875": 68.917,"900": 62.748,"925": 57.911,"950": 52.948,"975": 48.078,"1000": 44.814,"1025": 44.489,"1050": 41.773,"1075": 42.334,"1100": 39.42,"1125": 36.79,"1150": 31.974,"1175": 31.02,"1200": 29.301,"1225": 28.289,"1250": 28.415,"1275": 28.234,"1300": 28.033,"1325": 27.022,"1350": 26.051,"1375": 24.316,"1400": 23.483,"1425": 21.748,"1450": 21.553,"1475": 21.461,"1500": 20.358,"1525": 19.057,"1550": 19.073,"1575": 18.971,"1600": 18.229,"1625": 17.234,"1650": 18.124,"1675": 17.435,"1700": 17.707,"1725": 18.521,"1750": 17.2,"1775": 16.22,"1800": 16.854,"1825": 17.11,"1850": 16.654,"1875": 18.382,"1900": 15.628,"1925": 16.463,"1950": 16.339,"1975": 17.1,"2000": 16.102,"2025": 16.721,"2050": 16.882,"2075": 15.666,"2100": 15.812,"2125": 16.193,"2150": 15.681,"2175": 16.116,"2200": 15.984,"2225": 16.437,"2250": 16.636,"2275": 15.893,"2300": 16.855,"2325": 16.294,"2350": 16.043,"2375": 16.189,"2400": 15.297,"2425": 14.806,"2450": 13.61,"2475": 12.106,"2500": 12.013,"2525": 13.551,"2550": 13.313,"2575": 11.648,"2600": 10.398,"2625": 7.936,"2650": 7.013,"2675": 5.926,"2700": 5.309,"2725": 4.819,"2750": 4.185,"2775": 4.51,"2800": 3.351,"2825": 2.99,"2850": 2.736,"2875": 3.099,"2900": 2.374,"2925": 3.442,"2950": 3.316,"2975": 2.881,"3000": 2.844,"3025": 2.445,"3050": 1.721,"3075": 1.34,"3100": 0.797,"3125": 0.181}}}