{"type": "Feature","bbox": [-60.0736,-34.0124,-59.4927,-33.5748],"geometry": {"type": "MultiPolygon","coordinates": [[[[-59.7831,-34.0124,20.2985],[-59.774,-34.0089,13.401],[-59.7611,-34.0011,13.7312],[-59.7555,-34.0016,13.5569],[-59.7346,-33.9879,10.5506],[-59.7305,-33.981,11.5909],[-59.7204,-33.9709,15.5176],[-59.7195,-33.9605,26.9831],[-59.7148,-33.9527,19.4832],[-59.7092,-33.9483,8.6503],[-59.6908,-33.9405,9.7384],[-59.6724,-33.9288,7.2508],[-59.655,-33.9222,6.9213],[-59.6496,-33.91,7.1669],[-59.6432,-33.9001,7.4867],[-59.6385,-33.8962,7.4715],[-59.6372,-33.8902,6.1703],[-59.6204,-33.8755,5.9132],[-59.611,-33.8719,5.5014],[-59.6073,-33.8688,5.1899],[-59.6057,-33.8611,5.1353],[-59.6012,-33.8544,4.7366],[-59.6022,-33.8353,4.5144],[-59.6,-33.83,4.5872],[-59.5916,-33.8199,4.5796],[-59.5894,-33.8009,4.215],[-59.5775,-33.7874,3.7126],[-59.5776,-33.7834,3.2158],[-59.5701,-33.7764,3.5688],[-59.5632,-33.7763,7.9619],[-59.5574,-33.7743,3.4277],[-59.5516,-33.7765,3.9467],[-59.5433,-33.7772,3.1997],[-59.5395,-33.7794,3.4485],[-59.5262,-33.7783,3.8043],[-59.511,-33.7892,28.147],[-59.5101,-33.7823,4.4875],[-59.5136,-33.7768,2.7957],[-59.5341,-33.7668,2.9191],[-59.5611,-33.7619,2.9776],[-59.565,-33.7587,2.7187],[-59.4927,-33.6497,3.3772],[-59.508,-33.6354,2.1752],[-59.5212,-33.6311,0.0],[-59.539,-33.6321,2.9341],[-59.5448,-33.6352,2.1262],[-59.5618,-33.6543,0.0],[-59.5962,-33.6842,2.8081],[-59.6052,-33.689,0.0],[-59.6158,-33.6905,0.0],[-59.6221,-33.6882,0.0],[-59.6343,-33.6773,0.0],[-59.6428,-33.661,2.9902],[-59.6443,-33.6493,2.8673],[-59.6486,-33.6379,0.0],[-59.6578,-33.629,0.0],[-59.6643,-33.6267,0.0],[-59.6845,-33.6148,3.4425],[-59.7089,-33.611,3.5091],[-59.7221,-33.6067,0.0],[-59.7362,-33.6054,0.0],[-59.7532,-33.6096,0.0],[-59.7639,-33.6093,0.0],[-59.794,-33.6005,0.0],[-59.8154,-33.585,0.0],[-59.8186,-33.58,0.0],[-59.8193,-33.5748,0.0],[-60.0436,-33.7741,54.8369],[-60.0474,-33.7721,54.7139],[-60.0736,-33.7836,50.5056],[-60.0182,-33.8312,39.192],[-60.0246,-33.8317,39.9222],[-60.0231,-33.8329,40.0292],[-59.7966,-34.0055,29.4258],[-59.7831,-34.0124,20.2985]]]]}
,"properties": {"GID_2": "ARG.1.112_1","GID_0": "ARG","country": "Argentina","GID_1": "ARG.1_1","state": "BuenosAires","NL_NAME_1": "NA","county": "SanPedro","VARNAME_2": "NA","NL_NAME_2": "NA","TYPE_2": "Partido","ENGTYPE_2": "Part","CC_2": "NA","HASC_2": "AR.BA.SP","name": "SanPedro.county","area_km2": 1367.394,"hist_schema_id": "Elevation0-9000","hist_area_km2": {"0": 279.813,"25": 761.028,"50": 326.501,"75": 0.053}}}