{"type": "Feature","bbox": [-65.7769,-31.7591,-64.9142,-31.2672],"geometry": {"type": "MultiPolygon","coordinates": [[[[-64.9216,-31.2696,1542.4802],[-65.7721,-31.2672,248.3593],[-65.7769,-31.7448,309.7369],[-65.623,-31.751,321.2107],[-65.6205,-31.7574,322.6829],[-65.5064,-31.7591,348.0985],[-65.4916,-31.702,331.2603],[-65.4773,-31.7004,335.1482],[-65.4739,-31.622,314.9862],[-65.4101,-31.6198,331.9584],[-65.4064,-31.6471,337.9197],[-65.2855,-31.6514,492.0036],[-65.287,-31.6404,638.1119],[-65.2858,-31.6351,768.8331],[-65.2787,-31.6258,916.6821],[-65.2325,-31.5961,1144.2977],[-65.208,-31.5641,1076.843],[-65.1936,-31.5533,1059.4969],[-65.1654,-31.54,1043.8932],[-65.129,-31.5175,1036.7909],[-65.1146,-31.4993,1050.7325],[-65.0883,-31.4552,1074.6625],[-65.0722,-31.4381,1085.4641],[-65.0616,-31.4318,1112.2465],[-65.0497,-31.4278,1138.9792],[-65.0114,-31.4256,1315.9387],[-64.9868,-31.4193,1446.9546],[-64.9741,-31.4176,1474.2913],[-64.9498,-31.4106,1475.9073],[-64.9323,-31.4094,1632.1479],[-64.9226,-31.3897,1699.5331],[-64.9142,-31.3576,1730.3812],[-64.9164,-31.2916,1689.1035],[-64.9216,-31.2696,1542.4802]]]]}
,"properties": {"GID_2": "ARG.6.11_1","GID_0": "ARG","country": "Argentina","GID_1": "ARG.6_1","state": "Córdoba","NL_NAME_1": "NA","county": "Pocho","VARNAME_2": "Salsacate","NL_NAME_2": "NA","TYPE_2": "Departamento","ENGTYPE_2": "Department","CC_2": "NA","HASC_2": "AR.CB.PO","name": "Pocho.county","area_km2": 3128.997,"hist_schema_id": "Elevation0-9000","hist_area_km2": {"250": 281.248,"275": 512.039,"300": 549.399,"325": 278.138,"350": 102.022,"375": 48.478,"400": 30.749,"425": 21.36,"450": 15.588,"475": 11.067,"500": 7.721,"525": 5.497,"550": 4.069,"575": 4.232,"600": 4.178,"625": 3.889,"650": 3.726,"675": 4.033,"700": 3.382,"725": 3.979,"750": 3.31,"775": 3.799,"800": 2.93,"825": 3.129,"850": 3.075,"875": 5.83,"900": 11.519,"925": 29.182,"950": 29.723,"975": 40.656,"1000": 116.726,"1025": 203.239,"1050": 148.917,"1075": 106.408,"1100": 72.668,"1125": 72.715,"1150": 76.311,"1175": 68.668,"1200": 56.465,"1225": 40.237,"1250": 28.229,"1275": 20.069,"1300": 14.062,"1325": 10.266,"1350": 9.614,"1375": 6.953,"1400": 6.137,"1425": 6.119,"1450": 4.997,"1475": 4.599,"1500": 4.31,"1525": 4.165,"1550": 3.567,"1575": 3.151,"1600": 3.006,"1625": 2.897,"1650": 2.444,"1675": 1.955,"1700": 1.448,"1725": 0.634,"1750": 0.072}}}