{"type":"Feature","properties":{"GID_2":"ARG.21.8_1","GID_0":"ARG","country":"Argentina","GID_1":"ARG.21_1","state":"SantaFe","NL_NAME_1":"NA","county":"Iriondo","VARNAME_2":"CañadadeGomez","NL_NAME_2":"NA","TYPE_2":"Departamento","ENGTYPE_2":"Department","CC_2":"NA","HASC_2":"AR.SF.IR","name":"Iriondo.county"},
"geometry":{"type": "MultiPolygon","coordinates": [[[[-61.7311,-33.0862,60.6862],[-61.7175,-33.0911,58.9961],[-61.7099,-33.091,58.6901],[-61.7053,-33.0864,58.37],[-61.6976,-33.087,58.0961],[-61.6924,-33.0909,57.5135],[-61.6858,-33.0893,57.2905],[-61.6809,-33.0846,56.9506],[-61.6734,-33.0867,56.8474],[-61.6688,-33.0832,56.5132],[-61.6639,-33.0715,57.1327],[-61.6488,-33.072,55.7067],[-61.5895,-33.0646,53.3149],[-61.5733,-33.0511,57.3622],[-61.5525,-33.044,52.7215],[-61.5017,-33.0167,57.5288],[-61.4868,-33.0139,59.3781],[-61.4753,-33.006,64.8924],[-61.4677,-33.0048,63.1243],[-61.4528,-33.007,57.7087],[-61.4378,-33.0061,58.7909],[-61.423,-33.0029,55.8731],[-61.4097,-32.9966,57.0558],[-61.4023,-32.9958,58.0305],[-61.3949,-32.9974,54.3434],[-61.3597,-32.9935,49.3957],[-61.3422,-32.9935,48.7312],[-61.3226,-32.9856,47.8528],[-61.2974,-32.9816,46.172],[-61.284,-32.9701,46.6025],[-61.2751,-32.9668,45.1567],[-61.2657,-32.9555,51.4103],[-61.247,-32.9446,41.8174],[-61.2396,-32.9327,45.7989],[-61.2199,-32.9175,46.6452],[-61.2162,-32.9069,45.094],[-61.2008,-32.8953,39.6811],[-61.2,-32.8919,41.1434],[-61.2028,-32.8858,39.3668],[-61.2017,-32.8815,41.1494],[-61.1979,-32.8785,40.9391],[-61.1907,-32.8677,43.2793],[-61.182,-32.8639,39.282],[-61.1531,-32.8436,37.0025],[-61.1182,-32.8307,35.8016],[-61.0852,-32.8163,37.4111],[-61.071,-32.8078,37.231],[-61.0595,-32.7923,37.6178],[-61.05,-32.7657,36.563],[-61.0376,-32.7552,35.543],[-61.0316,-32.7471,32.9742],[-61.0295,-32.7382,34.6247],[-61.0174,-32.7197,32.9565],[-60.9989,-32.7011,28.4433],[-60.9938,-32.6982,31.7166],[-60.976,-32.696,32.2706],[-60.9641,-32.6909,31.8406],[-60.9469,-32.6883,31.0934],[-60.9293,-32.6802,28.7929],[-60.9031,-32.6803,29.813],[-60.8888,-32.6878,29.2956],[-60.8783,-32.6862,29.098],[-60.853,-32.6647,27.8041],[-60.8359,-32.6543,27.161],[-60.8224,-32.65,28.0403],[-60.8167,-32.645,26.6673],[-60.8108,-32.6346,22.9244],[-60.8104,-32.6268,26.1309],[-60.8283,-32.6009,21.9966],[-60.83,-32.595,25.1808],[-60.8409,-32.5763,25.0655],[-60.8447,-32.5211,20.6062],[-60.8524,-32.5064,19.584],[-60.8516,-32.4934,19.0703],[-60.8484,-32.4889,19.7203],[-60.8446,-32.478,21.1602],[-60.8375,-32.4709,18.0349],[-60.8666,-32.461,18.0613],[-60.883,-32.4718,23.5919],[-61.0001,-32.4533,23.1755],[-61.2012,-32.4176,39.0707],[-61.233,-32.4318,47.8224],[-61.3191,-32.4194,59.9728],[-61.4537,-32.3959,65.5777],[-61.5067,-32.5753,99.421],[-61.4926,-32.5755,87.4021],[-61.5357,-32.7494,113.9444],[-61.5278,-32.7513,113.1703],[-61.5516,-32.8425,116.3274],[-61.5305,-32.8488,116.9268],[-61.6536,-32.8704,106.4057],[-61.672,-32.8847,110.1063],[-61.7033,-32.9958,122.2881],[-61.7311,-33.0862,60.6862]]]]}}