{"type": "Feature","bbox": [-54.8083,-26.9492,-54.2679,-26.4535],"geometry": {"type": "MultiPolygon","coordinates": [[[[-54.6073,-26.9313,276.7406],[-54.5637,-26.9166,471.1554],[-54.567,-26.8902,269.808],[-54.5234,-26.852,262.5861],[-54.5421,-26.8316,250.5609],[-54.4702,-26.7725,538.9376],[-54.4366,-26.7338,409.2216],[-54.43,-26.7378,514.2765],[-54.4065,-26.7174,511.7652],[-54.3981,-26.7198,519.1365],[-54.3907,-26.7115,568.7769],[-54.27,-26.6399,403.3215],[-54.2679,-26.6406,429.261],[-54.2685,-26.4838,237.8378],[-54.2766,-26.4793,246.7717],[-54.2816,-26.4818,380.9193],[-54.2814,-26.4871,395.1762],[-54.2764,-26.4898,287.7794],[-54.2755,-26.4921,222.5091],[-54.2771,-26.4972,308.6746],[-54.2815,-26.5001,241.8827],[-54.2844,-26.5007,223.0748],[-54.2897,-26.4985,312.0977],[-54.2954,-26.4866,226.2376],[-54.3012,-26.4858,238.2241],[-54.3027,-26.4879,281.5037],[-54.3034,-26.4961,241.4225],[-54.3088,-26.4975,240.0324],[-54.3115,-26.4934,241.663],[-54.3122,-26.4882,220.0387],[-54.3171,-26.4862,324.0204],[-54.3221,-26.489,233.1878],[-54.3327,-26.4913,224.6219],[-54.3425,-26.4879,262.1033],[-54.3429,-26.493,276.4266],[-54.3353,-26.4971,228.2851],[-54.3347,-26.4996,269.7146],[-54.3362,-26.5019,237.7902],[-54.3533,-26.5023,284.3098],[-54.354,-26.4997,266.842],[-54.3501,-26.4897,230.0362],[-54.3502,-26.4843,215.7651],[-54.3515,-26.4821,203.8879],[-54.3541,-26.4816,202.1228],[-54.357,-26.4891,241.0943],[-54.3636,-26.4942,199.4251],[-54.3665,-26.494,227.2457],[-54.3639,-26.4759,189.6436],[-54.3644,-26.4731,188.6307],[-54.3665,-26.4721,196.4471],[-54.3709,-26.4756,263.4597],[-54.3782,-26.4872,191.5448],[-54.3792,-26.4951,212.4394],[-54.3868,-26.4982,224.0692],[-54.3906,-26.5053,195.4503],[-54.4024,-26.5039,212.1228],[-54.4076,-26.5059,219.9018],[-54.4107,-26.5216,203.1182],[-54.4131,-26.5228,190.6063],[-54.4168,-26.519,214.6779],[-54.4175,-26.5084,202.3896],[-54.4118,-26.5024,178.7037],[-54.4118,-26.4998,176.3685],[-54.4154,-26.4958,207.6571],[-54.4183,-26.4953,182.5719],[-54.4212,-26.4956,225.9965],[-54.4226,-26.5061,212.2648],[-54.4262,-26.5101,183.0805],[-54.4348,-26.5091,180.4269],[-54.4417,-26.5007,202.6936],[-54.4471,-26.5022,263.8504],[-54.4472,-26.5048,261.8919],[-54.4403,-26.5164,177.1169],[-54.4426,-26.521,165.8398],[-54.4456,-26.5214,164.3324],[-54.4484,-26.5208,166.996],[-54.4542,-26.5116,163.7415],[-54.457,-26.5106,184.3757],[-54.4599,-26.5107,186.0569],[-54.4666,-26.5152,191.9424],[-54.4684,-26.513,189.7175],[-54.4755,-26.5155,204.5937],[-54.478,-26.514,202.4891],[-54.4891,-26.5157,173.5893],[-54.4906,-26.5133,203.137],[-54.4867,-26.5064,184.798],[-54.4932,-26.5016,182.7758],[-54.492,-26.4964,153.7594],[-54.4933,-26.4942,201.8234],[-54.4962,-26.4938,209.0104],[-54.5033,-26.4987,159.576],[-54.5118,-26.5006,183.3005],[-54.5156,-26.5049,151.7584],[-54.5182,-26.5045,144.7972],[-54.5213,-26.4943,149.511],[-54.5268,-26.488,135.4508],[-54.5355,-26.488,165.7323],[-54.5375,-26.4863,139.4597],[-54.5382,-26.4837,160.701],[-54.5352,-26.4733,159.0808],[-54.5371,-26.4714,172.6861],[-54.545,-26.4747,163.6216],[-54.5495,-26.472,178.8808],[-54.552,-26.4734,151.7236],[-54.5531,-26.4812,148.8435],[-54.5561,-26.4812,140.37],[-54.5582,-26.4793,203.1486],[-54.5594,-26.4715,152.9162],[-54.5547,-26.4618,144.7173],[-54.5556,-26.4566,137.2193],[-54.558,-26.4552,160.0151],[-54.5628,-26.4582,139.2065],[-54.563,-26.4636,139.3477],[-54.5645,-26.4655,154.9637],[-54.5729,-26.4684,153.0468],[-54.584,-26.466,136.6868],[-54.589,-26.4686,154.3806],[-54.5888,-26.4736,131.8969],[-54.5838,-26.4768,140.7982],[-54.5834,-26.4792,129.2643],[-54.5863,-26.4838,121.9583],[-54.5889,-26.483,140.0139],[-54.5938,-26.4857,148.2707],[-54.6019,-26.4826,157.9723],[-54.6044,-26.4836,144.9219],[-54.606,-26.4885,123.3509],[-54.6037,-26.4901,126.2318],[-54.6011,-26.4976,167.6757],[-54.6044,-26.502,136.0579],[-54.6098,-26.5003,132.3549],[-54.6215,-26.4884,125.2856],[-54.6273,-26.4881,110.3854],[-54.6305,-26.4926,118.8698],[-54.6303,-26.4952,123.0571],[-54.623,-26.5069,108.2606],[-54.6235,-26.5094,105.9495],[-54.6284,-26.5122,107.2084],[-54.6343,-26.5124,131.063],[-54.6441,-26.4993,121.8056],[-54.6541,-26.4939,140.3405],[-54.6589,-26.4761,110.9623],[-54.6638,-26.4732,109.4802],[-54.6697,-26.4722,111.6046],[-54.6703,-26.4699,100.6948],[-54.6688,-26.4676,101.7179],[-54.6608,-26.4598,109.5361],[-54.6596,-26.4572,120.3848],[-54.6612,-26.4557,95.9994],[-54.6774,-26.4616,119.4013],[-54.6899,-26.4549,106.2803],[-54.6987,-26.4553,99.7988],[-54.7069,-26.4535,91.5],[-54.7099,-26.4587,141.2228],[-54.7228,-26.4722,105.344],[-54.7373,-26.4817,141.359],[-54.7555,-26.4979,94.008],[-54.7757,-26.5094,122.4094],[-54.7959,-26.5295,89.5],[-54.8041,-26.5455,89.0],[-54.8081,-26.5576,88.5],[-54.8083,-26.5631,88.5],[-54.792,-26.5871,88.0],[-54.7882,-26.5938,88.0],[-54.7864,-26.6014,103.9353],[-54.7845,-26.6155,87.5],[-54.7858,-26.6226,87.0],[-54.7883,-26.6323,87.0],[-54.7958,-26.6472,108.8713],[-54.6605,-26.9492,431.7215],[-54.6073,-26.9313,276.7406]]]]}
,"properties": {"GID_2": "ARG.14.12_1","GID_0": "ARG","country": "Argentina","GID_1": "ARG.14_1","state": "Misiones","NL_NAME_1": "NA","county": "Montecarlo","VARNAME_2": "NA","NL_NAME_2": "NA","TYPE_2": "Departamento","ENGTYPE_2": "Department","CC_2": "NA","HASC_2": "AR.MN.MO","name": "Montecarlo.county","area_km2": 1739.816,"hist_schema_id": "Elevation0-9000","hist_area_km2": {"75": 0.891,"100": 9.141,"125": 18.681,"150": 55.068,"175": 108.771,"200": 222.531,"225": 247.654,"250": 214.811,"275": 157.089,"300": 118.921,"325": 120.772,"350": 90.961,"375": 76.629,"400": 64.761,"425": 57.688,"450": 48.203,"475": 32.759,"500": 30.309,"525": 33.222,"550": 22.012,"575": 8.203,"600": 0.739}}}