{"type": "Feature","bbox": [-67.1536,-43.783,-65.4042,-42.8519],"geometry": {"type": "MultiPolygon","coordinates": [[[[-65.9427,-42.8623,142.0562],[-67.1536,-42.879,85.804],[-67.1482,-43.3403,242.22],[-66.5299,-43.3353,207.7428],[-66.5265,-43.7685,255.2689],[-66.5246,-43.783,263.4158],[-66.097,-43.7756,286.9341],[-65.4042,-43.76,233.8733],[-65.427,-43.3825,195.2185],[-65.4546,-42.8519,129.6882],[-65.9427,-42.8623,142.0562]]]]}
,"properties": {"GID_2": "ARG.4.6_1","GID_0": "ARG","country": "Argentina","GID_1": "ARG.4_1","state": "Chubut","NL_NAME_1": "NA","county": "Gaiman","VARNAME_2": "NA","NL_NAME_2": "NA","TYPE_2": "Departamento","ENGTYPE_2": "Department","CC_2": "NA","HASC_2": "AR.CH.GM","name": "Gaiman.county","area_km2": 11596.537,"hist_schema_id": "Elevation0-9000","hist_area_km2": {"0": 14.884,"25": 286.663,"50": 526.921,"75": 1275.398,"100": 992.527,"125": 783.23,"150": 1685.032,"175": 1817.25,"200": 1799.615,"225": 1119.017,"250": 832.177,"275": 416.053,"300": 44.43,"325": 3.309}}}