{"type":"Feature","properties":{"GID_2":"ARG.21.13_1","GID_0":"ARG","country":"Argentina","GID_1":"ARG.21_1","state":"SantaFe","NL_NAME_1":"NA","county":"SanCristóbal","VARNAME_2":"NA","NL_NAME_2":"NA","TYPE_2":"Departamento","ENGTYPE_2":"Department","CC_2":"NA","HASC_2":"AR.SF.SC","name":"SanCristóbal.county"},
"geometry":{"type": "MultiPolygon","coordinates": [[[[-61.8485,-30.7408,97.7962],[-61.6725,-30.7705,95.0579],[-61.6637,-30.7335,95.0877],[-61.4506,-30.7679,80.6104],[-61.4363,-30.715,79.6201],[-61.2207,-30.7516,68.5181],[-61.189,-30.6139,70.8772],[-61.0056,-30.6422,57.8108],[-61.0057,-30.65,48.6391],[-60.9044,-30.6755,45.0727],[-60.928,-30.7,38.3857],[-60.9183,-30.7097,35.8444],[-60.9107,-30.7207,38.1576],[-60.9078,-30.7266,38.3807],[-60.9062,-30.7393,37.1602],[-60.9021,-30.7516,36.8296],[-60.8816,-30.7698,33.4104],[-60.8674,-30.7735,32.5176],[-60.861,-30.7769,31.6935],[-60.8591,-30.783,33.007],[-60.8549,-30.7881,36.3803],[-60.8428,-30.7957,32.4426],[-60.8319,-30.8004,32.7224],[-60.8139,-30.7847,38.3552],[-60.7994,-30.783,33.7293],[-60.7875,-30.7907,32.4619],[-60.7787,-30.8009,33.4359],[-60.7564,-30.8014,33.7076],[-60.7348,-30.7857,33.6844],[-60.7277,-30.7758,33.7415],[-60.7271,-30.7694,33.8791],[-60.7142,-30.7536,33.866],[-60.7079,-30.7518,35.1146],[-60.7005,-30.7537,34.5517],[-60.6975,-30.7495,35.2472],[-60.6912,-30.7481,35.8688],[-60.676,-30.7495,35.2203],[-60.6545,-30.7543,35.133],[-60.6471,-30.7542,34.3275],[-60.6399,-30.7526,33.9491],[-60.6297,-30.7435,35.0917],[-60.6273,-30.7309,35.6337],[-60.6152,-30.7075,36.0949],[-60.6123,-30.6885,36.0868],[-60.609,-30.6829,40.1838],[-60.6109,-30.677,38.2274],[-60.6102,-30.6709,37.0202],[-60.6172,-30.6684,39.3661],[-60.6209,-30.6628,43.0491],[-60.6238,-30.6507,37.4228],[-60.6302,-30.6499,43.6531],[-60.6295,-30.6368,35.5371],[-60.6346,-30.632,36.4128],[-60.6358,-30.619,37.2637],[-60.6316,-30.6163,37.1067],[-60.6302,-30.6103,37.5657],[-60.6347,-30.6057,37.4568],[-60.6526,-30.5976,43.4881],[-60.6751,-30.5721,49.1911],[-60.6772,-30.5595,38.4292],[-60.6811,-30.5542,38.9679],[-60.6935,-30.5474,39.3874],[-60.6975,-30.5422,46.7306],[-60.6942,-30.523,43.7847],[-60.69,-30.5179,39.6035],[-60.684,-30.5158,40.8463],[-60.6791,-30.5109,40.5251],[-60.6722,-30.5093,40.1222],[-60.6689,-30.5036,39.3659],[-60.6647,-30.4852,51.0767],[-60.6591,-30.4846,39.9956],[-60.663,-30.4787,43.6999],[-60.6641,-30.4728,42.9991],[-60.6632,-30.4662,39.1827],[-60.6674,-30.4619,39.3117],[-60.6673,-30.4563,39.9628],[-60.6695,-30.4502,39.2784],[-60.6738,-30.4446,38.762],[-60.6698,-30.4403,38.6066],[-60.6648,-30.4378,41.5004],[-60.6664,-30.4312,40.2315],[-60.6776,-30.4314,40.0078],[-60.6765,-30.414,40.5617],[-60.6818,-30.4092,41.0841],[-60.6769,-30.4051,41.0241],[-60.6761,-30.4014,41.1104],[-60.6817,-30.3972,42.0175],[-60.6883,-30.3985,41.4597],[-60.6949,-30.4021,47.7507],[-60.6894,-30.3904,43.5961],[-60.6951,-30.3861,55.084],[-60.6956,-30.3824,47.3242],[-60.6891,-30.38,41.7667],[-60.6883,-30.3682,40.9613],[-60.6903,-30.3626,42.6298],[-60.6756,-30.3496,43.887],[-60.669,-30.3487,42.2136],[-60.6653,-30.3456,42.2705],[-60.6677,-30.3399,42.1028],[-60.6699,-30.3208,55.3219],[-60.669,-30.3144,51.4742],[-60.6611,-30.3038,42.9717],[-60.6618,-30.291,44.9988],[-60.6677,-30.2868,46.3245],[-60.6697,-30.2746,46.227],[-60.6741,-30.2693,45.1217],[-60.6804,-30.2664,43.9365],[-60.6945,-30.2683,47.559],[-60.7028,-30.2577,45.0739],[-60.7146,-30.2506,46.6175],[-60.7164,-30.2447,44.4306],[-60.732,-30.2321,42.2119],[-60.7268,-30.2274,44.0383],[-60.7351,-30.2101,45.0177],[-60.7405,-30.2064,44.6764],[-60.7452,-30.2053,45.2493],[-60.7394,-30.2005,44.6089],[-60.7328,-30.1976,44.5969],[-60.7291,-30.1723,45.1566],[-60.7262,-30.1665,45.6604],[-60.7175,-30.1562,47.0556],[-60.7169,-30.15,49.3171],[-60.7191,-30.1439,48.7988],[-60.7236,-30.1388,49.8749],[-60.7394,-30.1262,50.1379],[-60.7514,-30.103,46.2541],[-60.7606,-30.0952,46.8363],[-60.7634,-30.09,46.7851],[-60.7569,-30.0791,46.5065],[-60.7583,-30.0735,46.7995],[-60.7569,-30.0672,47.3178],[-60.7451,-30.0442,47.0881],[-60.7441,-30.0312,46.9301],[-60.7338,-30.0261,48.0964],[-60.7316,-30.0005,47.6693],[-60.7351,-29.995,48.4193],[-60.7409,-29.9911,48.4801],[-60.7428,-29.9862,48.4501],[-60.7354,-29.9856,48.6075],[-60.7297,-29.9816,48.4854],[-60.7224,-29.9803,51.3175],[-60.7156,-29.9768,50.3465],[-60.716,-29.9713,48.6455],[-60.7225,-29.9593,48.5733],[-60.7226,-29.9468,48.6653],[-60.7375,-29.9334,49.665],[-60.7367,-29.9076,51.1404],[-60.7345,-29.9015,50.0864],[-60.728,-29.89,50.5387],[-60.7163,-29.8822,50.3934],[-60.7186,-29.8771,50.3004],[-60.7281,-29.8672,50.9597],[-60.7309,-29.8546,50.7414],[-60.7621,-29.8114,52.5463],[-60.7683,-29.8063,52.8201],[-60.7765,-29.7936,52.7258],[-60.7781,-29.7715,52.0621],[-60.7817,-29.7649,52.257],[-60.7892,-29.7612,52.4307],[-60.8059,-29.7594,53.8997],[-60.8144,-29.7605,53.5768],[-60.818,-29.7669,55.4287],[-60.8249,-29.7697,54.5115],[-60.8317,-29.7655,53.5921],[-60.8411,-29.7531,53.217],[-60.8447,-29.7464,53.0],[-60.8464,-29.7382,53.0],[-60.8559,-29.732,53.3746],[-60.8601,-29.7266,53.9316],[-60.8766,-29.7141,54.2889],[-60.8886,-29.707,53.7687],[-60.9123,-29.6828,56.0988],[-60.919,-29.6804,55.9597],[-60.9263,-29.6816,56.3528],[-60.9405,-29.6787,55.7272],[-60.9455,-29.6818,55.365],[-60.9514,-29.6812,55.6693],[-60.9561,-29.6767,56.899],[-60.9629,-29.6754,56.1237],[-60.9776,-29.6757,57.7828],[-60.9846,-29.6737,56.6669],[-60.9906,-29.6701,56.7726],[-60.997,-29.6587,57.8667],[-61.0028,-29.6547,56.5423],[-61.0101,-29.6542,54.7831],[-61.0313,-29.6592,57.5611],[-61.0385,-29.6583,57.4724],[-61.0731,-29.6347,57.5229],[-61.0918,-29.6251,58.141],[-61.1064,-29.6252,58.3298],[-61.113,-29.6222,58.4725],[-61.1169,-29.617,58.5485],[-61.1188,-29.6108,58.686],[-61.1197,-29.5919,58.7592],[-61.1289,-29.5749,59.0266],[-61.1336,-29.5701,59.1669],[-61.1397,-29.5669,59.7031],[-61.1541,-29.5687,59.5331],[-61.1597,-29.5649,59.5506],[-61.1565,-29.5524,59.5568],[-61.2107,-29.5384,60.6316],[-61.2177,-29.5388,60.5225],[-61.2234,-29.5349,60.6362],[-61.2303,-29.5359,60.6163],[-61.2512,-29.5318,61.3698],[-61.2556,-29.5271,61.4748],[-61.2718,-29.516,61.3085],[-61.2847,-29.5151,61.6632],[-61.2902,-29.5168,61.6917],[-61.3177,-29.6396,61.2693],[-61.3593,-29.8441,64.5857],[-61.3678,-29.8449,64.645],[-61.4524,-29.8327,66.6282],[-61.746,-29.781,77.9118],[-61.7519,-29.7804,77.8436],[-61.7548,-29.7916,77.81],[-61.8157,-29.791,79.8491],[-61.817,-29.7834,79.9049],[-61.9071,-29.7805,84.0222],[-61.9427,-29.7472,82.9994],[-61.9285,-29.6753,81.5798],[-61.9959,-29.6689,81.6229],[-62.107,-30.3697,92.3876],[-62.1277,-30.4881,93.3174],[-62.0938,-30.5249,95.5367],[-62.0235,-30.5924,96.8327],[-61.9782,-30.598,97.9133],[-61.9826,-30.6463,99.1031],[-61.8794,-30.6609,98.4301],[-61.8323,-30.6735,97.4022],[-61.8485,-30.7408,97.7962]]]]}}