{"type":"Feature","properties":{"GID_2":"ARG.14.7_1","GID_0":"ARG","country":"Argentina","GID_1":"ARG.14_1","state":"Misiones","NL_NAME_1":"NA","county":"GeneralManuelBelgrano","VARNAME_2":"BernardodeIrigoyen","NL_NAME_2":"NA","TYPE_2":"Departamento","ENGTYPE_2":"Department","CC_2":"NA","HASC_2":"AR.MN.GB","name":"GeneralManuelBelgrano.county"},
"geometry":{"type": "MultiPolygon","coordinates": [[[[-54.1793,-26.3304,516.9055],[-53.7522,-26.3257,670.8561],[-53.7517,-26.3295,701.5198],[-53.7556,-26.3396,701.3768],[-53.7654,-26.3495,643.1571],[-53.7673,-26.3546,756.0554],[-53.7691,-26.3731,668.0454],[-53.7776,-26.3807,640.0024],[-53.7308,-26.4609,493.1104],[-53.6984,-26.4633,462.8922],[-53.6976,-26.4606,475.4089],[-53.7027,-26.4414,462.6988],[-53.6982,-26.4417,476.8659],[-53.6902,-26.4489,509.4376],[-53.6867,-26.4444,516.5836],[-53.6862,-26.4305,479.7908],[-53.6844,-26.4287,470.8193],[-53.6927,-26.4302,481.3994],[-53.6977,-26.4158,514.4547],[-53.705,-26.415,476.3439],[-53.7052,-26.4091,479.5955],[-53.7005,-26.409,481.4452],[-53.6962,-26.4027,482.9397],[-53.7064,-26.3959,501.5058],[-53.709,-26.3878,490.9372],[-53.7005,-26.3879,492.8499],[-53.6971,-26.3794,505.4833],[-53.701,-26.3733,500.7849],[-53.6993,-26.3638,504.2351],[-53.6896,-26.3597,591.0214],[-53.6955,-26.3552,525.3494],[-53.689,-26.3543,595.9948],[-53.6848,-26.3366,561.0142],[-53.6762,-26.3353,582.9124],[-53.6255,-26.3368,613.266],[-53.6248,-26.3381,604.2524],[-53.6235,-26.3316,667.7185],[-53.6165,-26.3255,628.6141],[-53.6153,-26.3189,697.1229],[-53.6163,-26.3055,682.6345],[-53.6121,-26.2854,749.6783],[-53.6094,-26.2802,748.6015],[-53.6007,-26.2757,789.4709],[-53.5918,-26.2649,833.7549],[-53.6103,-26.2448,716.2306],[-53.62,-26.237,699.7239],[-53.6333,-26.2207,713.5959],[-53.6433,-26.2122,751.4033],[-53.6468,-26.2077,738.9071],[-53.651,-26.1947,764.2979],[-53.6666,-26.1751,689.1678],[-53.7039,-26.1457,712.4329],[-53.7164,-26.1267,703.8459],[-53.7224,-26.1291,735.8025],[-53.7238,-26.1267,717.3062],[-53.7228,-26.1204,619.6348],[-53.7207,-26.1159,580.4661],[-53.7161,-26.0921,591.181],[-53.7166,-26.0794,533.9933],[-53.7182,-26.0732,521.2725],[-53.7291,-26.0592,514.2441],[-53.7338,-26.0427,520.3305],[-53.7364,-26.0404,519.729],[-53.7392,-26.0429,501.3945],[-53.742,-26.0424,511.6218],[-53.7457,-26.0372,521.4844],[-53.7524,-26.0394,488.1494],[-53.7532,-26.0318,532.8909],[-53.7558,-26.0313,479.2072],[-53.7583,-26.0331,482.2585],[-53.7629,-26.0321,495.3592],[-53.7666,-26.0263,468.4112],[-53.7706,-26.0244,483.3348],[-53.773,-26.0184,519.1327],[-53.778,-26.0153,438.9304],[-53.7792,-26.0095,434.5217],[-53.7865,-26.008,437.8061],[-53.7922,-26.001,418.1159],[-53.799,-26.0011,412.4647],[-53.8058,-25.995,431.3723],[-53.8015,-25.9871,411.4194],[-53.8027,-25.9834,430.6924],[-53.8052,-25.9833,408.3333],[-53.8107,-25.9878,410.5672],[-53.8152,-25.9873,416.3563],[-53.8209,-25.9819,405.9345],[-53.8166,-25.9783,397.1641],[-53.8167,-25.9753,452.1492],[-53.8281,-25.9744,391.3283],[-53.8339,-25.9706,395.8844],[-53.8366,-25.9658,407.1462],[-53.8352,-25.9628,404.0316],[-53.8317,-25.9624,399.9837],[-53.8298,-25.9601,392.8114],[-53.8376,-25.9527,405.3055],[-53.8428,-25.9361,380.5861],[-53.8386,-25.9342,373.5902],[-53.8373,-25.9242,378.8052],[-53.8343,-25.9239,371.2689],[-53.8286,-25.9302,390.2129],[-53.825,-25.9307,384.1426],[-53.8215,-25.912,359.9426],[-53.8186,-25.9124,415.1415],[-53.8215,-25.9119,359.9426],[-53.8211,-25.9096,408.0212],[-53.8238,-25.9079,377.063],[-53.8293,-25.9129,351.7147],[-53.8321,-25.9123,348.2654],[-53.8334,-25.9099,342.887],[-53.8219,-25.9039,339.3802],[-53.819,-25.8996,381.5708],[-53.8251,-25.8979,347.0971],[-53.8337,-25.8989,375.4553],[-53.8347,-25.8959,326.1998],[-53.8323,-25.8892,374.6288],[-53.8335,-25.8875,384.4865],[-53.844,-25.8887,328.1155],[-53.8509,-25.8833,370.9468],[-53.8486,-25.8804,389.739],[-53.842,-25.8791,374.0821],[-53.8376,-25.876,368.1155],[-53.8272,-25.8764,365.9074],[-53.8238,-25.873,303.7487],[-53.8354,-25.8693,303.3728],[-53.8322,-25.8625,298.7945],[-53.8337,-25.859,304.564],[-53.8438,-25.8582,291.7613],[-53.8452,-25.8558,340.0443],[-53.8401,-25.8541,338.5898],[-53.8385,-25.8517,357.2554],[-53.8421,-25.8432,334.7256],[-53.8487,-25.8437,353.5434],[-53.8496,-25.8396,286.2805],[-53.8444,-25.8281,287.8395],[-53.8395,-25.8266,279.8836],[-53.8379,-25.8229,317.2412],[-53.8385,-25.8172,292.4295],[-53.837,-25.8154,281.367],[-53.8243,-25.8165,281.3887],[-53.824,-25.8115,277.9722],[-53.8274,-25.8064,276.0041],[-53.8223,-25.7952,281.4501],[-53.823,-25.7906,317.4181],[-53.8258,-25.7901,282.177],[-53.8306,-25.7925,272.7341],[-53.8423,-25.7909,274.4107],[-53.8357,-25.7868,272.0501],[-53.8339,-25.7785,272.148],[-53.843,-25.7708,272.3564],[-53.8441,-25.7726,285.3257],[-53.8512,-25.7696,277.0235],[-53.8532,-25.767,271.8535],[-53.8501,-25.7624,269.8665],[-53.8443,-25.7621,273.0592],[-53.8431,-25.757,294.0042],[-53.8362,-25.7531,265.5023],[-53.8382,-25.7517,266.4415],[-53.8355,-25.7502,271.2452],[-53.849,-25.7412,278.7881],[-53.8587,-25.7436,262.2062],[-53.8624,-25.7428,271.1065],[-53.8631,-25.7398,263.9025],[-53.8594,-25.7293,267.6982],[-53.8606,-25.7192,254.097],[-53.8621,-25.7176,253.4026],[-53.8667,-25.7188,257.4268],[-53.8706,-25.7123,268.7567],[-53.8772,-25.7106,251.9106],[-53.8806,-25.7064,264.1573],[-53.8788,-25.7044,282.848],[-53.8681,-25.7037,261.889],[-53.8656,-25.7014,250.263],[-53.871,-25.6947,245.2802],[-53.8704,-25.6912,255.1012],[-53.8666,-25.6914,271.8537],[-53.8564,-25.7018,252.6525],[-53.8524,-25.703,245.2808],[-53.8501,-25.6996,266.9369],[-53.8541,-25.6944,245.6084],[-53.846,-25.692,238.0988],[-53.8432,-25.6865,242.1036],[-53.8451,-25.6832,273.5912],[-53.8537,-25.6826,253.2597],[-53.8555,-25.6702,252.2644],[-53.8628,-25.6601,241.4725],[-53.8683,-25.6571,236.7577],[-53.8757,-25.6571,243.4987],[-53.8821,-25.6595,241.4203],[-53.8848,-25.6567,237.1091],[-53.8848,-25.6522,235.6351],[-53.8792,-25.6503,246.3945],[-53.8753,-25.642,241.4941],[-53.886,-25.6418,239.7182],[-53.8892,-25.6392,257.2391],[-53.8864,-25.6278,263.8701],[-53.8898,-25.6224,253.0877],[-53.8939,-25.6228,237.153],[-53.9012,-25.6332,262.9045],[-53.9035,-25.6343,253.5036],[-53.9072,-25.6308,226.425],[-53.9118,-25.6333,235.4342],[-53.9151,-25.6325,226.6079],[-53.9125,-25.6195,246.0242],[-53.9137,-25.6167,245.5506],[-53.9222,-25.6204,233.5558],[-53.9277,-25.6201,227.1747],[-53.9346,-25.6119,233.712],[-53.9397,-25.6114,227.19],[-53.9475,-25.6242,241.0315],[-53.9403,-25.6321,258.3989],[-53.9406,-25.6352,261.9456],[-53.9436,-25.64,247.6106],[-53.9507,-25.6408,225.4175],[-53.955,-25.6386,244.2925],[-53.9592,-25.6326,225.1021],[-53.9635,-25.6134,217.8152],[-53.9694,-25.6064,239.4687],[-53.9687,-25.5975,258.4071],[-53.9874,-25.5786,250.5146],[-54.01,-25.5663,212.0],[-54.0207,-25.5677,221.3052],[-54.0418,-25.5855,212.0],[-54.051,-25.5874,212.0],[-54.0546,-25.5864,215.1111],[-54.0698,-25.5745,244.1583],[-54.0725,-25.5736,231.1176],[-54.079,-25.576,222.2055],[-54.083,-25.591,220.363],[-54.0803,-25.6008,234.5279],[-54.0812,-25.6165,228.6682],[-54.0859,-25.622,230.704],[-54.1004,-25.6225,212.4347],[-54.1061,-25.6154,210.0],[-54.1288,-25.5666,204.75],[-54.1285,-25.5591,208.2807],[-54.1026,-25.5207,202.6419],[-54.1007,-25.509,250.1211],[-54.1049,-25.5029,242.0457],[-54.1099,-25.5015,221.1458],[-54.1147,-25.5021,204.401],[-54.1276,-25.5082,200.0],[-54.1441,-25.5209,200.0],[-54.1432,-25.5217,200.0],[-54.1597,-25.5437,202.0448],[-54.1723,-25.5489,234.3676],[-54.1729,-25.6614,273.0616],[-54.1836,-25.8425,315.382],[-54.1764,-25.8454,307.0189],[-54.1785,-25.8531,302.6351],[-54.184,-25.9425,253.8698],[-54.1898,-25.9417,279.3053],[-54.2005,-26.0973,329.2202],[-54.1487,-26.1161,342.3961],[-54.1484,-26.1383,459.4963],[-54.1689,-26.215,355.3819],[-54.1687,-26.2618,302.5696],[-54.1801,-26.2618,292.9555],[-54.1793,-26.3304,516.9055]]]]}}