{"type":"Feature","properties":{"GID_2":"ARG.9.7_1","GID_0":"ARG","country":"Argentina","GID_1":"ARG.9_1","state":"Formosa","NL_NAME_1":"NA","county":"Pilcomayo","VARNAME_2":"Clorinda","NL_NAME_2":"NA","TYPE_2":"Departamento","ENGTYPE_2":"Department","CC_2":"NA","HASC_2":"AR.FM.PM","name":"Pilcomayo.county"},
"geometry":{"type": "MultiPolygon","coordinates": [[[[-57.8078,-25.7911,52.0],[-57.8153,-25.7711,54.6016],[-57.8138,-25.7609,55.4732],[-57.8067,-25.7563,54.4188],[-57.7965,-25.7565,54.7321],[-57.7888,-25.7599,53.5136],[-57.7812,-25.7587,55.1327],[-57.7649,-25.7513,53.5299],[-57.732,-25.7233,52.0],[-57.7281,-25.7096,52.0],[-57.7318,-25.7031,64.2272],[-57.7489,-25.7051,55.6244],[-57.7583,-25.7044,55.5616],[-57.7658,-25.6971,52.0],[-57.7668,-25.6905,52.0],[-57.7645,-25.6814,55.2765],[-57.757,-25.6742,52.0],[-57.7504,-25.6599,52.0],[-57.7465,-25.6573,52.0],[-57.7348,-25.657,57.6514],[-57.7068,-25.6513,52.0],[-57.7003,-25.6528,54.6768],[-57.6873,-25.6601,54.4561],[-57.6824,-25.6613,52.5],[-57.6787,-25.6595,56.8713],[-57.6728,-25.651,52.5],[-57.6718,-25.642,52.5],[-57.675,-25.6173,53.0],[-57.6745,-25.607,53.4676],[-57.6711,-25.6014,55.9407],[-57.6659,-25.5991,54.9752],[-57.6575,-25.5992,53.0],[-57.6511,-25.6017,53.0],[-57.6365,-25.6139,53.0],[-57.6301,-25.6164,53.0],[-57.609,-25.6175,61.3233],[-57.6032,-25.6117,61.4963],[-57.5986,-25.5748,62.0091],[-57.593,-25.5724,61.4619],[-57.5757,-25.5739,63.4956],[-57.5664,-25.5646,63.027],[-57.5632,-25.5556,65.387],[-57.5619,-25.5428,57.0947],[-57.5691,-25.5209,54.1995],[-57.5694,-25.5151,58.4433],[-57.5545,-25.4736,62.6948],[-57.5541,-25.457,56.6245],[-57.5559,-25.4448,54.0],[-57.5717,-25.4244,54.4054],[-57.581,-25.4093,67.9409],[-57.5963,-25.3978,57.0004],[-57.6215,-25.3833,54.0],[-57.6351,-25.3794,57.14],[-57.639,-25.3741,57.4735],[-57.6395,-25.3647,60.8724],[-57.6375,-25.3573,84.4515],[-57.6405,-25.3464,75.6236],[-57.653,-25.3391,57.6069],[-57.6607,-25.3366,54.0],[-57.6662,-25.3327,54.0],[-57.6723,-25.3242,54.0],[-57.6737,-25.3047,54.0],[-57.6669,-25.2741,57.7824],[-57.669,-25.2728,56.4048],[-57.686,-25.2794,60.6332],[-57.6959,-25.2791,61.3028],[-57.7221,-25.264,61.9221],[-57.7361,-25.2401,65.9638],[-57.7563,-25.2234,66.4552],[-57.7616,-25.215699999999998,62.9738],[-57.762,-25.2085,70.5336],[-57.7601,-25.2012,66.6952],[-57.7641,-25.1824,70.6748],[-57.7674,-25.1763,74.9069],[-57.7793,-25.1651,75.1355],[-57.7828,-25.1563,71.5256],[-57.7876,-25.1517,67.761],[-57.8223,-25.1376,68.9537],[-57.8483,-25.1187,67.8578],[-57.8631,-25.0872,70.6553],[-57.8671,-25.0819,64.7581],[-57.8737,-25.0794,67.1158],[-57.8966,-25.0758,77.6185],[-57.9289,-25.0745,77.847],[-57.9393,-25.0719,71.1781],[-57.9519,-25.0766,70.565],[-57.9626,-25.075,73.1916],[-57.9691,-25.0761,75.0297],[-57.9789,-25.0823,76.9006],[-57.9853,-25.0809,73.6029],[-57.9954,-25.071,68.8255],[-57.993899999999996,-25.0645,75.3586],[-57.9947,-25.0581,71.0314],[-58.0007,-25.0488,75.0579],[-57.9966,-25.0417,79.4374],[-57.9972,-25.0395,77.6592],[-57.9993,-25.0386,79.0851],[-58.0147,-25.0425,75.539],[-58.032,-25.0443,78.217],[-58.0472,-25.0422,73.0512],[-58.0489,-25.045,78.895],[-58.0513,-25.0456,79.3546],[-58.0565,-25.0435,73.923],[-58.0622,-25.0451,75.124],[-58.0666,-25.0435,76.2642],[-58.0856,-25.0162,73.3735],[-58.0965,-25.0134,78.0107],[-58.1062,-25.0177,76.376],[-58.1134,-25.0187,72.3472],[-58.1218,-25.0126,75.6889],[-58.1297,-25.0111,71.9503],[-58.1351,-24.9973,71.5283],[-58.1395,-24.9906,76.6737],[-58.1463,-24.9854,74.4999],[-58.1484,-24.9774,73.1351],[-58.1551,-24.9752,78.9457],[-58.1598,-24.971,73.9817],[-58.1727,-24.9706,77.6972],[-58.1807,-24.9721,72.6889],[-58.1868,-24.9702,74.6427],[-58.1986,-24.9555,76.2351],[-58.2088,-24.9523,75.1507],[-58.2189,-24.9426,74.0724],[-58.2198,-24.9341,75.2888],[-58.2295,-24.9301,75.9926],[-58.2379,-24.9341,79.4094],[-58.2465,-24.9338,78.436],[-58.2619,-24.9436,76.522],[-58.2717,-24.955,78.2779],[-58.2844,-24.9631,82.6122],[-58.2906,-24.9746,84.1618],[-58.3048,-24.9848,83.944],[-58.3148,-24.9966,82.2137],[-58.3215,-24.9994,84.1245],[-58.3273,-24.9992,78.7155],[-58.332,-24.9943,79.736],[-58.3405,-24.9797,76.7924],[-58.3534,-24.9678,80.5981],[-58.3686,-24.961,79.4052],[-58.3687,-24.9597,79.4052],[-58.3809,-24.9552,80.1727],[-58.3783,-25.393,73.8403],[-58.6052,-25.3943,85.7325],[-58.605,-25.5831,75.8677],[-58.4918,-25.5856,73.346],[-58.2209,-25.588,68.1142],[-58.2206,-25.5604,67.9557],[-58.2043,-25.5726,67.9911],[-58.1901,-25.5777,67.7843],[-58.1796,-25.5728,68.0299],[-58.1707,-25.5714,66.7793],[-58.1588,-25.5629,66.997],[-58.1527,-25.5629,68.3209],[-58.1379,-25.5725,67.3564],[-58.0798,-25.5881,66.6671],[-58.0675,-25.5959,65.8418],[-58.0372,-25.6083,67.5489],[-58.033,-25.6155,64.4288],[-58.0293,-25.6345,63.7798],[-58.0296,-25.64,65.0747],[-58.0358,-25.6558,63.7238],[-58.0355,-25.6583,70.0829],[-58.0272,-25.6699,65.9516],[-58.0245,-25.6804,63.4761],[-58.0219,-25.6821,63.0993],[-58.0206,-25.6873,63.3103],[-58.0185,-25.6892,63.294],[-58.0071,-25.693,64.932],[-58.0011,-25.699,63.082],[-57.9896,-25.7025,64.9728],[-57.9768,-25.7143,62.7698],[-57.9563,-25.7195,63.6851],[-57.9261,-25.7326,68.0906],[-57.9087,-25.7375,61.9826],[-57.8784,-25.7398,60.5845],[-57.8695,-25.7391,59.6975],[-57.852,-25.7441,61.4152],[-57.8354,-25.7511,55.199],[-57.8307,-25.7543,55.1862],[-57.8078,-25.7911,52.0]]]]}}