{"type": "Feature","bbox": [-68.8578,-33.1268,-68.4636,-32.8162],"geometry": {"type": "MultiPolygon","coordinates": [[[[-68.8224,-32.9574,826.5237],[-68.8088,-32.9604,816.2772],[-68.8194,-32.9773,844.2297],[-68.8355,-33.0133,889.9594],[-68.8483,-33.0116,903.8011],[-68.8578,-33.0318,921.1199],[-68.8469,-33.0366,919.3481],[-68.8392,-33.0458,917.2104],[-68.8218,-33.0512,888.3461],[-68.8243,-33.0917,1065.0815],[-68.6286,-33.1268,687.0423],[-68.6163,-33.0889,676.6053],[-68.611,-33.0891,674.4067],[-68.6065,-33.0868,672.1494],[-68.5949,-33.0767,667.6697],[-68.5942,-33.0733,666.6436],[-68.5849,-33.065,662.6284],[-68.581,-33.0572,659.7879],[-68.5776,-33.0548,658.1293],[-68.5771,-33.0457,655.1378],[-68.5721,-33.0398,654.2332],[-68.5658,-33.0365,651.897],[-68.561,-33.0295,659.7094],[-68.5602,-33.0232,648.6972],[-68.5528,-33.0167,654.8699],[-68.5526,-33.0113,645.4629],[-68.5473,-33.0088,644.5684],[-68.5456,-33.0134,645.9649],[-68.5432,-33.0127,646.2371],[-68.5411,-33.0065,645.1165],[-68.545,-33.0035,645.4886],[-68.5358,-32.9979,643.3133],[-68.5441,-32.9951,642.2287],[-68.5367,-32.9925,642.0669],[-68.5362,-32.9864,641.7683],[-68.5329,-32.9826,642.5138],[-68.5301,-32.9814,641.9794],[-68.5281,-32.9829,641.4556],[-68.5264,-32.9816,641.8853],[-68.5287,-32.9765,639.3403],[-68.5279,-32.9719,638.1208],[-68.5141,-32.9717,638.6346],[-68.5113,-32.9651,638.1364],[-68.5006,-32.9595,635.9077],[-68.4995,-32.9563,636.5522],[-68.5018,-32.9509,636.8275],[-68.5014,-32.9464,634.9243],[-68.4931,-32.9447,633.8501],[-68.4945,-32.9385,633.2272],[-68.4841,-32.9309,631.9371],[-68.4912,-32.9224,630.924],[-68.4919,-32.9189,630.398],[-68.4868,-32.9169,629.949],[-68.4818,-32.9207,630.8098],[-68.4782,-32.921,630.3316],[-68.4754,-32.9117,629.684],[-68.4681,-32.9021,627.5822],[-68.4695,-32.8949,626.8594],[-68.4646,-32.8906,625.559],[-68.4674,-32.882,624.0645],[-68.4636,-32.8713,623.714],[-68.5915,-32.8309,621.7346],[-68.5867,-32.8185,619.7535],[-68.6152,-32.8162,621.9325],[-68.6171,-32.8244,623.7433],[-68.6229,-32.8284,624.7617],[-68.6304,-32.8377,626.3795],[-68.6381,-32.8695,634.1066],[-68.652,-32.8825,635.8931],[-68.6684,-32.9363,664.3465],[-68.6783,-32.9353,667.063],[-68.6819,-32.9537,681.2953],[-68.6917,-32.9628,691.6718],[-68.7042,-32.9666,705.8149],[-68.7229,-32.9351,695.2256],[-68.7952,-32.9157,750.0305],[-68.7997,-32.9246,769.4208],[-68.8033,-32.9238,767.061],[-68.8107,-32.9371,790.2314],[-68.8164,-32.9367,798.0431],[-68.8224,-32.9477,815.7854],[-68.8188,-32.9482,814.2989],[-68.8224,-32.9574,826.5237]]]]}
,"properties": {"GID_2": "ARG.13.10_1","GID_0": "ARG","country": "Argentina","GID_1": "ARG.13_1","state": "Mendoza","NL_NAME_1": "NA","county": "Maipú","VARNAME_2": "NA","NL_NAME_2": "NA","TYPE_2": "Departamento","ENGTYPE_2": "Department","CC_2": "NA","HASC_2": "AR.MZ.MP","name": "Maipú.county","area_km2": 659.3294,"hist_schema_id": "Elevation0-9000","hist_area_km2": {"625": 125.6022,"650": 140.3879,"675": 79.9625,"700": 60.8022,"725": 46.7537,"750": 44.3941,"775": 40.2518,"800": 35.2376,"825": 26.4704,"850": 18.6466,"875": 16.0848,"900": 12.7962,"925": 4.6377,"950": 2.505,"975": 1.3857,"1000": 0.8883,"1025": 0.6929,"1050": 0.7639,"1075": 0.6928,"1100": 0.3553,"1125": 0.0178}}}