{"type":"Feature","properties":{"GID_2":"ARG.3.3_1","GID_0":"ARG","country":"Argentina","GID_1":"ARG.3_1","state":"Chaco","NL_NAME_1":"NA","county":"Chacabuco","VARNAME_2":"Charta","NL_NAME_2":"NA","TYPE_2":"Departamento","ENGTYPE_2":"Department","CC_2":"NA","HASC_2":"AR.CC.CH","name":"Chacabuco.county"},
"geometry":{"type": "MultiPolygon","coordinates": [[[[-61.0065,-27.4036,86.0887],[-61.0063,-27.3917,86.2782],[-60.9226,-27.3948,85.4906],[-60.8393,-27.3703,84.0097],[-60.8391,-27.3656,84.0263],[-61.2437,-27.0884,102.272],[-61.7131,-26.7597,155.2102],[-61.7138,-26.9224,145.4066],[-61.0716,-27.3575,87.7382],[-61.0065,-27.4036,86.0887]]]]}}