{"type": "Feature","bbox": [-61.8515,-24.7933,-60.3725,-23.1083],"geometry": {"type": "MultiPolygon","coordinates": [[[[-61.1394,-24.7933,148.8655],[-60.3725,-24.0278,139.983],[-60.381,-24.0191,140.9083],[-60.3874,-24.0,141.6333],[-60.3905,-23.9957,142.5027],[-60.3971,-23.991,142.6332],[-60.4223,-23.9831,142.9288],[-60.4359,-23.977,143.3137],[-60.4525,-23.9641,145.2672],[-60.4693,-23.9609,145.2583],[-60.5053,-23.9621,146.3655],[-60.517,-23.966,147.256],[-60.5496,-23.9612,150.0956],[-60.5674,-23.957,149.7855],[-60.584,-23.945,150.2811],[-60.588,-23.9352,150.8479],[-60.5876,-23.9178,151.2929],[-60.5948,-23.9089,151.8027],[-60.6031,-23.9019,151.4781],[-60.6608,-23.9064,153.9367],[-60.6878,-23.9001,154.9275],[-60.7028,-23.8941,154.9698],[-60.7155,-23.8848,157.5274],[-60.7299,-23.8814,157.8748],[-60.7349,-23.8764,157.9439],[-60.7472,-23.8739,158.9715],[-60.7534,-23.8757,159.8578],[-60.7627,-23.8709,158.0821],[-60.7677,-23.8716,159.0481],[-60.7761,-23.8767,158.3542],[-60.7859,-23.8727,159.2454],[-60.7959,-23.8793,159.8997],[-60.7991,-23.8795,159.6254],[-60.7989,-23.8694,159.844],[-60.8001,-23.8671,161.0625],[-60.8151,-23.8725,159.9986],[-60.825,-23.8738,160.2255],[-60.8367,-23.8715,160.2184],[-60.8475,-23.8672,159.4711],[-60.8575,-23.8553,161.4254],[-60.9001,-23.8316,161.3438],[-60.9117,-23.8174,163.1611],[-60.9319,-23.8048,163.2113],[-60.9385,-23.8039,163.0328],[-60.9427,-23.8053,164.4392],[-60.9474,-23.8117,164.3982],[-60.9519,-23.8131,164.0388],[-60.9819,-23.8116,164.472],[-60.994,-23.8,164.7983],[-61.0025,-23.7941,164.099],[-61.0188,-23.7722,166.9084],[-61.0206,-23.7642,166.054],[-61.0319,-23.7473,165.8737],[-61.0398,-23.7426,165.7609],[-61.0447,-23.7281,166.8476],[-61.0486,-23.7233,166.2868],[-61.0579,-23.7126,166.7825],[-61.0658,-23.708,166.4775],[-61.0797,-23.6958,166.3719],[-61.0868,-23.687,167.7972],[-61.0881,-23.6813,168.4082],[-61.0842,-23.6749,168.9681],[-61.0848,-23.6694,169.174],[-61.0964,-23.6631,167.1824],[-61.0995,-23.6582,168.206],[-61.0946,-23.6446,169.2938],[-61.0957,-23.637,169.6523],[-61.1021,-23.627,170.3659],[-61.0923,-23.6209,170.3596],[-61.0917,-23.6181,170.4043],[-61.0958,-23.612,171.4257],[-61.1103,-23.6011,170.3777],[-61.1266,-23.5942,171.7621],[-61.1308,-23.5863,173.0098],[-61.1389,-23.5781,173.4384],[-61.1487,-23.5771,171.7911],[-61.1544,-23.5735,172.528],[-61.16,-23.5677,175.0253],[-61.1718,-23.5485,174.3124],[-61.1758,-23.5457,175.282],[-61.1837,-23.5486,176.242],[-61.1874,-23.5481,174.3348],[-61.1938,-23.5415,174.078],[-61.197,-23.5403,174.0059],[-61.1995,-23.541,174.3385],[-61.2055,-23.5492,174.4534],[-61.2117,-23.5513,176.1614],[-61.2347,-23.5485,175.4018],[-61.2489,-23.5389,176.8078],[-61.266,-23.5224,177.1057],[-61.2751,-23.5176,180.2594],[-61.2745,-23.5036,180.3934],[-61.2909,-23.5014,179.0792],[-61.2983,-23.4887,181.1323],[-61.3064,-23.4846,181.3311],[-61.3162,-23.4731,179.1932],[-61.3226,-23.4697,180.3732],[-61.3469,-23.465699999999998,181.6684],[-61.3506,-23.4635,181.4365],[-61.3529,-23.4597,182.0087],[-61.3528,-23.4544,181.9738],[-61.3547,-23.4494,182.6607],[-61.3579,-23.4459,182.4829],[-61.3741,-23.4512,182.3925],[-61.3872,-23.4473,183.333],[-61.3883,-23.45,182.0605],[-61.3869,-23.4555,184.9353],[-61.3916,-23.4599,182.3073],[-61.3953,-23.4602,182.7784],[-61.4081,-23.4493,183.9944],[-61.4143,-23.4491,183.6758],[-61.4178,-23.4465,183.702],[-61.4252,-23.4447,183.2729],[-61.4372,-23.4311,184.2366],[-61.4496,-23.424,184.2785],[-61.4644,-23.4217,185.2668],[-61.4759,-23.4229,185.993],[-61.4865,-23.42,186.4998],[-61.495,-23.4156,189.0847],[-61.4992,-23.4092,186.7999],[-61.4986,-23.3989,186.7339],[-61.5088,-23.3964,188.4598],[-61.5114,-23.3857,189.2272],[-61.5149,-23.3803,188.9585],[-61.5277,-23.3686,188.1509],[-61.5282,-23.3636,187.694],[-61.5238,-23.3582,187.8078],[-61.5079,-23.3503,189.2322],[-61.5107,-23.3494,190.0987],[-61.5074,-23.3475,191.4095],[-61.5139,-23.3455,189.1418],[-61.532,-23.3465,191.6906],[-61.5364,-23.344,191.5333],[-61.5487,-23.3438,189.9402],[-61.5759,-23.32,192.1451],[-61.5769,-23.3076,191.9604],[-61.58,-23.3047,193.3014],[-61.5877,-23.3038,195.4995],[-61.5926,-23.3012,193.6071],[-61.5956,-23.2942,194.7222],[-61.5986,-23.2946,194.017],[-61.6059,-23.2913,193.6349],[-61.6115,-23.2851,194.1191],[-61.6213,-23.283,197.7132],[-61.6393,-23.2821,194.89],[-61.6726,-23.2858,195.8803],[-61.6892,-23.2763,195.8571],[-61.6928,-23.2613,196.2863],[-61.6998,-23.2561,197.2748],[-61.7156,-23.2462,197.7803],[-61.7276,-23.2457,199.2001],[-61.7393,-23.2397,198.3281],[-61.7463,-23.2012,198.2668],[-61.7499,-23.1906,199.8646],[-61.758,-23.1812,200.2785],[-61.7713,-23.1704,200.4572],[-61.7769,-23.1678,200.9786],[-61.7887,-23.1679,201.0796],[-61.7943,-23.1605,201.5427],[-61.8058,-23.161,202.2145],[-61.8143,-23.1579,201.2536],[-61.8198,-23.1519,203.0764],[-61.8246,-23.133,203.2275],[-61.8356,-23.1276,202.0418],[-61.8475,-23.1185,202.1976],[-61.8515,-23.1083,203.8389],[-61.8338,-24.0068,183.4813],[-61.8348,-24.3154,165.5],[-61.8276,-24.3257,181.4161],[-61.8213,-24.3245,178.3039],[-61.8247,-24.3134,172.3832],[-61.8193,-24.3143,171.224],[-61.813,-24.3242,175.2393],[-61.8023,-24.3302,168.9766],[-61.7938,-24.3384,173.3268],[-61.7879,-24.3406,175.2657],[-61.7846,-24.3367,173.694],[-61.7846,-24.3309,175.8553],[-61.7902,-24.3139,178.3853],[-61.7864,-24.3139,177.1601],[-61.7748,-24.3341,174.4219],[-61.7689,-24.3504,171.1902],[-61.7633,-24.3567,171.52],[-61.7283,-24.3689,171.2716],[-61.7179,-24.3753,171.5376],[-61.7143,-24.3798,162.8135],[-61.7129,-24.3854,160.8561],[-61.7162,-24.3961,172.8551],[-61.7091,-24.412,172.2132],[-61.7087,-24.4177,172.7431],[-61.7012,-24.4263,170.9723],[-61.6953,-24.4364,170.537],[-61.6739,-24.4571,167.3254],[-61.6685,-24.46,166.1705],[-61.6626,-24.4605,165.9229],[-61.6529,-24.4535,169.2327],[-61.6469,-24.4537,167.3839],[-61.6434,-24.4638,168.1265],[-61.6339,-24.4646,167.0827],[-61.6228,-24.4689,164.1645],[-61.6164,-24.4693,164.5125],[-61.6092,-24.4647,162.9979],[-61.6061,-24.4594,169.0784],[-61.6014,-24.4602,164.7178],[-61.5934,-24.469,163.9238],[-61.583,-24.4752,164.5725],[-61.5748,-24.4838,163.9216],[-61.5725,-24.489,163.4606],[-61.5707,-24.5058,165.4486],[-61.5687,-24.5114,161.1375],[-61.5615,-24.5207,161.1278],[-61.5571,-24.5249,162.3631],[-61.5401,-24.5319,159.8733],[-61.5328,-24.541,161.461],[-61.532,-24.5466,160.6006],[-61.5278,-24.5503,159.9687],[-61.5215,-24.5482,160.8304],[-61.5171,-24.5502,154.0771],[-61.5148,-24.5615,162.5339],[-61.5108,-24.5658,159.939],[-61.5009,-24.5722,160.5038],[-61.4982,-24.5762,159.4649],[-61.4943,-24.5783,161.7583],[-61.4887,-24.5751,157.3817],[-61.4839,-24.5773,158.906],[-61.4796,-24.5818,161.095],[-61.4678,-24.6069,156.4977],[-61.4664,-24.6122,158.7301],[-61.4671,-24.6176,159.4944],[-61.4595,-24.6262,159.3734],[-61.4509,-24.6197,156.8906],[-61.4396,-24.6166,157.2678],[-61.4162,-24.6217,156.3457],[-61.4068,-24.6285,156.2027],[-61.389,-24.6263,155.7496],[-61.3841,-24.6281,156.5699],[-61.3705,-24.6391,157.2547],[-61.3587,-24.6399,155.5483],[-61.3531,-24.6422,155.0062],[-61.3416,-24.6402,146.6577],[-61.324,-24.6438,152.5446],[-61.3217,-24.6483,153.0661],[-61.3249,-24.6531,153.3959],[-61.325,-24.6585,154.2267],[-61.3197,-24.658,153.4184],[-61.3155,-24.6478,153.684],[-61.3112,-24.6441,151.5977],[-61.3053,-24.6427,149.0825],[-61.2813,-24.6439,153.2294],[-61.2725,-24.6359,145.3224],[-61.2673,-24.6355,150.2567],[-61.2573,-24.6402,152.5297],[-61.2551,-24.6452,151.3791],[-61.2436,-24.6483,149.9672],[-61.2256,-24.65,145.6792],[-61.2208,-24.6529,151.6216],[-61.2216,-24.6584,147.9916],[-61.2249,-24.663,158.3231],[-61.223,-24.6681,152.274],[-61.2111,-24.6683,144.2888],[-61.2042,-24.6774,142.6804],[-61.1991,-24.6804,143.9102],[-61.2009,-24.6854,141.8496],[-61.2002,-24.6964,150.5058],[-61.1958,-24.6992,149.6951],[-61.1976,-24.7093,149.6906],[-61.1952,-24.7143,150.8689],[-61.1899,-24.7121,142.0209],[-61.1845,-24.7208,142.149],[-61.1793,-24.7234,144.9126],[-61.1747,-24.7204,150.0407],[-61.1758,-24.7149,147.4624],[-61.1703,-24.7059,148.2107],[-61.1598,-24.7085,144.8393],[-61.1627,-24.719,142.4235],[-61.1586,-24.7378,141.2332],[-61.1555,-24.7421,148.5727],[-61.1436,-24.7407,148.0143],[-61.1514,-24.7491,143.8677],[-61.1489,-24.7591,147.0675],[-61.1419,-24.768,145.9769],[-61.14,-24.7732,146.6051],[-61.1394,-24.7933,148.8655]]]]}
,"properties": {"GID_2": "ARG.9.1_1","GID_0": "ARG","country": "Argentina","GID_1": "ARG.9_1","state": "Formosa","NL_NAME_1": "NA","county": "Bermejo","VARNAME_2": "LagunaYema","NL_NAME_2": "NA","TYPE_2": "Departamento","ENGTYPE_2": "Department","CC_2": "NA","HASC_2": "AR.FM.BE","name": "Bermejo.county","area_km2": 13978.7,"hist_schema_id": "Elevation0-9000","hist_area_km2": {"125": 11.43,"150": 6643.35,"175": 6606.81,"200": 717.1}}}