{"type": "Feature","bbox": [-65.0356,-24.1989,-63.3919,-22.4359],"geometry": {"type": "MultiPolygon","coordinates": [[[[-65.0356,-23.2367,4409.0288],[-65.0304,-23.2716,4276.7935],[-65.0262,-23.2817,4382.6182],[-65.0095,-23.2863,4499.5361],[-64.984,-23.2997,3541.0674],[-64.9574,-23.321,3681.7507],[-64.9466,-23.3338,3209.3716],[-64.9388,-23.3598,3235.3599],[-64.9231,-23.3759,2774.3076],[-64.9179,-23.3855,2301.5225],[-64.9121,-23.401,2778.5071],[-64.9093,-23.4221,2608.583],[-64.902,-23.4308,3108.6467],[-64.8857,-23.4372,2462.0146],[-64.8823,-23.4412,2604.5093],[-64.8812,-23.4521,2408.7881],[-64.888,-23.4672,2193.2629],[-64.8881,-23.4724,2153.7515],[-64.8861,-23.4776,2085.0444],[-64.8704,-23.5011,2221.9377],[-64.866,-23.5026,2380.998],[-64.8544,-23.4983,2542.7051],[-64.8488,-23.498,2746.2285],[-64.8283,-23.5088,2397.8447],[-64.8228,-23.5104,2106.0684],[-64.811,-23.5103,2051.5234],[-64.8005,-23.506,2051.208],[-64.7794,-23.4873,1676.0103],[-64.7674,-23.4868,1647.9839],[-64.7623,-23.4846,1837.8823],[-64.7541,-23.4767,1374.3085],[-64.7489,-23.4741,1529.5111],[-64.7261,-23.4692,1351.0159],[-64.7087,-23.4683,1158.4155],[-64.6979,-23.4639,1054.499],[-64.6807,-23.462,995.2359],[-64.6758,-23.459,867.1626],[-64.67,-23.4581,883.0674],[-64.6611,-23.465,863.4397],[-64.6453,-23.481,862.4615],[-64.6352,-23.4862,706.2288],[-64.6024,-23.4981,628.9633],[-64.5822,-23.5093,591.9661],[-64.5538,-23.516,517.1714],[-64.5493,-23.5189,504.1387],[-64.516,-23.549,451.5572],[-64.4999,-23.5719,401.3816],[-64.4942,-23.5751,390.688],[-64.4888,-23.5848,376.7888],[-64.4844,-23.5877,376.1997],[-64.4832,-23.5826,378.8426],[-64.4777,-23.5843,374.3503],[-64.4747,-23.5887,368.3084],[-64.4639,-23.5931,364.3529],[-64.4622,-23.5978,360.3192],[-64.4644,-23.6028,356.0855],[-64.4622,-23.6187,349.9376],[-64.4593,-23.623,346.0361],[-64.4499,-23.6292,344.7227],[-64.4487,-23.6345,340.4324],[-64.4438,-23.6349,341.6194],[-64.4405,-23.63,343.7693],[-64.4187,-23.6119,350.5982],[-64.4065,-23.5873,343.7755],[-64.4001,-23.5555,351.1438],[-64.3975,-23.5506,345.0342],[-64.3943,-23.5461,345.4911],[-64.3815,-23.535,325.4847],[-64.3702,-23.5162,350.5731],[-64.356,-23.5066,343.7108],[-64.2384,-23.5055,316.7037],[-64.1735,-23.507,307.5836],[-64.1728,-23.9991,577.9801],[-64.1758,-24.0569,858.6053],[-64.1749,-24.0911,859.3607],[-64.1761,-24.1168,750.0931],[-64.174,-24.128,764.443],[-64.1664,-24.1452,755.3026],[-63.6477,-24.1989,259.1865],[-63.63,-24.0987,250.4749],[-63.525,-24.115,240.5673],[-63.4853,-23.943,226.7519],[-63.4936,-23.9369,229.5968],[-63.4398,-23.6857,241.0964],[-63.4269,-23.6883,240.218],[-63.3919,-23.5402,241.0355],[-63.3979,-23.5318,248.3857],[-63.4105,-23.5192,243.5006],[-63.4292,-23.5042,243.9106],[-63.4913,-23.4662,250.5926],[-63.5146,-23.4581,247.2115],[-63.5356,-23.4458,249.2013],[-63.5644,-23.424,257.4355],[-63.594,-23.4538,255.5553],[-63.5992,-23.4572,254.54],[-63.6042,-23.456,257.2476],[-63.6299,-23.431,260.6902],[-63.6604,-23.4112,263.1613],[-63.6729,-23.3985,262.2382],[-63.6794,-23.3887,260.3217],[-63.7089,-23.3594,258.3846],[-63.7277,-23.3604,268.6762],[-63.7402,-23.3594,267.8617],[-63.7454,-23.3569,268.6467],[-63.7539,-23.3484,262.7235],[-63.785,-23.3475,268.1634],[-63.797,-23.3447,272.57],[-63.8065,-23.3375,270.6901],[-63.816,-23.3226,264.0],[-63.8291,-23.3103,272.4372],[-63.8563,-23.2967,272.4763],[-63.8685,-23.2961,271.1292],[-63.8806,-23.2988,271.7014],[-63.8854,-23.3026,267.5],[-63.8975,-23.3046,268.0],[-63.9397,-23.2949,278.0111],[-63.9565,-23.2876,275.1114],[-63.9626,-23.287,278.4043],[-63.9684,-23.289,277.4469],[-63.9726,-23.2934,278.6537],[-63.9783,-23.2949,283.2547],[-63.9889,-23.3015,283.8111],[-64.0,-23.2971,283.6528],[-64.0041,-23.2929,282.9938],[-64.0039,-23.2874,284.9435],[-63.9907,-23.2756,283.6417],[-63.9914,-23.27,283.1679],[-63.9959,-23.2666,278.2697],[-64.0073,-23.2621,287.9374],[-64.017,-23.2549,285.476],[-64.022,-23.2532,286.7856],[-64.0352,-23.2557,287.8505],[-64.0665,-23.2562,288.506],[-64.0717,-23.2539,287.7555],[-64.0811,-23.2388,285.7311],[-64.0858,-23.2352,283.5353],[-64.0961,-23.2288,282.3236],[-64.1081,-23.2261,287.7345],[-64.1381,-23.2337,349.999],[-64.1504,-23.234,350.7156],[-64.1663,-23.2432,346.8216],[-64.1722,-23.2453,333.5062],[-64.1777,-23.2449,304.6007],[-64.1906,-23.2127,336.3733],[-64.2032,-23.2138,307.7538],[-64.209,-23.2119,309.8526],[-64.219,-23.2049,302.6288],[-64.2282,-23.1901,336.8607],[-64.2304,-23.1788,341.9372],[-64.2284,-23.1675,394.3705],[-64.222,-23.1576,374.1244],[-64.2166,-23.1554,325.812],[-64.2105,-23.157,313.786],[-64.1855,-23.1745,364.3911],[-64.1797,-23.1747,367.8925],[-64.1747,-23.1712,390.4269],[-64.1932,-23.156,323.6418],[-64.1957,-23.1512,312.1317],[-64.195,-23.1454,377.6114],[-64.1889,-23.1289,339.119],[-64.2004,-23.1333,331.9507],[-64.2032,-23.1291,326.9194],[-64.2018,-23.1176,363.0756],[-64.2135,-23.121,343.5663],[-64.2174,-23.1169,346.8992],[-64.2138,-23.1125,346.9593],[-64.2084,-23.1096,320.7274],[-64.2058,-23.1044,326.832],[-64.2107,-23.076,481.431],[-64.2133,-23.0711,447.271],[-64.2186,-23.0679,444.2172],[-64.2247,-23.0673,473.3143],[-64.2297,-23.0709,437.2535],[-64.2322,-23.0768,398.6347],[-64.2366,-23.0781,379.0231],[-64.2395,-23.0734,408.5314],[-64.2385,-23.0675,432.1684],[-64.2404,-23.062,408.3367],[-64.2433,-23.0569,456.6774],[-64.248,-23.053,445.1382],[-64.2631,-23.028,420.4766],[-64.2748,-23.0245,340.9995],[-64.285,-23.0182,345.7969],[-64.2943,-22.9969,335.6207],[-64.3109,-22.9897,338.7477],[-64.3209,-22.9828,341.289],[-64.324,-22.9718,346.7173],[-64.3254,-22.9488,344.2949],[-64.3286,-22.9376,344.7744],[-64.3249,-22.9333,345.4364],[-64.3146,-22.9267,347.8124],[-64.3137,-22.9213,348.9037],[-64.3164,-22.9161,349.4826],[-64.3158,-22.9105,355.0709],[-64.3135,-22.9051,352.5865],[-64.309,-22.9011,351.7477],[-64.3096,-22.8954,353.6179],[-64.2988,-22.8817,356.693],[-64.2976,-22.8762,355.2009],[-64.2993,-22.8623,347.9853],[-64.3073,-22.8619,352.3175],[-64.3095,-22.8645,350.8915],[-64.3116,-22.882,348.2487],[-64.3157,-22.8828,345.1407],[-64.3172,-22.8813,344.6183],[-64.3128,-22.8721,346.7145],[-64.3148,-22.8671,351.7639],[-64.3205,-22.8684,351.5749],[-64.3245,-22.8742,351.7994],[-64.3281,-22.8722,352.1595],[-64.3344,-22.8741,353.588],[-64.3388,-22.8682,349.5157],[-64.3407,-22.8583,349.0911],[-64.3377,-22.8557,350.1795],[-64.3314,-22.8631,353.407],[-64.3286,-22.8625,353.5481],[-64.3268,-22.8365,359.1232],[-64.3287,-22.8312,358.3521],[-64.3306,-22.8121,364.014],[-64.3343,-22.808,365.0307],[-64.3422,-22.8066,373.6837],[-64.3442,-22.7935,376.8156],[-64.3397,-22.7851,379.1969],[-64.3383,-22.778,380.4268],[-64.3393,-22.7684,387.1897],[-64.3422,-22.7641,387.342],[-64.3407,-22.7524,392.8689],[-64.3417,-22.7493,390.97],[-64.3491,-22.7388,398.4213],[-64.3525,-22.7309,403.2152],[-64.3612,-22.7243,403.0618],[-64.3651,-22.7238,402.0403],[-64.3724,-22.7274,405.73],[-64.374,-22.7212,409.9909],[-64.3812,-22.7174,421.0115],[-64.3848,-22.7177,416.7362],[-64.3892,-22.7225,419.5572],[-64.3917,-22.7222,415.0111],[-64.3948,-22.7186,418.7153],[-64.3982,-22.7202,421.9849],[-64.403,-22.7194,421.9812],[-64.4016,-22.7153,433.2638],[-64.3914,-22.7126,431.5994],[-64.3922,-22.7102,427.9497],[-64.3974,-22.7101,428.6315],[-64.3974,-22.7063,445.1318],[-64.4009,-22.6974,435.7499],[-64.3946,-22.6902,438.3513],[-64.3944,-22.6881,437.5513],[-64.3981,-22.6833,440.5326],[-64.4155,-22.679,457.8339],[-64.4186,-22.6708,463.7103],[-64.4145,-22.657,480.5152],[-64.4312,-22.651,464.5828],[-64.4338,-22.6484,474.3618],[-64.4352,-22.6424,467.4217],[-64.4423,-22.638,479.3884],[-64.4402,-22.6355,470.6937],[-64.4351,-22.6346,475.7277],[-64.4272,-22.639,482.0131],[-64.4239,-22.6353,477.5329],[-64.4251,-22.6296,481.3663],[-64.4322,-22.6328,486.3081],[-64.4339,-22.6311,495.1177],[-64.4329,-22.6281,508.1837],[-64.4348,-22.6232,483.0129],[-64.4289,-22.6171,497.5271],[-64.4289,-22.6079,490.7198],[-64.426,-22.6039,498.9913],[-64.4297,-22.5985,493.9569],[-64.425,-22.5886,512.7415],[-64.425,-22.5871,505.0472],[-64.429,-22.5862,501.7271],[-64.4318,-22.5814,503.3112],[-64.4302,-22.5787,505.3653],[-64.4205,-22.5772,509.0419],[-64.4129,-22.5688,512.7373],[-64.4093,-22.5595,516.3456],[-64.4111,-22.5571,519.1347],[-64.4168,-22.5548,519.9816],[-64.4173,-22.5528,521.1896],[-64.4164,-22.5494,524.3126],[-64.4121,-22.544,527.0804],[-64.4121,-22.5401,526.992],[-64.4143,-22.5364,534.0803],[-64.4226,-22.5338,532.9059],[-64.4311,-22.5217,539.8771],[-64.4446,-22.5219,546.3231],[-64.4508,-22.5188,548.9215],[-64.4514,-22.5139,552.1844],[-64.4456,-22.5087,563.8027],[-64.446,-22.5049,557.3448],[-64.4489,-22.5035,561.2485],[-64.4552,-22.5042,634.0541],[-64.4588,-22.5021,570.5184],[-64.4586,-22.4953,577.7532],[-64.4609,-22.491,632.5157],[-64.4687,-22.4924,591.2371],[-64.4691,-22.4875,606.3395],[-64.4754,-22.4888,579.1587],[-64.4771,-22.4823,589.3182],[-64.483,-22.4805,598.5924],[-64.4841,-22.476,592.6238],[-64.4821,-22.472,590.8073],[-64.4748,-22.469,594.175],[-64.4791,-22.4619,597.1156],[-64.4887,-22.4575,600.6431],[-64.4899,-22.4418,611.7961],[-64.493,-22.4359,614.5436],[-64.4907,-22.4424,645.9707],[-64.507,-22.4588,801.3834],[-64.5163,-22.4735,727.8454],[-64.5178,-22.485,804.4985],[-64.5153,-22.5079,815.4557],[-64.5206,-22.5362,950.3541],[-64.5187,-22.5533,1235.244],[-64.5195,-22.5648,1264.6533],[-64.5242,-22.5753,1108.1738],[-64.5351,-22.5894,1072.8671],[-64.5434,-22.6048,1200.5406],[-64.5428,-22.6162,1386.9268],[-64.5511,-22.6438,1501.7692],[-64.5601,-22.6518,1484.0197],[-64.5659,-22.6545,1427.782],[-64.5687,-22.6638,1018.3258],[-64.5686,-22.6695,1142.3379],[-64.566,-22.6746,915.3456],[-64.5425,-22.6933,760.9277],[-64.5346,-22.7022,726.8498],[-64.5259,-22.7171,743.2103],[-64.5229,-22.7342,653.3107],[-64.5232,-22.7514,526.6019],[-64.5208,-22.7685,537.6148],[-64.526,-22.785,645.8479],[-64.5276,-22.8021,564.7157],[-64.514,-22.8211,495.3786],[-64.5146,-22.8269,477.3939],[-64.5128,-22.8324,523.8469],[-64.5057,-22.8416,548.4562],[-64.5146,-22.881,632.1221],[-64.5238,-22.8887,734.8026],[-64.5505,-22.9039,674.587],[-64.551,-22.9084,684.2422],[-64.5378,-22.9283,732.9315],[-64.5344,-22.9393,656.6461],[-64.5371,-22.956,853.33],[-64.5473,-22.9769,722.103],[-64.549,-22.994,704.4192],[-64.5528,-23.005,632.9228],[-64.5574,-23.0624,592.1244],[-64.561,-23.0663,570.0088],[-64.5726,-23.0712,583.0635],[-64.616,-23.0696,669.9142],[-64.6342,-23.066,750.0504],[-64.6398,-23.0636,770.151],[-64.6516,-23.0503,895.184],[-64.6573,-23.0281,1054.635],[-64.6601,-23.0229,1123.7245],[-64.6652,-23.0206,1195.6383],[-64.6947,-23.03,1168.2491],[-64.7087,-23.0414,1220.719],[-64.7143,-23.0436,1168.4136],[-64.7206,-23.0434,1122.2919],[-64.7426,-23.0327,1175.8438],[-64.7485,-23.032,1106.2222],[-64.7908,-23.0417,1426.9347],[-64.7968,-23.0419,1448.9984],[-64.8233,-23.0267,1548.4691],[-64.8345,-23.0219,1501.7767],[-64.8767,-23.0309,2096.3008],[-64.8892,-23.0319,1978.554],[-64.8993,-23.0254,2061.3477],[-64.9124,-23.0132,2605.6646],[-64.9291,-23.0054,2652.3206],[-64.9349,-23.004,2521.1499],[-64.9509,-23.0128,2627.5493],[-64.9627,-23.0096,3042.4189],[-64.9809,-23.0132,3573.9839],[-64.987,-23.0128,4042.645],[-64.9926,-23.0103,4245.0215],[-64.9958,-23.0054,3934.1211],[-65.0055,-22.9983,4411.062],[-65.0114,-22.9963,4283.3989],[-65.0175,-22.9969,4221.688],[-65.0273,-23.002,4252.0342],[-65.0133,-23.0197,4299.3135],[-65.006,-23.0344,3640.8037],[-65.0054,-23.0397,4012.917],[-65.0079,-23.0559,3527.585],[-65.0055,-23.072,3159.6333],[-65.007,-23.1044,3485.1526],[-65.0126,-23.1254,3888.3564],[-65.0116,-23.1524,3786.5449],[-65.0188,-23.1672,4058.657],[-65.0198,-23.1725,4294.106],[-65.0181,-23.1886,3847.7319],[-65.0186,-23.1995,3739.5691],[-65.0288,-23.2189,4364.5811],[-65.0356,-23.2367,4409.0288]]],
[[[-64.2969,-22.8525,353.7354],[-64.2981,-22.8542,350.1831],[-64.2981,-22.8566,352.1903],[-64.296,-22.8509,354.9453],[-64.2969,-22.8525,353.7354]]]]}
,"properties": {"GID_2": "ARG.17.18_1","GID_0": "ARG","country": "Argentina","GID_1": "ARG.17_1","state": "Salta","NL_NAME_1": "NA","county": "Orán","VARNAME_2": "S.RamondelaN.Oran","NL_NAME_2": "NA","TYPE_2": "Departamento","ENGTYPE_2": "Department","CC_2": "NA","HASC_2": "AR.SA.OR","name": "Orán.county","area_km2": 11915.452,"hist_schema_id": "Elevation0-9000","hist_area_km2": {"225": 281.769,"250": 1081.338,"275": 1041.482,"300": 1368.859,"325": 1056.551,"350": 1039.883,"375": 767.923,"400": 570.581,"425": 391.873,"450": 356.564,"475": 315.549,"500": 239.62,"525": 198.516,"550": 172.143,"575": 157.431,"600": 148.336,"625": 139.99,"650": 129.561,"675": 119.265,"700": 110.792,"725": 101.685,"750": 91.275,"775": 86.169,"800": 80.314,"825": 71.616,"850": 65.997,"875": 58.996,"900": 49.503,"925": 46.071,"950": 42.193,"975": 38.317,"1000": 35.396,"1025": 35.085,"1050": 31.484,"1075": 29.575,"1100": 24.686,"1125": 23.342,"1150": 20.242,"1175": 19.387,"1200": 18.819,"1225": 18.216,"1250": 18.564,"1275": 16.829,"1300": 16.457,"1325": 14.643,"1350": 15.561,"1375": 14.039,"1400": 13.847,"1425": 14.39,"1450": 14.113,"1475": 13.471,"1500": 13.743,"1525": 14.211,"1550": 13.293,"1575": 13.744,"1600": 13.857,"1625": 13.505,"1650": 14.17,"1675": 14.615,"1700": 13.564,"1725": 13.58,"1750": 14.653,"1775": 13.581,"1800": 13.971,"1825": 14.183,"1850": 12.739,"1875": 14.552,"1900": 13.283,"1925": 13.03,"1950": 13.498,"1975": 12.542,"2000": 12.485,"2025": 14.53,"2050": 13.07,"2075": 13.478,"2100": 13.323,"2125": 13.517,"2150": 12.778,"2175": 14.005,"2200": 12.875,"2225": 13.168,"2250": 12.038,"2275": 12.973,"2300": 12.078,"2325": 12.74,"2350": 11.825,"2375": 12.292,"2400": 12.857,"2425": 13.363,"2450": 13.637,"2475": 13.052,"2500": 13.265,"2525": 13.909,"2550": 12.857,"2575": 13.715,"2600": 13.714,"2625": 11.865,"2650": 12.528,"2675": 12.624,"2700": 11.983,"2725": 12.568,"2750": 13.21,"2775": 11.906,"2800": 12.802,"2825": 11.516,"2850": 11.4,"2875": 12.121,"2900": 11.147,"2925": 12.511,"2950": 12.025,"2975": 11.752,"3000": 12.531,"3025": 12.005,"3050": 11.479,"3075": 11.323,"3100": 11.421,"3125": 10.544,"3150": 11.303,"3175": 10.895,"3200": 11.831,"3225": 9.725,"3250": 9.745,"3275": 9.725,"3300": 8.751,"3325": 8.712,"3350": 8.264,"3375": 7.464,"3400": 7.114,"3425": 6.763,"3450": 6.997,"3475": 7.231,"3500": 6.645,"3525": 6.022,"3550": 5.437,"3575": 5.769,"3600": 5.515,"3625": 4.366,"3650": 4.366,"3675": 3.937,"3700": 3.469,"3725": 3.43,"3750": 2.884,"3775": 3.469,"3800": 2.631,"3825": 2.631,"3850": 2.183,"3875": 2.436,"3900": 2.28,"3925": 2.436,"3950": 2.436,"3975": 1.695,"4000": 2.046,"4025": 1.89,"4050": 2.319,"4075": 2.358,"4100": 2.358,"4125": 1.657,"4150": 1.598,"4175": 1.54,"4200": 1.481,"4225": 1.228,"4250": 1.189,"4275": 1.345,"4300": 1.365,"4325": 1.267,"4350": 1.306,"4375": 1.111,"4400": 1.248,"4425": 1.15,"4450": 1.131,"4475": 0.897,"4500": 1.033,"4525": 0.643,"4550": 0.507,"4575": 0.584,"4600": 0.876,"4625": 0.799,"4650": 0.273,"4675": 0.097,"4700": 0.097}}}