{"type":"Feature","properties":{"ISO3166-1-Alpha-3":"ARG","country":"Argentina","fill":"#FF0","id":"1273","name":"San Juan"},
"geometry":{"type": "Polygon","coordinates": [[[-69.52914,-28.43873,4426.8149],[-69.54298,-28.43754,4599.5771],[-69.55118,-28.43516,4689.9248],[-69.55947,-28.43124,4461.771],[-69.57908,-28.41976,4472.7314],[-69.5867,-28.41677,4306.2046],[-69.65405,-28.40099,5397.0615],[-69.67236,-28.45769,5486.1147],[-69.67484,-28.56311,4961.0884],[-69.6784,-28.57386,4827.5244],[-69.68512,-28.57779,4932.5601],[-69.69321,-28.57975,5013.2529],[-69.70088,-28.5844,5059.2183],[-69.72207,-28.61066,5022.1289],[-69.74085,-28.64063,4729.9868],[-69.75339,-28.67339,4495.4282],[-69.75592,-28.7077,4236.6196],[-69.75106,-28.72982,4908.4546],[-69.73638,-28.7724,4491.8027],[-69.73277,-28.79431,4148.1875],[-69.73584,-28.8124,4116.2607],[-69.76483,-28.8586,4184.5811],[-69.76682,-28.86759,4407.7769],[-69.76643,-28.87586,4701.2871],[-69.76731,-28.88423,4734.6406],[-69.77313,-28.89271,4926.061],[-69.7854,-28.90583,4579.896],[-69.79506,-28.92082,4512.0874],[-69.80279,-28.93994,3936.1218],[-69.80661,-28.95988,3743.1343],[-69.8063,-28.98014,3780.8196],[-69.80168,-28.99999,4448.3105],[-69.79576,-29.05011,5459.5664],[-69.79723,-29.07667,5702.2275],[-69.80393,-29.09869,4873.1592],[-69.82232,-29.12008,4488.5469],[-69.84436,-29.12928,4473.3862],[-69.89449,-29.13724,4185.4067],[-69.91095,-29.14323,4039.7998],[-69.91472,-29.14881,4083.6106],[-69.91529,-29.15615,4128.3911],[-69.92198,-29.16804,4392.6221],[-69.9326,-29.17693,4631.9775],[-69.95937,-29.19212,5100.9067],[-69.97505,-29.20431,4174.3604],[-69.98006,-29.20586,4211.5996],[-69.98505,-29.20835,4143.6729],[-69.9895,-29.21444,3885.9238],[-69.9881,-29.22002,3931.8752],[-69.97616,-29.23346,4304.4077],[-69.97474,-29.2408,4646.2607],[-69.98032,-29.25,4694.9238],[-69.98934,-29.25733,5080.3232],[-69.99986,-29.26292,4748.6763],[-70.01001,-29.26643,4594.687],[-70.03112,-29.27718,4784.8945],[-70.04066,-29.29754,4411.0381],[-70.04448,-29.34611,4873.0947],[-70.04262,-29.36306,4683.2627],[-70.03575,-29.37691,5117.7969],[-70.02699,-29.38994,5342.543],[-70.01955,-29.40441,5216.0449],[-70.01001,-29.45608,3758.7354],[-70.00218,-29.46559,4114.248],[-69.99614,-29.47644,4384.4697],[-69.99161,-29.48812,4845.1333],[-69.96846,-29.58331,4119.2051],[-69.9689,-29.61308,4001.8252],[-69.97293,-29.64315,3991.8311],[-69.97319,-29.6661,4190.7632],[-69.9635,-29.68553,4180.1753],[-69.93787,-29.70475,4183.0151],[-69.92935,-29.71788,4243.625],[-69.92909,-29.71829,4248.2261],[-69.9156,-29.80562,4725.2559],[-69.92219,-29.93957,5101.5693],[-69.92798,-29.97677,4547.9365],[-69.94128,-30.01305,4222.2227],[-69.97562,-30.05863,4102.8428],[-69.98037,-30.07248,4449.4648],[-69.97324,-30.08943,4849.4448],[-69.95766,-30.09274,5119.105],[-69.91867,-30.08777,4465.0938],[-69.88072,-30.09976,4658.9609],[-69.84974,-30.12664,4982.8008],[-69.83576,-30.16188,4922.1196],[-69.84896,-30.19909,5032.2046],[-69.85741,-30.20549,5463.3789],[-69.87707,-30.21314,5213.4897],[-69.88625,-30.221,5304.5068],[-69.89074,-30.22895,5149.6055],[-69.89402,-30.23805,5238.4961],[-69.89808,-30.25655,5538.5205],[-69.89986,-30.29438,6089.4497],[-69.90281,-30.31267,5626.9282],[-69.91214,-30.32952,5513.6826],[-69.93803,-30.35556,4305.9707],[-69.96459,-30.37479,4534.293],[-69.99446,-30.38812,4692.4023],[-70.03019,-30.39711,4584.1621],[-70.06427,-30.38926,4635.0776],[-70.14693,-30.35391,4711.272],[-70.17341,-30.36466,3927.7004],[-70.17377,-30.38223,4034.0627],[-70.14871,-30.41871,3897.9851],[-70.14393,-30.43959,4240.1797],[-70.15119,-30.45974,4668.5649],[-70.16377,-30.47018,4882.2095],[-70.17969,-30.47711,4435.7397],[-70.19698,-30.48682,4580.4111],[-70.2171,-30.51514,4266.377],[-70.2354,-30.59162,3700.6699],[-70.25077,-30.62655,4095.3262],[-70.2702,-30.65725,3702.437],[-70.27599,-30.67306,3760.6731],[-70.27987,-30.69311,4510.3604],[-70.27935,-30.70562,3988.3313],[-70.27661,-30.71564,3767.6689],[-70.27617,-30.72557,3757.1838],[-70.28229,-30.73776,3841.5271],[-70.30007,-30.75812,3688.6992],[-70.30503,-30.76546,3567.6255],[-70.31948,-30.80081,3719.3066],[-70.33922,-30.93816,3418.1953],[-70.33521,-30.95604,3653.1626],[-70.32513,-30.97165,3348.5901],[-70.3086,-30.98818,3343.5476],[-70.27987,-31.0103,3901.001],[-70.26759,-31.02384,3915.0781],[-70.26656,-31.03645,3918.1443],[-70.27832,-31.03945,3874.4163],[-70.32095,-31.03366,3786.1602],[-70.33978,-31.04172,3241.9563],[-70.3625,-31.07304,3075.821],[-70.37239,-31.09216,3407.3965],[-70.38089,-31.12161,3550.7961],[-70.39306,-31.13763,3055.3999],[-70.40864,-31.15004,3243.896],[-70.4234,-31.15376,3181.5374],[-70.43562,-31.14135,3181.8311],[-70.44061,-31.11882,3198.3196],[-70.4481,-31.09764,3449.7122],[-70.46779,-31.08937,3311.6882],[-70.4798,-31.09671,3299.6187],[-70.53592,-31.17257,3147.9648],[-70.5414,-31.18817,3338.9705],[-70.54336,-31.20812,3565.0986],[-70.5429,-31.24677,3565.7046],[-70.5468,-31.26455,3505.1855],[-70.56897,-31.30424,3425.3901],[-70.56721,-31.32305,3529.115],[-70.5599,-31.34165,3491.1118],[-70.55466,-31.36294,3723.8162],[-70.55778,-31.38175,3803.3718],[-70.57538,-31.41297,3822.5637],[-70.57899,-31.43198,3550.2625],[-70.57791,-31.46888,3425.7573],[-70.58137,-31.50567,3257.1968],[-70.59137,-31.5496,3665.2019],[-70.58977,-31.56768,3831.9827],[-70.58026,-31.59228,3732.0591],[-70.52721,-31.68427,3848.8459],[-70.49678,-31.71455,3242.4849],[-70.48631,-31.73119,3148.4639],[-70.48848,-31.77387,3491.4919],[-70.48399,-31.79764,3481.0752],[-70.47523,-31.82007,3652.9126],[-70.46414,-31.83826,4021.5593],[-70.42828,-31.87009,3907.23],[-70.39399,-31.87764,4372.6758],[-70.35723,-31.8765,3934.7175],[-70.31333,-31.88208,4967.3496],[-70.29625,-31.89097,4246.8672],[-70.27501,-31.90699,4469.2778],[-70.25568,-31.9257,3948.2959],[-70.24447,-31.94224,4023.1414],[-70.2417,-31.96146,3821.9119],[-70.24767,-31.97458,3794.5476],[-70.25772,-31.98616,3591.2966],[-70.2672,-32.00094,3770.4922],[-70.27542,-32.03778,3961.0508],[-70.2847,-32.04678,3677.792],[-70.31004,-32.04771,3480.4758],[-70.35232,-32.03334,3863.4419],[-70.37332,-32.0304,3906.6982],[-70.38748,-32.04171,4235.9961],[-70.38908,-32.05308,3908.1384],[-70.38461,-32.06197,3812.3716],[-70.36805,-32.07706,3120.251],[-70.3612,-32.08584,3261.9009],[-70.35924,-32.0937,3630.2366],[-70.35991,-32.11303,3651.2117],[-70.3556,-32.12264,3622.5415],[-70.33896,-32.13339,3393.0774],[-70.33524,-32.14,3431.731],[-70.33686,-32.1492,3348.7559],[-70.34392,-32.16574,3543.8325],[-70.34552,-32.17473,3492.0671],[-70.34309,-32.18692,3346.6982],[-70.33131,-32.20821,3504.8872],[-70.33082,-32.20959,3543.5439],[-70.32725,-32.21969,3664.5688],[-70.32692,-32.22878,3743.4453],[-70.32979,-32.24687,3786.1133],[-70.32973,-32.25555,3865.3682],[-70.3218,-32.28015,3842.4905],[-70.30971,-32.28831,3651.7222],[-70.2925,-32.291,3963.0046],[-70.26919,-32.29906,4138.771],[-70.25612,-32.31428,4127.6196],[-70.24439,-32.30966,4341.0586],[-70.09101,-32.28893,3314.1125],[-70.05027,-32.28847,2817.7195],[-70.02657,-32.29715,2819.8521],[-69.98123,-32.30537,4706.0493],[-69.78586,-32.26501,2911.3997],[-69.67068,-32.26046,4745.8364],[-69.66231,-32.25803,4595.8301],[-69.65034,-32.25209,4662.2695],[-69.64357,-32.24749,4355.8633],[-69.63817,-32.24289,4427.8477],[-69.63458,-32.23865,4689.1191],[-69.63169,-32.23354,4625.4111],[-69.62944,-32.2277,4458.645],[-69.62781,-32.22144,4383.4858],[-69.62634,-32.20909,4637.6553],[-69.62975,-32.15297,4534.7241],[-69.62841,-32.14687,4242.1646],[-69.62626,-32.14114,4252.5601],[-69.62339,-32.13597,3978.4507],[-69.61998,-32.13132,3731.9082],[-69.61257,-32.12336,3818.9604],[-69.60815,-32.12026,4095.5781],[-69.59841,-32.11504,3852.2524],[-69.59259,-32.11287,3909.0781],[-69.53107,-32.09675,3232.6418],[-69.50947,-32.08812,3300.5967],[-69.4981,-32.08202,3037.49],[-69.47276,-32.06471,2730.0198],[-69.45325,-32.05448,2551.2798],[-69.44769,-32.05282,2504.3401],[-69.42162,-32.05003,2412.6255],[-69.36682,-32.05101,2221.9897],[-69.31762,-32.05913,2226.0435],[-69.30096,-32.05634,2299.5098],[-69.29179,-32.05386,2352.9165],[-69.28504,-32.05034,2410.1467],[-69.28091,-32.04693,2483.0256],[-69.27708,-32.04295,2486.4746],[-69.27419,-32.03872,2611.2722],[-69.26075,-32.01071,2745.019],[-69.25556,-32.00239,2790.7793],[-69.25336,-31.99986,2810.1899],[-69.24944,-31.99722,2875.3032],[-69.23647,-31.99309,2965.1401],[-69.22479,-31.99107,3167.1689],[-69.21779,-31.98818,3200.8188],[-69.21231,-31.98461,3280.833],[-69.19936,-31.96606,3621.8479],[-69.19569,-31.96198,3751.6938],[-69.19055,-31.95903,3650.6543],[-69.18427,-31.95676,3431.9141],[-69.175,-31.95567,3349.3784],[-69.15862,-31.95764,3481.3716],[-69.1451,-31.96187,3616.7021],[-69.13531,-31.96828,3817.113],[-69.12288,-31.97794,4084.6287],[-69.08211,-32.01975,3001.5659],[-69.07211,-32.03799,2804.8906],[-69.06609,-32.04621,2779.5935],[-69.05849,-32.05479,2616.1238],[-69.03906,-32.07076,2392.2104],[-69.02498,-32.07732,2181.5359],[-68.99134,-32.08016,1840.4358],[-68.94343,-32.07107,1623.6221],[-68.93023,-32.07096,1548.0179],[-68.92473,-32.07298,1520.002],[-68.92217,-32.07623,1505.9937],[-68.90217,-32.32568,1371.5922],[-68.89576,-32.3327,1292.3196],[-68.88618,-32.33658,1192.2225],[-68.6896,-32.33508,611.3779],[-68.63836,-32.31188,597.7993],[-68.46209,-32.20899,544.4427],[-68.42897,-32.18558,543.4171],[-68.41543,-32.16636,541.1671],[-68.40678,-32.15695,540.02],[-68.3937,-32.15013,539.4847],[-68.27293,-32.14429,537.4648],[-68.25159,-32.13959,539.5352],[-68.21599,-32.12574,538.3933],[-68.1772,-32.09866,534.806],[-68.16669,-32.09303,537.8495],[-68.05584,-32.06843,530.6],[-68.02073,-32.06905,534.6046],[-67.98548,-32.08838,527.4706],[-67.95952,-32.11189,525.9852],[-67.94884,-32.12558,530.4556],[-67.9397,-32.15855,530.7957],[-67.92709,-32.16873,526.0177],[-67.88926,-32.18455,526.2045],[-67.87495,-32.19406,520.5067],[-67.86257,-32.20506,520.2961],[-67.8395,-32.23493,520.983],[-67.83185,-32.23917,518.7654],[-67.73906,-32.25286,518.0925],[-67.73506,-32.25178,514.6694],[-67.72183,-32.24656,514.6162],[-67.71516,-32.24537,513.394],[-67.70666,-32.24764,513.8861],[-67.68938,-32.24103,512.0402],[-67.68181,-32.24149,512.9121],[-67.6531,-32.23839,509.9626],[-67.59362,-32.2263,507.3655],[-67.52784,-32.2264,503.389],[-67.5136,-32.22485,503.5065],[-67.50303,-32.22129,502.6054],[-67.49326,-32.21349,501.774],[-67.46719,-32.21793,500.2313],[-67.39301,-32.26216,495.8731],[-67.39079,-32.19406,502.4432],[-67.39299,-32.16284,503.8737],[-67.39177,-32.10233,507.079],[-67.39443,-32.08626,508.7391],[-67.39591,-32.06362,509.6164],[-67.39498,-32.05494,511.3847],[-67.39234,-32.0428,511.9974],[-67.3771,-31.99955,516.4303],[-67.37635,-31.99805,516.4303],[-67.37495,-31.99329,516.6353],[-67.37436,-31.98657,517.4044],[-67.37596,-31.97655,517.2045],[-67.38053,-31.96585,518.1524],[-67.38221,-31.96311,518.126],[-67.3827,-31.96198,518.153],[-67.38263,-31.96043,518.6981],[-67.38206,-31.95784,519.3453],[-67.38053,-31.94229,520.9849],[-67.38198,-31.93185,522.1183],[-67.38743,-31.90828,523.8702],[-67.38883,-31.89764,524.3812],[-67.38847,-31.8919,526.1207],[-67.38712,-31.88534,527.2233],[-67.38387,-31.87749,529.662],[-67.37689,-31.86684,530.358],[-67.36697,-31.85795,530.3198],[-67.34439,-31.84684,530.699],[-67.30255,-31.85397,528.7506],[-67.27098,-31.86296,546.614],[-67.25571,-31.86555,603.9666],[-67.23462,-31.86679,717.0969],[-67.15039,-31.86188,594.0861],[-67.11654,-31.85216,550.8527],[-67.10719,-31.85185,542.6312],[-67.09487,-31.85304,533.9376],[-67.07202,-31.85754,515.8986],[-67.06019,-31.86095,504.5692],[-67.05179,-31.86446,500.8734],[-67.039,-31.87485,510.6319],[-67.0342,-31.8778,508.6631],[-67.0288,-31.88028,518.3934],[-67.02296,-31.88214,517.7468],[-66.98513,-31.88849,466.534],[-66.73052,-31.87656,367.0214],[-66.75628,-31.81532,370.1894],[-66.78212,-31.77444,386.3873],[-66.79202,-31.76674,388.1581],[-66.80018,-31.76344,388.1542],[-66.80641,-31.76426,389.2744],[-66.81367,-31.7639,389.6311],[-66.82181,-31.76116,374.5],[-66.83232,-31.75367,376.5],[-66.83674,-31.74747,376.5],[-66.83891,-31.74116,376.5],[-66.83976,-31.71197,385.1259],[-66.85144,-31.67047,388.2134],[-66.85201,-31.66458,390.3651],[-66.85206,-31.64846,395.7734],[-66.85447,-31.63574,402.4753],[-66.85987,-31.63027,404.4348],[-66.86646,-31.62773,406.8829],[-66.92581,-31.62205,429.0321],[-66.93896,-31.61812,423.5057],[-66.94482,-31.61569,429.5341],[-66.9548,-31.60965,428.8206],[-67.03621,-31.54014,397.3843],[-67.04412,-31.53084,397.2831],[-67.04893,-31.5233,397.2958],[-67.05055,-31.51244,397.5737],[-67.05122,-31.45927,401.1909],[-67.05864,-31.43829,404.5985],[-67.0936,-31.37907,416.3704],[-67.10393,-31.35426,422.7269],[-67.05996,-31.08182,496.2541],[-67.11474,-31.03852,524.6953],[-67.11838,-31.00922,538.0754],[-67.08071,-30.9055,561.0934],[-67.08171,-30.89739,565.7379],[-67.08363,-30.8916,568.9861],[-67.10262,-30.86737,584.4458],[-67.11846,-30.84137,599.9312],[-67.13168,-30.82566,610.6129],[-67.14313,-30.80882,619.6404],[-67.18215,-30.72624,663.084],[-67.19228,-30.71399,669.7221],[-67.20111,-30.70712,676.2577],[-67.20636,-30.70412,679.9904],[-67.2492,-30.68826,706.2493],[-67.2561,-30.68304,710.1312],[-67.26361,-30.67559,716.1137],[-67.28914,-30.64108,741.816],[-67.29604,-30.63338,746.6758],[-67.34307,-30.56707,799.0159],[-67.35947,-30.55307,822.9072],[-67.36862,-30.54666,843.0002],[-67.38965,-30.5354,862.0797],[-67.43081,-30.50372,898.1813],[-67.44407,-30.49116,924.5371],[-67.45045,-30.48295,929.573],[-67.47601,-30.44005,934.5432],[-67.48203,-30.43282,941.3368],[-67.48784,-30.42765,949.3665],[-67.55362,-30.39179,1015.6562],[-67.56127,-30.38548,1026.4574],[-67.56623,-30.37975,1036.7032],[-67.56845,-30.37504,1047.7576],[-67.57194,-30.36492,1051.0369],[-67.58168,-30.32352,1125.5376],[-67.59525,-30.29929,1116.1479],[-67.62656,-30.25655,1246.269],[-67.63452,-30.24787,1191.1083],[-67.77343,-30.15299,1344.0688],[-67.78441,-30.14147,1427.4789],[-67.8102,-30.10566,1397.7063],[-67.81728,-30.09899,1405.9005],[-67.82384,-30.09418,1417.3024],[-67.87329,-30.07641,1478.6248],[-67.8867,-30.06928,1483.7588],[-67.9137,-30.05072,1517.2065],[-67.92794,-30.03817,1599.9539],[-67.95437,-30.00189,1724.3179],[-67.96166,-29.99517,1737.6387],[-67.9684,-29.99052,1750.6782],[-68.00406,-29.9715,1467.6791],[-68.01086,-29.96577,1291.1638],[-68.01535,-29.96034,1362.0392],[-68.02365,-29.94117,1357.8451],[-68.02827,-29.9268,1715.2124],[-68.07656,-29.88272,1432.6141],[-68.0986,-29.86846,1355.155],[-68.1439,-29.85658,1140.3665],[-68.15108,-29.85301,1181.5212],[-68.15625,-29.84913,1301.0198],[-68.15886,-29.84474,1278.1942],[-68.16103,-29.84014,1233.9957],[-68.16423,-29.83027,1256.8898],[-68.17067,-29.81704,1336.1638],[-68.17831,-29.8064,1427.3044],[-68.1909,-29.79663,1572.3524],[-68.24965,-29.7632,1339.0234],[-68.28882,-29.73906,1155.2781],[-68.30427,-29.72563,967.5115],[-68.32799,-29.6925,1115.8372],[-68.33546,-29.68723,1406.7349],[-68.34319,-29.68429,1088.3301],[-68.37223,-29.68119,1004.554],[-68.49672,-29.6447,986.272],[-68.52721,-29.64269,1036.6268],[-68.54023,-29.64325,1072.9111],[-68.56408,-29.64698,1152.5403],[-68.57857,-29.64791,1212.5828],[-68.58868,-29.64749,1265.1511],[-68.60501,-29.64532,1307.1003],[-68.61446,-29.64294,1327.7566],[-68.6218,-29.64005,1364.8599],[-68.67939,-29.60739,1514.5332],[-68.69118,-29.60372,1575.3071],[-68.70058,-29.60212,1573.0731],[-68.72564,-29.60465,1919.4619],[-68.75435,-29.61096,2074.8838],[-68.80657,-29.63034,3036.0188],[-68.81386,-29.63204,3126.6013],[-68.82305,-29.63307,3292.6113],[-68.83853,-29.63328,3391.3352],[-68.85034,-29.63106,3429.0542],[-68.87881,-29.62114,3352.1497],[-68.88889,-29.61917,3580.1726],[-68.89703,-29.61897,3395.2463],[-68.95421,-29.63462,3611.2993],[-68.97772,-29.63623,3738.241],[-69.01294,-29.62238,4541.6104],[-69.01725,-29.61778,4512.6738],[-69.02203,-29.61168,4732.6562],[-69.02405,-29.60109,4726.3496],[-69.02607,-29.57277,4810.2725],[-69.01948,-29.52233,4299.1172],[-69.01563,-29.51003,4384.0415],[-69.01353,-29.50481,4409.938],[-69.00023,-29.48513,4611.7456],[-68.98584,-29.4688,4539.4902],[-68.98242,-29.46275,4674.2861],[-68.97935,-29.45298,4515.6504],[-68.98013,-29.44384,4496.6025],[-68.98578,-29.4166,4230.583],[-68.97886,-29.3563,3922.051],[-68.97524,-29.34291,3811.6218],[-68.97051,-29.33506,3820.7527],[-68.96542,-29.33289,3742.022],[-68.95969,-29.3317,3807.5576],[-68.9538,-29.32891,3710.9272],[-68.94827,-29.32498,3794.4976],[-68.94274,-29.31666,3869.1533],[-68.94188,-29.31061,3721.9077],[-68.94305,-29.30529,3681.7034],[-68.94615,-29.30116,3822.5686],[-68.94964,-29.29733,3901.1846],[-68.95886,-29.28162,4267.6069],[-68.96718,-29.26328,3923.0083],[-68.98501,-29.2485,3914.092],[-69.00023,-29.23341,3685.3105],[-69.00503,-29.19589,4065.5925],[-69.0041,-29.15026,3923.2827],[-68.99883,-29.11791,3722.2964],[-68.97369,-29.079,3870.9836],[-68.96465,-29.07016,3670.0513],[-68.95429,-29.06345,3782.0508],[-68.94331,-29.06071,3997.1597],[-68.93005,-29.05585,4359.8569],[-68.91959,-29.04913,4187.9648],[-68.91031,-29.03311,4107.8726],[-68.90832,-29.02267,3934.4331],[-68.90863,-29.01415,3991.8228],[-68.91341,-29.00205,3944.0605],[-68.91643,-28.99647,3935.1958],[-68.92114,-28.98955,4003.3447],[-68.92814,-28.98149,4127.147],[-68.93871,-28.97265,4122.1064],[-68.96367,-28.95544,3844.7451],[-68.97392,-28.94573,3456.2053],[-68.98106,-28.93493,3228.4749],[-68.99739,-28.89834,3372.6721],[-69.0072,-28.86604,3829.7969],[-69.02025,-28.84702,3977.9644],[-69.0356,-28.83054,3842.5476],[-69.10299,-28.77767,3479.8638],[-69.11358,-28.74982,3457.3608],[-69.12242,-28.71101,3615.0667],[-69.13378,-28.68006,4086.7866],[-69.14787,-28.65794,3654.5332],[-69.16179,-28.62135,3830.5667],[-69.19019,-28.59402,3598.9204],[-69.33633,-28.48477,3915.3745],[-69.34509,-28.48054,3918.4883],[-69.35359,-28.4778,3956.1909],[-69.4032,-28.48198,4060.6177],[-69.41144,-28.48028,4068.5457],[-69.42067,-28.47733,4077.7588],[-69.43284,-28.47051,4076.7114],[-69.43914,-28.46539,4088.3921],[-69.44328,-28.46028,4128.3203],[-69.45984,-28.43552,4086.5784],[-69.46632,-28.42969,4286.2271],[-69.47304,-28.42643,4464.605],[-69.47914,-28.42643,4236.3286],[-69.49025,-28.42901,4308.8965],[-69.50012,-28.43279,4103.8193],[-69.51684,-28.43764,4116.4551],[-69.52914,-28.43873,4426.8149]]]}}