{"type":"Feature","properties":{"featurecla":"River","scalerank":6,"rivernum":338,"dissolve":"338River","name":"San10","name_alt":null,"note":null,"min_zoom":5.0,"strokeweig":0.2,"name_en":"San Juan","min_label":6.0},
"geometry":{"type": "LineString","coordinates": [[-69.429785156249991,-31.277862237505886,1418.3478],[-69.415087890624989,-31.26873137813088,1326.2396],[-69.396728515625,-31.26433684688088,1315.8975],[-69.308935546874991,-31.256182550005889,1364.5243],[-69.218188476562489,-31.27141692500588,1858.7365],[-69.197070312499989,-31.27141692500588,2002.766],[-69.17734375,-31.26702239375588,1633.7065],[-69.158007812499989,-31.260088800005889,1289.1534],[-69.138525390624991,-31.255694268755889,1335.9742],[-69.11865234375,-31.25823333125588,1242.1082],[-69.102783203125,-31.26580169063088,1614.2113],[-69.089282226562489,-31.275909112505886,1373.3237],[-69.0783203125,-31.28875090938088,1178.8641],[-69.070068359375,-31.30413176875588,1331.2734],[-69.068212890624991,-31.31096770625588,1482.8083],[-69.065771484374991,-31.326202081255886,1687.782],[-69.064013671874989,-31.331866143755889,1596.6443],[-69.057470703124991,-31.340166925005889,1839.2931],[-69.047949218749991,-31.347198175005886,1764.932],[-69.036669921874989,-31.35247161250588,1719.3137],[-69.025,-31.355010675005886,1247.8395],[-69.023193359375,-31.363116143755889,1561.6836],[-69.00830078125,-31.376299737505889,1117.7693],[-69.004321289062489,-31.381670831255889,1149.0007],[-68.999853515624991,-31.39983489375588,1176.8806],[-68.998632812499991,-31.420733331255889,1126.1533],[-69.000292968749989,-31.441436456255886,1108.3997],[-69.013769531249991,-31.48992278438088,1361.2657],[-69.012451171875,-31.50383880000588,1368.8794],[-69.001513671874989,-31.513702081255886,1085.506],[-68.987060546875,-31.516436456255889,1116.7681],[-68.96923828125,-31.51506926875588,974.5514],[-68.951757812499991,-31.51116301875588,1044.91],[-68.938330078124991,-31.505694268755889,1240.2693],[-68.931494140624991,-31.51238372188088,1278.4656],[-68.921337890625,-31.507354425005886,1047.0422],[-68.918261718749989,-31.508330987505886,1039.9252],[-68.910986328124991,-31.51238372188088,1117.2832],[-68.897021484374989,-31.506377862505886,989.0949],[-68.879980468749991,-31.50432708125588,1083.3495],[-68.863037109375,-31.506377862505886,1054.7429],[-68.848974609374991,-31.51238372188088,889.5311],[-68.828710937499991,-31.508623956255889,1105.7926],[-68.809497070312489,-31.516631768755886,849.661],[-68.790380859374991,-31.527862237505886,1007.0739],[-68.770458984375,-31.533526300005889,807.0765],[-68.749072265624989,-31.53118255000588,796.3178],[-68.727148437499991,-31.52483489375588,782.564],[-68.707128906249991,-31.515948175005889,771.546],[-68.691357421875,-31.505694268755889,768.8611],[-68.684375,-31.49675872188088,755.2668],[-68.681689453124989,-31.48894622188088,752.5],[-68.677001953125,-31.48259856563088,752.5],[-68.6640625,-31.478350518755889,752.5],[-68.654223632812489,-31.47966887813088,942.8641],[-68.632080078125,-31.489580987505889,835.6978],[-68.61962890625,-31.492022393755889,742.6808],[-68.597265624999991,-31.488311456255886,681.2429],[-68.565844726562489,-31.47087981563088,653.1916],[-68.54736328125,-31.46404387813088,639.5283],[-68.461962890624989,-31.457842706255889,607.4338],[-68.448486328125,-31.465362237505886,603.4049],[-68.417578124999991,-31.51238372188088,596.7509]]}}