{"type":"Feature","properties":{"featurecla":"River","scalerank":6,"rivernum":286,"dissolve":"286River","name":"Mendoza1","name_alt":null,"note":null,"min_zoom":5.0,"strokeweig":0.2,"name_en":"Mendoza","min_label":6.0},
"geometry":{"type": "LineString","coordinates": [[-69.69775390625,-31.87151458125588,2237.1672],[-69.628588867187489,-31.81170012813088,1949.5973],[-69.620043945312489,-31.80584075313088,1914.4535],[-69.594042968749989,-31.79241301875588,1804.7305],[-69.572607421874991,-31.774737237505889,1770.0126],[-69.552978515625,-31.75237395625588,1745.2717],[-69.521166992187489,-31.704131768755886,1698.4626],[-69.503344726562489,-31.662627862505886,1656.1125],[-69.487158203124991,-31.59417083125588,1621.5663],[-69.472265624999991,-31.570342706255886,1568.0963],[-69.425878906249991,-31.51409270625588,1502.6417],[-69.420214843749989,-31.500811456255889,1491.8037],[-69.419360351562489,-31.48650481563088,1478.1943],[-69.427050781249989,-31.44817473750588,1448.4827],[-69.425708007812489,-31.39055755000588,1393.9526],[-69.42822265625,-31.369659112505886,1379.4142],[-69.442431640624989,-31.330596612505886,1502.0198],[-69.444628906249989,-31.30974700313088,1433.4049],[-69.439990234374989,-31.29168059688088,1406.1215],[-69.429785156249991,-31.277862237505886,1418.3478]]}}