{"type": "Feature","bbox": [-70.5692,-32.6319,-66.7154,-28.3786],"geometry": {"type": "MultiPolygon","coordinates": [[[[-67.3739,-32.3463,491.5228],[-67.371,-32.3507,491.4631],[-67.3693,-32.359,491.2507],[-67.2872,-32.3594,491.0737],[-67.3242,-32.2963,492.6192],[-67.3568,-32.2636,494.8676],[-67.3579,-32.2111,498.9446],[-67.3651,-32.1862,501.4862],[-67.3667,-32.1608,502.5621],[-67.3681,-32.1557,503.4207],[-67.3738,-32.1468,504.5735],[-67.3808,-32.1221,505.6675],[-67.3771,-32.0967,507.6657],[-67.3763,-32.0763,507.8447],[-67.3717,-32.0551,510.7039],[-67.3562,-32.0023,515.2523],[-67.362,-31.9912,517.4844],[-67.3601,-31.9734,518.6496],[-67.3718,-31.9514,519.6066],[-67.3724,-31.9302,522.4583],[-67.3875,-31.8794,529.3828],[-67.3861,-31.8746,529.4756],[-67.3472,-31.8686,529.5947],[-67.3261,-31.8685,527.5886],[-67.2911,-31.8738,528.3527],[-67.2637,-31.8801,563.6974],[-67.2435,-31.8865,785.1878],[-67.2367,-31.8869,774.3505],[-67.1841,-31.8794,649.0249],[-67.1415,-31.8793,600.2596],[-67.113,-31.8824,570.896],[-67.1024,-31.8894,564.6846],[-67.101,-31.8925,565.7555],[-67.0941,-31.8982,564.663],[-67.0582,-31.8961,522.858],[-66.9803,-31.9003,465.5874],[-66.9306,-31.899,436.353],[-66.8916,-31.8958,417.7509],[-66.8797,-31.9012,412.6273],[-66.8727,-31.9017,410.2613],[-66.8157,-31.9006,377.8707],[-66.7663,-31.8963,367.937],[-66.7526,-31.8931,367.2061],[-66.7403,-31.887,367.0632],[-66.7154,-31.8871,366.0609],[-66.7337,-31.8711,367.0652],[-66.742,-31.8614,367.7151],[-66.7549,-31.8265,369.3471],[-66.7647,-31.8185,370.4371],[-66.7818,-31.8136,371.4611],[-66.8028,-31.8102,373.2062],[-66.8292,-31.8007,377.3026],[-66.8403,-31.7936,380.2394],[-66.8526,-31.7785,385.4465],[-66.8566,-31.767,387.2365],[-66.8581,-31.7487,379.9505],[-66.8581,-31.673,385.5466],[-66.8602,-31.6608,395.3488],[-66.8695,-31.6381,405.0458],[-66.9461,-31.6378,422.227],[-66.9832,-31.6053,411.3708],[-67.0252,-31.5827,398.2559],[-67.0388,-31.5731,398.274],[-67.0518,-31.5587,397.8193],[-67.0571,-31.5474,397.5164],[-67.0611,-31.5296,397.3223],[-67.0688,-31.4534,402.5854],[-67.0743,-31.4432,404.0249],[-67.0863,-31.428,405.3461],[-67.0923,-31.4042,408.3842],[-67.1001,-31.3875,416.3515],[-67.0623,-31.0858,495.248],[-67.1164,-31.0209,531.9758],[-67.0771,-30.9272,552.7673],[-67.0763,-30.8871,568.2808],[-67.0941,-30.8649,582.8823],[-67.1429,-30.7913,625.8629],[-67.1589,-30.7643,639.0303],[-67.1798,-30.7225,662.8489],[-67.1869,-30.7163,667.4638],[-67.2071,-30.704,680.9711],[-67.2357,-30.6817,697.0239],[-67.2761,-30.6321,733.5614],[-67.3055,-30.6063,753.0644],[-67.3282,-30.5756,784.3447],[-67.3399,-30.5644,793.9774],[-67.3621,-30.5497,829.9264],[-67.3927,-30.535,866.1534],[-67.4137,-30.5189,891.5601],[-67.4319,-30.5098,898.3887],[-67.4604,-30.4717,921.0574],[-67.4734,-30.4576,933.8815],[-67.4843,-30.4504,936.0261],[-67.5026,-30.441,951.4855],[-67.5074,-30.44,953.1484],[-67.5512,-30.4074,1000.715],[-67.5632,-30.3899,1034.0771],[-67.5779,-30.3734,1058.3323],[-67.5795,-30.3683,1055.0889],[-67.5792,-30.363,1055.0955],[-67.5736,-30.3539,1058.9456],[-67.5698,-30.3439,1054.4138],[-67.5695,-30.3388,1058.7098],[-67.5764,-30.3078,1096.3082],[-67.5792,-30.3037,1101.3184],[-67.5953,-30.2964,1116.7799],[-67.6211,-30.2644,1218.2817],[-67.6379,-30.2496,1187.4922],[-67.6565,-30.2364,1214.8396],[-67.6603,-30.2322,1225.052],[-67.6728,-30.2086,1262.9719],[-67.6909,-30.1877,1287.2424],[-67.7085,-30.1736,1303.7036],[-67.7524,-30.1462,1352.9956],[-67.7903,-30.1252,1374.8369],[-67.7987,-30.1176,1382.9834],[-67.8009,-30.1129,1387.7788],[-67.8024,-30.0971,1412.4263],[-67.806,-30.0935,1423.1278],[-67.8344,-30.0843,1431.7325],[-67.855,-30.0736,1456.7983],[-67.8719,-30.0685,1502.4235],[-67.895,-30.0518,1563.0347],[-67.9491,-30.0066,1674.735],[-67.9706,-29.9824,1751.6982],[-67.9828,-29.981,1801.1503],[-68.0044,-29.9711,1525.4561],[-68.0084,-29.9673,1475.3188],[-68.0249,-29.9387,1535.571],[-68.0317,-29.9298,1369.8521],[-68.066,-29.9075,1091.3899],[-68.0777,-29.9046,1092.1299],[-68.0826,-29.9013,1115.0664],[-68.0956,-29.8715,1393.1208],[-68.1033,-29.8457,1297.738],[-68.1081,-29.843,1287.1964],[-68.1143,-29.8428,1279.2355],[-68.1387,-29.8446,1279.9526],[-68.1684,-29.8505,1108.4696],[-68.1736,-29.8476,1092.1805],[-68.1851,-29.8289,1406.4362],[-68.1935,-29.8089,1193.4506],[-68.195,-29.8037,1430.1785],[-68.194,-29.7922,1522.4673],[-68.1957,-29.788,1417.2437],[-68.2041,-29.786,1595.4982],[-68.2293,-29.7849,1260.4373],[-68.2448,-29.7767,1384.3585],[-68.2555,-29.7637,1486.8484],[-68.2724,-29.7355,1189.0291],[-68.2839,-29.723,1059.1633],[-68.2892,-29.7206,1032.3774],[-68.3013,-29.7186,953.6033],[-68.3135,-29.7185,948.8752],[-68.3188,-29.716,951.162],[-68.3227,-29.7119,970.312],[-68.3312,-29.692,1125.2651],[-68.334,-29.6762,1257.8628],[-68.3692,-29.6652,1038.5603],[-68.4049,-29.6605,1001.0541],[-68.4389,-29.6536,939.8587],[-68.4667,-29.6429,962.2399],[-68.491,-29.6413,981.0293],[-68.5085,-29.6368,1001.8426],[-68.5326,-29.6385,1053.9364],[-68.5689,-29.6334,1160.8678],[-68.5749,-29.6336,1180.2483],[-68.5861,-29.6378,1222.7854],[-68.6022,-29.641,1279.0414],[-68.6142,-29.6403,1344.8154],[-68.6311,-29.6289,1517.2239],[-68.6729,-29.6068,1498.3131],[-68.6838,-29.6024,1522.1941],[-68.6929,-29.6011,1543.7932],[-68.705,-29.6015,1622.1335],[-68.7433,-29.6188,2252.7075],[-68.7489,-29.6197,2146.7173],[-68.769,-29.6132,2427.3787],[-68.7933,-29.6152,2864.771],[-68.8176,-29.6144,2650.5154],[-68.8297,-29.6164,2973.5005],[-68.8413,-29.614,2870.3496],[-68.8647,-29.6015,3103.3677],[-68.8753,-29.5939,3404.5073],[-68.8798,-29.5934,3639.0483],[-68.8887,-29.6078,3873.2798],[-68.8924,-29.6121,3642.2878],[-68.8974,-29.6144,3534.0703],[-68.9132,-29.6158,3212.6289],[-68.9307,-29.6109,3323.3752],[-68.9336,-29.6222,3911.5344],[-68.9399,-29.6316,3648.3352],[-68.9448,-29.6343,3511.8701],[-68.9509,-29.635,3562.0334],[-68.9571,-29.6347,3546.4736],[-68.9739,-29.6283,3561.2419],[-68.9859,-29.6263,3768.3496],[-69.001,-29.6174,3966.3508],[-69.0073,-29.6082,4189.7559],[-69.0162,-29.5884,4365.6362],[-69.0181,-29.5566,4426.8105],[-69.0291,-29.5318,4806.2646],[-69.031,-29.5212,4718.2407],[-69.0241,-29.5061,4450.4175],[-69.0089,-29.4834,4709.498],[-69.0001,-29.4761,4823.5542],[-68.9893,-29.4714,4615.4336],[-68.9749,-29.4542,4663.3315],[-68.9566,-29.443,4425.4487],[-68.9563,-29.4394,4340.1025],[-68.9773,-29.4189,4360.6172],[-68.9868,-29.4121,4085.7249],[-68.9932,-29.4031,4060.3118],[-68.9927,-29.3978,3979.4146],[-68.9869,-29.3827,3901.8037],[-68.9756,-29.3639,3948.8914],[-68.9746,-29.3587,4007.6763],[-68.9772,-29.3428,3884.5166],[-68.976,-29.3322,4046.9167],[-68.9731,-29.3277,3944.3113],[-68.9529,-29.3077,4089.1282],[-68.9521,-29.2917,4134.8984],[-68.956,-29.2818,4283.5059],[-68.9686,-29.2703,4082.8274],[-68.9723,-29.2493,3801.4019],[-68.9778,-29.234,4020.9075],[-68.9789,-29.2183,3851.5691],[-68.9809,-29.2132,3754.8796],[-68.9858,-29.2101,3804.2971],[-68.9887,-29.2051,3855.314],[-68.9718,-29.1953,3783.1641],[-68.9714,-29.19,3828.8167],[-68.9932,-29.1715,4270.4385],[-69.0088,-29.1645,4019.1938],[-69.0065,-29.1485,3852.5623],[-69.0043,-29.1433,3704.4824],[-69.0001,-29.1399,3960.2866],[-68.994,-29.139,4094.208],[-68.9902,-29.135,4197.5269],[-68.9814,-29.1209,4059.2778],[-68.9739,-29.1125,3975.5166],[-68.9685,-29.1119,4136.1313],[-68.9637,-29.1155,4402.2666],[-68.9573,-29.1243,4309.3843],[-68.952,-29.127,4249.5698],[-68.94,-29.1277,4213.2314],[-68.9346,-29.1253,4222.1152],[-68.9305,-29.1215,4251.8613],[-68.9259,-29.1116,4412.1377],[-68.9083,-29.09,4368.6729],[-68.9036,-29.0583,4386.6172],[-68.9055,-29.0478,4245.646],[-68.9176,-29.0295,4099.5566],[-68.9248,-29.0148,3925.8181],[-68.9317,-29.006,4091.2698],[-68.9456,-28.9963,3925.4612],[-68.9449,-28.9855,3884.7732],[-68.9466,-28.9804,3832.4995],[-68.9563,-28.9742,3903.8394],[-68.9666,-28.97,3749.4229],[-68.967,-28.9645,3790.5735],[-68.964,-28.9598,3809.4766],[-68.9529,-28.9553,3913.6597],[-68.95,-28.9499,3856.1538],[-68.9552,-28.9345,3882.4163],[-68.9511,-28.9248,3793.3513],[-68.9493,-28.9142,3686.8098],[-69.0932,-28.7868,3501.3123],[-69.1423,-28.7399,3488.6355],[-69.1556,-28.7045,3754.8535],[-69.1791,-28.6557,3671.4338],[-69.1842,-28.6404,3839.9043],[-69.1971,-28.6164,3851.0925],[-69.199,-28.6059,3680.5479],[-69.1979,-28.5899,3465.3721],[-69.3523,-28.4351,3880.1729],[-69.3827,-28.4455,3957.7854],[-69.3947,-28.446,4025.1611],[-69.4,-28.4484,3932.2524],[-69.4121,-28.4491,3944.4814],[-69.4353,-28.4437,3985.2307],[-69.4474,-28.4432,4004.5388],[-69.4513,-28.4396,4017.8179],[-69.4536,-28.4346,3998.4277],[-69.4586,-28.4322,4060.113],[-69.4663,-28.4239,4136.0933],[-69.475,-28.4101,4069.7595],[-69.4838,-28.4026,4087.3157],[-69.4892,-28.4008,4089.4492],[-69.5074,-28.401,4118.6494],[-69.5245,-28.4056,4503.3296],[-69.5303,-28.405,4483.1055],[-69.5652,-28.3968,4436.417],[-69.5928,-28.3841,5345.939],[-69.597,-28.3924,5332.5107],[-69.6096,-28.3941,5382.9863],[-69.6206,-28.3868,5574.5264],[-69.6241,-28.3786,5693.5156],[-69.6287,-28.3787,5691.835],[-69.6347,-28.3839,5678.0654],[-69.63,-28.394,5847.6235],[-69.6375,-28.3886,5782.9951],[-69.6397,-28.3927,5760.5015],[-69.6495,-28.3963,5581.5684],[-69.6479,-28.4051,5427.2241],[-69.6512,-28.4106,5451.4004],[-69.6563,-28.4132,5571.3521],[-69.6528,-28.418,5483.751],[-69.6491,-28.4169,5507.771],[-69.6428,-28.424,5408.666],[-69.6331,-28.43,5487.1699],[-69.6376,-28.4344,5443.1709],[-69.6393,-28.4426,5240.7769],[-69.6488,-28.4431,5382.2324],[-69.6532,-28.445,5527.0972],[-69.6585,-28.4443,5603.0713],[-69.6599,-28.447,5656.4517],[-69.665,-28.4498,5615.4009],[-69.6677,-28.456,5600.0264],[-69.6723,-28.4579,5486.1147],[-69.6741,-28.4702,5336.8042],[-69.6808,-28.4711,5424.1348],[-69.6749,-28.4773,5280.5708],[-69.6658,-28.4806,5344.7891],[-69.6661,-28.4976,5163.9668],[-69.6558,-28.5029,5397.1787],[-69.6651,-28.5112,5398.5225],[-69.6657,-28.5148,5361.4351],[-69.6628,-28.5179,5403.2822],[-69.6637,-28.5226,5280.2432],[-69.652,-28.5311,5162.875],[-69.6523,-28.5354,5284.2314],[-69.6503,-28.5386,5260.4712],[-69.6535,-28.5415,5242.4243],[-69.6599,-28.5402,5094.3022],[-69.6652,-28.5499,5112.6772],[-69.6644,-28.5549,5142.7354],[-69.6695,-28.5546,5137.6396],[-69.6657,-28.5611,5026.3882],[-69.6704,-28.5646,4993.1719],[-69.6701,-28.5737,4920.9688],[-69.6666,-28.5788,4911.1143],[-69.6614,-28.5829,4921.2983],[-69.6687,-28.5848,4961.8867],[-69.6689,-28.5897,4951.5752],[-69.6765,-28.5915,5114.7354],[-69.6826,-28.5872,5052.3887],[-69.6939,-28.5949,5013.8423],[-69.6954,-28.5998,5024.4644],[-69.6875,-28.6035,5105.7329],[-69.6884,-28.6053,5084.71],[-69.6949,-28.6078,4925.4219],[-69.7036,-28.6208,4758.4604],[-69.6986,-28.6261,4868.561],[-69.699,-28.6304,4902.1875],[-69.704,-28.6335,4876.6543],[-69.7015,-28.6371,4832.042],[-69.7016,-28.6402,4812.5762],[-69.7072,-28.6446,4869.5327],[-69.7104,-28.6506,4893.0513],[-69.72,-28.6605,4910.9307],[-69.7266,-28.6703,4864.1519],[-69.7273,-28.6763,4931.0303],[-69.7306,-28.6792,4954.6445],[-69.7316,-28.6856,5089.6909],[-69.7276,-28.6922,5100.582],[-69.7325,-28.7024,5068.1836],[-69.7308,-28.7066,5019.147],[-69.7246,-28.7083,5004.981],[-69.7308,-28.7225,5196.7695],[-69.7273,-28.7237,5250.0801],[-69.724,-28.729,5190.8359],[-69.7298,-28.7377,5052.9297],[-69.7206,-28.7416,4791.7129],[-69.7187,-28.7446,4728.209],[-69.7157,-28.7441,4725.6782],[-69.7009,-28.7515,4673.9756],[-69.6966,-28.7599,4593.8174],[-69.6971,-28.7636,4576.0845],[-69.6932,-28.7721,4830.5215],[-69.6989,-28.7802,4596.9487],[-69.7026,-28.7786,4563.2456],[-69.7063,-28.7805,4586.6348],[-69.709,-28.7894,4598.8203],[-69.7087,-28.7968,4759.2749],[-69.7069,-28.7982,4730.8843],[-69.7055,-28.8052,4775.5557],[-69.7086,-28.8074,4807.0352],[-69.7089,-28.815,4659.1377],[-69.7115,-28.817,4500.3066],[-69.7156,-28.8265,4574.6367],[-69.7221,-28.8317,4641.2847],[-69.7229,-28.8414,4656.333],[-69.7265,-28.8441,4747.3354],[-69.7274,-28.847,4777.3857],[-69.732,-28.8461,4584.2471],[-69.733,-28.8483,4562.333],[-69.7362,-28.847,4546.5176],[-69.7453,-28.8498,4667.376],[-69.7417,-28.8587,4714.5625],[-69.7412,-28.8654,4717.4819],[-69.7435,-28.8677,4715.5674],[-69.7499,-28.8685,4682.7007],[-69.7507,-28.8699,4641.1733],[-69.7473,-28.8758,4627.9521],[-69.7462,-28.8819,4801.6377],[-69.7495,-28.8838,4806.7925],[-69.7502,-28.8869,4781.4419],[-69.754,-28.8868,4811.8057],[-69.7591,-28.8894,4940.3643],[-69.7661,-28.8995,5081.771],[-69.7654,-28.9027,5086.0518],[-69.7619,-28.9048,5076.7939],[-69.7676,-28.9103,5238.9355],[-69.7668,-28.9252,5334.9043],[-69.7587,-28.9308,5141.1289],[-69.7539,-28.9369,5308.8467],[-69.7557,-28.9477,5320.9526],[-69.7538,-28.9581,5750.083],[-69.7628,-28.9654,5631.5728],[-69.7617,-28.9695,5601.353],[-69.7629,-28.9742,5408.4858],[-69.7546,-28.9821,5269.5054],[-69.7545,-28.9842,5340.375],[-69.7683,-28.99,5313.791],[-69.7708,-28.9983,5359.9917],[-69.7774,-29.0055,5332.7588],[-69.7775,-29.0136,5278.2769],[-69.7851,-29.0152,5366.0684],[-69.7812,-29.0191,5365.6255],[-69.7858,-29.0267,5455.1323],[-69.7876,-29.0271,5451.3857],[-69.7876,-29.033,5536.3584],[-69.7859,-29.0366,5560.9839],[-69.7897,-29.0393,5539.4287],[-69.7879,-29.043,5576.8848],[-69.7898,-29.0477,5607.4639],[-69.7938,-29.05,5494.251],[-69.7924,-29.054,5571.6377],[-69.7947,-29.0574,5632.4141],[-69.7907,-29.0645,5772.0205],[-69.7945,-29.069,5724.9863],[-69.7932,-29.0789,5712.606],[-69.7965,-29.0816,5890.2397],[-69.7914,-29.0868,5800.8091],[-69.7856,-29.0998,5956.9956],[-69.7868,-29.106,5933.8101],[-69.7914,-29.1118,5979.8027],[-69.7885,-29.1195,6013.0488],[-69.7872,-29.1298,6124.0205],[-69.7892,-29.1332,6018.8813],[-69.7925,-29.1348,5718.3745],[-69.8389,-29.1291,4627.8979],[-69.8457,-29.1341,4564.21],[-69.8583,-29.1333,4379.1719],[-69.8639,-29.1355,4383.7891],[-69.8679,-29.1392,4393.2695],[-69.8759,-29.1388,4462.8604],[-69.8836,-29.144,4469.0156],[-69.8892,-29.152,4485.1289],[-69.8893,-29.1556,4548.4473],[-69.894,-29.1582,4347.0952],[-69.9015,-29.1596,4450.5073],[-69.9051,-29.1696,4675.6182],[-69.9215,-29.1816,4894.3491],[-69.9238,-29.1862,5135.9307],[-69.9316,-29.1885,5295.5884],[-69.943,-29.1886,5327.3574],[-69.944,-29.1869,5363.9307],[-69.9527,-29.1888,5466.6064],[-69.9443,-29.2045,5025.2598],[-69.9512,-29.2119,4585.2891],[-69.952,-29.2167,4685.3516],[-69.9461,-29.23,4541.9258],[-69.9401,-29.2314,4542.7012],[-69.9387,-29.2427,4667.5645],[-69.9364,-29.245,4809.1152],[-69.9372,-29.2481,4687.2393],[-69.951,-29.2661,4555.0586],[-69.9658,-29.2708,4833.5366],[-69.9709,-29.274,4925.0864],[-69.9831,-29.2753,5248.7959],[-69.995,-29.283,5413.1338],[-70.0008,-29.2932,5587.269],[-69.9998,-29.2978,5448.583],[-69.9962,-29.3015,5277.1465],[-69.9968,-29.305,5163.4551],[-70.0026,-29.3091,5051.0649],[-70.0063,-29.3096,5014.6826],[-70.0061,-29.3128,4991.876],[-70.0105,-29.3145,4947.1631],[-70.0125,-29.3191,4973.4214],[-70.016,-29.3191,4986.3931],[-70.0189,-29.3211,5083.665],[-70.0209,-29.3287,5226.4883],[-70.021,-29.3304,5244.4141],[-70.0191,-29.3307,5240.3496],[-70.0136,-29.3372,5265.8477],[-70.0121,-29.3412,5336.6753],[-70.0179,-29.3424,5379.4395],[-70.0101,-29.353,5239.7671],[-70.0113,-29.3548,5243.8057],[-70.0179,-29.3544,5116.4175],[-70.0217,-29.3586,5122.2988],[-70.0173,-29.3616,5075.25],[-70.0164,-29.3663,5077.3447],[-70.0118,-29.3696,5066.4175],[-70.0188,-29.3782,5296.5845],[-70.0212,-29.3844,5329.519],[-70.0149,-29.3882,5382.3496],[-70.015,-29.3912,5355.4512],[-70.0106,-29.3943,5106.9023],[-69.9973,-29.3969,4873.6421],[-69.9906,-29.4007,4672.1504],[-69.981,-29.4014,4560.1343],[-69.9774,-29.4034,4572.4771],[-69.9738,-29.4086,4526.8442],[-69.9708,-29.4087,4571.0791],[-69.9671,-29.4124,4572.7847],[-69.9692,-29.4232,4513.5815],[-69.967,-29.427,4498.4111],[-69.9735,-29.4331,4560.2891],[-69.972,-29.4381,4491.5615],[-69.9728,-29.4409,4502.9893],[-69.9814,-29.4516,4938.4673],[-69.9784,-29.4538,4858.106],[-69.9731,-29.4547,4777.9966],[-69.9687,-29.4605,4744.7324],[-69.9549,-29.4634,4677.752],[-69.9549,-29.4661,4774.689],[-69.9587,-29.4687,4749.1372],[-69.9574,-29.4766,4787.3843],[-69.9509,-29.481,4798.0615],[-69.9466,-29.488,4853.9956],[-69.9525,-29.5023,4889.0483],[-69.9465,-29.5121,4792.3418],[-69.9475,-29.5156,4763.7202],[-69.9463,-29.5193,4749.2632],[-69.9486,-29.5273,4776.3691],[-69.9541,-29.5302,4934.5913],[-69.9542,-29.5334,4950.5703],[-69.9565,-29.5346,4916.7251],[-69.9475,-29.5449,4702.9863],[-69.9462,-29.5541,4713.5332],[-69.9429,-29.5554,4675.8203],[-69.9393,-29.559,4727.7168],[-69.9391,-29.5616,4763.4385],[-69.9357,-29.564,4727.9839],[-69.9331,-29.5747,4807.5664],[-69.9342,-29.5809,4787.6855],[-69.9319,-29.584,4739.7222],[-69.9339,-29.5857,4717.5576],[-69.933,-29.5881,4717.6792],[-69.935,-29.5952,4708.3833],[-69.9338,-29.5991,4677.0859],[-69.9412,-29.6113,4492.9224],[-69.9383,-29.6171,4535.3477],[-69.9378,-29.6226,4700.7417],[-69.9414,-29.6455,4800.228],[-69.9398,-29.6546,4753.6714],[-69.9358,-29.6586,4787.3018],[-69.9331,-29.6658,4697.4238],[-69.9296,-29.666,4692.4175],[-69.9237,-29.6699,4892.3486],[-69.9232,-29.676,4899.2876],[-69.9208,-29.6805,4894.6353],[-69.9217,-29.685,4823.459],[-69.9122,-29.6909,4656.1133],[-69.9099,-29.6989,4495.4941],[-69.9022,-29.6968,4502.6406],[-69.8974,-29.6931,4528.0791],[-69.8935,-29.694,4492.2715],[-69.891,-29.6994,4538.0391],[-69.8824,-29.7089,4904.1914],[-69.8862,-29.7134,4827.4663],[-69.8862,-29.7183,5018.6494],[-69.8877,-29.7209,5019.1543],[-69.8775,-29.7265,4863.5474],[-69.8797,-29.7279,4879.5078],[-69.8797,-29.7337,5011.8174],[-69.8861,-29.7374,5013.3022],[-69.8912,-29.748,5036.8447],[-69.8975,-29.753,4833.1069],[-69.8965,-29.7569,4777.0347],[-69.8938,-29.7597,4730.6528],[-69.8932,-29.7671,4756.7852],[-69.8982,-29.7727,4768.8838],[-69.907,-29.7885,4804.7485],[-69.9117,-29.7914,4815.8677],[-69.9114,-29.7959,4771.0527],[-69.9137,-29.8002,4762.4282],[-69.9131,-29.8073,4812.5059],[-69.8998,-29.8108,4847.8711],[-69.9,-29.8148,4778.7305],[-69.8901,-29.822,4736.8584],[-69.8966,-29.8244,4770.9487],[-69.8982,-29.8296,4743.2583],[-69.8964,-29.8333,4803.9111],[-69.9002,-29.8394,4780.6973],[-69.9001,-29.844,4779.7261],[-69.8941,-29.853,5041.1011],[-69.8868,-29.8533,5078.9614],[-69.8832,-29.8585,4849.6675],[-69.8767,-29.8624,4786.9707],[-69.8847,-29.8721,5036.6279],[-69.8965,-29.8787,5335.5811],[-69.8921,-29.8843,5222.8975],[-69.8881,-29.886,5108.6255],[-69.8898,-29.8906,5006.9136],[-69.8955,-29.8952,5012.1099],[-69.8906,-29.8985,4882.2559],[-69.8883,-29.9045,4892.665],[-69.9043,-29.9184,5165.8101],[-69.9047,-29.9224,5254.7202],[-69.9087,-29.9284,5478.5669],[-69.909,-29.9344,5794.9668],[-69.9066,-29.9393,6099.1177],[-69.9033,-29.9371,5938.2451],[-69.8962,-29.9363,5996.9175],[-69.8962,-29.9446,5948.0527],[-69.9005,-29.9522,5756.5356],[-69.8989,-29.959,5496.4307],[-69.9081,-29.9698,5436.7002],[-69.9088,-29.9773,5205.9199],[-69.9135,-29.9791,5147.6938],[-69.9207,-29.9859,4926.0293],[-69.923,-29.996,4830.7969],[-69.9268,-30.0029,4832.5757],[-69.9242,-30.0115,4997.9673],[-69.9204,-30.0151,5131.1929],[-69.9141,-30.0255,5056.9868],[-69.9204,-30.0297,4960.75],[-69.9234,-30.0381,5088.8062],[-69.9326,-30.0453,5161.2817],[-69.9345,-30.0518,5406.3804],[-69.9419,-30.053,5159.0957],[-69.9438,-30.058,5101.9219],[-69.9536,-30.0669,4932.2158],[-69.9619,-30.0684,5085.2324],[-69.9633,-30.073,5153.7441],[-69.9589,-30.0748,5081.4839],[-69.958,-30.0777,5054.627],[-69.9601,-30.083,5141.2749],[-69.9655,-30.0857,5267.3232],[-69.9638,-30.0883,5248.3594],[-69.9606,-30.0877,5213.4209],[-69.9597,-30.0903,5156.8467],[-69.9553,-30.0925,5177.2383],[-69.9445,-30.0933,5083.1719],[-69.9419,-30.1057,5074.6797],[-69.9451,-30.1124,5207.6191],[-69.9427,-30.1169,5243.3989],[-69.937,-30.1202,5431.0684],[-69.9297,-30.1198,5491.0649],[-69.9231,-30.1162,5274.9717],[-69.918,-30.111,5540.9805],[-69.9112,-30.1106,5544.4062],[-69.9099,-30.1083,5523.5234],[-69.9052,-30.106,5524.2588],[-69.8918,-30.1096,5209.9629],[-69.8827,-30.1092,5070.4072],[-69.8716,-30.1117,5175.1108],[-69.8576,-30.1238,5020.2764],[-69.8531,-30.1237,4996.7402],[-69.8476,-30.13,5085.5117],[-69.8398,-30.1293,4951.8726],[-69.8318,-30.1253,4933.2383],[-69.8182,-30.1274,5015.4595],[-69.818,-30.1347,5074.0967],[-69.8146,-30.137,5172.7207],[-69.8091,-30.146,5234.1758],[-69.8118,-30.1505,5251.835],[-69.8091,-30.1536,5286.0063],[-69.82,-30.1571,5208.9238],[-69.821,-30.1607,5186.9004],[-69.8291,-30.1623,5103.8867],[-69.8218,-30.1712,5004.2739],[-69.8237,-30.174,4962.0596],[-69.8175,-30.1787,4947.647],[-69.8231,-30.1839,4921.3662],[-69.8193,-30.1869,4996.896],[-69.8207,-30.1894,4866.8623],[-69.8263,-30.1927,4761.7642],[-69.8325,-30.2092,5317.3271],[-69.8325,-30.2138,5528.292],[-69.8356,-30.2192,5702.6665],[-69.8414,-30.2199,5714.9854],[-69.8531,-30.2178,5747.3315],[-69.8673,-30.2115,5741.9434],[-69.876,-30.213,5213.4897],[-69.8854,-30.2185,5353.5244],[-69.8876,-30.225,5247.2427],[-69.8845,-30.236,5176.1587],[-69.8878,-30.2382,5265.9663],[-69.8853,-30.2434,5485.7686],[-69.8872,-30.2472,5564.7764],[-69.8792,-30.2578,5818.8228],[-69.8844,-30.2678,5970.5396],[-69.8837,-30.2724,5989.8374],[-69.8893,-30.2743,6068.6846],[-69.8921,-30.2721,6068.2095],[-69.8955,-30.2725,6069.7915],[-69.8956,-30.2769,5993.0786],[-69.8982,-30.2813,5999.5098],[-69.8955,-30.2838,5990.2266],[-69.8944,-30.2881,6019.4385],[-69.8979,-30.2933,6051.8154],[-69.9028,-30.2956,6170.5669],[-69.8993,-30.3001,6146.8638],[-69.9014,-30.3057,5881.8262],[-69.9007,-30.3076,5828.8647],[-69.9058,-30.3098,5852.6631],[-69.9077,-30.3163,5735.0542],[-69.9074,-30.3214,5891.2598],[-69.904,-30.3266,5745.251],[-69.9056,-30.3298,5616.0752],[-69.905,-30.3403,5160.3271],[-69.9012,-30.3444,5075.1958],[-69.893,-30.3485,5174.4517],[-69.8919,-30.3509,5204.3066],[-69.898,-30.3552,4952.9814],[-69.9176,-30.3505,4607.5996],[-69.9242,-30.3527,4431.9009],[-69.9351,-30.359,4494.3955],[-69.9457,-30.3779,4823.209],[-69.9551,-30.3857,4981.894],[-69.96,-30.3832,4839.7437],[-69.9693,-30.3848,4965.4961],[-69.985,-30.3793,4845.0889],[-69.9945,-30.3789,4861.1108],[-70.0032,-30.3857,4901.1562],[-70.004,-30.389,4767.9238],[-70.0136,-30.3918,4771.811],[-70.0201,-30.3968,4972.5127],[-70.0245,-30.3965,4867.5459],[-70.0304,-30.3924,4793.917],[-70.0501,-30.3889,5121.2388],[-70.0633,-30.3946,4818.3618],[-70.0727,-30.3882,4422.2173],[-70.0762,-30.3818,4254.8486],[-70.0807,-30.3802,4371.8154],[-70.0815,-30.3772,4447.0068],[-70.0792,-30.3745,4483.0283],[-70.0907,-30.3737,4581.9199],[-70.1024,-30.3679,4952.083],[-70.1039,-30.3548,4896.6157],[-70.1066,-30.352,4715.6846],[-70.1302,-30.3427,4844.5669],[-70.1395,-30.3407,4918.4951],[-70.1473,-30.341,5242.0708],[-70.1543,-30.3465,5026.2861],[-70.1527,-30.3532,4893.0269],[-70.1554,-30.3622,4716.5156],[-70.1531,-30.3662,4728.3022],[-70.1439,-30.3725,4698.6035],[-70.1411,-30.3851,4536.48],[-70.136,-30.3905,4681.416],[-70.1359,-30.3936,4556.8862],[-70.1327,-30.3991,4513.5679],[-70.1335,-30.4035,4602.2578],[-70.125,-30.4081,4950.814],[-70.1216,-30.4206,4754.9531],[-70.1176,-30.4261,4888.8232],[-70.1172,-30.4318,4971.2153],[-70.1242,-30.4371,4742.5098],[-70.1257,-30.4442,4789.0171],[-70.1299,-30.4484,4973.4194],[-70.1322,-30.4555,4971.894],[-70.136,-30.4595,5002.1387],[-70.1503,-30.4642,4900.2139],[-70.1952,-30.4924,4805.4653],[-70.181,-30.513,4562.1484],[-70.1832,-30.5193,4601.4043],[-70.1923,-30.5273,4580.041],[-70.19,-30.5338,4761.6719],[-70.1971,-30.537,4717.1655],[-70.1909,-30.5492,4708.582],[-70.2078,-30.5587,4331.9028],[-70.2088,-30.5617,4422.749],[-70.2064,-30.5704,4226.3398],[-70.2208,-30.5812,4276.458],[-70.2218,-30.5941,4286.772],[-70.2204,-30.5949,4338.208],[-70.2218,-30.5985,4262.9453],[-70.2263,-30.6027,4460.3154],[-70.2266,-30.6065,4523.0786],[-70.2381,-30.6125,4321.5293],[-70.2399,-30.6154,4413.2051],[-70.2393,-30.6245,4384.583],[-70.2467,-30.6335,4394.4424],[-70.2471,-30.6449,4690.9014],[-70.2503,-30.6465,4662.5015],[-70.2511,-30.6497,4574.251],[-70.2501,-30.6614,4503.854],[-70.2468,-30.6639,4404.2451],[-70.2404,-30.6649,4276.0898],[-70.2393,-30.6686,4429.1748],[-70.2436,-30.6744,4487.166],[-70.2523,-30.6758,4541.3945],[-70.2552,-30.6917,4657.7266],[-70.259,-30.7008,4447.0732],[-70.2562,-30.707,4303.438],[-70.256,-30.7143,4495.23],[-70.2456,-30.7285,4815.1421],[-70.2616,-30.7373,4269.4072],[-70.2647,-30.7428,4235.7241],[-70.2694,-30.746,4266.2876],[-70.2732,-30.755,4016.9326],[-70.2738,-30.7637,4200.9907],[-70.2719,-30.7672,4157.1499],[-70.2727,-30.781,4096.0488],[-70.2782,-30.7849,4196.7627],[-70.2838,-30.7832,4313.3232],[-70.2883,-30.7882,4144.2393],[-70.2911,-30.7996,4217.3887],[-70.2832,-30.8035,4052.0889],[-70.2773,-30.8117,4255.1509],[-70.2813,-30.8181,4162.5303],[-70.2786,-30.823,4168.4932],[-70.2798,-30.8312,4078.501],[-70.2841,-30.8377,4100.1421],[-70.2842,-30.8405,4204.1416],[-70.2872,-30.8426,4187.2803],[-70.2933,-30.8434,4175.0347],[-70.2952,-30.8461,4098.0098],[-70.2959,-30.8573,4246.501],[-70.300299999999993,-30.8609,4109.8613],[-70.3001,-30.8662,4209.1138],[-70.3048,-30.8771,4176.8188],[-70.3039,-30.8829,4076.4807],[-70.3074,-30.888,3893.3472],[-70.3071,-30.8984,4003.739],[-70.3087,-30.9019,4069.0205],[-70.3131,-30.9053,4134.707],[-70.3134,-30.9095,4056.896],[-70.3168,-30.9145,3940.0474],[-70.316,-30.9208,3974.4199],[-70.3216,-30.925,3981.2036],[-70.3231,-30.9297,3948.3086],[-70.3224,-30.9336,4039.832],[-70.3156,-30.9404,3993.3184],[-70.3146,-30.9545,3972.4185],[-70.309,-30.959,3884.9917],[-70.2984,-30.962,3896.2981],[-70.293,-30.9706,3862.2036],[-70.2945,-30.979,3839.7715],[-70.3031,-30.9955,3769.7495],[-70.2982,-30.9965,3701.9434],[-70.297,-31.0045,3691.488],[-70.294,-31.0088,3792.3286],[-70.2977,-31.0209,3895.3174],[-70.2896,-31.0239,3831.4829],[-70.2839,-31.0199,3936.1309],[-70.2772,-31.0211,4073.1504],[-70.2712,-31.0295,4124.6865],[-70.2695,-31.0438,4201.998],[-70.2742,-31.0451,4145.7227],[-70.2754,-31.049,4176.6206],[-70.2846,-31.0437,4083.0703],[-70.2917,-31.0466,3728.4541],[-70.298,-31.0468,3628.0789],[-70.3062,-31.0443,3695.4292],[-70.3218,-31.0432,3923.1802],[-70.325,-31.049,3866.0959],[-70.3252,-31.0527,3874.7473],[-70.3275,-31.0547,3893.0991],[-70.329,-31.0599,3956.2764],[-70.3283,-31.0629,4002.2534],[-70.3409,-31.0689,3958.2205],[-70.3416,-31.0765,4058.2197],[-70.3492,-31.0836,4004.7966],[-70.3516,-31.0893,4028.6926],[-70.357,-31.0926,4005.3721],[-70.359,-31.0987,4040.4827],[-70.3628,-31.1012,3968.3362],[-70.3682,-31.1102,3984.3818],[-70.3685,-31.1155,3999.4106],[-70.3641,-31.1182,3913.2456],[-70.3623,-31.1222,4005.0518],[-70.3652,-31.1313,4052.0369],[-70.3604,-31.1338,4026.2209],[-70.3608,-31.1352,3963.1843],[-70.3634,-31.137,3969.7083],[-70.3639,-31.1397,4027.8625],[-70.3716,-31.146,3934.3513],[-70.3757,-31.1527,4076.3691],[-70.3888,-31.155,3574.1147],[-70.3999,-31.1678,3262.418],[-70.4057,-31.1672,3209.2061],[-70.4138,-31.1569,3249.3538],[-70.4109,-31.1493,3273.5425],[-70.4139,-31.1376,3298.3403],[-70.4161,-31.1334,3336.019],[-70.4239,-31.1268,3305.2856],[-70.4282,-31.119,3327.1746],[-70.4324,-31.1016,3563.804],[-70.438,-31.095,3582.3445],[-70.4462,-31.091,3632.5688],[-70.4519,-31.086,3519.0579],[-70.4566,-31.0845,3590.6982],[-70.4587,-31.0868,3545.054],[-70.4644,-31.1032,3514.4973],[-70.475,-31.1148,3390.3416],[-70.487,-31.1162,3509.738],[-70.4966,-31.1221,3688.1572],[-70.4977,-31.1251,3660.7725],[-70.4943,-31.1326,3659.585],[-70.4955,-31.1369,3613.5205],[-70.5006,-31.143,3683.5623],[-70.506,-31.1447,3765.6521],[-70.5094,-31.1487,3780.7568],[-70.5092,-31.155,3640.2109],[-70.5118,-31.1604,3691.6777],[-70.5161,-31.1641,3646.3386],[-70.5153,-31.1732,3649.8486],[-70.5206,-31.1792,3586.0271],[-70.5242,-31.1889,3667.0645],[-70.5235,-31.1902,3618.498],[-70.5183,-31.1904,3557.7144],[-70.5135,-31.1966,3761.1707],[-70.5169,-31.2022,3753.8469],[-70.5165,-31.2063,3695.606],[-70.5202,-31.2169,3705.3345],[-70.5171,-31.2232,3683.1758],[-70.5179,-31.2275,3706.1714],[-70.5153,-31.2319,3748.5144],[-70.5244,-31.2374,3729.6621],[-70.5256,-31.2403,3702.6255],[-70.5318,-31.245,3760.1826],[-70.5309,-31.2479,3791.7888],[-70.525,-31.252,3729.6072],[-70.5246,-31.257,3648.2441],[-70.5268,-31.2621,3668.7559],[-70.5256,-31.2657,3701.7993],[-70.53,-31.2747,3734.6189],[-70.5265,-31.2786,3683.8267],[-70.5304,-31.2825,3657.0291],[-70.5305,-31.2885,3759.8291],[-70.5354,-31.2894,3708.5549],[-70.539,-31.2974,3614.9163],[-70.5388,-31.3008,3679.99],[-70.5434,-31.3043,3641.4434],[-70.547,-31.3143,3683.7859],[-70.5433,-31.3209,3693.7266],[-70.5435,-31.3329,3832.6831],[-70.5399,-31.3376,3982.3616],[-70.5423,-31.3415,3882.676],[-70.542,-31.3448,3826.7246],[-70.5326,-31.351,3974.0947],[-70.5324,-31.362,3857.8691],[-70.527,-31.365,3930.02],[-70.5305,-31.3762,4057.8523],[-70.5359,-31.3846,4171.6479],[-70.5394,-31.3867,4198.4663],[-70.5367,-31.3989,4011.269],[-70.5328,-31.4044,4011.562],[-70.5331,-31.4087,4122.1738],[-70.5499,-31.4083,4157.6963],[-70.5547,-31.4116,4117.1001],[-70.5557,-31.4155,4006.1177],[-70.5599,-31.4203,4070.9194],[-70.5565,-31.4275,4126.6377],[-70.5509,-31.4293,4104.4146],[-70.5501,-31.4333,4020.2661],[-70.5478,-31.4355,4088.4951],[-70.5521,-31.4417,3888.2366],[-70.5485,-31.447,3829.2202],[-70.5486,-31.4492,3832.9673],[-70.5516,-31.4548,3979.1255],[-70.5602,-31.4579,3948.5244],[-70.5692,-31.4728,3877.3232],[-70.5686,-31.4778,3970.7825],[-70.5621,-31.4818,3990.0542],[-70.5648,-31.4878,3843.8042],[-70.567,-31.5014,3726.9902],[-70.5589,-31.5085,3807.2612],[-70.5519,-31.5115,3756.1284],[-70.5579,-31.5199,3772.6379],[-70.5561,-31.5317,3811.7122],[-70.5597,-31.5421,3801.4341],[-70.5585,-31.5497,3804.8687],[-70.5626,-31.5618,3886.71],[-70.5584,-31.5705,4047.6018],[-70.5581,-31.5749,4084.1653],[-70.5666,-31.5833,4231.8071],[-70.5653,-31.5912,4216.8237],[-70.561,-31.5951,4130.6533],[-70.5665,-31.6006,4162.6362],[-70.557,-31.6054,4024.8784],[-70.5474,-31.6063,4167.8389],[-70.5444,-31.6109,4043.6582],[-70.5443,-31.6145,4065.8262],[-70.5403,-31.6234,4007.3364],[-70.5358,-31.6297,4006.7356],[-70.5317,-31.6322,3984.0193],[-70.5313,-31.6383,4039.7007],[-70.5233,-31.6439,3781.175],[-70.5066,-31.6521,4233.6069],[-70.5035,-31.6608,4281.9814],[-70.5094,-31.6635,4012.7998],[-70.512,-31.6738,3955.6472],[-70.5117,-31.6844,3992.4941],[-70.5133,-31.69,4254.6934],[-70.5038,-31.692,3882.1611],[-70.4998,-31.6947,3877.4324],[-70.4875,-31.6894,3671.2114],[-70.4829,-31.6924,3587.4456],[-70.4791,-31.6926,3596.3154],[-70.4786,-31.6943,3598.46],[-70.475,-31.6936,3609.8701],[-70.4667,-31.7012,3970.6191],[-70.4683,-31.7081,4257.7695],[-70.4654,-31.713,4412.686],[-70.4632,-31.7137,4390.5376],[-70.4655,-31.7191,4034.7053],[-70.4622,-31.7279,4172.7012],[-70.4572,-31.7335,4489.5791],[-70.4593,-31.7351,4402.3691],[-70.4615,-31.7446,4360.3037],[-70.4679,-31.7494,4234.8511],[-70.4685,-31.7554,4311.7334],[-70.472,-31.7591,4345.293],[-70.4673,-31.7611,4362.228],[-70.4685,-31.7649,4141.166],[-70.4677,-31.7712,4288.855],[-70.4627,-31.7797,4349.4639],[-70.4643,-31.7839,4398.2842],[-70.4624,-31.7882,4285.8804],[-70.4629,-31.7907,4365.9043],[-70.4562,-31.7962,4549.104],[-70.4581,-31.8028,4408.2603],[-70.4606,-31.8053,4395.0181],[-70.4506,-31.81,4415.4712],[-70.4546,-31.8147,4146.1289],[-70.4541,-31.8171,4076.8545],[-70.459,-31.8292,4218.667],[-70.4583,-31.8339,4255.2158],[-70.4606,-31.8437,4226.3662],[-70.4562,-31.8453,4168.9141],[-70.4545,-31.8492,4208.3853],[-70.4502,-31.8494,4136.7578],[-70.4443,-31.8523,4139.0444],[-70.4387,-31.8505,4044.0757],[-70.4304,-31.8548,3893.2866],[-70.4276,-31.8546,3912.9082],[-70.4223,-31.8604,4124.1006],[-70.4131,-31.8663,4125.5156],[-70.4084,-31.8668,3978.106],[-70.4033,-31.8743,4229.4712],[-70.3919,-31.8795,4438.9756],[-70.3791,-31.8798,4207.4688],[-70.3748,-31.886,4155.0679],[-70.3693,-31.882,3976.1069],[-70.3617,-31.8812,4051.2454],[-70.3563,-31.8844,4115.0049],[-70.3538,-31.888,4299.4819],[-70.3481,-31.8907,4572.6699],[-70.3439,-31.8867,4549.2471],[-70.3135,-31.8809,4996.7061],[-70.3081,-31.8829,4981.3525],[-70.3068,-31.8848,4762.8325],[-70.2934,-31.8846,4440.0664],[-70.2869,-31.8826,4595.9458],[-70.28,-31.8839,4862.3809],[-70.2731,-31.89,4691.5166],[-70.2684,-31.8986,4605.9624],[-70.2693,-31.903199999999998,4621.7827],[-70.2659,-31.906,4674.1035],[-70.2639,-31.9111,4786.8862],[-70.2545,-31.9151,4479.4658],[-70.2405,-31.9179,4094.1448],[-70.2396,-31.9225,4122.3359],[-70.2318,-31.9261,4368.8711],[-70.2318,-31.929,4388.1904],[-70.2287,-31.9329,4418.5972],[-70.2275,-31.9404,4720.3037],[-70.2252,-31.9417,4856.1685],[-70.223,-31.9467,4944.2632],[-70.2142,-31.9516,4740.8838],[-70.2094,-31.9596,4811.7466],[-70.211,-31.9682,4665.9082],[-70.2082,-31.978,4861.981],[-70.2178,-31.982,4446.9897],[-70.2278,-31.9802,4157.4014],[-70.2351,-31.9896,4072.4526],[-70.2397,-31.9915,3949.1245],[-70.244,-31.9908,3901.7544],[-70.2503,-31.9923,3958.7795],[-70.2472,-32.0034,3994.7283],[-70.2497,-32.0093,4007.9336],[-70.25,-32.0197,4193.3584],[-70.2483,-32.0236,4345.1377],[-70.2567,-32.0254,4301.1665],[-70.2596,-32.0275,4445.2217],[-70.262,-32.0329,4237.2139],[-70.2608,-32.0343,4197.124],[-70.2632,-32.0379,4230.5049],[-70.2714,-32.0344,4179.3076],[-70.2835,-32.0381,3870.79],[-70.2843,-32.0443,3772.5659],[-70.2882,-32.0512,3589.0073],[-70.2963,-32.0524,3513.895],[-70.2986,-32.0496,3515.3491],[-70.3082,-32.0474,3484.9382],[-70.3166,-32.047,3528.926],[-70.3222,-32.0494,3673.0913],[-70.329,-32.0487,3910.2581],[-70.3309,-32.0455,3926.5449],[-70.3378,-32.0451,3836.9546],[-70.3442,-32.0422,4023.4197],[-70.3467,-32.0394,4127.4326],[-70.3501,-32.0269,4146.1421],[-70.3612,-32.0252,4122.9282],[-70.3792,-32.0261,4138.0312],[-70.3816,-32.0292,4261.3398],[-70.3793,-32.0332,4247.2202],[-70.3841,-32.0366,4134.0176],[-70.3882,-32.0442,4229.7612],[-70.3876,-32.0458,4199.5269],[-70.3741,-32.0549,3904.7576],[-70.358,-32.0579,3961.783],[-70.3547,-32.0611,4019.5845],[-70.3482,-32.0626,4000.4868],[-70.3416,-32.0677,4026.7058],[-70.3353,-32.07,4021.7603],[-70.3352,-32.0771,3960.823],[-70.342,-32.0847,3677.4741],[-70.3475,-32.0852,3613.3015],[-70.3491,-32.0877,3635.9663],[-70.3474,-32.0938,3778.4048],[-70.3432,-32.0951,3827.6941],[-70.3437,-32.0986,3840.9502],[-70.3383,-32.1026,3944.3477],[-70.3416,-32.1084,3821.3628],[-70.3409,-32.1103,3845.2712],[-70.3292,-32.1223,3886.6475],[-70.3272,-32.1275,3859.3545],[-70.323,-32.1268,3877.7937],[-70.3187,-32.1316,3926.7241],[-70.3126,-32.1305,3970.822],[-70.3041,-32.136,3973.8218],[-70.305,-32.1416,3900.8828],[-70.3144,-32.15,3466.0557],[-70.3167,-32.1592,3353.1858],[-70.3121,-32.1655,3467.2617],[-70.3148,-32.1666,3493.8408],[-70.3139,-32.1738,3569.9805],[-70.3169,-32.1775,3684.2493],[-70.3136,-32.1824,3716.9802],[-70.3091,-32.1834,3817.1245],[-70.3094,-32.1853,3834.7532],[-70.3077,-32.1865,3848.2795],[-70.3096,-32.1907,3911.813],[-70.3087,-32.1952,3827.781],[-70.3101,-32.1987,3844.3225],[-70.3077,-32.1993,3834.7427],[-70.3059,-32.2031,3890.1128],[-70.3016,-32.2044,3972.1826],[-70.3009,-32.2068,4103.2334],[-70.3033,-32.2121,4134.5503],[-70.3081,-32.2157,4029.2612],[-70.3085,-32.2194,4141.1265],[-70.3109,-32.222,4197.1265],[-70.3097,-32.2272,4129.1694],[-70.3049,-32.2325,4247.8701],[-70.3094,-32.2367,4207.146],[-70.3105,-32.2386,4191.2505],[-70.3096,-32.2423,4179.8374],[-70.3219,-32.2585,4190.8467],[-70.3237,-32.2661,4215.5796],[-70.3222,-32.2688,4187.2759],[-70.3193,-32.2699,4203.3208],[-70.3197,-32.2733,4222.3823],[-70.3009,-32.276,4138.4121],[-70.2965,-32.2785,4362.2061],[-70.2952,-32.282,4414.0879],[-70.2936,-32.2826,4414.0879],[-70.293,-32.2873,4235.8428],[-70.2837,-32.2928,4323.5425],[-70.28,-32.2918,4379.3169],[-70.2706,-32.2935,4345.5332],[-70.2649,-32.2911,4524.5464],[-70.2627,-32.2917,4529.5454],[-70.2579,-32.3042,4644.7725],[-70.249,-32.3057,4646.8184],[-70.2409,-32.3166,4403.6401],[-70.2341,-32.318,4278.8721],[-70.2251,-32.3225,4225.4448],[-70.2179,-32.3329,4387.0591],[-70.2209,-32.341,4238.6904],[-70.2196,-32.3454,4025.6277],[-70.223,-32.3475,3919.2383],[-70.2233,-32.3503,3890.9495],[-70.2268,-32.3525,3752.5396],[-70.2285,-32.3561,3615.3303],[-70.2284,-32.3641,3529.417],[-70.2262,-32.3715,3827.531],[-70.2174,-32.3819,4081.7632],[-70.2229,-32.3899,4229.3091],[-70.2311,-32.3908,4376.1626],[-70.2321,-32.3955,4438.6465],[-70.2347,-32.3977,4478.1289],[-70.2348,-32.4002,4450.9521],[-70.2383,-32.4047,4368.7505],[-70.2352,-32.4136,4378.4424],[-70.2375,-32.4179,4445.3525],[-70.2366,-32.4287,4443.0986],[-70.2313,-32.4313,4341.9082],[-70.2183,-32.4292,4543.8359],[-70.2135,-32.439,4543.6123],[-70.2078,-32.4419,4613.9551],[-70.2004,-32.4418,4699.2012],[-70.1932,-32.45,4440.6455],[-70.1836,-32.4498,4232.7754],[-70.1653,-32.4554,3888.5188],[-70.1614,-32.4612,3889.3979],[-70.1531,-32.4628,4065.0959],[-70.1487,-32.4659,4300.9453],[-70.1495,-32.47,4379.1797],[-70.1456,-32.4746,4455.0532],[-70.1441,-32.4806,4457.5547],[-70.1408,-32.4854,4455.126],[-70.135,-32.488,4460.5322],[-70.1351,-32.4906,4525.2607],[-70.1403,-32.4966,4423.3154],[-70.1406,-32.5002,4398.6562],[-70.1335,-32.5112,4375.1426],[-70.1294,-32.5252,4253.916],[-70.1232,-32.5366,4535.3232],[-70.1236,-32.545,4767.145],[-70.1261,-32.5471,4804.0034],[-70.1279,-32.5529,4606.3008],[-70.1254,-32.5563,4792.1484],[-70.1281,-32.5638,4702.1709],[-70.1263,-32.5727,4842.7207],[-70.1131,-32.5796,4638.5576],[-70.0966,-32.5947,4719.9497],[-70.091,-32.6197,5340.1357],[-70.0886,-32.6244,5299.0962],[-70.0796,-32.6309,4889.4204],[-70.0736,-32.6319,4778.3418],[-70.0617,-32.6305,4864.9292],[-70.056,-32.6287,4769.4736],[-70.0517,-32.6252,5198.9595],[-70.0449,-32.6167,4926.4829],[-70.0351,-32.598,4833.3555],[-70.0358,-32.5725,4793.751],[-70.0325,-32.5683,4688.3809],[-70.004,-32.5495,4661.2466],[-69.9829,-32.5396,4589.2832],[-69.9768,-32.5386,4721.2676],[-69.9616,-32.5462,4700.9194],[-69.9446,-32.5411,4279.2285],[-69.9327,-32.5409,4292.2529],[-69.9215,-32.5445,4485.1831],[-69.9032,-32.5577,4432.9316],[-69.8857,-32.5617,4257.7334],[-69.8615,-32.5603,4248.9316],[-69.8558,-32.5614,4324.5503],[-69.8461,-32.5674,4376.8232],[-69.8344,-32.5696,4453.5845],[-69.8227,-32.567,4253.4893],[-69.8186,-32.5523,4193.4102],[-69.8155,-32.5479,4449.9492],[-69.8025,-32.5373,3957.5825],[-69.7907,-32.5355,4411.5747],[-69.7798,-32.5314,4685.8491],[-69.7557,-32.5326,4464.751],[-69.7321,-32.5371,3878.5369],[-69.7153,-32.5315,3998.0649],[-69.7072,-32.524,4094.5637],[-69.6961,-32.5202,4303.103],[-69.6882,-32.5124,4450.9531],[-69.6864,-32.5076,4419.9243],[-69.6856,-32.4923,4115.5332],[-69.682,-32.4825,4347.5142],[-69.6859,-32.4729,4169.2349],[-69.6969,-32.4547,4531.7725],[-69.6966,-32.4498,4584.7769],[-69.6914,-32.4406,4066.3936],[-69.6908,-32.4356,4027.2598],[-69.6923,-32.4254,3861.4658],[-69.6907,-32.4103,4253.4941],[-69.6914,-32.3949,3839.686],[-69.6952,-32.38,4451.1997],[-69.698,-32.3754,4489.0039],[-69.7069,-32.3687,4309.2041],[-69.7147,-32.3494,4677.7744],[-69.7115,-32.3345,4625.8052],[-69.7063,-32.3253,4704.0317],[-69.6905,-32.3134,5076.4341],[-69.6801,-32.301,5561.1738],[-69.6667,-32.2907,4897.9033],[-69.661,-32.2818,4850.1855],[-69.6463,-32.2656,4752.7144],[-69.6362,-32.26,4737.1006],[-69.6316,-32.2507,4746.0322],[-69.6199,-32.239,5170.1816],[-69.6188,-32.234,5010.3882],[-69.6205,-32.2239,4562.8394],[-69.6197,-32.2189,4670.9009],[-69.6178,-32.2141,4962.4419],[-69.6077,-32.2014,5115.4834],[-69.6071,-32.1864,4746.1768],[-69.6019,-32.1771,4734.7725],[-69.6059,-32.1625,4404.5469],[-69.6059,-32.1574,4631.0825],[-69.5944,-32.1398,4595.8281],[-69.5893,-32.1372,4552.6753],[-69.5776,-32.1384,4583.7139],[-69.5683,-32.1321,4497.2773],[-69.5626,-32.1316,4699.084],[-69.5525,-32.1369,4184.8384],[-69.541,-32.1378,4239.438],[-69.52,-32.1279,4031.3381],[-69.5082,-32.1199,3780.5454],[-69.5003,-32.1123,3595.8457],[-69.4888,-32.1104,3316.1501],[-69.4851,-32.1065,3215.5732],[-69.4814,-32.0968,3091.4229],[-69.4617,-32.0775,2817.2566],[-69.4562,-32.0758,2705.4224],[-69.4382,-32.0752,2622.553],[-69.4232,-32.0665,2509.5942],[-69.4181,-32.067,2582.019],[-69.4137,-32.0706,2599.6636],[-69.4117,-32.0754,2565.0459],[-69.4066,-32.0776,2594.7307],[-69.4005,-32.0778,2479.7729],[-69.3951,-32.0757,2523.9575],[-69.3871,-32.0682,2476.8218],[-69.3828,-32.0664,2436.2129],[-69.3718,-32.0709,2271.6582],[-69.3572,-32.0797,2202.2065],[-69.3407,-32.0858,2218.2593],[-69.3293,-32.0891,2240.3113],[-69.3174,-32.0896,2258.3767],[-69.3128,-32.0867,2263.5781],[-69.3056,-32.0785,2301.8296],[-69.3005,-32.0757,2324.7261],[-69.2839,-32.0709,2379.1511],[-69.2703,-32.0494,2577.4644],[-69.2665,-32.0344,2643.6797],[-69.2637,-32.0298,2678.9521],[-69.246,-32.0162,2832.0254],[-69.2301,-32.0094,2949.2075],[-69.2247,-32.0107,2995.0432],[-69.22,-32.0142,3003.625],[-69.2152,-32.0132,3103.8889],[-69.2111,-32.0091,3253.2798],[-69.2058,-32.0068,3251.927],[-69.178,-32.0038,3599.9348],[-69.1755,-31.9973,3471.4285],[-69.1818,-31.9822,3585.5461],[-69.179,-31.9785,3583.1816],[-69.1627,-31.9702,3448.6362],[-69.1508,-31.9679,3550.4751],[-69.1268,-31.9718,4085.136],[-69.1252,-31.9764,4066.7095],[-69.1271,-31.9868,3986.8718],[-69.1253,-31.9918,3914.7778],[-69.1162,-32.0044,3759.7295],[-69.117,-32.0188,3797.9409],[-69.1081,-32.0253,3757.7383],[-69.0973,-32.0297,3518.8301],[-69.0937,-32.0336,3577.4937],[-69.0907,-32.0486,3183.9736],[-69.0875,-32.0529,3445.4824],[-69.0705,-32.0668,3067.0825],[-69.0684,-32.0716,2956.8572],[-69.0331,-32.0979,2565.7561],[-69.0308,-32.1025,2436.5107],[-69.0165,-32.1118,2583.0234],[-69.011,-32.1139,2345.2241],[-68.9871,-32.1133,1866.3092],[-68.9699,-32.1091,1740.2666],[-68.9575,-32.098,1634.5714],[-68.9518,-32.0969,1615.282],[-68.9311,-32.0975,1535.8695],[-68.9315,-32.3235,1884.579],[-68.8283,-32.3286,862.4539],[-68.6632,-32.331,601.8079],[-68.5775,-32.2572,573.6918],[-68.5107,-32.1947,546.9691],[-68.4881,-32.1781,543.9506],[-68.4794,-32.1646,543.6322],[-68.4742,-32.15,542.369],[-68.4681,-32.104,545.2192],[-68.4625,-32.1036,544.3304],[-68.4217,-32.1123,538.9563],[-68.3978,-32.1122,539.1022],[-68.3862,-32.1095,540.5436],[-68.3841,-32.1139,539.708],[-68.3863,-32.124,540.5673],[-68.3846,-32.1283,539.366],[-68.3793,-32.1308,538.0286],[-68.3674,-32.1319,539.3505],[-68.3375,-32.1293,539.8934],[-68.3316,-32.1296,539.81],[-68.3207,-32.1331,538.0568],[-68.31,-32.1285,539.3847],[-68.304,-32.1283,539.035],[-68.2983,-32.1302,538.8619],[-68.2953,-32.1344,538.3324],[-68.2899,-32.1362,538.7013],[-68.2785,-32.1331,538.061],[-68.2487,-32.1159,538.0032],[-68.2377,-32.112,538.0272],[-68.2317,-32.1118,538.0591],[-68.2143,-32.1156,538.9626],[-68.1966,-32.1126,537.7656],[-68.179,-32.1146,537.3107],[-68.1493,-32.1105,537.984],[-68.1007,-32.0907,539.1752],[-68.088,-32.0799,539.0085],[-68.0819,-32.079,537.4678],[-68.0783,-32.0825,535.8644],[-68.0727,-32.0815,538.5872],[-68.0681,-32.0782,535.3798],[-68.0665,-32.0733,534.5067],[-68.0628,-32.0693,532.7894],[-68.0569,-32.0687,530.9398],[-68.052,-32.0716,529.5585],[-68.0402,-32.0708,534.8564],[-68.0348,-32.0777,529.5486],[-68.0116,-32.0735,528.8992],[-67.995,-32.0787,530.6459],[-67.9749,-32.0736,532.4008],[-67.9689,-32.0728,532.9613],[-67.9633,-32.0745,532.2079],[-67.9589,-32.0778,531.8243],[-67.9571,-32.0827,531.8699],[-67.9553,-32.0979,530.8372],[-67.9288,-32.1073,530.5041],[-67.9264,-32.1114,530.008],[-67.9263,-32.1319,524.5447],[-67.9243,-32.1418,524.5962],[-67.9166,-32.1496,527.3901],[-67.9133,-32.1595,526.6981],[-67.9093,-32.1628,526.1202],[-67.8974,-32.1645,529.1168],[-67.8869,-32.169,525.1201],[-67.881,-32.1687,524.7319],[-67.8694,-32.1716,523.8852],[-67.865,-32.1752,524.417],[-67.8613,-32.1897,525.9853],[-67.8566,-32.1929,522.8237],[-67.8345,-32.2005,521.457],[-67.8267,-32.2084,519.4674],[-67.8214,-32.2097,520.1711],[-67.7913,-32.2097,519.7869],[-67.7799,-32.2074,522.8074],[-67.7563,-32.2113,520.7104],[-67.751,-32.2113,520.0865],[-67.7423,-32.2082,518.5862],[-67.7303,-32.2092,518.386],[-67.725,-32.2116,519.0943],[-67.7136,-32.2233,520.6],[-67.7081,-32.2249,515.3929],[-67.7021,-32.2249,518.7074],[-67.6948,-32.217,519.0273],[-67.6892,-32.2154,516.327],[-67.6836,-32.2168,514.9556],[-67.6794,-32.2205,512.89],[-67.6734,-32.2208,512.455],[-67.6614,-32.2104,511.431],[-67.6395,-32.219,511.4335],[-67.6275,-32.2192,509.7448],[-67.6112,-32.2132,506.8655],[-67.6051,-32.2126,507.0483],[-67.589,-32.2186,506.982],[-67.5653,-32.2161,505.187],[-67.5543,-32.2201,505.0155],[-67.5483,-32.2201,505.0816],[-67.5379,-32.2152,504.2662],[-67.5239,-32.2058,503.1045],[-67.5167,-32.1974,503.1803],[-67.511,-32.198,502.8469],[-67.5076,-32.2079,502.6622],[-67.4999,-32.2136,501.8918],[-67.4959,-32.2215,502.0543],[-67.4756,-32.2464,500.9705],[-67.471,-32.2555,499.8659],[-67.4706,-32.2758,498.9233],[-67.464,-32.2953,498.3621],[-67.4583,-32.3043,498.4123],[-67.4343,-32.3194,496.0259],[-67.4187,-32.327,495.8713],[-67.4104,-32.334,494.3899],[-67.405,-32.3359,494.5376],[-67.3869,-32.3363,494.0567],[-67.3815,-32.3384,492.917],[-67.3739,-32.3463,491.5228]]]]}
,"properties": {"GID_1": "ARG.18_1","GID_0": "ARG","country": "Argentina","state": "SanJuan","VARNAME_1": "NA","NL_NAME_1": "NA","TYPE_1": "Provincia","ENGTYPE_1": "Province","CC_1": "NA","HASC_1": "AR.SJ","ISO_1": "AR-J","name": "SanJuan.state","area_km2": 88903.79,"hist_schema_id": "Elevation0-9000","hist_area_km2": {"375": 111.52,"400": 302.16,"425": 417.68,"450": 355.01,"475": 330.06,"500": 875.88,"525": 1640.45,"550": 3051.46,"575": 2345.66,"600": 1745.9,"625": 1140.36,"650": 1469.95,"675": 1896.59,"700": 1715.86,"725": 1290.71,"750": 1017.19,"775": 1004.49,"800": 833.9,"825": 659.44,"850": 666.37,"875": 709.12,"900": 695.56,"925": 733.4,"950": 702.37,"975": 695.99,"1000": 639.61,"1025": 582.12,"1050": 553.48,"1075": 541.68,"1100": 490.07,"1125": 512.56,"1150": 491.43,"1175": 440.82,"1200": 398.04,"1225": 371.98,"1250": 378.05,"1275": 386.65,"1300": 375.83,"1325": 364.42,"1350": 366.62,"1375": 367.7,"1400": 362.27,"1425": 355.13,"1450": 345.79,"1475": 340.85,"1500": 336.34,"1525": 355.17,"1550": 364.06,"1575": 373.0,"1600": 370.1,"1625": 518.99,"1650": 439.38,"1675": 432.82,"1700": 425.56,"1725": 418.83,"1750": 425.25,"1775": 425.2,"1800": 434.99,"1825": 422.52,"1850": 419.05,"1875": 479.79,"1900": 445.6,"1925": 441.17,"1950": 438.81,"1975": 438.68,"2000": 429.68,"2025": 417.34,"2050": 408.54,"2075": 409.15,"2100": 411.66,"2125": 414.58,"2150": 419.73,"2175": 427.49,"2200": 434.77,"2225": 430.04,"2250": 435.81,"2275": 439.01,"2300": 434.35,"2325": 435.32,"2350": 435.86,"2375": 439.44,"2400": 447.02,"2425": 439.93,"2450": 425.45,"2475": 418.04,"2500": 404.64,"2525": 401.98,"2550": 395.82,"2575": 389.46,"2600": 383.77,"2625": 366.09,"2650": 349.05,"2675": 334.53,"2700": 319.28,"2725": 319.21,"2750": 312.57,"2775": 300.31,"2800": 299.28,"2825": 309.9,"2850": 302.68,"2875": 304.16,"2900": 303.33,"2925": 306.69,"2950": 312.65,"2975": 318.58,"3000": 322.65,"3025": 321.89,"3050": 329.25,"3075": 335.88,"3100": 338.51,"3125": 351.49,"3150": 361.22,"3175": 383.1,"3200": 380.72,"3225": 391.63,"3250": 394.31,"3275": 402.47,"3300": 419.56,"3325": 421.37,"3350": 420.65,"3375": 426.68,"3400": 440.69,"3425": 455.96,"3450": 458.66,"3475": 449.17,"3500": 456.45,"3525": 452.41,"3550": 454.4,"3575": 467.01,"3600": 457.54,"3625": 458.64,"3650": 447.89,"3675": 447.28,"3700": 440.55,"3725": 439.22,"3750": 431.93,"3775": 436.28,"3800": 440.73,"3825": 442.52,"3850": 435.47,"3875": 435.16,"3900": 442.15,"3925": 456.91,"3950": 463.38,"3975": 461.1,"4000": 457.6,"4025": 465.56,"4050": 461.95,"4075": 466.07,"4100": 466.73,"4125": 458.1,"4150": 447.28,"4175": 428.76,"4200": 413.45,"4225": 413.17,"4250": 406.7,"4275": 397.54,"4300": 389.81,"4325": 388.26,"4350": 377.19,"4375": 367.5,"4400": 350.91,"4425": 338.18,"4450": 313.16,"4475": 305.28,"4500": 299.81,"4525": 281.7,"4550": 266.61,"4575": 267.42,"4600": 257.49,"4625": 243.96,"4650": 228.96,"4675": 212.15,"4700": 201.34,"4725": 194.36,"4750": 186.84,"4775": 174.72,"4800": 160.94,"4825": 146.97,"4850": 135.64,"4875": 126.73,"4900": 118.73,"4925": 109.13,"4950": 100.94,"4975": 96.48,"5000": 90.22,"5025": 86.41,"5050": 80.79,"5075": 77.09,"5100": 74.53,"5125": 73.89,"5150": 70.79,"5175": 63.9,"5200": 60.63,"5225": 56.05,"5250": 52.15,"5275": 49.09,"5300": 47.01,"5325": 47.09,"5350": 46.03,"5375": 43.17,"5400": 39.6,"5425": 38.33,"5450": 33.77,"5475": 30.26,"5500": 26.49,"5525": 23.02,"5550": 19.58,"5575": 18.42,"5600": 17.02,"5625": 16.13,"5650": 15.57,"5675": 15.58,"5700": 13.12,"5725": 11.7,"5750": 9.92,"5775": 9.21,"5800": 8.8,"5825": 7.5,"5850": 7.02,"5875": 6.77,"5900": 6.77,"5925": 6.11,"5950": 6.11,"5975": 5.71,"6000": 4.87,"6025": 4.55,"6050": 3.57,"6075": 3.55,"6100": 2.25,"6125": 1.81,"6150": 1.66,"6175": 1.28,"6200": 1.17,"6225": 0.81,"6250": 0.9}}}