{"type":"Feature","properties":{"GID_2":"ARG.12.11_1","GID_0":"ARG","country":"Argentina","GID_1":"ARG.12_1","state":"LaRioja","NL_NAME_1":"NA","county":"GeneralLamadrid","VARNAME_2":"VillaCastelli","NL_NAME_2":"NA","TYPE_2":"Departamento","ENGTYPE_2":"Department","CC_2":"NA","HASC_2":"AR.LR.GL","name":"GeneralLamadrid.county"},
"geometry":{"type": "MultiPolygon","coordinates": [[[[-67.8355,-29.008,5823.291],[-68.0127,-28.9027,2509.8801],[-68.2188,-28.8691,1365.1931],[-68.4607,-28.7423,1947.052],[-69.3289,-28.2676,4609.7314],[-69.3914,-28.2272,5214.3945],[-69.3958,-28.2204,5049.5654],[-69.4087,-28.2137,4508.8604],[-69.4103,-28.2053,4458.9224],[-69.4156,-28.2052,4546.54],[-69.4187,-28.2081,4517.8647],[-69.4204,-28.2073,4481.645],[-69.4307,-28.2017,4376.6816],[-69.4481,-28.1866,4999.2197],[-69.4567,-28.1839,5150.3965],[-69.464,-28.1976,5153.166],[-69.4711,-28.202,5100.062],[-69.4728,-28.2048,5088.335],[-69.4789,-28.2073,5080.4321],[-69.482,-28.2236,5066.4985],[-69.4773,-28.2259,4974.4609],[-69.4776,-28.2317,4893.3062],[-69.4749,-28.2378,4932.7051],[-69.4846,-28.2475,4696.083],[-69.4871,-28.2555,4909.1523],[-69.5002,-28.2622,4925.9072],[-69.5029,-28.2658,4923.4668],[-69.5032,-28.2738,4892.1221],[-69.4997,-28.2841,5003.5249],[-69.5077,-28.2927,4955.5215],[-69.511,-28.2987,5055.8472],[-69.5132,-28.3079,5080.9971],[-69.5213,-28.3134,5037.8486],[-69.5198,-28.3199,5058.7788],[-69.5228,-28.3245,5029.5967],[-69.5239,-28.3303,5027.8193],[-69.5318,-28.3353,5160.9355],[-69.5391,-28.3359,5211.1689],[-69.5422,-28.3383,5249.3857],[-69.558,-28.3419,5206.7646],[-69.569,-28.3488,5319.6816],[-69.5794,-28.3509,5217.9033],[-69.5868,-28.3593,5175.5361],[-69.5852,-28.3661,5223.3154],[-69.5862,-28.3722,5351.9844],[-69.5881,-28.3779,5426.4258],[-69.5928,-28.3841,5345.939],[-69.5652,-28.3968,4436.417],[-69.5303,-28.405,4483.1055],[-69.5245,-28.4056,4503.3296],[-69.5074,-28.401,4118.6494],[-69.4892,-28.4008,4089.4492],[-69.4838,-28.4026,4087.3157],[-69.475,-28.4101,4069.7595],[-69.4663,-28.4239,4136.0933],[-69.4586,-28.4322,4060.113],[-69.4536,-28.4346,3998.4277],[-69.4513,-28.4396,4017.8179],[-69.4474,-28.4432,4004.5388],[-69.4353,-28.4437,3985.2307],[-69.4121,-28.4491,3944.4814],[-69.4,-28.4484,3932.2524],[-69.3947,-28.446,4025.1611],[-69.3827,-28.4455,3957.7854],[-69.3523,-28.4351,3880.1729],[-69.1979,-28.5899,3465.3721],[-69.199,-28.6059,3680.5479],[-69.1971,-28.6164,3851.0925],[-69.1842,-28.6404,3839.9043],[-69.1791,-28.6557,3671.4338],[-69.1556,-28.7045,3754.8535],[-69.1423,-28.7399,3488.6355],[-69.0932,-28.7868,3501.3123],[-68.9493,-28.9142,3686.8098],[-68.9511,-28.9248,3793.3513],[-68.9552,-28.9345,3882.4163],[-68.95,-28.9499,3856.1538],[-68.9529,-28.9553,3913.6597],[-68.964,-28.9598,3809.4766],[-68.9669,-28.9643,3790.5735],[-68.723,-29.0543,2650.26],[-68.2453,-29.2243,1202.2117],[-67.8536,-29.0786,5110.3408],[-67.8463,-29.0436,5162.8799],[-67.8355,-29.008,5823.291]]]]}}