{"type":"Feature","properties":{"GID_2":"ARG.1.29_1","GID_0":"ARG","country":"Argentina","GID_1":"ARG.1_1","state":"BuenosAires","NL_NAME_1":"NA","county":"Colón","VARNAME_2":"NA","NL_NAME_2":"NA","TYPE_2":"Partido","ENGTYPE_2":"Part","CC_2":"NA","HASC_2":"AR.BA.CO","name":"Colón.county"},
"geometry":{"type": "MultiPolygon","coordinates": [[[[-61.1162,-34.0689,75.5127],[-61.1066,-34.0594,76.1874],[-61.0978,-34.0578,73.8946],[-61.0901,-34.0525,73.7594],[-61.0854,-34.0519,72.7176],[-61.0764,-34.0443,71.7383],[-61.0646,-34.0387,70.7672],[-61.0586,-34.0334,70.0883],[-61.0523,-34.0311,69.906],[-61.0355,-34.0089,76.3176],[-61.021,-33.9931,73.0435],[-60.9414,-33.9258,82.2754],[-60.9462,-33.9213,81.8535],[-60.9082,-33.8897,85.2237],[-60.9472,-33.8566,80.2059],[-60.8658,-33.7826,77.9887],[-60.9041,-33.7521,78.6972],[-60.8113,-33.6745,80.8729],[-60.8437,-33.6488,79.2439],[-60.8795,-33.6094,81.9723],[-60.9085,-33.5833,71.0286],[-60.9145,-33.5916,72.1672],[-60.9162,-33.5972,75.0213],[-60.9184,-33.615,73.9995],[-60.9163,-33.6366,73.9221],[-61.0746,-33.7805,88.9322],[-61.3345,-34.0229,97.1299],[-61.2078,-34.129,93.9616],[-61.1868,-34.1057,84.0438],[-61.1765,-34.097,83.854],[-61.1652,-34.0924,82.338],[-61.1526,-34.0828,79.2781],[-61.1282,-34.0757,77.5223],[-61.1162,-34.0689,75.5127]]]]}}