{"type": "Feature","bbox": [-71.0682,-38.3505,-69.6999,-37.6336],"geometry": {"type": "MultiPolygon","coordinates": [[[[-69.8829,-37.7391,739.2247],[-69.9019,-37.7028,727.1288],[-69.9131,-37.6904,740.0068],[-69.9222,-37.6836,732.0463],[-69.9338,-37.6801,771.5898],[-69.9776,-37.6738,814.1691],[-70.0065,-37.6549,736.5781],[-70.019,-37.6577,737.5],[-70.0312,-37.6549,746.6553],[-70.0457,-37.6448,1066.7694],[-70.0478,-37.6405,862.5226],[-70.0465,-37.6336,858.2112],[-70.6203,-38.0059,1065.9076],[-70.6519,-37.9846,1097.0081],[-70.6811,-37.9752,1149.0137],[-70.694,-37.9638,1133.9104],[-70.6992,-37.9613,1131.8618],[-70.7298,-37.9547,1150.9216],[-70.7551,-37.9537,1192.9906],[-70.802,-37.9387,1426.1443],[-70.8209,-37.9395,1463.5663],[-70.8518,-37.9343,1596.8057],[-70.8707,-37.9345,1718.7032],[-70.8945,-37.9415,1314.3275],[-70.9284,-37.955,1506.9301],[-70.9468,-37.9586,1351.3767],[-70.9594,-37.9587,1357.3688],[-70.9844,-37.9554,1396.3938],[-71.0079,-37.9485,1568.3862],[-71.0206,-37.9495,1593.3639],[-71.0471,-37.9631,1983.8459],[-71.0674,-37.9777,1956.4017],[-71.0682,-37.9875,1924.3929],[-71.0652,-37.9923,1919.7521],[-71.0586,-37.994,2003.0236],[-71.0513,-37.9917,2056.5784],[-71.054,-37.9986,1982.8403],[-71.0605,-38.0015,1987.4045],[-71.0584,-38.0093,2000.895],[-71.064,-38.0172,1968.7332],[-71.0587,-38.02,1921.504],[-71.0572,-38.0235,1904.4952],[-71.0525,-38.025,1972.666],[-71.0507,-38.0351,2032.8024],[-71.0527,-38.0422,2123.9597],[-71.0561,-38.0437,2222.647],[-71.0508,-38.0474,2228.3296],[-71.0463,-38.0549,2318.4114],[-71.0391,-38.0553,2208.2947],[-71.0265,-38.0618,2231.9304],[-71.0152,-38.0729,2339.1538],[-71.0153,-38.0765,2253.0132],[-71.0125,-38.0798,2189.0522],[-71.0004,-38.0809,2216.0374],[-70.9921,-38.0834,2419.5291],[-70.989,-38.0879,2346.812],[-70.9833,-38.1052,2387.6335],[-70.9918,-38.1114,2147.0217],[-70.9999,-38.1112,2119.9241],[-71.0097,-38.1137,1859.1285],[-71.0239,-38.1129,2068.0818],[-71.0371,-38.1174,2348.1265],[-71.0365,-38.1192,2366.8887],[-71.0392,-38.1216,2380.3955],[-71.0439,-38.1228,2381.5242],[-71.03,-38.1338,2274.8645],[-71.0235,-38.1441,2253.4365],[-71.0248,-38.1497,2121.2131],[-71.0106,-38.1537,2217.6274],[-71.0097,-38.1627,2178.3311],[-70.9956,-38.1707,2109.1411],[-70.9963,-38.1923,2074.085],[-70.9471,-38.2733,2414.3271],[-70.9299,-38.2796,2269.6736],[-70.898,-38.2786,1879.8535],[-70.8917,-38.2793,1856.7039],[-70.8802,-38.2834,1869.9596],[-70.8705,-38.2899,1981.382],[-70.85,-38.3153,1643.3127],[-70.8356,-38.3257,1589.4873],[-70.8249,-38.3304,1476.8618],[-70.8122,-38.3308,1676.8646],[-70.7995,-38.3287,1557.1772],[-70.7817,-38.3233,1465.0811],[-70.76,-38.3128,1319.071],[-70.7348,-38.3098,1232.5872],[-70.7301,-38.3068,1186.2808],[-70.7191,-38.2941,1174.5392],[-70.7065,-38.2827,1154.1387],[-70.6972,-38.2759,1115.9087],[-70.6863,-38.271,1092.3461],[-70.6678,-38.2669,1009.1431],[-70.6355,-38.2661,901.721],[-70.6234,-38.268,867.7776],[-70.6194,-38.2714,865.8286],[-70.604,-38.2995,830.6005],[-70.5971,-38.3081,826.4064],[-70.5884,-38.3155,824.0807],[-70.5767,-38.3184,819.3512],[-70.2925,-38.3233,1527.2008],[-69.9176,-38.3268,632.6479],[-69.8801,-38.3213,622.2964],[-69.8483,-38.321,597.5499],[-69.8043,-38.3253,570.5707],[-69.7686,-38.3361,557.6465],[-69.7487,-38.3487,578.2646],[-69.743,-38.3505,578.8223],[-69.7435,-38.3471,570.5016],[-69.7397,-38.3368,550.5035],[-69.7372,-38.332,611.8922],[-69.7295,-38.324,588.6625],[-69.7368,-38.3101,590.3702],[-69.7377,-38.3052,553.59],[-69.735,-38.2851,614.5366],[-69.7294,-38.2763,565.0757],[-69.7067,-38.258,704.416],[-69.7038,-38.2539,712.809],[-69.7031,-38.2493,702.5909],[-69.7054,-38.2339,632.8426],[-69.6999,-38.2184,731.6678],[-69.701,-38.2145,729.2631],[-69.7054,-38.2119,708.7236],[-69.7246,-38.2062,659.662],[-69.745,-38.1944,637.3452],[-69.7634,-38.1895,601.1577],[-69.7742,-38.1848,732.3766],[-69.7814,-38.1766,728.4301],[-69.7896,-38.1629,665.2542],[-69.8057,-38.1247,690.3186],[-69.8111,-38.1158,654.2345],[-69.8202,-38.109,641.3599],[-69.8477,-38.0937,675.2905],[-69.8504,-38.0904,666.4636],[-69.8483,-38.0868,651.2358],[-69.8374,-38.0789,629.7158],[-69.8379,-38.0752,632.4911],[-69.8481,-38.0678,641.8925],[-69.8513,-38.0635,648.7333],[-69.8609,-38.0445,659.4417],[-69.8633,-38.0349,661.9301],[-69.8598,-38.0243,656.4972],[-69.8565,-38.0198,653.9304],[-69.8524,-38.0175,649.3439],[-69.834,-38.0229,620.9688],[-69.8324,-38.0195,625.2672],[-69.8336,-38.0081,763.7409],[-69.839,-37.9935,752.5593],[-69.8548,-37.9661,719.8865],[-69.871,-37.9228,703.3734],[-69.8738,-37.9131,688.6981],[-69.8749,-37.893,688.9274],[-69.8774,-37.8833,670.4976],[-69.8873,-37.8647,702.8079],[-69.9005,-37.846,760.8844],[-69.903,-37.8376,773.2122],[-69.886,-37.8294,715.4028],[-69.8861,-37.8257,791.1334],[-69.8945,-37.8169,855.5809],[-69.8963,-37.8121,883.72],[-69.8979,-37.7971,918.0795],[-69.8829,-37.7391,739.2247]]]]}
,"properties": {"GID_2": "ARG.15.9_1","GID_0": "ARG","country": "Argentina","GID_1": "ARG.15_1","state": "Neuquén","NL_NAME_1": "NA","county": "Loncopué","VARNAME_2": "NA","NL_NAME_2": "NA","TYPE_2": "Departamento","ENGTYPE_2": "Department","CC_2": "NA","HASC_2": "AR.NQ.LO","name": "Loncopué.county","area_km2": 5462.071,"hist_schema_id": "Elevation0-9000","hist_area_km2": {"550": 5.306,"575": 26.444,"600": 26.663,"625": 30.395,"650": 40.973,"675": 56.95,"700": 70.608,"725": 89.639,"750": 133.573,"775": 147.682,"800": 146.125,"825": 142.883,"850": 144.283,"875": 155.769,"900": 164.723,"925": 150.63,"950": 130.674,"975": 117.738,"1000": 125.332,"1025": 141.544,"1050": 161.106,"1075": 155.6,"1100": 162.183,"1125": 169.551,"1150": 171.934,"1175": 157.929,"1200": 163.141,"1225": 157.15,"1250": 143.864,"1275": 134.741,"1300": 133.346,"1325": 129.555,"1350": 128.62,"1375": 123.279,"1400": 110.141,"1425": 103.003,"1450": 97.097,"1475": 86.621,"1500": 79.708,"1525": 70.736,"1550": 64.26,"1575": 58.616,"1600": 49.1,"1625": 44.313,"1650": 40.508,"1675": 36.223,"1700": 33.804,"1725": 30.502,"1750": 25.931,"1775": 23.627,"1800": 21.941,"1825": 19.854,"1850": 19.553,"1875": 19.653,"1900": 21.136,"1925": 20.739,"1950": 19.522,"1975": 19.639,"2000": 18.085,"2025": 19.804,"2050": 18.687,"2075": 20.17,"2100": 17.099,"2125": 16.215,"2150": 14.328,"2175": 11.442,"2200": 10.809,"2225": 8.689,"2250": 8.521,"2275": 7.219,"2300": 5.701,"2325": 5.484,"2350": 4.634,"2375": 3.7,"2400": 2.583,"2425": 2.899,"2450": 2.865,"2475": 2.049,"2500": 1.599,"2525": 2.482,"2550": 0.55,"2575": 0.233,"2600": 0.067}}}