{"type":"Feature","properties":{"GID_2":"ARG.6.9_1","GID_0":"ARG","country":"Argentina","GID_1":"ARG.6_1","state":"Córdoba","NL_NAME_1":"NA","county":"MarcosJuárez","VARNAME_2":"NA","NL_NAME_2":"NA","TYPE_2":"Departamento","ENGTYPE_2":"Department","CC_2":"NA","HASC_2":"AR.CB.MJ","name":"MarcosJuárez.county"},
"geometry":{"type": "MultiPolygon","coordinates": [[[[-62.5327,-33.9395,118.8539],[-62.2063,-33.5125,109.0],[-62.0135,-33.2557,112.4064],[-61.9678,-33.1847,103.5901],[-61.925,-33.1247,82.6934],[-61.9142,-33.1203,76.5],[-61.8865,-33.1047,78.6628],[-61.879,-33.0967,78.2109],[-61.8692,-33.0808,76.6226],[-61.8533,-33.0689,79.394],[-61.8499,-33.0619,73.6164],[-61.8172,-33.0395,67.0062],[-61.8122,-33.0332,66.1928],[-61.7969,-33.0207,62.5654],[-61.7906,-32.9959,63.3753],[-61.7953,-32.9838,64.9647],[-61.7929,-32.9587,64.1258],[-61.789,-32.9464,66.6159],[-61.7882,-32.9363,66.7139],[-61.7841,-32.9324,66.506],[-61.7779,-32.91,67.5583],[-61.7804,-32.8976,67.5859],[-61.7964,-32.8732,68.4711],[-61.7915,-32.8637,67.9155],[-61.7858,-32.8465,68.8585],[-61.7828,-32.8262,69.9991],[-61.7883,-32.8063,70.9395],[-61.7884,-32.7935,69.8658],[-61.7909,-32.7889,71.4314],[-61.7977,-32.7841,71.2915],[-61.8002,-32.7714,71.6899],[-61.8029,-32.7669,71.1813],[-61.8095,-32.7617,72.385],[-61.8323,-32.7493,72.67],[-61.8437,-32.7228,73.0462],[-61.8649,-32.6978,73.902],[-61.8883,-32.6944,73.9913],[-61.9034,-32.6956,74.1049],[-61.9153,-32.6941,75.2755],[-61.9319,-32.6879,74.852],[-61.9532,-32.6737,77.5019],[-61.9495,-32.6433,77.8472],[-61.9132,-32.6233,77.1796],[-61.9,-32.6231,77.1114],[-61.8924,-32.6189,77.396],[-61.8878,-32.6095,77.9531],[-61.8876,-32.5914,79.0575],[-61.8907,-32.5876,78.4313],[-61.9119,-32.5887,78.4327],[-61.9201,-32.5858,78.9707],[-61.9196,-32.5806,79.1005],[-61.9179,-32.5787,79.113],[-61.9044,-32.5684,79.2577],[-61.901,-32.5586,80.5967],[-61.9028,-32.5511,80.889],[-61.9066,-32.5473,80.6757],[-61.9215,-32.5449,80.7863],[-61.9268,-32.5425,81.0373],[-61.9282,-32.5403,81.0594],[-61.9279,-32.5376,81.1918],[-61.9144,-32.5275,81.6075],[-61.9111,-32.5203,82.1579],[-61.9257,-32.4734,83.852],[-61.9326,-32.4565,84.6225],[-61.942,-32.4405,85.5123],[-61.9638,-32.4194,87.039],[-61.985,-32.3946,87.8534],[-61.9835,-32.3829,91.2753],[-62.005,-32.3567,89.603],[-62.0393,-32.2575,90.6646],[-62.1273,-32.2083,93.5568],[-62.1767,-32.1585,96.0136],[-62.1948,-32.1171,96.7247],[-62.1818,-32.0717,97.7061],[-62.2919,-32.0529,104.1069],[-62.3163,-32.1481,103.2896],[-62.3476,-32.1468,105.6708],[-62.3808,-32.2917,110.9675],[-62.2872,-32.3084,103.921],[-62.302,-32.3821,109.418],[-62.3587,-32.3759,112.2043],[-62.3745,-32.439,111.8338],[-62.3998,-32.4389,115.0478],[-62.4658,-32.6844,111.391],[-62.4957,-32.6822,112.9948],[-62.497,-32.6873,111.8006],[-62.4934,-32.6958,110.5517],[-62.5214,-32.7985,115.0206],[-62.505,-32.8052,114.7046],[-62.4963,-32.7861,112.0858],[-62.474,-32.8425,111.1443],[-62.5254,-32.836,112.5828],[-62.5513,-32.9441,111.5924],[-62.5235,-32.9487,112.986],[-62.5466,-33.0469,104.1555],[-62.5561,-33.0544,106.1556],[-62.5675,-33.0599,104.3782],[-62.5797,-33.0726,106.5131],[-62.6282,-33.1006,104.6335],[-62.6316,-33.1046,103.9464],[-62.6264,-33.1109,101.4995],[-62.5335,-33.1253,117.525],[-62.58,-33.2021,112.3457],[-62.6858,-33.2771,112.8256],[-62.6122,-33.2923,113.1458],[-62.6502,-33.3337,108.1897],[-62.7566,-33.7866,120.2041],[-62.7822,-33.7857,119.1969],[-62.8086,-33.8878,126.014],[-62.5327,-33.9395,118.8539]]]]}}