{"type": "Feature","bbox": [-59.1588,-28.8251,-58.6637,-28.1639],"geometry": {"type": "MultiPolygon","coordinates": [[[[-59.0673,-28.1639,39.5],[-59.0674,-28.1732,41.9012],[-59.0702,-28.1779,40.0863],[-59.0817,-28.1863,42.7519],[-59.0915,-28.1965,37.5],[-59.0972,-28.2115,37.5],[-59.0994,-28.222,41.0218],[-59.1017,-28.2378,42.4197],[-59.095,-28.2771,40.1444],[-59.0948,-28.2958,36.5],[-59.1004,-28.3407,36.5],[-59.0997,-28.346,36.0],[-59.0945,-28.3556,44.0951],[-59.082,-28.3705,42.2377],[-59.0777,-28.386,36.0],[-59.0751,-28.4001,36.0],[-59.0744,-28.4151,42.9691],[-59.0807,-28.4269,35.0],[-59.0796,-28.4401,36.5938],[-59.0722,-28.4574,34.5],[-59.0593,-28.4754,37.8894],[-59.0569,-28.483,39.3231],[-59.0602,-28.4954,34.0],[-59.0849,-28.5356,34.0],[-59.0921,-28.5531,39.2658],[-59.0992,-28.579,34.0],[-59.1071,-28.5933,34.0],[-59.1096,-28.6037,34.0],[-59.1082,-28.6143,34.0],[-59.1039,-28.6213,34.0],[-59.08,-28.6373,37.1452],[-59.0771,-28.6447,38.484],[-59.0811,-28.6576,34.0],[-59.0879,-28.6624,34.0],[-59.0974,-28.6727,40.1495],[-59.1034,-28.7015,34.0],[-59.1101,-28.7064,38.8348],[-59.1213,-28.7189,39.9359],[-59.1227,-28.7295,34.0],[-59.1286,-28.7446,34.0],[-59.14,-28.7603,33.5],[-59.1523,-28.7678,37.9127],[-59.1588,-28.7738,37.9742],[-59.1441,-28.7801,33.0],[-59.1258,-28.773,35.1494],[-59.1222,-28.774,37.8623],[-59.1139,-28.7815,46.6626],[-59.0979,-28.7835,62.4588],[-59.0346,-28.7975,61.9878],[-59.0348,-28.816,61.2609],[-58.9704,-28.8251,54.6918],[-58.95,-28.7849,52.2044],[-58.9474,-28.7745,48.7293],[-58.9394,-28.7544,48.9928],[-58.931,-28.7467,46.7313],[-58.9258,-28.7372,47.5772],[-58.9149,-28.7267,52.3222],[-58.9064,-28.7147,48.8243],[-58.8964,-28.7131,54.8669],[-58.8935,-28.7025,51.2656],[-58.8766,-28.683,57.9758],[-58.8696,-28.6625,49.275],[-58.8649,-28.6567,49.2008],[-58.8555,-28.65,50.3742],[-58.8342,-28.6398,54.7687],[-58.8245,-28.6335,53.3082],[-58.8013,-28.6273,51.8203],[-58.7832,-28.6197,52.1791],[-58.7637,-28.6154,56.278],[-58.7499,-28.608,57.676],[-58.7023,-28.56,51.2203],[-58.6923,-28.5445,52.2872],[-58.6756,-28.5292,52.1173],[-58.6637,-28.5145,52.8146],[-58.7117,-28.4398,63.8887],[-58.6974,-28.4247,65.3975],[-58.7149,-28.4034,63.3971],[-58.7363,-28.4127,63.0352],[-58.7465,-28.4028,62.8703],[-58.7486,-28.3496,66.5835],[-58.7586,-28.3331,65.0071],[-58.8079,-28.2364,55.1715],[-58.8318,-28.2532,53.3208],[-58.8572,-28.2759,48.9716],[-58.8643,-28.2791,50.5645],[-58.8843,-28.2784,58.8967],[-58.9002,-28.2801,56.6766],[-58.9279,-28.2758,42.3894],[-58.947,-28.2703,40.7991],[-58.9586,-28.2725,40.2385],[-58.9665,-28.2714,41.6325],[-58.9851,-28.265,40.1895],[-58.9881,-28.2626,40.6398],[-58.9908,-28.2559,40.9802],[-58.999,-28.2546,40.7022],[-59.0025,-28.2552,41.1546],[-59.0054,-28.2621,40.0373],[-59.0082,-28.2645,39.5692],[-59.0122,-28.2643,39.5193],[-59.0136,-28.2503,39.8227],[-59.0068,-28.2377,38.5],[-59.007,-28.22,40.5673],[-59.0052,-28.2131,39.8195],[-58.999,-28.2089,40.8204],[-58.9952,-28.2093,41.3224],[-58.9853,-28.2155,40.6187],[-58.9773,-28.2155,40.5439],[-58.9697,-28.2074,41.0871],[-58.9605,-28.1895,41.7832],[-58.9793,-28.1942,43.6497],[-58.9911,-28.1922,40.9649],[-59.0016,-28.187,40.8417],[-59.0095,-28.1865,42.8337],[-59.0268,-28.1949,40.4396],[-59.0304,-28.1939,42.934],[-59.0315,-28.1905,41.273],[-59.0322,-28.1727,42.8442],[-59.0349,-28.1666,40.2181],[-59.0549,-28.1682,41.8323],[-59.0673,-28.1639,39.5]]]]}
,"properties": {"GID_2": "ARG.7.1_1","GID_0": "ARG","country": "Argentina","GID_1": "ARG.7_1","state": "Corrientes","NL_NAME_1": "NA","county": "BellaVista","VARNAME_2": "NA","NL_NAME_2": "NA","TYPE_2": "Departamento","ENGTYPE_2": "Department","CC_2": "NA","HASC_2": "AR.CN.BV","name": "BellaVista.county","area_km2": 1899.246,"hist_schema_id": "Elevation0-9000","hist_area_km2": {"25": 123.614,"50": 972.022,"75": 803.518,"100": 0.093}}}