{"type": "Feature","bbox": [-65.8857,-25.32,-65.2656,-25.022],"geometry": {"type": "MultiPolygon","coordinates": [[[[-65.8661,-25.1821,3393.4429],[-65.8551,-25.1827,3369.1086],[-65.8442,-25.1885,3148.7368],[-65.8424,-25.1939,3098.1875],[-65.8482,-25.2041,3168.8728],[-65.8435,-25.2265,2912.0879],[-65.8295,-25.2647,2766.5627],[-65.823,-25.3015,2863.1428],[-65.8085,-25.2977,2906.6189],[-65.7895,-25.2974,2564.2256],[-65.7835,-25.2991,2420.3708],[-65.7605,-25.3189,2629.637],[-65.755,-25.32,2652.1216],[-65.7452,-25.3125,2689.4346],[-65.738,-25.303,3058.6438],[-65.7252,-25.2768,2767.4358],[-65.7208,-25.2601,2555.4146],[-65.7111,-25.2389,2571.8992],[-65.7112,-25.2217,2905.2725],[-65.7079,-25.1875,2563.0166],[-65.7083,-25.1818,2721.7971],[-65.7107,-25.1768,2736.5413],[-65.6981,-25.1758,2338.2498],[-65.6733,-25.1802,2377.4019],[-65.6454,-25.1935,1926.3591],[-65.6329,-25.1943,2110.9426],[-65.6274,-25.1963,2319.5591],[-65.6175,-25.2035,2267.6997],[-65.6111,-25.2049,2144.7634],[-65.6075,-25.2014,2254.1968],[-65.6058,-25.1955,2064.0818],[-65.602,-25.191,1954.927],[-65.5909,-25.1856,2212.4492],[-65.5764,-25.1736,2137.7781],[-65.5735,-25.1772,1994.0203],[-65.5683,-25.1945,1875.6339],[-65.5649,-25.1992,1767.0826],[-65.5555,-25.2067,1610.6898],[-65.5431,-25.2095,1394.8873],[-65.5308,-25.2075,1368.3162],[-65.5071,-25.1993,1226.4944],[-65.4826,-25.1937,1146.0892],[-65.4588,-25.1862,1093.6927],[-65.4462,-25.1857,1092.2224],[-65.4345,-25.1899,1032.0],[-65.4282,-25.1896,1032.0],[-65.4226,-25.187,1065.8871],[-65.4111,-25.1732,1131.6213],[-65.4051,-25.173,1082.5188],[-65.3932,-25.1769,1176.4473],[-65.3846,-25.1852,1262.562],[-65.3816,-25.2077,1262.905],[-65.3718,-25.2146,1346.3534],[-65.3531,-25.2173,1292.2908],[-65.3027,-25.2174,1527.7776],[-65.2791,-25.2117,1914.2731],[-65.2824,-25.1956,2114.5493],[-65.2814,-25.1842,2045.4233],[-65.2751,-25.1741,2016.8467],[-65.27,-25.1707,1899.3278],[-65.2656,-25.1646,1921.5859],[-65.2838,-25.16,1825.0625],[-65.2996,-25.1504,1817.2456],[-65.3171,-25.1339,1806.6582],[-65.3322,-25.1236,1595.0435],[-65.3396,-25.1144,1583.6772],[-65.3449,-25.1112,1383.5376],[-65.3561,-25.0973,1186.3179],[-65.3706,-25.0863,1197.0598],[-65.3818,-25.0724,1127.0654],[-65.3867,-25.0688,1096.7946],[-65.3925,-25.067,1089.2721],[-65.3985,-25.0773,1072.8318],[-65.4029,-25.0813,1090.4878],[-65.4089,-25.0807,1097.8413],[-65.4242,-25.0705,1116.7449],[-65.442,-25.0647,1116.8248],[-65.4745,-25.0471,1161.895],[-65.4869,-25.0471,1166.4779],[-65.4988,-25.0509,1174.1589],[-65.505,-25.0497,1179.6853],[-65.5146,-25.0423,1196.0293],[-65.5259,-25.0371,1211.9294],[-65.5608,-25.024,1261.6191],[-65.567,-25.0227,1269.6533],[-65.5793,-25.025,1288.3621],[-65.6105,-25.022,1349.4978],[-65.6394,-25.0335,1477.4309],[-65.6517,-25.0355,1549.6072],[-65.6749,-25.0445,1649.1824],[-65.6873,-25.0466,1903.0753],[-65.6945,-25.056,2332.9878],[-65.7068,-25.0825,2989.0029],[-65.7114,-25.0863,3207.5349],[-65.7232,-25.0895,3148.4875],[-65.732,-25.098,2881.5093],[-65.7378,-25.0999,2908.5376],[-65.744,-25.099,2810.8718],[-65.7495,-25.0959,2839.8892],[-65.7643,-25.0775,2983.4897],[-65.7748,-25.0712,3188.8613],[-65.7999,-25.0698,3607.6282],[-65.8438,-25.0738,4632.3037],[-65.85,-25.0737,4997.9023],[-65.8566,-25.0711,4926.6445],[-65.8545,-25.08,4825.9785],[-65.8417,-25.1126,4638.7842],[-65.8422,-25.1181,4334.5059],[-65.8506,-25.1266,3992.812],[-65.8741,-25.135,3610.8103],[-65.8846,-25.1493,3548.9131],[-65.8857,-25.155,3511.3784],[-65.8849,-25.1606,3582.9324],[-65.8793,-25.1709,3571.6797],[-65.8661,-25.1821,3393.4429]]]]}
,"properties": {"GID_2": "ARG.17.6_1","GID_0": "ARG","country": "Argentina","GID_1": "ARG.17_1","state": "Salta","NL_NAME_1": "NA","county": "Chicoana","VARNAME_2": "NA","NL_NAME_2": "NA","TYPE_2": "Departamento","ENGTYPE_2": "Department","CC_2": "NA","HASC_2": "AR.SA.CH","name": "Chicoana.county","area_km2": 980.1035,"hist_schema_id": "Elevation0-9000","hist_area_km2": {"1025": 8.3667,"1050": 18.81,"1075": 30.2537,"1100": 33.2868,"1125": 38.0689,"1150": 33.2704,"1175": 26.8579,"1200": 25.3413,"1225": 26.5899,"1250": 24.7671,"1275": 23.5767,"1300": 18.8902,"1325": 14.5698,"1350": 10.4222,"1375": 9.77,"1400": 10.5575,"1425": 10.9225,"1450": 11.4414,"1475": 11.2883,"1500": 11.7681,"1525": 10.8079,"1550": 10.2891,"1575": 9.368,"1600": 9.8664,"1625": 9.8854,"1650": 8.8104,"1675": 9.5589,"1700": 9.3283,"1725": 8.7907,"1750": 9.5778,"1775": 8.9056,"1800": 8.9824,"1825": 9.174,"1850": 8.4448,"1875": 8.6749,"1900": 8.6747,"1925": 9.1158,"1950": 9.1926,"1975": 9.4034,"2000": 9.0387,"2025": 9.0004,"2050": 9.0767,"2075": 8.4818,"2100": 8.098,"2125": 8.0404,"2150": 8.5583,"2175": 7.6565,"2200": 7.5601,"2225": 8.6539,"2250": 8.7113,"2275": 10.917,"2300": 9.4397,"2325": 9.6697,"2350": 8.5562,"2375": 7.0983,"2400": 7.9039,"2425": 7.9421,"2450": 6.9828,"2475": 7.3664,"2500": 7.8267,"2525": 7.443,"2550": 7.1554,"2575": 7.0018,"2600": 6.8678,"2625": 7.5774,"2650": 8.2104,"2675": 7.3665,"2700": 7.5582,"2725": 7.3092,"2750": 7.9616,"2775": 6.7149,"2800": 7.425,"2825": 7.2904,"2850": 7.54,"2875": 5.9476,"2900": 5.0654,"2925": 5.2958,"2950": 4.9312,"2975": 4.4136,"3000": 4.3561,"3025": 3.6655,"3050": 3.3393,"3075": 3.1282,"3100": 3.5122,"3125": 2.9559,"3150": 3.1478,"3175": 3.0328,"3200": 2.5913,"3225": 2.4378,"3250": 2.3419,"3275": 2.0924,"3300": 2.3419,"3325": 1.8427,"3350": 1.7468,"3375": 1.8618,"3400": 1.8234,"3425": 2.0347,"3450": 1.881,"3475": 1.8811,"3500": 1.7467,"3525": 1.7467,"3550": 2.2073,"3575": 2.3416,"3600": 1.9962,"3625": 1.7851,"3650": 1.5356,"3675": 1.8235,"3700": 1.9195,"3725": 1.4589,"3750": 1.4013,"3775": 0.8063,"3800": 0.8447,"3825": 0.8063,"3850": 0.672,"3875": 0.8447,"3900": 0.8063,"3925": 0.7103,"3950": 0.5951,"3975": 0.7103,"4000": 0.7103,"4025": 0.6527,"4050": 0.7871,"4075": 0.5759,"4100": 0.9407,"4125": 0.8447,"4150": 0.7103,"4175": 0.7103,"4200": 0.6335,"4225": 0.7104,"4250": 0.5759,"4275": 0.6336,"4300": 0.9407,"4325": 0.5952,"4350": 0.4992,"4375": 0.7296,"4400": 0.48,"4425": 0.4416,"4450": 0.7104,"4475": 0.4992,"4500": 0.3456,"4525": 0.3648,"4550": 0.4416,"4575": 0.4224,"4600": 0.3456,"4625": 0.5184,"4650": 0.4032,"4675": 0.4416,"4700": 0.3648,"4725": 0.3264,"4750": 0.3072,"4775": 0.384,"4800": 0.48,"4825": 0.3072,"4850": 0.1152,"4875": 0.1344,"4900": 0.1344,"4925": 0.1152,"4950": 0.0768,"4975": 0.1344,"5000": 0.0768,"5025": 0.1152,"5050": 0.1344,"5075": 0.096,"5100": 0.0384}}}