{"type":"Feature","properties":{"GID_2":"ARG.11.9_1","GID_0":"ARG","country":"Argentina","GID_1":"ARG.11_1","state":"LaPampa","NL_NAME_1":"NA","county":"Curacó","VARNAME_2":"Puelches|CuraCo","NL_NAME_2":"NA","TYPE_2":"Departamento","ENGTYPE_2":"Department","CC_2":"NA","HASC_2":"AR.LP.CU","name":"Curacó.county"},
"geometry":{"type": "MultiPolygon","coordinates": [[[[-67.0886,-38.3838,250.8095],[-67.0755,-38.3951,244.1242],[-67.0627,-38.4013,249.1757],[-67.0481,-38.4133,231.9092],[-67.012,-38.4251,233.4962],[-66.9917,-38.4426,235.485],[-66.9707,-38.4445,230.7115],[-66.9583,-38.4514,229.8447],[-66.9402,-38.4546,228.8085],[-66.9315,-38.4542,228.275],[-66.9202,-38.4463,227.7003],[-66.9077,-38.4453,224.8314],[-66.8986,-38.4464,226.9519],[-66.8941,-38.4486,232.3967],[-66.8891,-38.4578,227.1331],[-66.8853,-38.4614,224.0005],[-66.8661,-38.4686,225.7922],[-66.8538,-38.4756,222.8986],[-66.8328,-38.4763,221.1446],[-66.8103,-38.483,221.4021],[-66.7893,-38.4832,222.9752],[-66.7564,-38.4955,231.4961],[-66.7427,-38.5083,222.5294],[-66.7355,-38.5122,222.3009],[-66.7177,-38.5157,230.5],[-66.7021,-38.5229,236.4674],[-66.684,-38.5237,234.6451],[-66.6674,-38.5294,227.6867],[-66.6404,-38.5321,243.6856],[-66.621,-38.5471,223.5289],[-66.6037,-38.5524,239.6642],[-66.5996,-38.5605,226.2884],[-66.5931,-38.594,215.984],[-66.5791,-38.6154,216.2164],[-66.5763,-38.6241,220.3698],[-66.5785,-38.631,223.9546],[-66.5893,-38.6512,231.5601],[-66.5892,-38.6557,235.8759],[-66.5849,-38.6627,247.4483],[-66.5871,-38.666,231.9037],[-66.5967,-38.6695,212.5385],[-66.5972,-38.6725,210.7034],[-66.5775,-38.6852,210.3883],[-66.5724,-38.694,211.0853],[-66.5459,-38.6973,229.355],[-66.5368,-38.7101,206.9581],[-66.5319,-38.7112,208.7785],[-66.5193,-38.7089,217.8047],[-66.5082,-38.7125,208.1121],[-66.4963,-38.7126,229.4843],[-66.4795,-38.7262,206.6542],[-66.4777,-38.734,202.8027],[-66.4748,-38.7354,204.4658],[-66.4618,-38.733,202.16309999999999],[-66.4541,-38.7371,201.795],[-66.4425,-38.7394,204.5806],[-66.4374,-38.7462,199.8918],[-66.4311,-38.7455,200.3306],[-66.426,-38.742,201.8143],[-66.417,-38.7444,198.5],[-66.4133,-38.7417,201.7132],[-66.4098,-38.7344,201.345],[-66.3981,-38.7408,198.7645],[-66.3873,-38.7361,226.4903],[-66.3846,-38.7363,216.1464],[-66.3767,-38.7404,203.663],[-66.3593,-38.7446,197.5157],[-66.3447,-38.7528,199.2973],[-66.3324,-38.7538,195.5],[-66.3256,-38.7495,196.285],[-66.3152,-38.7552,197.0744],[-66.3108,-38.7537,194.1875],[-66.3051,-38.7472,196.0581],[-66.2867,-38.7542,194.3251],[-66.2695,-38.7494,194.609],[-66.2575,-38.748,194.9048],[-66.2146,-38.7303,193.9135],[-66.1973,-38.7346,192.3329],[-66.176,-38.7338,190.7666],[-66.1663,-38.7399,190.6764],[-66.1594,-38.7331,190.4295],[-66.1321,-38.7328,188.2881],[-66.1088,-38.7407,188.3954],[-66.1048,-38.7367,186.7331],[-66.1037,-38.7313,186.227],[-66.0891,-38.731,187.1267],[-66.0744,-38.7259,201.6739],[-66.0704,-38.73,193.2237],[-66.0662,-38.7449,185.0616],[-66.0588,-38.7491,185.3575],[-66.0559,-38.7495,184.1645],[-66.0485,-38.7456,183.4793],[-66.0402,-38.7496,185.0757],[-66.0359,-38.7479,183.4458],[-66.0325,-38.7427,183.0724],[-66.0289,-38.7432,184.4636],[-66.0233,-38.7507,182.7184],[-66.0203,-38.7502,183.6232],[-66.0169,-38.742,183.1117],[-66.0128,-38.7422,185.2723],[-65.9995,-38.7494,183.6286],[-65.9826,-38.7442,182.948],[-65.9518,-38.7437,184.511],[-65.9471,-38.7456,182.9216],[-65.9441,-38.7528,178.5],[-65.9361,-38.7565,181.8114],[-65.9347,-38.7609,181.3233],[-65.9354,-38.7689,178.0],[-65.9328,-38.771,180.3591],[-65.9202,-38.7685,179.5965],[-65.9128,-38.7731,178.3356],[-65.9038,-38.7663,178.583],[-65.8983,-38.7801,176.4394],[-65.8952,-38.7814,177.8263],[-65.8818,-38.7785,178.2595],[-65.8658,-38.7791,178.5767],[-65.8642,-38.7848,178.8414],[-65.866,-38.7903,176.5936],[-65.864,-38.7931,176.494],[-65.854,-38.7926,177.8395],[-65.8473,-38.7984,177.4459],[-65.8441,-38.7986,176.564],[-65.837,-38.7918,175.3543],[-65.8331,-38.7927,175.0081],[-65.8232,-38.8027,176.2691],[-65.8076,-38.8016,174.0382],[-65.804,-38.8046,172.3906],[-65.8013,-38.8125,178.6724],[-65.7976,-38.8133,183.0668],[-65.7866,-38.8077,172.4398],[-65.7656,-38.8057,173.4085],[-65.7566,-38.8118,171.6539],[-65.7322,-38.8108,172.5067],[-65.7132,-38.8177,170.4562],[-65.7005,-38.8166,167.4647],[-65.6962,-38.8186,171.387],[-65.6927,-38.8258,169.3347],[-65.6906,-38.8272,169.2441],[-65.6626,-38.8305,167.9912],[-65.6457,-38.1849,272.7861],[-65.6378,-37.6811,227.411],[-66.5282,-37.7009,296.6137],[-67.0961,-37.7108,357.4777],[-67.0886,-38.3838,250.8095]]]]}}