{"type": "Feature","bbox": [-65.0426,-27.7467,-64.4374,-27.1459],"geometry": {"type": "MultiPolygon","coordinates": [[[[-64.6168,-27.3015,286.877],[-64.63,-27.2895,291.5869],[-64.6555,-27.2601,303.8359],[-64.6877,-27.2388,300.8],[-64.7071,-27.2302,295.6699],[-64.7309,-27.2308,310.8833],[-64.746,-27.2277,324.7781],[-64.7512,-27.2247,330.6645],[-64.7626,-27.21,344.8726],[-64.7759,-27.1747,353.6686],[-64.8009,-27.1459,369.6105],[-64.8016,-27.1483,370.4949],[-64.8072,-27.1463,373.8491],[-64.8131,-27.1507,386.5497],[-64.84,-27.2266,394.9721],[-64.8463,-27.2257,387.0942],[-64.8758,-27.3112,313.9286],[-64.9402,-27.3319,327.4712],[-64.9467,-27.3479,320.6119],[-64.9944,-27.3363,296.0408],[-65.0054,-27.3724,288.6203],[-65.0165,-27.4192,281.9129],[-65.0408,-27.4874,274.4802],[-65.031,-27.4951,273.3211],[-65.0234,-27.5044,272.9868],[-65.0138,-27.5065,272.0],[-65.002,-27.5013,272.0],[-64.9743,-27.5201,272.0],[-64.9669,-27.5532,272.0],[-64.9778,-27.5707,272.0],[-64.9855,-27.5741,272.0],[-64.9926,-27.5712,272.0],[-65.0009,-27.5643,272.0],[-65.0118,-27.5611,272.0],[-65.0188,-27.5634,272.0],[-65.0133,-27.5728,272.0],[-65.0168,-27.5766,272.0],[-65.0302,-27.5739,272.0],[-65.0426,-27.5895,272.0],[-64.9659,-27.7467,350.1317],[-64.959,-27.7446,355.417],[-64.9596,-27.7354,350.8362],[-64.9067,-27.7175,334.3589],[-64.904,-27.727,337.692],[-64.8939,-27.7268,338.5289],[-64.8099,-27.6726,421.6988],[-64.8169,-27.7112,456.063],[-64.7669,-27.7198,369.0452],[-64.7508,-27.6689,365.5995],[-64.6464,-27.6868,321.1133],[-64.6427,-27.6759,330.5284],[-64.6239,-27.6782,336.8605],[-64.6163,-27.6704,331.103],[-64.549,-27.683,303.7396],[-64.5199,-27.7133,252.2076],[-64.4374,-27.6157,224.586],[-64.4422,-27.6118,226.9123],[-64.4519,-27.6078,227.7258],[-64.4683,-27.5952,225.284],[-64.4852,-27.5597,217.9953],[-64.5133,-27.5304,218.0034],[-64.5227,-27.5187,220.5971],[-64.537,-27.5122,222.2845],[-64.5584,-27.5094,235.2819],[-64.568,-27.5051,236.6958],[-64.5842,-27.4923,238.393],[-64.5916,-27.4795,236.2445],[-64.6022,-27.4686,228.1129],[-64.612,-27.4646,235.9665],[-64.628,-27.4672,242.3213],[-64.6168,-27.3015,286.877]]]]}
,"properties": {"GID_2": "ARG.22.21_1","GID_0": "ARG","country": "Argentina","GID_1": "ARG.22_1","state": "SantiagodelEstero","NL_NAME_1": "NA","county": "RióHondo","VARNAME_2": "LasTermas","NL_NAME_2": "NA","TYPE_2": "Departamento","ENGTYPE_2": "Department","CC_2": "NA","HASC_2": "AR.SE.RH","name": "RióHondo.county","area_km2": 2160.088,"hist_schema_id": "Elevation0-9000","hist_area_km2": {"225": 63.132,"250": 257.357,"275": 625.438,"300": 551.658,"325": 368.225,"350": 174.785,"375": 77.428,"400": 36.34,"425": 3.905,"450": 1.821}}}