{"type": "Feature","bbox": [-67.1976,-34.672,-66.0575,-33.0899],"geometry": {"type": "MultiPolygon","coordinates": [[[[-66.6953,-34.672,381.2346],[-66.3449,-34.6674,480.7498],[-66.0575,-34.6666,451.2728],[-66.0593,-34.3682,490.4142],[-66.0581,-34.1523,541.1669],[-66.0626,-34.0229,584.351],[-66.1268,-33.4727,869.2149],[-66.1624,-33.1903,1122.1736],[-66.1679,-33.1324,1492.4708],[-66.1597,-33.1252,1367.3463],[-66.1598,-33.1213,1395.0245],[-66.1708,-33.1191,1433.7607],[-66.8094,-33.0899,669.368],[-67.1976,-33.1005,456.2321],[-67.1942,-33.1348,456.6529],[-67.1896,-33.1442,456.0891],[-67.183,-33.1528,455.9045],[-67.1809,-33.1628,455.9341],[-67.1888,-33.2029,455.8952],[-67.1865,-33.2437,457.6797],[-67.1837,-33.2483,457.7827],[-67.182,-33.2584,457.7633],[-67.1831,-33.2864,460.6275],[-67.1798,-33.2962,456.8619],[-67.1666,-33.3068,455.6713],[-67.1553,-33.3219,452.9236],[-67.1564,-33.3321,454.0349],[-67.1597,-33.3388,455.3996],[-67.1592,-33.3618,452.7571],[-67.1531,-33.376,452.1092],[-67.1552,-33.3861,456.344],[-67.1608,-33.3951,460.1704],[-67.1567,-33.402,459.7624],[-67.1563,-33.4326,457.2227],[-67.1407,-33.4546,456.7338],[-67.1354,-33.4664,455.2523],[-67.119,-33.4811,454.0392],[-67.1079,-33.5157,453.092],[-67.1033,-33.5252,452.7986],[-67.0961,-33.5333,448.7568],[-67.0874,-33.536,451.4446],[-67.0776,-33.5418,451.4025],[-67.0708,-33.5641,444.8062],[-67.0628,-33.575,448.3394],[-67.0476,-33.5875,446.6575],[-67.0188,-33.5958,448.3175],[-67.0114,-33.6038,449.1685],[-67.0112,-33.6166,439.5198],[-67.0059,-33.6254,441.6912],[-67.0082,-33.643,441.8299],[-67.0031,-33.6736,440.4745],[-67.003,-33.6889,438.7573],[-67.0001,-33.6934,438.2101],[-66.9764,-33.7131,438.3446],[-66.9308,-33.7339,444.5722],[-66.9,-33.7587,430.9011],[-66.8928,-33.7698,433.1204],[-66.8899,-33.7824,432.5173],[-66.8887,-33.8027,429.4988],[-66.8602,-33.8327,426.3745],[-66.8483,-33.8476,425.5225],[-66.8445,-33.8572,424.7289],[-66.8433,-33.8699,424.5088],[-66.8238,-33.8988,422.741],[-66.8145,-33.9054,423.0192],[-66.8086,-33.9064,421.383],[-66.79,-33.915,419.9778],[-66.7876,-33.9167,419.4778],[-66.7853,-33.9239,419.2545],[-66.782,-33.9285,418.7493],[-66.7683,-33.9336,415.4684],[-66.7592,-33.9336,417.1387],[-66.7428,-33.9452,417.1964],[-66.7399,-33.9496,417.0244],[-66.7393,-33.9598,415.3256],[-66.7411,-33.9671,415.2977],[-66.7267,-34.0024,412.5251],[-66.731,-34.0233,411.5896],[-66.7409,-34.0571,409.9821],[-66.7373,-34.0612,410.0234],[-66.737,-34.064,410.1442],[-66.7375,-34.0914,408.215],[-66.739,-34.0962,408.4951],[-66.7489,-34.1085,407.8172],[-66.7446,-34.1153,407.4469],[-66.7365,-34.1227,407.1343],[-66.7352,-34.1326,404.1875],[-66.7382,-34.1397,405.9967],[-66.7535,-34.1517,406.456],[-66.7559,-34.1591,405.8255],[-66.7477,-34.175,405.0529],[-66.7467,-34.1874,403.7361],[-66.7436,-34.1944,403.5374],[-66.7515,-34.2055,402.9622],[-66.7565,-34.2048,402.4437],[-66.7695,-34.1983,402.8356],[-66.7729,-34.1977,403.9929],[-66.7754,-34.199,405.1296],[-66.7782,-34.2036,401.3197],[-66.7765,-34.2111,402.749],[-66.7791,-34.216,402.3831],[-66.7813,-34.217,402.8093],[-66.7961,-34.2108,402.7716],[-66.7994,-34.2126,402.4276],[-66.8069,-34.2426,402.4384],[-66.8036,-34.252,400.7798],[-66.8051,-34.262,401.7108],[-66.8028,-34.282,399.6334],[-66.8037,-34.2843,399.6635],[-66.811,-34.2888,399.2412],[-66.8115,-34.291,399.8372],[-66.8091,-34.2985,398.3214],[-66.8036,-34.3073,392.08],[-66.8033,-34.315,391.0603],[-66.8082,-34.3241,397.7897],[-66.8171,-34.3307,397.2898],[-66.8044,-34.3446,394.8541],[-66.8009,-34.3571,396.1359],[-66.7897,-34.3545,395.1235],[-66.7848,-34.3606,394.1407],[-66.7855,-34.368,394.308],[-66.7898,-34.3717,389.8599],[-66.7873,-34.3818,394.6465],[-66.7883,-34.3836,394.586],[-66.7975,-34.3857,393.8461],[-66.8062,-34.3845,396.3401],[-66.8072,-34.3892,395.8329],[-66.804,-34.3964,394.1427],[-66.7785,-34.4141,390.9211],[-66.7726,-34.4256,387.3432],[-66.7717,-34.433,389.9151],[-66.7783,-34.4574,391.5939],[-66.7723,-34.4792,389.1293],[-66.7764,-34.5015,389.2391],[-66.7757,-34.514,389.2819],[-66.7738,-34.5213,389.0405],[-66.7637,-34.5394,384.7624],[-66.7574,-34.5551,384.2604],[-66.753,-34.5707,383.4424],[-66.7513,-34.5856,384.4245],[-66.7335,-34.6117,387.1337],[-66.7265,-34.6281,385.9946],[-66.7194,-34.6362,384.3223],[-66.7045,-34.6486,380.8389],[-66.6953,-34.672,381.2346]]]]}
,"properties": {"GID_2": "ARG.19.8_1","GID_0": "ARG","country": "Argentina","GID_1": "ARG.19_1","state": "SanLuis","NL_NAME_1": "NA","county": "LaCapital","VARNAME_2": "SanLuis","NL_NAME_2": "NA","TYPE_2": "Departamento","ENGTYPE_2": "Department","CC_2": "NA","HASC_2": "AR.SL.LC","name": "LaCapital.county","area_km2": 13283.74,"hist_schema_id": "Elevation0-9000","hist_area_km2": {"375": 142.73,"400": 998.35,"425": 931.76,"450": 861.1,"475": 1340.54,"500": 976.55,"525": 918.19,"550": 998.18,"575": 1037.16,"600": 1060.55,"625": 938.77,"650": 735.94,"675": 568.69,"700": 496.78,"725": 375.23,"750": 195.86,"775": 136.43,"800": 89.05,"825": 73.75,"850": 61.14,"875": 49.01,"900": 51.03,"925": 40.04,"950": 37.37,"975": 20.55,"1000": 14.05,"1025": 11.64,"1050": 8.82,"1075": 7.43,"1100": 6.74,"1125": 6.33,"1150": 6.14,"1175": 5.68,"1200": 5.04,"1225": 4.49,"1250": 3.82,"1275": 3.41,"1300": 3.39,"1325": 3.03,"1350": 2.61,"1375": 2.79,"1400": 2.73,"1425": 2.63,"1450": 2.72,"1475": 3.27,"1500": 3.39,"1525": 2.88,"1550": 3.41,"1575": 2.52,"1600": 2.73,"1625": 2.36,"1650": 2.09,"1675": 2.09,"1700": 1.72,"1725": 1.63,"1750": 1.31,"1775": 1.17,"1800": 1.19,"1825": 1.05,"1850": 1.22,"1875": 1.56,"1900": 1.3,"1925": 1.01,"1950": 1.26,"1975": 1.17,"2000": 0.99,"2025": 1.07,"2050": 0.98,"2075": 0.76,"2100": 0.8,"2125": 0.3,"2150": 0.25}}}