{"type": "Feature","bbox": [-63.1272,-36.7272,-62.6103,-36.246],"geometry": {"type": "MultiPolygon","coordinates": [[[[-62.6103,-36.5685,116.9528],[-62.6379,-36.4937,114.1017],[-62.8129,-36.3544,107.3747],[-62.8114,-36.3515,107.21],[-62.9398,-36.246,107.4581],[-62.9797,-36.2791,110.7607],[-62.9582,-36.2959,106.5196],[-63.0005,-36.3296,107.9823],[-63.0037,-36.3282,108.6853],[-63.0423,-36.3601,112.6325],[-63.0293,-36.3717,112.0766],[-63.067,-36.4031,113.0528],[-63.0478,-36.4165,113.1547],[-63.1272,-36.4794,116.5809],[-62.9409,-36.6324,120.5032],[-62.9348,-36.6253,120.5208],[-62.8102,-36.7272,122.2597],[-62.7323,-36.6611,122.7372],[-62.6103,-36.5685,116.9528]]]]}
,"properties": {"GID_2": "ARG.1.123_1","GID_0": "ARG","country": "Argentina","GID_1": "ARG.1_1","state": "BuenosAires","NL_NAME_1": "NA","county": "TresLomas","VARNAME_2": "NA","NL_NAME_2": "NA","TYPE_2": "Partido","ENGTYPE_2": "Part","CC_2": "NA","HASC_2": "AR.BA.TL","name": "TresLomas.county","area_km2": 1238.8591,"hist_schema_id": "Elevation0-9000","hist_area_km2": {"100": 293.2329,"125": 945.5922,"150": 0.034}}}