{"type": "Feature","bbox": [-66.5014,-30.5266,-65.4137,-29.8271],"geometry": {"type": "MultiPolygon","coordinates": [[[[-65.5331,-29.8278,202.3931],[-65.7008,-29.8271,256.625],[-66.4303,-30.0243,336.2161],[-66.4976,-30.2342,496.1557],[-66.5014,-30.264,818.5322],[-66.4976,-30.2762,831.5115],[-66.4756,-30.3046,831.834],[-66.4637,-30.3415,829.7847],[-66.4539,-30.3563,988.7859],[-66.4468,-30.3767,1074.3491],[-66.4289,-30.4071,1196.6975],[-66.4147,-30.439,1421.1794],[-66.4061,-30.4634,1447.0077],[-66.3949,-30.4824,1458.9849],[-66.3759,-30.5021,1398.6753],[-66.3715,-30.5112,1518.7173],[-66.2324,-30.5266,479.0065],[-65.9976,-30.3936,328.8808],[-65.4962,-30.371,193.459],[-65.4137,-30.1224,185.1929],[-65.4389,-30.0606,186.0147],[-65.4593,-30.0026,187.4279],[-65.4913,-29.9234,191.2454],[-65.5331,-29.8278,202.3931]]]]}
,"properties": {"GID_2": "ARG.12.4_1","GID_0": "ARG","country": "Argentina","GID_1": "ARG.12_1","state": "LaRioja","NL_NAME_1": "NA","county": "Chamical","VARNAME_2": "GobernadorGordillo","NL_NAME_2": "NA","TYPE_2": "Departamento","ENGTYPE_2": "Department","CC_2": "NA","HASC_2": "AR.LR.CM","name": "Chamical.county","area_km2": 5561.139,"hist_schema_id": "Elevation0-9000","hist_area_km2": {"175": 165.435,"200": 1343.608,"225": 407.516,"250": 360.052,"275": 509.399,"300": 461.377,"325": 551.286,"350": 387.44,"375": 333.789,"400": 287.751,"425": 210.113,"450": 147.718,"475": 105.77,"500": 76.612,"525": 46.509,"550": 29.688,"575": 20.749,"600": 14.04,"625": 9.306,"650": 7.186,"675": 5.505,"700": 4.683,"725": 4.372,"750": 4.976,"775": 4.519,"800": 5.086,"825": 4.537,"850": 2.981,"875": 2.925,"900": 2.706,"925": 2.56,"950": 2.194,"975": 2.395,"1000": 2.048,"1025": 1.7,"1050": 1.919,"1075": 1.81,"1100": 1.389,"1125": 1.59,"1150": 1.609,"1175": 1.7,"1200": 1.901,"1225": 1.865,"1250": 2.705,"1275": 2.266,"1300": 2.558,"1325": 2.284,"1350": 2.394,"1375": 1.974,"1400": 1.498,"1425": 1.298,"1450": 1.078,"1475": 0.512,"1500": 0.164}}}