{"type": "Feature","bbox": [-65.2613,-24.3735,-64.9946,-24.0267],"geometry": {"type": "MultiPolygon","coordinates": [[[[-65.2243,-24.2729,1144.2823],[-65.205,-24.2817,1107.2329],[-65.1804,-24.2832,1072.2346],[-65.1658,-24.2933,1045.3577],[-65.1518,-24.3084,1006.5737],[-65.1381,-24.3189,999.9122],[-65.1238,-24.3347,976.4147],[-65.1077,-24.3367,944.5491],[-65.0768,-24.3455,889.9283],[-65.038,-24.3692,857.892],[-65.0278,-24.3724,864.1304],[-65.0135,-24.3735,878.064],[-65.0066,-24.3717,862.3854],[-64.9946,-24.3652,878.4858],[-65.0436,-24.2955,1010.0128],[-65.0467,-24.2826,1189.6177],[-65.0464,-24.2695,1335.1202],[-65.0479,-24.263,1367.9994],[-65.0539,-24.2475,1706.3716],[-65.0568,-24.2346,1882.7565],[-65.0666,-24.217,1899.1793],[-65.07,-24.2077,1939.7894],[-65.0791,-24.149,1867.3271],[-65.0794,-24.1358,1854.9996],[-65.0595,-24.0796,1173.5007],[-65.0555,-24.0467,872.6313],[-65.0561,-24.0404,875.9032],[-65.0693,-24.0271,973.1489],[-65.0822,-24.0267,1036.3046],[-65.0882,-24.0305,1133.7124],[-65.1053,-24.0516,1356.582],[-65.1082,-24.0611,1359.0636],[-65.112,-24.0667,1225.2111],[-65.1234,-24.0746,1253.478],[-65.144,-24.0801,1297.5327],[-65.1724,-24.0765,1335.4457],[-65.1754,-24.0779,1309.866],[-65.1832,-24.0889,1220.4686],[-65.1968,-24.0927,1335.1664],[-65.2085,-24.1053,1293.2413],[-65.2154,-24.1076,1420.6053],[-65.2205,-24.1123,1362.4978],[-65.2235,-24.1183,1401.3438],[-65.1962,-24.1332,1461.1604],[-65.1976,-24.1462,1457.3329],[-65.1959,-24.1591,1446.5992],[-65.2068,-24.1724,1278.5415],[-65.2071,-24.1754,1266.1499],[-65.2009,-24.191,1246.869],[-65.2008,-24.2042,1186.8979],[-65.2107,-24.2001,1186.9778],[-65.2321,-24.1985,1196.328],[-65.2455,-24.203,1196.5627],[-65.2613,-24.2155,1183.9628],[-65.2462,-24.2253,1172.217],[-65.2077,-24.256,1113.1355],[-65.2243,-24.2729,1144.2823]]]]}
,"properties": {"GID_2": "ARG.10.6_1","GID_0": "ARG","country": "Argentina","GID_1": "ARG.10_1","state": "Jujuy","NL_NAME_1": "NA","county": "Palpalá","VARNAME_2": "NA","NL_NAME_2": "NA","TYPE_2": "Departamento","ENGTYPE_2": "Department","CC_2": "NA","HASC_2": "AR.JY.PA","name": "Palpalá.county","area_km2": 460.7242,"hist_schema_id": "Elevation0-9000","hist_area_km2": {"800": 1.2168,"825": 1.9121,"850": 6.1808,"875": 9.5817,"900": 10.3566,"925": 11.7883,"950": 13.5684,"975": 14.1295,"1000": 14.7478,"1025": 18.8654,"1050": 22.8685,"1075": 25.1318,"1100": 23.2579,"1125": 21.2508,"1150": 19.0687,"1175": 19.4759,"1200": 17.0607,"1225": 17.914,"1250": 18.8821,"1275": 18.1271,"1300": 16.7342,"1325": 15.516,"1350": 13.678,"1375": 10.7177,"1400": 9.2857,"1425": 7.9123,"1450": 6.0548,"1475": 5.9194,"1500": 4.991,"1525": 4.9521,"1550": 4.101,"1575": 3.9848,"1600": 3.4434,"1625": 3.3274,"1650": 2.8436,"1675": 3.0564,"1700": 3.308,"1725": 3.9077,"1750": 4.1594,"1775": 3.3661,"1800": 3.4436,"1825": 3.25,"1850": 2.0115,"1875": 1.6633,"1900": 1.9147,"1925": 1.6439,"1950": 1.76,"1975": 1.5471,"2000": 1.7212,"2025": 1.3731,"2050": 1.1991,"2075": 0.8703,"2100": 0.7736,"2125": 0.4642,"2150": 0.2321,"2175": 0.0193,"2200": 0.0387,"2225": 0.058,"2250": 0.0387,"2275": 0.0193,"2300": 0.0387}}}