{"type":"Feature","properties":{"GID_2":"ARG.23.1_1","GID_0":"ARG","country":"Argentina","GID_1":"ARG.23_1","state":"TierradelFuego","NL_NAME_1":"NA","county":"RióGrande","VARNAME_2":"NA","NL_NAME_2":"NA","TYPE_2":"Departamento","ENGTYPE_2":"Department","CC_2":"NA","HASC_2":"AR.TF.RG","name":"RióGrande.county"},
"geometry":{"type": "MultiPolygon","coordinates": [[[[-68.6081,-54.4174,777.1743],[-68.6071,-54.5088,58.195],[-68.6081,-54.5086,58.195],[-68.6063,-54.5546,30.6644],[-68.0739,-54.5578,25.0],[-67.2426,-54.5582,72.7938],[-66.6914,-54.5554,172.3528],[-66.6802,-54.5504,169.7476],[-66.6706,-54.5498,165.0776],[-66.6512,-54.5509,122.9166],[-66.649,-54.5557,142.5165],[-66.6445,-54.5567,129.6584],[-66.6397,-54.556399999999996,124.2684],[-66.6337,-54.5517,110.468],[-66.6272,-54.5549,107.3141],[-66.6056,-54.5487,97.8474],[-66.594,-54.5437,176.1089],[-66.5843,-54.5434,131.2719],[-66.5769,-54.5405,171.3057],[-66.5434,-54.5391,107.8331],[-66.5276,-54.5439,73.1617],[-66.5097,-54.5466,61.7182],[-66.505,-54.5421,64.1896],[-66.4785,-54.5385,46.9318],[-66.4616,-54.5335,63.2393],[-66.4425,-54.5344,48.5397],[-66.4342,-54.5375,36.9029],[-66.4214,-54.5341,31.4647],[-66.4137,-54.5303,28.6206],[-66.4112,-54.5343,35.3062],[-66.4055,-54.5368,74.0111],[-66.3942,-54.5279,35.1494],[-66.3731,-54.5215,20.7496],[-66.3683,-54.5208,20.8507],[-66.3539,-54.527,39.735],[-66.3496,-54.5244,29.6184],[-66.3473,-54.5189,22.5042],[-66.3434,-54.5174,16.2339],[-66.3157,-54.5199,11.2989],[-66.2982,-54.5153,6.8173],[-66.2975,-54.5101,16.0827],[-66.3608,-54.5018,14.3172],[-66.3803,-54.4943,27.9775],[-66.3836,-54.4915,0.0],[-66.3831,-54.4871,1.0563],[-66.4008,-54.4849,2.9861],[-66.4014,-54.4863,18.877],[-66.4086,-54.4871,5.0656],[-66.4192,-54.484,5.3841],[-66.4231,-54.4793,0.0],[-66.4586,-54.4804,2.8876],[-66.4697,-54.4774,3.2887],[-66.4736,-54.4721,0.0],[-66.4825,-54.4699,18.5863],[-66.4908,-54.4596,0.0],[-66.4897,-54.4549,0.0],[-66.4808,-54.4526,8.2824],[-66.4797,-54.4504,1.4715],[-66.4981,-54.4474,1.2104],[-66.5369,-54.4304,10.7517],[-66.5508,-54.4212,0.0],[-66.5575,-54.4143,0.0],[-66.5581,-54.4043,5.3012],[-66.5519,-54.4026,0.9478],[-66.5964,-54.3829,0.5985],[-66.6281,-54.3646,12.9783],[-66.6358,-54.3579,37.8914],[-66.6347,-54.3568,0.0],[-66.6608,-54.3435,4.9022],[-66.6858,-54.3174,0.0],[-66.6997,-54.3051,2.7987],[-66.7014,-54.2988,3.5493],[-66.7031,-54.2962,1.8545],[-66.7058,-54.2954,4.5983],[-66.7047,-54.2896,0.0],[-66.6964,-54.2887,0.0],[-66.6919,-54.2863,0.0],[-66.6914,-54.2832,18.4557],[-66.6997,-54.2821,8.5783],[-66.7069,-54.2832,19.1811],[-66.7125,-54.281,0.0],[-66.7264,-54.279,0.9802],[-66.7369,-54.2751,10.0439],[-66.7431,-54.266,0.0],[-66.7436,-54.2618,2.7718],[-66.7358,-54.2624,6.8604],[-66.7347,-54.2607,4.0092],[-66.7364,-54.2593,0.0],[-66.7419,-54.259,0.0],[-66.7447,-54.2604,0.0],[-66.7464,-54.259,12.2957],[-66.7442,-54.2568,3.2661],[-66.7469,-54.2549,15.5729],[-66.7636,-54.2515,62.7092],[-66.7675,-54.2479,0.0],[-66.7731,-54.2479,21.8434],[-66.7775,-54.2446,23.2629],[-66.7853,-54.2451,59.3134],[-66.8253,-54.2329,0.0],[-66.8619,-54.2238,12.0803],[-66.8964,-54.2187,3.1978],[-66.9292,-54.201,0.7829],[-66.9464,-54.1957,5.7928],[-66.9503,-54.191,41.002],[-66.9486,-54.1879,19.0347],[-66.9519,-54.1829,0.0],[-66.9614,-54.1782,13.0877],[-67.0008,-54.1657,11.9943],[-67.0036,-54.1615,72.2233],[-67.0097,-54.161,19.2553],[-67.0158,-54.1571,54.3529],[-67.0247,-54.156,18.2133],[-67.0286,-54.1529,9.7818],[-67.0381,-54.1507,28.0405],[-67.0531,-54.1437,42.3362],[-67.0708,-54.141,68.4693],[-67.0747,-54.1379,13.9157],[-67.0747,-54.136,2.2707],[-67.0819,-54.1343,16.4172],[-67.0808,-54.1321,0.0],[-67.0819,-54.1315,3.6257],[-67.0919,-54.1296,0.1452],[-67.0931,-54.1321,27.4803],[-67.0986,-54.1324,32.0417],[-67.1303,-54.1285,12.826599999999999],[-67.1575,-54.1157,1.2751],[-67.1586,-54.1124,18.7598],[-67.1653,-54.1126,14.5997],[-67.1831,-54.104,2.9477],[-67.2064,-54.0968,14.9272],[-67.2286,-54.0874,0.0],[-67.2508,-54.0812,6.0978],[-67.2792,-54.0643,0.0],[-67.2847,-54.0635,55.8851],[-67.2869,-54.0576,11.1869],[-67.3131,-54.0507,17.3404],[-67.3219,-54.0465,40.6485],[-67.3358,-54.0379,0.3854],[-67.3436,-54.0282,14.1489],[-67.3408,-54.0262,0.0],[-67.3442,-54.0246,4.3309],[-67.3431,-54.0187,4.1355],[-67.3331,-54.0187,0.0],[-67.3336,-54.0157,0.0],[-67.3386,-54.0143,0.0],[-67.3408,-54.0151,4.8553],[-67.3475,-54.0118,0.0],[-67.3508,-54.0118,2.471],[-67.3581,-54.0068,2.967],[-67.3753,-53.9999,1.2101],[-67.4281,-53.9879,1.6672],[-67.4381,-53.984,3.6281],[-67.4453,-53.9799,3.7984],[-67.4669,-53.9618,3.2454],[-67.4719,-53.954,0.0],[-67.4869,-53.9435,1.0302],[-67.5114,-53.9385,1.0256],[-67.5203,-53.9351,6.4895],[-67.5364,-53.9265,6.715],[-67.5553,-53.9115,7.3383],[-67.5719,-53.8913,4.3868],[-67.5775,-53.8774,6.1896],[-67.5792,-53.8626,3.4831],[-67.5747,-53.854,0.0],[-67.5692,-53.849,0.0],[-67.5631,-53.8476,3.6443],[-67.5419,-53.8485,0.0],[-67.5414,-53.8435,5.1194],[-67.5492,-53.839,0.0],[-67.5864,-53.8312,1.1386],[-67.5942,-53.8282,6.2186],[-67.6603,-53.7982,6.5999],[-67.6753,-53.7874,0.0],[-67.6781,-53.7899,0.8147],[-67.6736,-53.7949,2.7154],[-67.6736,-53.8004,5.8878],[-67.6781,-53.804,3.4418],[-67.6892,-53.8071,1.1187],[-67.7047,-53.8054,0.0],[-67.7164,-53.8063,1.6578],[-67.7186,-53.8082,3.4832],[-67.7319,-53.8118,3.5883],[-67.7431,-53.8207,3.8683],[-67.7564,-53.8232,1.6922],[-67.7653,-53.834,7.4755],[-67.7747,-53.8357,0.0],[-67.7792,-53.834,0.7606],[-67.7803,-53.831,0.0],[-67.7769,-53.8254,2.5812],[-67.7719,-53.8254,1.5243],[-67.7719,-53.8276,1.1417],[-67.7758,-53.8301,0.0],[-67.7753,-53.8315,1.3542],[-67.7686,-53.8321,0.0],[-67.7631,-53.8235,3.4049],[-67.7469,-53.8171,1.2755],[-67.7386,-53.8068,2.2949],[-67.7253,-53.8029,3.8999],[-67.7164,-53.7979,4.5365],[-67.7086,-53.7974,3.8633],[-67.6969,-53.8018,0.2056],[-67.6886,-53.8018,2.2028],[-67.6808,-53.7979,2.9904],[-67.6908,-53.7904,6.28],[-67.6908,-53.7843,3.1886],[-67.6981,-53.7782,2.2058],[-67.7042,-53.7679,0.0],[-67.7169,-53.7621,3.4325],[-67.7253,-53.7537,0.0],[-67.7342,-53.7479,0.0],[-67.7764,-53.7318,2.8715],[-67.7875,-53.7254,5.4653],[-67.7975,-53.716,1.061],[-67.8292,-53.7032,5.0801],[-67.8347,-53.6976,0.0],[-67.8375,-53.6907,0.0],[-67.8558,-53.6829,0.8793],[-67.8931,-53.6637,4.3115],[-67.9175,-53.649,1.4027],[-67.9542,-53.6201,4.4939],[-67.9703,-53.6004,0.2392],[-67.9819,-53.5929,2.0135],[-67.9903,-53.5846,3.1707],[-68.0008,-53.5735,0.0],[-68.0036,-53.5674,0.0],[-68.0242,-53.5424,1.033],[-68.0353,-53.5243,0.0],[-68.0508,-53.4938,5.6335],[-68.0636,-53.4596,2.336],[-68.0736,-53.4199,2.4542],[-68.0758,-53.4021,0.0],[-68.0792,-53.3974,3.8539],[-68.0831,-53.3857,0.0],[-68.0914,-53.3768,2.4542],[-68.1014,-53.3593,0.0],[-68.1275,-53.3376,0.0],[-68.1403,-53.3285,0.0],[-68.1708,-53.3162,0.0],[-68.2053,-53.3071,3.1051],[-68.2169,-53.3071,-0.1857],[-68.2847,-53.316,0.0],[-68.3075,-53.3207,1.1272],[-68.3231,-53.3199,5.4977],[-68.3442,-53.3151,1.1024],[-68.3547,-53.3143,3.1339],[-68.3719,-53.309,1.5203],[-68.3781,-53.3126,1.317],[-68.3842,-53.3126,0.0],[-68.3986,-53.3087,22.7508],[-68.4069,-53.3035,1.9955],[-68.4131,-53.3032,28.9282],[-68.4281,-53.2979,0.0],[-68.4386,-53.3004,2.6289],[-68.4547,-53.2971,2.7012],[-68.4681,-53.2915,2.516],[-68.4842,-53.2751,0.0],[-68.4975,-53.271,0.0],[-68.5114,-53.2549,0.0],[-68.5103,-53.251,0.0],[-68.5053,-53.2465,0.0],[-68.5147,-53.2443,0.0],[-68.5186,-53.2401,0.0],[-68.5181,-53.2276,0.0],[-68.5242,-53.2146,0.0],[-68.5236,-53.2118,0.0],[-68.5175,-53.2096,0.0],[-68.5214,-53.2057,0.0],[-68.5164,-53.2051,0.0],[-68.5153,-53.2035,0.0],[-68.5136,-53.1937,0.0],[-68.5119,-53.1918,0.0],[-68.5108,-53.1762,0.0],[-68.4958,-53.1646,0.0],[-68.4825,-53.1579,0.0],[-68.4386,-53.149,0.0],[-68.4264,-53.1449,0.0],[-68.4114,-53.1354,0.0],[-68.4086,-53.1321,0.0],[-68.4092,-53.1287,0.0],[-68.4036,-53.1296,0.0],[-68.3981,-53.126,0.0],[-68.3981,-53.1229,0.0],[-68.3936,-53.1226,0.0],[-68.3931,-53.1204,0.0],[-68.3958,-53.1182,0.0],[-68.3953,-53.1168,0.0],[-68.3892,-53.1188,0.0],[-68.3858,-53.1179,0.0],[-68.3819,-53.1154,0.0],[-68.3831,-53.1135,0.0],[-68.3814,-53.1118,0.0],[-68.3836,-53.1093,0.0],[-68.3742,-53.1101,0.0],[-68.3697,-53.1065,0.0],[-68.3719,-53.104,0.0],[-68.3653,-53.1035,0.0],[-68.3653,-53.1004,0.0],[-68.3686,-53.0976,0.0],[-68.3625,-53.0988,0.0],[-68.3642,-53.0962,0.0],[-68.3625,-53.0962,0.0],[-68.3542,-53.0988,0.0],[-68.3503,-53.0954,0.0],[-68.3514,-53.094,0.0],[-68.3464,-53.0943,0.0],[-68.3458,-53.0929,0.0],[-68.3392,-53.0918,0.0],[-68.3386,-53.0907,0.0],[-68.3414,-53.0879,0.0],[-68.3469,-53.0854,0.0],[-68.3336,-53.0874,0.0],[-68.3392,-53.081,0.0],[-68.3281,-53.0851,0.0],[-68.3253,-53.0832,0.0],[-68.3175,-53.0818,0.0],[-68.3181,-53.0793,0.0],[-68.3231,-53.0762,0.0],[-68.3119,-53.0782,0.0],[-68.3164,-53.0754,0.0],[-68.3175,-53.0724,0.0],[-68.3064,-53.0743,0.0],[-68.3103,-53.0715,0.0],[-68.3108,-53.0685,0.0],[-68.2992,-53.0713,0.0],[-68.2992,-53.0687,0.0],[-68.3064,-53.0626,0.0],[-68.3031,-53.061,0.0],[-68.3053,-53.0582,0.0],[-68.2958,-53.0629,0.0],[-68.2858,-53.0649,0.0],[-68.2869,-53.0621,0.0],[-68.2919,-53.0582,0.0],[-68.2908,-53.0571,0.0],[-68.2925,-53.0546,0.0],[-68.2792,-53.0601,0.0],[-68.2836,-53.0518,0.0],[-68.2792,-53.051,0.0],[-68.2803,-53.0482,0.0],[-68.2792,-53.0482,0.0],[-68.2647,-53.0624,0.0],[-68.2631,-53.0624,0.0],[-68.2631,-53.0607,0.0],[-68.2669,-53.0568,0.0],[-68.2636,-53.0568,0.0],[-68.2569,-53.0629,0.0],[-68.2514,-53.0643,2.3317],[-68.2464,-53.0687,2.5928],[-68.2364,-53.0826,2.4785],[-68.2119,-53.1246,2.2708],[-68.2114,-53.1312,0.6888],[-68.2125,-53.141,4.6505],[-68.2153,-53.1471,0.0],[-68.2147,-53.1526,3.3319],[-68.2119,-53.1535,0.0],[-68.2042,-53.1465,0.0],[-68.2008,-53.1429,0.0],[-68.2008,-53.1399,0.0],[-68.2203,-53.1057,0.0],[-68.2292,-53.0932,3.5089],[-68.2442,-53.0646,5.7458],[-68.2469,-53.0526,0.0],[-68.2486,-53.0512,5.9982],[-68.2503,-53.0399,5.8365],[-68.2603,-53.0101,2.0949],[-68.2592,-53.006,0.0],[-68.2625,-53.0032,2.5228],[-68.2658,-52.9915,3.0369],[-68.2697,-52.9863,4.1952],[-68.2758,-52.9696,10.461],[-68.2853,-52.9549,45.5579],[-68.3036,-52.9354,0.0],[-68.3208,-52.9226,15.9909],[-68.3364,-52.9068,0.0],[-68.3736,-52.8771,0.5533],[-68.3742,-52.8751,0.9901],[-68.3919,-52.8613,5.0139],[-68.3936,-52.8582,1.3161],[-68.4164,-52.8413,13.8837],[-68.4408,-52.8196,22.4662],[-68.4714,-52.789,10.7454],[-68.4903,-52.774,15.3122],[-68.5003,-52.7637,2.5641],[-68.5419,-52.7279,15.7833],[-68.6106,-52.6535,11.1363],[-68.6067,-52.659,32.6054],[-68.6061,-53.4034,166.5894],[-68.6081,-54.4174,777.1743]]],
[[[-68.6108,-52.6532,11.1363],[-68.6114,-52.6521,1.0478],[-68.6124,-52.6518,13.357],[-68.6116,-52.6525,1.0478],[-68.6108,-52.6532,11.1363]]],
[[[-68.6129,-52.6512,2.8635],[-68.6128,-52.6513,13.357],[-68.6125,-52.6517,13.357],[-68.6125,-52.6512,2.8635],[-68.6129,-52.6512,2.8635]]],
[[[-68.6131,-52.6507,2.8635],[-68.6134,-52.6507,2.8635],[-68.6131,-52.6511,2.8635],[-68.6131,-52.6507,2.8635]]],
[[[-68.6137,-52.6504,2.8635],[-68.6136,-52.6505,2.8635],[-68.6136,-52.6504,2.8635],[-68.6137,-52.6504,2.8635]]],
[[[-68.6498,-52.6319,0.0],[-68.6497,-52.6318,0.0],[-68.6499,-52.6318,0.0],[-68.6498,-52.6319,0.0]]],
[[[-68.6503,-52.6315,0.0],[-68.6508,-52.6315,0.0],[-68.6503,-52.6317,0.0],[-68.6503,-52.6315,0.0]]],
[[[-68.6508,-52.6315,0.0],[-68.6508,-52.6312,0.0],[-68.6513,-52.6312,0.0],[-68.651,-52.6315,0.0],[-68.6508,-52.6315,0.0]]],
[[[-68.6514,-52.6312,0.0],[-68.6514,-52.631,0.0],[-68.6516,-52.631,0.0],[-68.6514,-52.6312,0.0]]],
[[[-68.6519,-52.6307,0.0],[-68.6521,-52.6307,0.0],[-68.6519,-52.6308,0.0],[-68.6519,-52.6307,0.0]]],
[[[-68.6526,-52.6305,0.0],[-68.6525,-52.6304,0.0],[-68.6526,-52.6304,0.0],[-68.6526,-52.6305,0.0]]],
[[[-68.6581,-52.6282,5.6173],[-68.6582,-52.6282,5.6173],[-68.6581,-52.6283,5.6173],[-68.6581,-52.6282,5.6173]]],
[[[-68.6608,-52.6269,4.0651],[-68.6608,-52.6268,4.0651],[-68.661,-52.6268,4.0651],[-68.6608,-52.6269,4.0651]]],
[[[-68.6655,-52.6246,1.5195],[-68.6653,-52.6247,1.5195],[-68.6653,-52.6246,1.5195],[-68.6655,-52.6246,1.5195]]],
[[[-68.6658,-52.6244,0.0],[-68.6658,-52.6243,0.0],[-68.6659,-52.6243,1.122],[-68.6658,-52.6244,0.0]]],
[[[-68.6675,-52.6232,1.122],[-68.6678,-52.6232,1.122],[-68.6675,-52.6234,1.122],[-68.6675,-52.6232,1.122]]],
[[[-68.6682,-52.623,5.8067],[-68.6681,-52.6229,0.627],[-68.6684,-52.6229,0.627],[-68.6682,-52.623,5.8067]]],
[[[-68.6692,-52.6224,0.627],[-68.6708,-52.6215,6.442],[-68.6697,-52.6229,0.627],[-68.6686,-52.6229,0.627],[-68.6692,-52.6224,0.627]]],
[[[-68.6708,-52.6215,6.442],[-68.6708,-52.6212,0.4405],[-68.6712,-52.6212,0.4405],[-68.6708,-52.6215,6.442]]],
[[[-68.6718,-52.621,0.4405],[-68.6717,-52.6211,0.4405],[-68.6714,-52.6212,0.4405],[-68.6714,-52.621,0.4405],[-68.6718,-52.621,0.4405]]],
[[[-68.6723,-52.6208,0.4405],[-68.6719,-52.621,0.4405],[-68.6719,-52.6207,0.4405],[-68.6723,-52.6208,0.4405]]],
[[[-68.6725,-52.6204,0.4405],[-68.6725,-52.6201,0.4405],[-68.6728,-52.6201,0.4405],[-68.6725,-52.6204,0.4405]]],
[[[-68.681,-52.6149,6.5055],[-68.6808,-52.6151,6.5055],[-68.6808,-52.6149,6.5055],[-68.681,-52.6149,6.5055]]],
[[[-68.6822,-52.614,0.4077],[-68.6819,-52.6141,0.4077],[-68.6819,-52.614,0.4077],[-68.6822,-52.614,0.4077]]],
[[[-68.6881,-52.6101,0.308],[-68.6883,-52.6101,0.308],[-68.6881,-52.6106,0.308],[-68.6881,-52.6101,0.308]]],
[[[-68.6886,-52.6096,5.3068],[-68.6889,-52.6096,5.3068],[-68.6886,-52.6098,5.3068],[-68.6886,-52.6096,5.3068]]],
[[[-68.6925,-52.6074,0.0],[-68.6929,-52.6074,6.1853],[-68.6925,-52.6075,0.0],[-68.6925,-52.6074,0.0]]],
[[[-68.6934,-52.6071,6.1853],[-68.6931,-52.6068,6.1853],[-68.6939,-52.6065,6.1853],[-68.6935,-52.6071,6.1853],[-68.6934,-52.6071,6.1853]]],
[[[-68.6969,-52.6039,0.7853],[-68.6969,-52.6037,0.7853],[-68.6972,-52.6037,0.7853],[-68.6969,-52.6039,0.7853]]],
[[[-68.6976,-52.6035,0.7853],[-68.6975,-52.6036,0.7853],[-68.6975,-52.6035,0.7853],[-68.6976,-52.6035,0.7853]]],
[[[-68.6999,-52.6017,0.924],[-68.6999,-52.6021,0.924],[-68.6997,-52.6021,0.924],[-68.6997,-52.6015,0.924],[-68.6999,-52.6017,0.924]]],
[[[-68.7016,-52.6006,1.2339],[-68.7011,-52.6009,1.2339],[-68.7008,-52.601,0.0],[-68.7008,-52.6007,0.0],[-68.7016,-52.6006,1.2339]]],
[[[-68.7021,-52.5999,1.2339],[-68.7019,-52.6002,1.2339],[-68.7019,-52.5999,1.2339],[-68.7021,-52.5999,1.2339]]],
[[[-68.7031,-52.5989,3.2248],[-68.7036,-52.5985,3.2248],[-68.704,-52.5985,3.2248],[-68.7038,-52.5988,3.2248],[-68.7031,-52.5989,3.2248]]],
[[[-68.7047,-52.5974,0.0],[-68.7051,-52.5974,4.313],[-68.7047,-52.5976,0.0],[-68.7047,-52.5974,0.0]]],
[[[-68.7055,-52.5968,4.313],[-68.7053,-52.5972,4.313],[-68.7053,-52.5968,4.313],[-68.7055,-52.5968,4.313]]],
[[[-68.707,-52.5962,0.5211],[-68.7064,-52.596,0.5211],[-68.7074,-52.5954,0.5211],[-68.7072,-52.5958,0.5211],[-68.707,-52.5962,0.5211]]],
[[[-68.7077,-52.5949,0.5211],[-68.7076,-52.595,0.5211],[-68.7075,-52.5952,0.5211],[-68.7075,-52.5949,0.5211],[-68.7077,-52.5949,0.5211]]],
[[[-68.7081,-52.5943,0.0],[-68.7086,-52.5943,0.0],[-68.7081,-52.5946,0.5211],[-68.7081,-52.5943,0.0]]],
[[[-68.709,-52.5938,0.0],[-68.7088,-52.5941,0.0],[-68.7086,-52.5943,0.0],[-68.7086,-52.5937,0.0],[-68.709,-52.5938,0.0]]],
[[[-68.7097,-52.5932,1.9703],[-68.7095,-52.5934,1.9703],[-68.7092,-52.5936,1.9703],[-68.7092,-52.5932,1.9703],[-68.7097,-52.5932,1.9703]]],
[[[-68.7098,-52.5931,1.9703],[-68.7097,-52.5926,0.0],[-68.71,-52.5926,0.0],[-68.7098,-52.5931,1.9703]]],
[[[-68.7108,-52.5913,0.0],[-68.7114,-52.5912,0.8986],[-68.7108,-52.5916,0.0],[-68.7108,-52.5913,0.0]]],
[[[-68.7119,-52.5901,0.8986],[-68.712,-52.5901,0.8986],[-68.7119,-52.5902,0.8986],[-68.7119,-52.5901,0.8986]]],
[[[-68.7125,-52.5896,0.8986],[-68.7126,-52.5896,0.8986],[-68.7125,-52.5897,0.8986],[-68.7125,-52.5896,0.8986]]],
[[[-68.7131,-52.5892,0.0],[-68.7131,-52.589,0.0],[-68.7134,-52.589,3.614],[-68.7133,-52.5891,3.614],[-68.7131,-52.5892,0.0]]],
[[[-68.7138,-52.5887,3.614],[-68.7136,-52.5882,3.614],[-68.7145,-52.5876,0.0],[-68.7143,-52.5881,3.614],[-68.7138,-52.5887,3.614]]],
[[[-68.7147,-52.5868,0.0],[-68.7166,-52.5849,2.067],[-68.7164,-52.5857,2.067],[-68.7154,-52.5867,6.9391],[-68.7147,-52.5873,0.0],[-68.7147,-52.5868,0.0]]],
[[[-68.7181,-52.5834,4.5336],[-68.7181,-52.5829,0.9731],[-68.7184,-52.5829,0.9731],[-68.7182,-52.5831,4.5336],[-68.7181,-52.5834,4.5336]]],
[[[-68.7186,-52.5827,0.9731],[-68.7186,-52.5824,0.9731],[-68.719,-52.5824,0.9731],[-68.7189,-52.5825,0.9731],[-68.7186,-52.5827,0.9731]]],
[[[-68.7197,-52.5819,0.9731],[-68.7192,-52.5822,0.9731],[-68.7201,-52.5812,0.0],[-68.7201,-52.5816,0.9731],[-68.7197,-52.5819,0.9731]]],
[[[-68.7174,-52.5843,4.5336],[-68.7169,-52.5847,2.067],[-68.71756,-52.58398,4.5336],[-68.7174,-52.5843,4.5336]]],
[[[-68.71756,-52.58398,4.5336],[-68.7176,-52.5839,4.5336],[-68.718,-52.5835,4.5336],[-68.71756,-52.58398,4.5336]]],
[[[-68.7203,-52.5807,0.0],[-68.7205,-52.5807,0.0],[-68.7203,-52.581,0.0],[-68.7203,-52.5807,0.0]]],
[[[-68.7209,-52.5802,0.0],[-68.7208,-52.5802,0.0],[-68.7208,-52.5801,0.0],[-68.7209,-52.5802,0.0]]],
[[[-68.7219,-52.5785,0.6021],[-68.7223,-52.5788,0.6021],[-68.7219,-52.5791,0.6021],[-68.7219,-52.5785,0.6021]]],
[[[-68.7228,-52.5778,0.0],[-68.7225,-52.5779,0.0],[-68.7225,-52.5776,0.0],[-68.7228,-52.5778,0.0]]],
[[[-68.7364,-52.5604,0.505],[-68.7386,-52.5585,2.7071],[-68.7231,-52.5776,0.0],[-68.7247,-52.5743,0.0],[-68.7364,-52.5604,0.505]]],
[[[-68.7397,-52.5577,0.0],[-68.7386,-52.5584,2.7071],[-68.7392,-52.5574,0.0],[-68.7428,-52.5546,1.1488],[-68.7426,-52.5551,1.1488],[-68.7397,-52.5577,0.0]]],
[[[-68.7431,-52.554,0.0],[-68.7433,-52.554,0.0],[-68.7431,-52.5543,0.0],[-68.7431,-52.554,0.0]]],
[[[-68.7447,-52.5526,0.0],[-68.7449,-52.5526,0.0],[-68.7447,-52.5528,0.0],[-68.7447,-52.5526,0.0]]],
[[[-68.7485,-52.5499,4.8862],[-68.7481,-52.5501,0.4015],[-68.7481,-52.5499,0.4015],[-68.7485,-52.5499,4.8862]]],
[[[-68.7458,-52.5521,0.0],[-68.7455,-52.5524,0.0],[-68.7453,-52.5525,0.0],[-68.7453,-52.5521,0.0],[-68.7458,-52.5521,0.0]]],
[[[-68.7458,-52.5521,0.0],[-68.7461,-52.5518,0.0],[-68.7459,-52.552,0.0],[-68.7458,-52.5521,0.0]]],
[[[-68.7486,-52.5498,4.8862],[-68.7486,-52.5493,0.7697],[-68.7491,-52.5493,0.7697],[-68.7488,-52.5496,4.8862],[-68.7486,-52.5498,4.8862]]],
[[[-68.7492,-52.5492,0.7697],[-68.7492,-52.549,0.7697],[-68.7493,-52.549,0.7697],[-68.7493,-52.5491,0.7697],[-68.7492,-52.5492,0.7697]]],
[[[-68.7499,-52.5485,0.7697],[-68.7498,-52.5486,0.7697],[-68.7497,-52.5486,0.7697],[-68.7497,-52.5485,0.7697],[-68.7499,-52.5485,0.7697]]],
[[[-68.7708,-52.5424,0.0],[-68.7736,-52.544,1.6307],[-68.7647,-52.5426,0.0],[-68.7669,-52.5421,0.0],[-68.7708,-52.5424,0.0]]],
[[[-68.7735,-52.5451,2.3612],[-68.7742,-52.5443,1.6307],[-68.7734,-52.5462,2.3612],[-68.7733,-52.5459,2.3612],[-68.7735,-52.5451,2.3612]]],
[[[-68.7597,-52.5435,0.3696],[-68.7639,-52.5426,0.0],[-68.7514,-52.5476,0.5346],[-68.7553,-52.5449,0.0],[-68.7597,-52.5435,0.3696]]],
[[[-68.7508,-52.5479,0.5346],[-68.7506,-52.548,4.6718],[-68.7503,-52.5482,4.6718],[-68.7503,-52.5479,0.5346],[-68.7508,-52.5479,0.5346]]],
[[[-68.7513,-52.5477,0.5346],[-68.7511,-52.5477,0.5346],[-68.7508,-52.5479,0.5346],[-68.7508,-52.5476,0.5346],[-68.7513,-52.5477,0.5346]]]]}}