{"type":"Feature","properties":{"GID_2":"ARG.21.7_1","GID_0":"ARG","country":"Argentina","GID_1":"ARG.21_1","state":"SantaFe","NL_NAME_1":"NA","county":"GeneralObligado","VARNAME_2":"Reconquista","NL_NAME_2":"NA","TYPE_2":"Departamento","ENGTYPE_2":"Department","CC_2":"NA","HASC_2":"AR.SF.GO","name":"GeneralObligado.county"},
"geometry":{"type": "MultiPolygon","coordinates": [[[[-59.4123,-27.9991,56.1042],[-59.8096,-27.9987,57.8289],[-59.8054,-28.1056,56.9099],[-59.7791,-28.1039,59.9618],[-59.7797,-28.2762,58.5705],[-59.8776,-28.2771,57.5984],[-59.8757,-28.3522,56.5366],[-59.8458,-28.3906,54.0172],[-59.7994,-28.3903,53.657],[-59.8062,-28.4073,53.1562],[-59.8047,-28.4162,53.0672],[-59.8058,-28.4364,53.997],[-59.8036,-28.4451,54.8855],[-59.7892,-28.4754,54.6955],[-59.7981,-28.4939,56.0459],[-59.7992,-28.507,52.0201],[-59.8032,-28.5152,52.6088],[-59.814,-28.5297,51.6599],[-59.8126,-28.534,51.529],[-59.8087,-28.5368,51.4423],[-59.8086,-28.5411,51.3854],[-59.8188,-28.5606,51.1156],[-59.8151,-28.5689,50.724],[-59.8155,-28.5822,50.9311],[-59.8093,-28.5988,51.1703],[-59.8023,-28.6052,50.5497],[-59.8033,-28.6088,50.0369],[-59.813,-28.6087,55.5328],[-59.8173,-28.6112,52.5438],[-59.8178,-28.6153,50.9177],[-59.8109,-28.6217,49.5271],[-59.8131,-28.6256,49.3012],[-59.8111,-28.6341,49.8347],[-59.8027,-28.6386,49.9336],[-59.7965,-28.6455,49.1127],[-59.7876,-28.6495,49.8266],[-59.7842,-28.6527,49.654],[-59.7756,-28.6685,49.755],[-59.7787,-28.6768,49.255],[-59.7923,-28.6892,50.0346],[-59.793,-28.6936,51.0312],[-59.7934,-28.6978,50.1312],[-59.7792,-28.7022,52.549],[-59.7817,-28.7151,48.9448],[-59.788,-28.7217,49.0913],[-59.8006,-28.7287,49.8783],[-59.8022,-28.7419,48.8403],[-59.8001,-28.7458,48.1216],[-59.7962,-28.7483,48.9004],[-59.7865,-28.7511,52.6826],[-59.7817,-28.7633,47.7063],[-59.7745,-28.7694,47.8273],[-59.7705,-28.7822,47.3376],[-59.7611,-28.7978,47.9163],[-59.7601,-28.8022,47.7797],[-59.7564,-28.8052,47.4358],[-59.7546,-28.809,46.6989],[-59.7569,-28.8177,46.4881],[-59.7645,-28.8228,47.8608],[-59.7669,-28.8275,47.6858],[-59.9737,-28.8014,55.5258],[-59.9908,-28.8879,61.5032],[-60.0296,-28.8802,54.5944],[-60.0604,-29.0132,61.2633],[-60.0126,-29.0219,59.745],[-60.0151,-29.0376,58.9551],[-60.0033,-29.0396,58.4092],[-60.011,-29.0595,61.9985],[-60.0221,-29.0585,61.9959],[-60.0334,-29.1018,60.5244],[-60.0908,-29.092,60.6335],[-60.081,-29.1118,54.5841],[-60.0794,-29.1575,53.9714],[-60.0725,-29.1665,56.735],[-60.0645,-29.1735,55.6397],[-60.0461,-29.2045,57.0337],[-60.0415,-29.24,59.9735],[-60.0379,-29.2546,56.7567],[-60.0346,-29.2615,55.4182],[-60.0321,-29.2947,56.8619],[-60.0378,-29.3061,58.4611],[-60.0524,-29.3166,58.3804],[-60.0572,-29.3368,56.9402],[-60.0676,-29.3486,50.6693],[-60.0688,-29.361,51.9502],[-60.0782,-29.3715,50.3429],[-59.9637,-29.3896,53.7938],[-59.7981,-29.4043,43.1321],[-59.7979,-29.4171,43.4953],[-59.7921,-29.4289,39.2874],[-59.7875,-29.4339,35.3524],[-59.7594,-29.441,30.6588],[-59.7581,-29.4467,30.2621],[-59.7542,-29.4524,32.0702],[-59.741,-29.4546,29.4965],[-59.7409,-29.4673,29.2502],[-59.7377,-29.4733,28.8326],[-59.7315,-29.4759,28.5617],[-59.7024,-29.473,29.1267],[-59.6901,-29.4663,29.2266],[-59.6694,-29.4483,30.9836],[-59.6632,-29.4447,31.8775],[-59.6561,-29.4436,29.4655],[-59.6421,-29.4453,32.1316],[-59.6225,-29.4532,30.7499],[-59.5996,-29.459,30.5073],[-59.5953,-29.4438,32.4773],[-59.5955,-29.4386,28.1547],[-59.6043,-29.4216,26.5],[-59.6094,-29.4063,26.5],[-59.5971,-29.3763,26.5],[-59.5901,-29.3644,32.6264],[-59.5688,-29.3543,31.7034],[-59.5462,-29.3408,30.445],[-59.5375,-29.3334,33.6264],[-59.5269,-29.3204,32.7752],[-59.5089,-29.2838,28.3472],[-59.5025,-29.2416,27.0],[-59.4929,-29.2251,28.4275],[-59.488,-29.2218,27.5],[-59.4793,-29.2195,32.9937],[-59.44,-29.2192,28.9031],[-59.3991,-29.2099,33.816],[-59.3778,-29.1909,30.1435],[-59.3713,-29.1788,34.2025],[-59.3696,-29.1657,29.0],[-59.3547,-29.1457,29.0],[-59.3395,-29.1328,35.5266],[-59.3353,-29.1228,30.0093],[-59.3324,-29.1044,36.2421],[-59.327,-29.0981,35.3621],[-59.3195,-29.0936,35.3746],[-59.3136,-29.0922,35.2792],[-59.2773,-29.0912,29.5],[-59.2509,-29.0867,29.5],[-59.2271,-29.0753,35.5751],[-59.2185,-29.0678,41.1853],[-59.2122,-29.0587,31.5925],[-59.2075,-29.0489,29.5],[-59.1975,-29.0182,29.5],[-59.192,-28.9948,29.5],[-59.1894,-28.9603,34.7556],[-59.1861,-28.9392,37.1441],[-59.164,-28.8728,31.5],[-59.162,-28.8516,32.0],[-59.1657,-28.8332,35.7065],[-59.1601,-28.8126,39.337],[-59.1588,-28.802,36.9505],[-59.1612,-28.7783,43.3421],[-59.1546,-28.7695,33.5],[-59.14,-28.7603,33.5],[-59.1286,-28.7446,34.0],[-59.1227,-28.7295,34.0],[-59.1213,-28.7189,39.9359],[-59.1101,-28.7064,38.8348],[-59.1034,-28.7015,34.0],[-59.0974,-28.6727,40.1495],[-59.0879,-28.6624,34.0],[-59.0811,-28.6576,34.0],[-59.0771,-28.6447,38.484],[-59.08,-28.6373,37.1452],[-59.1039,-28.6213,34.0],[-59.1082,-28.6143,34.0],[-59.1095,-28.6064,34.0],[-59.1081,-28.5958,34.0],[-59.1002,-28.5815,34.0],[-59.0921,-28.5531,39.2658],[-59.0849,-28.5356,34.0],[-59.0602,-28.4954,34.0],[-59.0569,-28.483,39.3231],[-59.0593,-28.4754,37.8894],[-59.0722,-28.4574,34.5],[-59.0803,-28.4375,38.621],[-59.0807,-28.4269,35.0],[-59.0748,-28.4177,38.2593],[-59.0745,-28.4125,39.076],[-59.0752,-28.3991,36.0],[-59.0811,-28.373,36.7643],[-59.0834,-28.3681,39.9241],[-59.0945,-28.3556,44.0951],[-59.1002,-28.3434,36.125],[-59.098,-28.3142,36.5],[-59.0948,-28.2958,36.5],[-59.095,-28.2771,40.1444],[-59.1017,-28.2378,42.4197],[-59.0972,-28.2115,37.5],[-59.0915,-28.1965,37.5],[-59.0817,-28.1863,42.7519],[-59.0721,-28.18,38.8886],[-59.0685,-28.1757,40.6628],[-59.0669,-28.1706,39.5],[-59.0671,-28.1414,38.0],[-59.0601,-28.1299,38.0],[-59.0557,-28.1261,45.1122],[-59.0476,-28.1229,45.1259],[-59.0356,-28.1221,44.6742],[-59.0096,-28.1273,38.0],[-58.9812,-28.1191,49.3972],[-58.9692,-28.1188,41.9645],[-58.9514,-28.121,42.4792],[-58.9264,-28.112,38.875],[-58.9132,-28.1011,39.5],[-58.904,-28.0906,39.5],[-58.8906,-28.0698,40.0],[-58.8796,-28.0423,42.9664],[-58.8708,-28.0326,42.6572],[-58.8774,-28.0202,40.0],[-58.8808,-28.0073,44.7634],[-58.893,-27.9993,45.104],[-59.4123,-27.9991,56.1042]]]]}}