{"type": "Feature","bbox": [-59.0409,-34.9638,-58.6939,-34.6885],"geometry": {"type": "MultiPolygon","coordinates": [[[[-58.6939,-34.9141,13.5336],[-58.7634,-34.8606,21.1781],[-58.7508,-34.8495,19.0541],[-58.7745,-34.8309,17.8711],[-58.7698,-34.8296,17.7712],[-58.7562,-34.8301,16.8548],[-58.7499,-34.8276,15.9201],[-58.745,-34.828,15.6918],[-58.7397,-34.8259,15.3916],[-58.7345,-34.8203,14.9853],[-58.7203,-34.8208,14.3015],[-58.7078,-34.814,13.1059],[-58.7707,-34.7648,24.8606],[-58.83,-34.7278,27.2072],[-58.8645,-34.702,18.0],[-58.8647,-34.6974,18.0],[-58.8613,-34.6896,18.0],[-58.869,-34.6885,18.0],[-58.9021,-34.7006,19.1918],[-58.9089,-34.7016,19.921],[-58.9221,-34.7002,21.2898],[-58.9318,-34.7033,21.5732],[-58.9507,-34.7167,22.4389],[-58.9679,-34.7406,25.311],[-58.9978,-34.7616,24.9464],[-59.003,-34.764,25.15],[-59.0099,-34.7646,26.6586],[-59.0184,-34.7626,26.9563],[-59.0352,-34.7632,27.5719],[-59.04,-34.7681,28.687],[-59.0409,-34.7704,28.0527],[-59.0391,-34.7725,27.8775],[-58.9523,-34.8343,34.3426],[-58.9305,-34.8179,30.8661],[-58.9207,-34.8343,35.017],[-58.8453,-34.892,28.1722],[-58.8619,-34.907,31.8897],[-58.7922,-34.9605,20.0231],[-58.7819,-34.9632,19.606],[-58.7646,-34.9638,18.3428],[-58.7547,-34.9493,18.2583],[-58.7418,-34.9413,17.0328],[-58.7394,-34.9377,16.7153],[-58.7261,-34.9279,15.4995],[-58.6939,-34.9141,13.5336]]]]}
,"properties": {"GID_2": "ARG.1.76_1","GID_0": "ARG","country": "Argentina","GID_1": "ARG.1_1","state": "BuenosAires","NL_NAME_1": "NA","county": "MarcosPaz","VARNAME_2": "NA","NL_NAME_2": "NA","TYPE_2": "Partido","ENGTYPE_2": "Part","CC_2": "NA","HASC_2": "AR.BA.MP","name": "MarcosPaz.county","area_km2": 430.4303,"hist_schema_id": "Elevation0-9000","hist_area_km2": {"0": 0.4348,"25": 427.5586,"50": 2.4369}}}