{"type":"Feature","properties":{"GID_2":"ARG.1.77_1","GID_0":"ARG","country":"Argentina","GID_1":"ARG.1_1","state":"BuenosAires","NL_NAME_1":"NA","county":"Mercedes","VARNAME_2":"NA","NL_NAME_2":"NA","TYPE_2":"Partido","ENGTYPE_2":"Part","CC_2":"NA","HASC_2":"AR.BA.MD","name":"Mercedes.county"},
"geometry":{"type": "MultiPolygon","coordinates": [[[[-59.3449,-34.5146,42.2717],[-59.4786,-34.5828,38.2494],[-59.4864,-34.5758,38.4806],[-59.5081,-34.5861,44.0486],[-59.5241,-34.6003,46.8435],[-59.5706,-34.5627,45.4109],[-59.6336,-34.6163,48.6152],[-59.6753,-34.5848,50.428],[-59.7213,-34.6248,47.8103],[-59.6611,-34.6727,47.0457],[-59.6649,-34.6763,48.1385],[-59.6119,-34.7174,43.2142],[-59.6085,-34.7148,42.1655],[-59.5889,-34.7283,37.7374],[-59.5864,-34.7265,37.1703],[-59.5319,-34.7687,45.6078],[-59.5424,-34.7771,43.6977],[-59.5014,-34.811,42.6092],[-59.5196,-34.8245,43.4573],[-59.5165,-34.8275,43.38],[-59.5258,-34.8348,43.0459],[-59.4698,-34.8748,41.1642],[-59.4149,-34.8457,37.2627],[-59.3824,-34.8918,39.0153],[-59.3238,-34.8503,36.944],[-59.328,-34.8419,36.7457],[-59.2935,-34.8256,40.6483],[-59.284,-34.8391,40.0638],[-59.2413,-34.8157,41.7808],[-59.2411,-34.8123,41.4665],[-59.212,-34.7983,42.0782],[-59.1993,-34.8144,39.622],[-59.1757,-34.8029,38.0451],[-59.2621,-34.6905,40.1823],[-59.2462,-34.6813,39.6566],[-59.2855,-34.63,25.136],[-59.2708,-34.6221,24.6919],[-59.3449,-34.5146,42.2717]]]]}}