{"type": "Feature","bbox": [-59.9982,-38.7876,-59.2414,-38.0281],"geometry": {"type": "MultiPolygon","coordinates": [[[[-59.8367,-38.2356,128.69],[-59.8327,-38.242,123.7253],[-59.8334,-38.2457,124.7037],[-59.8318,-38.2488,123.8366],[-59.9404,-38.3314,114.9259],[-59.9982,-38.3733,115.0038],[-59.9449,-38.4137,93.0818],[-59.931399999999996,-38.3968,95.7032],[-59.8714,-38.4427,80.3117],[-59.9351,-38.4952,69.1423],[-59.8867,-38.5302,56.9497],[-59.8245,-38.4786,67.5963],[-59.7686,-38.5189,55.299],[-59.7312,-38.4896,58.1686],[-59.7268,-38.5065,55.5969],[-59.7309,-38.5249,51.02],[-59.7304,-38.536,49.0737],[-59.723,-38.5557,45.7957],[-59.72,-38.5582,45.1003],[-59.7189,-38.5636,44.6587],[-59.7155,-38.5667,43.6396],[-59.7143,-38.5757,43.1877],[-59.7111,-38.5786,42.9819],[-59.7134,-38.587,41.1747],[-59.7131,-38.5929,40.8961],[-59.6994,-38.614,37.3826],[-59.701,-38.6176,41.5864],[-59.698,-38.6239,35.7123],[-59.6938,-38.6268,34.71],[-59.6929,-38.63,34.2018],[-59.6904,-38.6459,32.425],[-59.6948,-38.6551,30.9016],[-59.6978,-38.6576,31.0387],[-59.6965,-38.6626,30.7178],[-59.6873,-38.6749,28.6476],[-59.6858,-38.6854,29.6183],[-59.6807,-38.6862,29.8095],[-59.6714,-38.695,26.3873],[-59.6586,-38.6993,22.9249],[-59.6527,-38.706,23.7099],[-59.6509,-38.7175,19.7658],[-59.6522,-38.7226,18.7366],[-59.6484,-38.7259,18.1288],[-59.6481,-38.7375,17.6709],[-59.6459,-38.7412,17.791],[-59.6267,-38.7446,13.496],[-59.6248,-38.7472,13.0],[-59.6234,-38.7524,14.0088],[-59.6255,-38.7591,13.5951],[-59.63,-38.7642,16.2329],[-59.6297,-38.7676,14.5956],[-59.6265,-38.771,13.5892],[-59.627,-38.7763,10.0835],[-59.6325,-38.7876,-1.7267],[-59.589,-38.781,0.1353],[-59.5651,-38.7757,0.4178],[-59.5404,-38.7743,0.5792],[-59.5135,-38.7676,0.6234],[-59.4685,-38.7626,4.3145],[-59.436,-38.7554,3.0814],[-59.4085,-38.7537,0.0],[-59.4012,-38.7515,0.0],[-59.3924,-38.7521,0.721],[-59.3882,-38.7465,0.0],[-59.3585,-38.7426,0.0],[-59.326,-38.7363,0.0],[-59.3371,-38.7264,8.3651],[-59.3509,-38.7095,30.9061],[-59.3635,-38.6968,15.3957],[-59.3637,-38.689,17.5223],[-59.3675,-38.6864,16.0573],[-59.3712,-38.6657,19.0049],[-59.3809,-38.6649,20.1143],[-59.3892,-38.6545,19.7716],[-59.3945,-38.6383,23.0824],[-59.4009,-38.6371,23.6584],[-59.4055,-38.6278,25.6892],[-59.4041,-38.6109,26.0102],[-59.4042,-38.6027,26.204],[-59.4056,-38.5997,25.8368],[-59.4107,-38.6032,26.0404],[-59.4167,-38.6019,26.8655],[-59.4226,-38.6058,26.7468],[-59.4241,-38.6109,27.3566],[-59.4306,-38.6096,27.3161],[-59.4306,-38.6047,27.839],[-59.4372,-38.6036,28.2426],[-59.4369,-38.6005,28.584],[-59.4424,-38.5912,30.0113],[-59.3575,-38.5635,32.032],[-59.3432,-38.5559,33.3589],[-59.3377,-38.5478,34.0313],[-59.3339,-38.5038,42.959],[-59.3479,-38.5039,42.8229],[-59.4064,-38.463,56.3794],[-59.3144,-38.3895,72.2543],[-59.3394,-38.3386,83.5254],[-59.3364,-38.3287,89.477],[-59.3424,-38.3215,99.2019],[-59.3511,-38.3148,103.4721],[-59.3551,-38.3075,96.3538],[-59.3231,-38.2607,112.7618],[-59.3075,-38.2106,121.976],[-59.2414,-38.1587,108.129],[-59.2454,-38.1538,103.6944],[-59.256,-38.1509,114.0726],[-59.289,-38.1488,116.6146],[-59.299,-38.1457,115.0664],[-59.3003,-38.1399,110.9461],[-59.3129,-38.1337,116.5864],[-59.357,-38.1194,121.5658],[-59.3771,-38.1172,124.1622],[-59.4064,-38.118899999999996,129.2838],[-59.4136,-38.1171,127.0776],[-59.4531,-38.101,132.2462],[-59.4695,-38.098,135.2132],[-59.4898,-38.0888,136.812],[-59.5049,-38.086,138.0186],[-59.5131,-38.0769,138.6918],[-59.5231,-38.0746,139.4037],[-59.5337,-38.0637,141.7643],[-59.5399,-38.0621,142.8038],[-59.5467,-38.0659,142.621],[-59.5574,-38.0615,144.1611],[-59.5735,-38.0601,145.2628],[-59.5761,-38.0564,145.7246],[-59.5905,-38.0544,147.2593],[-59.5914,-38.0508,147.8454],[-59.6091,-38.0473,150.0515],[-59.6242,-38.0481,151.4502],[-59.6307,-38.04,151.5597],[-59.6319,-38.0327,152.9053],[-59.6344,-38.0302,152.2197],[-59.6411,-38.0281,153.2729],[-59.7891,-38.1493,150.1724],[-59.7779,-38.1579,148.8464],[-59.7914,-38.1682,146.1288],[-59.7558,-38.1943,138.5192],[-59.7765,-38.2139,132.3788],[-59.794,-38.2002,140.9286],[-59.8367,-38.2356,128.69]]]]}
,"properties": {"GID_2": "ARG.1.107_1","GID_0": "ARG","country": "Argentina","GID_1": "ARG.1_1","state": "BuenosAires","NL_NAME_1": "NA","county": "SanCayetano","VARNAME_2": "NA","NL_NAME_2": "NA","TYPE_2": "Partido","ENGTYPE_2": "Part","CC_2": "NA","HASC_2": "AR.BA.SC","name": "SanCayetano.county","area_km2": 2990.586,"hist_schema_id": "Elevation0-9000","hist_area_km2": {"0": 47.306,"25": 523.511,"50": 416.745,"75": 486.132,"100": 525.515,"125": 650.677,"150": 338.731,"175": 1.969}}}