{"type":"Feature","properties":{"GID_2":"ARG.1.98_1","GID_0":"ARG","country":"Argentina","GID_1":"ARG.1_1","state":"BuenosAires","NL_NAME_1":"NA","county":"Rivadavia","VARNAME_2":"NA","NL_NAME_2":"NA","TYPE_2":"Partido","ENGTYPE_2":"Part","CC_2":"NA","HASC_2":"AR.BA.RI","name":"Rivadavia.county"},
"geometry":{"type": "MultiPolygon","coordinates": [[[[-62.8926,-35.2599,101.0],[-62.9622,-35.317,106.9047],[-63.1143,-35.1912,113.8605],[-63.0902,-35.1692,113.1587],[-63.1351,-35.1311,116.7407],[-63.2304,-35.2115,113.5623],[-63.2086,-35.2309,114.7137],[-63.2803,-35.2882,115.9146],[-63.3027,-35.271,116.6537],[-63.3435,-35.3047,116.6867],[-63.3265,-35.329,115.8143],[-63.3898,-35.3792,118.193],[-63.3882,-35.5767,116.0068],[-63.3885,-35.8839,111.1322],[-63.2031,-36.037,106.4409],[-62.9182,-35.8065,99.0997],[-62.9272,-35.7978,96.3902],[-62.6214,-35.5545,92.106],[-62.6933,-35.4948,95.9377],[-62.6857,-35.4883,95.8728],[-62.7825,-35.4095,102.1057],[-62.8041,-35.4261,102.0304],[-62.8679,-35.3717,104.412],[-62.8431,-35.3521,104.9512],[-62.8908,-35.311,105.6057],[-62.8613,-35.2862,105.8295],[-62.8926,-35.2599,101.0]]]]}}