{"type": "Feature","bbox": [-59.0583,-34.5827,-58.7367,-34.3195],"geometry": {"type": "MultiPolygon","coordinates": [[[[-58.9228,-34.387,8.2169],[-58.9234,-34.3938,11.8435],[-58.9273,-34.4059,4.6738],[-58.9255,-34.4107,4.9525],[-58.9252,-34.4199,11.4989],[-58.9838,-34.3521,21.9505],[-58.9952,-34.3585,26.4362],[-58.9905,-34.3656,24.4787],[-58.9921,-34.3769,22.4465],[-58.9971,-34.3786,25.403],[-58.9961,-34.3822,17.5089],[-59.033,-34.4022,28.7924],[-59.0292,-34.4074,23.729],[-59.0357,-34.4099,35.071],[-59.0334,-34.4136,28.8896],[-59.0421,-34.4181,26.2628],[-59.0356,-34.4281,27.4824],[-59.0583,-34.4372,29.7134],[-59.0165,-34.4945,10.395],[-59.0024,-34.4897,8.8376],[-58.9759,-34.5234,25.2607],[-58.9636,-34.5364,27.5717],[-58.9303,-34.521,30.7203],[-58.8871,-34.5827,33.6871],[-58.8688,-34.5726,33.1645],[-58.8489,-34.5563,38.1221],[-58.8415,-34.5445,27.3648],[-58.8399,-34.5381,25.9186],[-58.8308,-34.5272,24.8787],[-58.8254,-34.5152,22.5998],[-58.819,-34.5069,22.4583],[-58.8202,-34.502,19.945],[-58.815,-34.4983,21.0634],[-58.8118,-34.4918,18.7932],[-58.8128,-34.4828,16.5191],[-58.8151,-34.477,17.5535],[-58.8146,-34.4695,15.176],[-58.8218,-34.4603,17.5103],[-58.8203,-34.4496,13.468],[-58.8218,-34.4439,13.332],[-58.8205,-34.4412,12.1475],[-58.8221,-34.4395,11.6644],[-58.8228,-34.4289,9.8636],[-58.8208,-34.4233,11.2538],[-58.8184,-34.422,12.7569],[-58.7705,-34.4824,25.9884],[-58.7455,-34.4699,26.499],[-58.7475,-34.4675,26.5388],[-58.7367,-34.4617,27.6282],[-58.7744,-34.4107,17.8771],[-58.7904,-34.4047,7.2686],[-58.7915,-34.4085,9.2647],[-58.798,-34.417,16.724],[-58.8068,-34.4185,11.9137],[-58.816,-34.4233,13.4608],[-58.8373,-34.3943,20.5965],[-58.8428,-34.3958,21.2402],[-58.9029,-34.3195,2.8306],[-58.914,-34.3291,4.8737],[-58.9164,-34.3357,4.117],[-58.9151,-34.3473,4.2273],[-58.9078,-34.3697,3.8274],[-58.911,-34.3739,4.0031],[-58.9173,-34.3767,7.6796],[-58.9191,-34.3828,9.6292],[-58.9228,-34.387,8.2169]]]]}
,"properties": {"GID_2": "ARG.1.92_1","GID_0": "ARG","country": "Argentina","GID_1": "ARG.1_1","state": "BuenosAires","NL_NAME_1": "NA","county": "Pilar","VARNAME_2": "NA","NL_NAME_2": "NA","TYPE_2": "Partido","ENGTYPE_2": "Part","CC_2": "NA","HASC_2": "AR.BA.PX","name": "Pilar.county","area_km2": 377.9627,"hist_schema_id": "Elevation0-9000","hist_area_km2": {"0": 58.3149,"25": 317.9363,"50": 1.7115}}}