{"type": "Feature","bbox": [-68.2218,-42.0034,-66.8309,-39.811],"geometry": {"type": "MultiPolygon","coordinates": [[[[-66.8826,-42.0023,667.0714],[-66.8574,-41.0986,863.3864],[-66.8309,-39.9163,150.9535],[-67.8725,-39.811,560.3998],[-68.2218,-40.0749,813.9669],[-68.0058,-40.1561,761.0312],[-68.0511,-41.1791,875.5096],[-68.0816,-42.0034,1258.2821],[-67.4993,-41.9971,1230.9579],[-66.8826,-42.0023,667.0714]]]]}
,"properties": {"GID_2": "ARG.16.8_1","GID_0": "ARG","country": "Argentina","GID_1": "ARG.16_1","state": "RíoNegro","NL_NAME_1": "NA","county": "NuevedeJulio","VARNAME_2": "SierraColorada|9deJulio","NL_NAME_2": "NA","TYPE_2": "Departamento","ENGTYPE_2": "Department","CC_2": "NA","HASC_2": "AR.RN.NJ","name": "NuevedeJulio.county","area_km2": 23900.35,"hist_schema_id": "Elevation0-9000","hist_area_km2": {"150": 40.8,"175": 84.34,"200": 108.81,"225": 134.39,"250": 157.1,"275": 196.86,"300": 260.39,"325": 399.58,"350": 525.77,"375": 602.13,"400": 609.02,"425": 540.06,"450": 543.98,"475": 536.05,"500": 617.29,"525": 616.73,"550": 691.62,"575": 684.31,"600": 584.5,"625": 563.31,"650": 595.11,"675": 614.57,"700": 673.02,"725": 714.24,"750": 747.01,"775": 681.84,"800": 622.88,"825": 594.62,"850": 573.97,"875": 470.1,"900": 326.41,"925": 266.08,"950": 243.38,"975": 260.14,"1000": 322.66,"1025": 597.51,"1050": 804.56,"1075": 894.74,"1100": 1085.2,"1125": 1225.5,"1150": 964.17,"1175": 664.03,"1200": 465.49,"1225": 229.87,"1250": 155.01,"1275": 110.33,"1300": 126.01,"1325": 95.85,"1350": 93.46,"1375": 61.86,"1400": 46.8,"1425": 42.05,"1450": 22.02,"1475": 7.15,"1500": 3.14,"1525": 1.4,"1550": 0.67,"1575": 0.24}}}