{"type": "Feature","bbox": [-65.7721,-31.2696,-64.9216,-30.6566],"geometry": {"type": "MultiPolygon","coordinates": [[[[-65.6079,-30.6566,210.0665],[-65.7697,-31.0317,264.5917],[-65.7721,-31.2672,248.3593],[-64.9216,-31.2696,1542.4802],[-64.9321,-31.2214,1569.0153],[-64.9555,-31.1762,1362.7266],[-64.9566,-31.1542,1319.4663],[-64.9584,-31.1491,1274.8704],[-64.9818,-31.1303,1077.5612],[-64.9848,-31.1255,1045.558],[-64.989,-31.1151,1052.0454],[-64.9899,-31.0984,1024.4048],[-64.9927,-31.094,995.4088],[-65.0081,-31.0838,851.9323],[-65.0398,-31.0573,711.9775],[-65.09,-31.0729,673.1234],[-65.1166,-31.0419,652.0146],[-65.1343,-30.9893,606.1891],[-65.1434,-30.9748,584.701],[-65.1505,-30.9594,580.9158],[-65.1542,-30.9377,512.2723],[-65.1534,-30.9212,568.6674],[-65.1565,-30.8993,540.3978],[-65.1609,-30.8832,529.6923],[-65.1608,-30.8774,485.71],[-65.1728,-30.8761,463.5157],[-65.2113,-30.8773,472.9452],[-65.223,-30.8817,505.7001],[-65.2418,-30.8848,591.3345],[-65.3312,-30.8861,933.3412],[-65.3371,-30.8838,917.8593],[-65.3394,-30.8734,851.9884],[-65.3448,-30.8635,582.6013],[-65.3501,-30.8477,519.4491],[-65.3485,-30.8258,579.3851],[-65.3499,-30.8204,638.4936],[-65.3497,-30.8039,641.1293],[-65.3451,-30.7945,613.2977],[-65.3491,-30.7784,649.0905],[-65.3495,-30.7674,662.0944],[-65.3472,-30.7622,674.4935],[-65.3477,-30.757,632.2638],[-65.3506,-30.752,553.8546],[-65.349,-30.7412,467.0935],[-65.3509,-30.7302,463.8495],[-65.3528,-30.7251,508.1048],[-65.3575,-30.7212,418.0839],[-65.3598,-30.7161,480.5508],[-65.3736,-30.7048,387.6995],[-65.377,-30.6954,420.9191],[-65.6079,-30.6566,210.0665]]]]}
,"properties": {"GID_2": "ARG.6.10_1","GID_0": "ARG","country": "Argentina","GID_1": "ARG.6_1","state": "Córdoba","NL_NAME_1": "NA","county": "Minas","VARNAME_2": "SanCarlos","NL_NAME_2": "NA","TYPE_2": "Departamento","ENGTYPE_2": "Department","CC_2": "NA","HASC_2": "AR.CB.MI","name": "Minas.county","area_km2": 3588.773,"hist_schema_id": "Elevation0-9000","hist_area_km2": {"200": 243.763,"225": 955.659,"250": 536.613,"275": 79.508,"300": 41.838,"325": 25.274,"350": 18.437,"375": 15.696,"400": 16.101,"425": 16.94,"450": 15.318,"475": 18.375,"500": 25.43,"525": 23.082,"550": 25.207,"575": 23.585,"600": 26.491,"625": 28.832,"650": 40.204,"675": 50.259,"700": 58.513,"725": 72.339,"750": 73.436,"775": 80.758,"800": 77.264,"825": 87.983,"850": 98.627,"875": 111.018,"900": 115.807,"925": 97.405,"950": 82.277,"975": 73.53,"1000": 66.486,"1025": 60.026,"1050": 50.518,"1075": 38.102,"1100": 30.421,"1125": 25.92,"1150": 14.004,"1175": 6.983,"1200": 4.697,"1225": 4.697,"1250": 5.277,"1275": 4.297,"1300": 3.137,"1325": 2.43,"1350": 2.611,"1375": 2.574,"1400": 3.281,"1425": 2.991,"1450": 2.085,"1475": 1.505,"1500": 0.852,"1525": 0.199,"1550": 0.073,"1575": 0.036}}}