{"type": "Feature","bbox": [-58.4073,-34.7306,-58.2771,-34.6324],"geometry": {"type": "MultiPolygon","coordinates": [[[[-58.3341,-34.7306,7.4218],[-58.2771,-34.6796,7.5651],[-58.3037,-34.666,5.2781],[-58.319,-34.6563,1.9726],[-58.3318,-34.6446,1.8238],[-58.3321,-34.6415,5.5402],[-58.3299,-34.644,1.8092],[-58.329,-34.6429,0.0],[-58.3321,-34.6413,5.5402],[-58.3326,-34.6349,4.3879],[-58.336,-34.6324,0.0],[-58.3387,-34.634,0.0],[-58.3429,-34.6332,3.712],[-58.343,-34.6352,5.9448],[-58.3479,-34.6374,4.803],[-58.3444,-34.6381,0.0],[-58.3491,-34.6409,7.6561],[-58.3507,-34.64,6.3489],[-58.3574,-34.6446,1.4512],[-58.3561,-34.6498,4.1983],[-58.3683,-34.6557,9.0785],[-58.3745,-34.6622,6.8492],[-58.3849,-34.6628,8.6392],[-58.3946,-34.6677,6.3017],[-58.4038,-34.6647,6.1438],[-58.4073,-34.668,6.9465],[-58.3956,-34.6769,6.9863],[-58.398,-34.6789,6.7845],[-58.3913,-34.6855,7.001],[-58.3805,-34.6938,6.8368],[-58.3789,-34.6925,7.0311],[-58.3341,-34.7306,7.4218]]]]}
,"properties": {"GID_2": "ARG.1.7_1","GID_0": "ARG","country": "Argentina","GID_1": "ARG.1_1","state": "BuenosAires","NL_NAME_1": "NA","county": "Avellaneda","VARNAME_2": "NA","NL_NAME_2": "NA","TYPE_2": "Partido","ENGTYPE_2": "Part","CC_2": "NA","HASC_2": "AR.BA.AV","name": "Avellaneda.county","area_km2": 58.65193,"hist_schema_id": "Elevation0-9000","hist_area_km2": {"0": 57.41401,"25": 1.23792}}}