{"type":"Feature","properties":{"GID_2":"ARG.7.14_1","GID_0":"ARG","country":"Argentina","GID_1":"ARG.7_1","state":"Corrientes","NL_NAME_1":"NA","county":"Mburucuyá","VARNAME_2":"Mburucuy|Mburucuy","NL_NAME_2":"NA","TYPE_2":"Departamento","ENGTYPE_2":"Department","CC_2":"NA","HASC_2":"AR.CN.MB","name":"Mburucuyá.county"},
"geometry":{"type": "MultiPolygon","coordinates": [[[[-57.9145,-27.9905,64.862],[-57.9159,-27.9791,69.7459],[-57.934,-27.9398,67.5678],[-57.9778,-27.9582,67.2898],[-57.9827,-27.9499,69.1413],[-58.0014,-27.9577,68.2085],[-58.0337,-27.8863,68.1351],[-58.0416,-27.8866,68.0255],[-58.0783,-27.8821,71.7615],[-58.0889,-27.8457,70.1639],[-58.0246,-27.7987,65.5581],[-58.0773,-27.7948,65.8051],[-58.1007,-27.7996,65.403],[-58.1324,-27.8036,66.8955],[-58.165,-27.8163,64.8608],[-58.1598,-27.829,65.1625],[-58.1586,-27.8396,65.5225],[-58.1589,-27.8574,65.0565],[-58.1614,-27.8678,65.0843],[-58.1749,-27.8896,65.1134],[-58.181,-27.8942,64.9773],[-58.188,-27.9028,64.9253],[-58.2079,-27.9148,64.2014],[-58.2411,-27.9268,65.1058],[-58.2731,-27.9415,64.3891],[-58.3083,-27.965,65.2892],[-58.3354,-27.9801,63.9951],[-58.3892,-27.9939,62.1502],[-58.4051,-27.9955,62.0339],[-58.4129,-27.9939,62.1945],[-58.4023,-28.0191,63.752],[-58.3325,-28.0995,66.9779],[-58.3652,-28.1354,72.8748],[-58.3129,-28.1817,61.787],[-58.3039,-28.1993,57.7636],[-58.2932,-28.1935,59.2497],[-58.2661,-28.187,59.6369],[-58.248,-28.1795,60.9241],[-58.2273,-28.1686,62.1987],[-58.1655,-28.1432,60.5],[-58.1376,-28.1229,60.5],[-58.1196,-28.1152,61.5915],[-58.1004,-28.1099,61.0],[-58.0852,-28.0984,61.9584],[-58.0633,-28.0896,61.9627],[-58.0606,-28.087,62.6411],[-58.0488,-28.0607,61.7996],[-58.0302,-28.0471,61.0],[-58.014,-28.0315,62.3075],[-57.9936,-28.0201,62.6676],[-57.956,-28.0077,67.216],[-57.9145,-27.9905,64.862]]]]}}