{"type": "Feature","bbox": [-62.2004,-39.0051,-61.4575,-38.6234],"geometry": {"type": "MultiPolygon","coordinates": [[[[-61.8307,-38.9796,0.0],[-61.8335,-38.979,0.0],[-61.8354,-38.9793,0.0],[-61.8271,-38.9815,0.0],[-61.8307,-38.9796,0.0]]],
[[[-61.8415,-38.9765,0.0],[-61.8435,-38.976,0.5479],[-61.8404,-38.9785,0.0],[-61.8404,-38.9774,0.0],[-61.8415,-38.9765,0.0]]],
[[[-61.8468,-38.9735,1.1318],[-61.8499,-38.9729,1.874],[-61.8479,-38.9754,0.0],[-61.8443,-38.976,0.5479],[-61.8451,-38.9746,0.0],[-61.8468,-38.9735,1.1318]]],
[[[-62.1482,-38.8371,1.1215],[-62.1496,-38.8362,1.0426],[-62.151,-38.8382,1.4368],[-62.1501,-38.8424,0.9212],[-62.1454,-38.8471,0.5612],[-62.1421,-38.8471,0.0],[-62.1401,-38.8451,0.0],[-62.1407,-38.8415,0.0],[-62.1474,-38.841,1.0961],[-62.1482,-38.8371,1.1215]]],
[[[-62.164,-38.861,0.6263],[-62.1651,-38.8618,1.4558],[-62.1635,-38.864,1.6244],[-62.1768,-38.8618,1.373],[-62.1771,-38.8643,1.5957],[-62.1637,-38.8657,1.1839],[-62.1621,-38.8637,1.518],[-62.164,-38.861,0.6263]]],
[[[-62.1918,-38.8557,1.2244],[-62.1974,-38.8551,1.3859],[-62.1979,-38.8563,1.3208],[-62.1918,-38.8635,1.1982],[-62.1821,-38.8651,0.7697],[-62.1829,-38.8629,1.2011],[-62.1912,-38.8621,1.5458],[-62.194,-38.8582,1.4845],[-62.1929,-38.8576,1.5697],[-62.1904,-38.8601,1.3835],[-62.1901,-38.856,1.0136],[-62.1918,-38.8557,1.2244]]],
[[[-62.1865,-38.8429,0.2127],[-62.189,-38.8424,0.7077],[-62.1901,-38.8449,1.488],[-62.1915,-38.8435,1.3696],[-62.1932,-38.8446,1.5142],[-62.1935,-38.8429,0.6331],[-62.199,-38.8437,0.6319],[-62.2004,-38.8471,2.3316],[-62.1987,-38.8524,1.0153],[-62.1954,-38.8518,1.1685],[-62.194,-38.8476,1.4036],[-62.1899,-38.8493,1.2677],[-62.186,-38.8465,1.289],[-62.1868,-38.8504,1.2388],[-62.1804,-38.8532,1.0018],[-62.1796,-38.8471,0.6247],[-62.1865,-38.8429,0.2127]]],
[[[-62.1679,-38.8312,0.8992],[-62.171,-38.8307,1.0059],[-62.171,-38.8346,1.3753],[-62.1732,-38.8354,1.3852],[-62.1743,-38.831,1.0247],[-62.1818,-38.8315,1.3982],[-62.1818,-38.8326,1.3982],[-62.1771,-38.8351,1.0625],[-62.1774,-38.8385,1.4294],[-62.176,-38.8396,1.0446],[-62.1724,-38.8387,1.4393],[-62.1704,-38.8437,1.2704],[-62.1668,-38.8399,1.4197],[-62.1618,-38.8424,1.2908],[-62.1643,-38.8385,0.3478],[-62.1707,-38.8379,1.4055],[-62.1676,-38.8365,0.9288],[-62.1679,-38.8312,0.8992]]],
[[[-62.1526,-38.8282,0.6473],[-62.1549,-38.8282,0.9996],[-62.1551,-38.8304,1.3401],[-62.1535,-38.8321,1.1554],[-62.1546,-38.8357,1.2651],[-62.1562,-38.8354,1.2784],[-62.156,-38.8304,1.2224],[-62.1596,-38.834,1.2142],[-62.1599,-38.8301,1.0571],[-62.1618,-38.8282,0.7724],[-62.1615,-38.8315,1.3663],[-62.1601,-38.8382,1.3396],[-62.156,-38.8371,1.3478],[-62.1557,-38.8393,1.3702],[-62.151,-38.8432,0.2189],[-62.1518,-38.8343,0.7115],[-62.1499,-38.8351,1.0426],[-62.1493,-38.8338,0.8815],[-62.1526,-38.8282,0.6473]]],
[[[-62.1624,-38.8296,1.1332],[-62.1643,-38.8326,1.3526],[-62.164,-38.8296,1.3548],[-62.1662,-38.8293,0.5245],[-62.1671,-38.836,1.2582],[-62.1643,-38.8379,1.3148],[-62.1621,-38.8365,0.5481],[-62.1624,-38.8296,1.1332]]],
[[[-62.0666,-38.7243,80.2479],[-62.1776,-38.8153,1.9157],[-62.1774,-38.8179,1.9278],[-62.1754,-38.8185,0.6235],[-62.1715,-38.8143,1.8333],[-62.1688,-38.8146,0.7193],[-62.1657,-38.8126,1.5845],[-62.1637,-38.8162,1.2916],[-62.1621,-38.8157,1.7912],[-62.1618,-38.8132,2.0658],[-62.159,-38.8126,2.4808],[-62.1565,-38.8149,1.3428],[-62.1518,-38.8146,2.5175],[-62.1465,-38.8176,2.7304],[-62.1432,-38.8168,2.7184],[-62.1426,-38.819,2.587],[-62.1379,-38.8168,2.4287],[-62.1343,-38.8179,2.6604],[-62.1349,-38.8229,2.145],[-62.1324,-38.8262,2.6577],[-62.1354,-38.8274,2.4833],[-62.1404,-38.8265,2.1628],[-62.1413,-38.8293,1.9642],[-62.1349,-38.8343,1.6871],[-62.1343,-38.8368,1.4448],[-62.1296,-38.841,1.5231],[-62.1293,-38.8443,0.0],[-62.1254,-38.8465,2.1121],[-62.1254,-38.8485,1.6262],[-62.1212,-38.8512,2.3731],[-62.1171,-38.8576,0.6806],[-62.1085,-38.8643,1.0803],[-62.1051,-38.8701,4.6123],[-62.1099,-38.8771,0.0],[-62.1043,-38.8757,3.1151],[-62.1026,-38.8818,4.4512],[-62.104,-38.884,2.5553],[-62.1104,-38.8843,0.0],[-62.1065,-38.8954,0.8781],[-62.1032,-38.896,0.0],[-62.106,-38.8932,2.1511],[-62.1063,-38.8904,0.0],[-62.1029,-38.8896,0.0],[-62.0999,-38.8929,0.0],[-62.1021,-38.8937,0.0],[-62.1018,-38.896,0.0],[-62.0968,-38.8965,2.5682],[-62.096,-38.8982,0.0],[-62.0929,-38.8968,1.375],[-62.0943,-38.8999,1.098],[-62.0887,-38.8965,3.2673],[-62.0793,-38.9007,4.5006],[-62.0771,-38.9029,2.6785],[-62.0776,-38.9049,0.492],[-62.0737,-38.9079,1.163],[-62.0729,-38.9254,0.0],[-62.0718,-38.9229,0.0],[-62.0729,-38.9174,0.0],[-62.0707,-38.9129,0.9578],[-62.0665,-38.9207,1.6413],[-62.0638,-38.919,3.3787],[-62.0576,-38.9243,1.9998],[-62.046,-38.9307,2.15],[-62.0088,-38.9418,1.0422],[-61.9879,-38.946,3.834],[-61.9868,-38.9474,0.6141],[-61.9693,-38.9482,0.3015],[-61.9468,-38.9529,5.0062],[-61.9396,-38.9562,1.5599],[-61.9365,-38.956,3.8317],[-61.9313,-38.9596,0.0],[-61.896,-38.9685,0.0],[-61.874,-38.9676,4.1876],[-61.8576,-38.971,1.7598],[-61.8462,-38.9715,2.3285],[-61.8235,-38.9807,3.4917],[-61.8165,-38.986,2.4739],[-61.8104,-38.9871,0.0],[-61.7926,-38.9854,0.0],[-61.7857,-38.9824,2.0466],[-61.7815,-38.9824,0.0],[-61.7799,-38.9787,4.5663],[-61.7737,-38.979,0.767],[-61.7546,-38.9726,1.9226],[-61.7496,-38.9687,4.4337],[-61.7099,-38.9646,1.5621],[-61.6954,-38.9671,8.1395],[-61.6868,-38.9757,4.8786],[-61.6718,-38.9846,0.0],[-61.6679,-38.989,1.3993],[-61.6593,-38.9901,2.0584],[-61.6318,-39.0004,2.0134],[-61.6185,-39.0026,3.4405],[-61.5496,-39.0051,0.0],[-61.5354,-39.0043,0.0],[-61.5232,-39.0015,3.1652],[-61.5004,-39.0013,0.0],[-61.4999,-38.9996,0.6948],[-61.4576,-38.9957,1.9303],[-61.4575,-38.9442,12.9308],[-61.4681,-38.9472,16.9077],[-61.4719,-38.9442,13.6259],[-61.4868,-38.9397,14.6751],[-61.4991,-38.9317,17.2599],[-61.5072,-38.9225,20.5264],[-61.519,-38.9142,21.2519],[-61.5222,-38.9093,22.8251],[-61.5448,-38.9049,25.6876],[-61.5641,-38.8928,31.6469],[-61.5854,-38.8869,33.2711],[-61.6021,-38.879,40.6716],[-61.6256,-38.8747,36.3221],[-61.6282,-38.8699,46.3085],[-61.6362,-38.8635,46.4523],[-61.6431,-38.8603,44.679],[-61.6479,-38.8616,41.3484],[-61.6624,-38.8528,48.2467],[-61.6667,-38.8454,57.5154],[-61.6726,-38.8401,50.2722],[-61.674,-38.8312,49.9484],[-61.6779,-38.8305,46.7928],[-61.6803,-38.8275,46.831],[-61.6904,-38.8233,51.0456],[-61.6974,-38.8171,49.5091],[-61.699,-38.8144,50.2166],[-61.6988,-38.8089,53.9647],[-61.6971,-38.8048,52.3719],[-61.6933,-38.8029,54.8288],[-61.695,-38.7917,54.7435],[-61.7018,-38.7817,56.3341],[-61.7028,-38.7755,58.508],[-61.7077,-38.7725,58.4035],[-61.7135,-38.762,60.995],[-61.7159,-38.7534,64.3023],[-61.7218,-38.7477,68.6626],[-61.7211,-38.7243,68.6748],[-61.7139,-38.7139,69.5902],[-61.7144,-38.7035,71.2589],[-61.7226,-38.687,78.6612],[-61.7206,-38.6762,79.3789],[-61.7335,-38.6502,84.0854],[-61.7365,-38.638,83.8934],[-61.7416,-38.6284,86.5796],[-61.7472,-38.6234,87.2663],[-61.7559,-38.6305,111.4014],[-61.7642,-38.6304,121.0232],[-61.8212,-38.6772,105.2579],[-61.848,-38.656,108.5279],[-61.8806,-38.6804,99.6775],[-61.8738,-38.6864,100.5544],[-61.9228,-38.7243,82.6625],[-61.9646,-38.7086,93.1992],[-62.0089,-38.7021,75.6353],[-62.0229,-38.712,62.2333],[-62.065,-38.7129,72.0373],[-62.0666,-38.7243,80.2479]]]]}
,"properties": {"GID_2": "ARG.1.30_1","GID_0": "ARG","country": "Argentina","GID_1": "ARG.1_1","state": "BuenosAires","NL_NAME_1": "NA","county": "CoroneldeMarinaLeonardoRosal","VARNAME_2": "PuntaAlta|CoroneldeMarianaLe","NL_NAME_2": "NA","TYPE_2": "Partido","ENGTYPE_2": "Part","CC_2": "NA","HASC_2": "AR.BA.CR","name": "CoroneldeMarinaLeonardoRosal.county","area_km2": 1311.726,"hist_schema_id": "Elevation0-9000","hist_area_km2": {"0": 244.175,"25": 406.037,"50": 236.182,"75": 269.321,"100": 143.84,"125": 12.17}}}