{"type": "Feature","bbox": [-65.7556,-26.1255,-65.1343,-25.2799],"geometry": {"type": "MultiPolygon","coordinates": [[[[-65.6599,-26.1184,2617.062],[-65.6259,-26.1184,1984.5593],[-65.617,-26.1229,1954.6296],[-65.6035,-26.1255,1868.1357],[-65.5957,-26.1242,1620.1909],[-65.5865,-26.1219,1624.7864],[-65.5896,-26.1151,1561.4495],[-65.5722,-26.1053,1424.6012],[-65.5643,-26.0975,1357.7736],[-65.5395,-26.0889,1207.7432],[-65.5321,-26.0903,1199.6379],[-65.5316,-26.0873,1307.0994],[-65.5359,-26.0706,1373.8372],[-65.5363,-26.0592,1219.1864],[-65.5323,-26.0548,1253.6881],[-65.5207,-26.0499,1111.3853],[-65.513,-26.0413,1153.918],[-65.494,-26.0415,1302.1271],[-65.4817,-26.0386,1173.7096],[-65.4716,-26.0318,1251.7089],[-65.4593,-26.0286,1456.155],[-65.4382,-26.0159,1569.636],[-65.4225,-25.9978,1756.7286],[-65.4053,-25.9737,1333.0054],[-65.381,-25.9333,1729.8519],[-65.3771,-25.9288,1502.1317],[-65.3664,-25.9227,1517.2412],[-65.3416,-25.9179,1218.4033],[-65.3034,-25.9178,1308.0054],[-65.285,-25.9221,1219.6421],[-65.262,-25.9318,1167.3979],[-65.2385,-25.9347,1159.8105],[-65.2416,-25.9114,1180.5901],[-65.2481,-25.8892,1303.7269],[-65.2511,-25.8841,1305.385],[-65.2936,-25.8496,2254.2668],[-65.2716,-25.7984,1948.2231],[-65.2798,-25.7809,2030.536],[-65.2598,-25.7722,2069.1404],[-65.256,-25.768,1837.3252],[-65.2556,-25.7621,1995.6914],[-65.2588,-25.751,1652.4484],[-65.2585,-25.7338,1242.73],[-65.2549,-25.7228,1689.8215],[-65.2492,-25.7125,1715.5989],[-65.2405,-25.7042,1720.1938],[-65.2082,-25.6865,1532.2662],[-65.2051,-25.6814,1526.3608],[-65.1959,-25.6737,1663.5493],[-65.1892,-25.6639,1606.4973],[-65.1764,-25.6511,1824.2573],[-65.1739,-25.6459,1809.7534],[-65.1735,-25.6287,1711.366],[-65.1718,-25.6231,1758.0996],[-65.1662,-25.6207,2060.8577],[-65.1535,-25.6203,1942.8889],[-65.1343,-25.6162,2308.0549],[-65.1398,-25.6041,2392.1016],[-65.1669,-25.5722,2246.2568],[-65.1684,-25.5668,2276.8672],[-65.1639,-25.556,2357.4661],[-65.1524,-25.5423,2744.427],[-65.1451,-25.5263,2374.7437],[-65.1476,-25.5211,2386.2241],[-65.1554,-25.5119,2767.6763],[-65.1484,-25.4843,2244.1455],[-65.1587,-25.4696,2775.3916],[-65.1597,-25.464,2706.842],[-65.1575,-25.4411,2879.6519],[-65.1642,-25.419,2222.4917],[-65.1784,-25.4,2853.385],[-65.1807,-25.3947,3010.8071],[-65.1819,-25.3847,2805.874],[-65.2031,-25.3996,2387.1082],[-65.2315,-25.4122,2270.5117],[-65.2496,-25.4173,1906.8359],[-65.2684,-25.4199,1350.5337],[-65.3044,-25.4303,1722.4933],[-65.3278,-25.4388,1472.3549],[-65.3337,-25.4369,1587.7399],[-65.3371,-25.4323,1576.2942],[-65.3378,-25.4264,1577.74],[-65.3381,-25.4093,1650.0645],[-65.3358,-25.3923,1644.0967],[-65.3411,-25.3757,1741.1625],[-65.3462,-25.3475,1662.7223],[-65.3462,-25.3245,1563.1813],[-65.3429,-25.3134,1525.7994],[-65.3433,-25.3078,1222.6704],[-65.3787,-25.2951,1202.8851],[-65.3912,-25.2817,1032.0],[-65.396,-25.2799,1032.0],[-65.4072,-25.286,1032.0],[-65.4164,-25.2939,1032.0],[-65.4285,-25.3072,1032.0],[-65.4345,-25.3173,1032.0],[-65.439,-25.334,1032.0],[-65.4407,-25.3512,1032.0],[-65.4454,-25.3737,1032.0],[-65.4563,-25.3945,1032.0],[-65.4642,-25.4163,1037.2931],[-65.4683,-25.4505,1049.7183],[-65.4726,-25.4613,1058.2688],[-65.4851,-25.4742,1060.6691],[-65.4959,-25.4804,1066.0343],[-65.499,-25.4914,1069.874],[-65.5175,-25.5147,1086.4669],[-65.5265,-25.5298,1095.1105],[-65.5309,-25.534,1100.1638],[-65.5414,-25.5548,1141.8938],[-65.5565,-25.5732,1167.174],[-65.5729,-25.5978,1164.3954],[-65.5924,-25.6125,1201.4207],[-65.6134,-25.634,1200.4703],[-65.6276,-25.6454,1691.0323],[-65.6333,-25.648,1920.6106],[-65.646,-25.6462,1541.0634],[-65.6516,-25.6484,1485.9524],[-65.6561,-25.6525,1558.0186],[-65.6687,-25.6725,1330.8644],[-65.692,-25.7196,1532.052],[-65.6938,-25.7483,1503.9905],[-65.6915,-25.7827,1463.2396],[-65.6932,-25.7998,1461.3223],[-65.6956,-25.8111,1404.0012],[-65.7087,-25.8434,1421.791],[-65.7108,-25.8605,1410.0773],[-65.7226,-25.9112,1471.7281],[-65.7227,-25.9227,1444.5253],[-65.7244,-25.9281,1436.8152],[-65.7316,-25.9377,1587.9924],[-65.7479,-25.9466,1502.9513],[-65.752,-25.951,1484.7966],[-65.755,-25.9561,1479.9897],[-65.7556,-25.9677,1569.8735],[-65.7523,-25.9723,1480.7896],[-65.7412,-25.9783,1616.8162],[-65.7349,-25.9779,1659.7001],[-65.723,-25.9731,1928.3999],[-65.713,-25.9791,2139.7031],[-65.7013,-25.9835,1861.677],[-65.6762,-25.9872,1954.8219],[-65.6381,-25.9887,2678.6631],[-65.6256,-25.9909,2563.9158],[-65.614,-25.9962,2374.8647],[-65.6126,-26.0011,2436.1248],[-65.6146,-26.0127,2321.4968],[-65.6137,-26.0353,2547.7048],[-65.6193,-26.0458,2380.3875],[-65.629,-26.053,2556.8999],[-65.6399,-26.067,3192.5503],[-65.6447,-26.0777,2905.6348],[-65.649,-26.0944,2854.4331],[-65.6599,-26.1184,2617.062]]]]}
,"properties": {"GID_2": "ARG.17.9_1","GID_0": "ARG","country": "Argentina","GID_1": "ARG.17_1","state": "Salta","NL_NAME_1": "NA","county": "Guachipas","VARNAME_2": "NA","NL_NAME_2": "NA","TYPE_2": "Departamento","ENGTYPE_2": "Department","CC_2": "NA","HASC_2": "AR.SA.GU","name": "Guachipas.county","area_km2": 2899.702,"hist_schema_id": "Elevation0-9000","hist_area_km2": {"1025": 33.398,"1050": 16.432,"1075": 22.21,"1100": 22.726,"1125": 25.671,"1150": 26.907,"1175": 36.081,"1200": 41.713,"1225": 42.139,"1250": 39.533,"1275": 40.18,"1300": 40.192,"1325": 42.343,"1350": 49.422,"1375": 52.112,"1400": 55.794,"1425": 55.135,"1450": 56.416,"1475": 55.288,"1500": 55.614,"1525": 55.896,"1550": 52.819,"1575": 54.978,"1600": 57.137,"1625": 58.914,"1650": 61.549,"1675": 73.936,"1700": 85.579,"1725": 102.411,"1750": 105.274,"1775": 93.726,"1800": 87.008,"1825": 74.463,"1850": 66.253,"1875": 57.848,"1900": 52.96,"1925": 47.978,"1950": 46.7,"1975": 44.655,"2000": 43.011,"2025": 42.859,"2050": 40.28,"2075": 37.128,"2100": 36.21,"2125": 34.225,"2150": 32.619,"2175": 31.111,"2200": 29.127,"2225": 27.217,"2250": 25.593,"2275": 26.128,"2300": 24.355,"2325": 24.581,"2350": 22.862,"2375": 22.405,"2400": 21.776,"2425": 19.943,"2450": 19.5,"2475": 19.941,"2500": 21.486,"2525": 19.444,"2550": 19.478,"2575": 17.341,"2600": 16.27,"2625": 15.697,"2650": 14.453,"2675": 13.709,"2700": 12.469,"2725": 10.903,"2750": 10.084,"2775": 9.587,"2800": 7.869,"2825": 7.601,"2850": 6.721,"2875": 4.984,"2900": 4.907,"2925": 3.437,"2950": 3.112,"2975": 2.826,"3000": 2.043,"3025": 1.661,"3050": 0.859,"3075": 0.954,"3100": 0.458,"3125": 0.439,"3150": 0.191,"3175": 0.114,"3200": 0.076,"3225": 0.057,"3250": 0.095,"3275": 0.038,"3325": 0.038,"3375": 0.038}}}