{"type": "Feature","bbox": [-64.025,-32.0641,-62.8423,-31.3268],"geometry": {"type": "MultiPolygon","coordinates": [[[[-62.854,-32.0641,148.515],[-62.8423,-32.0206,146.1174],[-62.8498,-32.0154,145.9401],[-62.8629,-32.0152,148.1435],[-62.882,-32.0177,150.1227],[-62.8853,-32.013,149.7731],[-62.8821,-31.9968,149.1561],[-62.8825,-31.9913,149.5383],[-62.8856,-31.9865,149.5281],[-62.8905,-31.9831,150.252],[-62.9031,-31.98,152.0888],[-62.9203,-31.9637,152.8147],[-62.9351,-31.953,154.5349],[-62.9517,-31.9446,157.2173],[-62.9755,-31.9355,159.3757],[-62.9754,-31.9249,159.3267],[-62.992,-31.9168,161.3277],[-62.9955,-31.9122,162.5786],[-63.0013,-31.8907,161.7707],[-63.0043,-31.8858,162.8698],[-63.0138,-31.8783,162.7559],[-63.0182,-31.8679,164.693],[-63.0172,-31.8517,163.8232],[-63.0188,-31.8463,163.9769],[-63.0342,-31.8369,166.5036],[-63.0374,-31.815,166.15],[-63.0395,-31.8099,165.6835],[-63.0498,-31.8033,168.3811],[-63.0525,-31.7985,168.837],[-63.055,-31.7876,168.9728],[-63.0766,-31.7276,170.0952],[-63.0875,-31.728,171.5912],[-63.0865,-31.7115,170.7804],[-63.0977,-31.7093,171.4425],[-63.102,-31.6767,171.5055],[-63.1403,-31.6763,180.2902],[-63.1429,-31.6694,179.6759],[-63.142,-31.6527,178.8158],[-63.1453,-31.6488,180.3181],[-63.1584,-31.6471,181.7681],[-63.1782,-31.648,183.6623],[-63.1833,-31.6464,184.3354],[-63.1871,-31.6243,186.5987],[-63.2009,-31.6127,185.7414],[-63.2114,-31.5928,183.9144],[-63.2247,-31.5807,186.4861],[-63.2283,-31.5706,185.0047],[-63.232,-31.566,187.9988],[-63.2174,-31.4902,180.0583],[-63.2709,-31.4559,186.7077],[-63.2848,-31.3413,182.2018],[-63.3706,-31.3268,192.9939],[-63.3629,-31.3712,196.7953],[-63.4269,-31.3756,207.8708],[-63.4539,-31.3707,216.5482],[-63.4591,-31.3851,220.4643],[-63.4971,-31.3886,228.8054],[-63.4966,-31.3942,229.2596],[-63.4999,-31.3955,230.1733],[-63.5019,-31.4011,230.9603],[-63.5018,-31.4072,230.2989],[-63.504,-31.4107,230.9344],[-63.523,-31.4053,233.6091],[-63.5256,-31.4009,232.9408],[-63.5315,-31.3984,232.9707],[-63.5443,-31.397,236.758],[-63.5475,-31.4013,237.9379],[-63.5484,-31.4179,238.5998],[-63.5505,-31.4228,239.1616],[-63.5631,-31.4256,242.2796],[-63.5682,-31.4287,244.4313],[-63.5803,-31.46,247.1772],[-63.5844,-31.4644,247.5258],[-63.597,-31.4667,255.5596],[-63.6122,-31.4764,260.9297],[-63.6309,-31.4799,266.148],[-63.6359,-31.4836,267.4234],[-63.642,-31.4848,268.9279],[-63.648,-31.483,269.6316],[-63.6608,-31.4838,271.3108],[-63.6735,-31.4858,275.0453],[-63.6854,-31.4903,278.0774],[-63.6895,-31.4942,278.9945],[-63.6997,-31.5264,280.2701],[-63.7031,-31.5307,281.2606],[-63.7152,-31.5348,285.0901],[-63.76,-31.5338,297.1061],[-63.7889,-31.5457,303.4723],[-63.7949,-31.5472,304.9483],[-63.8079,-31.5469,307.7024],[-63.8135,-31.5492,308.4437],[-63.823,-31.5568,310.9813],[-63.8419,-31.5595,316.5397],[-63.8533,-31.5645,319.7168],[-63.9045,-31.5625,329.6268],[-63.9438,-31.5569,331.8898],[-64.0229,-31.6112,362.0229],[-63.9868,-31.6597,359.3136],[-63.9958,-31.6603,358.5273],[-64.0085,-31.6587,357.7852],[-64.0149,-31.6595,357.1006],[-64.0194,-31.6622,356.5403],[-64.025,-31.7574,377.4543],[-64.0177,-31.7586,374.379],[-64.0133,-31.7546,372.396],[-64.0007,-31.7521,368.9704],[-63.9944,-31.7523,366.4373],[-63.9821,-31.7557,361.152],[-63.9769,-31.7589,359.9577],[-63.9585,-31.7626,355.0389],[-63.9556,-31.7676,351.2202],[-63.9539,-31.8633,344.9763],[-63.9275,-31.863,336.0824],[-63.9226,-31.9264,335.155],[-63.9219,-31.9827,336.8227],[-63.7106,-31.9819,288.6743],[-63.706,-32.0344,286.6608],[-63.6879,-32.0334,282.8371],[-63.6838,-32.0047,283.9855],[-63.6674,-32.02,280.1911],[-63.5787,-31.9647,263.6855],[-63.5604,-31.9822,259.0755],[-63.4375,-31.9799,234.4966],[-63.4315,-31.9876,234.1047],[-63.4219,-31.9831,231.2934],[-63.4205,-31.971,231.6594],[-63.4112,-31.972,230.3179],[-63.3567,-31.9661,221.9352],[-63.3495,-31.9513,221.4283],[-63.321,-31.9543,214.7664],[-63.2688,-31.9387,208.3688],[-63.2476,-31.9386,202.9702],[-63.2472,-31.9966,202.8097],[-63.2327,-32.0039,200.9614],[-63.2076,-32.0259,197.6276],[-63.1454,-31.9755,187.2465],[-63.1419,-31.9826,185.5635],[-63.0975,-31.9662,178.1603],[-63.1058,-32.0084,180.8174],[-63.0575,-32.0083,174.4877],[-63.0525,-32.0286,175.0538],[-63.0119,-32.0273,168.8404],[-63.0114,-32.0497,168.4984],[-62.9188,-32.0499,155.0319],[-62.854,-32.0641,148.515]]]]}
,"properties": {"GID_2": "ARG.6.17_1","GID_0": "ARG","country": "Argentina","GID_1": "ARG.6_1","state": "Córdoba","NL_NAME_1": "NA","county": "RióSegundo","VARNAME_2": "VilladelRosario","NL_NAME_2": "NA","TYPE_2": "Departamento","ENGTYPE_2": "Department","CC_2": "NA","HASC_2": "AR.CB.RG","name": "RióSegundo.county","area_km2": 4895.984,"hist_schema_id": "Elevation0-9000","hist_area_km2": {"150": 112.07,"175": 581.252,"200": 920.858,"225": 771.18,"250": 685.034,"275": 641.723,"300": 524.137,"325": 420.852,"350": 210.452,"375": 28.426}}}