{"type":"Feature","properties":{"GID_2":"ARG.1.9_1","GID_0":"ARG","country":"Argentina","GID_1":"ARG.1_1","state":"BuenosAires","NL_NAME_1":"NA","county":"Azul","VARNAME_2":"NA","NL_NAME_2":"NA","TYPE_2":"Partido","ENGTYPE_2":"Part","CC_2":"NA","HASC_2":"AR.BA.AZ","name":"Azul.county"},
"geometry":{"type": "MultiPolygon","coordinates": [[[[-59.4909,-36.2309,61.0691],[-59.637,-36.3613,78.6978],[-59.7268,-36.2867,73.9934],[-59.7963,-36.3464,82.9653],[-59.7986,-36.3438,83.1121],[-59.8103,-36.3585,83.8428],[-59.8205,-36.3651,84.0413],[-59.8263,-36.361,84.1512],[-59.8465,-36.3754,86.5185],[-59.8629,-36.3906,88.8432],[-59.8618,-36.3954,89.2225],[-59.9243,-36.4493,96.2652],[-59.9203,-36.4528,97.1997],[-59.9934,-36.519,105.2494],[-60.0031,-36.5106,104.9899],[-60.033,-36.536,107.2422],[-59.9267,-36.6183,114.1641],[-60.0586,-36.7288,130.0837],[-60.1138,-36.6869,124.1189],[-60.118,-36.6905,124.6114],[-60.1397,-36.6728,123.5817],[-60.1447,-36.6748,124.0853],[-60.1473,-36.6801,124.9696],[-60.146,-36.6865,125.3113],[-60.1504,-36.6979,126.5504],[-60.1644,-36.7149,129.4308],[-60.1015,-36.7654,136.1412],[-60.0935,-36.7622,135.7217],[-60.0039,-36.8321,154.1047],[-60.0239,-36.8513,159.3352],[-60.0127,-36.8592,160.7094],[-60.0328,-36.8773,165.9665],[-60.0209,-36.8874,166.7529],[-60.0377,-36.9009,170.5975],[-60.0235,-36.9122,171.0135],[-60.0502,-36.9439,187.3482],[-60.0602,-36.9365,187.041],[-60.0977,-36.9646,211.8982],[-60.1112,-36.9784,205.2781],[-60.1031,-36.987,205.9259],[-60.1166,-36.9984,209.4416],[-60.0986,-37.0125,213.4694],[-60.1203,-37.0316,233.6858],[-60.1117,-37.0397,222.0814],[-60.1321,-37.0559,223.4405],[-60.1239,-37.0625,213.8068],[-60.1439,-37.0794,242.4212],[-60.1237,-37.0965,241.6963],[-60.1414,-37.1095,234.7229],[-60.1356,-37.1136,232.0585],[-60.1588,-37.1373,227.1122],[-60.1553,-37.14,226.9114],[-60.2035,-37.1804,218.4958],[-59.9896,-37.3437,264.1782],[-60.0362,-37.3836,246.5795],[-59.957,-37.447,236.0328],[-59.8616,-37.3734,245.9887],[-59.8707,-37.368,245.0859],[-59.8254,-37.3216,233.0088],[-59.8219,-37.3073,237.983],[-59.8199,-37.2865,219.6156],[-59.8116,-37.2668,214.2124],[-59.805,-37.2597,213.0081],[-59.7797,-37.2465,202.8771],[-59.7539,-37.242,196.5192],[-59.7403,-37.2369,192.8474],[-59.7259,-37.2364,194.9701],[-59.7077,-37.2282,192.6689],[-59.6958,-37.2187,188.6877],[-59.686,-37.2044,183.6672],[-59.6723,-37.1981,182.2416],[-59.6719,-37.1945,179.9945],[-59.6653,-37.1853,177.0432],[-59.6618,-37.183,176.3056],[-59.6414,-37.1781,182.0127],[-59.6204,-37.1562,169.5809],[-59.6016,-37.1473,167.019],[-59.5833,-37.1335,166.8226],[-59.5856,-37.126,162.0012],[-59.581,-37.1186,160.9718],[-59.5674,-37.1025,157.7623],[-59.551,-37.097,155.3615],[-59.5451,-37.0834,153.8876],[-59.5382,-37.0825,154.0222],[-59.5286,-37.0846,152.6125],[-59.5203,-37.0841,151.9979],[-59.5137,-37.0752,150.9994],[-59.4849,-37.0456,145.831],[-59.4763,-37.042,146.4819],[-59.46,-37.0315,142.5116],[-59.4565,-37.0327,141.9257],[-59.4455,-37.0316,140.763],[-59.4372,-37.0244,139.4795],[-59.4382,-37.017,137.6427],[-59.4342,-37.0117,138.9304],[-59.4338,-37.0055,137.5807],[-59.4314,-37.0005,136.8085],[-59.4229,-36.9969,135.6327],[-59.4044,-36.973,132.0921],[-59.3966,-36.956,128.4207],[-59.3966,-36.9509,127.6796],[-59.3879,-36.9456,127.418],[-59.3686,-36.9073,120.9623],[-59.3641,-36.9027,120.0729],[-59.3616,-36.8877,118.4913],[-59.3652,-36.8658,115.6469],[-59.3679,-36.8612,115.0818],[-59.3662,-36.8578,114.3521],[-59.3671,-36.8538,114.1147],[-59.3568,-36.8393,112.3889],[-59.3524,-36.8359,111.3413],[-59.3526,-36.832,111.8998],[-59.3491,-36.8257,110.6492],[-59.3393,-36.8147,108.5842],[-59.3253,-36.8024,105.615],[-59.2881,-36.7742,101.2314],[-59.2832,-36.7646,100.2541],[-59.2833,-36.7588,99.0037],[-59.2786,-36.7365,96.3278],[-59.2696,-36.7254,94.5184],[-59.2667,-36.715,93.4075],[-59.2651,-36.7072,92.0549],[-59.2655,-36.697,90.5323],[-59.2637,-36.6934,90.0954],[-59.2639,-36.6846,89.2645],[-59.2594,-36.6756,98.8111],[-59.2596,-36.6678,86.7323],[-59.2554,-36.6511,85.5715],[-59.2493,-36.648,84.1509],[-59.244,-36.6401,82.3732],[-59.2422,-36.6342,81.9306],[-59.2384,-36.6327,81.4393],[-59.2305,-36.6253,80.5608],[-59.2319,-36.6175,79.753],[-59.2278,-36.6131,79.63],[-59.2281,-36.61,78.9961],[-59.2222,-36.6068,78.7507],[-59.224,-36.602,78.5467],[-59.2283,-36.5983,78.1276],[-59.2237,-36.5802,75.6289],[-59.2191,-36.5803,75.9179],[-59.2007,-36.5955,76.314],[-59.1423,-36.5385,67.4754],[-59.2023,-36.4934,66.1863],[-59.1964,-36.4873,65.2328],[-59.2556,-36.4427,62.9763],[-59.2353,-36.4253,59.999],[-59.4909,-36.2309,61.0691]]]]}}