{"type": "Feature","bbox": [-68.3938,-32.3594,-67.2872,-31.6868],"geometry": {"type": "MultiPolygon","coordinates": [[[[-67.3693,-32.359,491.2507],[-67.2872,-32.3594,491.0737],[-67.3242,-32.2963,492.6192],[-67.3568,-32.2636,494.8676],[-67.3579,-32.2111,498.9446],[-67.3651,-32.1862,501.4862],[-67.3667,-32.1608,502.5621],[-67.3681,-32.1557,503.4207],[-67.3738,-32.1468,504.5735],[-67.3808,-32.1221,505.6675],[-67.3771,-32.0967,507.6657],[-67.3763,-32.0763,507.8447],[-67.3717,-32.0551,510.7039],[-67.3562,-32.0023,515.2523],[-67.362,-31.9912,517.4844],[-67.3601,-31.9734,518.6496],[-67.3718,-31.9514,519.6066],[-67.3724,-31.9302,522.4583],[-67.3873,-31.8762,529.4756],[-68.3439,-31.6868,570.3582],[-68.348,-31.6983,568.5585],[-68.3508,-31.7179,568.4778],[-68.3602,-31.7251,567.0773],[-68.3688,-31.7431,567.9281],[-68.3671,-31.7675,563.7988],[-68.3751,-31.7873,562.1519],[-68.3796,-31.8071,560.6599],[-68.3814,-31.8104,559.96],[-68.3934,-31.8208,559.429],[-68.3938,-31.8317,560.9257],[-68.3906,-31.8459,556.9701],[-68.3865,-31.8514,558.0824],[-68.3773,-31.8529,557.4357],[-68.3617,-31.8625,554.4218],[-68.3584,-31.8661,555.4717],[-68.3453,-31.8722,556.4064],[-68.3445,-31.8869,555.156],[-68.342,-31.894,553.2767],[-68.3361,-31.9016,553.0041],[-68.331,-31.9136,553.7252],[-68.3079,-31.9434,550.3526],[-68.3007,-31.9626,547.6702],[-68.2871,-31.9742,547.4277],[-68.2809,-31.9936,546.3746],[-68.2792,-32.0081,546.0242],[-68.2797,-32.0356,543.7024],[-68.2952,-32.0564,542.4459],[-68.305,-32.0661,541.6644],[-68.3084,-32.0757,540.5486],[-68.3176,-32.0891,539.4545],[-68.3276,-32.0973,538.8049],[-68.3295,-32.1121,539.2269],[-68.3258,-32.1175,539.0814],[-68.3085,-32.1283,539.3767],[-68.2983,-32.1302,538.8619],[-68.2953,-32.1344,538.3324],[-68.2899,-32.1362,538.7013],[-68.2785,-32.1331,538.061],[-68.2487,-32.1159,538.0032],[-68.2377,-32.112,538.0272],[-68.2317,-32.1118,538.0591],[-68.2143,-32.1156,538.9626],[-68.1966,-32.1126,537.7656],[-68.179,-32.1146,537.3107],[-68.1493,-32.1105,537.984],[-68.1007,-32.0907,539.1752],[-68.088,-32.0799,539.0085],[-68.0819,-32.079,537.4678],[-68.0783,-32.0825,535.8644],[-68.0727,-32.0815,538.5872],[-68.0681,-32.0782,535.3798],[-68.0665,-32.0733,534.5067],[-68.0628,-32.0693,532.7894],[-68.0569,-32.0687,530.9398],[-68.052,-32.0716,529.5585],[-68.0402,-32.0708,534.8564],[-68.0348,-32.0777,529.5486],[-68.0116,-32.0735,528.8992],[-67.995,-32.0787,530.6459],[-67.9689,-32.0728,532.9613],[-67.9589,-32.0778,531.8243],[-67.9553,-32.0979,530.8372],[-67.9288,-32.1073,530.5041],[-67.9264,-32.1114,530.008],[-67.9263,-32.1319,524.5447],[-67.9243,-32.1418,524.5962],[-67.9166,-32.1496,527.3901],[-67.9133,-32.1595,526.6981],[-67.9093,-32.1628,526.1202],[-67.8974,-32.1645,529.1168],[-67.8869,-32.169,525.1201],[-67.881,-32.1687,524.7319],[-67.8694,-32.1716,523.8852],[-67.865,-32.1752,524.417],[-67.8613,-32.1897,525.9853],[-67.8566,-32.1929,522.8237],[-67.8345,-32.2005,521.457],[-67.8267,-32.2084,519.4674],[-67.8214,-32.2097,520.1711],[-67.7913,-32.2097,519.7869],[-67.7799,-32.2074,522.8074],[-67.7563,-32.2113,520.7104],[-67.751,-32.2113,520.0865],[-67.7423,-32.2082,518.5862],[-67.7303,-32.2092,518.386],[-67.725,-32.2116,519.0943],[-67.7136,-32.2233,520.6],[-67.7081,-32.2249,515.3929],[-67.7021,-32.2249,518.7074],[-67.6948,-32.217,519.0273],[-67.6892,-32.2154,516.327],[-67.6836,-32.2168,514.9556],[-67.6794,-32.2205,512.89],[-67.6734,-32.2208,512.455],[-67.6614,-32.2104,511.431],[-67.6395,-32.219,511.4335],[-67.6275,-32.2192,509.7448],[-67.6112,-32.2132,506.8655],[-67.6051,-32.2126,507.0483],[-67.589,-32.2186,506.982],[-67.5653,-32.2161,505.187],[-67.5543,-32.2201,505.0155],[-67.5483,-32.2201,505.0816],[-67.5379,-32.2152,504.2662],[-67.5239,-32.2058,503.1045],[-67.5167,-32.1974,503.1803],[-67.511,-32.198,502.8469],[-67.5076,-32.2079,502.6622],[-67.4999,-32.2136,501.8918],[-67.4959,-32.2215,502.0543],[-67.4756,-32.2464,500.9705],[-67.471,-32.2555,499.8659],[-67.4706,-32.2758,498.9233],[-67.464,-32.2953,498.3621],[-67.4583,-32.3043,498.4123],[-67.4343,-32.3194,496.0259],[-67.4187,-32.327,495.8713],[-67.4104,-32.334,494.3899],[-67.405,-32.3359,494.5376],[-67.3869,-32.3363,494.0567],[-67.3815,-32.3384,492.917],[-67.371,-32.3507,491.4631],[-67.3693,-32.359,491.2507]]]]}
,"properties": {"GID_2": "ARG.18.17_1","GID_0": "ARG","country": "Argentina","GID_1": "ARG.18_1","state": "SanJuan","NL_NAME_1": "NA","county": "VeinticincodeMayo","VARNAME_2": "SantaRosa|25DeMayo","NL_NAME_2": "NA","TYPE_2": "Departamento","ENGTYPE_2": "Department","CC_2": "NA","HASC_2": "AR.SJ.VM","name": "VeinticincodeMayo.county","area_km2": 4000.991,"hist_schema_id": "Elevation0-9000","hist_area_km2": {"500": 553.66,"525": 1170.797,"550": 1332.035,"575": 360.319,"600": 169.227,"625": 125.031,"650": 106.448,"675": 80.059,"700": 55.136,"725": 31.212,"750": 12.869,"775": 4.146,"800": 0.054}}}