{"type":"Feature","properties":{"GID_2":"ARG.20.4_1","GID_0":"ARG","country":"Argentina","GID_1":"ARG.20_1","state":"SantaCruz","NL_NAME_1":"NA","county":"LagoArgentino","VARNAME_2":"Calafate","NL_NAME_2":"NA","TYPE_2":"Departamento","ENGTYPE_2":"Department","CC_2":"NA","HASC_2":"AR.SC.LA","name":"LagoArgentino.county"},
"geometry":{"type": "MultiPolygon","coordinates": [[[[-70.5808,-49.2039,225.866],[-71.4002,-49.1933,770.463],[-71.9824,-48.8395,1327.8608],[-72.5021,-48.5166,1906.5728],[-72.504,-48.5175,1851.2734],[-72.5045,-48.5151,1842.9685],[-72.5547,-48.4839,309.8282],[-72.56,-48.4828,274.0273],[-72.58,-48.4866,263.8286],[-72.5884,-48.4916,253.75],[-72.5899,-48.494,253.0],[-72.5825,-48.4964,253.0],[-72.5799,-48.5018,253.0],[-72.5784,-48.5132,253.0],[-72.5695,-48.5187,253.0],[-72.5674,-48.5361,253.0],[-72.5645,-48.5389,253.0],[-72.5646,-48.5475,253.0],[-72.5572,-48.5603,253.0],[-72.5639,-48.5729,253.0],[-72.565,-48.5832,253.0],[-72.5495,-48.6048,253.0],[-72.5502,-48.6146,253.0],[-72.5447,-48.6239,253.0],[-72.541,-48.635,253.0],[-72.5408,-48.6595,253.0],[-72.5348,-48.6678,253.0],[-72.5395,-48.6775,253.0],[-72.5364,-48.6981,253.0],[-72.5377,-48.7085,253.0],[-72.536,-48.7149,253.0],[-72.5408,-48.7217,253.0],[-72.5419,-48.7386,253.0],[-72.535,-48.753,253.0],[-72.5366,-48.7574,253.0],[-72.5296,-48.7706,253.0],[-72.53,-48.7962,253.0],[-72.5412,-48.8065,253.0],[-72.5656,-48.8233,253.0],[-72.5814,-48.8261,253.0],[-72.6017,-48.8359,253.0],[-72.6205,-48.8527,253.0],[-72.6396,-48.8662,253.0],[-72.6884,-48.8648,253.0],[-72.6967,-48.8967,276.3924],[-72.7037,-48.8977,344.9877],[-72.7044,-48.901,393.4205],[-72.7108,-48.9042,483.014],[-72.7281,-48.9046,1320.0334],[-72.7396,-48.9032,1438.5798],[-72.7443,-48.9061,1399.7361],[-72.7577,-48.919,1448.2267],[-72.7578,-48.9264,1238.1091],[-72.7613,-48.9306,1268.9054],[-72.7669,-48.946,1634.9453],[-72.7807,-48.9544,1578.0182],[-72.7839,-48.9588,1627.1101],[-72.7913,-48.9607,1506.3937],[-72.796,-48.9684,1614.0659],[-72.8086,-48.9608,773.3162],[-72.813,-48.9599,720.2654],[-72.8208,-48.9607,712.1306],[-72.8226,-48.964,725.053],[-72.8267,-48.9662,817.8571],[-72.849,-48.9654,1162.9888],[-72.8595,-48.9582,1393.1614],[-72.8637,-48.9503,1542.318],[-72.8629,-48.9474,1575.6638],[-72.8644,-48.9459,1561.9542],[-72.8729,-48.9483,1499.3203],[-72.8962,-48.9466,1596.78],[-72.9022,-48.9427,1655.5171],[-72.9145,-48.9402,1910.0649],[-72.9207,-48.9356,1853.2095],[-72.9256,-48.936,1687.0785],[-72.9313,-48.94,1565.8362],[-72.9461,-48.9454,982.119],[-72.9525,-48.9527,1074.5146],[-72.9546,-48.9595,1165.5999],[-72.9519,-48.967,1419.0996],[-72.9562,-48.97,1458.4773],[-72.9594,-48.982,1607.0033],[-72.9622,-48.9824,1539.0996],[-72.9665,-48.986,1314.369],[-72.9796,-48.9871,1022.5361],[-72.987,-48.9898,854.7515],[-72.9898,-48.9913,818.8151],[-72.9905,-48.9949,891.4248],[-72.9936,-48.9984,968.4393],[-72.9901,-49.0101,1466.4838],[-72.988,-49.0125,1491.7705],[-72.9894,-49.0178,1605.8405],[-72.986,-49.0205,1773.5034],[-72.9814,-49.0296,1947.2235],[-73.0063,-49.0295,1564.0149],[-73.0107,-49.0332,1510.9894],[-73.0112,-49.0429,1449.1569],[-73.0031,-49.0526,1939.7496],[-73.0058,-49.0578,2109.8137],[-73.0045,-49.0635,2103.0698],[-73.0169,-49.0628,1921.3259],[-73.0209,-49.0651,1929.3019],[-73.0259,-49.0645,2011.8013],[-73.0297,-49.0672,2173.9517],[-73.031,-49.075,1909.0884],[-73.0469,-49.0826,1648.7571],[-73.0467,-49.0872,1928.3663],[-73.0516,-49.0958,2033.9259],[-73.0559,-49.0997,1878.0328],[-73.0547,-49.1062,1790.3596],[-73.0631,-49.1139,2020.2998],[-73.0586,-49.1181,2135.7085],[-73.0614,-49.1263,2239.7139],[-73.0637,-49.1279,2247.1577],[-73.0714,-49.1283,2392.9009],[-73.0819,-49.133,2831.4595],[-73.0831,-49.1352,2790.6433],[-73.0816,-49.1406,2702.824],[-73.0823,-49.1452,2661.6626],[-73.1019,-49.1462,1996.5408],[-73.1057,-49.1481,1913.5541],[-73.1114,-49.1529,1868.1064],[-73.1145,-49.1632,1723.2952],[-73.118,-49.168,1616.7734],[-73.1418,-49.18,1507.2053],[-73.1461,-49.1898,1636.7133],[-73.1408,-49.1992,2072.5403],[-73.1397,-49.2059,1953.8967],[-73.1474,-49.2209,2323.0142],[-73.1443,-49.2294,2162.5889],[-73.1461,-49.234,1987.2251],[-73.146,-49.2459,1944.7336],[-73.137,-49.258,2114.9392],[-73.1352,-49.2655,2380.0288],[-73.1328,-49.2668,2375.429],[-73.1209,-49.2652,2046.0558],[-73.103,-49.2666,2390.5618],[-73.1002,-49.2612,2333.01],[-73.0897,-49.253,2378.4709],[-73.0835,-49.2542,2259.791],[-73.0808,-49.2598,1825.6965],[-73.0678,-49.2685,1869.2375],[-73.0493,-49.2721,2613.6338],[-73.0429,-49.271,2416.1453],[-73.0395,-49.2769,2573.0266],[-73.0821,-49.2832,1501.9854],[-73.073,-49.3651,1027.4305],[-73.0771,-49.3809,937.713],[-73.0714,-49.3935,816.1178],[-73.0626,-49.404,1578.6271],[-73.0474,-49.4141,1972.787],[-73.0418,-49.4198,2251.8762],[-73.0403,-49.4269,2209.0852],[-73.0431,-49.4343,1874.7959],[-73.0455,-49.4508,1720.561],[-73.0542,-49.4653,830.6802],[-73.1043,-49.497,659.7771],[-73.1106,-49.506,656.9049],[-73.1302,-49.5246,1410.0753],[-73.1536,-49.5655,783.7403],[-73.1683,-49.5947,755.0371],[-73.1908,-49.6256,1766.1351],[-73.1982,-49.6426,1536.5322],[-73.2084,-49.655,1278.6702],[-73.2168,-49.669,1089.6182],[-73.2415,-49.6897,1050.8711],[-73.3088,-49.736,980.4646],[-73.4501,-49.7889,2647.2344],[-73.4466,-49.793,2585.8433],[-73.448,-49.7976,2469.8064],[-73.4617,-49.8,2299.7212],[-73.48,-49.8102,2195.5967],[-73.4864,-49.8116,2012.4149],[-73.4909,-49.8169,1889.7922],[-73.4902,-49.8254,1864.8586],[-73.493,-49.829,1856.2002],[-73.4857,-49.8338,1860.6272],[-73.4832,-49.8382,1968.3971],[-73.4896,-49.8482,2542.4487],[-73.4891,-49.8527,2509.6736],[-73.4947,-49.8547,2491.3867],[-73.4991,-49.8612,2573.7007],[-73.4997,-49.8688,2476.8154],[-73.505,-49.8717,2431.4966],[-73.5101,-49.8782,2273.7437],[-73.5108,-49.88,2229.3875],[-73.5078,-49.8856,2028.3333],[-73.5068,-49.8918,1973.4917],[-73.5134,-49.8963,1905.5156],[-73.5292,-49.8986,1908.4469],[-73.538,-49.9037,1906.5071],[-73.5493,-49.9071,1920.4301],[-73.5484,-49.9093,1918.155],[-73.5561,-49.9227,2068.7837],[-73.5557,-49.931,2065.9292],[-73.5602,-49.9437,2340.4207],[-73.5577,-49.9481,2563.8247],[-73.5537,-49.95,2514.1511],[-73.5301,-49.952,2747.9204],[-73.521,-49.9576,2814.4717],[-73.5097,-49.9612,2988.9233],[-73.5038,-49.966,3208.6196],[-73.4817,-49.9701,2965.7051],[-73.477,-49.97,2856.8555],[-73.4721,-49.967,2769.5557],[-73.453,-49.9627,3114.5911],[-73.4514,-49.9603,3161.3511],[-73.446,-49.9642,3025.3455],[-73.447,-49.9676,2968.3013],[-73.4452,-49.977,2580.3679],[-73.4413,-49.9818,2472.896],[-73.4482,-49.9851,2205.2773],[-73.444,-49.9897,2191.7808],[-73.4416,-50.0015,2283.3564],[-73.4356,-50.0099,2560.5422],[-73.448,-50.0162,2678.5137],[-73.4454,-50.0251,2157.137],[-73.447,-50.0328,2121.5073],[-73.4484,-50.0348,2121.7258],[-73.4599,-50.0399,2219.0381],[-73.4639,-50.0524,2814.011],[-73.4622,-50.0543,2900.2961],[-73.4772,-50.0535,2667.4026],[-73.4971,-50.0496,2904.7544],[-73.4944,-50.0524,2706.395],[-73.4942,-50.0553,2557.9565],[-73.4997,-50.0598,2850.6926],[-73.4833,-50.0702,2354.2776],[-73.482,-50.0722,2325.2297],[-73.4816,-50.084,2314.4868],[-73.4756,-50.0895,2344.6821],[-73.4765,-50.0906,2357.4634],[-73.4841,-50.0896,2318.717],[-73.4988,-50.0941,2208.2126],[-73.5049,-50.0981,2221.5142],[-73.5071,-50.1038,2395.4739],[-73.5141,-50.1063,2478.2881],[-73.5149,-50.1088,2401.7954],[-73.5121,-50.1158,2234.6323],[-73.5181,-50.1184,2021.916],[-73.52,-50.1222,2025.3372],[-73.5199,-50.1239,2040.3088],[-73.5142,-50.1287,2112.3882],[-73.5164,-50.1369,2103.606],[-73.5204,-50.1402,2080.4785],[-73.5181,-50.1474,2233.2207],[-73.5215,-50.1536,2694.5667],[-73.5098,-50.1566,2596.7991],[-73.5027,-50.1546,2573.6621],[-73.4985,-50.1551,2549.1301],[-73.4883,-50.1641,2430.0674],[-73.4784,-50.1671,2465.1636],[-73.4801,-50.1721,2302.7007],[-73.4694,-50.181399999999996,2001.074],[-73.4632,-50.1846,2119.6011],[-73.4563,-50.1843,2250.855],[-73.4418,-50.1799,2346.8247],[-73.4304,-50.1819,2206.2036],[-73.4275,-50.1856,2174.9263],[-73.4287,-50.19,2257.5276],[-73.4218,-50.1955,2359.3528],[-73.4213,-50.1985,2403.8447],[-73.416,-50.2003,2418.4211],[-73.4217,-50.2026,2237.2534],[-73.4243,-50.2059,2213.1287],[-73.4331,-50.207,2278.5625],[-73.4349,-50.2102,2340.9202],[-73.444,-50.2138,2342.5894],[-73.4479,-50.2174,2101.2759],[-73.4504,-50.2243,2278.4749],[-73.4479,-50.2272,2355.6084],[-73.4545,-50.2341,2312.6118],[-73.4519,-50.2412,2009.6479],[-73.4412,-50.2495,2151.3643],[-73.4283,-50.2517,2113.1289],[-73.3626,-50.3011,1869.6268],[-73.4044,-50.3358,933.4609],[-73.4256,-50.3361,921.4973],[-73.4378,-50.3436,518.8493],[-73.4283,-50.355,730.3498],[-73.4361,-50.3628,320.4019],[-73.4169,-50.3817,859.4408],[-73.4067,-50.38,761.5233],[-73.3978,-50.3708,319.2398],[-73.3702,-50.3724,853.3588],[-73.3763,-50.3759,937.3038],[-73.3837,-50.3867,783.1769],[-73.3843,-50.3912,839.8126],[-73.3875,-50.3922,942.4794],[-73.3756,-50.4161,579.0284],[-73.3583,-50.4287,1738.3673],[-73.3607,-50.4436,1947.9547],[-73.3597,-50.4461,2270.4688],[-73.3653,-50.4521,1894.5204],[-73.3598,-50.4611,1968.4464],[-73.3553,-50.4646,2368.5833],[-73.3521,-50.4728,2250.4204],[-73.3561,-50.4786,2034.6346],[-73.362,-50.4825,2101.8059],[-73.366,-50.4875,2338.2925],[-73.3581,-50.4878,2355.2222],[-73.3473,-50.4934,2196.1226],[-73.3394,-50.4951,2079.3042],[-73.3373,-50.4972,2020.4229],[-73.3379,-50.4993,1948.8685],[-73.3596,-50.5065,1878.0908],[-73.3645,-50.5186,1980.6183],[-73.36,-50.5218,2167.6665],[-73.3577,-50.535,2809.0522],[-73.3497,-50.5381,2788.2285],[-73.3488,-50.5451,2751.7705],[-73.3425,-50.5474,2701.2559],[-73.3385,-50.5557,2475.6208],[-73.3312,-50.5622,2461.6521],[-73.3316,-50.5703,2391.4712],[-73.301,-50.5731,2418.8049],[-73.2871,-50.5894,2272.9766],[-73.2424,-50.5946,2404.9763],[-73.2349,-50.6005,2253.0508],[-73.2366,-50.61,2169.0823],[-73.2356,-50.6104,2159.438],[-73.2293,-50.611,2082.9565],[-73.2212,-50.6071,2044.8529],[-73.1936,-50.6153,1608.6986],[-73.1698,-50.6379,2515.7622],[-73.1692,-50.64,2500.4106],[-73.145,-50.6514,2662.6133],[-73.1458,-50.6539,2663.0],[-73.1533,-50.6581,2650.1458],[-73.1541,-50.6638,2715.3081],[-73.1511,-50.6683,2736.7192],[-73.1619,-50.674,2434.125],[-73.1663,-50.6819,2381.3193],[-73.1651,-50.6865,2466.6321],[-73.1739,-50.6967,2378.1821],[-73.1718,-50.7023,2469.0103],[-73.1822,-50.7069,2410.4519],[-73.1846,-50.7133,2365.1104],[-73.184,-50.7178,2390.5088],[-73.1887,-50.723,2404.8809],[-73.1859,-50.7265,2387.1865],[-73.1985,-50.7407,2049.2681],[-73.1958,-50.7429,2087.6326],[-73.1851,-50.7451,1756.8252],[-73.1793,-50.7491,1328.8478],[-73.1796,-50.752,1252.6411],[-73.184,-50.7584,1248.5336],[-73.1775,-50.7603,1314.4128],[-73.1668,-50.7581,1296.1338],[-73.15,-50.7649,627.3701],[-73.1497,-50.7678,578.3268],[-73.2003,-50.8114,1543.8799],[-73.201,-50.8204,2042.623],[-73.1917,-50.8112,1917.1477],[-73.1694,-50.8011,747.5027],[-73.1455,-50.7819,196.0],[-73.1012,-50.776,1501.2416],[-73.0962,-50.7727,1471.5916],[-73.092,-50.7744,1271.4235],[-73.0915,-50.7769,1274.3673],[-73.0829,-50.7831,1387.2134],[-73.0696,-50.7892,1708.6827],[-73.0646,-50.786,1615.6384],[-73.0562,-50.7731,1530.526],[-73.0515,-50.7684,1681.8114],[-73.0438,-50.7646,1658.0979],[-73.0419,-50.7612,1532.9965],[-73.0376,-50.7612,1482.6997],[-73.0317,-50.7586,1496.0615],[-73.026,-50.7614,1342.9127],[-73.0025,-50.7634,1436.0135],[-73.0003,-50.7567,1393.3516],[-72.9845,-50.7516,1164.5182],[-72.9805,-50.7441,1361.6599],[-72.9648,-50.7397,1347.2163],[-72.9552,-50.7413,1482.5027],[-72.9504,-50.735,1337.1168],[-72.9497,-50.7288,1252.1331],[-72.9439,-50.723,1272.9796],[-72.9439,-50.7171,1422.304],[-72.9393,-50.7103,1443.1321],[-72.9407,-50.7063,1470.5566],[-72.9302,-50.7025,1478.3042],[-72.9254,-50.7043,1508.7313],[-72.9173,-50.7029,1370.2053],[-72.9069,-50.6976,1458.9554],[-72.9048,-50.695,1447.8999],[-72.9058,-50.6937,1375.8439],[-72.9026,-50.6844,1413.3079],[-72.8984,-50.6805,1319.5586],[-72.8914,-50.6699,1350.7],[-72.8866,-50.6688,1314.6165],[-72.8756,-50.6697,1168.6827],[-72.8625,-50.6617,1444.1011],[-72.8592,-50.6573,1447.1584],[-72.8508,-50.6529,1376.7466],[-72.8465,-50.6516,1358.0895],[-72.8338,-50.6531,1279.2329],[-72.8286,-50.652,1201.5723],[-72.8145,-50.6458,1248.1769],[-72.8087,-50.6451,1184.1598],[-72.8007,-50.6382,1004.0405],[-72.793,-50.6369,871.8386],[-72.7847,-50.6317,748.5679],[-72.7702,-50.6288,821.0145],[-72.7543,-50.63,944.7009],[-72.747,-50.6268,1000.9702],[-72.738,-50.6259,1026.243],[-72.7359,-50.6244,1020.997],[-72.7378,-50.6217,1061.8315],[-72.734,-50.6157,1189.2021],[-72.7305,-50.6144,1195.6339],[-72.7273,-50.6142,1204.5024],[-72.7266,-50.6177,1168.5715],[-72.7132,-50.6341,1122.3667],[-72.6926,-50.6491,1118.79],[-72.6876,-50.6477,1114.0775],[-72.6844,-50.6434,1170.8621],[-72.6811,-50.6426,1218.4099],[-72.6699,-50.6581,1148.6273],[-72.6568,-50.6635,1107.173],[-72.6536,-50.6633,1093.5846],[-72.6507,-50.6583,1134.4052],[-72.6428,-50.6542,1313.5731],[-72.6255,-50.6581,1188.4843],[-72.6144,-50.6649,1358.2124],[-72.6146,-50.6738,1339.6788],[-72.6133,-50.6754,1302.8043],[-72.5962,-50.6817,1181.8789],[-72.5861,-50.6815,1231.7692],[-72.5789,-50.6795,1383.2217],[-72.5769,-50.6773,1416.5881],[-72.5815,-50.6659,1379.3396],[-72.5799,-50.6544,1392.615],[-72.577,-50.6538,1438.7363],[-72.5754,-50.6516,1422.5156],[-72.5751,-50.647,1421.1699],[-72.5687,-50.6479,1371.0435],[-72.5614,-50.6465,1389.4316],[-72.5627,-50.6438,1371.3657],[-72.5524,-50.6354,1408.6035],[-72.5533,-50.6335,1400.7357],[-72.5476,-50.626,1361.4325],[-72.5468,-50.6218,1326.3625],[-72.541,-50.6187,1346.5295],[-72.5242,-50.6186,1275.4116],[-72.5178,-50.6154,1391.3031],[-72.5034,-50.6132,1533.8832],[-72.4979,-50.6041,1703.4875],[-72.4896,-50.6007,1664.3824],[-72.4798,-50.6024,1467.567],[-72.4532,-50.6179,1572.6066],[-72.445,-50.6162,1469.7686],[-72.4387,-50.6177,1387.6545],[-72.4257,-50.6168,1515.7595],[-72.4158,-50.6201,1713.2035],[-72.4145,-50.6212,1736.3733],[-72.4158,-50.6246,1681.2681],[-72.4147,-50.632,1754.729],[-72.4045,-50.6369,1778.7206],[-72.3997,-50.6332,1420.7296],[-72.3667,-50.6187,1419.0371],[-72.3578,-50.6168,1517.2367],[-72.3505,-50.6191,1463.8489],[-72.3461,-50.6248,1479.7629],[-72.3445,-50.6309,1509.8271],[-72.3399,-50.6337,1599.3555],[-72.3416,-50.6359,1548.1901],[-72.3378,-50.6494,1535.6978],[-72.3251,-50.651,1438.8765],[-72.3182,-50.6542,1632.5774],[-72.3025,-50.6508,1424.5421],[-72.2861,-50.6592,1792.8937],[-72.2902,-50.6669,1721.8154],[-72.2895,-50.6715,1716.0906],[-72.2952,-50.6765,1764.1919],[-72.2978,-50.6857,1802.1396],[-72.3001,-50.6872,1765.84],[-72.2982,-50.6895,1792.2498],[-72.2933,-50.6823,1717.7292],[-71.5003,-50.7117,493.636],[-70.646,-50.7368,320.0929],[-70.6301,-50.3745,422.6704],[-70.6387,-50.3681,424.0632],[-70.6311,-50.2193,123.6184],[-70.6215,-50.2125,116.7484],[-70.5808,-49.2039,225.866]]]]}}